No errors
No warnings
368 ms
data source=metars
4796 results
raw_text,station_id,observation_time,latitude,longitude,temp_c,dewpoint_c,wind_dir_degrees,wind_speed_kt,wind_gust_kt,visibility_statute_mi,altim_in_hg,sea_level_pressure_mb,corrected,auto,auto_station,maintenance_indicator_on,no_signal,lightning_sensor_off,freezing_rain_sensor_off,present_weather_sensor_off,wx_string,sky_cover,cloud_base_ft_agl,sky_cover,cloud_base_ft_agl,sky_cover,cloud_base_ft_agl,sky_cover,cloud_base_ft_agl,flight_category,three_hr_pressure_tendency_mb,maxT_c,minT_c,maxT24hr_c,minT24hr_c,precip_in,pcp3hr_in,pcp6hr_in,pcp24hr_in,snow_in,vert_vis_ft,metar_type,elevation_m
CYYN 171917Z AUTO 05005KT 2SM -SN OVC022 M01/M04 A2977 RMK VIS VRB 3/4-3 ICG SLP118,CYYN,2021-01-17T19:17:00Z,50.28,-107.68,-1.0,-4.0,50,5,,2.0,29.769686,1011.8,,TRUE,,,,,,,-SN,OVC,2200,,,,,,,IFR,,,,,,,,,,,,SPECI,814.0
CYRV 171917Z AUTO VRB02KT 9SM -RA OVC065 00/M00 A3025 RMK SLP267,CYRV,2021-01-17T19:17:00Z,50.97,-118.17,0.0,0.0,0,2,,9.0,30.250984,1026.7,,TRUE,,,,,,,-RA,OVC,6500,,,,,,,VFR,,,,,,,,,,,,SPECI,456.0
CYHD 171917Z AUTO 24003KT 8SM -SN BKN009 BKN014 OVC031 M09/M10 A2971 RMK SLP096,CYHD,2021-01-17T19:17:00Z,49.82,-92.75,-9.0,-10.0,240,3,,8.0,29.71063,1009.6,,TRUE,,,,,,,-SN,BKN,900,BKN,1400,OVC,3100,,,IFR,,,,,,,,,,,,SPECI,414.0
YBCS 171916Z AUTO 17010G20KT 9999 -RA BKN031 BKN052 BKN066 25/23 Q1004,YBCS,2021-01-17T19:16:00Z,-16.87,145.75,25.0,23.0,170,10,20,6.21,29.64567,,,TRUE,,,,,,,-RA,BKN,3100,BKN,5200,BKN,6600,,,VFR,,,,,,,,,,,,SPECI,2.0
K40B 171916Z AUTO VRB05G14KT M01/M01 A2905 RMK AO1 SLP857 T10131008 52013 P0002 ,K40B,2021-01-17T19:16:00Z,46.62,-69.52,-1.3,-0.8,0,5,14,,29.049213,985.7,,TRUE,TRUE,,,,,,,,,,,,,,,,1.3,,,,,0.02,,,,,,METAR,344.0
CYXL 171916Z VRB02KT 1/2SM SHSN VV005 M10/M11 A2972 RMK SN8 SLP099,CYXL,2021-01-17T19:16:00Z,50.12,-91.9,-10.0,-11.0,0,2,,0.5,29.719488,1009.9,,,,,,,,,SHSN,OVX,0,,,,,,,LIFR,,,,,,,,,,,500,SPECI,381.0
CYVP 171916Z 03013KT 1 1/4SM -SN DRSN VV014 M14/M16 A2978 RMK SN8 SLP090,CYVP,2021-01-17T19:16:00Z,58.12,-68.42,-14.0,-16.0,30,13,,1.25,29.778543,1009.0,,,,,,,,,-SN DRSN,OVX,0,,,,,,,LIFR,,,,,,,,,,,1400,SPECI,28.0
SBLO 171915Z 34008KT 8000 3000E -TSRA BKN012 SCT020 FEW025CB BKN100 24/24 Q1009 RERA,SBLO,2021-01-17T19:15:00Z,-23.33,-51.12,24.0,24.0,340,8,,4.97,29.793306,,,,,,,,,,-TSRA,BKN,1200,SCT,2000,FEW,2500,BKN,10000,MVFR,,,,,,,,,,,,SPECI,563.0
PAVC 171915Z AUTO 36036G49KT 1/2SM SN A2946 RMK AO2 PK WND 01052/1902 P0000 FZRANO $,PAVC,2021-01-17T19:15:00Z,55.12,-162.27,,,360,36,49,0.5,29.459646,,,TRUE,TRUE,TRUE,,,TRUE,,SN,,,,,,,,,,,,,,,0.005,,,,,,SPECI,48.0
PANW 171915Z AUTO 00000KT 1 1/2SM -SN BR OVC017 M02/M02 A2936 RMK AO2 P0000 FZRANO,PANW,2021-01-17T19:15:00Z,59.45,-157.32,-2.0,-2.0,0,0,,1.5,29.359253,,,TRUE,TRUE,,,,TRUE,,-SN BR,OVC,1700,,,,,,,IFR,,,,,,0.005,,,,,,SPECI,100.0
PAKX 171915Z AUTO 18003KT 10SM SCT090 00/00 A2935 RMK AO2,PAKX,2021-01-17T19:15:00Z,,,0.0,0.0,180,3,,10.0,29.350393,,,TRUE,TRUE,,,,,,,SCT,9000,,,,,,,VFR,,,,,,,,,,,,METAR,
LMML 171915Z 29023G35KT 9999 -RA FEW014 SCT030 13/10 Q1016 NOSIG,LMML,2021-01-17T19:15:00Z,35.85,14.47,13.0,10.0,290,23,35,6.21,30.0,,,,,,TRUE,,,,-RA,FEW,1400,SCT,3000,,,,,VFR,,,,,,,,,,,,METAR,78.0
KY63 171915Z AUTO 28010KT 10SM OVC007 M05/M06 A2980 RMK AO2 T10511058,KY63,2021-01-17T19:15:00Z,45.98,-96.0,-5.1,-5.8,280,10,,10.0,29.799213,,,TRUE,TRUE,,,,,,,OVC,700,,,,,,,IFR,,,,,,,,,,,,METAR,367.0
KY51 171915Z AUTO 30007KT 10SM BKN010 OVC017 M03/M03 A2970 RMK AO1 T10271027,KY51,2021-01-17T19:15:00Z,43.58,-90.9,-2.7,-2.7,300,7,,10.0,29.698818,,,TRUE,TRUE,,,,,,,BKN,1000,OVC,1700,,,,,MVFR,,,,,,,,,,,,METAR,390.0
KY31 171915Z AUTO 26003KT 5SM -SN SCT015 OVC022 00/M02 A2960 RMK AO2 T00031020,KY31,2021-01-17T19:15:00Z,44.25,-84.18,0.3,-2.0,260,3,,5.0,29.601377,,,TRUE,TRUE,,,,,,-SN,SCT,1500,OVC,2200,,,,,MVFR,,,,,,,,,,,,METAR,264.0
KY23 171915Z AUTO 00000KT 10SM SCT014 OVC023 M02/M05 A2973 RMK AO2 T10251053,KY23,2021-01-17T19:15:00Z,45.3,-91.63,-2.5,-5.3,0,0,,10.0,29.731298,,,TRUE,TRUE,,,,,,,SCT,1400,OVC,2300,,,,,MVFR,,,,,,,,,,,,METAR,322.0
KY19 171915Z AUTO 33010KT 10SM CLR M01/M05 A2987 RMK AO2 PWINO,KY19,2021-01-17T19:15:00Z,46.77,-100.9,-1.0,-5.0,330,10,,10.0,29.870079,,,TRUE,TRUE,,,,,TRUE,,CLR,,,,,,,,VFR,,,,,,,,,,,,METAR,591.0
KXSA 171915Z AUTO 25008KT 10SM SCT049 10/M02 A2979 RMK AO2 T00951016,KXSA,2021-01-17T19:15:00Z,37.87,-76.9,9.5,-1.6,250,8,,10.0,29.790354,,,TRUE,TRUE,,,,,,,SCT,4900,,,,,,,VFR,,,,,,,,,,,,SPECI,41.0
KX60 171915Z AUTO 28008KT 10SM CLR 14/03 A3002 RMK AO2 T01430028,KX60,2021-01-17T19:15:00Z,29.35,-82.47,14.3,2.8,280,8,,10.0,30.02067,,,TRUE,TRUE,,,,,,,CLR,,,,,,,,VFR,,,,,,,,,,,,METAR,21.0
KX07 171915Z AUTO 00000KT 10SM FEW060 15/09 A3004 RMK A01,KX07,2021-01-17T19:15:00Z,27.9,-81.62,15.0,9.0,0,0,,10.0,30.041338,,,TRUE,TRUE,,,,,,,FEW,6000,,,,,,,VFR,,,,,,,,,,,,METAR,36.0
KW96 171915Z AUTO 26008KT 10SM CLR 09/M03 A2980 RMK AO1 T00941032,KW96,2021-01-17T19:15:00Z,37.5,-77.12,9.4,-3.2,260,8,,10.0,29.799213,,,TRUE,TRUE,,,,,,,CLR,,,,,,,,VFR,,,,,,,,,,,,METAR,35.0
KW81 171915Z AUTO 23008KT 190V260 10SM CLR 08/M05 A2980 RMK AO1 T00801055,KW81,2021-01-17T19:15:00Z,37.18,-78.1,8.0,-5.5,230,8,,10.0,29.799213,,,TRUE,TRUE,,,,,,,CLR,,,,,,,,VFR,,,,,,,,,,,,METAR,121.0
KW78 171915Z AUTO 25008KT 10SM CLR 09/M03 A2983 RMK AO1 T00881034,KW78,2021-01-17T19:15:00Z,36.7,-78.85,8.8,-3.4,250,8,,10.0,29.828741,,,TRUE,TRUE,,,,,,,CLR,,,,,,,,VFR,,,,,,,,,,,,METAR,120.0
KW75 171915Z AUTO 24006KT 10SM CLR 10/M03 A2980 RMK AO1 T00971031,KW75,2021-01-17T19:15:00Z,37.6,-76.45,9.7,-3.1,240,6,,10.0,29.799213,,,TRUE,TRUE,,,,,,,CLR,,,,,,,,VFR,,,,,,,,,,,,METAR,8.0
KW29 171915Z AUTO 28011G15KT 10SM BKN050 07/M01 A2976 RMK AO2,KW29,2021-01-17T19:15:00Z,38.98,-76.33,7.0,-1.0,280,11,15,10.0,29.760826,,,TRUE,TRUE,,,,,,,BKN,5000,,,,,,,VFR,,,,,,,,,,,,METAR,1.0
KW13 171915Z AUTO 24005KT 10SM SCT046 OVC060 04/M03 A2976 RMK AO1 T00401028,KW13,2021-01-17T19:15:00Z,38.08,-78.95,4.0,-2.8,240,5,,10.0,29.760826,,,TRUE,TRUE,,,,,,,SCT,4600,OVC,6000,,,,,VFR,,,,,,,,,,,,METAR,440.0
KVVV 171915Z AUTO 34010KT 10SM OVC013 M02/M04 A2981 RMK AO2,KVVV,2021-01-17T19:15:00Z,45.3,-96.42,-2.0,-4.0,340,10,,10.0,29.811024,,,TRUE,TRUE,,,,,,,OVC,1300,,,,,,,MVFR,,,,,,,,,,,,METAR,334.0
KVUJ 171915Z AUTO 20009KT 10SM OVC045 07/M02 A2991 RMK AO2 T00721024,KVUJ,2021-01-17T19:15:00Z,35.42,-80.15,7.2,-2.4,200,9,,10.0,29.911417,,,TRUE,TRUE,,,,,,,OVC,4500,,,,,,,VFR,,,,,,,,,,,,METAR,174.0
KVTI 171915Z AUTO 29007KT 10SM CLR M02/M06 A2977 RMK AO2 T10161059,KVTI,2021-01-17T19:15:00Z,42.22,-92.02,-1.6,-5.9,290,7,,10.0,29.769686,,,TRUE,TRUE,,,,,,,CLR,,,,,,,,VFR,,,,,,,,,,,,METAR,256.0
KVNW 171915Z AUTO 25008KT 2 1/2SM -SN OVC012 00/00 A2968 RMK AO2,KVNW,2021-01-17T19:15:00Z,40.87,-84.62,0.0,0.0,250,8,,2.5,29.681103,,,TRUE,TRUE,,,,,,-SN,OVC,1200,,,,,,,IFR,,,,,,,,,,,,METAR,238.0
KVNC 171915Z AUTO 17010KT 6SM HZ OVC035 17/12 A3004 RMK AO2,KVNC,2021-01-17T19:15:00Z,27.07,-82.43,17.0,12.0,170,10,,6.0,30.041338,,,TRUE,TRUE,,,,,,HZ,OVC,3500,,,,,,,VFR,,,,,,,,,,,,SPECI,4.0
KVLL 171915Z AUTO 25005KT 10SM SCT012 SCT019 OVC042 02/00 A2964 RMK AO2 T00230001,KVLL,2021-01-17T19:15:00Z,42.55,-83.18,2.3,0.1,250,5,,10.0,29.639763,,,TRUE,TRUE,,,,,,,SCT,1200,SCT,1900,OVC,4200,,,VFR,,,,,,,,,,,,METAR,214.0
KVJI 171915Z AUTO 23006KT 10SM BKN025 OVC032 02/M04 A2978 RMK AO2 T00161039,KVJI,2021-01-17T19:15:00Z,36.68,-82.03,1.6,-3.9,230,6,,10.0,29.778543,,,TRUE,TRUE,,,,,,,BKN,2500,OVC,3200,,,,,MVFR,,,,,,,,,,,,METAR,636.0
KVER 171915Z AUTO 00000KT 7SM SCT015 BKN042 OVC080 03/00 A2986 RMK AO2 T00251003,KVER,2021-01-17T19:15:00Z,38.95,-92.68,2.5,-0.3,0,0,,7.0,29.861221,,,TRUE,TRUE,,,,,,,SCT,1500,BKN,4200,OVC,8000,,,VFR,,,,,,,,,,,,METAR,209.0
KVDF 171915Z AUTO 00000KT 10SM BKN060 16/08 A3004 RMK AO2,KVDF,2021-01-17T19:15:00Z,28.02,-82.33,16.0,8.0,0,0,,10.0,30.041338,,,TRUE,TRUE,,,,,,,BKN,6000,,,,,,,VFR,,,,,,,,,,,,SPECI,5.0
KVBW 171915Z AUTO 23007KT 10SM OVC050 05/M03 A2974 RMK AO1 T00461027,KVBW,2021-01-17T19:15:00Z,38.37,-78.97,4.6,-2.7,230,7,,10.0,29.740158,,,TRUE,TRUE,,,,,,,OVC,5000,,,,,,,VFR,,,,,,,,,,,,METAR,362.0
KUXL 171915Z AUTO 28008KT 10SM CLR 20/M04 A3007 RMK AO2 T02011044,KUXL,2021-01-17T19:15:00Z,30.13,-93.38,20.1,-4.4,280,8,,10.0,30.070866,,,TRUE,TRUE,,,,,,,CLR,,,,,,,,VFR,,,,,,,,,,,,METAR,2.0
KUTA 171915Z AUTO 29014KT 10SM CLR 10/M04 A2994 RMK AO2 TSNO,KUTA,2021-01-17T19:15:00Z,34.68,-90.35,10.0,-4.0,290,14,,10.0,29.940945,,,TRUE,TRUE,,,TRUE,,,,CLR,,,,,,,,VFR,,,,,,,,,,,,METAR,58.0
KUOX 171915Z AUTO 29016G22KT 10SM CLR 10/M06 A2992 RMK AO2 PWINO,KUOX,2021-01-17T19:15:00Z,34.38,-89.53,10.0,-6.0,290,16,22,10.0,29.920275,,,TRUE,TRUE,,,,,TRUE,,CLR,,,,,,,,VFR,,,,,,,,,,,,METAR,123.0
KUNU 171915Z AUTO 31005KT 10SM OVC014 M02/M04 A2969 RMK AO2 T10161045,KUNU,2021-01-17T19:15:00Z,43.42,-88.7,-1.6,-4.5,310,5,,10.0,29.68996,,,TRUE,TRUE,,,,,,,OVC,1400,,,,,,,MVFR,,,,,,,,,,,,SPECI,281.0
KULM 171915Z AUTO 33008KT 10SM CLR M04/M07 A2978 RMK AO2,KULM,2021-01-17T19:15:00Z,44.32,-94.5,-4.0,-7.0,330,8,,10.0,29.778543,,,TRUE,TRUE,,,,,,,CLR,,,,,,,,VFR,,,,,,,,,,,,METAR,305.0
KUKT 171915Z AUTO 24008G17KT 10SM BKN037 OVC043 05/M03 A2966 RMK A01,KUKT,2021-01-17T19:15:00Z,40.43,-75.38,5.0,-3.0,240,8,17,10.0,29.660433,,,TRUE,TRUE,,,,,,,BKN,3700,OVC,4300,,,,,VFR,,,,,,,,,,,,METAR,156.0
KUKF 171915Z AUTO 00000KT 10SM BKN050 06/M03 A2985 RMK AO2,KUKF,2021-01-17T19:15:00Z,36.22,-81.1,6.0,-3.0,0,0,,10.0,29.84941,,,TRUE,TRUE,,,,,,,BKN,5000,,,,,,,VFR,,,,,,,,,,,,METAR,383.0
KUBE 171915Z AUTO 30003KT 10SM BKN009 OVC024 M04/M06 A2972 RMK AO2,KUBE,2021-01-17T19:15:00Z,45.5,-91.98,-4.0,-6.0,300,3,,10.0,29.719488,,,TRUE,TRUE,,,,,,,BKN,900,OVC,2400,,,,,IFR,,,,,,,,,,,,METAR,376.0
KU42 171915Z AUTO 15009KT 10SM CLR 06/00 A3029 RMK AO1 T00621001,KU42,2021-01-17T19:15:00Z,40.62,-111.98,6.2,-0.1,150,9,,10.0,30.28937,,,TRUE,TRUE,,,,,,,CLR,,,,,,,,VFR,,,,,,,,,,,,METAR,1399.0
KTWM 171915Z AUTO 00000KT 10SM OVC021 M03/M08 A2972 RMK AO2,KTWM,2021-01-17T19:15:00Z,47.05,-91.75,-3.0,-8.0,0,0,,10.0,29.719488,,,TRUE,TRUE,,,,,,,OVC,2100,,,,,,,MVFR,,,,,,,,,,,,METAR,331.0
KTVY 171915Z AUTO 05005KT 10SM CLR 06/00 A3029 RMK AO2,KTVY,2021-01-17T19:15:00Z,40.62,-112.35,6.0,0.0,50,5,,10.0,30.28937,,,TRUE,TRUE,,,,,,,CLR,,,,,,,,VFR,,,,,,,,,,,,METAR,1310.0
KTTA 171915Z AUTO 22004KT 10SM CLR 09/M03 A2986 RMK AO2 T00851032,KTTA,2021-01-17T19:15:00Z,35.58,-79.1,8.5,-3.2,220,4,,10.0,29.861221,,,TRUE,TRUE,,,,,,,CLR,,,,,,,,VFR,,,,,,,,,,,,METAR,71.0
KTOB 171915Z AUTO 31003KT 4SM BR OVC003 M08/M09 A2974 RMK AO2,KTOB,2021-01-17T19:15:00Z,44.02,-92.82,-8.0,-9.0,310,3,,4.0,29.740158,,,TRUE,TRUE,,,,,,BR,OVC,300,,,,,,,LIFR,,,,,,,,,,,,METAR,394.0
KTNU 171915Z AUTO 29013KT 8SM OVC013 M01/M02 A2978 RMK A01,KTNU,2021-01-17T19:15:00Z,41.67,-93.02,-1.0,-2.0,290,13,,8.0,29.778543,,,TRUE,TRUE,,,,,,,OVC,1300,,,,,,,MVFR,,,,,,,,,,,,METAR,287.0
KTME 171915Z AUTO 34009KT 8SM CLR 19/M03 A3010 RMK AO2,KTME,2021-01-17T19:15:00Z,29.8,-95.9,19.0,-3.0,340,9,,8.0,30.100393,,,TRUE,TRUE,,,,,,,CLR,,,,,,,,VFR,,,,,,,,,,,,METAR,49.0
KTKX 171915Z AUTO 27008G16KT 10SM CLR 07/M03 A2988 RMK AO2 TSNO,KTKX,2021-01-17T19:15:00Z,36.22,-90.03,7.0,-3.0,270,8,16,10.0,29.878937,,,TRUE,TRUE,,,TRUE,,,,CLR,,,,,,,,VFR,,,,,,,,,,,,METAR,73.0
KTKV 171915Z AUTO 35005KT 10SM OVC014 M04/M07 A2969 RMK AO2 T10451072 PWINO,KTKV,2021-01-17T19:15:00Z,45.47,-89.82,-4.5,-7.2,350,5,,10.0,29.68996,,,TRUE,TRUE,,,,,TRUE,,OVC,1400,,,,,,,MVFR,,,,,,,,,,,,METAR,449.0
KTKC 171915Z AUTO 33011KT 10SM OVC012 M01/M05 A2980 RMK AO2 T10131049,KTKC,2021-01-17T19:15:00Z,44.25,-95.62,-1.3,-4.9,330,11,,10.0,29.799213,,,TRUE,TRUE,,,,,,,OVC,1200,,,,,,,MVFR,,,,,,,,,,,,METAR,408.0
KTEW 171915Z AUTO 00000KT 2 1/2SM -SN SCT010 BKN013 OVC030 01/00 A2963 RMK AO2 T00101004,KTEW,2021-01-17T19:15:00Z,42.57,-84.42,1.0,-0.4,0,0,,2.5,29.630905,,,TRUE,TRUE,,,,,,-SN,SCT,1000,BKN,1300,OVC,3000,,,IFR,,,,,,,,,,,,METAR,281.0
KT69 171915Z AUTO 00000KT 10SM CLR 21/09 A3009 RMK A01,KT69,2021-01-17T19:15:00Z,28.03,-97.55,21.0,9.0,0,0,,10.0,30.088583,,,TRUE,TRUE,,,,,,,CLR,,,,,,,,VFR,,,,,,,,,,,,METAR,15.0
KSYN 171915Z AUTO 28005KT 3SM BR OVC004 M07/M08 A2977 RMK AO2 T10661076,KSYN,2021-01-17T19:15:00Z,44.47,-93.02,-6.6,-7.6,280,5,,3.0,29.769686,,,TRUE,TRUE,,,,,,BR,OVC,400,,,,,,,LIFR,,,,,,,,,,,,METAR,280.0
KSYM 171915Z AUTO 22014KT 9SM -UP BKN013 BKN017 OVC039 02/M00 A2976 RMK AO2,KSYM,2021-01-17T19:15:00Z,38.22,-83.58,2.0,0.0,220,14,,9.0,29.760826,,,TRUE,TRUE,,,,,,UP,BKN,1300,BKN,1700,OVC,3900,,,MVFR,,,,,,,,,,,,METAR,307.0
KSXU 171915Z AUTO 19003KT 10SM CLR 06/M08 A3010 RMK AO2 T00561079,KSXU,2021-01-17T19:15:00Z,34.93,-104.65,5.6,-7.9,190,3,,10.0,30.100393,,,TRUE,TRUE,,,,,,,CLR,,,,,,,,VFR,,,,,,,,,,,,METAR,1465.0
KSXK 171915Z AUTO 31014KT 10SM OVC044 00/00 A2983 RMK AO2,KSXK,2021-01-17T19:15:00Z,42.98,-96.17,0.0,0.0,310,14,,10.0,29.828741,,,TRUE,TRUE,,,,,,,OVC,4400,,,,,,,VFR,,,,,,,,,,,,METAR,430.0
KSVH 171915Z AUTO 19007KT 10SM SCT047 08/M04 A2982 RMK AO2 T00811036,KSVH,2021-01-17T19:15:00Z,35.75,-80.95,8.1,-3.6,190,7,,10.0,29.819881,,,TRUE,TRUE,,,,,,,SCT,4700,,,,,,,VFR,,,,,,,,,,,,METAR,286.0
KSVE 171915Z AUTO 00000KT 10SM CLR 08/02 A3038 RMK AO2,KSVE,2021-01-17T19:15:00Z,40.37,-120.57,8.0,2.0,0,0,,10.0,30.380905,,,TRUE,TRUE,,,,,,,CLR,,,,,,,,VFR,,,,,,,,,,,,METAR,1263.0
KSVC 171915Z AUTO 19009KT 10SM CLR 17/M15 A3017 RMK AO2 T01651147,KSVC,2021-01-17T19:15:00Z,32.63,-108.15,16.5,-14.7,190,9,,10.0,30.171259,,,TRUE,TRUE,,,,,,,CLR,,,,,,,,VFR,,,,,,,,,,,,METAR,1638.0
KSUZ 171915Z AUTO 32007G17KT 6SM HZ CLR 12/M06 A2995 RMK A01,KSUZ,2021-01-17T19:15:00Z,34.58,-92.48,12.0,-6.0,320,7,17,6.0,29.949802,,,TRUE,TRUE,,,,,,HZ,CLR,,,,,,,,VFR,,,,,,,,,,,,METAR,114.0
KSUW 171915Z AUTO 26004KT 10SM OVC018 M03/M07 A2976 RMK AO2 T10301068,KSUW,2021-01-17T19:15:00Z,46.68,-92.1,-3.0,-6.8,260,4,,10.0,29.760826,,,TRUE,TRUE,,,,,,,OVC,1800,,,,,,,MVFR,,,,,,,,,,,,SPECI,205.0
KSUT 171915Z AUTO 24014G19KT 10SM CLR 09/M01 A2992 RMK AO2 T00931012,KSUT,2021-01-17T19:15:00Z,33.93,-78.08,9.3,-1.2,240,14,19,10.0,29.920275,,,TRUE,TRUE,,,,,,,CLR,,,,,,,,VFR,,,,,,,,,,,,METAR,6.0
KSTF 171915Z AUTO 29006KT 10SM SCT080 SCT085 12/M03 A2993 RMK AO2,KSTF,2021-01-17T19:15:00Z,33.43,-88.85,12.0,-3.0,290,6,,10.0,29.929134,,,TRUE,TRUE,,,,,,,SCT,8000,SCT,8500,,,,,VFR,,,,,,,,,,,,SPECI,99.0
KSRR 171915Z AUTO 30017G25KT 10SM CLR 12/M23 A3015 RMK AO2,KSRR,2021-01-17T19:15:00Z,33.47,-105.52,12.0,-23.0,300,17,25,10.0,30.15059,,,TRUE,TRUE,,,,,,,CLR,,,,,,,,VFR,,,,,,,,,,,,METAR,2063.0
KSPF 171915Z AUTO 27010KT 10SM SCT065 OVC075 04/M10 A2987 RMK AO2 PWINO,KSPF,2021-01-17T19:15:00Z,44.47,-103.78,4.0,-10.0,270,10,,10.0,29.870079,,,TRUE,TRUE,,,,,TRUE,,SCT,6500,OVC,7500,,,,,VFR,,,,,,,,,,,,METAR,1191.0
KSPA 171915Z AUTO 25007KT 10SM SCT048 07/M05 A2987 RMK AO2,KSPA,2021-01-17T19:15:00Z,34.92,-81.95,7.0,-5.0,250,7,,10.0,29.870079,,,TRUE,TRUE,,,,,,,SCT,4800,,,,,,,VFR,,,,,,,,,,,,METAR,242.0
KSOW 171915Z AUTO 00000KT 10SM CLR 11/M16 A3026 RMK AO2,KSOW,2021-01-17T19:15:00Z,34.27,-110.0,11.0,-16.0,0,0,,10.0,30.259842,,,TRUE,TRUE,,,,,,,CLR,,,,,,,,VFR,,,,,,,,,,,,METAR,1954.0
KSNC 171915Z AUTO 27010G18KT 230V320 10SM OVC045 06/M05 A2954 RMK AO2,KSNC,2021-01-17T19:15:00Z,41.38,-72.5,6.0,-5.0,270,10,18,10.0,29.53937,,,TRUE,TRUE,,,,,,,OVC,4500,,,,,,,VFR,,,,,,,,,,,,METAR,114.0
KSMS 171915Z AUTO 24010G16KT 10SM CLR 11/M02 A2992 RMK AO2,KSMS,2021-01-17T19:15:00Z,34.0,-80.37,11.0,-2.0,240,10,16,10.0,29.920275,,,TRUE,TRUE,,,,,,,CLR,,,,,,,,VFR,,,,,,,,,,,,METAR,53.0
KSLH 171915Z AUTO 32004KT 10SM CLR M02/M05 A2963 RMK AO2,KSLH,2021-01-17T19:15:00Z,45.65,-84.52,-2.0,-5.0,320,4,,10.0,29.630905,,,TRUE,TRUE,,,,,,,CLR,,,,,,,,VFR,,,,,,,,,,,,METAR,193.0
KSLB 171915Z AUTO 34012G18KT 10SM BKN011 M03/M03 RMK AO2,KSLB,2021-01-17T19:15:00Z,42.6,-95.23,-3.0,-3.0,340,12,18,10.0,,,,TRUE,TRUE,,,,,,,BKN,1100,,,,,,,MVFR,,,,,,,,,,,,METAR,450.0
KSJX 171915Z AUTO 03006KT 10SM BKN034 OVC045 M02/M05 A2965 RMK AO2 T10171055,KSJX,2021-01-17T19:15:00Z,45.7,-85.57,-1.7,-5.5,30,6,,10.0,29.648623,,,TRUE,TRUE,,,,,,,BKN,3400,OVC,4500,,,,,VFR,,,,,,,,,,,,METAR,202.0
KSIK 171915Z AUTO 27010G15KT 10SM CLR 07/M02 A2986 RMK AO2 TSNO,KSIK,2021-01-17T19:15:00Z,36.9,-89.57,7.0,-2.0,270,10,15,10.0,29.861221,,,TRUE,TRUE,,,TRUE,,,,CLR,,,,,,,,VFR,,,,,,,,,,,,SPECI,95.0
KSHL 171915Z AUTO 33012KT 10SM SCT015 OVC045 M01/M02 A2980 RMK AO2,KSHL,2021-01-17T19:15:00Z,43.22,-95.83,-1.0,-2.0,330,12,,10.0,29.799213,,,TRUE,TRUE,,,,,,,SCT,1500,OVC,4500,,,,,VFR,,,,,,,,,,,,METAR,430.0
KSHD 171915Z AUTO 23007KT 10SM BKN048 OVC055 04/M03 A2978 RMK AO2 T00431029,KSHD,2021-01-17T19:15:00Z,38.27,-78.9,4.3,-2.9,230,7,,10.0,29.778543,,,TRUE,TRUE,,,,,,,BKN,4800,OVC,5500,,,,,VFR,,,,,,,,,,,,METAR,360.0
KSGS 171915Z AUTO 34005KT 10SM BKN007 M05/M07 A2978 RMK AO2 T10511066,KSGS,2021-01-17T19:15:00Z,44.87,-93.03,-5.1,-6.6,340,5,,10.0,29.778543,,,TRUE,TRUE,,,,,,,BKN,700,,,,,,,IFR,,,,,,,,,,,,METAR,250.0
KSFQ 171915Z AUTO 25009KT 10SM CLR 10/00 A2983 RMK AO2 T01011004,KSFQ,2021-01-17T19:15:00Z,36.68,-76.6,10.1,-0.4,250,9,,10.0,29.828741,,,TRUE,TRUE,,,,,,,CLR,,,,,,,,VFR,,,,,,,,,,,,METAR,19.0
KSEM 171915Z AUTO 21008KT 9SM CLR 13/M01 A2996 RMK AO2,KSEM,2021-01-17T19:15:00Z,32.35,-86.98,13.0,-1.0,210,8,,9.0,29.958662,,,TRUE,TRUE,,,,,,,CLR,,,,,,,,VFR,,,,,,,,,,,,METAR,48.0
KSDC 171915Z AUTO 29003KT 10SM SCT025 BKN031 OVC039 03/M01 A2957 RMK AO2,KSDC,2021-01-17T19:15:00Z,43.23,-77.12,3.0,-1.0,290,3,,10.0,29.568897,,,TRUE,TRUE,,,,,,,SCT,2500,BKN,3100,OVC,3900,,,VFR,,,,,,,,,,,,METAR,127.0
KSDA 171915Z AUTO 30010G15KT 10SM BKN025 02/M01 A2987 RMK AO2,KSDA,2021-01-17T19:15:00Z,40.75,-95.42,2.0,-1.0,300,10,15,10.0,29.870079,,,TRUE,TRUE,,,,,,,BKN,2500,,,,,,,MVFR,,,,,,,,,,,,METAR,293.0
KSCR 171915Z AUTO 25004G15KT 10SM CLR 08/M04 A2985 RMK AO2 T00831039,KSCR,2021-01-17T19:15:00Z,35.7,-79.5,8.3,-3.9,250,4,15,10.0,29.84941,,,TRUE,TRUE,,,,,,,CLR,,,,,,,,VFR,,,,,,,,,,,,METAR,182.0
KSAZ 171915Z AUTO 30005KT 4SM BR OVC007 M06/M06 A2976 RMK AO2,KSAZ,2021-01-17T19:15:00Z,46.37,-94.8,-6.0,-6.0,300,5,,4.0,29.760826,,,TRUE,TRUE,,,,,,BR,OVC,700,,,,,,,IFR,,,,,,,,,,,,METAR,391.0
KS71 171915Z AUTO 00000KT 10SM M02/M03 A2981 ,KS71,2021-01-17T19:15:00Z,48.6,-109.25,-2.0,-3.0,0,0,,10.0,29.811024,,,TRUE,,,,,,,,,,,,,,,,,,,,,,,,,,,,METAR,736.0
KS33 171915Z AUTO 27004KT 10SM CLR 10/02 A3041 RMK AO2,KS33,2021-01-17T19:15:00Z,44.67,-121.15,10.0,2.0,270,4,,10.0,30.410433,,,TRUE,TRUE,,,,,,,CLR,,,,,,,,VFR,,,,,,,,,,,,METAR,739.0
KS25 171915Z AUTO 22004KT 10SM CLR M02/M05 A2986 RMK AO2 PWINO,KS25,2021-01-17T19:15:00Z,47.8,-103.25,-2.0,-5.0,220,4,,10.0,29.861221,,,TRUE,TRUE,,,,,TRUE,,CLR,,,,,,,,VFR,,,,,,,,,,,,METAR,632.0
KRZT 171915Z AUTO 23007KT 10SM SCT012 BKN025 OVC031 02/00 A2973 RMK AO2 PWINO,KRZT,2021-01-17T19:15:00Z,39.43,-83.02,2.0,0.0,230,7,,10.0,29.731298,,,TRUE,TRUE,,,,,TRUE,,SCT,1200,BKN,2500,OVC,3100,,,MVFR,,,,,,,,,,,,METAR,217.0
KRZN 171915Z AUTO 28004KT 10SM OVC008 M05/M07 A2976 RMK AO2 T10471067,KRZN,2021-01-17T19:15:00Z,45.82,-92.37,-4.7,-6.7,280,4,,10.0,29.760826,,,TRUE,TRUE,,,,,,,OVC,800,,,,,,,IFR,,,,,,,,,,,,METAR,301.0
KRZL 171915Z AUTO 25007KT 10SM OVC013 M01/M03 A2971 RMK AO2,KRZL,2021-01-17T19:15:00Z,40.95,-87.18,-1.0,-3.0,250,7,,10.0,29.71063,,,TRUE,TRUE,,,,,,,OVC,1300,,,,,,,MVFR,,,,,,,,,,,,METAR,210.0
KRYV 171915Z AUTO 30004KT 10SM OVC015 M01/M04 A2968 RMK AO2 T10121036,KRYV,2021-01-17T19:15:00Z,43.17,-88.72,-1.2,-3.6,300,4,,10.0,29.681103,,,TRUE,TRUE,,,,,,,OVC,1500,,,,,,,MVFR,,,,,,,,,,,,METAR,249.0
KRVL 171915Z AUTO 24009G19KT 10SM BKN033 OVC039 04/M00 A2967 RMK AO2,KRVL,2021-01-17T19:15:00Z,40.68,-77.63,4.0,0.0,240,9,19,10.0,29.66929,,,TRUE,TRUE,,,,,,,BKN,3300,OVC,3900,,,,,VFR,,,,,,,,,,,,METAR,250.0
KRUG 171915Z AUTO 29008KT 10SM CLR M03/M07 A2985 RMK AO2,KRUG,2021-01-17T19:15:00Z,48.38,-100.02,-3.0,-7.0,290,8,,10.0,29.84941,,,TRUE,TRUE,,,,,,,CLR,,,,,,,,VFR,,,,,,,,,,,,METAR,469.0
KRRT 171915Z AUTO 30005KT 10SM -SN BKN011 OVC026 M08/M09 A2980 RMK AO2,KRRT,2021-01-17T19:15:00Z,48.93,-95.33,-8.0,-9.0,300,5,,10.0,29.799213,,,TRUE,TRUE,,,,,,-SN,BKN,1100,OVC,2600,,,,,MVFR,,,,,,,,,,,,METAR,327.0
KRRL 171915Z AUTO 30006KT 10SM OVC015 M04/M07 A2968 RMK AO2 T10371072 TSNO,KRRL,2021-01-17T19:15:00Z,45.2,-89.72,-3.7,-7.2,300,6,,10.0,29.681103,,,TRUE,TRUE,,,TRUE,,,,OVC,1500,,,,,,,MVFR,,,,,,,,,,,,SPECI,397.0
KRPD 171915Z AUTO 29006KT 10SM BKN014 OVC022 M03/M06 A2975 RMK AO2 T10291059,KRPD,2021-01-17T19:15:00Z,45.42,-91.77,-2.9,-5.9,290,6,,10.0,29.749016,,,TRUE,TRUE,,,,,,,BKN,1400,OVC,2200,,,,,MVFR,,,,,,,,,,,,METAR,334.0
KROX 171915Z 32009KT 10SM -SN BKN018 OVC027 A2981 RMK AO2 TSNO,KROX,2021-01-17T19:15:00Z,48.85,-95.7,,,320,9,,10.0,29.811024,,,,TRUE,,,TRUE,,,-SN,BKN,1800,OVC,2700,,,,,MVFR,,,,,,,,,,,,METAR,320.0
KROS 171915Z AUTO 00000KT 10SM OVC008 M06/M07 A2977 RMK AO2 T10651075,KROS,2021-01-17T19:15:00Z,45.7,-92.95,-6.5,-7.5,0,0,,10.0,29.769686,,,TRUE,TRUE,,,,,,,OVC,800,,,,,,,IFR,,,,,,,,,,,,METAR,282.0
KRNP 171915Z AUTO 29005KT 10SM -SN SCT017 02/00 A2963 RMK AO2 T00151003,KRNP,2021-01-17T19:15:00Z,43.0,-84.13,1.5,-0.3,290,5,,10.0,29.630905,,,TRUE,TRUE,,,,,,-SN,SCT,1700,,,,,,,VFR,,,,,,,,,,,,METAR,224.0
KRNH 171915Z AUTO 31005KT 10SM OVC006 M05/M08 A2976 RMK AO2 T10541076,KRNH,2021-01-17T19:15:00Z,45.15,-92.53,-5.4,-7.6,310,5,,10.0,29.760826,,,TRUE,TRUE,,,,,,,OVC,600,,,,,,,IFR,,,,,,,,,,,,METAR,302.0
KRMY 171915Z AUTO 23006KT 2SM -SN OVC007 01/00 A2963 RMK AO2 T00061001,KRMY,2021-01-17T19:15:00Z,42.25,-84.95,0.6,-0.1,230,6,,2.0,29.630905,,,TRUE,TRUE,,,,,,-SN,OVC,700,,,,,,,IFR,,,,,,,,,,,,METAR,285.0
KRMN 171915Z AUTO 24012G16KT 10SM BKN060 09/M11 A2981 RMK AO2 T00881110,KRMN,2021-01-17T19:15:00Z,38.4,-77.45,8.8,-11.0,240,12,16,10.0,29.811024,,,TRUE,TRUE,,,,,,,BKN,6000,,,,,,,VFR,,,,,,,,,,,,METAR,50.0
KRID 171915Z AUTO 24013G16KT 1 3/4SM -SN BKN007 BKN011 OVC016 00/00 A2969 RMK AO2,KRID,2021-01-17T19:15:00Z,39.75,-84.85,0.0,0.0,240,13,16,1.75,29.68996,,,TRUE,TRUE,,,,,,-SN,BKN,700,BKN,1100,OVC,1600,,,IFR,,,,,,,,,,,,SPECI,346.0
KRGK 171915Z AUTO 28004KT 10SM BKN010 OVC026 M03/M06 A2976 RMK AO2,KRGK,2021-01-17T19:15:00Z,44.58,-92.48,-3.0,-6.0,280,4,,10.0,29.760826,,,TRUE,TRUE,,,,,,,BKN,1000,OVC,2600,,,,,MVFR,,,,,,,,,,,,METAR,238.0
KRFI 171915Z AUTO 29010G14KT 260V320 10SM SCT120 14/M05 A3009 RMK AO2 T01431051,KRFI,2021-01-17T19:15:00Z,32.15,-94.85,14.3,-5.1,290,10,14,10.0,30.088583,,,TRUE,TRUE,,,,,,,SCT,12000,,,,,,,VFR,,,,,,,,,,,,METAR,133.0
KRDK 171915Z AUTO 30011G18KT 10SM SCT022 02/M02 A2987 RMK AO2,KRDK,2021-01-17T19:15:00Z,41.02,-95.27,2.0,-2.0,300,11,18,10.0,29.870079,,,TRUE,TRUE,,,,,,,SCT,2200,,,,,,,VFR,,,,,,,,,,,,METAR,317.0
KRCZ 171915Z AUTO 22010G15KT 10SM SCT045 08/M03 A2989 RMK AO2 T00791029,KRCZ,2021-01-17T19:15:00Z,34.88,-79.77,7.9,-2.9,220,10,15,10.0,29.890747,,,TRUE,TRUE,,,,,,,SCT,4500,,,,,,,VFR,,,,,,,,,,,,SPECI,110.0
KRCX 171915Z AUTO 34003KT 4SM BR M02/M03 A2972 RMK AO2 T10171030,KRCX,2021-01-17T19:15:00Z,45.5,-91.0,-1.7,-3.0,340,3,,4.0,29.719488,,,TRUE,TRUE,,,,,,BR,,,,,,,,,,,,,,,,,,,,,METAR,373.0
KRCM 171915Z AUTO 28012G21KT 10SM SCT030 OVC055 04/M02 A2987 RMK AO2,KRCM,2021-01-17T19:15:00Z,38.78,-93.8,4.0,-2.0,280,12,21,10.0,29.870079,,,TRUE,TRUE,,,,,,,SCT,3000,OVC,5500,,,,,VFR,,,,,,,,,,,,METAR,242.0
KRCE 171915Z AUTO 32017G24KT 10SM CLR 11/M07 A3006 RMK AO2,KRCE,2021-01-17T19:15:00Z,35.48,-97.82,11.0,-7.0,320,17,24,10.0,30.059055,,,TRUE,TRUE,,,,,,,CLR,,,,,,,,VFR,,,,,,,,,,,,METAR,412.0
KRBW 171915Z AUTO 24012G16KT 10SM CLR 11/M02 A2995 RMK AO2,KRBW,2021-01-17T19:15:00Z,32.92,-80.63,11.0,-2.0,240,12,16,10.0,29.949802,,,TRUE,TRUE,,,,,,,CLR,,,,,,,,VFR,,,,,,,,,,,,METAR,30.0
KRAW 171915Z AUTO 31009G16KT 270V340 10SM SCT028 SCT055 OVC100 04/M02 A2988 RMK AO2 T00351022,KRAW,2021-01-17T19:15:00Z,38.35,-93.35,3.5,-2.2,310,9,16,10.0,29.878937,,,TRUE,TRUE,,,,,,,SCT,2800,SCT,5500,OVC,10000,,,VFR,,,,,,,,,,,,METAR,285.0
KPZQ 171915Z AUTO 35006KT 10SM OVC019 M01/M04 A2963 RMK AO2 T10131045,KPZQ,2021-01-17T19:15:00Z,45.4,-83.82,-1.3,-4.5,350,6,,10.0,29.630905,,,TRUE,TRUE,,,,,,,OVC,1900,,,,,,,MVFR,,,,,,,,,,,,METAR,199.0
KPWC 171915Z AUTO 01005KT 7SM OVC007 M06/M07 A2979 RMK AO2,KPWC,2021-01-17T19:15:00Z,46.72,-94.38,-6.0,-7.0,10,5,,7.0,29.790354,,,TRUE,TRUE,,,,,,,OVC,700,,,,,,,IFR,,,,,,,,,,,,METAR,394.0
KPVB 171915Z AUTO 32006KT 10SM SCT022 BKN028 OVC032 M01/M04 A2971 RMK AO1 T10071039,KPVB,2021-01-17T19:15:00Z,42.68,-90.43,-0.7,-3.9,320,6,,10.0,29.71063,,,TRUE,TRUE,,,,,,,SCT,2200,BKN,2800,OVC,3200,,,MVFR,,,,,,,,,,,,METAR,311.0
KPTS 171915Z AUTO 28007G15KT 250V320 10SM BKN095 08/M01 A2992 RMK AO2 T00811008,KPTS,2021-01-17T19:15:00Z,37.45,-94.73,8.1,-0.8,280,7,15,10.0,29.920275,,,TRUE,TRUE,,,,,,,BKN,9500,,,,,,,VFR,,,,,,,,,,,,METAR,286.0
KPTB 171915Z AUTO 22009G14KT 10SM CLR 09/M04 A2982 RMK AO2 T00941037,KPTB,2021-01-17T19:15:00Z,37.17,-77.52,9.4,-3.7,220,9,14,10.0,29.819881,,,TRUE,TRUE,,,,,,,CLR,,,,,,,,VFR,,,,,,,,,,,,SPECI,56.0
KPSK 171915Z AUTO 25012G19KT 10SM OVC050 02/M02 A2980 RMK AO2 T00151022,KPSK,2021-01-17T19:15:00Z,37.13,-80.67,1.5,-2.2,250,12,19,10.0,29.799213,,,TRUE,TRUE,,,,,,,OVC,5000,,,,,,,VFR,,,,,,,,,,,,METAR,629.0
KPRO 171915Z AUTO 33013KT 10SM OVC017 00/M04 A2982 RMK AO2 T10051043,KPRO,2021-01-17T19:15:00Z,41.83,-94.17,-0.5,-4.3,330,13,,10.0,29.819881,,,TRUE,TRUE,,,,,,,OVC,1700,,,,,,,MVFR,,,,,,,,,,,,METAR,308.0
KPQN 171915Z AUTO 33010G16KT M01/M03 A2979 RMK AO2 PWINO,KPQN,2021-01-17T19:15:00Z,43.98,-96.28,-1.0,-3.0,330,10,16,,29.790354,,,TRUE,TRUE,,,,,TRUE,,,,,,,,,,,,,,,,,,,,,,METAR,529.0
KPOV 171915Z AUTO 25009KT 10SM BKN015 OVC023 01/M02 A2965 RMK AO2 T00081022 PWINO,KPOV,2021-01-17T19:15:00Z,41.22,-81.25,0.8,-2.2,250,9,,10.0,29.648623,,,TRUE,TRUE,,,,,TRUE,,BKN,1500,OVC,2300,,,,,MVFR,,,,,,,,,,,,METAR,363.0
KPO1 171915Z AUTO 00000KT 9SM M01/M06 A2984 ,KPO1,2021-01-17T19:15:00Z,48.13,-105.17,-1.0,-6.0,0,0,,9.0,29.840551,,,TRUE,,,,,,,,,,,,,,,,,,,,,,,,,,,,METAR,621.0
KPMH 171915Z AUTO 00000KT 4SM -RA BKN014 BKN019 OVC027 02/01 A2976 RMK AO2 T00200012,KPMH,2021-01-17T19:15:00Z,38.83,-82.85,2.0,1.2,0,0,,4.0,29.760826,,,TRUE,TRUE,,,,,,-RA,BKN,1400,BKN,1900,OVC,2700,,,MVFR,,,,,,,,,,,,METAR,200.0
KPLR 171915Z AUTO 21012G17KT 10SM CLR 12/M03 A2991 RMK A01,KPLR,2021-01-17T19:15:00Z,33.57,-86.25,12.0,-3.0,210,12,17,10.0,29.911417,,,TRUE,TRUE,,,,,,,CLR,,,,,,,,VFR,,,,,,,,,,,,METAR,145.0
KPLD 171915Z AUTO 27006KT 3SM -SN SCT010 BKN038 OVC044 00/M01 A2968 RMK AO2,KPLD,2021-01-17T19:15:00Z,40.45,-84.98,0.0,-1.0,270,6,,3.0,29.681103,,,TRUE,TRUE,,,,,,-SN,SCT,1000,BKN,3800,OVC,4400,,,MVFR,,,,,,,,,,,,SPECI,282.0
KPJC 171915Z AUTO 23008KT 10SM SCT024 OVC030 02/M01 A2968 RMK AO2,KPJC,2021-01-17T19:15:00Z,40.8,-80.17,2.0,-1.0,230,8,,10.0,29.681103,,,TRUE,TRUE,,,,,,,SCT,2400,OVC,3000,,,,,MVFR,,,,,,,,,,,,METAR,273.0
KPGV 171915Z AUTO 21005G09KT 10SM CLR 10/M03 A2989 RMK AO2,KPGV,2021-01-17T19:15:00Z,35.63,-77.4,10.0,-3.0,210,5,9,10.0,29.890747,,,TRUE,TRUE,,,,,,,CLR,,,,,,,,VFR,,,,,,,,,,,,METAR,6.0
KPEX 171915Z AUTO 32004KT 5SM BR OVC008 M05/M05 A2977 RMK AO2,KPEX,2021-01-17T19:15:00Z,45.37,-94.73,-5.0,-5.0,320,4,,5.0,29.769686,,,TRUE,TRUE,,,,,,BR,OVC,800,,,,,,,IFR,,,,,,,,,,,,METAR,359.0
KPEA 171915Z AUTO 30006KT 10SM BKN014 BKN024 OVC030 00/M03 A2980 RMK AO2 T00001035,KPEA,2021-01-17T19:15:00Z,41.4,-92.95,0.0,-3.5,300,6,,10.0,29.799213,,,TRUE,TRUE,,,,,,,BKN,1400,BKN,2400,OVC,3000,,,MVFR,,,,,,,,,,,,METAR,264.0
KPDC 171915Z AUTO 31005KT 10SM OVC014 M01/M05 A2975 RMK AO2 T10131050,KPDC,2021-01-17T19:15:00Z,43.02,-91.12,-1.3,-5.0,310,5,,10.0,29.749016,,,TRUE,TRUE,,,,,,,OVC,1400,,,,,,,MVFR,,,,,,,,,,,,METAR,201.0
KPCZ 171915Z AUTO 34003KT 10SM OVC026 00/M06 A2970 RMK AO2 T10021062,KPCZ,2021-01-17T19:15:00Z,44.33,-89.02,-0.2,-6.2,340,3,,10.0,29.698818,,,TRUE,TRUE,,,,,,,OVC,2600,,,,,,,MVFR,,,,,,,,,,,,METAR,248.0
KPBH 171915Z AUTO 33006KT 10SM OVC016 M04/M07 A2969 RMK AO2 T10431070,KPBH,2021-01-17T19:15:00Z,45.7,-90.4,-4.3,-7.0,330,6,,10.0,29.68996,,,TRUE,TRUE,,,,,,,OVC,1600,,,,,,,MVFR,,,,,,,,,,,,SPECI,445.0
KPAN 171915Z AUTO 21004KT 10SM CLR 17/M23 A3020 RMK AO2,KPAN,2021-01-17T19:15:00Z,34.25,-111.33,17.0,-23.0,210,4,,10.0,30.200787,,,TRUE,TRUE,,,,,,,CLR,,,,,,,,VFR,,,,,,,,,,,,METAR,1575.0
KOZW 171915Z AUTO 25006KT 5SM BR SCT008 BKN029 OVC045 01/00 A2962 RMK AO2 T00110000,KOZW,2021-01-17T19:15:00Z,42.62,-83.98,1.1,0.0,250,6,,5.0,29.619095,,,TRUE,TRUE,,,,,,BR,SCT,800,BKN,2900,OVC,4500,,,MVFR,,,,,,,,,,,,METAR,288.0
KOZS 171915Z AUTO 25011KT 10SM SCT048 BKN090 OVC110 03/M04 A2985 RMK AO2,KOZS,2021-01-17T19:15:00Z,37.97,-92.68,3.0,-4.0,250,11,,10.0,29.84941,,,TRUE,TRUE,,,,,,,SCT,4800,BKN,9000,OVC,11000,,,VFR,,,,,,,,,,,,METAR,321.0
KOSC 171915Z AUTO 03003KT 10SM OVC013 00/M02 A2961 RMK AO2 T00001023,KOSC,2021-01-17T19:15:00Z,44.45,-83.4,0.0,-2.3,30,3,,10.0,29.610237,,,TRUE,TRUE,,,,,,,OVC,1300,,,,,,,MVFR,,,,,,,,,,,,METAR,191.0
KORS 171915Z AUTO VRB03KT 10SM BKN013 09/07 A3045 RMK AO2,KORS,2021-01-17T19:15:00Z,48.7,-122.92,9.0,7.0,0,3,,10.0,30.448818,,,TRUE,TRUE,,,,,,,BKN,1300,,,,,,,MVFR,,,,,,,,,,,,METAR,7.0
KOQN 171915Z AUTO 26010G14KT 10SM SCT043 07/M02 A2969 RMK AO2,KOQN,2021-01-17T19:15:00Z,39.98,-75.58,7.0,-2.0,260,10,14,10.0,29.68996,,,TRUE,TRUE,,,,,,,SCT,4300,,,,,,,VFR,,,,,,,,,,,,METAR,141.0
KOOA 171915Z AUTO 31012KT 10SM OVC036 00/M02 A2980 RMK AO2 T00021024,KOOA,2021-01-17T19:15:00Z,41.23,-92.5,0.2,-2.4,310,12,,10.0,29.799213,,,TRUE,TRUE,,,,,,,OVC,3600,,,,,,,VFR,,,,,,,,,,,,METAR,256.0
KONZ 171915Z AUTO 27007KT 10SM SCT017 BKN021 OVC048 03/00 A2964 RMK AO2 T00250003,KONZ,2021-01-17T19:15:00Z,42.1,-83.15,2.5,0.3,270,7,,10.0,29.639763,,,TRUE,TRUE,,,,,,,SCT,1700,BKN,2100,OVC,4800,,,MVFR,,,,,,,,,,,,METAR,179.0
KONM 171915Z AUTO 00000KT 10SM CLR 11/M12 A3014 RMK AO2 T01051117,KONM,2021-01-17T19:15:00Z,34.02,-106.9,10.5,-11.7,0,0,,10.0,30.138779,,,TRUE,TRUE,,,,,,,CLR,,,,,,,,VFR,,,,,,,,,,,,METAR,1467.0
KONA 171915Z AUTO 33007KT 10SM OVC014 M02/M03 A2976 RMK AO2,KONA,2021-01-17T19:15:00Z,44.07,-91.7,-2.0,-3.0,330,7,,10.0,29.760826,,,TRUE,TRUE,,,,,,,OVC,1400,,,,,,,MVFR,,,,,,,,,,,,METAR,200.0
KOLZ 171915Z AUTO 31009KT 10SM OVC005 M06/M07 A2975 RMK A01,KOLZ,2021-01-17T19:15:00Z,42.67,-91.97,-6.0,-7.0,310,9,,10.0,29.749016,,,TRUE,TRUE,,,,,,,OVC,500,,,,,,,IFR,,,,,,,,,,,,METAR,328.0
KOLG 171915Z AUTO 00000KT 10SM BKN013 OVC022 M03/M06 A2973 RMK AO1,KOLG,2021-01-17T19:15:00Z,46.3,-91.82,-3.0,-6.0,0,0,,10.0,29.731298,,,TRUE,TRUE,,,,,,,BKN,1300,OVC,2200,,,,,MVFR,,,,,,,,,,,,METAR,334.0
KOKV 171915Z AUTO 25009KT 10SM OVC055 06/M04 A2971 RMK AO2,KOKV,2021-01-17T19:15:00Z,39.13,-78.15,6.0,-4.0,250,9,,10.0,29.71063,,,TRUE,TRUE,,,,,,,OVC,5500,,,,,,,VFR,,,,,,,,,,,,METAR,213.0
KOEO 171915Z AUTO 30004KT 10SM OVC004 M07/M07 A2980 RMK AO2 T10661066,KOEO,2021-01-17T19:15:00Z,45.32,-92.7,-6.6,-6.6,300,4,,10.0,29.799213,,,TRUE,TRUE,,,,,,,OVC,400,,,,,,,LIFR,,,,,,,,,,,,METAR,269.0
KOEL 171915Z AUTO 34013G17KT 10SM CLR 07/M12 A3003 RMK AO1 T00661117,KOEL,2021-01-17T19:15:00Z,39.12,-100.82,6.6,-11.7,340,13,17,10.0,30.029528,,,TRUE,TRUE,,,,,,,CLR,,,,,,,,VFR,,,,,,,,,,,,METAR,924.0
KOEL 171915Z AUTO 34013G17KT 10SM CLR 07/M12 A3003 RMK AO1 T00661117,KOEL,2021-01-17T19:15:00Z,39.12,-100.82,6.6,-11.7,340,13,17,10.0,30.029528,,,TRUE,TRUE,,,,,,,CLR,,,,,,,,VFR,,,,,,,,,,,,METAR,924.0
KOEB 171915Z AUTO 23005KT 3SM -SN BKN008 BKN015 OVC021 01/00 A2964 RMK AO2 T00061003,KOEB,2021-01-17T19:15:00Z,41.92,-85.05,0.6,-0.3,230,5,,3.0,29.639763,,,TRUE,TRUE,,,,,,-SN,BKN,800,BKN,1500,OVC,2100,,,IFR,,,,,,,,,,,,METAR,291.0
KOCW 171915Z AUTO 23008KT 10SM CLR 11/M03 A2988 RMK AO2 T01071029,KOCW,2021-01-17T19:15:00Z,35.57,-77.05,10.7,-2.9,230,8,,10.0,29.878937,,,TRUE,TRUE,,,,,,,CLR,,,,,,,,VFR,,,,,,,,,,,,METAR,10.0
KO22 171915Z AUTO 00000KT 10SM CLR 20/06 A3017 RMK A01,KO22,2021-01-17T19:15:00Z,38.03,-120.42,20.0,6.0,0,0,,10.0,30.171259,,,TRUE,TRUE,,,,,,,CLR,,,,,,,,VFR,,,,,,,,,,,,METAR,637.0
KNRN 171915Z AUTO 33016G20KT 10SM CLR 07/M07 A3002 RMK AO2,KNRN,2021-01-17T19:15:00Z,39.85,-99.9,7.0,-7.0,330,16,20,10.0,30.02067,,,TRUE,TRUE,,,,,,,CLR,,,,,,,,VFR,,,,,,,,,,,,METAR,726.0
KN03 171915Z AUTO 27007KT 10SM SCT029 OVC038 01/M02 A2955 RMK AO2,KN03,2021-01-17T19:15:00Z,42.6,-76.22,1.0,-2.0,270,7,,10.0,29.551182,,,TRUE,TRUE,,,,,,,SCT,2900,OVC,3800,,,,,VFR,,,,,,,,,,,,METAR,361.0
KMZH 171915Z AUTO 00000KT 10SM OVC009 M05/M07 A2973 RMK AO2,KMZH,2021-01-17T19:15:00Z,46.42,-92.8,-5.0,-7.0,0,0,,10.0,29.731298,,,TRUE,TRUE,,,,,,,OVC,900,,,,,,,IFR,,,,,,,,,,,,SPECI,331.0
KMYJ 171915Z AUTO 27010KT 2SM OVC011 M01/M02 A2982 RMK AO2,KMYJ,2021-01-17T19:15:00Z,39.15,-91.82,-1.0,-2.0,270,10,,2.0,29.819881,,,TRUE,TRUE,,,,,,,OVC,1100,,,,,,,IFR,,,,,,,,,,,,SPECI,249.0
KMXO 171915Z AUTO 28011KT 9SM FEW040 FEW055 M04/M05 A2975 RMK AO2,KMXO,2021-01-17T19:15:00Z,42.22,-91.17,-4.0,-5.0,280,11,,9.0,29.749016,,,TRUE,TRUE,,,,,,,FEW,4000,FEW,5500,,,,,VFR,,,,,,,,,,,,METAR,251.0
KMWM 171915Z AUTO 31013KT 10SM SCT044 M03/M05 A2977 RMK AO2,KMWM,2021-01-17T19:15:00Z,43.9,-95.1,-3.0,-5.0,310,13,,10.0,29.769686,,,TRUE,TRUE,,,,,,,SCT,4400,,,,,,,VFR,,,,,,,,,,,,METAR,427.0
KMVE 171915Z AUTO 01008KT 10SM BKN014 BKN021 OVC028 M03/M06 A2981 RMK AO2,KMVE,2021-01-17T19:15:00Z,44.97,-95.72,-3.0,-6.0,10,8,,10.0,29.811024,,,TRUE,TRUE,,,,,,,BKN,1400,BKN,2100,OVC,2800,,,MVFR,,,,,,,,,,,,METAR,319.0
KMUT 171915Z AUTO 29007KT 10SM OVC060 M02/M04 A2978 RMK AO2,KMUT,2021-01-17T19:15:00Z,41.37,-91.15,-2.0,-4.0,290,7,,10.0,29.778543,,,TRUE,TRUE,,,,,,,OVC,6000,,,,,,,VFR,,,,,,,,,,,,METAR,166.0
KMTV 171915Z AUTO 28005KT 10SM OVC049 07/M03 A2984 RMK AO2 T00731031,KMTV,2021-01-17T19:15:00Z,36.63,-80.02,7.3,-3.1,280,5,,10.0,29.840551,,,TRUE,TRUE,,,,,,,OVC,4900,,,,,,,VFR,,,,,,,,,,,,SPECI,276.0
KMRT 171915Z AUTO 24005KT 1 1/4SM OVC004 00/00 A2969 RMK AO2 T00011002,KMRT,2021-01-17T19:15:00Z,40.22,-83.35,0.1,-0.2,240,5,,1.25,29.68996,,,TRUE,TRUE,,,,,,,OVC,400,,,,,,,LIFR,,,,,,,,,,,,SPECI,302.0
KMQJ 171915Z AUTO 27007KT 3SM SCT014 BKN050 OVC070 00/00 A2971 RMK AO1,KMQJ,2021-01-17T19:15:00Z,39.85,-85.9,0.0,0.0,270,7,,3.0,29.71063,,,TRUE,TRUE,,,,,,,SCT,1400,BKN,5000,OVC,7000,,,MVFR,,,,,,,,,,,,SPECI,262.0
KMPV 171915Z AUTO 27008G15KT 2 1/2SM -SN BR FEW026 OVC033 M01/M03 A2937 RMK AO2 P0000 T10061028,KMPV,2021-01-17T19:15:00Z,44.2,-72.57,-0.6,-2.8,270,8,15,2.5,29.371063,,,TRUE,TRUE,,,,,,-SN BR,FEW,2600,OVC,3300,,,,,IFR,,,,,,0.005,,,,,,SPECI,336.0
KMOX 171915Z AUTO 32010KT 10SM -SN CLR M04/M06 RMK AO2,KMOX,2021-01-17T19:15:00Z,45.57,-95.97,-4.0,-6.0,320,10,,10.0,,,,TRUE,TRUE,,,,,,-SN,CLR,,,,,,,,VFR,,,,,,,,,,,,SPECI,346.0
KMOP 171915Z AUTO 28006KT 7SM -SN SCT017 BKN028 OVC043 02/M02 A2962 RMK AO2 T00161020,KMOP,2021-01-17T19:15:00Z,43.62,-84.73,1.6,-2.0,280,6,,7.0,29.619095,,,TRUE,TRUE,,,,,,-SN,SCT,1700,BKN,2800,OVC,4300,,,MVFR,,,,,,,,,,,,METAR,229.0
KMNI 171915Z AUTO 28006G15KT 10SM CLR 10/M02 A2993 RMK AO2,KMNI,2021-01-17T19:15:00Z,33.58,-80.22,10.0,-2.0,280,6,15,10.0,29.929134,,,TRUE,TRUE,,,,,,,CLR,,,,,,,,VFR,,,,,,,,,,,,SPECI,29.0
KMKS 171915Z AUTO 25005KT 10SM CLR 10/M01 A2993 RMK AO2,KMKS,2021-01-17T19:15:00Z,33.18,-80.03,10.0,-1.0,250,5,,10.0,29.929134,,,TRUE,TRUE,,,,,,,CLR,,,,,,,,VFR,,,,,,,,,,,,METAR,22.0
KMKJ 171915Z AUTO 27008KT 10SM SCT013 SCT029 BKN041 01/M01 A2979 RMK AO2 T00091015,KMKJ,2021-01-17T19:15:00Z,36.88,-81.33,0.9,-1.5,270,8,,10.0,29.790354,,,TRUE,TRUE,,,,,,,SCT,1300,SCT,2900,BKN,4100,,,VFR,,,,,,,,,,,,SPECI,777.0
KMKG 171915Z 22003KT 10SM SCT009 BKN049 OVC055 01/00 A2965 RMK AO2 T00110000,KMKG,2021-01-17T19:15:00Z,43.17,-86.23,1.1,0.0,220,3,,10.0,29.648623,,,,TRUE,,,,,,,SCT,900,BKN,4900,OVC,5500,,,VFR,,,,,,,,,,,,SPECI,190.0
KMJQ 171915Z AUTO 32016G19KT SCT012 OVC044 M02/M05 A2978 RMK AO2 PWINO,KMJQ,2021-01-17T19:15:00Z,43.63,-94.98,-2.0,-5.0,320,16,19,,29.778543,,,TRUE,TRUE,,,,,TRUE,,SCT,1200,OVC,4400,,,,,,,,,,,,,,,,,METAR,439.0
KMHL 171915Z AUTO 26010G14KT 10SM SCT017 SCT039 BKN065 01/M02 A2986 RMK AO2,KMHL,2021-01-17T19:15:00Z,39.1,-93.2,1.0,-2.0,260,10,14,10.0,29.861221,,,TRUE,TRUE,,,,,,,SCT,1700,SCT,3900,BKN,6500,,,VFR,,,,,,,,,,,,SPECI,236.0
KMGN 171915Z AUTO 00000KT 10SM OVC020 M01/M05 A2963 RMK AO2 T10131052,KMGN,2021-01-17T19:15:00Z,45.43,-84.92,-1.3,-5.2,0,0,,10.0,29.630905,,,TRUE,TRUE,,,,,,,OVC,2000,,,,,,,MVFR,,,,,,,,,,,,SPECI,205.0
KMGC 171915Z AUTO 23006KT 10SM -SN OVC014 M01/M03 A2969 RMK AO2,KMGC,2021-01-17T19:15:00Z,41.7,-86.82,-1.0,-3.0,230,6,,10.0,29.68996,,,TRUE,TRUE,,,,,,-SN,OVC,1400,,,,,,,MVFR,,,,,,,,,,,,METAR,199.0
KMFV 171915Z AUTO 25011G15KT 10SM CLR 09/M03 A2981 RMK AO2 T00851027,KMFV,2021-01-17T19:15:00Z,37.63,-75.77,8.5,-2.7,250,11,15,10.0,29.811024,,,TRUE,TRUE,,,,,,,CLR,,,,,,,,VFR,,,,,,,,,,,,SPECI,13.0
KMDZ 171915Z AUTO 35006KT 10SM OVC017 M04/M07 A2968 RMK AO2 T10451074,KMDZ,2021-01-17T19:15:00Z,45.1,-90.3,-4.5,-7.4,350,6,,10.0,29.681103,,,TRUE,TRUE,,,,,,,OVC,1700,,,,,,,MVFR,,,,,,,,,,,,SPECI,446.0
KMCX 171915Z AUTO 25006KT 10SM OVC017 M01/M04 A2970 RMK AO2 T10111036,KMCX,2021-01-17T19:15:00Z,40.72,-86.77,-1.1,-3.6,250,6,,10.0,29.698818,,,TRUE,TRUE,,,,,,,OVC,1700,,,,,,,MVFR,,,,,,,,,,,,METAR,205.0
KMCJ 171915Z AUTO 30012G19KT 9SM CLR 17/M06 A3007 RMK A01,KMCJ,2021-01-17T19:15:00Z,29.72,-95.4,17.0,-6.0,300,12,19,9.0,30.070866,,,TRUE,TRUE,,,,,,,CLR,,,,,,,,VFR,,,,,,,,,,,,METAR,70.0
KMCD 171915Z AUTO 32005KT 10SM BKN014 OVC050 M01/M05 A2963 RMK AO2 T10121055,KMCD,2021-01-17T19:15:00Z,45.85,-84.63,-1.2,-5.5,320,5,,10.0,29.630905,,,TRUE,TRUE,,,,,,,BKN,1400,OVC,5000,,,,,MVFR,,,,,,,,,,,,METAR,228.0
KMBY 171915Z AUTO 27010KT 7SM OVC009 00/M03 A2983 RMK AO2,KMBY,2021-01-17T19:15:00Z,39.47,-92.43,0.0,-3.0,270,10,,7.0,29.828741,,,TRUE,TRUE,,,,,,,OVC,900,,,,,,,IFR,,,,,,,,,,,,SPECI,263.0
KMAW 171915Z AUTO 26011G15KT 10SM CLR 08/M03 A2988 RMK AO2,KMAW,2021-01-17T19:15:00Z,36.6,-90.0,8.0,-3.0,260,11,15,10.0,29.878937,,,TRUE,TRUE,,,,,,,CLR,,,,,,,,VFR,,,,,,,,,,,,METAR,88.0
KMAO 171915Z AUTO 24009G16KT 10SM CLR 10/M01 A2991 RMK AO2,KMAO,2021-01-17T19:15:00Z,34.18,-79.33,10.0,-1.0,240,9,16,10.0,29.911417,,,TRUE,TRUE,,,,,,,CLR,,,,,,,,VFR,,,,,,,,,,,,SPECI,27.0
KMAN 171915Z AUTO 31005KT 10SM BKN010 BKN110 03/03 A3034 RMK A01,KMAN,2021-01-17T19:15:00Z,43.58,-116.52,3.0,3.0,310,5,,10.0,30.339567,,,TRUE,TRUE,,,,,,,BKN,1000,BKN,11000,,,,,MVFR,,,,,,,,,,,,SPECI,773.0
KM40 171915Z AUTO 25009G15KT 10SM CLR 13/M05 A2992 RMK AO2,KM40,2021-01-17T19:15:00Z,33.87,-88.48,13.0,-5.0,250,9,15,10.0,29.920275,,,TRUE,TRUE,,,,,,,CLR,,,,,,,,VFR,,,,,,,,,,,,SPECI,68.0
KM25 171915Z AUTO 28009KT 10SM BKN030 04/M02 A2985 RMK AO2,KM25,2021-01-17T19:15:00Z,36.77,-88.58,4.0,-2.0,280,9,,10.0,29.84941,,,TRUE,TRUE,,,,,,,BKN,3000,,,,,,,MVFR,,,,,,,,,,,,METAR,157.0
KM21 171915Z AUTO 26006KT 10SM OVC033 03/M05 A2981 RMK AO2 T00321047,KM21,2021-01-17T19:15:00Z,37.22,-87.15,3.2,-4.7,260,6,,10.0,29.811024,,,TRUE,TRUE,,,,,,,OVC,3300,,,,,,,VFR,,,,,,,,,,,,METAR,127.0
KLYV 171915Z AUTO 31010G16KT 10SM 00/M03 A2982 RMK AO2,KLYV,2021-01-17T19:15:00Z,43.62,-96.22,0.0,-3.0,310,10,16,10.0,29.819881,,,TRUE,TRUE,,,,,,,,,,,,,,,,,,,,,,,,,,,METAR,435.0
KLXL 171915Z AUTO 00000KT 10SM OVC010 M05/M08 A2977 RMK AO2,KLXL,2021-01-17T19:15:00Z,45.95,-94.33,-5.0,-8.0,0,0,,10.0,29.769686,,,TRUE,TRUE,,,,,,,OVC,1000,,,,,,,MVFR,,,,,,,,,,,,METAR,335.0
KLWA 171915Z AUTO 30003KT 1 1/4SM -SN OVC009 01/00 A2966 RMK AO2 T00091002,KLWA,2021-01-17T19:15:00Z,42.35,-86.25,0.9,-0.2,300,3,,1.25,29.660433,,,TRUE,TRUE,,,,,,-SN,OVC,900,,,,,,,IFR,,,,,,,,,,,,METAR,199.0
KLVL 171915Z AUTO 26004KT 10SM CLR 09/M03 A2983 RMK AO1 T00871029,KLVL,2021-01-17T19:15:00Z,36.78,-77.8,8.7,-2.9,260,4,,10.0,29.828741,,,TRUE,TRUE,,,,,,,CLR,,,,,,,,VFR,,,,,,,,,,,,SPECI,98.0
KLUX 171915Z AUTO 29008KT 10SM SCT047 08/M02 A2989 RMK AO2,KLUX,2021-01-17T19:15:00Z,34.5,-81.95,8.0,-2.0,290,8,,10.0,29.890747,,,TRUE,TRUE,,,,,,,SCT,4700,,,,,,,VFR,,,,,,,,,,,,SPECI,213.0
KLUM 171915Z AUTO 27007KT 10SM OVC026 M04/M06 A2974 RMK AO2 T10361063,KLUM,2021-01-17T19:15:00Z,44.9,-91.87,-3.6,-6.3,270,7,,10.0,29.740158,,,TRUE,TRUE,,,,,,,OVC,2600,,,,,,,MVFR,,,,,,,,,,,,SPECI,271.0
KLUA 171915Z AUTO 00000KT 10SM SCT045 OVC050 06/M02 A2974 RMK AO2,KLUA,2021-01-17T19:15:00Z,38.67,-78.5,6.0,-2.0,0,0,,10.0,29.740158,,,TRUE,TRUE,,,,,,,SCT,4500,OVC,5000,,,,,VFR,,,,,,,,,,,,METAR,273.0
KLRY 171915Z AUTO 31013G17KT 10SM OVC037 06/M01 A2991 RMK AO2,KLRY,2021-01-17T19:15:00Z,38.62,-94.35,6.0,-1.0,310,13,17,10.0,29.911417,,,TRUE,TRUE,,,,,,,OVC,3700,,,,,,,VFR,,,,,,,,,,,,SPECI,272.0
KLRO 171915Z AUTO 23006G13KT 10SM CLR 11/M02 A2993 RMK AO2,KLRO,2021-01-17T19:15:00Z,32.9,-79.78,11.0,-2.0,230,6,13,10.0,29.929134,,,TRUE,TRUE,,,,,,,CLR,,,,,,,,VFR,,,,,,,,,,,,SPECI,3.0
KLRJ 171915Z AUTO 31012KT 10SM OVC046 00/M03 A2984 RMK AO2,KLRJ,2021-01-17T19:15:00Z,42.77,-96.2,0.0,-3.0,310,12,,10.0,29.840551,,,TRUE,TRUE,,,,,,,OVC,4600,,,,,,,VFR,,,,,,,,,,,,METAR,363.0
KLQK 171915Z AUTO 25011G17KT 10SM OVC049 08/M03 A2986 RMK AO2 T00771034,KLQK,2021-01-17T19:15:00Z,34.82,-82.7,7.7,-3.4,250,11,17,10.0,29.861221,,,TRUE,TRUE,,,,,,,OVC,4900,,,,,,,VFR,,,,,,,,,,,,METAR,291.0
KLNP 171915Z AUTO 23008KT 10SM OVC018 00/M02 A2976 RMK AO2,KLNP,2021-01-17T19:15:00Z,36.98,-82.52,0.0,-2.0,230,8,,10.0,29.760826,,,TRUE,TRUE,,,,,,,OVC,1800,,,,,,,MVFR,,,,,,,,,,,,SPECI,817.0
KLNL 171915Z AUTO 31003KT 10SM BKN015 OVC019 M04/M07 A2968 RMK AO2 T10411069,KLNL,2021-01-17T19:15:00Z,46.15,-89.22,-4.1,-6.9,310,3,,10.0,29.681103,,,TRUE,TRUE,,,,,,,BKN,1500,OVC,1900,,,,,MVFR,,,,,,,,,,,,METAR,517.0
KLKU 171915Z AUTO 23007KT 190V270 10SM BKN048 OVC050 07/M03 A2982 RMK AO2 T00671031,KLKU,2021-01-17T19:15:00Z,38.02,-77.97,6.7,-3.1,230,7,,10.0,29.819881,,,TRUE,TRUE,,,,,,,BKN,4800,OVC,5000,,,,,VFR,,,,,,,,,,,,METAR,146.0
KLKR 171915Z AUTO 24009KT 10SM FEW044 08/M03 A2989 RMK AO2,KLKR,2021-01-17T19:15:00Z,34.72,-80.85,8.0,-3.0,240,9,,10.0,29.890747,,,TRUE,TRUE,,,,,,,FEW,4400,,,,,,,VFR,,,,,,,,,,,,METAR,166.0
KLJF 171915Z AUTO 32006KT 5SM BR OVC005 M04/M05 A2977 RMK AO2,KLJF,2021-01-17T19:15:00Z,45.1,-94.52,-4.0,-5.0,320,6,,5.0,29.769686,,,TRUE,TRUE,,,,,,BR,OVC,500,,,,,,,IFR,,,,,,,,,,,,METAR,347.0
KLHZ 171915Z AUTO 20007KT 10SM CLR 09/M02 A2986 RMK AO2,KLHZ,2021-01-17T19:15:00Z,36.02,-78.33,9.0,-2.0,200,7,,10.0,29.861221,,,TRUE,TRUE,,,,,,,CLR,,,,,,,,VFR,,,,,,,,,,,,METAR,104.0
KLDM 171915Z AUTO 33006KT 10SM OVC027 01/M03 A2965 RMK AO2 T00131028,KLDM,2021-01-17T19:15:00Z,43.97,-86.4,1.3,-2.8,330,6,,10.0,29.648623,,,TRUE,TRUE,,,,,,,OVC,2700,,,,,,,MVFR,,,,,,,,,,,,METAR,194.0
KLDJ 171915Z AUTO 30013G22KT 10SM OVC046 07/M03 A2964 RMK AO2 T00651034,KLDJ,2021-01-17T19:15:00Z,40.62,-74.25,6.5,-3.4,300,13,22,10.0,29.639763,,,TRUE,TRUE,,,,,,,OVC,4600,,,,,,,VFR,,,,,,,,,,,,METAR,6.0
KLBO 171915Z AUTO 27011KT 10SM CLR 03/M03 A2986 RMK AO2,KLBO,2021-01-17T19:15:00Z,37.65,-92.65,3.0,-3.0,270,11,,10.0,29.861221,,,TRUE,TRUE,,,,,,,CLR,,,,,,,,VFR,,,,,,,,,,,,METAR,399.0
KL52 171915Z AUTO 25003KT 6SM HZ CLR 22/05 A3003 RMK A01,KL52,2021-01-17T19:15:00Z,35.1,-120.62,22.0,5.0,250,3,,6.0,30.029528,,,TRUE,TRUE,,,,,,HZ,CLR,,,,,,,,VFR,,,,,,,,,,,,METAR,3.0
KL18 171915Z AUTO 03005KT 10SM CLR 27/M04 A3003 RMK AO2,KL18,2021-01-17T19:15:00Z,33.35,-117.25,27.0,-4.0,30,5,,10.0,30.029528,,,TRUE,TRUE,,,,,,,CLR,,,,,,,,VFR,,,,,,,,,,,,METAR,215.0
KL08 171915Z AUTO VRB03KT 10SM CLR 25/M08 A3007 RMK AO2,KL08,2021-01-17T19:15:00Z,33.27,-116.32,25.0,-8.0,0,3,,10.0,30.070866,,,TRUE,TRUE,,,,,,,CLR,,,,,,,,VFR,,,,,,,,,,,,METAR,156.0
KKY8 171915Z AUTO 22005KT 8SM BKN041 OVC050 01/01 A2980 RMK A01,KKY8,2021-01-17T19:15:00Z,37.95,-86.87,1.0,1.0,220,5,,8.0,29.799213,,,TRUE,TRUE,,,,,,,BKN,4100,OVC,5000,,,,,VFR,,,,,,,,,,,,METAR,124.0
KK82 171915Z AUTO 30015G21KT 10SM CLR 08/M04 A2999 RMK AO2,KK82,2021-01-17T19:15:00Z,39.77,-98.8,8.0,-4.0,300,15,21,10.0,29.991142,,,TRUE,TRUE,,,,,,,CLR,,,,,,,,VFR,,,,,,,,,,,,METAR,548.0
KK62 171915Z AUTO 25009G14KT 4SM UP BKN006 OVC011 01/00 A2974 RMK AO2,KK62,2021-01-17T19:15:00Z,38.7,-84.4,1.0,0.0,250,9,14,4.0,29.740158,,,TRUE,TRUE,,,,,,UP,BKN,600,OVC,1100,,,,,IFR,,,,,,,,,,,,METAR,274.0
KJZI 171915Z AUTO 24009KT 9SM CLR 11/M02 A2994 RMK AO2,KJZI,2021-01-17T19:15:00Z,32.7,-80.0,11.0,-2.0,240,9,,9.0,29.940945,,,TRUE,TRUE,,,,,,,CLR,,,,,,,,VFR,,,,,,,,,,,,METAR,5.0
KJYO 171915Z AUTO 27015KT 10SM OVC050 07/M01 A2975 RMK AO2,KJYO,2021-01-17T19:15:00Z,39.07,-77.57,7.0,-1.0,270,15,,10.0,29.749016,,,TRUE,TRUE,,,,,,,OVC,5000,,,,,,,VFR,,,,,,,,,,,,SPECI,112.0
KJYM 171915Z AUTO 22006KT 3SM -SN BKN010 OVC015 00/M01 A2963 RMK AO2 T00011010,KJYM,2021-01-17T19:15:00Z,41.92,-84.58,0.1,-1.0,220,6,,3.0,29.630905,,,TRUE,TRUE,,,,,,-SN,BKN,1000,OVC,1500,,,,,MVFR,,,,,,,,,,,,METAR,357.0
KJYG 171915Z AUTO 30010G15KT M04/M06 A2978 RMK AO2 PWINO,KJYG,2021-01-17T19:15:00Z,43.98,-94.55,-4.0,-6.0,300,10,15,,29.778543,,,TRUE,TRUE,,,,,TRUE,,,,,,,,,,,,,,,,,,,,,,METAR,323.0
KJXI 171915Z AUTO 30004KT 10SM CLR 11/M05 A3008 RMK AO2 T01111052,KJXI,2021-01-17T19:15:00Z,32.7,-94.95,11.1,-5.2,300,4,,10.0,30.079725,,,TRUE,TRUE,,,,,,,CLR,,,,,,,,VFR,,,,,,,,,,,,METAR,130.0
KJVW 171915Z AUTO 27014KT 10SM CLR 16/M04 A2997 RMK AO2,KJVW,2021-01-17T19:15:00Z,32.3,-90.42,16.0,-4.0,270,14,,10.0,29.970472,,,TRUE,TRUE,,,,,,,CLR,,,,,,,,VFR,,,,,,,,,,,,METAR,73.0
KJSO 171915Z AUTO 31005KT 10SM CLR 14/M03 A3010 RMK AO2 T01451032,KJSO,2021-01-17T19:15:00Z,31.87,-95.22,14.5,-3.2,310,5,,10.0,30.100393,,,TRUE,TRUE,,,,,,,CLR,,,,,,,,VFR,,,,,,,,,,,,METAR,204.0
KJNX 171915Z AUTO 22004KT 10SM CLR 10/M02 A2986 RMK AO2,KJNX,2021-01-17T19:15:00Z,35.53,-78.38,10.0,-2.0,220,4,,10.0,29.861221,,,TRUE,TRUE,,,,,,,CLR,,,,,,,,VFR,,,,,,,,,,,,SPECI,41.0
KJMR 171915Z AUTO 26004KT 10SM OVC006 M07/M08 A2979 RMK AO2,KJMR,2021-01-17T19:15:00Z,45.88,-93.27,-7.0,-8.0,260,4,,10.0,29.790354,,,TRUE,TRUE,,,,,,,OVC,600,,,,,,,IFR,,,,,,,,,,,,METAR,301.0
KJKJ 171915Z AUTO 34012KT 10SM -SN SCT009 SCT046 M04/M08 A2985 RMK AO2,KJKJ,2021-01-17T19:15:00Z,46.83,-96.67,-4.0,-8.0,340,12,,10.0,29.84941,,,TRUE,TRUE,,,,,,-SN,SCT,900,SCT,4600,,,,,VFR,,,,,,,,,,,,METAR,280.0
KJHN 171915Z AUTO 33011G14KT 10SM CLR 08/M08 A3008 RMK AO2 T00821081,KJHN,2021-01-17T19:15:00Z,37.58,-101.73,8.2,-8.1,330,11,14,10.0,30.079725,,,TRUE,TRUE,,,,,,,CLR,,,,,,,,VFR,,,,,,,,,,,,METAR,1013.0
KJGG 171915Z AUTO 28011KT 10SM CLR 11/M02 A2982 RMK AO1,KJGG,2021-01-17T19:15:00Z,37.23,-76.72,11.0,-2.0,280,11,,10.0,29.819881,,,TRUE,TRUE,,,,,,,CLR,,,,,,,,VFR,,,,,,,,,,,,METAR,13.0
KJFZ 171915Z AUTO 22007KT 10SM OVC019 00/M04 A2975 RMK AO2 T10051038,KJFZ,2021-01-17T19:15:00Z,37.07,-81.8,-0.5,-3.8,220,7,,10.0,29.749016,,,TRUE,TRUE,,,,,,,OVC,1900,,,,,,,MVFR,,,,,,,,,,,,METAR,809.0
KJFX 171915Z AUTO 25007G14KT 10SM CLR 14/M04 A2990 RMK AO2 PWINO,KJFX,2021-01-17T19:15:00Z,33.9,-87.32,14.0,-4.0,250,7,14,10.0,29.899607,,,TRUE,TRUE,,,,,TRUE,,CLR,,,,,,,,VFR,,,,,,,,,,,,METAR,144.0
KJAQ 171915Z AUTO 36003KT 10SM CLR 17/08 A3016 RMK AO1 T01660083,KJAQ,2021-01-17T19:15:00Z,38.37,-120.8,16.6,8.3,360,3,,10.0,30.159449,,,TRUE,TRUE,,,,,,,CLR,,,,,,,,VFR,,,,,,,,,,,,METAR,518.0
KIXA 171915Z AUTO 24007G14KT 10SM CLR 07/01 A2985 RMK AO2,KIXA,2021-01-17T19:15:00Z,36.33,-77.63,7.0,1.0,240,7,14,10.0,29.84941,,,TRUE,TRUE,,,,,,,CLR,,,,,,,,VFR,,,,,,,,,,,,SPECI,43.0
KISQ 171915Z AUTO 35005KT 10SM OVC021 M02/M05 A2966 RMK AO2 T10161050,KISQ,2021-01-17T19:15:00Z,45.97,-86.17,-1.6,-5.0,350,5,,10.0,29.660433,,,TRUE,TRUE,,,,,,,OVC,2100,,,,,,,MVFR,,,,,,,,,,,,METAR,206.0
KIRS 171915Z AUTO 24006KT 3SM -SN BKN007 BKN016 OVC022 01/00 A2964 RMK AO2 T00051002,KIRS,2021-01-17T19:15:00Z,41.8,-85.43,0.5,-0.2,240,6,,3.0,29.639763,,,TRUE,TRUE,,,,,,-SN,BKN,700,BKN,1600,OVC,2200,,,IFR,,,,,,,,,,,,METAR,282.0
KIPJ 171915Z AUTO 20004KT 10SM CLR 08/M05 A2985 RMK AO2 T00751051,KIPJ,2021-01-17T19:15:00Z,35.48,-81.17,7.5,-5.1,200,4,,10.0,29.84941,,,TRUE,TRUE,,,,,,,CLR,,,,,,,,VFR,,,,,,,,,,,,METAR,266.0
KIOB 171915Z AUTO 25008G17KT 210V270 7SM -SN BKN011 BKN034 OVC043 01/00 A2977 RMK AO2,KIOB,2021-01-17T19:15:00Z,38.05,-83.98,1.0,0.0,250,8,17,7.0,29.769686,,,TRUE,TRUE,,,,,,-SN,BKN,1100,BKN,3400,OVC,4300,,,MVFR,,,,,,,,,,,,METAR,301.0
KINF 171915Z AUTO 00000KT 7SM SCT030 SCT065 13/06 A3003 RMK AO2,KINF,2021-01-17T19:15:00Z,28.8,-82.32,13.0,6.0,0,0,,7.0,30.029528,,,TRUE,TRUE,,,,,,,SCT,3000,SCT,6500,,,,,VFR,,,,,,,,,,,,METAR,14.0
KIMS 171915Z AUTO 23007KT 5SM SCT013 BKN019 OVC034 00/00 A2976 RMK AO1,KIMS,2021-01-17T19:15:00Z,38.75,-85.47,0.0,0.0,230,7,,5.0,29.760826,,,TRUE,TRUE,,,,,,,SCT,1300,BKN,1900,OVC,3400,,,MVFR,,,,,,,,,,,,METAR,244.0
KIKV 171915Z AUTO 31012KT 10SM FEW016 OVC070 M01/M04 A2981 RMK AO2,KIKV,2021-01-17T19:15:00Z,41.68,-93.57,-1.0,-4.0,310,12,,10.0,29.811024,,,TRUE,TRUE,,,,,,,FEW,1600,OVC,7000,,,,,VFR,,,,,,,,,,,,METAR,270.0
KIIB 171915Z AUTO 30009KT 10SM OVC007 M05/M07 A2976 RMK AO2 T10461074,KIIB,2021-01-17T19:15:00Z,42.45,-91.95,-4.6,-7.4,300,9,,10.0,29.760826,,,TRUE,TRUE,,,,,,,OVC,700,,,,,,,IFR,,,,,,,,,,,,METAR,294.0
KIFA 171915Z AUTO 30012KT 10SM OVC012 00/M05 A2978 RMK AO2 T10051046,KIFA,2021-01-17T19:15:00Z,42.47,-93.27,-0.5,-4.6,300,12,,10.0,29.778543,,,TRUE,TRUE,,,,,,,OVC,1200,,,,,,,MVFR,,,,,,,,,,,,SPECI,344.0
KIDI 171915Z AUTO 25009KT 2 1/2SM BR BKN014 OVC019 01/M00 A2970 RMK A01,KIDI,2021-01-17T19:15:00Z,40.63,-79.1,1.0,0.0,250,9,,2.5,29.698818,,,TRUE,TRUE,,,,,,BR,BKN,1400,OVC,1900,,,,,IFR,,,,,,,,,,,,METAR,425.0
KICL 171915Z AUTO 32012G17KT 10SM OVC021 01/M02 A2988 RMK AO2,KICL,2021-01-17T19:15:00Z,40.72,-95.02,1.0,-2.0,320,12,17,10.0,29.878937,,,TRUE,TRUE,,,,,,,OVC,2100,,,,,,,MVFR,,,,,,,,,,,,METAR,299.0
KI75 171915Z AUTO 31010KT 10SM OVC018 00/M03 A2980 RMK AO2 T00031033,KI75,2021-01-17T19:15:00Z,41.05,-93.68,0.3,-3.3,310,10,,10.0,29.799213,,,TRUE,TRUE,,,,,,,OVC,1800,,,,,,,MVFR,,,,,,,,,,,,METAR,336.0
KI69 171915Z AUTO 23005KT 2 1/2SM -SN BKN005 OVC011 01/01 A2973 RMK AO2 T00140008,KI69,2021-01-17T19:15:00Z,39.08,-84.22,1.4,0.8,230,5,,2.5,29.731298,,,TRUE,TRUE,,,,,,-SN,BKN,500,OVC,1100,,,,,IFR,,,,,,,,,,,,METAR,238.0
KI67 171915Z AUTO 25006KT 7SM BKN009 OVC015 01/00 A2973 RMK AO1,KI67,2021-01-17T19:15:00Z,39.25,-84.78,1.0,0.0,250,6,,7.0,29.731298,,,TRUE,TRUE,,,,,,,BKN,900,OVC,1500,,,,,IFR,,,,,,,,,,,,METAR,177.0
KI43 171915Z AUTO 22006KT 10SM BKN020 OVC025 02/01 A2975 RMK AO2,KI43,2021-01-17T19:15:00Z,38.98,-82.58,2.0,1.0,220,6,,10.0,29.749016,,,TRUE,TRUE,,,,,,,BKN,2000,OVC,2500,,,,,MVFR,,,,,,,,,,,,SPECI,221.0
KI23 171915Z AUTO 23009KT 7SM SCT008 BKN013 01/M01 A2970 RMK AO1,KI23,2021-01-17T19:15:00Z,39.57,-83.42,1.0,-1.0,230,9,,7.0,29.698818,,,TRUE,TRUE,,,,,,,SCT,800,BKN,1300,,,,,MVFR,,,,,,,,,,,,METAR,298.0
KHZX 171915Z AUTO 33004KT 10SM OVC005 M07/M08 A2976 RMK AO2,KHZX,2021-01-17T19:15:00Z,46.62,-93.32,-7.0,-8.0,330,4,,10.0,29.760826,,,TRUE,TRUE,,,,,,,OVC,500,,,,,,,IFR,,,,,,,,,,,,METAR,374.0
KHZL 171915Z AUTO 26004KT 10SM SCT022 BKN029 OVC034 02/M03 A2963 RMK AO2,KHZL,2021-01-17T19:15:00Z,40.98,-76.0,2.0,-3.0,260,4,,10.0,29.630905,,,TRUE,TRUE,,,,,,,SCT,2200,BKN,2900,OVC,3400,,,MVFR,,,,,,,,,,,,METAR,481.0
KHZE 171915Z AUTO 28005KT 10SM BKN045 M01/M05 A2990 RMK AO2,KHZE,2021-01-17T19:15:00Z,47.28,-101.58,-1.0,-5.0,280,5,,10.0,29.899607,,,TRUE,TRUE,,,,,,,BKN,4500,,,,,,,VFR,,,,,,,,,,,,METAR,542.0
KHYX 171915Z AUTO 27004KT 10SM SCT018 OVC028 01/M01 A2963 RMK AO2,KHYX,2021-01-17T19:15:00Z,43.43,-83.87,1.0,-1.0,270,4,,10.0,29.630905,,,TRUE,TRUE,,,,,,,SCT,1800,OVC,2800,,,,,MVFR,,,,,,,,,,,,METAR,181.0
KHYW 171915Z AUTO 24007G18KT 10SM CLR 10/M01 A2992 RMK AO2,KHYW,2021-01-17T19:15:00Z,33.83,-79.12,10.0,-1.0,240,7,18,10.0,29.920275,,,TRUE,TRUE,,,,,,,CLR,,,,,,,,VFR,,,,,,,,,,,,SPECI,10.0
KHWY 171915Z AUTO 24006KT 10SM OVC060 09/M05 A2976 RMK AO2 T00851049,KHWY,2021-01-17T19:15:00Z,38.58,-77.72,8.5,-4.9,240,6,,10.0,29.760826,,,TRUE,TRUE,,,,,,,OVC,6000,,,,,,,VFR,,,,,,,,,,,,METAR,93.0
KHVS 171915Z AUTO 24008G15KT 10SM FEW047 08/M03 A2990 RMK AO2,KHVS,2021-01-17T19:15:00Z,34.4,-80.12,8.0,-3.0,240,8,15,10.0,29.899607,,,TRUE,TRUE,,,,,,,FEW,4700,,,,,,,VFR,,,,,,,,,,,,METAR,110.0
KHSP 171915Z AUTO 26015G19KT 7SM -SN OVC005 M02/M03 A2968 RMK AO2 T10221032,KHSP,2021-01-17T19:15:00Z,37.95,-79.82,-2.2,-3.2,260,15,19,7.0,29.681103,,,TRUE,TRUE,,,,,,-SN,OVC,500,,,,,,,IFR,,,,,,,,,,,,SPECI,1148.0
KHRJ 171915Z AUTO 22006KT 10SM CLR 10/M03 A2987 RMK AO2 T00971029,KHRJ,2021-01-17T19:15:00Z,35.38,-78.73,9.7,-2.9,220,6,,10.0,29.870079,,,TRUE,TRUE,,,,,,,CLR,,,,,,,,VFR,,,,,,,,,,,,METAR,55.0
KHPT 171915Z AUTO 32009KT 10SM OVC012 M01/M03 A2976 RMK AO2,KHPT,2021-01-17T19:15:00Z,42.72,-93.23,-1.0,-3.0,320,9,,10.0,29.760826,,,TRUE,TRUE,,,,,,,OVC,1200,,,,,,,MVFR,,,,,,,,,,,,METAR,354.0
KHNZ 171915Z AUTO 24007KT 10SM CLR 08/M03 A2984 RMK AO2 T00751029,KHNZ,2021-01-17T19:15:00Z,36.37,-78.53,7.5,-2.9,240,7,,10.0,29.840551,,,TRUE,TRUE,,,,,,,CLR,,,,,,,,VFR,,,,,,,,,,,,SPECI,158.0
KHNR 171915Z AUTO 33014KT 10SM OVC018 M01/M03 A2985 RMK AO2,KHNR,2021-01-17T19:15:00Z,41.58,-95.33,-1.0,-3.0,330,14,,10.0,29.84941,,,TRUE,TRUE,,,,,,,OVC,1800,,,,,,,MVFR,,,,,,,,,,,,METAR,364.0
KHMT 171915Z AUTO 00000KT 10SM CLR 23/M04 A3006 RMK AO2 T02351042,KHMT,2021-01-17T19:15:00Z,33.73,-117.02,23.5,-4.2,0,0,,10.0,30.059055,,,TRUE,TRUE,,,,,,,CLR,,,,,,,,VFR,,,,,,,,,,,,METAR,462.0
KHLX 171915Z AUTO 22005KT 10SM SCT025 SCT031 OVC044 02/M03 A2975 RMK AO2 T00161035,KHLX,2021-01-17T19:15:00Z,36.77,-80.82,1.6,-3.5,220,5,,10.0,29.749016,,,TRUE,TRUE,,,,,,,SCT,2500,SCT,3100,OVC,4400,,,VFR,,,,,,,,,,,,METAR,819.0
KHEG 171915Z AUTO 24008G14KT CLR 13/00 A3001 RMK AO2,KHEG,2021-01-17T19:15:00Z,30.28,-81.8,13.0,0.0,240,8,14,,30.008858,,,TRUE,TRUE,,,,,,,CLR,,,,,,,,,,,,,,,,,,,,METAR,25.0
KHCO 171915Z AUTO 35009KT 7SM -SN OVC018 M07/M09 A2986 RMK AO2,KHCO,2021-01-17T19:15:00Z,48.75,-96.93,-7.0,-9.0,350,9,,7.0,29.861221,,,TRUE,TRUE,,,,,,-SN,OVC,1800,,,,,,,MVFR,,,,,,,,,,,,METAR,250.0
KHCD 171915Z AUTO 27007KT 5SM BR OVC005 M04/M05 A2978 RMK AO2 T10421050,KHCD,2021-01-17T19:15:00Z,44.87,-94.38,-4.2,-5.0,270,7,,5.0,29.778543,,,TRUE,TRUE,,,,,,BR,OVC,500,,,,,,,IFR,,,,,,,,,,,,METAR,320.0
KHBI 171915Z AUTO 24009G14KT 190V250 10SM CLR 08/M04 A2988 RMK AO2 T00771039,KHBI,2021-01-17T19:15:00Z,35.65,-79.9,7.7,-3.9,240,9,14,10.0,29.878937,,,TRUE,TRUE,,,,,,,CLR,,,,,,,,VFR,,,,,,,,,,,,METAR,199.0
KHAI 171915Z AUTO 23003KT 2SM -SN BKN012 OVC019 01/00 A2965 RMK AO2 T00091004,KHAI,2021-01-17T19:15:00Z,41.97,-85.6,0.9,-0.4,230,3,,2.0,29.648623,,,TRUE,TRUE,,,,,,-SN,BKN,1200,OVC,1900,,,,,IFR,,,,,,,,,,,,METAR,250.0
KHAF 171915Z AUTO 33007KT 10SM CLR 23/04 A3012 RMK AO2,KHAF,2021-01-17T19:15:00Z,37.52,-122.5,23.0,4.0,330,7,,10.0,30.121063,,,TRUE,TRUE,,,,,,,CLR,,,,,,,,VFR,,,,,,,,,,,,METAR,11.0
KHAE 171915Z AUTO 30011KT 10SM SCT023 SCT044 SCT055 01/M06 A2980 RMK AO2,KHAE,2021-01-17T19:15:00Z,39.73,-91.45,1.0,-6.0,300,11,,10.0,29.799213,,,TRUE,TRUE,,,,,,,SCT,2300,SCT,4400,SCT,5500,,,VFR,,,,,,,,,,,,METAR,230.0
KGZL 171915Z AUTO 33017G24KT 10SM 12/M13 A3001 RMK AO2,KGZL,2021-01-17T19:15:00Z,35.28,-95.1,12.0,-13.0,330,17,24,10.0,30.008858,,,TRUE,TRUE,,,,,,,,,,,,,,,,,,,,,,,,,,,METAR,176.0
KGYL 171915Z AUTO 33004KT 7SM OVC008 M05/M06 A2977 RMK AO2 T10461058,KGYL,2021-01-17T19:15:00Z,44.77,-94.08,-4.6,-5.8,330,4,,7.0,29.769686,,,TRUE,TRUE,,,,,,,OVC,800,,,,,,,IFR,,,,,,,,,,,,METAR,304.0
KGWW 171915Z AUTO 23004KT 10SM CLR 10/M02 A2987 RMK AO2 T01001025,KGWW,2021-01-17T19:15:00Z,35.47,-77.97,10.0,-2.5,230,4,,10.0,29.870079,,,TRUE,TRUE,,,,,,,CLR,,,,,,,,VFR,,,,,,,,,,,,SPECI,40.0
KGWR 171915Z AUTO 02010KT 10SM OVC011 M03/M03 A2985 RMK A01,KGWR,2021-01-17T19:15:00Z,46.22,-97.65,-3.0,-3.0,20,10,,10.0,29.84941,,,TRUE,TRUE,,,,,,,OVC,1100,,,,,,,MVFR,,,,,,,,,,,,METAR,381.0
KGPH 171915Z AUTO 31012G20KT 10SM BKN029 OVC080 04/M02 A2988 RMK AO2,KGPH,2021-01-17T19:15:00Z,39.33,-94.32,4.0,-2.0,310,12,20,10.0,29.878937,,,TRUE,TRUE,,,,,,,BKN,2900,OVC,8000,,,,,MVFR,,,,,,,,,,,,SPECI,233.0
KGNT 171915Z AUTO 31012G16KT 10SM CLR 11/M14 A3018 RMK AO2 T01081140,KGNT,2021-01-17T19:15:00Z,35.17,-107.9,10.8,-14.0,310,12,16,10.0,30.180119,,,TRUE,TRUE,,,,,,,CLR,,,,,,,,VFR,,,,,,,,,,,,METAR,1988.0
KGLY 171915Z AUTO 29012KT 10SM FEW033 SCT055 BKN095 05/M01 A2988 RMK AO2,KGLY,2021-01-17T19:15:00Z,38.35,-93.68,5.0,-1.0,290,12,,10.0,29.878937,,,TRUE,TRUE,,,,,,,FEW,3300,SCT,5500,BKN,9500,,,VFR,,,,,,,,,,,,METAR,247.0
KGHW 171915Z AUTO 30007KT 10SM SCT020 SCT026 M05/M06 A2977 RMK AO2,KGHW,2021-01-17T19:15:00Z,45.63,-95.32,-5.0,-6.0,300,7,,10.0,29.769686,,,TRUE,TRUE,,,,,,,SCT,2000,SCT,2600,,,,,VFR,,,,,,,,,,,,METAR,423.0
KGGI 171915Z AUTO 30011KT 10SM OVC012 00/M04 A2979 RMK AO2 T10021038,KGGI,2021-01-17T19:15:00Z,41.72,-92.73,-0.2,-3.8,300,11,,10.0,29.790354,,,TRUE,TRUE,,,,,,,OVC,1200,,,,,,,MVFR,,,,,,,,,,,,METAR,305.0
KGGE 171915Z AUTO 23006KT 10SM CLR 10/M02 A2993 RMK AO2,KGGE,2021-01-17T19:15:00Z,33.32,-79.32,10.0,-2.0,230,6,,10.0,29.929134,,,TRUE,TRUE,,,,,,,CLR,,,,,,,,VFR,,,,,,,,,,,,SPECI,9.0
KGEV 171915Z AUTO 27008KT 10SM BKN036 OVC042 01/M06 A2975 RMK AO2 T00091064,KGEV,2021-01-17T19:15:00Z,36.43,-81.42,0.9,-6.4,270,8,,10.0,29.749016,,,TRUE,TRUE,,,,,,,BKN,3600,OVC,4200,,,,,VFR,,,,,,,,,,,,SPECI,961.0
KGDB 171915Z AUTO 30010KT 10SM BKN020 OVC026 M01/M04 A2982 RMK AO2 T10121041,KGDB,2021-01-17T19:15:00Z,44.75,-95.55,-1.2,-4.1,300,10,,10.0,29.819881,,,TRUE,TRUE,,,,,,,BKN,2000,OVC,2600,,,,,MVFR,,,,,,,,,,,,METAR,316.0
KGAF 171915Z AUTO 35013KT 8SM BKN010 OVC017 M07/M08 A2990 RMK AO2 PWINO,KGAF,2021-01-17T19:15:00Z,48.4,-97.37,-7.0,-8.0,350,13,,8.0,29.899607,,,TRUE,TRUE,,,,,TRUE,,BKN,1000,OVC,1700,,,,,MVFR,,,,,,,,,,,,METAR,250.0
KFWB 171915Z AUTO 28010G20KT 250V310 10SM CLR 08/M02 A2990 RMK AO2,KFWB,2021-01-17T19:15:00Z,36.7,-93.4,8.0,-2.0,280,10,20,10.0,29.899607,,,TRUE,TRUE,,,,,,,CLR,,,,,,,,VFR,,,,,,,,,,,,METAR,392.0
KFSW 171915Z AUTO 29007KT 10SM SCT015 BKN070 OVC080 M02/M05 A2979 RMK AO2,KFSW,2021-01-17T19:15:00Z,40.67,-91.32,-2.0,-5.0,290,7,,10.0,29.790354,,,TRUE,TRUE,,,,,,,SCT,1500,BKN,7000,OVC,8000,,,VFR,,,,,,,,,,,,METAR,219.0
KFSO 171915Z AUTO 26005KT 10SM OVC022 00/M02 A2938 RMK AO2 T00031023,KFSO,2021-01-17T19:15:00Z,44.93,-73.1,0.3,-2.3,260,5,,10.0,29.379921,,,TRUE,TRUE,,,,,,,OVC,2200,,,,,,,MVFR,,,,,,,,,,,,METAR,70.0
KFSE 171915Z AUTO 33005KT 10SM OVC010 M08/M09 A2981 RMK AO2,KFSE,2021-01-17T19:15:00Z,47.58,-95.77,-8.0,-9.0,330,5,,10.0,29.811024,,,TRUE,TRUE,,,,,,,OVC,1000,,,,,,,MVFR,,,,,,,,,,,,METAR,389.0
KFRR 171915Z AUTO 28008KT 10SM OVC060 06/M03 A2973 RMK AO1,KFRR,2021-01-17T19:15:00Z,38.92,-78.25,6.0,-3.0,280,8,,10.0,29.731298,,,TRUE,TRUE,,,,,,,OVC,6000,,,,,,,VFR,,,,,,,,,,,,SPECI,213.0
KFRH 171915Z AUTO 24006KT 10SM BKN034 OVC041 00/M02 A2976 RMK AO1,KFRH,2021-01-17T19:15:00Z,38.5,-86.63,0.0,-2.0,240,6,,10.0,29.760826,,,TRUE,TRUE,,,,,,,BKN,3400,OVC,4100,,,,,VFR,,,,,,,,,,,,METAR,241.0
KFQD 171915Z AUTO 21005KT 10SM CLR 07/M05 A2984 RMK AO2,KFQD,2021-01-17T19:15:00Z,35.42,-81.93,7.0,-5.0,210,5,,10.0,29.840551,,,TRUE,TRUE,,,,,,,CLR,,,,,,,,VFR,,,,,,,,,,,,METAR,325.0
KFPK 171915Z AUTO 24007KT 5SM -SN BKN014 BKN033 OVC042 01/M01 A2962 RMK AO2 T00121008,KFPK,2021-01-17T19:15:00Z,42.57,-84.82,1.2,-0.8,240,7,,5.0,29.619095,,,TRUE,TRUE,,,,,,-SN,BKN,1400,BKN,3300,OVC,4200,,,MVFR,,,,,,,,,,,,METAR,269.0
KFME 171915Z AUTO 27007G14KT 10SM OVC050 07/M01 A2977 RMK AO1,KFME,2021-01-17T19:15:00Z,39.08,-76.77,7.0,-1.0,270,7,14,10.0,29.769686,,,TRUE,TRUE,,,,,,,OVC,5000,,,,,,,VFR,,,,,,,,,,,,METAR,43.0
KFKS 171915Z AUTO 34004KT 7SM BKN021 BKN025 OVC032 00/M03 A2965 RMK AO2 T00001028,KFKS,2021-01-17T19:15:00Z,44.63,-86.2,0.0,-2.8,340,4,,7.0,29.648623,,,TRUE,TRUE,,,,,,,BKN,2100,BKN,2500,OVC,3200,,,MVFR,,,,,,,,,,,,METAR,189.0
KFKN 171915Z AUTO 25007KT 10SM CLR 09/M03 A2983 RMK AO2 T00921027,KFKN,2021-01-17T19:15:00Z,36.7,-76.9,9.2,-2.7,250,7,,10.0,29.828741,,,TRUE,TRUE,,,,,,,CLR,,,,,,,,VFR,,,,,,,,,,,,METAR,9.0
KFFM 171915Z AUTO 34012KT 10SM BKN008 M04/M06 A2985 RMK AO2,KFFM,2021-01-17T19:15:00Z,46.28,-96.15,-4.0,-6.0,340,12,,10.0,29.84941,,,TRUE,TRUE,,,,,,,BKN,800,,,,,,,IFR,,,,,,,,,,,,METAR,362.0
KFFL 171915Z AUTO 30009KT 10SM OVC041 M02/M03 A2979 RMK A01,KFFL,2021-01-17T19:15:00Z,41.05,-91.97,-2.0,-3.0,300,9,,10.0,29.790354,,,TRUE,TRUE,,,,,,,OVC,4100,,,,,,,VFR,,,,,,,,,,,,METAR,240.0
KFDW 171915Z AUTO 28010G14KT 10SM CLR 08/M02 A2989 RMK AO1,KFDW,2021-01-17T19:15:00Z,34.32,-81.12,8.0,-2.0,280,10,14,10.0,29.890747,,,TRUE,TRUE,,,,,,,CLR,,,,,,,,VFR,,,,,,,,,,,,METAR,174.0
KFBL 171915Z AUTO 28005KT 10SM BKN008 OVC012 M06/M07 A2978 RMK AO2,KFBL,2021-01-17T19:15:00Z,44.33,-93.32,-6.0,-7.0,280,5,,10.0,29.778543,,,TRUE,TRUE,,,,,,,BKN,800,OVC,1200,,,,,IFR,,,,,,,,,,,,METAR,318.0
KF70 171915Z AUTO 35006KT 10SM CLR 25/M08 A3006 RMK AO1,KF70,2021-01-17T19:15:00Z,33.57,-117.13,25.0,-8.0,350,6,,10.0,30.059055,,,TRUE,TRUE,,,,,,,CLR,,,,,,,,VFR,,,,,,,,,,,,METAR,406.0
KEZS 171915Z AUTO 00000KT 10SM OVC030 00/M06 A2969 RMK AO2 T00001061,KEZS,2021-01-17T19:15:00Z,44.78,-88.57,0.0,-6.1,0,0,,10.0,29.68996,,,TRUE,TRUE,,,,,,,OVC,3000,,,,,,,MVFR,,,,,,,,,,,,METAR,247.0
KEZF 171915Z AUTO 27008G17KT 10SM SCT050 10/M02 A2977 RMK AO2 T00951016,KEZF,2021-01-17T19:15:00Z,38.27,-77.45,9.5,-1.6,270,8,17,10.0,29.769686,,,TRUE,TRUE,,,,,,,SCT,5000,,,,,,,VFR,,,,,,,,,,,,METAR,26.0
KEYF 171915Z AUTO 21009KT 10SM CLR 09/M03 A2989 RMK AO2 T00931027,KEYF,2021-01-17T19:15:00Z,34.6,-78.58,9.3,-2.7,210,9,,10.0,29.890747,,,TRUE,TRUE,,,,,,,CLR,,,,,,,,VFR,,,,,,,,,,,,METAR,39.0
KEVV 171915Z VRB05KT 8SM SCT014 BKN020 OVC026 01/M02 A2981 RMK AO2 T00111022,KEVV,2021-01-17T19:15:00Z,38.05,-87.52,1.1,-2.2,0,5,,8.0,29.811024,,,,TRUE,,,,,,,SCT,1400,BKN,2000,OVC,2600,,,MVFR,,,,,,,,,,,,SPECI,123.0
KEVU 171915Z AUTO 32014G17KT 10SM SCT022 03/M01 A2985 RMK AO2 T00331015,KEVU,2021-01-17T19:15:00Z,40.35,-94.92,3.3,-1.5,320,14,17,10.0,29.84941,,,TRUE,TRUE,,,,,,,SCT,2200,,,,,,,VFR,,,,,,,,,,,,METAR,351.0
KERY 171915Z AUTO 01007KT 10SM BKN016 OVC021 M03/M06 A2964 RMK AO2 T10321060,KERY,2021-01-17T19:15:00Z,46.3,-85.45,-3.2,-6.0,10,7,,10.0,29.639763,,,TRUE,TRUE,,,,,,,BKN,1600,OVC,2100,,,,,MVFR,,,,,,,,,,,,METAR,261.0
KEOK 171915Z AUTO 30010KT 10SM BKN019 BKN050 BKN075 M01/M04 A2979 RMK AO2,KEOK,2021-01-17T19:15:00Z,40.47,-91.42,-1.0,-4.0,300,10,,10.0,29.790354,,,TRUE,TRUE,,,,,,,BKN,1900,BKN,5000,BKN,7500,,,MVFR,,,,,,,,,,,,METAR,206.0
KEOE 171915Z AUTO 25014G18KT 10SM SCT045 SCT050 08/M03 A2992 RMK AO2,KEOE,2021-01-17T19:15:00Z,34.32,-81.63,8.0,-3.0,250,14,18,10.0,29.920275,,,TRUE,TRUE,,,,,,,SCT,4500,SCT,5000,,,,,VFR,,,,,,,,,,,,METAR,166.0
KEMV 171915Z AUTO 20006KT 10SM CLR 09/M02 A2985 RMK AO2 T00871022,KEMV,2021-01-17T19:15:00Z,36.68,-77.48,8.7,-2.2,200,6,,10.0,29.84941,,,TRUE,TRUE,,,,,,,CLR,,,,,,,,VFR,,,,,,,,,,,,SPECI,35.0
KELO 171915Z AUTO 00000KT 10SM OVC007 M08/M08 A2971 RMK AO2,KELO,2021-01-17T19:15:00Z,47.82,-91.83,-8.0,-8.0,0,0,,10.0,29.71063,,,TRUE,TRUE,,,,,,,OVC,700,,,,,,,IFR,,,,,,,,,,,,METAR,438.0
KELK 171915Z AUTO 33012G18KT 280V350 10SM CLR 12/M08 A3008 RMK AO2 T01151079,KELK,2021-01-17T19:15:00Z,35.43,-99.4,11.5,-7.9,330,12,18,10.0,30.079725,,,TRUE,TRUE,,,,,,,CLR,,,,,,,,VFR,,,,,,,,,,,,METAR,603.0
KEKX 171915Z AUTO 25008KT 10SM BKN019 BKN029 OVC035 02/00 A2978 RMK AO2 T00170000,KEKX,2021-01-17T19:15:00Z,,,1.7,0.0,250,8,,10.0,29.778543,,,TRUE,TRUE,,,,,,,BKN,1900,BKN,2900,OVC,3500,,,MVFR,,,,,,,,,,,,SPECI,
KEHO 171915Z AUTO 24008KT 10SM CLR 07/M04 A2986 RMK AO2 T00731041,KEHO,2021-01-17T19:15:00Z,35.25,-81.6,7.3,-4.1,240,8,,10.0,29.861221,,,TRUE,TRUE,,,,,,,CLR,,,,,,,,VFR,,,,,,,,,,,,METAR,261.0
KEGV 171915Z AUTO 33006KT 10SM OVC014 M05/M08 A2967 RMK AO2 T10491080,KEGV,2021-01-17T19:15:00Z,45.93,-89.27,-4.9,-8.0,330,6,,10.0,29.66929,,,TRUE,TRUE,,,,,,,OVC,1400,,,,,,,MVFR,,,,,,,,,,,,METAR,499.0
KEFT 171915Z AUTO 31003KT 7SM SCT014 SCT019 OVC026 00/M04 A2968 RMK AO2 T10051040,KEFT,2021-01-17T19:15:00Z,42.62,-89.6,-0.5,-4.0,310,3,,7.0,29.681103,,,TRUE,TRUE,,,,,,,SCT,1400,SCT,1900,OVC,2600,,,MVFR,,,,,,,,,,,,METAR,332.0
KEFK 171915Z AUTO 26014G29KT 1 1/2SM -SN SCT013 OVC020 M01/M02 A2931 RMK AO2 T10061025,KEFK,2021-01-17T19:15:00Z,44.88,-72.23,-0.6,-2.5,260,14,29,1.5,29.309055,,,TRUE,TRUE,,,,,,-SN,SCT,1300,OVC,2000,,,,,IFR,,,,,,,,,,,,METAR,282.0
KEDE 171915Z AUTO 24008KT 10SM CLR 11/01 A2987 RMK AO2 T01060010,KEDE,2021-01-17T19:15:00Z,36.03,-76.57,10.6,1.0,240,8,,10.0,29.870079,,,TRUE,TRUE,,,,,,,CLR,,,,,,,,VFR,,,,,,,,,,,,METAR,4.0
KDYT 171915Z AUTO 26003KT 10SM OVC019 M03/M07 A2977 RMK AO2,KDYT,2021-01-17T19:15:00Z,46.72,-92.03,-3.0,-7.0,260,3,,10.0,29.769686,,,TRUE,TRUE,,,,,,,OVC,1900,,,,,,,MVFR,,,,,,,,,,,,METAR,185.0
KDYB 171915Z AUTO 25010KT 10SM CLR 12/M01 A2993 RMK AO2,KDYB,2021-01-17T19:15:00Z,33.07,-80.28,12.0,-1.0,250,10,,10.0,29.929134,,,TRUE,TRUE,,,,,,,CLR,,,,,,,,VFR,,,,,,,,,,,,SPECI,15.0
KDYA 171915Z AUTO 22008G15KT 10SM CLR 14/M02 A2997 RMK AO2 T01401022,KDYA,2021-01-17T19:15:00Z,32.47,-87.95,14.0,-2.2,220,8,15,10.0,29.970472,,,TRUE,TRUE,,,,,,,CLR,,,,,,,,VFR,,,,,,,,,,,,SPECI,33.0
KDXX 171915Z AUTO 34009KT 10SM OVC014 M01/M03 A2983 RMK AO2 PWINO,KDXX,2021-01-17T19:15:00Z,44.98,-96.18,-1.0,-3.0,340,9,,10.0,29.828741,,,TRUE,TRUE,,,,,TRUE,,OVC,1400,,,,,,,MVFR,,,,,,,,,,,,METAR,327.0
KDUH 171915Z AUTO 24005KT 4SM -SN SCT017 BKN022 OVC035 02/M01 A2966 RMK AO2 T00201006,KDUH,2021-01-17T19:15:00Z,41.73,-83.65,2.0,-0.6,240,5,,4.0,29.660433,,,TRUE,TRUE,,,,,,-SN,SCT,1700,BKN,2200,OVC,3500,,,MVFR,,,,,,,,,,,,METAR,203.0
KDTL 171915Z AUTO 32008KT 10SM OVC006 M07/M07 A2979 RMK AO2,KDTL,2021-01-17T19:15:00Z,46.82,-95.88,-7.0,-7.0,320,8,,10.0,29.790354,,,TRUE,TRUE,,,,,,,OVC,600,,,,,,,IFR,,,,,,,,,,,,METAR,425.0
KDRM 171915Z AUTO 02004KT 10SM CLR M03/M08 A2962 RMK AO2 T10331080,KDRM,2021-01-17T19:15:00Z,46.0,-83.75,-3.3,-8.0,20,4,,10.0,29.619095,,,TRUE,TRUE,,,,,,,CLR,,,,,,,,VFR,,,,,,,,,,,,METAR,201.0
KDNS 171915Z AUTO 32011G17KT 10SM OVC014 M01/M03 A2985 RMK AO2,KDNS,2021-01-17T19:15:00Z,41.98,-95.37,-1.0,-3.0,320,11,17,10.0,29.84941,,,TRUE,TRUE,,,,,,,OVC,1400,,,,,,,MVFR,,,,,,,,,,,,METAR,382.0
KDNA 171915Z AUTO 00000KT 10SM CLR 16/M13 A3016 RMK AO2,KDNA,2021-01-17T19:15:00Z,31.88,-106.7,16.0,-13.0,0,0,,10.0,30.159449,,,TRUE,TRUE,,,,,,,CLR,,,,,,,,VFR,,,,,,,,,,,,METAR,1254.0
KDLL 171915Z AUTO 33005KT 10SM -SN BKN024 OVC030 M02/M06 A2970 RMK AO2 T10251060,KDLL,2021-01-17T19:15:00Z,43.52,-89.77,-2.5,-6.0,330,5,,10.0,29.698818,,,TRUE,TRUE,,,,,,-SN,BKN,2400,OVC,3000,,,,,MVFR,,,,,,,,,,,,SPECI,297.0
KDEH 171915Z AUTO 32006KT 9SM SCT009 M04/M04 A2972 RMK AO2,KDEH,2021-01-17T19:15:00Z,43.27,-91.73,-4.0,-4.0,320,6,,9.0,29.719488,,,TRUE,TRUE,,,,,,,SCT,900,,,,,,,VFR,,,,,,,,,,,,METAR,348.0
KDCM 171915Z AUTO 23004KT 10SM SCT045 07/M03 A2989 RMK AO2,KDCM,2021-01-17T19:15:00Z,34.78,-81.2,7.0,-3.0,230,4,,10.0,29.890747,,,TRUE,TRUE,,,,,,,SCT,4500,,,,,,,VFR,,,,,,,,,,,,METAR,191.0
KD60 171915Z AUTO 00000KT 10SM CLR M04/M04 A2985 RMK AO2,KD60,2021-01-17T19:15:00Z,48.38,-102.9,-4.0,-4.0,0,0,,10.0,29.84941,,,TRUE,TRUE,,,,,,,CLR,,,,,,,,VFR,,,,,,,,,,,,METAR,682.0
KD57 171915Z AUTO 32008KT 10SM CLR 02/M07 A2986 RMK AO2,KD57,2021-01-17T19:15:00Z,46.82,-101.87,2.0,-7.0,320,8,,10.0,29.861221,,,TRUE,TRUE,,,,,,,CLR,,,,,,,,VFR,,,,,,,,,,,,METAR,636.0
KD55 171915Z AUTO 34010KT 10SM OVC016 M07/M07 A2984 RMK AO2,KD55,2021-01-17T19:15:00Z,48.75,-98.4,-7.0,-7.0,340,10,,10.0,29.840551,,,TRUE,TRUE,,,,,,,OVC,1600,,,,,,,MVFR,,,,,,,,,,,,METAR,488.0
KD50 171915Z AUTO 19008KT 10SM CLR M04/M06 A2985 RMK AO2,KD50,2021-01-17T19:15:00Z,48.93,-103.3,-4.0,-6.0,190,8,,10.0,29.84941,,,TRUE,TRUE,,,,,,,CLR,,,,,,,,VFR,,,,,,,,,,,,SPECI,591.0
KD39 171915Z AUTO 31008KT 10SM OVC009 M05/M07 A2977 RMK AO2 T10511070,KD39,2021-01-17T19:15:00Z,45.7,-94.93,-5.1,-7.0,310,8,,10.0,29.769686,,,TRUE,TRUE,,,,,,,OVC,900,,,,,,,IFR,,,,,,,,,,,,METAR,378.0
KD25 171915Z AUTO 29004KT 10SM BKN012 OVC020 M05/M08 A2968 RMK AO2 T10551080,KD25,2021-01-17T19:15:00Z,46.12,-89.88,-5.5,-8.0,290,4,,10.0,29.681103,,,TRUE,TRUE,,,,,,,BKN,1200,OVC,2000,,,,,MVFR,,,,,,,,,,,,METAR,490.0
KCXE 171915Z AUTO 26005KT 10SM CLR 08/M02 A2982 RMK AO1 T00801024,KCXE,2021-01-17T19:15:00Z,36.78,-78.5,8.0,-2.4,260,5,,10.0,29.819881,,,TRUE,TRUE,,,,,,,CLR,,,,,,,,VFR,,,,,,,,,,,,METAR,154.0
KCVX 171915Z AUTO 35005KT 10SM OVC015 M01/M04 A2964 RMK AO2 T10141044,KCVX,2021-01-17T19:15:00Z,45.3,-85.27,-1.4,-4.4,350,5,,10.0,29.639763,,,TRUE,TRUE,,,,,,,OVC,1500,,,,,,,MVFR,,,,,,,,,,,,METAR,196.0
KCVH 171915Z AUTO 30006KT 10SM CLR 19/07 A3014 RMK A01,KCVH,2021-01-17T19:15:00Z,36.9,-121.42,19.0,7.0,300,6,,10.0,30.138779,,,TRUE,TRUE,,,,,,,CLR,,,,,,,,VFR,,,,,,,,,,,,METAR,68.0
KCTZ 171915Z AUTO 19006KT 130V210 10SM CLR 10/M02 A2988 RMK AO2 T01001017,KCTZ,2021-01-17T19:15:00Z,34.98,-78.37,10.0,-1.7,190,6,,10.0,29.878937,,,TRUE,TRUE,,,,,,,CLR,,,,,,,,VFR,,,,,,,,,,,,SPECI,43.0
KCSQ 171915Z AUTO 32013G19KT 10SM BKN017 OVC050 M00/M00 A2981 RMK AO2,KCSQ,2021-01-17T19:15:00Z,41.02,-94.37,0.0,0.0,320,13,19,10.0,29.811024,,,TRUE,TRUE,,,,,,,BKN,1700,OVC,5000,,,,,MVFR,,,,,,,,,,,,SPECI,394.0
KCQW 171915Z AUTO 26010KT 220V290 10SM BKN046 09/M03 A2989 RMK AO2,KCQW,2021-01-17T19:15:00Z,34.72,-79.95,9.0,-3.0,260,10,,10.0,29.890747,,,TRUE,TRUE,,,,,,,BKN,4600,,,,,,,VFR,,,,,,,,,,,,SPECI,67.0
KCPT 171915Z AUTO 01014G19KT 10SM CLR 15/M07 A3012 RMK A01,KCPT,2021-01-17T19:15:00Z,32.35,-97.43,15.0,-7.0,10,14,19,10.0,30.121063,,,TRUE,TRUE,,,,,,,CLR,,,,,,,,VFR,,,,,,,,,,,,SPECI,260.0
KCPK 171915Z AUTO 22006KT 10SM SCT050 09/M03 A2984 RMK AO2 T00921026,KCPK,2021-01-17T19:15:00Z,36.67,-76.32,9.2,-2.6,220,6,,10.0,29.840551,,,TRUE,TRUE,,,,,,,SCT,5000,,,,,,,VFR,,,,,,,,,,,,SPECI,4.0
KCPF 171915Z AUTO 25006KT 10SM BKN036 OVC044 03/M02 A2977 RMK AO2,KCPF,2021-01-17T19:15:00Z,37.38,-83.27,3.0,-2.0,250,6,,10.0,29.769686,,,TRUE,TRUE,,,,,,,BKN,3600,OVC,4400,,,,,VFR,,,,,,,,,,,,SPECI,382.0
KCPC 171915Z AUTO 21012G18KT 10SM CLR 09/M02 A2991 RMK AO2 T00941025,KCPC,2021-01-17T19:15:00Z,34.28,-78.72,9.4,-2.5,210,12,18,10.0,29.911417,,,TRUE,TRUE,,,,,,,CLR,,,,,,,,VFR,,,,,,,,,,,,SPECI,27.0
KCOQ 171915Z AUTO 26003KT 10SM OVC008 M06/M08 A2973 RMK AO2 TSNO,KCOQ,2021-01-17T19:15:00Z,46.7,-92.5,-6.0,-8.0,260,3,,10.0,29.731298,,,TRUE,TRUE,,,TRUE,,,,OVC,800,,,,,,,IFR,,,,,,,,,,,,SPECI,390.0
KCNC 171915Z AUTO 29013KT 10SM FEW017 BKN033 OVC070 M01/M01 A2980 RMK AO2,KCNC,2021-01-17T19:15:00Z,41.02,-93.37,-1.0,-1.0,290,13,,10.0,29.799213,,,TRUE,TRUE,,,,,,,FEW,1700,BKN,3300,OVC,7000,,,VFR,,,,,,,,,,,,METAR,319.0
KCNB 171915Z AUTO 29014KT 10SM OVC015 00/M02 A2982 RMK AO2 T00001023,KCNB,2021-01-17T19:15:00Z,44.73,-96.27,0.0,-2.3,290,14,,10.0,29.819881,,,TRUE,TRUE,,,,,,,OVC,1500,,,,,,,MVFR,,,,,,,,,,,,SPECI,363.0
KCMY 171915Z AUTO 28005KT 10SM M02/M04 A2973 RMK AO2 T10181036,KCMY,2021-01-17T19:15:00Z,43.97,-90.73,-1.8,-3.6,280,5,,10.0,29.731298,,,TRUE,TRUE,,,,,,,,,,,,,,,,,,,,,,,,,,,METAR,253.0
KCMR 171915Z AUTO 30006KT 10SM CLR 14/M31 A3025 RMK AO2,KCMR,2021-01-17T19:15:00Z,35.3,-112.2,14.0,-31.0,300,6,,10.0,30.250984,,,TRUE,TRUE,,,,,,,CLR,,,,,,,,VFR,,,,,,,,,,,,METAR,2039.0
KCLS 171915Z AUTO 17006KT 10SM SCT013 BKN022 OVC027 10/09 A3048 RMK AO2,KCLS,2021-01-17T19:15:00Z,46.68,-122.98,10.0,9.0,170,6,,10.0,30.481298,,,TRUE,TRUE,,,,,,,SCT,1300,BKN,2200,OVC,2700,,,MVFR,,,,,,,,,,,,METAR,52.0
KCLI 171915Z AUTO 30003KT 10SM SCT022 SCT035 M01/M07 A2969 RMK AO2 T10121070,KCLI,2021-01-17T19:15:00Z,44.62,-88.73,-1.2,-7.0,300,3,,10.0,29.68996,,,TRUE,TRUE,,,,,,,SCT,2200,SCT,3500,,,,,VFR,,,,,,,,,,,,METAR,248.0
KCKZ 171915Z AUTO 28010G17KT 10SM OVC041 05/M03 A2967 RMK AO2,KCKZ,2021-01-17T19:15:00Z,40.38,-75.28,5.0,-3.0,280,10,17,10.0,29.66929,,,TRUE,TRUE,,,,,,,OVC,4100,,,,,,,VFR,,,,,,,,,,,,METAR,160.0
KCKP 171915Z AUTO 33011KT 10SM BKN014 OVC044 M01/M03 A2984 RMK AO2 T10101035,KCKP,2021-01-17T19:15:00Z,42.73,-95.55,-1.0,-3.5,330,11,,10.0,29.840551,,,TRUE,TRUE,,,,,,,BKN,1400,OVC,4400,,,,,MVFR,,,,,,,,,,,,METAR,369.0
KCKM 171915Z AUTO 26010KT 10SM 11/M01 A2995 RMK A01,KCKM,2021-01-17T19:15:00Z,34.3,-90.52,11.0,-1.0,260,10,,10.0,29.949802,,,TRUE,TRUE,,,,,,,,,,,,,,,,,,,,,,,,,,,METAR,52.0
KCKI 171915Z AUTO 22012G18KT 190V250 10SM CLR 10/M03 A2993 RMK AO2,KCKI,2021-01-17T19:15:00Z,33.72,-79.85,10.0,-3.0,220,12,18,10.0,29.929134,,,TRUE,TRUE,,,,,,,CLR,,,,,,,,VFR,,,,,,,,,,,,METAR,19.0
KCKC 171915Z AUTO 00000KT 10SM CLR M05/M13 A2966 RMK AO2,KCKC,2021-01-17T19:15:00Z,47.83,-90.38,-5.0,-13.0,0,0,,10.0,29.660433,,,TRUE,TRUE,,,,,,,CLR,,,,,,,,VFR,,,,,,,,,,,,METAR,544.0
KCJR 171915Z AUTO 22008KT 10SM OVC055 08/M02 A2978 RMK AO2 T00801024,KCJR,2021-01-17T19:15:00Z,38.53,-77.87,8.0,-2.4,220,8,,10.0,29.778543,,,TRUE,TRUE,,,,,,,OVC,5500,,,,,,,VFR,,,,,,,,,,,,METAR,90.0
KCIN 171915Z AUTO 34017KT 10SM OVC014 M02/M02 A2981 RMK AO2,KCIN,2021-01-17T19:15:00Z,42.03,-94.78,-2.0,-2.0,340,17,,10.0,29.811024,,,TRUE,TRUE,,,,,,,OVC,1400,,,,,,,MVFR,,,,,,,,,,,,METAR,365.0
KCGS 171915Z AUTO 24005KT 10SM BKN050 BKN060 07/M05 A2975 RMK AO1 T00741051,KCGS,2021-01-17T19:15:00Z,38.98,-76.92,7.4,-5.1,240,5,,10.0,29.749016,,,TRUE,TRUE,,,,,,,BKN,5000,BKN,6000,,,,,VFR,,,,,,,,,,,,METAR,15.0
KCGE 171915Z AUTO VRB06G13KT 10SM SCT045 08/M02 A2977 RMK A01,KCGE,2021-01-17T19:15:00Z,38.53,-76.03,8.0,-2.0,0,6,13,10.0,29.769686,,,TRUE,TRUE,,,,,,,SCT,4500,,,,,,,VFR,,,,,,,,,,,,METAR,5.0
KCFS 171915Z AUTO 32006KT 4SM -SN OVC009 01/M01 A2962 RMK AO2 T00051009,KCFS,2021-01-17T19:15:00Z,43.47,-83.45,0.5,-0.9,320,6,,4.0,29.619095,,,TRUE,TRUE,,,,,,-SN,OVC,900,,,,,,,IFR,,,,,,,,,,,,METAR,214.0
KCFJ 171915Z AUTO 27008KT 10SM OVC013 M02/M03 A2972 RMK AO2 T10171035,KCFJ,2021-01-17T19:15:00Z,39.98,-86.92,-1.7,-3.5,270,8,,10.0,29.719488,,,TRUE,TRUE,,,,,,,OVC,1300,,,,,,,MVFR,,,,,,,,,,,,METAR,243.0
KCEY 171915Z AUTO 26013G17KT 10SM FEW033 05/M02 A2983 RMK AO1,KCEY,2021-01-17T19:15:00Z,36.67,-88.37,5.0,-2.0,260,13,17,10.0,29.828741,,,TRUE,TRUE,,,,,,,FEW,3300,,,,,,,VFR,,,,,,,,,,,,METAR,172.0
KCDN 171915Z AUTO 26012G18KT 10SM CLR 09/M03 A2991 RMK AO2,KCDN,2021-01-17T19:15:00Z,34.28,-80.57,9.0,-3.0,260,12,18,10.0,29.911417,,,TRUE,TRUE,,,,,,,CLR,,,,,,,,VFR,,,,,,,,,,,,METAR,90.0
KCDI 171915Z AUTO 21008KT 10SM SCT016 OVC025 02/00 A2972 RMK AO2 T00180003,KCDI,2021-01-17T19:15:00Z,39.97,-81.58,1.8,0.3,210,8,,10.0,29.719488,,,TRUE,TRUE,,,,,,,SCT,1600,OVC,2500,,,,,MVFR,,,,,,,,,,,,METAR,241.0
KCDH 171915Z AUTO VRB05G11KT 9SM CLR 14/M06 A3000 RMK AO2,KCDH,2021-01-17T19:15:00Z,33.62,-92.77,14.0,-6.0,0,5,11,9.0,30.0,,,TRUE,TRUE,,,,,,,CLR,,,,,,,,VFR,,,,,,,,,,,,SPECI,38.0
KCDA 171915Z AUTO 23017G23KT 5SM -SN SCT021 BKN027 OVC047 00/M03 A2931 RMK AO2 T10011033,KCDA,2021-01-17T19:15:00Z,44.57,-72.02,-0.1,-3.3,230,17,23,5.0,29.309055,,,TRUE,TRUE,,,,,,-SN,SCT,2100,BKN,2700,OVC,4700,,,MVFR,,,,,,,,,,,,METAR,357.0
KCCY 171915Z AUTO 34009KT 10SM BKN012 M05/M06 A2976 RMK AO2,KCCY,2021-01-17T19:15:00Z,43.07,-92.62,-5.0,-6.0,340,9,,10.0,29.760826,,,TRUE,TRUE,,,,,,,BKN,1200,,,,,,,MVFR,,,,,,,,,,,,METAR,340.0
KCCA 171915Z AUTO VRB04G13KT 10SM BKN070 OVC080 11/M05 A2990 RMK AO2,KCCA,2021-01-17T19:15:00Z,35.6,-92.45,11.0,-5.0,0,4,13,10.0,29.899607,,,TRUE,TRUE,,,,,,,BKN,7000,OVC,8000,,,,,VFR,,,,,,,,,,,,SPECI,152.0
KCBG 171915Z AUTO 00000KT 10SM OVC004 M06/M11 A2978 RMK AO2,KCBG,2021-01-17T19:15:00Z,45.57,-93.27,-6.0,-11.0,0,0,,10.0,29.778543,,,TRUE,TRUE,,,,,,,OVC,400,,,,,,,LIFR,,,,,,,,,,,,METAR,285.0
KCBF 171915Z AUTO 32012G22KT 10SM BKN022 01/M03 A2985 RMK AO2,KCBF,2021-01-17T19:15:00Z,41.27,-95.77,1.0,-3.0,320,12,22,10.0,29.84941,,,TRUE,TRUE,,,,,,,BKN,2200,,,,,,,MVFR,,,,,,,,,,,,METAR,379.0
KCAV 171915Z AUTO 32016KT 10SM OVC013 M02/M02 A2979 RMK A01,KCAV,2021-01-17T19:15:00Z,42.75,-93.77,-2.0,-2.0,320,16,,10.0,29.790354,,,TRUE,TRUE,,,,,,,OVC,1300,,,,,,,MVFR,,,,,,,,,,,,METAR,352.0
KCAR 171915Z AUTO 27005KT 3/4SM -SN BR FEW007 OVC014 01/M02 A2897 RMK AO2 P0001 T00061017,KCAR,2021-01-17T19:15:00Z,46.87,-68.02,0.6,-1.7,270,5,,0.75,28.969488,,,TRUE,TRUE,,,,,,-SN BR,FEW,700,OVC,1400,,,,,LIFR,,,,,,0.01,,,,,,SPECI,189.0
KCAD 171915Z AUTO 24005KT 10SM -SN SCT010 OVC016 M01/M03 A2959 RMK AO2 T10081027,KCAD,2021-01-17T19:15:00Z,44.27,-85.42,-0.8,-2.7,240,5,,10.0,29.589567,,,TRUE,TRUE,,,,,,-SN,SCT,1000,OVC,1600,,,,,MVFR,,,,,,,,,,,,METAR,397.0
KC29 171915Z AUTO 34005KT 10SM SCT018 OVC027 00/M05 A2970 RMK AO1 T10051051,KC29,2021-01-17T19:15:00Z,43.12,-89.53,-0.5,-5.1,340,5,,10.0,29.698818,,,TRUE,TRUE,,,,,,,SCT,1800,OVC,2700,,,,,MVFR,,,,,,,,,,,,METAR,282.0
KBVU 171915Z AUTO 00000KT 10SM CLR 16/M06 A3019 RMK AO2,KBVU,2021-01-17T19:15:00Z,35.95,-114.87,16.0,-6.0,0,0,,10.0,30.188976,,,TRUE,TRUE,,,,,,,CLR,,,,,,,,VFR,,,,,,,,,,,,METAR,654.0
KBVI 171915Z AUTO 24008KT 10SM SCT020 BKN028 OVC034 02/M01 A2967 RMK AO2 T00191013,KBVI,2021-01-17T19:15:00Z,40.77,-80.37,1.9,-1.3,240,8,,10.0,29.66929,,,TRUE,TRUE,,,,,,,SCT,2000,BKN,2800,OVC,3400,,,MVFR,,,,,,,,,,,,METAR,387.0
KBUU 171915Z AUTO 30007KT 10SM SCT018 SCT022 00/M03 A2967 RMK AO2 T10011035 PWINO,KBUU,2021-01-17T19:15:00Z,42.68,-88.3,-0.1,-3.5,300,7,,10.0,29.66929,,,TRUE,TRUE,,,,,TRUE,,SCT,1800,SCT,2200,,,,,VFR,,,,,,,,,,,,METAR,238.0
KBRY 171915Z AUTO 25006KT 10SM SCT017 BKN025 BKN030 01/00 A2978 RMK AO1,KBRY,2021-01-17T19:15:00Z,37.82,-85.5,1.0,0.0,250,6,,10.0,29.778543,,,TRUE,TRUE,,,,,,,SCT,1700,BKN,2500,BKN,3000,,,MVFR,,,,,,,,,,,,SPECI,192.0
KBRG 171915Z AUTO 00000KT 10SM CLR 09/M11 A3014 RMK AO2 T00881112,KBRG,2021-01-17T19:15:00Z,34.65,-106.83,8.8,-11.2,0,0,,10.0,30.138779,,,TRUE,TRUE,,,,,,,CLR,,,,,,,,VFR,,,,,,,,,,,,METAR,1585.0
KBNW 171915Z AUTO 33013KT 10SM BKN016 OVC065 M02/M02 A2979 RMK AO2,KBNW,2021-01-17T19:15:00Z,42.03,-93.83,-2.0,-2.0,330,13,,10.0,29.790354,,,TRUE,TRUE,,,,,,,BKN,1600,OVC,6500,,,,,MVFR,,,,,,,,,,,,METAR,350.0
KBNL 171915Z AUTO 24006G13KT 10SM CLR 11/M02 A2993 RMK AO2,KBNL,2021-01-17T19:15:00Z,33.25,-81.38,11.0,-2.0,240,6,13,10.0,29.929134,,,TRUE,TRUE,,,,,,,CLR,,,,,,,,VFR,,,,,,,,,,,,SPECI,76.0
KBKT 171915Z AUTO 22008KT 10SM SCT046 09/M02 A2981 RMK AO1 T00901017,KBKT,2021-01-17T19:15:00Z,37.07,-77.95,9.0,-1.7,220,8,,10.0,29.811024,,,TRUE,TRUE,,,,,,,SCT,4600,,,,,,,VFR,,,,,,,,,,,,METAR,134.0
KBKS 171915Z AUTO 15003KT 10SM BKN044 OVC050 20/11 A3006 RMK AO2 T02010111,KBKS,2021-01-17T19:15:00Z,27.2,-98.12,20.1,11.1,150,3,,10.0,30.059055,,,TRUE,TRUE,,,,,,,BKN,4400,OVC,5000,,,,,VFR,,,,,,,,,,,,METAR,34.0
KBKN 171915Z AUTO 30021G26KT 10SM CLR 10/M03 A3003 RMK AO2,KBKN,2021-01-17T19:15:00Z,36.75,-97.35,10.0,-3.0,300,21,26,10.0,30.029528,,,TRUE,TRUE,,,,,,,CLR,,,,,,,,VFR,,,,,,,,,,,,METAR,208.0
KBJI 171915Z AUTO 32005KT 10SM BKN009 OVC029 M06/M07 A2976 RMK AO2 T10651069,KBJI,2021-01-17T19:15:00Z,47.5,-94.92,-6.5,-6.9,320,5,,10.0,29.760826,,,TRUE,TRUE,,,,,,,BKN,900,OVC,2900,,,,,IFR,,,,,,,,,,,,METAR,422.0
KBFW 171915Z AUTO 00000KT 10SM OVC021 M04/M09 A2971 RMK AO2,KBFW,2021-01-17T19:15:00Z,47.25,-91.4,-4.0,-9.0,0,0,,10.0,29.71063,,,TRUE,TRUE,,,,,,,OVC,2100,,,,,,,MVFR,,,,,,,,,,,,METAR,335.0
KBEA 171915Z AUTO 00000KT 10SM CLR 22/09 A3008 RMK AO2 T02160093,KBEA,2021-01-17T19:15:00Z,28.37,-97.78,21.6,9.3,0,0,,10.0,30.079725,,,TRUE,TRUE,,,,,,,CLR,,,,,,,,VFR,,,,,,,,,,,,METAR,83.0
KBDN 171915Z AUTO 32005KT 10SM CLR 10/01 A3040 RMK AO2,KBDN,2021-01-17T19:15:00Z,44.1,-121.2,10.0,1.0,320,5,,10.0,30.398623,,,TRUE,TRUE,,,,,,,CLR,,,,,,,,VFR,,,,,,,,,,,,METAR,1044.0
KBDH 171915Z AUTO 31010KT 10SM CLR M03/M06 A2981 RMK AO2,KBDH,2021-01-17T19:15:00Z,45.12,-95.13,-3.0,-6.0,310,10,,10.0,29.811024,,,TRUE,TRUE,,,,,,,CLR,,,,,,,,VFR,,,,,,,,,,,,METAR,341.0
KBCK 171915Z AUTO 29005KT 10SM SCT010 OVC031 M01/M03 A2972 RMK AO2 T10101031,KBCK,2021-01-17T19:15:00Z,44.25,-90.85,-1.0,-3.1,290,5,,10.0,29.719488,,,TRUE,TRUE,,,,,,,SCT,1000,OVC,3100,,,,,VFR,,,,,,,,,,,,METAR,256.0
KBCB 171915Z AUTO 25005KT 10SM OVC050 02/M02 A2981 RMK AO2 T00201016,KBCB,2021-01-17T19:15:00Z,37.22,-80.42,2.0,-1.6,250,5,,10.0,29.811024,,,TRUE,TRUE,,,,,,,OVC,5000,,,,,,,VFR,,,,,,,,,,,,METAR,642.0
KBBP 171915Z AUTO 25007KT 10SM BKN047 07/00 A2990 RMK AO2,KBBP,2021-01-17T19:15:00Z,34.62,-79.73,7.0,0.0,250,7,,10.0,29.899607,,,TRUE,TRUE,,,,,,,BKN,4700,,,,,,,VFR,,,,,,,,,,,,METAR,44.0
KBBB 171915Z AUTO 35013KT 10SM SCT024 OVC050 M04/M06 A2980 RMK AO2,KBBB,2021-01-17T19:15:00Z,45.32,-95.65,-4.0,-6.0,350,13,,10.0,29.799213,,,TRUE,TRUE,,,,,,,SCT,2400,OVC,5000,,,,,VFR,,,,,,,,,,,,METAR,315.0
KBAX 171915Z AUTO 28008KT 10SM -SN BKN010 OVC020 00/M01 A2961 RMK AO2 T00011011,KBAX,2021-01-17T19:15:00Z,43.78,-82.98,0.1,-1.1,280,8,,10.0,29.610237,,,TRUE,TRUE,,,,,,-SN,BKN,1000,OVC,2000,,,,,MVFR,,,,,,,,,,,,METAR,229.0
KBAC 171915Z AUTO 36006KT 10SM OVC018 M04/M04 A2986 RMK AO2,KBAC,2021-01-17T19:15:00Z,46.93,-98.02,-4.0,-4.0,360,6,,10.0,29.861221,,,TRUE,TRUE,,,,,,,OVC,1800,,,,,,,MVFR,,,,,,,,,,,,METAR,423.0
KAXV 171915Z AUTO 23007KT 1 1/2SM -SN OVC008 00/00 A2968 RMK AO2,KAXV,2021-01-17T19:15:00Z,40.5,-84.3,0.0,0.0,230,7,,1.5,29.681103,,,TRUE,TRUE,,,,,,-SN,OVC,800,,,,,,,IFR,,,,,,,,,,,,METAR,278.0
KAXA 171915Z AUTO 33015KT 10SM BKN013 OVC050 M02/M03 A2977 RMK A01,KAXA,2021-01-17T19:15:00Z,43.07,-94.27,-2.0,-3.0,330,15,,10.0,29.769686,,,TRUE,TRUE,,,,,,,BKN,1300,OVC,5000,,,,,MVFR,,,,,,,,,,,,METAR,371.0
KAWG 171915Z AUTO 29012KT 10SM CLR M03/M05 A2977 RMK AO2,KAWG,2021-01-17T19:15:00Z,41.27,-91.67,-3.0,-5.0,290,12,,10.0,29.769686,,,TRUE,TRUE,,,,,,,CLR,,,,,,,,VFR,,,,,,,,,,,,METAR,229.0
KAVC 171915Z AUTO 22008KT 10SM CLR 08/M04 A2989 RMK AO2 T00751036,KAVC,2021-01-17T19:15:00Z,36.68,-78.05,7.5,-3.6,220,8,,10.0,29.890747,,,TRUE,TRUE,,,,,,,CLR,,,,,,,,VFR,,,,,,,,,,,,METAR,119.0
KAUM 171915Z AUTO 31004KT 10SM CLR M06/M08 A2975 RMK AO2,KAUM,2021-01-17T19:15:00Z,43.67,-92.92,-6.0,-8.0,310,4,,10.0,29.749016,,,TRUE,TRUE,,,,,,,CLR,,,,,,,,VFR,,,,,,,,,,,,METAR,376.0
KATS 171915Z AUTO 00000KT 10SM CLR 09/M09 A3013 RMK AO2,KATS,2021-01-17T19:15:00Z,32.85,-104.47,9.0,-9.0,0,0,,10.0,30.129921,,,TRUE,TRUE,,,,,,,CLR,,,,,,,,VFR,,,,,,,,,,,,METAR,1073.0
KASJ 171915Z AUTO 22008KT 10SM CLR 09/M02 A2986 RMK AO2 T00861017,KASJ,2021-01-17T19:15:00Z,36.28,-77.17,8.6,-1.7,220,8,,10.0,29.861221,,,TRUE,TRUE,,,,,,,CLR,,,,,,,,VFR,,,,,,,,,,,,METAR,20.0
KARW 171915Z AUTO 22006KT 10SM CLR 12/M01 A2995 RMK AO2,KARW,2021-01-17T19:15:00Z,32.42,-80.63,12.0,-1.0,220,6,,10.0,29.949802,,,TRUE,TRUE,,,,,,,CLR,,,,,,,,VFR,,,,,,,,,,,,METAR,2.0
KARV 171915Z AUTO 36007KT 10SM OVC010 M05/M09 A2968 RMK AO2 T10501095,KARV,2021-01-17T19:15:00Z,45.92,-89.72,-5.0,-9.5,360,7,,10.0,29.681103,,,TRUE,TRUE,,,,,,,OVC,1000,,,,,,,MVFR,,,,,,,,,,,,METAR,494.0
KAQX 171915Z AUTO VRB06KT 240V320 10SM CLR 11/M02 A2993 RMK AO2,KAQX,2021-01-17T19:15:00Z,32.98,-81.27,11.0,-2.0,0,6,,10.0,29.929134,,,TRUE,TRUE,,,,,,,CLR,,,,,,,,VFR,,,,,,,,,,,,METAR,48.0
KANQ 171915Z AUTO 24007KT 2 1/2SM -SN SCT008 SCT013 BKN019 00/M00 A2965 RMK AO2,KANQ,2021-01-17T19:15:00Z,41.63,-85.08,0.0,0.0,240,7,,2.5,29.648623,,,TRUE,TRUE,,,,,,-SN,SCT,800,SCT,1300,BKN,1900,,,IFR,,,,,,,,,,,,METAR,299.0
KALM 171915Z AUTO 02007KT 10SM CLR 13/M12 A3015 RMK AO2,KALM,2021-01-17T19:15:00Z,32.83,-105.98,13.0,-12.0,20,7,,10.0,30.15059,,,TRUE,TRUE,,,,,,,CLR,,,,,,,,VFR,,,,,,,,,,,,METAR,1267.0
KAIT 171915Z AUTO 00000KT 10SM -SN OVC005 M08/M10 A2977 RMK AO2,KAIT,2021-01-17T19:15:00Z,46.53,-93.67,-8.0,-10.0,0,0,,10.0,29.769686,,,TRUE,TRUE,,,,,,-SN,OVC,500,,,,,,,IFR,,,,,,,,,,,,METAR,367.0
KAIO 171915Z AUTO 32015G21KT 10SM OVC018 M01/M04 A2984 RMK AO2,KAIO,2021-01-17T19:15:00Z,41.4,-95.03,-1.0,-4.0,320,15,21,10.0,29.840551,,,TRUE,TRUE,,,,,,,OVC,1800,,,,,,,MVFR,,,,,,,,,,,,METAR,349.0
KAIK 171915Z AUTO 22011G14KT 10SM SCT050 10/M03 A2992 RMK AO2 T00991025,KAIK,2021-01-17T19:15:00Z,33.65,-81.68,9.9,-2.5,220,11,14,10.0,29.920275,,,TRUE,TRUE,,,,,,,SCT,5000,,,,,,,VFR,,,,,,,,,,,,METAR,155.0
KAIG 171915Z AUTO 34006KT 10SM OVC020 M04/M07 A2967 RMK AO2 T10401074,KAIG,2021-01-17T19:15:00Z,45.15,-89.12,-4.0,-7.4,340,6,,10.0,29.66929,,,TRUE,TRUE,,,,,,,OVC,2000,,,,,,,MVFR,,,,,,,,,,,,METAR,462.0
KAFP 171915Z AUTO 21011G14KT 170V240 10SM CLR 08/M04 A2989 RMK AO2 T00751040,KAFP,2021-01-17T19:15:00Z,35.02,-80.08,7.5,-4.0,210,11,14,10.0,29.890747,,,TRUE,TRUE,,,,,,,CLR,,,,,,,,VFR,,,,,,,,,,,,SPECI,91.0
KAEL 171915Z AUTO 31005KT 5SM BR OVC004 M06/M06 A2976 RMK AO2,KAEL,2021-01-17T19:15:00Z,43.68,-93.37,-6.0,-6.0,310,5,,5.0,29.760826,,,TRUE,TRUE,,,,,,BR,OVC,400,,,,,,,LIFR,,,,,,,,,,,,METAR,382.0
KADU 171915Z AUTO 32012G18KT 10SM OVC017 M01/M04 A2983 RMK AO2,KADU,2021-01-17T19:15:00Z,41.7,-94.92,-1.0,-4.0,320,12,18,10.0,29.828741,,,TRUE,TRUE,,,,,,,OVC,1700,,,,,,,MVFR,,,,,,,,,,,,METAR,391.0
KACQ 171915Z AUTO 32005KT 7SM OVC007 M04/M06 A2978 RMK AO2,KACQ,2021-01-17T19:15:00Z,44.07,-93.55,-4.0,-6.0,320,5,,7.0,29.778543,,,TRUE,TRUE,,,,,,,OVC,700,,,,,,,IFR,,,,,,,,,,,,METAR,339.0
KACB 171915Z AUTO 00000KT 10SM SCT016 BKN037 OVC043 00/M03 A2964 RMK AO2 T00001033,KACB,2021-01-17T19:15:00Z,44.98,-85.2,0.0,-3.3,0,0,,10.0,29.639763,,,TRUE,TRUE,,,,,,,SCT,1600,BKN,3700,OVC,4300,,,VFR,,,,,,,,,,,,METAR,189.0
K9D7 171915Z AUTO 04003KT 9SM BKN007 OVC018 M05/M05 A2987 RMK AO2,K9D7,2021-01-17T19:15:00Z,48.48,-99.23,-5.0,-5.0,40,3,,9.0,29.870079,,,TRUE,TRUE,,,,,,,BKN,700,OVC,1800,,,,,IFR,,,,,,,,,,,,METAR,451.0
K96D 171915Z AUTO 34012KT 9SM -SN OVC018 M07/M07 A2988 RMK AO2,K96D,2021-01-17T19:15:00Z,48.93,-97.9,-7.0,-7.0,340,12,,9.0,29.878937,,,TRUE,TRUE,,,,,,-SN,OVC,1800,,,,,,,MVFR,,,,,,,,,,,,SPECI,290.0
K8W2 171915Z AUTO 21006KT 10SM OVC050 06/M03 A2973 RMK AO1 T00571027,K8W2,2021-01-17T19:15:00Z,38.65,-78.7,5.7,-2.7,210,6,,10.0,29.731298,,,TRUE,TRUE,,,,,,,OVC,5000,,,,,,,VFR,,,,,,,,,,,,METAR,295.0
K82C 171915Z AUTO 30007KT 10SM OVC029 M01/M06 A2970 RMK AO2 T10071057,K82C,2021-01-17T19:15:00Z,43.83,-90.13,-0.7,-5.7,300,7,,10.0,29.698818,,,TRUE,TRUE,,,,,,,OVC,2900,,,,,,,MVFR,,,,,,,,,,,,METAR,273.0
K7W4 171915Z AUTO 26007KT 10SM OVC050 08/M05 A2979 RMK AO1 T00761046,K7W4,2021-01-17T19:15:00Z,37.97,-77.75,7.6,-4.6,260,7,,10.0,29.790354,,,TRUE,TRUE,,,,,,,OVC,5000,,,,,,,VFR,,,,,,,,,,,,METAR,115.0
K7L2 171915Z AUTO 33010KT 10SM CLR M00/M05 A2989 RMK AO2,K7L2,2021-01-17T19:15:00Z,46.22,-100.25,0.0,-5.0,330,10,,10.0,29.890747,,,TRUE,TRUE,,,,,,,CLR,,,,,,,,VFR,,,,,,,,,,,,METAR,541.0
K79S 171915Z AUTO 19013G21KT 10SM 08/M03 A2983 ,K79S,2021-01-17T19:15:00Z,47.85,-110.63,8.0,-3.0,190,13,21,10.0,29.828741,,,TRUE,,,,,,,,,,,,,,,,,,,,,,,,,,,,METAR,874.0
K77S 171915Z AUTO 00000KT 10SM CLR 10/08 A3047 RMK A01,K77S,2021-01-17T19:15:00Z,43.93,-123.0,10.0,8.0,0,0,,10.0,30.469488,,,TRUE,TRUE,,,,,,,CLR,,,,,,,,VFR,,,,,,,,,,,,METAR,161.0
K74V 171915Z AUTO 00000KT 10SM CLR 00/M07 A3022 RMK AO2,K74V,2021-01-17T19:15:00Z,40.28,-110.05,0.0,-7.0,0,0,,10.0,30.221457,,,TRUE,TRUE,,,,,,,CLR,,,,,,,,VFR,,,,,,,,,,,,METAR,1567.0
K6S2 171915Z AUTO 00000KT 7SM BKN016 12/09 A3048 RMK AO2 T01180087,K6S2,2021-01-17T19:15:00Z,43.98,-124.12,11.8,8.7,0,0,,7.0,30.481298,,,TRUE,TRUE,,,,,,,BKN,1600,,,,,,,MVFR,,,,,,,,,,,,METAR,16.0
K6L4 171915Z AUTO 00000KT 10SM SCT018 BKN022 OVC055 02/M00 A2974 RMK AO2,K6L4,2021-01-17T19:15:00Z,37.85,-81.92,2.0,0.0,0,0,,10.0,29.740158,,,TRUE,TRUE,,,,,,,SCT,1800,BKN,2200,OVC,5500,,,MVFR,,,,,,,,,,,,METAR,504.0
K6B9 171915Z AUTO 26014G21KT 10SM SCT026 OVC034 02/M01 A2954 RMK AO2,K6B9,2021-01-17T19:15:00Z,42.92,-76.43,2.0,-1.0,260,14,21,10.0,29.53937,,,TRUE,TRUE,,,,,,,SCT,2600,OVC,3400,,,,,VFR,,,,,,,,,,,,METAR,306.0
K6B0 171915Z AUTO 23007KT 190V260 10SM SCT031 SCT042 OVC049 01/M03 A2941 RMK AO2 T00101030,K6B0,2021-01-17T19:15:00Z,43.98,-73.1,1.0,-3.0,230,7,,10.0,29.409449,,,TRUE,TRUE,,,,,,,SCT,3100,SCT,4200,OVC,4900,,,VFR,,,,,,,,,,,,METAR,149.0
K5H4 171915Z AUTO 32008G13KT 10SM M03/M08 A2988 RMK AO2,K5H4,2021-01-17T19:15:00Z,47.78,-99.93,-3.0,-8.0,320,8,13,10.0,29.878937,,,TRUE,TRUE,,,,,,,,,,,,,,,,,,,,,,,,,,,METAR,490.0
K57C 171915Z AUTO 29004KT 10SM SCT015 SCT020 BKN031 M01/M03 A2967 RMK AO2 T10061035,K57C,2021-01-17T19:15:00Z,42.8,-88.37,-0.6,-3.5,290,4,,10.0,29.66929,,,TRUE,TRUE,,,,,,,SCT,1500,SCT,2000,BKN,3100,,,VFR,,,,,,,,,,,,METAR,454.0
K54J 171915Z AUTO 00000KT 10SM CLR 14/M02 A3000 RMK AO2 T01391021,K54J,2021-01-17T19:15:00Z,30.73,-86.15,13.9,-2.1,0,0,,10.0,30.0,,,TRUE,TRUE,,,,,,,CLR,,,,,,,,VFR,,,,,,,,,,,,METAR,87.0
K4S2 171915Z AUTO 30004KT 10SM SCT040 10/05 A3043 RMK AO2,K4S2,2021-01-17T19:15:00Z,45.68,-121.55,10.0,5.0,300,4,,10.0,30.431103,,,TRUE,TRUE,,,,,,,SCT,4000,,,,,,,VFR,,,,,,,,,,,,METAR,183.0
K4A6 171915Z AUTO 25014G20KT 10SM FEW060 FEW070 11/M03 A2986 RMK AO2,K4A6,2021-01-17T19:15:00Z,34.68,-86.0,11.0,-3.0,250,14,20,10.0,29.861221,,,TRUE,TRUE,,,,,,,FEW,6000,FEW,7000,,,,,VFR,,,,,,,,,,,,METAR,191.0
K46D 171915Z AUTO 32010KT 8SM OVC010 M02/M04 A2986 RMK AO2,K46D,2021-01-17T19:15:00Z,47.45,-99.15,-2.0,-4.0,320,10,,8.0,29.861221,,,TRUE,TRUE,,,,,,,OVC,1000,,,,,,,MVFR,,,,,,,,,,,,METAR,488.0
K42J 171915Z AUTO 28010KT 10SM CLR 14/M02 A2999 RMK A01 TSNO,K42J,2021-01-17T19:15:00Z,29.85,-82.05,14.0,-2.0,280,10,,10.0,29.991142,,,TRUE,TRUE,,,TRUE,,,,CLR,,,,,,,,VFR,,,,,,,,,,,,METAR,57.0
K3U3 171915Z AUTO 26017G26KT 9SM 03/M02 A3002 ,K3U3,2021-01-17T19:15:00Z,46.15,-112.87,3.0,-2.0,260,17,26,9.0,30.02067,,,TRUE,,,,,,,,,,,,,,,,,,,,,,,,,,,,METAR,1534.0
K3T5 171915Z AUTO 33005KT 10SM CLR 19/M02 A3008 RMK AO2 T01911019,K3T5,2021-01-17T19:15:00Z,29.9,-96.95,19.1,-1.9,330,5,,10.0,30.079725,,,TRUE,TRUE,,,,,,,CLR,,,,,,,,VFR,,,,,,,,,,,,METAR,96.0
K3D2 171915Z AUTO 36008KT 10SM BKN021 BKN027 OVC037 M01/M05 A2966 RMK AO2 T10151052,K3D2,2021-01-17T19:15:00Z,45.13,-87.18,-1.5,-5.2,360,8,,10.0,29.660433,,,TRUE,TRUE,,,,,,,BKN,2100,BKN,2700,OVC,3700,,,MVFR,,,,,,,,,,,,METAR,233.0
K38S 171915Z AUTO 02004KT 7SM 01/00 A3008 ,K38S,2021-01-17T19:15:00Z,46.38,-112.77,1.0,0.0,20,4,,7.0,30.079725,,,TRUE,,,,,,,,,,,,,,,,,,,,,,,,,,,,METAR,1430.0
K35A 171915Z AUTO 27009KT 210V300 10SM SCT050 09/M03 A2992 RMK A02 T00931032,K35A,2021-01-17T19:15:00Z,,,9.3,-3.2,270,9,,10.0,29.920275,,,TRUE,TRUE,,,,,,,SCT,5000,,,,,,,VFR,,,,,,,,,,,,METAR,
K2W6 171915Z AUTO 25009KT 10SM SCT044 07/M02 A2979 RMK AO1,K2W6,2021-01-17T19:15:00Z,38.32,-76.55,7.0,-2.0,250,9,,10.0,29.790354,,,TRUE,TRUE,,,,,,,SCT,4400,,,,,,,VFR,,,,,,,,,,,,METAR,40.0
K2J9 171915Z AUTO 31009KT 10SM CLR 14/M02 A3002 RMK AO2,K2J9,2021-01-17T19:15:00Z,30.6,-84.55,14.0,-2.0,310,9,,10.0,30.02067,,,TRUE,TRUE,,,,,,,CLR,,,,,,,,VFR,,,,,,,,,,,,METAR,62.0
K2G4 171915Z AUTO 24007KT 212V272 3SM OVC006 M03/M03 A2965 RMK AO1,K2G4,2021-01-17T19:15:00Z,39.58,-79.33,-3.0,-3.0,240,7,,3.0,29.648623,,,TRUE,TRUE,,,,,,,OVC,600,,,,,,,IFR,,,,,,,,,,,,METAR,908.0
K2D5 171915Z AUTO 32014KT 10SM OVC014 M02/M04 A2985 RMK AO2,K2D5,2021-01-17T19:15:00Z,46.17,-98.08,-2.0,-4.0,320,14,,10.0,29.84941,,,TRUE,TRUE,,,,,,,OVC,1400,,,,,,,MVFR,,,,,,,,,,,,METAR,407.0
K2C8 171915Z AUTO 35013KT 10SM OVC021 M08/M11 A2988 RMK AO2,K2C8,2021-01-17T19:15:00Z,48.78,-97.63,-8.0,-11.0,350,13,,10.0,29.878937,,,TRUE,TRUE,,,,,,,OVC,2100,,,,,,,MVFR,,,,,,,,,,,,METAR,271.0
K27K 171915Z AUTO 23009KT 5SM BKN009 BKN013 OVC017 00/00 A2975 RMK AO1,K27K,2021-01-17T19:15:00Z,38.23,-84.43,0.0,0.0,230,9,,5.0,29.749016,,,TRUE,TRUE,,,,,,,BKN,900,BKN,1300,OVC,1700,,,IFR,,,,,,,,,,,,SPECI,283.0
K24J 171915Z AUTO 24007G13KT 210V280 10SM CLR 14/M00 A3000 RMK A01,K24J,2021-01-17T19:15:00Z,30.3,-83.03,14.0,0.0,240,7,13,10.0,30.0,,,TRUE,TRUE,,,,,,,CLR,,,,,,,,VFR,,,,,,,,,,,,METAR,30.0
K24A 171915Z AUTO 24008KT 10SM SCT034 SCT040 BKN065 02/M06 A2981 RMK AO2 T00221056,K24A,2021-01-17T19:15:00Z,35.32,-83.2,2.2,-5.6,240,8,,10.0,29.811024,,,TRUE,TRUE,,,,,,,SCT,3400,SCT,4000,BKN,6500,,,VFR,,,,,,,,,,,,METAR,864.0
K22N 171915Z AUTO 26007KT 10SM SCT036 BKN042 05/M01 A2965 RMK AO2,K22N,2021-01-17T19:15:00Z,40.8,-75.77,5.0,-1.0,260,7,,10.0,29.648623,,,TRUE,TRUE,,,,,,,SCT,3600,BKN,4200,,,,,VFR,,,,,,,,,,,,METAR,159.0
K20U 171915Z AUTO 25007KT 10SM CLR 01/M09 A2985 RMK AO2,K20U,2021-01-17T19:15:00Z,46.93,-103.98,1.0,-9.0,250,7,,10.0,29.84941,,,TRUE,TRUE,,,,,,,CLR,,,,,,,,VFR,,,,,,,,,,,,METAR,839.0
K1S5 171915Z AUTO 00000KT 7SM CLR 04/02 A3036 RMK AO2 T00440022,K1S5,2021-01-17T19:15:00Z,46.33,-119.97,4.4,2.2,0,0,,7.0,30.360237,,,TRUE,TRUE,,,,,,,CLR,,,,,,,,VFR,,,,,,,,,,,,METAR,228.0
K1R7 171915Z AUTO 27010G17KT 10SM CLR 15/M04 A3001 RMK AO2 PWINO,K1R7,2021-01-17T19:15:00Z,31.6,-90.42,15.0,-4.0,270,10,17,10.0,30.008858,,,TRUE,TRUE,,,,,TRUE,,CLR,,,,,,,,VFR,,,,,,,,,,,,METAR,142.0
K1P1 171915Z AUTO 29007G19KT 230V300 10SM BKN029 OVC045 03/M02 A2934 RMK AO2 T00301025,K1P1,2021-01-17T19:15:00Z,43.78,-71.75,3.0,-2.5,290,7,19,10.0,29.338583,,,TRUE,TRUE,,,,,,,BKN,2900,OVC,4500,,,,,MVFR,,,,,,,,,,,,METAR,155.0
K1A5 171915Z AUTO 24003KT 10SM OVC043 05/M04 A2987 RMK AO2 T00451044,K1A5,2021-01-17T19:15:00Z,35.22,-83.42,4.5,-4.4,240,3,,10.0,29.870079,,,TRUE,TRUE,,,,,,,OVC,4300,,,,,,,VFR,,,,,,,,,,,,METAR,611.0
K14Y 171915Z AUTO 32007KT 5SM BR OVC009 M05/M07 A2976 RMK AO2,K14Y,2021-01-17T19:15:00Z,45.9,-94.87,-5.0,-7.0,320,7,,5.0,29.760826,,,TRUE,TRUE,,,,,,BR,OVC,900,,,,,,,IFR,,,,,,,,,,,,METAR,404.0
K0V4 171915Z AUTO 24006G15KT 10SM SCT048 SCT055 10/M01 A2980 RMK AO1 T01001012,K0V4,2021-01-17T19:15:00Z,37.15,-79.02,10.0,-1.2,240,6,15,10.0,29.799213,,,TRUE,TRUE,,,,,,,SCT,4800,SCT,5500,,,,,VFR,,,,,,,,,,,,METAR,186.0
K0S9 171915Z AUTO 13003KT 10SM OVC019 08/08 A3047 RMK AO2,K0S9,2021-01-17T19:15:00Z,48.05,-122.82,8.0,8.0,130,3,,10.0,30.469488,,,TRUE,TRUE,,,,,,,OVC,1900,,,,,,,MVFR,,,,,,,,,,,,METAR,33.0
K0E0 171915Z AUTO 13003KT 10SM CLR 11/M14 A3012 RMK AO2 T01081141,K0E0,2021-01-17T19:15:00Z,34.98,-106.0,10.8,-14.1,130,3,,10.0,30.121063,,,TRUE,TRUE,,,,,,,CLR,,,,,,,,VFR,,,,,,,,,,,,METAR,1887.0
K08D 171915Z AUTO 27006KT 10SM OVC039 M03/M03 A2985 RMK AO2,K08D,2021-01-17T19:15:00Z,48.3,-102.4,-3.0,-3.0,270,6,,10.0,29.84941,,,TRUE,TRUE,,,,,,,OVC,3900,,,,,,,VFR,,,,,,,,,,,,METAR,683.0
K06D 171915Z AUTO 33011KT 10SM FEW006 OVC013 M06/M06 A2983 RMK AO2,K06D,2021-01-17T19:15:00Z,48.88,-99.62,-6.0,-6.0,330,11,,10.0,29.828741,,,TRUE,TRUE,,,,,,,FEW,600,OVC,1300,,,,,MVFR,,,,,,,,,,,,METAR,554.0
CYVM 171915Z AUTO 10004KT 7SM -SN OVC033 M15/M16 A2979 RMK SLP088,CYVM,2021-01-17T19:15:00Z,67.55,-64.02,-15.0,-16.0,100,4,,7.0,29.790354,1008.8,,TRUE,,,,,,,-SN,OVC,3300,,,,,,,VFR,,,,,,,,,,,,SPECI,3.0
CYNM 171915Z AUTO 31018G24KT 3SM -SN BKN012 OVC020 M11/M13 A2944 RMK SLP996,CYNM,2021-01-17T19:15:00Z,49.77,-77.78,-11.0,-13.0,310,18,24,3.0,29.438976,999.6,,TRUE,,,,,,,-SN,BKN,1200,OVC,2000,,,,,MVFR,,,,,,,,,,,,SPECI,276.0
CYNA 171915Z AUTO 09034G50KT 3SM -RA BR FEW010 OVC022 01/M00 A2905 RMK ICG PAST HR SLP840,CYNA,2021-01-17T19:15:00Z,50.18,-61.78,1.0,0.0,90,34,50,3.0,29.049213,984.0,,TRUE,,,,,,,-RA BR,FEW,1000,OVC,2200,,,,,MVFR,,,,,,,,,,,,SPECI,9.0
CYHY 171915Z 13004KT 2SM BR BKN002 BKN003 M14/M16 A2989 RMK ST5ST2 SLP142,CYHY,2021-01-17T19:15:00Z,60.83,-115.77,-14.0,-16.0,130,4,,2.0,29.890747,1014.2,,,,,,,,,BR,BKN,200,BKN,300,,,,,LIFR,,,,,,,,,,,,SPECI,159.0
YKRY 171914Z AUTO 06003KT 9999 // SCT008 BKN050 21/20 Q1015,YKRY,2021-01-17T19:14:00Z,-26.57,151.83,21.0,20.0,60,3,,6.21,29.970472,,,TRUE,,,,,,,,SCT,800,BKN,5000,,,,,VFR,,,,,,,,,,,,SPECI,435.0
PAZK 171914Z AUTO 00000KT 1SM BR BKN002 M11/M12 A2946 RMK AO2 FZRANO,PAZK,2021-01-17T19:14:00Z,61.93,-147.17,-11.0,-12.0,0,0,,1.0,29.459646,,,TRUE,TRUE,,,,TRUE,,BR,BKN,200,,,,,,,LIFR,,,,,,,,,,,,METAR,1002.0
PAVA 171914Z AUTO 34014G21KT 7SM -SN FEW009 BKN015 OVC019 M12/M14 A2963 RMK AO2 P0000 FZRANO,PAVA,2021-01-17T19:14:00Z,61.53,-165.6,-12.0,-14.0,340,14,21,7.0,29.630905,,,TRUE,TRUE,,,,TRUE,,-SN,FEW,900,BKN,1500,OVC,1900,,,MVFR,,,,,,0.005,,,,,,SPECI,14.0
PAOU 171914Z AUTO 35021G27KT 3/4SM -SN BR BKN017 OVC022 M03/M04 A2950 RMK AO2 PK WND 36027/1907 P0000 FZRANO,PAOU,2021-01-17T19:14:00Z,56.0,-161.17,-3.0,-4.0,350,21,27,0.75,29.500984,,,TRUE,TRUE,,,,TRUE,,-SN BR,BKN,1700,OVC,2200,,,,,LIFR,,,,,,0.005,,,,,,METAR,3.0
KMFD 171914Z 21006KT 2SM -SN BR SCT009 BKN023 OVC028 01/M01 A2966 RMK AO2 P0000 T00111006,KMFD,2021-01-17T19:14:00Z,40.82,-82.52,1.1,-0.6,210,6,,2.0,29.660433,,,,TRUE,,,,,,-SN BR,SCT,900,BKN,2300,OVC,2800,,,IFR,,,,,,0.005,,,,,,SPECI,394.0
KLWS 171914Z 00000KT 6SM BR SCT004 04/02 A3030 RMK AO2 T00440022,KLWS,2021-01-17T19:14:00Z,46.37,-117.02,4.4,2.2,0,0,,6.0,30.301182,,,,TRUE,,,,,,BR,SCT,400,,,,,,,VFR,,,,,,,,,,,,SPECI,435.0
KDIJ 171914Z AUTO 17012KT 10SM -SN OVC013 M01/M03 A3018 RMK AO2 UPE14SNB14 P0000,KDIJ,2021-01-17T19:14:00Z,43.75,-111.1,-1.0,-3.0,170,12,,10.0,30.180119,,,TRUE,TRUE,,,,,,-SN,OVC,1300,,,,,,,MVFR,,,,,,0.005,,,,,,METAR,1896.0
KBFD 171914Z AUTO 2 1/2SM -SN BKN012 OVC019 01/M03 A2957 RMK AO2 SNB03 P0000 T00061033,KBFD,2021-01-17T19:14:00Z,41.8,-78.63,0.6,-3.3,,,,2.5,29.568897,,,TRUE,TRUE,,,,,,-SN,BKN,1200,OVC,1900,,,,,IFR,,,,,,0.005,,,,,,SPECI,642.0
CYYG 171914Z 20020G28KT 8SM -SHRA SCT012 OVC018 02/01 A2904 RMK SC3CU5 CIG RAG SLP838,CYYG,2021-01-17T19:14:00Z,46.28,-63.12,2.0,1.0,200,20,28,8.0,29.040354,983.8,,,,,,,,,-SHRA,SCT,1200,OVC,1800,,,,,MVFR,,,,,,,,,,,,SPECI,48.0
CYXU 171914Z 27009KT 15SM FEW010 OVC022 01/M01 A2960 RMK SF1SC7 SLP033,CYXU,2021-01-17T19:14:00Z,43.03,-81.15,1.0,-1.0,270,9,,15.0,29.601377,1003.3,,,,,,,,,,FEW,1000,OVC,2200,,,,,MVFR,,,,,,,,,,,,METAR,278.0
CYHU 171914Z AUTO 26014G21KT 9SM -SN -UP BKN020 BKN025 OVC033 01/M02 A2933 RMK SLP932,CYHU,2021-01-17T19:14:00Z,45.52,-73.42,1.0,-2.0,260,14,21,9.0,29.329725,993.2,,TRUE,,,,,,,-SN UP,BKN,2000,BKN,2500,OVC,3300,,,MVFR,,,,,,,,,,,,SPECI,26.0
YBTL 171913Z AUTO 12011KT 3600 -RA BKN013 BKN020 OVC025 25/24 Q1007,YBTL,2021-01-17T19:13:00Z,-19.25,146.75,25.0,24.0,120,11,,2.24,29.734253,,,TRUE,,,,,,,-RA,BKN,1300,BKN,2000,OVC,2500,,,IFR,,,,,,,,,,,,SPECI,4.0
YBCG 171913Z AUTO 31007KT 220V350 5000 SHRA SCT004 OVC016 22/21 Q1013,YBCG,2021-01-17T19:13:00Z,-28.17,153.5,22.0,21.0,310,7,,3.11,29.911417,,,TRUE,,,,,,,SHRA,SCT,400,OVC,1600,,,,,MVFR,,,,,,,,,,,,SPECI,5.0
KXVG 171913Z AUTO 00000KT 10SM OVC006 M07/M08 A2975 RMK AO2,KXVG,2021-01-17T19:13:00Z,46.98,-94.2,-7.0,-8.0,0,0,,10.0,29.749016,,,TRUE,TRUE,,,,,,,OVC,600,,,,,,,IFR,,,,,,,,,,,,METAR,407.0
KOWA 171913Z AUTO 29008KT 10SM SCT011 BKN024 M05/M07 A2976 RMK AO2,KOWA,2021-01-17T19:13:00Z,44.12,-93.25,-5.0,-7.0,290,8,,10.0,29.760826,,,TRUE,TRUE,,,,,,,SCT,1100,BKN,2400,,,,,MVFR,,,,,,,,,,,,METAR,345.0
KOSH 171913Z 00000KT 9SM BKN015 BKN021 OVC028 M01/M04 A2969 RMK AO2 T10111044,KOSH,2021-01-17T19:13:00Z,43.98,-88.55,-1.1,-4.4,0,0,,9.0,29.68996,,,,TRUE,,,,,,,BKN,1500,BKN,2100,OVC,2800,,,MVFR,,,,,,,,,,,,METAR,239.0
KORB 171913Z AUTO 00000KT 10SM OVC004 M08/M09 A2972 RMK AO2,KORB,2021-01-17T19:13:00Z,48.02,-92.87,-8.0,-9.0,0,0,,10.0,29.719488,,,TRUE,TRUE,,,,,,,OVC,400,,,,,,,LIFR,,,,,,,,,,,,METAR,407.0
KMYL 171913Z AUTO 35003KT 6SM HZ BKN021 OVC032 M02/M04 A3027 RMK AO2 T10171044 $,KMYL,2021-01-17T19:13:00Z,44.9,-116.1,-1.7,-4.4,350,3,,6.0,30.268702,,,TRUE,TRUE,TRUE,,,,,HZ,BKN,2100,OVC,3200,,,,,MVFR,,,,,,,,,,,,METAR,1532.0
KMSO 171913Z 26003KT 3/4SM -SN BR FEW002 BKN023 OVC036 01/01 A3014 RMK AO2 UPE13SNB1856E06B13 P0001 T00060006,KMSO,2021-01-17T19:13:00Z,46.92,-114.1,0.6,0.6,260,3,,0.75,30.138779,,,,TRUE,,,,,,-SN BR,FEW,200,BKN,2300,OVC,3600,,,LIFR,,,,,,0.01,,,,,,METAR,974.0
KLEX 171913Z 24014G22KT 5SM -SN BR BKN014 OVC034 01/M01 A2976 RMK AO2 P0000 T00111011,KLEX,2021-01-17T19:13:00Z,38.03,-84.6,1.1,-1.1,240,14,22,5.0,29.760826,,,,TRUE,,,,,,-SN BR,BKN,1400,OVC,3400,,,,,MVFR,,,,,,0.005,,,,,,METAR,294.0
KGKJ 171913Z AUTO 25010KT 8SM OVC015 00/M02 A2962 RMK AO2 T00001022,KGKJ,2021-01-17T19:13:00Z,41.63,-80.22,0.0,-2.2,250,10,,8.0,29.619095,,,TRUE,TRUE,,,,,,,OVC,1500,,,,,,,MVFR,,,,,,,,,,,,METAR,428.0
KFOZ 171913Z AUTO 00000KT 10SM OVC006 M09/M10 A2980 RMK AO2,KFOZ,2021-01-17T19:13:00Z,47.77,-93.65,-9.0,-10.0,0,0,,10.0,29.799213,,,TRUE,TRUE,,,,,,,OVC,600,,,,,,,IFR,,,,,,,,,,,,METAR,412.0
KETH 171913Z AUTO 32010G17KT 10SM -SN OVC013 M03/M05 A2985 RMK AO2,KETH,2021-01-17T19:13:00Z,45.78,-96.55,-3.0,-5.0,320,10,17,10.0,29.84941,,,TRUE,TRUE,,,,,,-SN,OVC,1300,,,,,,,MVFR,,,,,,,,,,,,METAR,309.0
KDVP 171913Z AUTO 32011KT 7SM OVC014 M01/M04 A2980 RMK AO2 T10151041,KDVP,2021-01-17T19:13:00Z,43.98,-95.78,-1.5,-4.1,320,11,,7.0,29.799213,,,TRUE,TRUE,,,,,,,OVC,1400,,,,,,,MVFR,,,,,,,,,,,,METAR,493.0
KBJJ 171913Z AUTO 23007KT 7SM -SN SCT013 OVC030 01/M01 A2967 RMK AO2 P0000 T00111011,KBJJ,2021-01-17T19:13:00Z,40.87,-81.88,1.1,-1.1,230,7,,7.0,29.66929,,,TRUE,TRUE,,,,,,-SN,SCT,1300,OVC,3000,,,,,MVFR,,,,,,0.005,,,,,,METAR,338.0
KAZO 171913Z 22009KT 1SM R35/5000VP6000FT -SN BR SCT007 BKN010 OVC019 01/M01 A2965 RMK AO2 P0000 T00111011,KAZO,2021-01-17T19:13:00Z,42.23,-85.55,1.1,-1.1,220,9,,1.0,29.648623,,,,TRUE,,,,,,-SN BR,SCT,700,BKN,1000,OVC,1900,,,IFR,,,,,,0.005,,,,,,METAR,264.0
KAQP 171913Z AUTO 32011G15KT 10SM M02/M04 A2981 RMK AO2,KAQP,2021-01-17T19:13:00Z,45.22,-96.0,-2.0,-4.0,320,11,15,10.0,29.811024,,,TRUE,TRUE,,,,,,,,,,,,,,,,,,,,,,,,,,,METAR,312.0
CYYJ 171913Z 05004KT 360V070 30SM FEW009 BKN018 07/06 A3046 RMK SC2SC4 SLP317,CYYJ,2021-01-17T19:13:00Z,48.63,-123.42,7.0,6.0,50,4,,30.0,30.46063,1031.7,,,,,,,,,,FEW,900,BKN,1800,,,,,MVFR,,,,,,,,,,,,SPECI,16.0
CYQG 171913Z AUTO 23008KT 9SM -RA SCT009 BKN013 OVC037 02/01 A2963 RMK SLP044,CYQG,2021-01-17T19:13:00Z,42.27,-82.97,2.0,1.0,230,8,,9.0,29.630905,1004.4,,TRUE,,,,,,,-RA,SCT,900,BKN,1300,OVC,3700,,,MVFR,,,,,,,,,,,,SPECI,189.0
CYMO 171913Z AUTO 35014G23KT 9SM SCT018 M11/M16 A2973 RMK SLP073,CYMO,2021-01-17T19:13:00Z,51.28,-80.62,-11.0,-16.0,350,14,23,9.0,29.731298,1007.3,,TRUE,,,,,,,,SCT,1800,,,,,,,VFR,,,,,,,,,,,,SPECI,8.0
KIRK 171912Z AUTO 31010KT 10SM OVC016 M01/M04 A2981 RMK AO2 T10061039,KIRK,2021-01-17T19:12:00Z,40.1,-92.55,-0.6,-3.9,310,10,,10.0,29.811024,,,TRUE,TRUE,,,,,,,OVC,1600,,,,,,,MVFR,,,,,,,,,,,,METAR,292.0
KHTS 171912Z 21006KT 2 1/2SM UP BR BKN012 OVC019 02/00 A2975 RMK AO2 UPB1858SNE1858 P0000 T00220000,KHTS,2021-01-17T19:12:00Z,38.37,-82.55,2.2,0.0,210,6,,2.5,29.749016,,,,TRUE,,,,,,BR UP,BKN,1200,OVC,1900,,,,,IFR,,,,,,0.005,,,,,,METAR,252.0
KBKW 171912Z AUTO 19009KT 4SM -SN BR OVC015 M01/M03 A2973 RMK AO2 P0000 T10061028 TSNO,KBKW,2021-01-17T19:12:00Z,37.8,-81.12,-0.6,-2.8,190,9,,4.0,29.731298,,,TRUE,TRUE,,,TRUE,,,-SN BR,OVC,1500,,,,,,,MVFR,,,,,,0.005,,,,,,METAR,762.0
K21D 171912Z AUTO 34004KT 10SM OVC004 M07/M07 A2979 RMK AO2,K21D,2021-01-17T19:12:00Z,45.0,-92.85,-7.0,-7.0,340,4,,10.0,29.790354,,,TRUE,TRUE,,,,,,,OVC,400,,,,,,,LIFR,,,,,,,,,,,,METAR,281.0
CYRQ 171912Z AUTO 23006KT 9SM OVC032 00/M01 A2925 RMK SLP908,CYRQ,2021-01-17T19:12:00Z,46.35,-72.68,0.0,-1.0,230,6,,9.0,29.25,990.8,,TRUE,,,,,,,,OVC,3200,,,,,,,VFR,,,,,,,,,,,,SPECI,58.0
CYQM 171912Z 22017G27KT 10SM -SHRASN BKN015 OVC035 02/M00 A2899 RMK CU7SC1 SLP820,CYQM,2021-01-17T19:12:00Z,46.12,-64.67,2.0,0.0,220,17,27,10.0,28.990158,982.0,,,,,,,,,-SHRA -SHSN,BKN,1500,OVC,3500,,,,,MVFR,,,,,,,,,,,,SPECI,67.0
CYCX 171912Z AUTO 23014G20KT 9SM OVC015 OVC034 OVC042 01/M02 A2904,CYCX,2021-01-17T19:12:00Z,45.83,-66.45,1.0,-2.0,230,14,20,9.0,29.040354,,,TRUE,,,,,,,,OVC,1500,OVC,3400,OVC,4200,,,MVFR,,,,,,,,,,,,SPECI,46.0
CYAH 171912Z AUTO 01008KT 2 1/2SM -SN OVC017 M11/M13 A2934 RMK SLP963,CYAH,2021-01-17T19:12:00Z,53.75,-73.67,-11.0,-13.0,10,8,,2.5,29.338583,996.3,,TRUE,,,,,,,-SN,OVC,1700,,,,,,,IFR,,,,,,,,,,,,SPECI,298.0
RKJB 171911Z AUTO 17005KT 3000 RA ///026/// M01/M01 Q1023,RKJB,2021-01-17T19:11:00Z,34.98,126.38,-1.0,-1.0,170,5,,1.86,30.206694,,,TRUE,,,,,,,RA,,,,,,,,,,,,,,,,,,,,,SPECI,16.0
PHHI 171911Z AUTO 35003KT 1SM R06/3000VP6000FT +RA BR BKN005 OVC021 20/20 A3002 RMK AO2 VIS 7/8V3 PRESFR SLP159 $,PHHI,2021-01-17T19:11:00Z,21.48,-158.05,20.0,20.0,350,3,,1.0,30.02067,1015.9,,TRUE,TRUE,TRUE,,,,,+RA BR,BKN,500,OVC,2100,,,,,IFR,,,,,,,,,,,,SPECI,246.0
KOVS 171911Z AUTO 30007KT 10SM BKN027 OVC034 00/M04 A2974 RMK AO2 T00001039,KOVS,2021-01-17T19:11:00Z,43.15,-90.68,0.0,-3.9,300,7,,10.0,29.740158,,,TRUE,TRUE,,,,,,,BKN,2700,OVC,3400,,,,,MVFR,,,,,,,,,,,,SPECI,205.0
KJEF 171911Z 27011G15KT 10SM FEW021 BKN029 OVC055 03/M03 A2986 RMK AO2 T00281033,KJEF,2021-01-17T19:11:00Z,38.6,-92.15,2.8,-3.3,270,11,15,10.0,29.861221,,,,TRUE,,,,,,,FEW,2100,BKN,2900,OVC,5500,,,MVFR,,,,,,,,,,,,SPECI,167.0
KEHR 171911Z AUTO 25015G20KT 10SM FEW025 SCT030 OVC038 02/M02 A2980 RMK AO2 FZRANO,KEHR,2021-01-17T19:11:00Z,37.82,-87.67,2.0,-2.0,250,15,20,10.0,29.799213,,,TRUE,TRUE,,,,TRUE,,,FEW,2500,SCT,3000,OVC,3800,,,VFR,,,,,,,,,,,,SPECI,117.0
KCVG 171911Z 24003KT 1/4SM R18C/4500VP6000FT SN FG OVC004 01/M01 A2972 RMK AO2 SFC VIS 1/2 P0003 T00061006,KCVG,2021-01-17T19:11:00Z,39.05,-84.67,0.6,-0.6,240,3,,0.25,29.719488,,,,TRUE,,,,,,SN FG,OVC,400,,,,,,,LIFR,,,,,,0.03,,,,,,SPECI,264.0
KCID 171911Z 30012KT 10SM SCT026 BKN100 M06/M08 A2976 RMK AO2 T10561083,KCID,2021-01-17T19:11:00Z,41.88,-91.72,-5.6,-8.3,300,12,,10.0,29.760826,,,,TRUE,,,,,,,SCT,2600,BKN,10000,,,,,VFR,,,,,,,,,,,,SPECI,257.0
ETOU 171911Z AUTO 00000KT 4400 BR OVC005 00/00 A3018 RMK AO2 VIS 3600 RWY07 SLP232 $,ETOU,2021-01-17T19:11:00Z,50.03,8.32,0.0,0.0,0,0,,2.73,30.180119,1023.2,,TRUE,TRUE,TRUE,,,,,BR,OVC,500,,,,,,,IFR,,,,,,,,,,,,SPECI,141.0
CZUM 171911Z AUTO 05009G15KT 3SM -SN BKN019 OVC027 M06/M08 A2933 RMK SLP962,CZUM,2021-01-17T19:11:00Z,53.55,-64.1,-6.0,-8.0,50,9,15,3.0,29.329725,996.2,,TRUE,,,,,,,-SN,BKN,1900,OVC,2700,,,,,MVFR,,,,,,,,,,,,SPECI,431.0
CWUW 171911Z AUTO 19015KT ////SM FEW006 M22/M24 A2964,CWUW,2021-01-17T19:11:00Z,68.62,-71.12,-22.0,-24.0,190,15,,,29.639763,,,TRUE,,,,,,,,FEW,600,,,,,,,,,,,,,,,,,,,SPECI,173.0
KS85 171910Z AUTO 00000KT 10SM M03/M05 A2984 RMK A01 Culbertson ,KS85,2021-01-17T19:10:00Z,48.15,-104.5,-3.0,-5.0,0,0,,10.0,29.840551,,,TRUE,TRUE,,,,,,,,,,,,,,,,,,,,,,,,,,,METAR,596.0
KQFX 171910Z AUTO 10001KT 2800 -SHSN BKN029 OVC060 M05/M06 A3014 RMK A02 TSNO,KQFX,2021-01-17T19:10:00Z,,,-5.0,-6.0,100,1,,1.74,30.138779,,,TRUE,TRUE,,,TRUE,,,-SHSN,BKN,2900,OVC,6000,,,,,IFR,,,,,,,,,,,,METAR,
KQFW 171910Z AUTO 00000KT 4800 // OVC030 M07/M08 A3014 RMK A02 TSNO,KQFW,2021-01-17T19:10:00Z,,,-7.0,-8.0,0,0,,2.98,30.138779,,,TRUE,TRUE,,,TRUE,,,,OVC,3000,,,,,,,IFR,,,,,,,,,,,,METAR,
KQFV 171910Z AUTO 16001KT 2000 // BKN021 OVC033 M07/M09 A3009 RMK A02 TSNO,KQFV,2021-01-17T19:10:00Z,,,-7.0,-9.0,160,1,,1.24,30.088583,,,TRUE,TRUE,,,TRUE,,,,BKN,2100,OVC,3300,,,,,IFR,,,,,,,,,,,,METAR,
KQFU 171910Z AUTO 00000KT 4000 -SN BR BKN021 BKN130 M06/M07 A3016 RMK A02 TSNO,KQFU,2021-01-17T19:10:00Z,,,-6.0,-7.0,0,0,,2.49,30.159449,,,TRUE,TRUE,,,TRUE,,,-SN BR,BKN,2100,BKN,13000,,,,,IFR,,,,,,,,,,,,METAR,
KQFT 171910Z AUTO 15001KT / // BKN014 BKN040 M06/M07 A3014 RMK A02 TSNO,KQFT,2021-01-17T19:10:00Z,,,-6.0,-7.0,150,1,,,30.138779,,,TRUE,TRUE,,,TRUE,,,,BKN,1400,BKN,4000,,,,,,,,,,,,,,,,,METAR,
KQFB 171910Z AUTO 36001KT 9999 CLR M09/M13 A3026 RMK A02 TSNO,KQFB,2021-01-17T19:10:00Z,,,-9.0,-13.0,360,1,,6.21,30.259842,,,TRUE,TRUE,,,TRUE,,,,CLR,,,,,,,,VFR,,,,,,,,,,,,METAR,
KQEY 171910Z AUTO 03001KT 6000 -SHSN BKN041 M05/M06 A2987 RMK A02 TSNO,KQEY,2021-01-17T19:10:00Z,,,-5.0,-6.0,30,1,,3.73,29.870079,,,TRUE,TRUE,,,TRUE,,,-SHSN,BKN,4100,,,,,,,MVFR,,,,,,,,,,,,METAR,
KQEW 171910Z AUTO 22003KT 9999 FEW026 OVC055 M03/M07 A3016 RMK A02 TSNO,KQEW,2021-01-17T19:10:00Z,,,-3.0,-7.0,220,3,,6.21,30.159449,,,TRUE,TRUE,,,TRUE,,,,FEW,2600,OVC,5500,,,,,VFR,,,,,,,,,,,,METAR,
KQEV 171910Z AUTO 23001KT 4800 CLR M07/M08 A3014 RMK A02 TSNO,KQEV,2021-01-17T19:10:00Z,,,-7.0,-8.0,230,1,,2.98,30.138779,,,TRUE,TRUE,,,TRUE,,,,CLR,,,,,,,,IFR,,,,,,,,,,,,METAR,
KQER 171910Z AUTO 00000KT 8000 -SHSN BKN040 BKN050 BKN120 M08/M09 A3004 RMK A02 TSNO,KQER,2021-01-17T19:10:00Z,,,-8.0,-9.0,0,0,,4.97,30.041338,,,TRUE,TRUE,,,TRUE,,,-SHSN,BKN,4000,BKN,5000,BKN,12000,,,MVFR,,,,,,,,,,,,METAR,
KQEQ 171910Z AUTO 29001KT 9000 -SHSN BKN060 BKN120 M08/M09 A3017 RMK A02 TSNO,KQEQ,2021-01-17T19:10:00Z,,,-8.0,-9.0,290,1,,5.59,30.171259,,,TRUE,TRUE,,,TRUE,,,-SHSN,BKN,6000,BKN,12000,,,,,VFR,,,,,,,,,,,,METAR,
KQEP 171910Z AUTO 17001KT 8000 FEW046 M06/M07 A3017 RMK A02 TSNO,KQEP,2021-01-17T19:10:00Z,,,-6.0,-7.0,170,1,,4.97,30.171259,,,TRUE,TRUE,,,TRUE,,,,FEW,4600,,,,,,,MVFR,,,,,,,,,,,,METAR,
KQEN 171910Z AUTO 24007G17KT 2800 -SHSN OVC015 M10/M11 A2991 RMK A02 TSNO,KQEN,2021-01-17T19:10:00Z,,,-10.0,-11.0,240,7,17,1.74,29.911417,,,TRUE,TRUE,,,TRUE,,,-SHSN,OVC,1500,,,,,,,IFR,,,,,,,,,,,,METAR,
KQEJ 171910Z AUTO 00000KT 4800 -SN OVC030 M08/M10 A3008 RMK A02 TSNO,KQEJ,2021-01-17T19:10:00Z,,,-8.0,-10.0,0,0,,2.98,30.079725,,,TRUE,TRUE,,,TRUE,,,-SN,OVC,3000,,,,,,,IFR,,,,,,,,,,,,METAR,
KQEI 171910Z AUTO 12002KT 4000 // OVC018 M07/M09 A3008 RMK A02 TSNO,KQEI,2021-01-17T19:10:00Z,,,-7.0,-9.0,120,2,,2.49,30.079725,,,TRUE,TRUE,,,TRUE,,,,OVC,1800,,,,,,,IFR,,,,,,,,,,,,METAR,
KPWD 171910Z AUTO 00000KT 10SM FEW049 BKN055 OVC070 M04/M06 A2984 RMK A01 Plentywood ,KPWD,2021-01-17T19:10:00Z,48.78,-104.52,-4.0,-6.0,0,0,,10.0,29.840551,,,TRUE,TRUE,,,,,,,FEW,4900,BKN,5500,OVC,7000,,,VFR,,,,,,,,,,,,METAR,690.0
KLUK 171910Z 20010KT 6SM -RA BR FEW009 BKN011 OVC032 02/01 A2974 RMK AO2 P0000 T00220006,KLUK,2021-01-17T19:10:00Z,39.1,-84.42,2.2,0.6,200,10,,6.0,29.740158,,,,TRUE,,,,,,-RA BR,FEW,900,BKN,1100,OVC,3200,,,MVFR,,,,,,0.005,,,,,,SPECI,144.0
KLPR 171910Z AUTO 26011KT 10SM FEW018 BKN049 OVC060 02/M02 A2967 RMK AO2 T00221022,KLPR,2021-01-17T19:10:00Z,41.35,-82.18,2.2,-2.2,260,11,,10.0,29.66929,,,TRUE,TRUE,,,,,,,FEW,1800,BKN,4900,OVC,6000,,,VFR,,,,,,,,,,,,SPECI,241.0
KLBX 171910Z AUTO 35007KT 10SM BKN029 21/M04 A3009 RMK AO2 T02111039,KLBX,2021-01-17T19:10:00Z,29.12,-95.47,21.1,-3.9,350,7,,10.0,30.088583,,,TRUE,TRUE,,,,,,,BKN,2900,,,,,,,MVFR,,,,,,,,,,,,SPECI,4.0
KDAY 171910Z 22007KT 2SM -SN BR SCT006 BKN011 OVC022 01/01 A2970 RMK AO2 P0000 T00110006 $,KDAY,2021-01-17T19:10:00Z,39.9,-84.22,1.1,0.6,220,7,,2.0,29.698818,,,,TRUE,TRUE,,,,,-SN BR,SCT,600,BKN,1100,OVC,2200,,,IFR,,,,,,0.005,,,,,,SPECI,303.0
KCII 171910Z AUTO 25022KT 10SM 08/M06 A2985 RMK A01 Choteau ,KCII,2021-01-17T19:10:00Z,47.83,-112.17,8.0,-6.0,250,22,,10.0,29.84941,,,TRUE,TRUE,,,,,,,,,,,,,,,,,,,,,,,,,,,METAR,1202.0
K7S6 171910Z AUTO 28020G27KT 9SM 03/M04 A2994 RMK A01 White Sulphur Spgs ,K7S6,2021-01-17T19:10:00Z,46.5,-110.92,3.0,-4.0,280,20,27,9.0,29.940945,,,TRUE,TRUE,,,,,,,,,,,,,,,,,,,,,,,,,,,METAR,1543.0
K7S1 171910Z AUTO 00000KT 10SM BKN060 BKN075 OVC090 04/M08 A3005 RMK AO2 Twin Bridges ,K7S1,2021-01-17T19:10:00Z,45.53,-112.3,4.0,-8.0,0,0,,10.0,30.050198,,,TRUE,TRUE,,,,,,,BKN,6000,BKN,7500,OVC,9000,,,VFR,,,,,,,,,,,,METAR,1456.0
K7S0 171910Z AUTO 14005KT 10SM 01/01 A3011 RMK A01 Ronan ,K7S0,2021-01-17T19:10:00Z,47.57,-114.1,1.0,1.0,140,5,,10.0,30.109253,,,TRUE,TRUE,,,,,,,,,,,,,,,,,,,,,,,,,,,METAR,941.0
K6S8 171910Z AUTO 23008G13KT 10SM 05/M07 A2988 RMK A01 Laurel ,K6S8,2021-01-17T19:10:00Z,45.7,-108.77,5.0,-7.0,230,8,13,10.0,29.878937,,,TRUE,TRUE,,,,,,,,,,,,,,,,,,,,,,,,,,,METAR,1072.0
K6S5 171910Z AUTO 00000KT 10SM BKN041 BKN047 OVC055 05/00 A3012 RMK AO2 Hamilton ,K6S5,2021-01-17T19:10:00Z,46.25,-114.13,5.0,0.0,0,0,,10.0,30.121063,,,TRUE,TRUE,,,,,,,BKN,4100,BKN,4700,OVC,5500,,,VFR,,,,,,,,,,,,METAR,1112.0
K6S0 171910Z AUTO 31020G25KT 10SM OVC045 06/M05 A2990 RMK A01 Big Timber ,K6S0,2021-01-17T19:10:00Z,45.8,-109.97,6.0,-5.0,310,20,25,10.0,29.899607,,,TRUE,TRUE,,,,,,,OVC,4500,,,,,,,VFR,,,,,,,,,,,,METAR,1364.0
K4U6 171910Z AUTO 00000KT 10SM 03/M09 A2980 RMK A01 Circle ,K4U6,2021-01-17T19:10:00Z,47.42,-105.57,3.0,-9.0,0,0,,10.0,29.799213,,,TRUE,TRUE,,,,,,,,,,,,,,,,,,,,,,,,,,,METAR,739.0
K00U 171910Z AUTO 14005KT 10SM OVC065 04/M05 A2984 RMK A01 Hardin ,K00U,2021-01-17T19:10:00Z,45.75,-107.67,4.0,-5.0,140,5,,10.0,29.840551,,,TRUE,TRUE,,,,,,,OVC,6500,,,,,,,VFR,,,,,,,,,,,,METAR,922.0
CZSJ 171910Z AUTO 35009KT 6SM -SN SCT017 OVC060 M15/M18 A2981 RMK SLP122,CZSJ,2021-01-17T19:10:00Z,53.07,-93.35,-15.0,-18.0,350,9,,6.0,29.811024,1012.2,,TRUE,,,,,,,-SN,SCT,1700,OVC,6000,,,,,VFR,,,,,,,,,,,,SPECI,286.0
YMAV 171909Z AUTO 28010KT 9999 // BKN014 OVC028 14/14 Q1017,YMAV,2021-01-17T19:09:00Z,-38.03,144.48,14.0,14.0,280,10,,6.21,30.029528,,,TRUE,,,,,,,,BKN,1400,OVC,2800,,,,,MVFR,,,,,,,,,,,,SPECI,11.0
PASM 171909Z AUTO 33013KT 3SM -SN BR SCT022 BKN029 OVC040 M12/M13 A2952 RMK AO2 P0000 FZRANO,PASM,2021-01-17T19:09:00Z,62.07,-163.3,-12.0,-13.0,330,13,,3.0,29.518702,,,TRUE,TRUE,,,,TRUE,,-SN BR,SCT,2200,BKN,2900,OVC,4000,,,MVFR,,,,,,0.005,,,,,,SPECI,108.0
PAPM 171909Z AUTO 35024KT 3/4SM -SN BR FEW019 OVC026 M08/M09 A2943 RMK AO2 PK WND 35028/1903 P0000 FZRANO,PAPM,2021-01-17T19:09:00Z,59.02,-161.82,-8.0,-9.0,350,24,,0.75,29.430119,,,TRUE,TRUE,,,,TRUE,,-SN BR,FEW,1900,OVC,2600,,,,,LIFR,,,,,,0.005,,,,,,SPECI,4.0
PADU 171909Z 32022G29KT 2 1/2SM BLSN SCT019 BKN041 BKN046 M01/M06 A2977 RMK AO2 PK WND 31029/1907 VIS 1V5,PADU,2021-01-17T19:09:00Z,53.9,-166.53,-1.0,-6.0,320,22,29,2.5,29.769686,,,,TRUE,,,,,,BLSN,SCT,1900,BKN,4100,BKN,4600,,,IFR,,,,,,,,,,,,SPECI,4.0
KSMP 171909Z AUTO VRB06KT 1 1/4SM BR BKN005 OVC011 02/01 A3036 RMK AO2 VIS 3/4V5 T00170006 ,KSMP,2021-01-17T19:09:00Z,47.28,-121.33,1.7,0.6,0,6,,1.25,30.360237,,,TRUE,TRUE,,,,,,BR,BKN,500,OVC,1100,,,,,IFR,,,,,,,,,,,,SPECI,1206.0
KILN 171909Z AUTO 23010KT 1/2SM -SN FG SCT007 OVC015 01/M01 A2970 RMK AO2 P0001 T00061011 $,KILN,2021-01-17T19:09:00Z,39.43,-83.8,0.6,-1.1,230,10,,0.5,29.698818,,,TRUE,TRUE,TRUE,,,,,-SN FG,SCT,700,OVC,1500,,,,,LIFR,,,,,,0.01,,,,,,SPECI,325.0
KGEZ 171909Z AUTO 27009KT 3SM -SN FEW007 BKN014 OVC031 01/M02 A2971 RMK AO2 P0001 T00111017,KGEZ,2021-01-17T19:09:00Z,39.58,-85.8,1.1,-1.7,270,9,,3.0,29.71063,,,TRUE,TRUE,,,,,,-SN,FEW,700,BKN,1400,OVC,3100,,,MVFR,,,,,,0.01,,,,,,SPECI,245.0
KFRM 171909Z AUTO 32013KT 10SM SCT011 BKN050 M03/M06 A2978 RMK AO2 FZRANO,KFRM,2021-01-17T19:09:00Z,43.63,-94.42,-3.0,-6.0,320,13,,10.0,29.778543,,,TRUE,TRUE,,,,TRUE,,,SCT,1100,BKN,5000,,,,,VFR,,,,,,,,,,,,SPECI,353.0
KDEW 171909Z AUTO 10SM SCT007 OVC012 01/M01 A3028 RMK AO2 T00111006,KDEW,2021-01-17T19:09:00Z,47.97,-117.43,1.1,-0.6,,,,10.0,30.280512,,,TRUE,TRUE,,,,,,,SCT,700,OVC,1200,,,,,MVFR,,,,,,,,,,,,SPECI,672.0
EHKD 171909Z AUTO 29009KT 260V320 9999 FEW018 SCT021 OVC170 06/03 Q1021 WHT,EHKD,2021-01-17T19:09:00Z,52.92,4.77,6.0,3.0,290,9,,6.21,30.147638,,,TRUE,,,,,,,,FEW,1800,SCT,2100,OVC,17000,,,VFR,,,,,,,,,,,,SPECI,1.0
CZFM 171909Z 00000KT 2SM -SN SCT018 BKN024 M25/M27 A2993 RMK NS4NS3 SLP142,CZFM,2021-01-17T19:09:00Z,67.4,-134.87,-25.0,-27.0,0,0,,2.0,29.929134,1014.2,,,,,,,,,-SN,SCT,1800,BKN,2400,,,,,IFR,,,,,,,,,,,,SPECI,33.0
CYCD 171909Z 20004KT 170V270 10SM FEW007 SCT013 07/05 A3047 RMK SF2SF2 SLP319,CYCD,2021-01-17T19:09:00Z,49.05,-123.87,7.0,5.0,200,4,,10.0,30.469488,1031.9,,,,,,,,,,FEW,700,SCT,1300,,,,,VFR,,,,,,,,,,,,SPECI,30.0
RKSO 171908Z 17004KT 4SM BR BKN007 BKN047 M03/M03 A3015 RMK AO2A SLP214,RKSO,2021-01-17T19:08:00Z,37.08,127.02,-3.0,-3.0,170,4,,4.0,30.15059,1021.4,,,TRUE,,,,,,BR,BKN,700,BKN,4700,,,,,IFR,,,,,,,,,,,,METAR,10.0
PAYA 171908Z AUTO 09007KT 4SM -RA BR SCT014 BKN021 OVC028 04/04 A2978 RMK AO2 P0001 T00440039 TSNO,PAYA,2021-01-17T19:08:00Z,59.52,-139.67,4.4,3.9,90,7,,4.0,29.778543,,,TRUE,TRUE,,,TRUE,,,-RA BR,SCT,1400,BKN,2100,OVC,2800,,,MVFR,,,,,,0.01,,,,,,SPECI,9.0
PASY 171908Z AUTO 14046G51KT 1 3/4SM -PL BR FEW020 00/M01 A2948 RMK AO2 VIS 1 5/8V2 1/4 SLP987 PNO FZRANO $,PASY,2021-01-17T19:08:00Z,52.72,174.12,0.0,-1.0,140,46,51,1.75,29.480314,998.7,,TRUE,TRUE,TRUE,,,TRUE,,-PL BR,FEW,2000,,,,,,,IFR,,,,,,,,,,,,SPECI,6.0
KRAC 171908Z AUTO 28005KT 10SM BKN017 OVC055 01/M03 A2969 RMK AO2 T00061033,KRAC,2021-01-17T19:08:00Z,42.77,-87.82,0.6,-3.3,280,5,,10.0,29.68996,,,TRUE,TRUE,,,,,,,BKN,1700,OVC,5500,,,,,MVFR,,,,,,,,,,,,SPECI,203.0
KHUL 171908Z AUTO 24011G18KT 1 3/4SM -SN BR SCT014 OVC023 00/M02 A2903 RMK AO2 P0000 T00001022,KHUL,2021-01-17T19:08:00Z,46.12,-67.8,0.0,-2.2,240,11,18,1.75,29.028543,,,TRUE,TRUE,,,,,,-SN BR,SCT,1400,OVC,2300,,,,,IFR,,,,,,0.005,,,,,,SPECI,148.0
KHON 171908Z AUTO 32014KT 10SM CLR 03/M05 A2987 RMK AO2 T00281050 $,KHON,2021-01-17T19:08:00Z,44.38,-98.23,2.8,-5.0,320,14,,10.0,29.870079,,,TRUE,TRUE,TRUE,,,,,,CLR,,,,,,,,VFR,,,,,,,,,,,,SPECI,391.0
KHIE 171908Z AUTO 25008KT 3SM -SN BR SCT020 BKN028 OVC032 00/M02 A2929 RMK AO2 P0001 T00001022,KHIE,2021-01-17T19:08:00Z,44.37,-71.55,0.0,-2.2,250,8,,3.0,29.291338,,,TRUE,TRUE,,,,,,-SN BR,SCT,2000,BKN,2800,OVC,3200,,,MVFR,,,,,,0.01,,,,,,METAR,321.0
KGOV 171908Z AUTO 32006KT 10SM SCT013 BKN022 OVC029 M01/M03 A2959 RMK AO2 CIG 013V022 SLP039 $,KGOV,2021-01-17T19:08:00Z,44.68,-84.73,-1.0,-3.0,320,6,,10.0,29.589567,1003.9,,TRUE,TRUE,TRUE,,,,,,SCT,1300,BKN,2200,OVC,2900,,,MVFR,,,,,,,,,,,,SPECI,350.0
KBEH 171908Z AUTO 24011KT 1 1/2SM -SN BR BKN007 BKN011 OVC034 01/M01 A2967 RMK AO2 P0001 T00061011 $,KBEH,2021-01-17T19:08:00Z,42.13,-86.42,0.6,-1.1,240,11,,1.5,29.66929,,,TRUE,TRUE,TRUE,,,,,-SN BR,BKN,700,BKN,1100,OVC,3400,,,IFR,,,,,,0.01,,,,,,SPECI,196.0
ETAD 171908Z AUTO 24005KT 9999 -RA BKN014 OVC018 01/01 A3018 RMK AO2 RAB08 CIG 012V019 SLP232 $,ETAD,2021-01-17T19:08:00Z,49.98,6.7,1.0,1.0,240,5,,6.21,30.180119,1023.2,,TRUE,TRUE,TRUE,,,,,-RA,BKN,1400,OVC,1800,,,,,MVFR,,,,,,,,,,,,SPECI,365.0
KSPW 171907Z AUTO 32014KT 10SM BKN015 M01/M05 A2981 RMK AO2 T10111050,KSPW,2021-01-17T19:07:00Z,43.17,-95.22,-1.1,-5.0,320,14,,10.0,29.811024,,,TRUE,TRUE,,,,,,,BKN,1500,,,,,,,MVFR,,,,,,,,,,,,METAR,407.0
KSGH 171907Z AUTO 24007KT 1 1/2SM -SN BR BKN006 OVC024 00/00 A2970 RMK AO2 P0000,KSGH,2021-01-17T19:07:00Z,39.83,-83.83,0.0,0.0,240,7,,1.5,29.698818,,,TRUE,TRUE,,,,,,-SN BR,BKN,600,OVC,2400,,,,,IFR,,,,,,0.005,,,,,,SPECI,318.0
KSBN 171907Z 24010KT 2SM -SN BR BKN009 OVC014 M01/M03 A2967 RMK AO2 P0000 T10061028,KSBN,2021-01-17T19:07:00Z,41.7,-86.32,-0.6,-2.8,240,10,,2.0,29.66929,,,,TRUE,,,,,,-SN BR,BKN,900,OVC,1400,,,,,IFR,,,,,,0.005,,,,,,METAR,236.0
KPTK 171907Z 27005KT 3/4SM R09R/4000VP6000FT -SN BR SCT009 BKN023 OVC036 01/M01 A2961 RMK AO2 SFC VIS 2 1/2 P0000 T00111006 $,KPTK,2021-01-17T19:07:00Z,42.67,-83.42,1.1,-0.6,270,5,,0.75,29.610237,,,,TRUE,TRUE,,,,,-SN BR,SCT,900,BKN,2300,OVC,3600,,,LIFR,,,,,,0.005,,,,,,METAR,295.0
KPKD 171907Z AUTO 34007KT 7SM -SN OVC011 M06/M06 A2975 RMK AO2 SNB1855 P0000 T10561056,KPKD,2021-01-17T19:07:00Z,46.9,-95.07,-5.6,-5.6,340,7,,7.0,29.749016,,,TRUE,TRUE,,,,,,-SN,OVC,1100,,,,,,,MVFR,,,,,,0.005,,,,,,METAR,439.0
KLAN 171907Z 32003KT 1SM R28L/P6000FT -SN BR BKN007 BKN013 OVC018 01/M01 A2964 RMK AO2 P0000 T00061006,KLAN,2021-01-17T19:07:00Z,42.78,-84.58,0.6,-0.6,320,3,,1.0,29.639763,,,,TRUE,,,,,,-SN BR,BKN,700,BKN,1300,OVC,1800,,,IFR,,,,,,0.005,,,,,,METAR,261.0
KJHW 171907Z AUTO 23010KT 8SM UP BKN011 OVC017 00/M02 A2958 RMK AO2 CIG 007V012 P0000 FZRANO,KJHW,2021-01-17T19:07:00Z,42.15,-79.27,0.0,-2.0,230,10,,8.0,29.58071,,,TRUE,TRUE,,,,TRUE,,UP,BKN,1100,OVC,1700,,,,,MVFR,,,,,,0.005,,,,,,METAR,520.0
KGSH 171907Z AUTO 24008KT 4SM -SN BR SCT010 OVC017 00/M02 A2966 RMK AO2 P0000 T00001022,KGSH,2021-01-17T19:07:00Z,41.53,-85.78,0.0,-2.2,240,8,,4.0,29.660433,,,TRUE,TRUE,,,,,,-SN BR,SCT,1000,OVC,1700,,,,,MVFR,,,,,,0.005,,,,,,METAR,252.0
CYZV 171907Z 05009G15KT 3SM -SN OVC020 00/M00 A2899 RMK NS8 VIS VRB 2-4 PRESFR SLP822,CYZV,2021-01-17T19:07:00Z,50.22,-66.27,0.0,0.0,50,9,15,3.0,28.990158,982.2,,,,,,,,,-SN,OVC,2000,,,,,,,MVFR,,,,,,,,,,,,SPECI,43.0
CYHE 171907Z AUTO VRB02KT 9SM OVC011 06/05 A3043 RMK SLP304,CYHE,2021-01-17T19:07:00Z,49.37,-121.5,6.0,5.0,0,2,,9.0,30.431103,1030.4,,TRUE,,,,,,,,OVC,1100,,,,,,,MVFR,,,,,,,,,,,,SPECI,43.0
CYAS 171907Z 02009KT 2SM BR OVC002 M22/M25 A2984 RMK FG2ST6 VIS S 6 SLP123,CYAS,2021-01-17T19:07:00Z,60.02,-70.0,-22.0,-25.0,20,9,,2.0,29.840551,1012.3,,,,,,,,,BR,OVC,200,,,,,,,LIFR,,,,,,,,,,,,SPECI,99.0
KSAW 171906Z 31010KT 5SM BR OVC012 M03/M05 A2965,KSAW,2021-01-17T19:06:00Z,46.35,-87.4,-3.0,-5.0,310,10,,5.0,29.648623,,,,,,,,,,BR,OVC,1200,,,,,,,MVFR,,,,,,,,,,,,SPECI,359.0
KQDG 171906Z AUTO 22006KT 9999 -SN BKN029 M05/M09 A3000 RMK AO2 SLP161 $,KQDG,2021-01-17T19:06:00Z,,,-5.0,-9.0,220,6,,6.21,30.0,1016.1,,TRUE,TRUE,TRUE,,,,,-SN,BKN,2900,,,,,,,MVFR,,,,,,,,,,,,SPECI,
KMWH 171906Z 01005KT 7SM OVC011 04/00 A3035 RMK AO2 T00440000,KMWH,2021-01-17T19:06:00Z,47.2,-119.32,4.4,0.0,10,5,,7.0,30.351377,,,,TRUE,,,,,,,OVC,1100,,,,,,,MVFR,,,,,,,,,,,,METAR,355.0
KMSV 171906Z AUTO 27011G17KT 10SM OVC031 02/M04 A2954 RMK AO2 FZRANO,KMSV,2021-01-17T19:06:00Z,41.7,-74.78,2.0,-4.0,270,11,17,10.0,29.53937,,,TRUE,TRUE,,,,TRUE,,,OVC,3100,,,,,,,VFR,,,,,,,,,,,,SPECI,427.0
KGUS 171906Z 27009KT 10SM OVC009 M01/M01 A2968 RMK AO2A SLP061 $,KGUS,2021-01-17T19:06:00Z,40.63,-86.15,-1.0,-1.0,270,9,,10.0,29.681103,1006.1,,,TRUE,TRUE,,,,,,OVC,900,,,,,,,IFR,,,,,,,,,,,,SPECI,245.0
KBLF 171906Z AUTO VRB05KT 10SM OVC016 M01/M03 A2974 RMK AO2 T10111033,KBLF,2021-01-17T19:06:00Z,37.3,-81.2,-1.1,-3.3,0,5,,10.0,29.740158,,,TRUE,TRUE,,,,,,,OVC,1600,,,,,,,MVFR,,,,,,,,,,,,METAR,871.0
KAOO 171906Z AUTO 26011KT 7SM -SN SCT029 BKN037 OVC060 02/M02 A2968 RMK AO2 P0000 T00221017,KAOO,2021-01-17T19:06:00Z,40.3,-78.32,2.2,-1.7,260,11,,7.0,29.681103,,,TRUE,TRUE,,,,,,-SN,SCT,2900,BKN,3700,OVC,6000,,,VFR,,,,,,0.005,,,,,,METAR,450.0
EHWO 171906Z AUTO 27007KT 230V310 9999 SCT014 BKN017 OVC029 05/04 Q1024 GRN,EHWO,2021-01-17T19:06:00Z,51.45,4.33,5.0,4.0,270,7,,6.21,30.236221,,,TRUE,,,,,,,,SCT,1400,BKN,1700,OVC,2900,,,MVFR,,,,,,,,,,,,SPECI,15.0
EBFN 171906Z AUTO 32008KT 9999 BKN023/// 06/03 Q1025 WHT,EBFN,2021-01-17T19:06:00Z,51.08,2.65,6.0,3.0,320,8,,6.21,30.265747,,,TRUE,,,,,,,,BKN,2300,,,,,,,MVFR,,,,,,,,,,,,SPECI,9.0
CYTL 171906Z AUTO 01010G15KT 1 3/4SM -SN OVC026 M13/M15 A2976 RMK SLP102,CYTL,2021-01-17T19:06:00Z,53.82,-89.88,-13.0,-15.0,10,10,15,1.75,29.760826,1010.2,,TRUE,,,,,,,-SN,OVC,2600,,,,,,,IFR,,,,,,,,,,,,SPECI,218.0
YPXM 171905Z AUTO 26007KT 9999 // SCT010 SCT025 24/23 Q1008,YPXM,2021-01-17T19:05:00Z,-10.45,105.68,24.0,23.0,260,7,,6.21,29.763779,,,TRUE,,,,,,,,SCT,1000,SCT,2500,,,,,VFR,,,,,,,,,,,,METAR,262.0
PHNY 171905Z AUTO 26003KT 10SM SCT012 21/ A3008 RMK AO2,PHNY,2021-01-17T19:05:00Z,20.77,-156.95,21.0,,260,3,,10.0,30.079725,,,TRUE,TRUE,,,,,,,SCT,1200,,,,,,,VFR,,,,,,,,,,,,METAR,395.0
MUCL 171905Z AUTO 04006KT 350V100 24/18 Q1015,MUCL,2021-01-17T19:05:00Z,21.63,-81.55,24.0,18.0,40,6,,,29.970472,,,TRUE,,,,,,,,,,,,,,,,,,,,,,,,,,,,METAR,5.0
KVUO 171905Z AUTO 13003KT 5SM BR FEW006 OVC011 08/06 A3051 RMK AO2 T00830061,KVUO,2021-01-17T19:05:00Z,45.62,-122.65,8.3,6.1,130,3,,5.0,30.510826,,,TRUE,TRUE,,,,,,BR,FEW,600,OVC,1100,,,,,MVFR,,,,,,,,,,,,SPECI,7.0
KMCE 171905Z AUTO 00000KT 2SM HZ CLR 14/09 A3015 RMK AO2 T01390094 $,KMCE,2021-01-17T19:05:00Z,37.28,-120.5,13.9,9.4,0,0,,2.0,30.15059,,,TRUE,TRUE,TRUE,,,,,HZ,CLR,,,,,,,,IFR,,,,,,,,,,,,SPECI,49.0
KJST 171905Z AUTO 24009KT 3SM -SN BR BKN005 OVC010 M01/M03 A2963 RMK AO2 CIG 004V007 P0000 T10111028,KJST,2021-01-17T19:05:00Z,40.32,-78.83,-1.1,-2.8,240,9,,3.0,29.630905,,,TRUE,TRUE,,,,,,-SN BR,BKN,500,OVC,1000,,,,,IFR,,,,,,0.005,,,,,,SPECI,695.0
KEKN 171905Z AUTO 22004KT 3SM -SN BKN022 OVC027 01/M04 A2972 RMK AO2 P0000 T00061039,KEKN,2021-01-17T19:05:00Z,38.88,-79.85,0.6,-3.9,220,4,,3.0,29.719488,,,TRUE,TRUE,,,,,,-SN,BKN,2200,OVC,2700,,,,,MVFR,,,,,,0.005,,,,,,METAR,596.0
KDVL 171905Z AUTO 01008KT 10SM OVC009 M06/M08 A2986 RMK AO2 FZRANO,KDVL,2021-01-17T19:05:00Z,48.12,-98.92,-6.0,-8.0,10,8,,10.0,29.861221,,,TRUE,TRUE,,,,TRUE,,,OVC,900,,,,,,,IFR,,,,,,,,,,,,METAR,439.0
KDUJ 171905Z AUTO 24010KT 10SM SCT013 BKN018 OVC055 01/M02 A2961 RMK AO2 T00061022,KDUJ,2021-01-17T19:05:00Z,41.17,-78.9,0.6,-2.2,240,10,,10.0,29.610237,,,TRUE,TRUE,,,,,,,SCT,1300,BKN,1800,OVC,5500,,,MVFR,,,,,,,,,,,,SPECI,552.0
KBIV 171905Z AUTO 00000KT 5SM -SN BKN008 BKN016 OVC028 02/M01 A2965 RMK AO2 P0000 T00171011,KBIV,2021-01-17T19:05:00Z,42.75,-86.1,1.7,-1.1,0,0,,5.0,29.648623,,,TRUE,TRUE,,,,,,-SN,BKN,800,BKN,1600,OVC,2800,,,IFR,,,,,,0.005,,,,,,SPECI,207.0
ETSN 171905Z 23002KT 2500 -SN BR SCT018 BKN030 BKN080 M03/M04 Q1021 RESN BLACKYLO,ETSN,2021-01-17T19:05:00Z,48.72,11.22,-3.0,-4.0,230,2,,1.55,30.147638,,,,,,,,,,-SN BR,SCT,1800,BKN,3000,BKN,8000,,,IFR,,,,,,,,,,,,SPECI,378.0
CYKF 171905Z AUTO 28010KT 9SM SCT016 OVC022 01/M02 A2955 RMK SLP020,CYKF,2021-01-17T19:05:00Z,43.47,-80.38,1.0,-2.0,280,10,,9.0,29.551182,1002.0,,TRUE,,,,,,,,SCT,1600,OVC,2200,,,,,MVFR,,,,,,,,,,,,SPECI,312.0
LTAU 171904Z 26001KT 9999 FEW010 BKN030 BKN080 M02/M03 Q1006 RESHSN NOSIG RMK RWY07 VRB02KT,LTAU,2021-01-17T19:04:00Z,38.77,35.48,-2.0,-3.0,260,1,,6.21,29.704725,,,,,,TRUE,,,,,FEW,1000,BKN,3000,BKN,8000,,,MVFR,,,,,,,,,,,,METAR,1053.0
KYKM 171904Z 29004KT 1/4SM R27/1200V2400FT FG VV001 01/01 A3035 RMK AO2 TWR VIS 1/4 T00110006,KYKM,2021-01-17T19:04:00Z,46.57,-120.53,1.1,0.6,290,4,,0.25,30.351377,,,,TRUE,,,,,,FG,OVX,0,,,,,,,LIFR,,,,,,,,,,,100,METAR,319.0
KBRO 171904Z 01004KT 10SM -RA BKN028 OVC038 20/15 A3006 RMK AO2 P0000 T02000150,KBRO,2021-01-17T19:04:00Z,25.92,-97.42,20.0,15.0,10,4,,10.0,30.059055,,,,TRUE,,,,,,-RA,BKN,2800,OVC,3800,,,,,MVFR,,,,,,0.005,,,,,,SPECI,6.0
EHGR 171904Z AUTO 26004KT 9999 SCT015 BKN018 BKN023 05/04 Q1023 WHT,EHGR,2021-01-17T19:04:00Z,51.55,4.93,5.0,4.0,260,4,,6.21,30.206694,,,TRUE,,,,,,,,SCT,1500,BKN,1800,BKN,2300,,,MVFR,,,,,,,,,,,,SPECI,12.0
CYEN 171904Z AUTO 21005KT 6SM BR OVC003 M06/M06 A2984 RMK SLP142,CYEN,2021-01-17T19:04:00Z,49.22,-102.97,-6.0,-6.0,210,5,,6.0,29.840551,1014.2,,TRUE,,,,,,,BR,OVC,300,,,,,,,LIFR,,,,,,,,,,,,SPECI,580.0
PAPN 171903Z AUTO 23005KT 1/2SM UP FG FEW003 OVC010 01/01 A2919 RMK AO2 CIG 006V013 P0000 FZRANO,PAPN,2021-01-17T19:03:00Z,57.58,-157.57,1.0,1.0,230,5,,0.5,29.190945,,,TRUE,TRUE,,,,TRUE,,FG UP,FEW,300,OVC,1000,,,,,LIFR,,,,,,0.005,,,,,,SPECI,19.0
PAKF 171903Z AUTO 31029G37KT 1/4SM +SN OVC009 A2958 RMK AO2 PK WND 30037/1902 CIG 006V013 P0000 FZRANO RVRNO $,PAKF,2021-01-17T19:03:00Z,54.85,-163.42,,,310,29,37,0.25,29.58071,,,TRUE,TRUE,TRUE,,,TRUE,,+SN,OVC,900,,,,,,,LIFR,,,,,,0.005,,,,,,SPECI,6.0
KPSX 171903Z AUTO 33005KT 10SM OVC014 20/M06 A3009 RMK AO2 T02001056 $,KPSX,2021-01-17T19:03:00Z,28.72,-96.25,20.0,-5.6,330,5,,10.0,30.088583,,,TRUE,TRUE,TRUE,,,,,,OVC,1400,,,,,,,MVFR,,,,,,,,,,,,METAR,4.0
KPAE 171903Z 15003KT 10SM BKN007 08/06 A3047 RMK AO2 T00780061,KPAE,2021-01-17T19:03:00Z,47.92,-122.28,7.8,6.1,150,3,,10.0,30.469488,,,,TRUE,,,,,,,BKN,700,,,,,,,IFR,,,,,,,,,,,,METAR,166.0
KMIE 171903Z 28007KT 1SM -SN BR FEW006 OVC016 01/M02 A2969 RMK AO2 P0000 T00061017,KMIE,2021-01-17T19:03:00Z,40.23,-85.4,0.6,-1.7,280,7,,1.0,29.68996,,,,TRUE,,,,,,-SN BR,FEW,600,OVC,1600,,,,,IFR,,,,,,0.005,,,,,,METAR,286.0
KHLG 171903Z 23009KT 2SM -SN BR BKN008 OVC016 01/M01 A2970 RMK AO2 CIG 007V013 P0000 T00061011,KHLG,2021-01-17T19:03:00Z,40.17,-80.65,0.6,-1.1,230,9,,2.0,29.698818,,,,TRUE,,,,,,-SN BR,BKN,800,OVC,1600,,,,,IFR,,,,,,0.005,,,,,,METAR,365.0
KBGM 171903Z 27013KT 10SM BKN029 OVC035 01/M04 A2953 RMK AO2 T00061039,KBGM,2021-01-17T19:03:00Z,42.22,-75.98,0.6,-3.9,270,13,,10.0,29.530512,,,,TRUE,,,,,,,BKN,2900,OVC,3500,,,,,MVFR,,,,,,,,,,,,METAR,485.0
ETHN 171903Z 28007KT 3000 -SN BR OVC001 M02/M02 Q1020 RED,ETHN,2021-01-17T19:03:00Z,49.38,9.97,-2.0,-2.0,280,7,,1.86,30.11811,,,,,,,,,,-SN BR,OVC,100,,,,,,,LIFR,,,,,,,,,,,,SPECI,466.0
EHEH 171903Z AUTO 28007KT 230V310 9999 FEW023 SCT028 BKN031 05/04 Q1023 BLU,EHEH,2021-01-17T19:03:00Z,51.45,5.38,5.0,4.0,280,7,,6.21,30.206694,,,TRUE,,,,,,,,FEW,2300,SCT,2800,BKN,3100,,,VFR,,,,,,,,,,,,SPECI,20.0
EBDT 171903Z AUTO 27008KT 9999 FEW018/// SCT024/// BKN037/// 05/04 Q1024 WHT,EBDT,2021-01-17T19:03:00Z,51.02,5.07,5.0,4.0,270,8,,6.21,30.236221,,,TRUE,,,,,,,,FEW,1800,SCT,2400,BKN,3700,,,VFR,,,,,,,,,,,,SPECI,25.0
CYOJ 171903Z 00000KT 3/4SM BR OVC003 M14/M15 A2985 RMK ST8 SLP141,CYOJ,2021-01-17T19:03:00Z,58.62,-117.17,-14.0,-15.0,0,0,,0.75,29.84941,1014.1,,,,,,,,,BR,OVC,300,,,,,,,LIFR,,,,,,,,,,,,SPECI,339.0
CYAY 171903Z AUTO 09019G27KT 3SM BR OVC011 01/00 A2957 RMK SLP019,CYAY,2021-01-17T19:03:00Z,51.38,-56.07,1.0,0.0,90,19,27,3.0,29.568897,1001.9,,TRUE,,,,,,,BR,OVC,1100,,,,,,,MVFR,,,,,,,,,,,,SPECI,23.0
YMTG 171902Z AUTO 25007KT 9999 // SCT006 OVC017 13/13 Q1019,YMTG,2021-01-17T19:02:00Z,-37.75,140.78,13.0,13.0,250,7,,6.21,30.088583,,,TRUE,,,,,,,,SCT,600,OVC,1700,,,,,MVFR,,,,,,,,,,,,METAR,65.0
RKSW 171902Z 15001KT 2400 -SN BR FEW000 BKN010 BKN020 M04/M05 A3019 RMK CIG010 FG FEW000,RKSW,2021-01-17T19:02:00Z,37.25,127.0,-4.0,-5.0,150,1,,1.49,30.188976,,,,,,,,,,-SN BR,FEW,0,BKN,1000,BKN,2000,,,IFR,,,,,,,,,,,,METAR,24.0
PADM 171902Z AUTO 32007KT 4SM -SN BR FEW017 BKN023 OVC028 M09/M11 A2907 RMK AO2 SLP848 P0000 T10891106 FZRANO,PADM,2021-01-17T19:02:00Z,61.87,-162.03,-8.9,-10.6,320,7,,4.0,29.069881,984.8,,TRUE,TRUE,,,,TRUE,,-SN BR,FEW,1700,BKN,2300,OVC,2800,,,MVFR,,,,,,0.005,,,,,,SPECI,17.0
KSDF 171902Z 25009G16KT 10SM SCT017 OVC024 03/00 A2977 RMK AO2 RAE02SNE02 P0000 T00280000,KSDF,2021-01-17T19:02:00Z,38.18,-85.73,2.8,0.0,250,9,16,10.0,29.769686,,,,TRUE,,,,,,,SCT,1700,OVC,2400,,,,,MVFR,,,,,,0.005,,,,,,METAR,146.0
KRFD 171902Z 33009KT 9SM OVC028 01/M03 A2971 RMK AO2 T00061033 $,KRFD,2021-01-17T19:02:00Z,42.2,-89.1,0.6,-3.3,330,9,,9.0,29.71063,,,,TRUE,TRUE,,,,,,OVC,2800,,,,,,,MVFR,,,,,,,,,,,,METAR,222.0
KMGY 171902Z AUTO 21005KT 1 1/4SM -SN BR OVC005 01/00 A2970 RMK AO2 P0000 T00110000,KMGY,2021-01-17T19:02:00Z,39.6,-84.23,1.1,0.0,210,5,,1.25,29.698818,,,TRUE,TRUE,,,,,,-SN BR,OVC,500,,,,,,,IFR,,,,,,0.005,,,,,,METAR,290.0
KEST 171902Z AUTO 33014KT 10SM SCT014 M03/M06 A2978 RMK AO2 T10331056,KEST,2021-01-17T19:02:00Z,43.4,-94.75,-3.3,-5.6,330,14,,10.0,29.778543,,,TRUE,TRUE,,,,,,,SCT,1400,,,,,,,VFR,,,,,,,,,,,,METAR,401.0
KDVN 171902Z AUTO 29012KT 10SM SCT022 BKN060 M03/M06 A2976 RMK AO2 T10281056,KDVN,2021-01-17T19:02:00Z,41.62,-90.58,-2.8,-5.6,290,12,,10.0,29.760826,,,TRUE,TRUE,,,,,,,SCT,2200,BKN,6000,,,,,VFR,,,,,,,,,,,,METAR,227.0
KBTL 171902Z 24005KT 1 3/4SM -SN BR BKN008 OVC037 01/M01 A2964 RMK AO2 P0000 T00111006,KBTL,2021-01-17T19:02:00Z,42.32,-85.25,1.1,-0.6,240,5,,1.75,29.639763,,,,TRUE,,,,,,-SN BR,BKN,800,OVC,3700,,,,,IFR,,,,,,0.005,,,,,,METAR,282.0
CYPR 171902Z AUTO 20003KT 160V280 9SM -RA FEW024 SCT032 BKN041 OVC049 07/04 A3032 RMK SLP272,CYPR,2021-01-17T19:02:00Z,54.28,-130.45,7.0,4.0,200,3,,9.0,30.318897,1027.2,,TRUE,,,,,,,-RA,FEW,2400,SCT,3200,BKN,4100,OVC,4900,VFR,,,,,,,,,,,,SPECI,30.0
CYCK 171902Z AUTO 27005KT 9SM -RA SCT014 BKN024 02/01 A2963 RMK SLP041,CYCK,2021-01-17T19:02:00Z,42.3,-82.08,2.0,1.0,270,5,,9.0,29.630905,1004.1,,TRUE,,,,,,,-RA,SCT,1400,BKN,2400,,,,,MVFR,,,,,,,,,,,,SPECI,196.0
PAFS 171901Z AUTO 00000KT 9SM BKN080 OVC110 M13/M15 A2948 RMK AO2 SLP995 T11281150 FZRANO,PAFS,2021-01-17T19:01:00Z,63.02,-154.35,-12.8,-15.0,0,0,,9.0,29.480314,999.5,,TRUE,TRUE,,,,TRUE,,,BKN,8000,OVC,11000,,,,,VFR,,,,,,,,,,,,SPECI,131.0
PACD 171901Z 31023KT 1 3/4SM -SN BR OVC021 M03/M06 A2958 RMK AO2 PK WND 31028/1857 P0000 T10331056 $,PACD,2021-01-17T19:01:00Z,55.22,-162.72,-3.3,-5.6,310,23,,1.75,29.58071,,,,TRUE,TRUE,,,,,-SN BR,OVC,2100,,,,,,,IFR,,,,,,0.005,,,,,,METAR,23.0
KTZR 171901Z 23012KT 1/4SM +SN OVC005 01/00 A2971,KTZR,2021-01-17T19:01:00Z,39.9,-83.13,1.0,0.0,230,12,,0.25,29.71063,,,,,,,,,,+SN,OVC,500,,,,,,,LIFR,,,,,,,,,,,,SPECI,275.0
KSAR 171901Z AUTO 28009G15KT 10SM OVC025 03/M03 A2983 RMK AO2,KSAR,2021-01-17T19:01:00Z,38.15,-89.7,3.0,-3.0,280,9,15,10.0,29.828741,,,TRUE,TRUE,,,,,,,OVC,2500,,,,,,,MVFR,,,,,,,,,,,,SPECI,162.0
KIDA 171901Z 00000KT 3/4SM R21/4000V5000FT BR OVC002 M04/M04 A3025 RMK AO2 T10391039,KIDA,2021-01-17T19:01:00Z,43.52,-112.07,-3.9,-3.9,0,0,,0.75,30.250984,,,,TRUE,,,,,,BR,OVC,200,,,,,,,LIFR,,,,,,,,,,,,SPECI,1444.0
KFVE 171901Z AUTO 28013KT 1SM -SN BR SCT005 OVC016 M01/M02 A2895 RMK AO2 P0000 T10111022,KFVE,2021-01-17T19:01:00Z,47.28,-68.3,-1.1,-2.2,280,13,,1.0,28.948818,,,TRUE,TRUE,,,,,,-SN BR,SCT,500,OVC,1600,,,,,IFR,,,,,,0.005,,,,,,SPECI,299.0
KFTK 171901Z AUTO 22008KT 10SM -UP BKN012 BKN020 BKN026 OVC039 02/01 A2977 RMK AO2 UPB01 CIG 012V020 BKN012 V SCT SLP090,KFTK,2021-01-17T19:01:00Z,37.9,-85.97,2.0,1.0,220,8,,10.0,29.769686,1009.0,,TRUE,TRUE,,,,,,UP,BKN,1200,BKN,2000,BKN,2600,OVC,3900,MVFR,,,,,,,,,,,,SPECI,225.0
KDFI 171901Z AUTO 24005KT 6SM -SN BKN010 BKN021 OVC030 02/M01 A2967 RMK AO2 P0000 T00221006,KDFI,2021-01-17T19:01:00Z,41.33,-84.43,2.2,-0.6,240,5,,6.0,29.66929,,,TRUE,TRUE,,,,,,-SN,BKN,1000,BKN,2100,OVC,3000,,,MVFR,,,,,,0.005,,,,,,SPECI,215.0
KCPS 171901Z 28009KT 10SM SCT032 BKN095 02/M04 A2981 RMK AO2 T00221039,KCPS,2021-01-17T19:01:00Z,38.53,-90.15,2.2,-3.9,280,9,,10.0,29.811024,,,,TRUE,,,,,,,SCT,3200,BKN,9500,,,,,VFR,,,,,,,,,,,,SPECI,125.0
KBMG 171901Z 30007KT 2SM -SN BR OVC008 00/M02 A2973 RMK AO2 UPB1855E1858SNE1855B1858 CIG 005V011 P0001 T00001017,KBMG,2021-01-17T19:01:00Z,39.15,-86.62,0.0,-1.7,300,7,,2.0,29.731298,,,,TRUE,,,,,,-SN BR,OVC,800,,,,,,,IFR,,,,,,0.01,,,,,,SPECI,254.0
ETAR 171901Z 29005KT 9999 FEW013 SCT023 BKN065 01/01 A3020 RMK AO2A SLP245 FZRANO $,ETAR,2021-01-17T19:01:00Z,49.43,7.58,1.0,1.0,290,5,,6.21,30.200787,1024.5,,,TRUE,TRUE,,,TRUE,,,FEW,1300,SCT,2300,BKN,6500,,,VFR,,,,,,,,,,,,METAR,231.0
CYQF 171901Z AUTO 21007KT 9SM OVC055 M02/M05 A2983 RMK SLP150,CYQF,2021-01-17T19:01:00Z,52.17,-113.9,-2.0,-5.0,210,7,,9.0,29.828741,1015.0,,TRUE,,,,,,,,OVC,5500,,,,,,,VFR,,,,,,,,,,,,SPECI,912.0
ZYTX 171900Z VRB01MPS CAVOK M13/M18 Q1019 NOSIG,ZYTX,2021-01-17T19:00:00Z,41.63,123.48,-13.0,-18.0,0,2,,6.21,30.088583,,,,,,TRUE,,,,,CAVOK,,,,,,,,VFR,,,,,,,,,,,,METAR,56.0
ZYTL 171900Z 00000MPS CAVOK M04/M09 Q1018 NOSIG,ZYTL,2021-01-17T19:00:00Z,38.97,121.55,-4.0,-9.0,0,0,,6.21,30.059055,,,,,,TRUE,,,,,CAVOK,,,,,,,,VFR,,,,,,,,,,,,METAR,33.0
ZYHB 171900Z 01007MPS 3000 -SN BR SCT026 M20/M23 Q1013 NOSIG,ZYHB,2021-01-17T19:00:00Z,45.62,126.25,-20.0,-23.0,10,14,,1.86,29.911417,,,,,,TRUE,,,,-SN BR,SCT,2600,,,,,,,IFR,,,,,,,,,,,,METAR,134.0
ZYCC 171900Z 28004MPS 250V310 CAVOK M18/M25 Q1014 NOSIG,ZYCC,2021-01-17T19:00:00Z,43.98,125.68,-18.0,-25.0,280,8,,6.21,29.940945,,,,,,TRUE,,,,,CAVOK,,,,,,,,VFR,,,,,,,,,,,,METAR,211.0
ZWWW 171900Z VRB01MPS 5000 BR NSC M18/M20 Q1022 NOSIG,ZWWW,2021-01-17T19:00:00Z,43.9,87.47,-18.0,-20.0,0,2,,3.11,30.177166,,,,,,TRUE,,,,BR,CLR,,,,,,,,MVFR,,,,,,,,,,,,METAR,654.0
ZWSH 171900Z AUTO 32001MPS 7000 // ////// M07/M11 Q1020,ZWSH,2021-01-17T19:00:00Z,39.55,76.02,-7.0,-11.0,320,2,,4.35,30.11811,,,TRUE,,,,,,,,,,,,,,,,,,,,,,,,,,,,METAR,1374.0
ZUUU 171900Z 00000MPS CAVOK 02/M00 Q1029 NOSIG,ZUUU,2021-01-17T19:00:00Z,30.58,103.95,2.0,0.0,0,0,,6.21,30.383858,,,,,,TRUE,,,,,CAVOK,,,,,,,,VFR,,,,,,,,,,,,METAR,494.0
ZUGY 171900Z 00000MPS CAVOK M01/M02 Q1029 NOSIG,ZUGY,2021-01-17T19:00:00Z,26.53,106.8,-1.0,-2.0,0,0,,6.21,30.383858,,,,,,TRUE,,,,,CAVOK,,,,,,,,VFR,,,,,,,,,,,,METAR,1130.0
ZUCK 171900Z 35002MPS 0900 R02L/0400 R02R/0300 R03/1300 FZFG FEW005 M00/M01 Q1031 NOSIG,ZUCK,2021-01-17T19:00:00Z,29.72,106.63,0.0,-1.0,350,4,,0.56,30.442913,,,,,,TRUE,,,,FZFG,FEW,500,,,,,,,LIFR,,,,,,,,,,,,METAR,416.0
ZSSS 171900Z 22002MPS CAVOK 01/M06 Q1028 NOSIG,ZSSS,2021-01-17T19:00:00Z,31.2,121.33,1.0,-6.0,220,4,,6.21,30.35433,,,,,,TRUE,,,,,CAVOK,,,,,,,,VFR,,,,,,,,,,,,METAR,2.0
ZSQD 171900Z 20001MPS 5000 BR NSC M05/M08 Q1021 NOSIG,ZSQD,2021-01-17T19:00:00Z,36.27,120.38,-5.0,-8.0,200,2,,3.11,30.147638,,,,,,TRUE,,,,BR,CLR,,,,,,,,MVFR,,,,,,,,,,,,METAR,8.0
ZSPD 171900Z 20001MPS CAVOK M02/M04 Q1027 NOSIG,ZSPD,2021-01-17T19:00:00Z,31.15,121.8,-2.0,-4.0,200,2,,6.21,30.324802,,,,,,TRUE,,,,,CAVOK,,,,,,,,VFR,,,,,,,,,,,,METAR,4.0
ZSOF 171900Z 19004MPS CAVOK M02/M09 Q1025 NOSIG,ZSOF,2021-01-17T19:00:00Z,31.98,116.97,-2.0,-9.0,190,8,,6.21,30.265747,,,,,,TRUE,,,,,CAVOK,,,,,,,,VFR,,,,,,,,,,,,METAR,23.0
ZSNJ 171900Z 17002MPS 130V210 CAVOK M02/M04 Q1027 NOSIG,ZSNJ,2021-01-17T19:00:00Z,31.75,118.87,-2.0,-4.0,170,4,,6.21,30.324802,,,,,,TRUE,,,,,CAVOK,,,,,,,,VFR,,,,,,,,,,,,METAR,27.0
ZSNB 171900Z 00000MPS CAVOK M04/M06 Q1028 NOSIG,ZSNB,2021-01-17T19:00:00Z,29.83,121.47,-4.0,-6.0,0,0,,6.21,30.35433,,,,,,TRUE,,,,,CAVOK,,,,,,,,VFR,,,,,,,,,,,,METAR,5.0
ZSHC 171900Z 21002MPS CAVOK M00/M05 Q1027 NOSIG,ZSHC,2021-01-17T19:00:00Z,30.22,120.43,0.0,-5.0,210,4,,6.21,30.324802,,,,,,TRUE,,,,,CAVOK,,,,,,,,VFR,,,,,,,,,,,,METAR,8.0
ZSFZ 171900Z 35002MPS 290V030 CAVOK 06/00 Q1028 NOSIG,ZSFZ,2021-01-17T19:00:00Z,25.93,119.67,6.0,0.0,350,4,,6.21,30.35433,,,,,,TRUE,,,,,CAVOK,,,,,,,,VFR,,,,,,,,,,,,METAR,14.0
ZSAM 171900Z 03004MPS CAVOK 08/02 Q1026 NOSIG,ZSAM,2021-01-17T19:00:00Z,24.53,118.13,8.0,2.0,30,8,,6.21,30.295275,,,,,,TRUE,,,,,CAVOK,,,,,,,,VFR,,,,,,,,,,,,METAR,13.0
ZPPP 171900Z VRB01MPS 9999 -SN SCT023 OVC033 M01/M04 Q1029 NOSIG,ZPPP,2021-01-17T19:00:00Z,25.0,102.65,-1.0,-4.0,0,2,,6.21,30.383858,,,,,,TRUE,,,,-SN,SCT,2300,OVC,3300,,,,,VFR,,,,,,,,,,,,METAR,1885.0
ZMUB 171900Z 14002MPS CAVOK M25/M28 Q1011 NOSIG RMK QFE651.5 70,ZMUB,2021-01-17T19:00:00Z,47.83,106.75,-25.0,-28.0,140,4,,6.21,29.852362,,,,,,TRUE,,,,,CAVOK,,,,,,,,VFR,,,,,,,,,,,,METAR,1300.0
ZLXY 171900Z 05003MPS CAVOK M03/M12 Q1023 NOSIG,ZLXY,2021-01-17T19:00:00Z,34.43,108.75,-3.0,-12.0,50,6,,6.21,30.206694,,,,,,TRUE,,,,,CAVOK,,,,,,,,VFR,,,,,,,,,,,,METAR,478.0
ZLLL 171900Z 31002MPS CAVOK M13/M20 Q1021 NOSIG,ZLLL,2021-01-17T19:00:00Z,36.52,103.62,-13.0,-20.0,310,4,,6.21,30.147638,,,,,,TRUE,,,,,CAVOK,,,,,,,,VFR,,,,,,,,,,,,METAR,1939.0
ZJSY 171900Z 08003MPS CAVOK 16/08 Q1021 NOSIG,ZJSY,2021-01-17T19:00:00Z,18.3,109.42,16.0,8.0,80,6,,6.21,30.147638,,,,,,TRUE,,,,,CAVOK,,,,,,,,VFR,,,,,,,,,,,,METAR,27.0
ZJHK 171900Z 35004MPS 9999 SCT033 12/06 Q1024 NOSIG,ZJHK,2021-01-17T19:00:00Z,19.93,110.43,12.0,6.0,350,8,,6.21,30.236221,,,,,,TRUE,,,,,SCT,3300,,,,,,,VFR,,,,,,,,,,,,METAR,21.0
ZHHH 171900Z 15002MPS CAVOK 03/M07 Q1027 NOSIG,ZHHH,2021-01-17T19:00:00Z,30.78,114.22,3.0,-7.0,150,4,,6.21,30.324802,,,,,,TRUE,,,,,CAVOK,,,,,,,,VFR,,,,,,,,,,,,METAR,33.0
ZHCC 171900Z 28001MPS CAVOK M02/M13 Q1022 NOSIG,ZHCC,2021-01-17T19:00:00Z,34.52,113.83,-2.0,-13.0,280,2,,6.21,30.177166,,,,,,TRUE,,,,,CAVOK,,,,,,,,VFR,,,,,,,,,,,,METAR,149.0
ZGSZ 171900Z 03005MPS CAVOK 12/M02 Q1025 NOSIG,ZGSZ,2021-01-17T19:00:00Z,22.63,113.8,12.0,-2.0,30,10,,6.21,30.265747,,,,,,TRUE,,,,,CAVOK,,,,,,,,VFR,,,,,,,,,,,,METAR,18.0
ZGOW 171900Z VRB01MPS CAVOK 09/02 Q1025 NOSIG,ZGOW,2021-01-17T19:00:00Z,23.55,116.5,9.0,2.0,0,2,,6.21,30.265747,,,,,,TRUE,,,,,CAVOK,,,,,,,,VFR,,,,,,,,,,,,METAR,4.0
ZGNN 171900Z 36003MPS CAVOK 09/00 Q1029 NOSIG,ZGNN,2021-01-17T19:00:00Z,22.62,108.17,9.0,0.0,360,6,,6.21,30.383858,,,,,,TRUE,,,,,CAVOK,,,,,,,,VFR,,,,,,,,,,,,METAR,128.0
ZGKL 171900Z 34001MPS CAVOK 05/M00 Q1030 NOSIG,ZGKL,2021-01-17T19:00:00Z,25.22,110.03,5.0,0.0,340,2,,6.21,30.413385,,,,,,TRUE,,,,,CAVOK,,,,,,,,VFR,,,,,,,,,,,,METAR,151.0
ZGHA 171900Z 13001MPS 8000 NSC M01/M03 Q1029 NOSIG,ZGHA,2021-01-17T19:00:00Z,28.18,113.22,-1.0,-3.0,130,2,,4.97,30.383858,,,,,,TRUE,,,,,CLR,,,,,,,,MVFR,,,,,,,,,,,,METAR,61.0
ZGGG 171900Z 35003MPS CAVOK 09/M03 Q1027 NOSIG,ZGGG,2021-01-17T19:00:00Z,23.4,113.3,9.0,-3.0,350,6,,6.21,30.324802,,,,,,TRUE,,,,,CAVOK,,,,,,,,VFR,,,,,,,,,,,,METAR,11.0
ZBYN 171900Z VRB01MPS CAVOK M09/M19 Q1020 NOSIG,ZBYN,2021-01-17T19:00:00Z,37.73,112.63,-9.0,-19.0,0,2,,6.21,30.11811,,,,,,TRUE,,,,,CAVOK,,,,,,,,VFR,,,,,,,,,,,,METAR,778.0
ZBTJ 171900Z VRB01MPS CAVOK M07/M16 Q1020 NOSIG,ZBTJ,2021-01-17T19:00:00Z,39.12,117.35,-7.0,-16.0,0,2,,6.21,30.11811,,,,,,TRUE,,,,,CAVOK,,,,,,,,VFR,,,,,,,,,,,,METAR,4.0
ZBSJ 171900Z 33002MPS 280V360 7000 NSC M09/M18 Q1020 NOSIG,ZBSJ,2021-01-17T19:00:00Z,38.28,114.7,-9.0,-18.0,330,4,,4.35,30.11811,,,,,,TRUE,,,,,CLR,,,,,,,,MVFR,,,,,,,,,,,,METAR,70.0
ZBHH 171900Z 08003MPS CAVOK M18/M23 Q1019 NOSIG,ZBHH,2021-01-17T19:00:00Z,40.85,111.82,-18.0,-23.0,80,6,,6.21,30.088583,,,,,,TRUE,,,,,CAVOK,,,,,,,,VFR,,,,,,,,,,,,METAR,1081.0
ZBAD 171900Z VRB01MPS CAVOK M12/M20 Q1020 NOSIG,ZBAD,2021-01-17T19:00:00Z,39.5,116.42,-12.0,-20.0,0,2,,6.21,30.11811,,,,,,TRUE,,,,,CAVOK,,,,,,,,VFR,,,,,,,,,,,,METAR,25.0
ZBAA 171900Z VRB01MPS CAVOK M08/M18 Q1020 NOSIG,ZBAA,2021-01-17T19:00:00Z,40.07,116.6,-8.0,-18.0,0,2,,6.21,30.11811,,,,,,TRUE,,,,,CAVOK,,,,,,,,VFR,,,,,,,,,,,,METAR,31.0
YWLM 171900Z AUTO 00000KT 9999 // NCD 16/15 Q1014,YWLM,2021-01-17T19:00:00Z,-32.8,151.83,16.0,15.0,0,0,,6.21,29.940945,,,TRUE,,,,,,,,CLR,,,,,,,,VFR,,,,,,,,,,,,METAR,7.0
YWHA 171900Z AUTO 15011KT //// // BKN022 OVC029 18/13 Q1019,YWHA,2021-01-17T19:00:00Z,-33.07,137.52,18.0,13.0,150,11,,,30.088583,,,TRUE,,,,,,,,BKN,2200,OVC,2900,,,,,,,,,,,,,,,,,METAR,12.0
YWGT 171900Z AUTO 26004KT 9999 // NCD 12/07 Q1014,YWGT,2021-01-17T19:00:00Z,-36.42,146.3,12.0,7.0,260,4,,6.21,29.940945,,,TRUE,,,,,,,,CLR,,,,,,,,VFR,,,,,,,,,,,,METAR,152.0
YTRE 171900Z AUTO 30003KT 9999 // NCD 16/16 Q1014,YTRE,2021-01-17T19:00:00Z,-31.88,152.52,16.0,16.0,300,3,,6.21,29.940945,,,TRUE,,,,,,,,CLR,,,,,,,,VFR,,,,,,,,,,,,METAR,8.0
YTNK 171900Z AUTO 16008KT 9999 // NCD 24/01 Q1010,YTNK,2021-01-17T19:00:00Z,-19.63,134.18,24.0,1.0,160,8,,6.21,29.822834,,,TRUE,,,,,,,,CLR,,,,,,,,VFR,,,,,,,,,,,,METAR,368.0
YTEF 171900Z AUTO 11015KT 9999 // NCD 31/// Q1009,YTEF,2021-01-17T19:00:00Z,-21.72,122.23,,,110,15,,6.21,29.793306,,,TRUE,,,,,,,,CLR,,,,,,,,VFR,,,,,,,,,,,,METAR,298.0
YSWG 171900Z AUTO 04002KT 9999 // NCD 13/06 Q1014,YSWG,2021-01-17T19:00:00Z,-35.15,147.47,13.0,6.0,40,2,,6.21,29.940945,,,TRUE,,,,,,,,CLR,,,,,,,,VFR,,,,,,,,,,,,METAR,212.0
YSTW 171900Z AUTO 15004KT 9999 // NCD 15/13 Q1014,YSTW,2021-01-17T19:00:00Z,-31.08,150.85,15.0,13.0,150,4,,6.21,29.940945,,,TRUE,,,,,,,,CLR,,,,,,,,VFR,,,,,,,,,,,,METAR,404.0
YSSY 171900Z 25006KT 9999 FEW018 20/15 Q1014,YSSY,2021-01-17T19:00:00Z,-33.95,151.17,20.0,15.0,250,6,,6.21,29.940945,,,,,,,,,,,FEW,1800,,,,,,,VFR,,,,,,,,,,,,METAR,3.0
YSRI 171900Z AUTO 00000KT 9999 // NCD 17/16 Q1014,YSRI,2021-01-17T19:00:00Z,-33.6,150.77,17.0,16.0,0,0,,6.21,29.940945,,,TRUE,,,,,,,,CLR,,,,,,,,VFR,,,,,,,,,,,,METAR,19.0
YSNW 171900Z AUTO 00000KT 9999 // NCD 14/14 Q1013,YSNW,2021-01-17T19:00:00Z,-34.95,150.53,14.0,14.0,0,0,,6.21,29.911417,,,TRUE,,,,,,,,CLR,,,,,,,,VFR,,,,,,,,,,,,METAR,109.0
YSNF 171900Z AUTO 16010KT 9999 // NCD 21/15 Q1014,YSNF,2021-01-17T19:00:00Z,-29.03,167.93,21.0,15.0,160,10,,6.21,29.940945,,,TRUE,,,,,,,,CLR,,,,,,,,VFR,,,,,,,,,,,,METAR,113.0
YSDU 171900Z AUTO 13007KT 9999 // NCD 12/08 Q1015,YSDU,2021-01-17T19:00:00Z,-32.22,148.57,12.0,8.0,130,7,,6.21,29.970472,,,TRUE,,,,,,,,CLR,,,,,,,,VFR,,,,,,,,,,,,METAR,285.0
YSCB 171900Z AUTO 11004KT 9999 // NCD 09/09 Q1015,YSCB,2021-01-17T19:00:00Z,-35.3,149.18,9.0,9.0,110,4,,6.21,29.970472,,,TRUE,,,,,,,,CLR,,,,,,,,VFR,,,,,,,,,,,,METAR,577.0
YRMD 171900Z AUTO 00000KT 9999 // NCD 25/15 Q1007,YRMD,2021-01-17T19:00:00Z,-20.7,143.12,25.0,15.0,0,0,,6.21,29.734253,,,TRUE,,,,,,,,CLR,,,,,,,,VFR,,,,,,,,,,,,METAR,209.0
YPWR 171900Z AUTO 16010KT 9999 // NCD 16/13 Q1018,YPWR,2021-01-17T19:00:00Z,-31.15,136.82,16.0,13.0,160,10,,6.21,30.059055,,,TRUE,,,,,,,,CLR,,,,,,,,VFR,,,,,,,,,,,,METAR,169.0
YPTN 171900Z AUTO 14005KT //// // BKN023 26/21 Q1005,YPTN,2021-01-17T19:00:00Z,-14.52,132.38,26.0,21.0,140,5,,,29.675198,,,TRUE,,,,,,,,BKN,2300,,,,,,,,,,,,,,,,,,,METAR,135.0
YPPH 171900Z 08016KT CAVOK 25/M00 Q1012,YPPH,2021-01-17T19:00:00Z,-31.93,115.98,25.0,0.0,80,16,,6.21,29.88189,,,,,,,,,,,CAVOK,,,,,,,,VFR,,,,,,,,,,,,METAR,16.0
YPPD 171900Z AUTO 21005KT 180V240 9999 // NCD 29/24 Q1006,YPPD,2021-01-17T19:00:00Z,-20.37,118.62,29.0,24.0,210,5,,6.21,29.704725,,,TRUE,,,,,,,,CLR,,,,,,,,VFR,,,,,,,,,,,,METAR,6.0
YPLM 171900Z AUTO 00000KT 9999 // NCD 28/21 Q1008,YPLM,2021-01-17T19:00:00Z,-22.23,114.08,28.0,21.0,0,0,,6.21,29.763779,,,TRUE,,,,,,,,CLR,,,,,,,,VFR,,,,,,,,,,,,METAR,5.0
YPKU 171900Z AUTO 00000KT 9999 // NCD 26/25 Q1004,YPKU,2021-01-17T19:00:00Z,-15.77,128.7,26.0,25.0,0,0,,6.21,29.64567,,,TRUE,,,,,,,,CLR,,,,,,,,VFR,,,,,,,,,,,,METAR,42.0
YPKG 171900Z AUTO 10013KT 9999 // NCD 18/09 Q1020,YPKG,2021-01-17T19:00:00Z,-30.78,121.45,18.0,9.0,100,13,,6.21,30.11811,,,TRUE,,,,,,,,CLR,,,,,,,,VFR,,,,,,,,,,,,METAR,372.0
YPJT 171900Z AUTO 09013KT 9999 // NCD 26/02 Q1012 RF00.0/000.0,YPJT,2021-01-17T19:00:00Z,-32.1,115.88,26.0,2.0,90,13,,6.21,29.88189,,,TRUE,,,,,,,,CLR,,,,,,,,VFR,,,,,,,,,,,,METAR,29.0
YPGV 171900Z AUTO 08008KT 9999 // SCT015 SCT029 SCT057 27/25 Q1004,YPGV,2021-01-17T19:00:00Z,-12.27,136.82,27.0,25.0,80,8,,6.21,29.64567,,,TRUE,,,,,,,,SCT,1500,SCT,2900,SCT,5700,,,VFR,,,,,,,,,,,,METAR,53.0
YPEA 171900Z AUTO 07015KT 9999 // NCD 28/M01 Q1012,YPEA,2021-01-17T19:00:00Z,-31.67,116.02,28.0,-1.0,70,15,,6.21,29.88189,,,TRUE,,,,,,,,CLR,,,,,,,,VFR,,,,,,,,,,,,METAR,38.0
YPDN 171900Z AUTO 19002KT 9999 // OVC115 25/24 Q1004,YPDN,2021-01-17T19:00:00Z,-12.42,130.9,25.0,24.0,190,2,,6.21,29.64567,,,TRUE,,,,,,,,OVC,11500,,,,,,,VFR,,,,,,,,,,,,METAR,32.0
YPCC 171900Z AUTO 00000KT 9999 // NCD 27/26 Q1007,YPCC,2021-01-17T19:00:00Z,-12.18,96.83,27.0,26.0,0,0,,6.21,29.734253,,,TRUE,,,,,,,,CLR,,,,,,,,VFR,,,,,,,,,,,,METAR,3.0
YPBO 171900Z AUTO 25007KT 9999 -SHRA SCT012 SCT034 OVC100 24/22 Q1013,YPBO,2021-01-17T19:00:00Z,-23.17,117.75,24.0,22.0,250,7,,6.21,29.911417,,,TRUE,,,,,,,-SHRA,SCT,1200,SCT,3400,OVC,10000,,,VFR,,,,,,,,,,,,METAR,425.0
YPAD 171900Z 18005KT 9999 FEW025 13/09 Q1020,YPAD,2021-01-17T19:00:00Z,-34.95,138.52,13.0,9.0,180,5,,6.21,30.11811,,,,,,,,,,,FEW,2500,,,,,,,VFR,,,,,,,,,,,,METAR,2.0
YOLD 171900Z AUTO 16011KT 9999 // NCD 18/13 Q1017,YOLD,2021-01-17T19:00:00Z,-30.48,136.88,18.0,13.0,160,11,,6.21,30.029528,,,TRUE,,,,,,,,CLR,,,,,,,,VFR,,,,,,,,,,,,METAR,102.0
YNWN 171900Z AUTO 11011KT 9999 // NCD 28/07 Q1013,YNWN,2021-01-17T19:00:00Z,-23.42,119.8,28.0,7.0,110,11,,6.21,29.911417,,,TRUE,,,,,,,,CLR,,,,,,,,VFR,,,,,,,,,,,,METAR,526.0
YNTN 171900Z AUTO 11004KT 9999 // NCD 28/25 Q1005,YNTN,2021-01-17T19:00:00Z,-17.68,141.07,28.0,25.0,110,4,,6.21,29.675198,,,TRUE,,,,,,,,CLR,,,,,,,,VFR,,,,,,,,,,,,METAR,19.0
YNBR 171900Z AUTO 14007KT 090V160 9999 // NCD 20/09 Q1013,YNBR,2021-01-17T19:00:00Z,-30.32,149.83,20.0,9.0,140,7,,6.21,29.911417,,,TRUE,,,,,,,,CLR,,,,,,,,VFR,,,,,,,,,,,,METAR,230.0
YNAR 171900Z AUTO 31001KT 9999 // NCD 12/04 Q1015,YNAR,2021-01-17T19:00:00Z,-34.7,146.52,12.0,4.0,310,1,,6.21,29.970472,,,TRUE,,,,,,,,CLR,,,,,,,,VFR,,,,,,,,,,,,METAR,142.0
YMOR 171900Z AUTO 10008KT 9999 // NCD 20/10 Q1013,YMOR,2021-01-17T19:00:00Z,-29.5,149.85,20.0,10.0,100,8,,6.21,29.911417,,,TRUE,,,,,,,,CLR,,,,,,,,VFR,,,,,,,,,,,,METAR,211.0
YMML 171900Z 29006KT 9999 FEW018 BKN024 13/10 Q1017,YMML,2021-01-17T19:00:00Z,-37.67,144.82,13.0,10.0,290,6,,6.21,30.029528,,,,,,,,,,,FEW,1800,BKN,2400,,,,,MVFR,,,,,,,,,,,,METAR,115.0
YMLT 171900Z AUTO 33014KT 9999 // NCD 11/10 Q1008 RF00.0/000.0,YMLT,2021-01-17T19:00:00Z,-41.53,147.2,11.0,10.0,330,14,,6.21,29.763779,,,TRUE,,,,,,,,CLR,,,,,,,,VFR,,,,,,,,,,,,METAR,167.0
YMIA 171900Z AUTO 21005KT 9999 // NCD 14/06 Q1018,YMIA,2021-01-17T19:00:00Z,-34.23,142.08,14.0,6.0,210,5,,6.21,30.059055,,,TRUE,,,,,,,,CLR,,,,,,,,VFR,,,,,,,,,,,,METAR,53.0
YMHB 171900Z 29013KT 9999 FEW035 BKN045 16/08 Q1004 RF00.0/000.0,YMHB,2021-01-17T19:00:00Z,-42.83,147.52,16.0,8.0,290,13,,6.21,29.64567,,,,,,,,,,,FEW,3500,BKN,4500,,,,,VFR,,,,,,,,,,,,METAR,2.0
YMER 171900Z AUTO 00000KT 9999 // NCD 10/10 Q1014,YMER,2021-01-17T19:00:00Z,-36.92,149.9,10.0,10.0,0,0,,6.21,29.940945,,,TRUE,,,,,,,,CLR,,,,,,,,VFR,,,,,,,,,,,,METAR,2.0
YMEN 171900Z AUTO 27007KT 9999 // SCT019 OVC027 14/11 Q1017,YMEN,2021-01-17T19:00:00Z,-37.72,144.9,14.0,11.0,270,7,,6.21,30.029528,,,TRUE,,,,,,,,SCT,1900,OVC,2700,,,,,MVFR,,,,,,,,,,,,METAR,86.0
YMEK 171900Z AUTO 07014KT 9999 // SCT115 27/06 Q1014,YMEK,2021-01-17T19:00:00Z,-26.62,118.55,27.0,6.0,70,14,,6.21,29.940945,,,TRUE,,,,,,,,SCT,11500,,,,,,,VFR,,,,,,,,,,,,METAR,521.0
YMDG 171900Z AUTO 06004KT 9999 // NCD 14/12 Q1015,YMDG,2021-01-17T19:00:00Z,-32.57,149.62,14.0,12.0,60,4,,6.21,29.970472,,,TRUE,,,,,,,,CLR,,,,,,,,VFR,,,,,,,,,,,,METAR,470.0
YMAY 171900Z AUTO 13001KT 9999 // NCD 11/10 Q1014,YMAY,2021-01-17T19:00:00Z,-36.07,146.95,11.0,10.0,130,1,,6.21,29.940945,,,TRUE,,,,,,,,CLR,,,,,,,,VFR,,,,,,,,,,,,METAR,156.0
YLRE 171900Z AUTO 08002KT 9999 // NCD 25/20 Q1008,YLRE,2021-01-17T19:00:00Z,-23.43,144.28,25.0,20.0,80,2,,6.21,29.763779,,,TRUE,,,,,,,,CLR,,,,,,,,VFR,,,,,,,,,,,,METAR,191.0
YLIS 171900Z AUTO 36002KT 9999 // OVC067 20/18 Q1013,YLIS,2021-01-17T19:00:00Z,-28.83,153.27,20.0,18.0,360,2,,6.21,29.911417,,,TRUE,,,,,,,,OVC,6700,,,,,,,VFR,,,,,,,,,,,,METAR,6.0
YLHI 171900Z AUTO 28008KT 9999 // BKN049 22/17 Q1015 RF00.0/000.0,YLHI,2021-01-17T19:00:00Z,-31.53,159.07,22.0,17.0,280,8,,6.21,29.970472,,,TRUE,,,,,,,,BKN,4900,,,,,,,VFR,,,,,,,,,,,,METAR,2.0
YLEC 171900Z AUTO 19008KT 9999 // NCD 19/09 Q1017,YLEC,2021-01-17T19:00:00Z,-30.6,138.43,19.0,9.0,190,8,,6.21,30.029528,,,TRUE,,,,,,,,CLR,,,,,,,,VFR,,,,,,,,,,,,METAR,261.0
YHUG 171900Z AUTO 05009KT 9999 // NCD 25/18 Q1008,YHUG,2021-01-17T19:00:00Z,-20.82,144.23,25.0,18.0,50,9,,6.21,29.763779,,,TRUE,,,,,,,,CLR,,,,,,,,VFR,,,,,,,,,,,,METAR,320.0
YHID 171900Z AUTO 00000KT 9999 // NCD 26/24 Q1006,YHID,2021-01-17T19:00:00Z,-10.58,142.3,26.0,24.0,0,0,,6.21,29.704725,,,TRUE,,,,,,,,CLR,,,,,,,,VFR,,,,,,,,,,,,METAR,5.0
YGTH 171900Z AUTO 17008KT 9999 // NCD 16/07 Q1015,YGTH,2021-01-17T19:00:00Z,-34.25,146.07,16.0,7.0,170,8,,6.21,29.970472,,,TRUE,,,,,,,,CLR,,,,,,,,VFR,,,,,,,,,,,,METAR,132.0
YGTE 171900Z AUTO 11007KT 9999 // BKN074 BKN090 24/20 Q1004,YGTE,2021-01-17T19:00:00Z,-13.97,136.45,24.0,20.0,110,7,,6.21,29.64567,,,TRUE,,,,,,,,BKN,7400,BKN,9000,,,,,VFR,,,,,,,,,,,,METAR,14.0
YGLA 171900Z AUTO 17005KT 9999 // SCT024 BKN032 24/20 Q1011,YGLA,2021-01-17T19:00:00Z,-23.87,151.22,24.0,20.0,170,5,,6.21,29.852362,,,TRUE,,,,,,,,SCT,2400,BKN,3200,,,,,VFR,,,,,,,,,,,,METAR,17.0
YGFN 171900Z AUTO 23003KT 9999 // NCD 19/18 Q1014,YGFN,2021-01-17T19:00:00Z,-29.77,153.03,19.0,18.0,230,3,,6.21,29.940945,,,TRUE,,,,,,,,CLR,,,,,,,,VFR,,,,,,,,,,,,METAR,26.0
YGEL 171900Z AUTO 20004KT 9999 // NCD 27/17 Q1009,YGEL,2021-01-17T19:00:00Z,-28.8,114.7,27.0,17.0,200,4,,6.21,29.793306,,,TRUE,,,,,,,,CLR,,,,,,,,VFR,,,,,,,,,,,,METAR,32.0
YFRT 171900Z AUTO 11007KT 9999 // SCT024 14/10 Q1021,YFRT,2021-01-17T19:00:00Z,-30.83,128.12,14.0,10.0,110,7,,6.21,30.147638,,,TRUE,,,,,,,,SCT,2400,,,,,,,VFR,,,,,,,,,,,,METAR,159.0
YESP 171900Z AUTO 05009KT 9999 // NCD 14/11 Q1022,YESP,2021-01-17T19:00:00Z,-33.68,121.82,14.0,11.0,50,9,,6.21,30.177166,,,TRUE,,,,,,,,CLR,,,,,,,,VFR,,,,,,,,,,,,METAR,143.0
YEML 171900Z AUTO 09005KT 9999 // NCD 23/20 Q1011,YEML,2021-01-17T19:00:00Z,-23.57,148.18,23.0,20.0,90,5,,6.21,29.852362,,,TRUE,,,,,,,,CLR,,,,,,,,VFR,,,,,,,,,,,,METAR,192.0
YDBY 171900Z AUTO 18005KT 9999 // NCD 29/26 Q1005,YDBY,2021-01-17T19:00:00Z,-17.37,123.67,29.0,26.0,180,5,,6.21,29.675198,,,TRUE,,,,,,,,CLR,,,,,,,,VFR,,,,,,,,,,,,METAR,7.0
YCOM 171900Z AUTO 36004KT 9999 // NCD 04/03 Q1016,YCOM,2021-01-17T19:00:00Z,-36.3,148.97,4.0,3.0,360,4,,6.21,30.0,,,TRUE,,,,,,,,CLR,,,,,,,,VFR,,,,,,,,,,,,METAR,930.0
YCNM 171900Z AUTO 18006KT //// // ////// 19/10 Q1013,YCNM,2021-01-17T19:00:00Z,-30.98,148.38,19.0,10.0,180,6,,,29.911417,,,TRUE,,,,,,,,,,,,,,,,,,,,,,,,,,,,METAR,180.0
YCIN 171900Z AUTO 19005KT 9999 // NCD 29/24 Q1004,YCIN,2021-01-17T19:00:00Z,-17.58,123.83,29.0,24.0,190,5,,6.21,29.64567,,,TRUE,,,,,,,,CLR,,,,,,,,VFR,,,,,,,,,,,,METAR,83.0
YCFS 171900Z AUTO 00000KT //// // SCT031 OVC042 OVC047 20/18 Q1014,YCFS,2021-01-17T19:00:00Z,-30.32,153.12,20.0,18.0,0,0,,,29.940945,,,TRUE,,,,,,,,SCT,3100,OVC,4200,OVC,4700,,,,,,,,,,,,,,,METAR,2.0
YCDU 171900Z AUTO 14008KT 9999 // BKN017 15/13 Q1021,YCDU,2021-01-17T19:00:00Z,-32.12,133.7,15.0,13.0,140,8,,6.21,30.147638,,,TRUE,,,,,,,,BKN,1700,,,,,,,MVFR,,,,,,,,,,,,METAR,21.0
YCCY 171900Z AUTO 19014KT 9999 // NCD 28/M02 Q1007,YCCY,2021-01-17T19:00:00Z,-20.67,140.5,28.0,-2.0,190,14,,6.21,29.734253,,,TRUE,,,,,,,,CLR,,,,,,,,VFR,,,,,,,,,,,,METAR,188.0
YCBP 171900Z AUTO 18011KT 9999 // NCD 19/10 Q1018,YCBP,2021-01-17T19:00:00Z,-29.03,134.72,19.0,10.0,180,11,,6.21,30.059055,,,TRUE,,,,,,,,CLR,,,,,,,,VFR,,,,,,,,,,,,METAR,227.0
YCBB 171900Z AUTO 19006KT 0250 // NCD 18/05 Q1015,YCBB,2021-01-17T19:00:00Z,-31.33,149.27,18.0,5.0,190,6,,0.16,29.970472,,,TRUE,,,,,,,,CLR,,,,,,,,LIFR,,,,,,,,,,,,SPECI,644.0
YCBA 171900Z AUTO 00000KT 9999 // NCD 16/07 Q1015,YCBA,2021-01-17T19:00:00Z,-31.53,145.8,16.0,7.0,0,0,,6.21,29.970472,,,TRUE,,,,,,,,CLR,,,,,,,,VFR,,,,,,,,,,,,METAR,219.0
YCAS 171900Z AUTO 00000KT //// // ////// 21/19 Q1014,YCAS,2021-01-17T19:00:00Z,-28.88,153.07,21.0,19.0,0,0,,,29.940945,,,TRUE,,,,,,,,,,,,,,,,,,,,,,,,,,,,METAR,25.0
YCAR 171900Z AUTO 01006KT 9999 // NCD 27/22 Q1009,YCAR,2021-01-17T19:00:00Z,-24.88,113.67,27.0,22.0,10,6,,6.21,29.793306,,,TRUE,,,,,,,,CLR,,,,,,,,VFR,,,,,,,,,,,,METAR,4.0
YBWX 171900Z AUTO 16020KT //// // ////// 29/24 Q1007,YBWX,2021-01-17T19:00:00Z,-20.85,115.4,29.0,24.0,160,20,,,29.734253,,,TRUE,,,,,,,,,,,,,,,,,,,,,,,,,,,,METAR,5.0
YBWW 171900Z AUTO 08005KT 9999 // NCD 20/18 Q1014 RF00.0/000.0,YBWW,2021-01-17T19:00:00Z,,,20.0,18.0,80,5,,6.21,29.940945,,,TRUE,,,,,,,,CLR,,,,,,,,VFR,,,,,,,,,,,,METAR,
YBWP 171900Z AUTO 00000KT 9999 // OVC075 26/24 Q1005,YBWP,2021-01-17T19:00:00Z,-12.68,141.92,26.0,24.0,0,0,,6.21,29.675198,,,TRUE,,,,,,,,OVC,7500,,,,,,,VFR,,,,,,,,,,,,METAR,21.0
YBUD 171900Z AUTO 10004KT 9999 // SCT022 23/21 Q1012,YBUD,2021-01-17T19:00:00Z,-24.9,152.32,23.0,21.0,100,4,,6.21,29.88189,,,TRUE,,,,,,,,SCT,2200,,,,,,,VFR,,,,,,,,,,,,METAR,30.0
YBRM 171900Z AUTO 21004KT 9999 // NCD 30/25 Q1005,YBRM,2021-01-17T19:00:00Z,-17.93,122.23,30.0,25.0,210,4,,6.21,29.675198,,,TRUE,,,,,,,,CLR,,,,,,,,VFR,,,,,,,,,,,,METAR,11.0
YBRK 171900Z AUTO 12004KT 9999 // SCT026 24/21 Q1011,YBRK,2021-01-17T19:00:00Z,-23.37,150.47,24.0,21.0,120,4,,6.21,29.852362,,,TRUE,,,,,,,,SCT,2600,,,,,,,VFR,,,,,,,,,,,,METAR,10.0
YBPN 171900Z AUTO 17006KT 9999 // SCT023 OVC031 25/23 Q1009,YBPN,2021-01-17T19:00:00Z,-20.5,148.55,25.0,23.0,170,6,,6.21,29.793306,,,TRUE,,,,,,,,SCT,2300,OVC,3100,,,,,VFR,,,,,,,,,,,,METAR,20.0
YBOK 171900Z AUTO 08007KT //// // ////// 21/19 Q1014,YBOK,2021-01-17T19:00:00Z,-27.42,151.73,21.0,19.0,80,7,,,29.940945,,,TRUE,,,,,,,,,,,,,,,,,,,,,,,,,,,,METAR,406.0
YBNA 171900Z AUTO 00000KT 9999 // BKN070 21/20 Q1013,YBNA,2021-01-17T19:00:00Z,-28.83,153.57,21.0,20.0,0,0,,6.21,29.911417,,,TRUE,,,,,,,,BKN,7000,,,,,,,VFR,,,,,,,,,,,,METAR,3.0
YBMK 171900Z AUTO 12010KT 9999 // NCD 26/22 Q1009,YBMK,2021-01-17T19:00:00Z,-21.17,149.17,26.0,22.0,120,10,,6.21,29.793306,,,TRUE,,,,,,,,CLR,,,,,,,,VFR,,,,,,,,,,,,METAR,4.0
YBMA 171900Z AUTO 18015KT 9999 // NCD 26/M00 Q1009,YBMA,2021-01-17T19:00:00Z,-20.67,139.48,26.0,0.0,180,15,,6.21,29.793306,,,TRUE,,,,,,,,CLR,,,,,,,,VFR,,,,,,,,,,,,METAR,346.0
YBLN 171900Z AUTO 09015KT 9999 // NCD 19/10 Q1014,YBLN,2021-01-17T19:00:00Z,-33.68,115.4,19.0,10.0,90,15,,6.21,29.940945,,,TRUE,,,,,,,,CLR,,,,,,,,VFR,,,,,,,,,,,,METAR,17.0
YBHM 171900Z AUTO 12019KT 9999 // SCT022 BKN032 OVC037 26/24 Q1009,YBHM,2021-01-17T19:00:00Z,-20.35,148.95,26.0,24.0,120,19,,6.21,29.793306,,,TRUE,,,,,,,,SCT,2200,BKN,3200,OVC,3700,,,VFR,,,,,,,,,,,,METAR,4.0
YBHI 171900Z AUTO 20010KT 9999 // NCD 16/06 Q1018,YBHI,2021-01-17T19:00:00Z,-32.0,141.47,16.0,6.0,200,10,,6.21,30.059055,,,TRUE,,,,,,,,CLR,,,,,,,,VFR,,,,,,,,,,,,METAR,285.0
YBDV 171900Z AUTO 00000KT //// // ////// 17/01 Q1012,YBDV,2021-01-17T19:00:00Z,-25.9,139.35,17.0,1.0,0,0,,,29.88189,,,TRUE,,,,,,,,,,,,,,,,,,,,,,,,,,,,METAR,46.0
YBCV 171900Z AUTO 14009KT 9999 // SCT064 BKN075 BKN093 26/01 Q1012,YBCV,2021-01-17T19:00:00Z,-26.4,146.27,26.0,1.0,140,9,,6.21,29.88189,,,TRUE,,,,,,,,SCT,6400,BKN,7500,BKN,9300,,,VFR,,,,,,,,,,,,METAR,306.0
YBBN 171900Z 28004KT 9999 VCSH FEW014 SCT018 24/23 Q1013,YBBN,2021-01-17T19:00:00Z,-27.38,153.13,24.0,23.0,280,4,,6.21,29.911417,,,,,,,,,,VCSH,FEW,1400,SCT,1800,,,,,VFR,,,,,,,,,,,,METAR,3.0
YBAS 171900Z AUTO 31004KT 9999 // NCD 13/04 Q1015,YBAS,2021-01-17T19:00:00Z,-23.8,133.9,13.0,4.0,310,4,,6.21,29.970472,,,TRUE,,,,,,,,CLR,,,,,,,,VFR,,,,,,,,,,,,METAR,549.0
YAYE 171900Z AUTO 15006KT 9999 // NCD 18/01 Q1016,YAYE,2021-01-17T19:00:00Z,-25.18,130.98,18.0,1.0,150,6,,6.21,30.0,,,TRUE,,,,,,,,CLR,,,,,,,,VFR,,,,,,,,,,,,METAR,489.0
YARG 171900Z AUTO 11005KT 9999 // NCD 28/17 Q1006,YARG,2021-01-17T19:00:00Z,-16.63,128.45,28.0,17.0,110,5,,6.21,29.704725,,,TRUE,,,,,,,,CLR,,,,,,,,VFR,,,,,,,,,,,,METAR,157.0
YAMB 171900Z AUTO 00000KT 9999 // SCT013 BKN028 21/19 Q1012,YAMB,2021-01-17T19:00:00Z,-27.63,152.72,21.0,19.0,0,0,,6.21,29.88189,,,TRUE,,,,,,,,SCT,1300,BKN,2800,,,,,MVFR,,,,,,,,,,,,METAR,26.0
YABA 171900Z AUTO 07012KT 9999 // BKN017 17/14 Q1019,YABA,2021-01-17T19:00:00Z,-34.93,117.8,17.0,14.0,70,12,,6.21,30.088583,,,TRUE,,,,,,,,BKN,1700,,,,,,,MVFR,,,,,,,,,,,,METAR,67.0
WSSS 171900Z 36013KT 9999 FEW018 SCT040 BKN300 25/21 Q1010 NOSIG,WSSS,2021-01-17T19:00:00Z,1.37,103.97,25.0,21.0,360,13,,6.21,29.822834,,,,,,TRUE,,,,,FEW,1800,SCT,4000,BKN,30000,,,VFR,,,,,,,,,,,,METAR,17.0
WSSL 171900Z 03011KT CAVOK 25/20 Q1010,WSSL,2021-01-17T19:00:00Z,1.42,103.87,25.0,20.0,30,11,,6.21,29.822834,,,,,,,,,,,CAVOK,,,,,,,,VFR,,,,,,,,,,,,METAR,11.0
WSAP 171900Z 03009KT 9999 FEW016 BKN150 25/21 Q1011,WSAP,2021-01-17T19:00:00Z,1.37,103.92,25.0,21.0,30,9,,6.21,29.852362,,,,,,,,,,,FEW,1600,BKN,15000,,,,,VFR,,,,,,,,,,,,METAR,20.0
WMSA 171900Z 07005KT 010V120 9999 FEW017CB 26/20 Q1010,WMSA,2021-01-17T19:00:00Z,3.13,101.55,26.0,20.0,70,5,,6.21,29.822834,,,,,,,,,,,FEW,1700,,,,,,,VFR,,,,,,,,,,,,METAR,19.0
WMKP 171900Z 03009KT 350V060 8000 FEW025 26/20 Q1009 NOSIG,WMKP,2021-01-17T19:00:00Z,5.28,100.27,26.0,20.0,30,9,,4.97,29.793306,,,,,,TRUE,,,,,FEW,2500,,,,,,,MVFR,,,,,,,,,,,,METAR,4.0
WMKN 171900Z VRB06KT 9999 FEW022 26/21 Q1012,WMKN,2021-01-17T19:00:00Z,5.37,103.1,26.0,21.0,0,6,,6.21,29.88189,,,,,,,,,,,FEW,2200,,,,,,,VFR,,,,,,,,,,,,METAR,12.0
WMKL 171900Z 07009G20KT 310V120 9999 FEW026 27/21 Q1010,WMKL,2021-01-17T19:00:00Z,6.32,99.72,27.0,21.0,70,9,20,6.21,29.822834,,,,,,,,,,,FEW,2600,,,,,,,VFR,,,,,,,,,,,,METAR,4.0
WMKK 171900Z 06008KT 360V110 9999 FEW017CB 26/20 Q1009 NOSIG,WMKK,2021-01-17T19:00:00Z,2.75,101.72,26.0,20.0,60,8,,6.21,29.793306,,,,,,TRUE,,,,,FEW,1700,,,,,,,VFR,,,,,,,,,,,,METAR,21.0
WMKJ 171900Z VRB03KT 9999 FEW023 24/21 Q1010,WMKJ,2021-01-17T19:00:00Z,1.63,103.67,24.0,21.0,0,3,,6.21,29.822834,,,,,,,,,,,FEW,2300,,,,,,,VFR,,,,,,,,,,,,METAR,38.0
WMKI 171900Z 03004KT 360V080 8000 FEW007 24/21 Q1009,WMKI,2021-01-17T19:00:00Z,4.57,101.08,24.0,21.0,30,4,,4.97,29.793306,,,,,,,,,,,FEW,700,,,,,,,MVFR,,,,,,,,,,,,METAR,37.0
WMKE 171900Z AUTO 01006KT 290V060 //// // ////// 26/21 Q1012,WMKE,2021-01-17T19:00:00Z,4.53,103.43,26.0,21.0,10,6,,,29.88189,,,TRUE,,,,,,,,,,,,,,,,,,,,,,,,,,,,METAR,5.0
WMKD 171900Z 34004KT 300V050 9999 FEW024 24/21 Q1011 NOSIG,WMKD,2021-01-17T19:00:00Z,3.77,103.22,24.0,21.0,340,4,,6.21,29.852362,,,,,,TRUE,,,,,FEW,2400,,,,,,,VFR,,,,,,,,,,,,METAR,18.0
WMKC 171900Z 10004KT 020V150 9999 FEW020 25/22 Q1012,WMKC,2021-01-17T19:00:00Z,6.17,102.28,25.0,22.0,100,4,,6.21,29.88189,,,,,,,,,,,FEW,2000,,,,,,,VFR,,,,,,,,,,,,METAR,7.0
WMKB 171900Z 04009KT 8000 FEW024 26/19 Q1009 NOSIG,WMKB,2021-01-17T19:00:00Z,5.47,100.38,26.0,19.0,40,9,,4.97,29.793306,,,,,,TRUE,,,,,FEW,2400,,,,,,,MVFR,,,,,,,,,,,,METAR,4.0
WMKA 171900Z 05005KT 350V110 9000 FEW030 25/21 Q1010,WMKA,2021-01-17T19:00:00Z,6.2,100.4,25.0,21.0,50,5,,5.59,29.822834,,,,,,,,,,,FEW,3000,,,,,,,VFR,,,,,,,,,,,,METAR,5.0
WMBA 171900Z VRB02KT 8000 FEW032 25/22 Q1009,WMBA,2021-01-17T19:00:00Z,4.22,100.7,25.0,22.0,0,2,,4.97,29.793306,,,,,,,,,,,FEW,3200,,,,,,,MVFR,,,,,,,,,,,,METAR,9.0
WMAU 171900Z AUTO VRB10KT //// // ////// 26/22 Q1011,WMAU,2021-01-17T19:00:00Z,2.38,103.88,26.0,22.0,0,10,,,29.852362,,,TRUE,,,,,,,,,,,,,,,,,,,,,,,,,,,,SPECI,5.0
WIOO 171900Z AUTO 33002KT 9999 OVC220 24/24 Q1008,WIOO,2021-01-17T19:00:00Z,-0.15,109.4,24.0,24.0,330,2,,6.21,29.763779,,,TRUE,,,,,,,,OVC,22000,,,,,,,VFR,,,,,,,,,,,,METAR,4.0
WIMM 171900Z 23002KT 3000 BR SCT018 25/25 Q1009 NOSIG,WIMM,2021-01-17T19:00:00Z,3.57,98.67,25.0,25.0,230,2,,1.86,29.793306,,,,,,TRUE,,,,BR,SCT,1800,,,,,,,IFR,,,,,,,,,,,,METAR,27.0
WIII 171900Z 31005KT 6000 FEW020 26/23 Q1008 NOSIG,WIII,2021-01-17T19:00:00Z,-6.13,106.67,26.0,23.0,310,5,,3.73,29.763779,,,,,,TRUE,,,,,FEW,2000,,,,,,,MVFR,,,,,,,,,,,,METAR,9.0
WIEE 171900Z 35003KT 9999 -RA BKN020 24/23 Q1009,WIEE,2021-01-17T19:00:00Z,-0.78,100.28,24.0,23.0,350,3,,6.21,29.793306,,,,,,,,,,-RA,BKN,2000,,,,,,,MVFR,,,,,,,,,,,,METAR,5.0
WIDD 171900Z 03011KT 9999 FEW014 26/20 Q1012 NOSIG,WIDD,2021-01-17T19:00:00Z,1.12,104.12,26.0,20.0,30,11,,6.21,29.88189,,,,,,TRUE,,,,,FEW,1400,,,,,,,VFR,,,,,,,,,,,,METAR,26.0
WBSB 171900Z 18003KT 9999 -SHRA FEW003 SCT012 BKN140 24/23 Q1009 NOSIG,WBSB,2021-01-17T19:00:00Z,4.93,114.92,24.0,23.0,180,3,,6.21,29.793306,,,,,,TRUE,,,,-SHRA,FEW,300,SCT,1200,BKN,14000,,,VFR,,,,,,,,,,,,METAR,15.0
WBKW 171900Z 00000KT 9999 FEW010 23/22 Q1006,WBKW,2021-01-17T19:00:00Z,4.32,118.12,23.0,22.0,0,0,,6.21,29.704725,,,,,,,,,,,FEW,1000,,,,,,,VFR,,,,,,,,,,,,METAR,17.0
WBKT 171900Z 26007KT 230V300 9999 FEW013 24/23 Q1007,WBKT,2021-01-17T19:00:00Z,6.92,116.83,24.0,23.0,260,7,,6.21,29.734253,,,,,,,,,,,FEW,1300,,,,,,,VFR,,,,,,,,,,,,METAR,11.0
WBKS 171900Z VRB01KT 9999 FEW015 23/22 Q1006,WBKS,2021-01-17T19:00:00Z,5.9,118.07,23.0,22.0,0,1,,6.21,29.704725,,,,,,,,,,,FEW,1500,,,,,,,VFR,,,,,,,,,,,,METAR,13.0
WBKK 171900Z 10005KT 8000 -RA FEW013 SCT035 22/21 Q1008 NOSIG,WBKK,2021-01-17T19:00:00Z,5.93,116.05,22.0,21.0,100,5,,4.97,29.763779,,,,,,TRUE,,,,-RA,FEW,1300,SCT,3500,,,,,MVFR,,,,,,,,,,,,METAR,9.0
WBGY 171900Z AUTO 00000KT //// // ////// 24/24 Q1009,WBGY,2021-01-17T19:00:00Z,1.22,111.45,24.0,24.0,0,0,,,29.793306,,,TRUE,,,,,,,,,,,,,,,,,,,,,,,,,,,,SPECI,13.0
WBGS 171900Z 35004KT 320V020 9999 -RA FEW007 SCT016 24/24 Q1009,WBGS,2021-01-17T19:00:00Z,2.27,111.98,24.0,24.0,350,4,,6.21,29.793306,,,,,,,,,,-RA,FEW,700,SCT,1600,,,,,VFR,,,,,,,,,,,,METAR,26.0
WBGR 171900Z VRB02KT 9999 FEW014 24/23 Q1009,WBGR,2021-01-17T19:00:00Z,4.32,113.98,24.0,23.0,0,2,,6.21,29.793306,,,,,,,,,,,FEW,1400,,,,,,,VFR,,,,,,,,,,,,METAR,18.0
WBGG 171900Z VRB02KT 9999 SCT020 25/24 Q1009 NOSIG,WBGG,2021-01-17T19:00:00Z,1.48,110.35,25.0,24.0,0,2,,6.21,29.793306,,,,,,TRUE,,,,,SCT,2000,,,,,,,VFR,,,,,,,,,,,,METAR,26.0
WBGB 171900Z VRB02KT 9999 SCT016 24/23 Q1009,WBGB,2021-01-17T19:00:00Z,3.12,113.02,24.0,23.0,0,2,,6.21,29.793306,,,,,,,,,,,SCT,1600,,,,,,,VFR,,,,,,,,,,,,METAR,34.0
WARR 171900Z 24005KT 5000 HZ FEW020 24/23 Q1007 NOSIG,WARR,2021-01-17T19:00:00Z,-7.37,112.78,24.0,23.0,240,5,,3.11,29.734253,,,,,,TRUE,,,,HZ,FEW,2000,,,,,,,MVFR,,,,,,,,,,,,METAR,2.0
WAOO 171900Z AUTO 10003KT 8000 FEW016 BKN190 BKN240 23/23 Q1007,WAOO,2021-01-17T19:00:00Z,-3.45,114.77,23.0,23.0,100,3,,4.97,29.734253,,,TRUE,,,,,,,,FEW,1600,BKN,19000,BKN,24000,,,MVFR,,,,,,,,,,,,METAR,23.0
WAMM 171900Z VRB02KT 8000 SCT018 26/23 Q1008 NOSIG,WAMM,2021-01-17T19:00:00Z,1.55,124.92,26.0,23.0,0,2,,4.97,29.763779,,,,,,TRUE,,,,,SCT,1800,,,,,,,MVFR,,,,,,,,,,,,METAR,86.0
WAJJ 171900Z 00000KT 9999 FEW010 25/22 Q1005 NOSIG,WAJJ,2021-01-17T19:00:00Z,-2.58,140.52,25.0,22.0,0,0,,6.21,29.675198,,,,,,TRUE,,,,,FEW,1000,,,,,,,VFR,,,,,,,,,,,,METAR,93.0
WADL 171900Z 00000KT 6000 BKN016 24/24 Q1009 NOSIG,WADL,2021-01-17T19:00:00Z,-8.75,116.28,24.0,24.0,0,0,,3.73,29.793306,,,,,,TRUE,,,,,BKN,1600,,,,,,,MVFR,,,,,,,,,,,,METAR,97.0
WADD 171900Z VRB02KT 7000 -RA BKN015 26/25 Q1007 NOSIG,WADD,2021-01-17T19:00:00Z,-8.73,115.17,26.0,25.0,0,2,,4.35,29.734253,,,,,,TRUE,,,,-RA,BKN,1500,,,,,,,MVFR,,,,,,,,,,,,METAR,3.0
WAAA 171900Z 09005KT 8000 SCT018 24/24 Q1007 NOSIG,WAAA,2021-01-17T19:00:00Z,-5.07,119.55,24.0,24.0,90,5,,4.97,29.734253,,,,,,TRUE,,,,,SCT,1800,,,,,,,MVFR,,,,,,,,,,,,METAR,13.0
VYYY 171900Z 32004KT 6000 NSC 21/18 Q1012 NOSIG,VYYY,2021-01-17T19:00:00Z,16.9,96.13,21.0,18.0,320,4,,3.73,29.88189,,,,,,TRUE,,,,,CLR,,,,,,,,MVFR,,,,,,,,,,,,METAR,31.0
VVTS 171900Z 03005KT 9999 FEW017 SCT050 22/15 Q1012 NOSIG,VVTS,2021-01-17T19:00:00Z,10.82,106.67,22.0,15.0,30,5,,6.21,29.88189,,,,,,TRUE,,,,,FEW,1700,SCT,5000,,,,,VFR,,,,,,,,,,,,METAR,10.0
VVPQ 171900Z 05007KT CAVOK 25/16 Q1012 NOSIG,VVPQ,2021-01-17T19:00:00Z,10.23,103.97,25.0,16.0,50,7,,6.21,29.88189,,,,,,TRUE,,,,,CAVOK,,,,,,,,VFR,,,,,,,,,,,,METAR,8.0
VVPB 171900Z 33018KT 5000 -RA SCT008 SCT013 BKN030 18/16 Q1022 NOSIG,VVPB,2021-01-17T19:00:00Z,16.38,107.7,18.0,16.0,330,18,,3.11,30.177166,,,,,,TRUE,,,,-RA,SCT,800,SCT,1300,BKN,3000,,,MVFR,,,,,,,,,,,,METAR,15.0
VVNB 171900Z 01004KT CAVOK 11/03 Q1028 NOSIG,VVNB,2021-01-17T19:00:00Z,21.22,105.8,11.0,3.0,10,4,,6.21,30.35433,,,,,,TRUE,,,,,CAVOK,,,,,,,,VFR,,,,,,,,,,,,METAR,6.0
VVDN 171900Z 04011KT 7000 SCT015 SCT060 21/16 Q1020 TEMPO 4000 RA,VVDN,2021-01-17T19:00:00Z,16.03,108.2,21.0,16.0,40,11,,4.35,30.11811,,,,,,,,,,,SCT,1500,SCT,6000,,,,,MVFR,,,,,,,,,,,,METAR,7.0
VVCR 171900Z 04019KT 9999 SCT015 22/19 Q1016 NOSIG,VVCR,2021-01-17T19:00:00Z,12.0,109.22,22.0,19.0,40,19,,6.21,30.0,,,,,,TRUE,,,,,SCT,1500,,,,,,,VFR,,,,,,,,,,,,METAR,12.0
VVCI 171900Z 03007KT CAVOK 14/02 Q1027 NOSIG,VVCI,2021-01-17T19:00:00Z,20.82,106.73,14.0,2.0,30,7,,6.21,30.324802,,,,,,TRUE,,,,,CAVOK,,,,,,,,VFR,,,,,,,,,,,,METAR,6.0
VTUU 171900Z 03013KT CAVOK 17/12 Q1018 NOSIG,VTUU,2021-01-17T19:00:00Z,15.25,104.87,17.0,12.0,30,13,,6.21,30.059055,,,,,,TRUE,,,,,CAVOK,,,,,,,,VFR,,,,,,,,,,,,METAR,123.0
VTUK 171900Z 06006KT 030V090 8000 NSC 17/11 Q1020 NOSIG,VTUK,2021-01-17T19:00:00Z,16.47,102.78,17.0,11.0,60,6,,4.97,30.11811,,,,,,TRUE,,,,,CLR,,,,,,,,MVFR,,,,,,,,,,,,METAR,190.0
VTSS 171900Z 05003KT 9999 FEW020 24/24 Q1011 NOSIG,VTSS,2021-01-17T19:00:00Z,6.92,100.38,24.0,24.0,50,3,,6.21,29.852362,,,,,,TRUE,,,,,FEW,2000,,,,,,,VFR,,,,,,,,,,,,METAR,28.0
VTSP 171900Z 07009KT 040V100 9999 FEW020 26/21 Q1010 NOSIG,VTSP,2021-01-17T19:00:00Z,8.12,98.32,26.0,21.0,70,9,,6.21,29.822834,,,,,,TRUE,,,,,FEW,2000,,,,,,,VFR,,,,,,,,,,,,METAR,12.0
VTSG 171900Z 03004KT 8000 FEW020 23/22 Q1011 NOSIG,VTSG,2021-01-17T19:00:00Z,8.1,98.98,23.0,22.0,30,4,,4.97,29.852362,,,,,,TRUE,,,,,FEW,2000,,,,,,,MVFR,,,,,,,,,,,,METAR,32.0
VTCT 171900Z 02008KT 9999 FEW045 20/16 Q1018 NOSIG,VTCT,2021-01-17T19:00:00Z,19.95,99.88,20.0,16.0,20,8,,6.21,30.059055,,,,,,TRUE,,,,,FEW,4500,,,,,,,VFR,,,,,,,,,,,,METAR,389.0
VTCC 171900Z 01004KT 8000 FEW035 18/15 Q1016 NOSIG,VTCC,2021-01-17T19:00:00Z,18.77,98.97,18.0,15.0,10,4,,4.97,30.0,,,,,,TRUE,,,,,FEW,3500,,,,,,,MVFR,,,,,,,,,,,,METAR,308.0
VTBU 171900Z 04006KT 6000 NSC 23/14 Q1013 NOSIG,VTBU,2021-01-17T19:00:00Z,12.68,101.0,23.0,14.0,40,6,,3.73,29.911417,,,,,,TRUE,,,,,CLR,,,,,,,,MVFR,,,,,,,,,,,,METAR,12.0
VTBS 171900Z 06010KT 9000 NSC 24/16 Q1014 NOSIG,VTBS,2021-01-17T19:00:00Z,13.68,100.75,24.0,16.0,60,10,,5.59,29.940945,,,,,,TRUE,,,,,CLR,,,,,,,,VFR,,,,,,,,,,,,METAR,1.0
VTBD 171900Z 10006KT 070V130 9999 FEW040 24/15 Q1014 NOSIG,VTBD,2021-01-17T19:00:00Z,13.92,100.6,24.0,15.0,100,6,,6.21,29.940945,,,,,,TRUE,,,,,FEW,4000,,,,,,,VFR,,,,,,,,,,,,METAR,6.0
VOVZ 171900Z VRB02KT 2500 BR FEW018 22/21 Q1013 NOSIG,VOVZ,2021-01-17T19:00:00Z,17.72,83.22,22.0,21.0,0,2,,1.55,29.911417,,,,,,TRUE,,,,BR,FEW,1800,,,,,,,IFR,,,,,,,,,,,,METAR,4.0
VOTR 171900Z 01006KT 3500 BR FEW016 22/20 Q1013 NOSIG,VOTR,2021-01-17T19:00:00Z,10.77,78.72,22.0,20.0,10,6,,2.17,29.911417,,,,,,TRUE,,,,BR,FEW,1600,,,,,,,IFR,,,,,,,,,,,,METAR,90.0
VOMM 171900Z VRB02KT 5000 BR FEW020 23/21 Q1012 NOSIG,VOMM,2021-01-17T19:00:00Z,13.0,80.17,23.0,21.0,0,2,,3.11,29.88189,,,,,,TRUE,,,,BR,FEW,2000,,,,,,,MVFR,,,,,,,,,,,,METAR,7.0
VOML 171900Z 00000KT 6000 FEW015 SCT080 27/24 Q1010 NOSIG,VOML,2021-01-17T19:00:00Z,12.97,74.88,27.0,24.0,0,0,,3.73,29.822834,,,,,,TRUE,,,,,FEW,1500,SCT,8000,,,,,MVFR,,,,,,,,,,,,METAR,100.0
VOKN 171900Z VRB02KT 4000 BR FEW012 SCT080 26/24 Q1010 NOSIG,VOKN,2021-01-17T19:00:00Z,11.92,75.55,26.0,24.0,0,2,,2.49,29.822834,,,,,,TRUE,,,,BR,FEW,1200,SCT,8000,,,,,IFR,,,,,,,,,,,,METAR,105.0
VOHS 171900Z 15005KT 5000 BR NSC 19/18 Q1016 NOSIG,VOHS,2021-01-17T19:00:00Z,17.23,78.43,19.0,18.0,150,5,,3.11,30.0,,,,,,TRUE,,,,BR,CLR,,,,,,,,MVFR,,,,,,,,,,,,METAR,607.0
VOCL 171900Z 00000KT 4000 BR SCT015 26/24 Q1010 NOSIG,VOCL,2021-01-17T19:00:00Z,11.13,75.95,26.0,24.0,0,0,,2.49,29.822834,,,,,,TRUE,,,,BR,SCT,1500,,,,,,,IFR,,,,,,,,,,,,METAR,104.0
VOCI 171900Z 00000KT 4000 BR SCT015 26/25 Q1010 NOSIG,VOCI,2021-01-17T19:00:00Z,10.15,76.4,26.0,25.0,0,0,,2.49,29.822834,,,,,,TRUE,,,,BR,SCT,1500,,,,,,,IFR,,,,,,,,,,,,METAR,8.0
VOBL 171900Z 12005KT 6000 FEW015 17/16 Q1017 NOSIG,VOBL,2021-01-17T19:00:00Z,13.2,77.7,17.0,16.0,120,5,,3.73,30.029528,,,,,,TRUE,,,,,FEW,1500,,,,,,,MVFR,,,,,,,,,,,,METAR,908.0
VMMC 171900Z 35016KT 9999 FEW033 13/02 Q1024 NOSIG,VMMC,2021-01-17T19:00:00Z,22.15,113.58,13.0,2.0,350,16,,6.21,30.236221,,,,,,TRUE,,,,,FEW,3300,,,,,,,VFR,,,,,,,,,,,,METAR,1.0
VHHH 171900Z 03007KT CAVOK 13/M01 Q1025 NOSIG,VHHH,2021-01-17T19:00:00Z,22.32,113.92,13.0,-1.0,30,7,,6.21,30.265747,,,,,,TRUE,,,,,CAVOK,,,,,,,,VFR,,,,,,,,,,,,METAR,9.0
VGHS 171900Z 00000KT 2000 BR NSC 18/15 Q1016 TEMPO S/VIS 1500M,VGHS,2021-01-17T19:00:00Z,23.85,90.4,18.0,15.0,0,0,,1.24,30.0,,,,,,,,,,BR,CLR,,,,,,,,IFR,,,,,,,,,,,,METAR,11.0
VEPT 171900Z 00000KT 1000 R25/1200 BR NSC 08/07 Q1017 NOSIG,VEPT,2021-01-17T19:00:00Z,25.6,85.08,8.0,7.0,0,0,,0.62,30.029528,,,,,,TRUE,,,,BR,CLR,,,,,,,,LIFR,,,,,,,,,,,,METAR,53.0
VEGY 171900Z 00000KT 0050 FG VV/// 07/06 Q1017,VEGY,2021-01-17T19:00:00Z,24.75,84.95,7.0,6.0,0,0,,0.03,30.029528,,,,,,,,,,FG,OVX,0,,,,,,,LIFR,,,,,,,,,,,,METAR,115.0
VEGT 171900Z 00000KT 2000 BR FEW018 SCT100 12/12 Q1016 NOSIG,VEGT,2021-01-17T19:00:00Z,26.1,91.58,12.0,12.0,0,0,,1.24,30.0,,,,,,TRUE,,,,BR,FEW,1800,SCT,10000,,,,,IFR,,,,,,,,,,,,METAR,50.0
VECC 171900Z 00000KT 2000 BR NSC 16/14 Q1015 NOSIG,VECC,2021-01-17T19:00:00Z,22.65,88.43,16.0,14.0,0,0,,1.24,29.970472,,,,,,TRUE,,,,BR,CLR,,,,,,,,IFR,,,,,,,,,,,,METAR,11.0
VEBS 171900Z 00000KT 1500 BR NSC 19/17 Q1014 NOSIG,VEBS,2021-01-17T19:00:00Z,20.25,85.82,19.0,17.0,0,0,,0.93,29.940945,,,,,,TRUE,,,,BR,CLR,,,,,,,,LIFR,,,,,,,,,,,,METAR,42.0
VDSR 171900Z 01008KT 9000 SCT017 21/14 Q1014,VDSR,2021-01-17T19:00:00Z,13.42,103.8,21.0,14.0,10,8,,5.59,29.940945,,,,,,,,,,,SCT,1700,,,,,,,VFR,,,,,,,,,,,,METAR,16.0
VDPP 171900Z 06011KT 9000 FEW017 24/15 Q1012,VDPP,2021-01-17T19:00:00Z,11.55,104.83,24.0,15.0,60,11,,5.59,29.88189,,,,,,,,,,,FEW,1700,,,,,,,VFR,,,,,,,,,,,,METAR,10.0
VANP 171900Z 00000KT 3000 HZ NSC 17/11 Q1014 NOSIG,VANP,2021-01-17T19:00:00Z,21.08,79.05,17.0,11.0,0,0,,1.86,29.940945,,,,,,TRUE,,,,HZ,CLR,,,,,,,,IFR,,,,,,,,,,,,METAR,309.0
VABB 171900Z 00000KT 3000 HZ NSC 25/19 Q1011 NOSIG,VABB,2021-01-17T19:00:00Z,19.1,72.87,25.0,19.0,0,0,,1.86,29.852362,,,,,,TRUE,,,,HZ,CLR,,,,,,,,IFR,,,,,,,,,,,,METAR,14.0
VAAH 171900Z 00000KT 3000 BR NSC 19/16 Q1010 NOSIG,VAAH,2021-01-17T19:00:00Z,23.07,72.63,19.0,16.0,0,0,,1.86,29.822834,,,,,,TRUE,,,,BR,CLR,,,,,,,,IFR,,,,,,,,,,,,METAR,52.0
UWWW 171900Z 26002MPS 9999 BKN009 M18/M20 Q1014 R33/410250 NOSIG RMK QFE750/1000,UWWW,2021-01-17T19:00:00Z,53.5,50.17,-18.0,-20.0,260,4,,6.21,29.940945,,,,,,TRUE,,,,,BKN,900,,,,,,,IFR,,,,,,,,,,,,SPECI,124.0
UWUU 171900Z 18004MPS 9999 BKN026 M18/M21 Q1013 R14R/0///60 NOSIG,UWUU,2021-01-17T19:00:00Z,54.57,55.87,-18.0,-21.0,180,8,,6.21,29.911417,,,,,,TRUE,,,,,BKN,2600,,,,,,,MVFR,,,,,,,,,,,,SPECI,137.0
UWSG 171900Z 31002MPS 9999 FEW013 M21/M23 Q1016 R26/820160 NOSIG RMK QFE759/1013,UWSG,2021-01-17T19:00:00Z,51.72,46.17,-21.0,-23.0,310,4,,6.21,30.0,,,,,,TRUE,,,,,FEW,1300,,,,,,,VFR,,,,,,,,,,,,METAR,31.0
UWOR 171900Z 29006MPS CAVOK M16/M19 Q1013 R25/950240 NOSIG RMK QFE736/0982,UWOR,2021-01-17T19:00:00Z,51.07,58.6,-16.0,-19.0,290,12,,6.21,29.911417,,,,,,TRUE,,,,,CAVOK,,,,,,,,VFR,,,,,,,,,,,,METAR,270.0
UWOO 171900Z 07001MPS 9000 NSC M24/M26 Q1015 R08/950543 NOSIG RMK QFE751/1001,UWOO,2021-01-17T19:00:00Z,51.8,55.47,-24.0,-26.0,70,2,,5.59,29.970472,,,,,,TRUE,,,,,CLR,,,,,,,,VFR,,,,,,,,,,,,SPECI,90.0
UWLW 171900Z 30002MPS 8000 NSC M21/M23 Q1015 R20/820650 NOSIG RMK QFE756,UWLW,2021-01-17T19:00:00Z,54.4,48.8,-21.0,-23.0,300,4,,4.97,29.970472,,,,,,TRUE,,,,,CLR,,,,,,,,MVFR,,,,,,,,,,,,SPECI,67.0
UWKS 171900Z 34001MPS CAVOK M21/M23 Q1014 R06/850343 NOSIG RMK QFE745,UWKS,2021-01-17T19:00:00Z,56.08,47.35,-21.0,-23.0,340,2,,6.21,29.940945,,,,,,TRUE,,,,,CAVOK,,,,,,,,VFR,,,,,,,,,,,,METAR,165.0
UWKE 171900Z 25004MPS 9000 -SN BKN005 M23/M25 Q1012 R21/390050 NOSIG RMK OBST OBSC QFE742/0990,UWKE,2021-01-17T19:00:00Z,55.57,52.08,-23.0,-25.0,250,8,,5.59,29.88189,,,,,,TRUE,,,,-SN,BKN,500,,,,,,,IFR,,,,,,,,,,,,SPECI,193.0
UWKD 171900Z 00000MPS 9999 FEW010 M23/M25 Q1014 R29/810050 NOSIG RMK QFE749/0999,UWKD,2021-01-17T19:00:00Z,55.62,49.28,-23.0,-25.0,0,0,,6.21,29.940945,,,,,,TRUE,,,,,FEW,1000,,,,,,,VFR,,,,,,,,,,,,SPECI,114.0
UWGG 171900Z 21001MPS 4000 IC BR NSC M26/M28 Q1016 R36R/490145 NOSIG,UWGG,2021-01-17T19:00:00Z,56.23,43.78,-26.0,-28.0,210,2,,2.49,30.0,,,,,,TRUE,,,,IC BR,CLR,,,,,,,,IFR,,,,,,,,,,,,METAR,73.0
UUYY 171900Z 20003MPS CAVOK M26/M28 Q1010 R18/490255 NOSIG RMK QFE749/0999,UUYY,2021-01-17T19:00:00Z,61.65,50.83,-26.0,-28.0,200,6,,6.21,29.822834,,,,,,TRUE,,,,,CAVOK,,,,,,,,VFR,,,,,,,,,,,,METAR,107.0
UUWW 171900Z VRB01MPS 9999 FEW005 M20/M23 Q1016 R06/420250 NOSIG,UUWW,2021-01-17T19:00:00Z,55.6,37.27,-20.0,-23.0,0,2,,6.21,30.0,,,,,,TRUE,,,,,FEW,500,,,,,,,VFR,,,,,,,,,,,,METAR,195.0
UUOO 171900Z 34001MPS CAVOK M20/M22 Q1014 R30/490239 NOSIG RMK QFE747,UUOO,2021-01-17T19:00:00Z,51.82,39.23,-20.0,-22.0,340,2,,6.21,29.940945,,,,,,TRUE,,,,,CAVOK,,,,,,,,VFR,,,,,,,,,,,,METAR,154.0
UUOL 171900Z 14001MPS 8000 NSC M23/M25 Q1015 R15/850249 NOSIG,UUOL,2021-01-17T19:00:00Z,52.7,39.53,-23.0,-25.0,140,2,,4.97,29.970472,,,,,,TRUE,,,,,CLR,,,,,,,,MVFR,,,,,,,,,,,,METAR,176.0
UUOK 171900Z VRB01MPS CAVOK M23/M27 Q1014 R30/090055 NOSIG RMK QFE742/0989,UUOK,2021-01-17T19:00:00Z,51.75,36.28,-23.0,-27.0,0,2,,6.21,29.940945,,,,,,TRUE,,,,,CAVOK,,,,,,,,VFR,,,,,,,,,,,,METAR,203.0
UUOB 171900Z 05002MPS CAVOK M19/M22 Q1013 R11/820350 NOSIG,UUOB,2021-01-17T19:00:00Z,50.65,36.58,-19.0,-22.0,50,4,,6.21,29.911417,,,,,,TRUE,,,,,CAVOK,,,,,,,,VFR,,,,,,,,,,,,METAR,218.0
UUMO 171900Z VRB01MPS 7000 NSC M22/M24 Q1016 R25/820345 NOSIG RMK QFE746/0995,UUMO,2021-01-17T19:00:00Z,55.52,37.5,-22.0,-24.0,0,2,,4.35,30.0,,,,,,TRUE,,,,,CLR,,,,,,,,MVFR,,,,,,,,,,,,METAR,167.0
UUEE 171900Z VRB01MPS 9000 2600SW BR NSC M22/M24 Q1016 R24L/410257 R24C/410245 NOSIG,UUEE,2021-01-17T19:00:00Z,55.97,37.42,-22.0,-24.0,0,2,,5.59,30.0,,,,,,TRUE,,,,BR,CLR,,,,,,,,VFR,,,,,,,,,,,,SPECI,186.0
UUDL 171900Z 21001MPS 9999 SCT004 M24/M27 Q1017 R23/850340 NOSIG RMK QBB120 QFE754,UUDL,2021-01-17T19:00:00Z,57.57,40.17,-24.0,-27.0,210,2,,6.21,30.029528,,,,,,TRUE,,,,,SCT,400,,,,,,,VFR,,,,,,,,,,,,METAR,88.0
UUDD 171900Z 03003MPS 360V070 9999 -SN NSC M22/M25 Q1015 R88/490237 NOSIG,UUDD,2021-01-17T19:00:00Z,55.4,37.9,-22.0,-25.0,30,6,,6.21,29.970472,,,,,,TRUE,,,,-SN,CLR,,,,,,,,VFR,,,,,,,,,,,,SPECI,165.0
UUBW 171900Z 32002MPS CAVOK M20/M22 Q1017 R30/420342 NOSIG,UUBW,2021-01-17T19:00:00Z,55.55,38.15,-20.0,-22.0,320,4,,6.21,30.029528,,,,,,TRUE,,,,,CAVOK,,,,,,,,VFR,,,,,,,,,,,,METAR,111.0
UUBC 171900Z 00000MPS CAVOK M21/M23 Q1015 R31/490250 NOSIG RMK QFE745/0993,UUBC,2021-01-17T19:00:00Z,54.55,36.37,-21.0,-23.0,0,0,,6.21,29.970472,,,,,,TRUE,,,,,CAVOK,,,,,,,,VFR,,,,,,,,,,,,METAR,198.0
UTTT 171900Z 07006KT 3000 BR NSC 03/M01 Q1009 R08R/CLRD70 TEMPO 1000 BR,UTTT,2021-01-17T19:00:00Z,41.27,69.27,3.0,-1.0,70,6,,1.86,29.793306,,,,,,,,,,BR,CLR,,,,,,,,IFR,,,,,,,,,,,,METAR,429.0
UTST 171900Z 04006KT 7000 NSC 06/00 Q1010 R88/CLRD70 NOSIG,UTST,2021-01-17T19:00:00Z,37.28,67.32,6.0,0.0,40,6,,4.35,29.822834,,,,,,TRUE,,,,,CLR,,,,,,,,MVFR,,,,,,,,,,,,SPECI,311.0
UTSS 171900Z 12006KT 6000 NSC 06/M02 Q1008 R09/CLRD70 NOSIG,UTSS,2021-01-17T19:00:00Z,39.7,66.98,6.0,-2.0,120,6,,3.73,29.763779,,,,,,TRUE,,,,,CLR,,,,,,,,MVFR,,,,,,,,,,,,SPECI,665.0
UTSK 171900Z 09006KT 040V110 CAVOK 06/02 Q1007 R16/CLRD70,UTSK,2021-01-17T19:00:00Z,38.8,65.77,6.0,2.0,90,6,,6.21,29.734253,,,,,,,,,,,CAVOK,,,,,,,,VFR,,,,,,,,,,,,SPECI,399.0
UTSB 171900Z 00000KT CAVOK 05/01 Q1008 R01/CLRD70 NOSIG,UTSB,2021-01-17T19:00:00Z,39.77,64.48,5.0,1.0,0,0,,6.21,29.763779,,,,,,TRUE,,,,,CAVOK,,,,,,,,VFR,,,,,,,,,,,,SPECI,225.0
UTSA 171900Z VRB02KT 9999 NSC 04/M02 Q1008 R07/CLRD70 NOSIG,UTSA,2021-01-17T19:00:00Z,40.12,65.17,4.0,-2.0,0,2,,6.21,29.763779,,,,,,TRUE,,,,,CLR,,,,,,,,VFR,,,,,,,,,,,,SPECI,346.0
UTNU 171900Z 05006KT 7000 NSC 01/M04 Q1007 R13/CLRD70 NOSIG,UTNU,2021-01-17T19:00:00Z,41.58,60.63,1.0,-4.0,50,6,,4.35,29.734253,,,,,,TRUE,,,,,CLR,,,,,,,,MVFR,,,,,,,,,,,,SPECI,97.0
UTNN 171900Z 36002KT CAVOK M02/M06 Q1008 R33/CLRD60 NOSIG,UTNN,2021-01-17T19:00:00Z,42.48,59.63,-2.0,-6.0,360,2,,6.21,29.763779,,,,,,TRUE,,,,,CAVOK,,,,,,,,VFR,,,,,,,,,,,,SPECI,76.0
UTFN 171900Z 33006KT 7000 BR NSC 03/M05 Q1011 R28/CLRD70 NOSIG,UTFN,2021-01-17T19:00:00Z,40.98,71.57,3.0,-5.0,330,6,,4.35,29.852362,,,,,,TRUE,,,,BR,CLR,,,,,,,,MVFR,,,,,,,,,,,,METAR,477.0
UTDT 171900Z 00000MPS 8000 FEW100 04/01 Q1011 R35/////// RMK QFE719/0959,UTDT,2021-01-17T19:00:00Z,37.87,68.87,4.0,1.0,0,0,,4.97,29.852362,,,,,,,,,,,FEW,10000,,,,,,,MVFR,,,,,,,,,,,,METAR,443.0
UTDL 171900Z 09001MPS 3000 BR NSC 01/M03 Q1010 R08/CLRD70 NOSIG RMK QFE718/0958,UTDL,2021-01-17T19:00:00Z,40.22,69.7,1.0,-3.0,90,2,,1.86,29.822834,,,,,,TRUE,,,,BR,CLR,,,,,,,,IFR,,,,,,,,,,,,SPECI,436.0
UTDK 171900Z 02004MPS 9999 NSC 05/M02 Q1012 R01/09//70 RMK QFE702/0936,UTDK,2021-01-17T19:00:00Z,37.98,69.8,5.0,-2.0,20,8,,6.21,29.88189,,,,,,,,,,,CLR,,,,,,,,VFR,,,,,,,,,,,,METAR,675.0
UTDD 171900Z 00000MPS 6000 NSC 05/M05 Q1012 R09/D NOSIG RMK QFE691/0922,UTDD,2021-01-17T19:00:00Z,38.53,68.82,5.0,-5.0,0,0,,3.73,29.88189,,,,,,TRUE,,,,,CLR,,,,,,,,MVFR,,,,,,,,,,,,METAR,785.0
UTAV 171900Z 12010KT CAVOK 08/03 Q1006 R13/CLRD70 NOSIG,UTAV,2021-01-17T19:00:00Z,39.08,63.62,8.0,3.0,120,10,,6.21,29.704725,,,,,,TRUE,,,,,CAVOK,,,,,,,,VFR,,,,,,,,,,,,METAR,187.0
UTAT 171900Z 08008KT CAVOK 02/M03 Q1007 R08/CLRD70 NOSIG,UTAT,2021-01-17T19:00:00Z,41.77,59.83,2.0,-3.0,80,8,,6.21,29.734253,,,,,,TRUE,,,,,CAVOK,,,,,,,,VFR,,,,,,,,,,,,METAR,84.0
UTAM 171900Z 15006KT 6000 SCT100 BKN230 09/03 Q1006 R88/CLRD70 NOSIG,UTAM,2021-01-17T19:00:00Z,37.62,61.9,9.0,3.0,150,6,,3.73,29.704725,,,,,,TRUE,,,,,SCT,10000,BKN,23000,,,,,MVFR,,,,,,,,,,,,METAR,218.0
UTAK 171900Z 14014KT 9999 SCT009 08/04 Q1005 R16R/CLRD70 NOSIG,UTAK,2021-01-17T19:00:00Z,40.05,53.0,8.0,4.0,140,14,,6.21,29.675198,,,,,,TRUE,,,,,SCT,900,,,,,,,VFR,,,,,,,,,,,,METAR,83.0
UTAA 171900Z 26006KT 5000 BR FEW049 SCT099 07/05 Q1005 R88/70D NOSIG,UTAA,2021-01-17T19:00:00Z,37.98,58.37,7.0,5.0,260,6,,3.11,29.675198,,,,,,TRUE,,,,BR,FEW,4900,SCT,9900,,,,,MVFR,,,,,,,,,,,,METAR,207.0
USTR 171900Z 30006MPS 1300 R21/P2000 SHSN BLSN SCT007 OVC018CB M10/M12 Q1002 R21/390040 R12/390040 TEMPO 27012MPS 0600 +SHSN BLSN VV003,USTR,2021-01-17T19:00:00Z,57.18,65.32,-10.0,-12.0,300,12,,0.81,29.586615,,,,,,,,,,BLSN SHSN,SCT,700,OVC,1800,,,,,LIFR,,,,,,,,,,,,SPECI,93.0
USSS 171900Z 27010MPS 9000 -SN OVC017 M14/M18 Q1005 R26R/350041 TEMPO 26007G14MPS RMK QFE733/0978,USSS,2021-01-17T19:00:00Z,56.75,60.78,-14.0,-18.0,270,19,,5.59,29.675198,,,,,,,,,,-SN,OVC,1700,,,,,,,MVFR,,,,,,,,,,,,SPECI,222.0
USRR 171900Z 23003MPS 7000 -SHSN SCT021CB BKN041 M23/M25 Q0993 R25/39//39 NOSIG RMK QFE740,USRR,2021-01-17T19:00:00Z,61.33,73.42,-23.0,-25.0,230,6,,4.35,29.320866,,,,,,TRUE,,,,-SHSN,SCT,2100,BKN,4100,,,,,MVFR,,,,,,,,,,,,SPECI,52.0
USPP 171900Z 30003MPS 9999 -SN NSC M19/M21 Q1010 R21/450250 NOSIG RMK QFE747,USPP,2021-01-17T19:00:00Z,57.92,56.02,-19.0,-21.0,300,6,,6.21,29.822834,,,,,,TRUE,,,,-SN,CLR,,,,,,,,VFR,,,,,,,,,,,,SPECI,120.0
USNN 171900Z 22002MPS CAVOK M14/M16 Q0993 R21/450534 NOSIG RMK QFE740,USNN,2021-01-17T19:00:00Z,60.95,76.48,-14.0,-16.0,220,4,,6.21,29.320866,,,,,,TRUE,,,,,CAVOK,,,,,,,,VFR,,,,,,,,,,,,SPECI,52.0
USHH 171900Z 26004MPS 8000 -SN FEW036 M27/M30 Q0995 R24/410340 TEMPO 2000 SN BKN007,USHH,2021-01-17T19:00:00Z,61.03,69.08,-27.0,-30.0,260,8,,4.97,29.379921,,,,,,,,,,-SN,FEW,3600,,,,,,,MVFR,,,,,,,,,,,,METAR,46.0
USCM 171900Z 16003MPS 120V210 9999 SCT020 M17/M22 Q1008 R18/820252 NOSIG RMK QFE719,USCM,2021-01-17T19:00:00Z,53.4,58.75,-17.0,-22.0,160,6,,6.21,29.763779,,,,,,TRUE,,,,,SCT,2000,,,,,,,VFR,,,,,,,,,,,,METAR,425.0
USCC 171900Z 26006MPS 9999 DRSN NSC M14/M19 Q1007 R27/350042 NOSIG RMK QFE735,USCC,2021-01-17T19:00:00Z,55.3,61.5,-14.0,-19.0,260,12,,6.21,29.734253,,,,,,TRUE,,,,DRSN,CLR,,,,,,,,VFR,,,,,,,,,,,,SPECI,227.0
URWW 171900Z 07004MPS CAVOK M12/M14 Q1012 R06/820245 TEMPO 1000 SHSN BKN004 BKN020CB,URWW,2021-01-17T19:00:00Z,48.78,44.33,-12.0,-14.0,70,8,,6.21,29.88189,,,,,,,,,,,CAVOK,,,,,,,,VFR,,,,,,,,,,,,SPECI,131.0
URWI 171900Z AUTO 08010MPS 1700 // ///007/// M08/M09 Q1008,URWI,2021-01-17T19:00:00Z,46.37,44.33,-8.0,-9.0,80,19,,1.06,29.763779,,,TRUE,,,,,,,,,,,,,,,,,,,,,,,,,,,,SPECI,145.0
URWA 171900Z 05006MPS 6000 -SN OVC006 M04/M06 Q1010 R09/010070 TEMPO 2000 SN BKN005 OVC010 RMK OBST OBSC QFE759/1012,URWA,2021-01-17T19:00:00Z,46.28,47.98,-4.0,-6.0,50,12,,3.73,29.822834,,,,,,,,,,-SN,OVC,600,,,,,,,IFR,,,,,,,,,,,,SPECI,-19.0
URSS 171900Z 04003MPS 9000 -SHRA OVC021CB 06/04 Q1005 WS ALL RWY R02/250454 R06/250455 NOSIG RMK MT OBSC QFE752 R06/06001G04MPS MT OBSC QFE752,URSS,2021-01-17T19:00:00Z,43.45,39.92,6.0,4.0,40,6,,5.59,29.675198,,,,,,TRUE,,,,-SHRA,OVC,2100,,,,,,,MVFR,,,,,,,,,,,,METAR,4.0
URRP 171900Z 07011MPS 1200 0900N R05/P2000D SN BLSN FEW/// OVC020 M08/M10 Q1008 R05/350038 NOSIG RMK QFE751/1002,URRP,2021-01-17T19:00:00Z,47.5,39.92,-8.0,-10.0,70,21,,0.75,29.763779,,,,,,TRUE,,,,BLSN SN,OVC,2000,,,,,,,LIFR,,,,,,,,,,,,METAR,73.0
URMT 171900Z 12007MPS 2100 -SN BKN003 OVC020 M04/M04 Q1003 R07/190060 NOSIG RMK QBB090 OBST OBSC QFE713,URMT,2021-01-17T19:00:00Z,45.12,42.12,-4.0,-4.0,120,14,,1.3,29.616142,,,,,,TRUE,,,,-SN,BKN,300,OVC,2000,,,,,LIFR,,,,,,,,,,,,SPECI,448.0
URMO 171900Z AUTO 01004MPS 9999 // ///003/// M01/M01 Q1001 RMK QFE708/0944,URMO,2021-01-17T19:00:00Z,43.2,44.6,-1.0,-1.0,10,8,,6.21,29.557087,,,TRUE,,,,,,,,,,,,,,,,,,,,,,,,,,,,METAR,505.0
URMN 171900Z 06003MPS 9999 -SG OVC004 M02/M03 Q1002 R24/210250 NOSIG RMK MT OBSC OBST OBSC QFE715,URMN,2021-01-17T19:00:00Z,43.52,43.63,-2.0,-3.0,60,6,,6.21,29.586615,,,,,,TRUE,,,,-SG,OVC,400,,,,,,,LIFR,,,,,,,,,,,,SPECI,424.0
URMM 171900Z 09005MPS 9999 -SN OVC005 M02/M03 Q1004 R12/520142 NOSIG RMK MT OBSC QFE725/0967,URMM,2021-01-17T19:00:00Z,44.22,43.07,-2.0,-3.0,90,10,,6.21,29.64567,,,,,,TRUE,,,,-SN,OVC,500,,,,,,,IFR,,,,,,,,,,,,METAR,318.0
URML 171900Z 34004MPS 2600 -DZ BR SCT002 OVC018 05/05 Q1003 R32/290060 TEMPO 0400 FG BKN002 RMK QBB080 MT OBSC QFE752/1002,URML,2021-01-17T19:00:00Z,42.82,47.65,5.0,5.0,340,8,,1.62,29.616142,,,,,,,,,,-DZ BR,SCT,200,OVC,1800,,,,,IFR,,,,,,,,,,,,METAR,4.0
URMG 171900Z 03005MPS 9999 OVC013 00/M00 Q1003 R26/190060 NOSIG RMK QFE738/0984,URMG,2021-01-17T19:00:00Z,43.38,45.7,0.0,0.0,30,10,,6.21,29.616142,,,,,,TRUE,,,,,OVC,1300,,,,,,,MVFR,,,,,,,,,,,,METAR,160.0
URKK 171900Z 26006MPS 9000 -FZDZ OVC006 M04/M05 Q1003 REFZRA R05R/494028 TEMPO 0500 -SN FZFG OVC002 RMK QFE749,URKK,2021-01-17T19:00:00Z,45.03,39.15,-4.0,-5.0,260,12,,5.59,29.616142,,,,,,,,,,-FZDZ,OVC,600,,,,,,,IFR,,,,,,,,,,,,SPECI,29.0
URKA 171900Z AUTO 03006MPS 4100 2000SE SN NCD M06/M08 Q1005 RMK QFE750/1000,URKA,2021-01-17T19:00:00Z,45.0,37.35,-6.0,-8.0,30,12,,2.55,29.675198,,,TRUE,,,,,,,SN,CLR,,,,,,,,IFR,,,,,,,,,,,,METAR,41.0
URFF 171900Z 33003MPS 9000 -SN SCT006 M09/M10 Q1012 R01/490793 NOSIG RMK OBST OBSC,URFF,2021-01-17T19:00:00Z,45.03,33.98,-9.0,-10.0,330,6,,5.59,29.88189,,,,,,TRUE,,,,-SN,SCT,600,,,,,,,VFR,,,,,,,,,,,,METAR,190.0
UOOO 171900Z 09012MPS 2500 BLSN NSC M20/M24 Q1000 R01/39//42 NOSIG RMK QFE736/0981,UOOO,2021-01-17T19:00:00Z,69.32,87.33,-20.0,-24.0,90,23,,1.55,29.52756,,,,,,TRUE,,,,BLSN,CLR,,,,,,,,IFR,,,,,,,,,,,,SPECI,177.0
UNTT 171900Z 19009MPS 9999 -SHSN SCT010CB M09/M12 Q1010 R21/490145 NOSIG RMK QFE743,UNTT,2021-01-17T19:00:00Z,56.38,85.22,-9.0,-12.0,190,17,,6.21,29.822834,,,,,,TRUE,,,,-SHSN,SCT,1000,,,,,,,VFR,,,,,,,,,,,,METAR,179.0
UNOO 171900Z 26010MPS 5000 -SHSN BLSN SCT009 BKN019CB M08/M12 Q1006 R25/390134 NOSIG RMK QFE746,UNOO,2021-01-17T19:00:00Z,54.97,73.32,-8.0,-12.0,260,19,,3.11,29.704725,,,,,,TRUE,,,,-SHSN BLSN,SCT,900,BKN,1900,,,,,MVFR,,,,,,,,,,,,METAR,85.0
UNNT 171900Z 18007G12MPS 9000 OVC009 M08/M10 Q1013 R25/390135 R16/390138 NOSIG RMK QFE749/0999,UNNT,2021-01-17T19:00:00Z,55.02,82.65,-8.0,-10.0,180,14,23,5.59,29.911417,,,,,,TRUE,,,,,OVC,900,,,,,,,IFR,,,,,,,,,,,,SPECI,106.0
UNKL 171900Z 26005G10MPS 2300 -SHSN BKN030CB M06/M09 Q1010 R29/810255 NOSIG RMK QFE732,UNKL,2021-01-17T19:00:00Z,56.17,92.48,-6.0,-9.0,260,10,19,1.43,29.822834,,,,,,TRUE,,,,-SHSN,BKN,3000,,,,,,,IFR,,,,,,,,,,,,METAR,278.0
UNEE 171900Z 18006MPS 9999 -SHSN OVC016CB M09/M11 Q1014 R23/850545 NOSIG RMK QFE738,UNEE,2021-01-17T19:00:00Z,55.27,86.1,-9.0,-11.0,180,12,,6.21,29.940945,,,,,,TRUE,,,,-SHSN,OVC,1600,,,,,,,MVFR,,,,,,,,,,,,METAR,261.0
UNBB 171900Z 19004MPS 9999 BKN009 M08/M10 Q1016 R24/390137 NOSIG RMK QFE740,UNBB,2021-01-17T19:00:00Z,53.37,83.53,-8.0,-10.0,190,8,,6.21,30.0,,,,,,TRUE,,,,,BKN,900,,,,,,,IFR,,,,,,,,,,,,METAR,249.0
UNAA 171900Z 22008MPS 9999 DRSN NSC M04/M09 Q1016 R20/810154 NOSIG RMK QFE739,UNAA,2021-01-17T19:00:00Z,53.75,91.4,-4.0,-9.0,220,16,,6.21,30.0,,,,,,TRUE,,,,DRSN,CLR,,,,,,,,VFR,,,,,,,,,,,,SPECI,249.0
UMMS 171900Z 35004MPS CAVOK M20/M22 Q1017 R31R/820445 R31L/////// NOSIG,UMMS,2021-01-17T19:00:00Z,53.88,28.03,-20.0,-22.0,350,8,,6.21,30.029528,,,,,,TRUE,,,,,CAVOK,,,,,,,,VFR,,,,,,,,,,,,METAR,196.0
UMKK 171900Z 17001MPS 9000 NSC M14/M16 Q1022 R24/810195 NOSIG RMK QFE766/1021,UMKK,2021-01-17T19:00:00Z,54.88,20.57,-14.0,-16.0,170,2,,5.59,30.177166,,,,,,TRUE,,,,,CLR,,,,,,,,VFR,,,,,,,,,,,,METAR,6.0
UMGG 171900Z 35005MPS 3400 -SHSN BR OVC032CB M16/M19 Q1015 R28/420540 TEMPO 2000,UMGG,2021-01-17T19:00:00Z,52.53,31.02,-16.0,-19.0,350,10,,2.11,29.970472,,,,,,,,,,-SHSN BR,OVC,3200,,,,,,,IFR,,,,,,,,,,,,METAR,135.0
ULWC 171900Z 21003MPS 7000 -SN BKN006 OVC020 M16/M18 Q1014 R03/950546 NOSIG RMK QFE751/1001,ULWC,2021-01-17T19:00:00Z,59.28,38.02,-16.0,-18.0,210,6,,4.35,29.940945,,,,,,TRUE,,,,-SN,BKN,600,OVC,2000,,,,,IFR,,,,,,,,,,,,METAR,113.0
ULPB 171900Z AUTO 23002MPS 9999 // M10/M11 Q1012 RMK QBB310 QFE755/1007,ULPB,2021-01-17T19:00:00Z,61.88,34.15,-10.0,-11.0,230,4,,6.21,29.88189,,,TRUE,,,,,,,,,,,,,,,,,,,,,,,,,,,,METAR,41.0
ULOO 171900Z AUTO 26003MPS 9000 -SN M10/M11 Q1018 RMK QFE759,ULOO,2021-01-17T19:00:00Z,57.78,28.4,-10.0,-11.0,260,6,,5.59,30.059055,,,TRUE,,,,,,,-SN,,,,,,,,,,,,,,,,,,,,,METAR,46.0
ULMM 171900Z 26003MPS 230V300 9999 SCT007 BKN017CB M02/M03 Q1004 R31/690140 NOSIG RMK OBST OBSC QFE746,ULMM,2021-01-17T19:00:00Z,68.78,32.75,-2.0,-3.0,260,6,,6.21,29.64567,,,,,,TRUE,,,,,SCT,700,BKN,1700,,,,,MVFR,,,,,,,,,,,,METAR,79.0
ULLI 171900Z 28003MPS 9999 -SHSN FEW007 SCT015CB BKN046 M09/M10 Q1016 R28R/491535 NOSIG,ULLI,2021-01-17T19:00:00Z,59.8,30.27,-9.0,-10.0,280,6,,6.21,30.0,,,,,,TRUE,,,,-SHSN,FEW,700,SCT,1500,BKN,4600,,,VFR,,,,,,,,,,,,SPECI,25.0
ULAA 171900Z 07003MPS 6000 -SN BKN007 OVC020 M11/M12 Q1006 R08/491032 NOSIG RMK QFE754/1005,ULAA,2021-01-17T19:00:00Z,64.6,40.72,-11.0,-12.0,70,6,,3.73,29.704725,,,,,,TRUE,,,,-SN,BKN,700,OVC,2000,,,,,IFR,,,,,,,,,,,,METAR,10.0
UKOO 171900Z 31002MPS 9999 BKN033 M15/M18 Q1017 R34/910260 NOSIG,UKOO,2021-01-17T19:00:00Z,46.42,30.68,-15.0,-18.0,310,4,,6.21,30.029528,,,,,,TRUE,,,,,BKN,3300,,,,,,,VFR,,,,,,,,,,,,SPECI,52.0
UKOH 171900Z 33003MPS CAVOK M16/M19 Q1016 R03/190060 NOSIG,UKOH,2021-01-17T19:00:00Z,46.67,32.5,-16.0,-19.0,330,6,,6.21,30.0,,,,,,TRUE,,,,,CAVOK,,,,,,,,VFR,,,,,,,,,,,,METAR,43.0
UKLL 171900Z 32005MPS 9000 -SHSN SCT013CB BKN013 M08/M10 Q1017 R31/450545 NOSIG,UKLL,2021-01-17T19:00:00Z,49.82,23.95,-8.0,-10.0,320,10,,5.59,30.029528,,,,,,TRUE,,,,-SHSN,SCT,1300,BKN,1300,,,,,MVFR,,,,,,,,,,,,SPECI,316.0
UKKM 171900Z AUTO 33002MPS 9999 // NCD M18/M19 Q1015,UKKM,2021-01-17T19:00:00Z,50.6,30.2,-18.0,-19.0,330,4,,6.21,29.970472,,,TRUE,,,,,,,,CLR,,,,,,,,VFR,,,,,,,,,,,,SPECI,156.0
UKKK 171900Z 02002MPS 340V050 CAVOK M17/M19 Q1015 R26/820350 NOSIG,UKKK,2021-01-17T19:00:00Z,50.4,30.45,-17.0,-19.0,20,4,,6.21,29.970472,,,,,,TRUE,,,,,CAVOK,,,,,,,,VFR,,,,,,,,,,,,METAR,175.0
UKHH 171900Z 01002MPS 340V040 CAVOK M16/M20 Q1014 R07/71//81 NOSIG,UKHH,2021-01-17T19:00:00Z,49.92,36.28,-16.0,-20.0,10,4,,6.21,29.940945,,,,,,TRUE,,,,,CAVOK,,,,,,,,VFR,,,,,,,,,,,,SPECI,149.0
UKDR 171900Z 33002MPS CAVOK M17/M21 Q1015 R36/95//40 NOSIG,UKDR,2021-01-17T19:00:00Z,48.05,33.22,-17.0,-21.0,330,4,,6.21,29.970472,,,,,,TRUE,,,,,CAVOK,,,,,,,,VFR,,,,,,,,,,,,SPECI,119.0
UKDE 171900Z 34005MPS 9999 SCT039 M14/M18 Q1012 R02/810570 NOSIG,UKDE,2021-01-17T19:00:00Z,47.87,35.32,-14.0,-18.0,340,10,,6.21,29.88189,,,,,,TRUE,,,,,SCT,3900,,,,,,,VFR,,,,,,,,,,,,SPECI,106.0
UKDD 171900Z 36003MPS 330V040 CAVOK M16/M19 Q1013 R08/911070 NOSIG,UKDD,2021-01-17T19:00:00Z,48.37,35.1,-16.0,-19.0,360,6,,6.21,29.911417,,,,,,TRUE,,,,,CAVOK,,,,,,,,VFR,,,,,,,,,,,,SPECI,147.0
UKBB 171900Z 36001MPS 8000 BKN016 M19/M22 Q1015 R36R/811050 NOSIG,UKBB,2021-01-17T19:00:00Z,50.33,30.9,-19.0,-22.0,360,2,,4.97,29.970472,,,,,,TRUE,,,,,BKN,1600,,,,,,,MVFR,,,,,,,,,,,,SPECI,125.0
UIUU 171900Z 10004MPS 070V130 9999 NSC M26/M30 Q1020 R26/490250 NOSIG RMK QFE721/0961,UIUU,2021-01-17T19:00:00Z,51.8,107.45,-26.0,-30.0,100,8,,6.21,30.11811,,,,,,TRUE,,,,,CLR,,,,,,,,VFR,,,,,,,,,,,,SPECI,508.0
UIII 171900Z 13004MPS 9000 -SN SCT046 M15/M18 Q1013 R12/490340 NOSIG RMK QFE717/0957,UIII,2021-01-17T19:00:00Z,52.27,104.37,-15.0,-18.0,130,8,,5.59,29.911417,,,,,,TRUE,,,,-SN,SCT,4600,,,,,,,VFR,,,,,,,,,,,,SPECI,480.0
UIBB 171900Z AUTO 11005MPS 9999 // ///018/// M19/M22 Q1008 RMK QFE713/0951,UIBB,2021-01-17T19:00:00Z,56.37,101.7,-19.0,-22.0,110,10,,6.21,29.763779,,,TRUE,,,,,,,,,,,,,,,,,,,,,,,,,,,,SPECI,485.0
UIAA 171900Z 00000MPS 9999 NSC M36/M40 Q1020 R29/420260 NOSIG RMK QFE707/0942,UIAA,2021-01-17T19:00:00Z,52.02,113.32,-36.0,-40.0,0,0,,6.21,30.11811,,,,,,TRUE,,,,,CLR,,,,,,,,VFR,,,,,,,,,,,,SPECI,650.0
UHWW 171900Z 01003MPS 9999 NSC M26/M29 Q1016 R25L/410160 NOSIG RMK QFE761,UHWW,2021-01-17T19:00:00Z,43.4,132.15,-26.0,-29.0,10,6,,6.21,30.0,,,,,,TRUE,,,,,CLR,,,,,,,,VFR,,,,,,,,,,,,METAR,11.0
UHSS 171900Z 34002MPS 9999 FEW040 M21/M24 Q1013 R01/810265 NOSIG RMK QFE759/1012,UHSS,2021-01-17T19:00:00Z,46.88,142.72,-21.0,-24.0,340,4,,6.21,29.911417,,,,,,TRUE,,,,,FEW,4000,,,,,,,VFR,,,,,,,,,,,,METAR,14.0
UHPP 171900Z 32002MPS 270V350 2500 -SHSN SCT012CB OVC026 M08/M08 Q0978 R34L/350135 NOSIG RMK QFE730/0974,UHPP,2021-01-17T19:00:00Z,53.17,158.45,-8.0,-8.0,320,4,,1.55,28.877953,,,,,,TRUE,,,,-SHSN,SCT,1200,OVC,2600,,,,,IFR,,,,,,,,,,,,METAR,33.0
UHMM 171900Z 33006MPS 9999 -SHSN BKN020CB M20/M26 Q1004 RMK QFE738 R28/09002MPS 020V130,UHMM,2021-01-17T19:00:00Z,59.92,150.72,-20.0,-26.0,330,12,,6.21,29.64567,,,,,,,,,,-SHSN,BKN,2000,,,,,,,MVFR,,,,,,,,,,,,METAR,175.0
UHMA 171900Z 33004MPS 9999 -SN FEW050 M25/M28 Q1019 R01/////// NOSIG RMK TDZ R01/33004G05MPS END R01/30003MPS QFE760/1014,UHMA,2021-01-17T19:00:00Z,64.73,177.73,-25.0,-28.0,330,8,,6.21,30.088583,,,,,,TRUE,,,,-SN,FEW,5000,,,,,,,VFR,,,,,,,,,,,,METAR,53.0
UHHH 171900Z 10002MPS 4000 -SN SCT031 M21/M24 Q1014 R23L/450250 NOSIG RMK QFE754/1005,UHHH,2021-01-17T19:00:00Z,48.52,135.18,-21.0,-24.0,100,4,,2.49,29.940945,,,,,,TRUE,,,,-SN,SCT,3100,,,,,,,IFR,,,,,,,,,,,,METAR,74.0
UHBB 171900Z 00000MPS CAVOK M31/M34 Q1015 R36/490350 NOSIG RMK QFE743/0991,UHBB,2021-01-17T19:00:00Z,50.43,127.42,-31.0,-34.0,0,0,,6.21,29.970472,,,,,,TRUE,,,,,CAVOK,,,,,,,,VFR,,,,,,,,,,,,METAR,185.0
UERR 171900Z 27004MPS 9999 -SN SCT005 M41/M44 Q1020 R25/390235 NOSIG RMK QBB150 QFE734/0978,UERR,2021-01-17T19:00:00Z,62.53,114.05,-41.0,-44.0,270,8,,6.21,30.11811,,,,,,TRUE,,,,-SN,SCT,500,,,,,,,VFR,,,,,,,,,,,,METAR,352.0
UERP 171900Z 29003MPS CAVOK M40/M45 Q1015 NOSIG RMK QFE717,UERP,2021-01-17T19:00:00Z,66.4,112.03,-40.0,-45.0,290,6,,6.21,29.970472,,,,,,TRUE,,,,,CAVOK,,,,,,,,VFR,,,,,,,,,,,,METAR,514.0
UEEE 171900Z 00000MPS 0250 0200SW R23L/0750N FG NSC M48/M54 Q1028 R23L/450150 NOSIG RMK QFE762,UEEE,2021-01-17T19:00:00Z,62.08,129.77,-48.0,-54.0,0,0,,0.16,30.35433,,,,,,TRUE,,,,FG,CLR,,,,,,,,LIFR,,,,,,,,,,,,METAR,106.0
UDYZ 171900Z 08003KT 9999 NSC 03/M01 Q1005 R09/010070 NOSIG,UDYZ,2021-01-17T19:00:00Z,40.15,44.4,3.0,-1.0,80,3,,6.21,29.675198,,,,,,TRUE,,,,,CLR,,,,,,,,VFR,,,,,,,,,,,,METAR,851.0
UDSG 171900Z 09004KT 6000 BKN040 M01/M04 Q1004 R02/CLRD70 NOSIG,UDSG,2021-01-17T19:00:00Z,40.75,43.87,-1.0,-4.0,90,4,,3.73,29.64567,,,,,,TRUE,,,,,BKN,4000,,,,,,,MVFR,,,,,,,,,,,,METAR,1515.0
UCFO 171900Z 15004MPS 4600 FU NSC 03/M05 Q1009 R12/0///95 NOSIG,UCFO,2021-01-17T19:00:00Z,40.6,72.8,3.0,-5.0,150,8,,2.86,29.793306,,,,,,TRUE,,,,FU,CLR,,,,,,,,IFR,,,,,,,,,,,,METAR,881.0
UCFM 171900Z 24002MPS 1800 1400E R08/P1500D BR FU NSC M05/M07 Q1008 R08/0///95 NOSIG,UCFM,2021-01-17T19:00:00Z,43.07,74.48,-5.0,-7.0,240,4,,1.12,29.763779,,,,,,TRUE,,,,FU BR,CLR,,,,,,,,IFR,,,,,,,,,,,,METAR,632.0
UCFL 171900Z 32004MPS 9999 FEW026 M02/M04 Q1015 R07/CLRD95,UCFL,2021-01-17T19:00:00Z,42.58,76.7,-2.0,-4.0,320,8,,6.21,29.970472,,,,,,,,,,,FEW,2600,,,,,,,VFR,,,,,,,,,,,,METAR,1654.0
UBEE 171900Z 36004KT 6000 SCT030 BKN100 02/00 Q1004 R30/CLRD// NOSIG,UBEE,2021-01-17T19:00:00Z,40.63,47.13,2.0,0.0,360,4,,3.73,29.64567,,,,,,TRUE,,,,,SCT,3000,BKN,10000,,,,,MVFR,,,,,,,,,,,,SPECI,14.0
UBBY 171900Z 00000KT 7000 SCT100 01/01 Q1006 R33/////// NOSIG RMK MT OP,UBBY,2021-01-17T19:00:00Z,41.57,46.67,1.0,1.0,0,0,,4.35,29.704725,,,,,,TRUE,,,,,SCT,10000,,,,,,,MVFR,,,,,,,,,,,,METAR,383.0
UBBQ 171900Z 00000KT 6000 NSC M02/M03 Q1004 R34/////// NOSIG RMK MT OP,UBBQ,2021-01-17T19:00:00Z,40.82,47.72,-2.0,-3.0,0,0,,3.73,29.64567,,,,,,TRUE,,,,,CLR,,,,,,,,MVFR,,,,,,,,,,,,METAR,339.0
UBBN 171900Z 07008KT 9999 FEW043 BKN100 07/M02 Q1005 R14R/CLRD// NOSIG RMK MT OP QFE679,UBBN,2021-01-17T19:00:00Z,39.18,45.45,7.0,-2.0,70,8,,6.21,29.675198,,,,,,TRUE,,,,,FEW,4300,BKN,10000,,,,,VFR,,,,,,,,,,,,METAR,857.0
UBBL 171900Z VRB02KT 3300 BR SCT046 02/02 Q1005 R33/CLRD// NOSIG RMK MT OBSC,UBBL,2021-01-17T19:00:00Z,38.75,48.82,2.0,2.0,0,2,,2.05,29.675198,,,,,,TRUE,,,,BR,SCT,4600,,,,,,,IFR,,,,,,,,,,,,METAR,-11.0
UBBG 171900Z 25006KT 9999 SCT100 04/01 Q1003 R30/CLRD// NOSIG,UBBG,2021-01-17T19:00:00Z,40.73,46.32,4.0,1.0,250,6,,6.21,29.616142,,,,,,TRUE,,,,,SCT,10000,,,,,,,VFR,,,,,,,,,,,,SPECI,333.0
UBBB 171900Z 21010KT CAVOK 09/05 Q1002 R88/CLRD// NOSIG,UBBB,2021-01-17T19:00:00Z,40.47,50.07,9.0,5.0,210,10,,6.21,29.586615,,,,,,TRUE,,,,,CAVOK,,,,,,,,VFR,,,,,,,,,,,,SPECI,94.0
UAUU 171900Z 26006MPS CAVOK M17/M19 Q1011 R15/810158 NOSIG RMK QFE742/0989,UAUU,2021-01-17T19:00:00Z,53.2,63.55,-17.0,-19.0,260,12,,6.21,29.852362,,,,,,TRUE,,,,,CAVOK,,,,,,,,VFR,,,,,,,,,,,,METAR,177.0
UATT 171900Z VRB01MPS 9999 OVC010 M11/M13 Q1013 R13/0///60 NOSIG RMK QFE740/0987,UATT,2021-01-17T19:00:00Z,50.25,57.2,-11.0,-13.0,0,2,,6.21,29.911417,,,,,,TRUE,,,,,OVC,1000,,,,,,,MVFR,,,,,,,,,,,,METAR,217.0
UATG 171900Z 05007MPS 3000 -FZDZ BR OVC003 M04/M04 Q1011 R14/39//50 NOSIG RMK QBB110 QFE760/1013,UATG,2021-01-17T19:00:00Z,47.12,51.83,-4.0,-4.0,50,14,,1.86,29.852362,,,,,,TRUE,,,,-FZDZ BR,OVC,300,,,,,,,LIFR,,,,,,,,,,,,SPECI,-23.0
UATE 171900Z 08005MPS CAVOK 01/M01 Q1004 R12/0///70 NOSIG RMK QFE751/1001,UATE,2021-01-17T19:00:00Z,43.87,51.1,1.0,-1.0,80,10,,6.21,29.64567,,,,,,TRUE,,,,,CAVOK,,,,,,,,VFR,,,,,,,,,,,,METAR,21.0
UASP 171900Z 20003MPS 170V230 CAVOK M12/M13 Q1013 R21/350154 NOSIG RMK QFE748/0998,UASP,2021-01-17T19:00:00Z,52.2,77.07,-12.0,-13.0,200,6,,6.21,29.911417,,,,,,TRUE,,,,,CAVOK,,,,,,,,VFR,,,,,,,,,,,,METAR,122.0
UASK 171900Z 05001MPS 4000 BR SCT110 M18/M21 Q1020 R30/450245 NOSIG RMK QFE740/0986,UASK,2021-01-17T19:00:00Z,50.03,82.5,-18.0,-21.0,50,2,,2.49,30.11811,,,,,,TRUE,,,,BR,SCT,11000,,,,,,,IFR,,,,,,,,,,,,METAR,285.0
UARR 171900Z 00000MPS CAVOK M24/M26 Q1016 R22/750345 NOSIG RMK QFE758/1011,UARR,2021-01-17T19:00:00Z,51.15,51.53,-24.0,-26.0,0,0,,6.21,30.0,,,,,,TRUE,,,,,CAVOK,,,,,,,,VFR,,,,,,,,,,,,METAR,33.0
UAOO 171900Z 03002MPS CAVOK M09/M10 Q1010 NOSIG RMK QFE746/0995,UAOO,2021-01-17T19:00:00Z,44.7,65.6,-9.0,-10.0,30,4,,6.21,29.822834,,,,,,TRUE,,,,,CAVOK,,,,,,,,VFR,,,,,,,,,,,,METAR,130.0
UAKK 171900Z 22008MPS CAVOK M05/M10 Q1014 R23/3///45 NOSIG RMK QFE714/0952,UAKK,2021-01-17T19:00:00Z,49.68,73.35,-5.0,-10.0,220,16,,6.21,29.940945,,,,,,TRUE,,,,,CAVOK,,,,,,,,VFR,,,,,,,,,,,,METAR,532.0
UAII 171900Z 15002MPS 3300 BR NSC 03/M00 Q1009 R28/0///70 NOSIG RMK QFE720/0960,UAII,2021-01-17T19:00:00Z,42.37,69.48,3.0,0.0,150,4,,2.05,29.793306,,,,,,TRUE,,,,BR,CLR,,,,,,,,IFR,,,,,,,,,,,,METAR,410.0
UADD 171900Z 20003MPS 4500 BR NSC 00/M02 Q1009 R13/0///65 NOSIG RMK QFE700/0934,UADD,2021-01-17T19:00:00Z,42.85,71.3,0.0,-2.0,200,6,,2.8,29.793306,,,,,,TRUE,,,,BR,CLR,,,,,,,,IFR,,,,,,,,,,,,METAR,663.0
UACC 171900Z 20005MPS CAVOK M10/M13 Q1013 R22/35//60 NOSIG RMK QFE728/0971,UACC,2021-01-17T19:00:00Z,51.02,71.47,-10.0,-13.0,200,10,,6.21,29.911417,,,,,,TRUE,,,,,CAVOK,,,,,,,,VFR,,,,,,,,,,,,METAR,354.0
UAAA 171900Z 21002MPS 0700 R23R/1900N R23L/1900U BR FU SCT100 M09/M11 Q1011 R23R/3///50 R23L/3///45 NOSIG,UAAA,2021-01-17T19:00:00Z,43.35,77.03,-9.0,-11.0,210,4,,0.43,29.852362,,,,,,TRUE,,,,FU BR,SCT,10000,,,,,,,LIFR,,,,,,,,,,,,METAR,673.0
TVSA 171900Z 07012KT 020V090 9999 BKN018 27/21 Q1012 NOSIG ,TVSA,2021-01-17T19:00:00Z,13.15,-61.15,27.0,21.0,70,12,,6.21,29.88189,,,,,,TRUE,,,,,BKN,1800,,,,,,,MVFR,,,,,,,,,,,,METAR,3.0
TUPJ 171900Z 09009KT 10SM FEW008 SCT016 BKN038 27/23 A2998 RMK Q1015 VIS16KM,TUPJ,2021-01-17T19:00:00Z,18.43,-64.53,27.0,23.0,90,9,,10.0,29.97933,,,,,,,,,,,FEW,800,SCT,1600,BKN,3800,,,VFR,,,,,,,,,,,,METAR,6.0
TTPP 171900Z 12010KT 9999 FEW032 31/19 Q1010 NOSIG,TTPP,2021-01-17T19:00:00Z,10.58,-61.35,31.0,19.0,120,10,,6.21,29.822834,,,,,,TRUE,,,,,FEW,3200,,,,,,,VFR,,,,,,,,,,,,METAR,11.0
TTCP 171900Z 11013KT 9999 VCSH FEW018 29/22 Q1011 NOSIG RMK VCSH-N,TTCP,2021-01-17T19:00:00Z,11.15,-60.85,29.0,22.0,110,13,,6.21,29.852362,,,,,,TRUE,,,,VCSH,FEW,1800,,,,,,,VFR,,,,,,,,,,,,METAR,13.0
TRPG 171900Z 09014KT 050V140 9999 FEW023 27/20 Q1015,TRPG,2021-01-17T19:00:00Z,16.78,-62.2,27.0,20.0,90,14,,6.21,29.970472,,,,,,,,,,,FEW,2300,,,,,,,VFR,,,,,,,,,,,,METAR,170.0
TQPF 171900Z 10011KT 9999 SCT019 27/22 Q1014,TQPF,2021-01-17T19:00:00Z,18.2,-63.05,27.0,22.0,100,11,,6.21,29.940945,,,,,,,,,,,SCT,1900,,,,,,,VFR,,,,,,,,,,,,METAR,33.0
"TNCM 171900Z 11011KT 9999 SCT018 27/23 Q1015 NOSIG RMK SHRA SW, W ",TNCM,2021-01-17T19:00:00Z,18.05,-63.12,27.0,23.0,110,11,,6.21,29.970472,,,,,,TRUE,,,,,SCT,1800,,,,,,,VFR,,,,,,,,,,,,METAR,9.0
TNCC 171900Z 09010KT 9999 FEW024 28/22 Q1011 NOSIG,TNCC,2021-01-17T19:00:00Z,12.2,-68.97,28.0,22.0,90,10,,6.21,29.852362,,,,,,TRUE,,,,,FEW,2400,,,,,,,VFR,,,,,,,,,,,,METAR,10.0
TNCA 171900Z 08016KT 9999 FEW023 29/21 Q1011 NOSIG,TNCA,2021-01-17T19:00:00Z,12.5,-70.0,29.0,21.0,80,16,,6.21,29.852362,,,,,,TRUE,,,,,FEW,2300,,,,,,,VFR,,,,,,,,,,,,METAR,7.0
TLPL 171900Z 07014KT 9999 SCT028 29/22 Q1013 NOSIG,TLPL,2021-01-17T19:00:00Z,13.75,-60.95,29.0,22.0,70,14,,6.21,29.911417,,,,,,TRUE,,,,,SCT,2800,,,,,,,VFR,,,,,,,,,,,,METAR,13.0
TLPC 171900Z 09009KT 9999 SCT027 28/21 Q1013 NOSIG,TLPC,2021-01-17T19:00:00Z,14.02,-61.0,28.0,21.0,90,9,,6.21,29.911417,,,,,,TRUE,,,,,SCT,2700,,,,,,,VFR,,,,,,,,,,,,METAR,8.0
TKPN 171900Z 12007KT 9999 SCT023 28/21 Q1014,TKPN,2021-01-17T19:00:00Z,17.2,-62.58,28.0,21.0,120,7,,6.21,29.940945,,,,,,,,,,,SCT,2300,,,,,,,VFR,,,,,,,,,,,,METAR,12.0
TKPK 171900Z 09010KT 9999 FEW022 29/22 Q1014,TKPK,2021-01-17T19:00:00Z,17.3,-62.72,29.0,22.0,90,10,,6.21,29.940945,,,,,,,,,,,FEW,2200,,,,,,,VFR,,,,,,,,,,,,METAR,62.0
TGPY 171900Z 08018KT 9999 SCT018 SCT038 27/23 Q1011 NOSIG JP-NW-N,TGPY,2021-01-17T19:00:00Z,12.0,-61.78,27.0,23.0,80,18,,6.21,29.852362,,,,,,TRUE,,,,,SCT,1800,SCT,3800,,,,,VFR,,,,,,,,,,,,METAR,12.0
TFFR 171900Z AUTO 09009KT 050V130 9999 SCT036 SCT045 BKN054 27/21 Q1013 NOSIG,TFFR,2021-01-17T19:00:00Z,16.27,-61.53,27.0,21.0,90,9,,6.21,29.911417,,,TRUE,,,TRUE,,,,,SCT,3600,SCT,4500,BKN,5400,,,VFR,,,,,,,,,,,,METAR,6.0
TFFF 171900Z AUTO 10015KT 9999 BKN034 29/21 Q1013 TEMPO 09015G30KT,TFFF,2021-01-17T19:00:00Z,14.6,-61.0,29.0,21.0,100,15,,6.21,29.911417,,,TRUE,,,,,,,,BKN,3400,,,,,,,VFR,,,,,,,,,,,,METAR,3.0
TDPD 171900Z 11012KT 9999 SCT019 27/22 Q1014,TDPD,2021-01-17T19:00:00Z,15.55,-61.3,27.0,22.0,110,12,,6.21,29.940945,,,,,,,,,,,SCT,1900,,,,,,,VFR,,,,,,,,,,,,METAR,13.0
TDCF 171900Z 12005KT 9999 SCT024 29/19 Q1012,TDCF,2021-01-17T19:00:00Z,15.33,-61.4,29.0,19.0,120,5,,6.21,29.88189,,,,,,,,,,,SCT,2400,,,,,,,VFR,,,,,,,,,,,,METAR,4.0
TBPB 171900Z 09016KT 9999 VCSH SCT018 SCT036 29/22 Q1012 NOSIG,TBPB,2021-01-17T19:00:00Z,13.07,-59.48,29.0,22.0,90,16,,6.21,29.88189,,,,,,TRUE,,,,VCSH,SCT,1800,SCT,3600,,,,,VFR,,,,,,,,,,,,METAR,55.0
TAPA 171900Z 09010KT 060V140 9999 FEW022 27/20 Q1015 NOSIG,TAPA,2021-01-17T19:00:00Z,17.13,-61.78,27.0,20.0,90,10,,6.21,29.970472,,,,,,TRUE,,,,,FEW,2200,,,,,,,VFR,,,,,,,,,,,,METAR,15.0
SYCJ 171900Z 06012KT 9999 SCT020 30/22 Q1009 NOSIG,SYCJ,2021-01-17T19:00:00Z,6.5,-58.25,30.0,22.0,60,12,,6.21,29.793306,,,,,,TRUE,,,,,SCT,2000,,,,,,,VFR,,,,,,,,,,,,METAR,30.0
SVBM 171900Z 11008KT 9999 FEW016 31/15 Q1012,SVBM,2021-01-17T19:00:00Z,10.05,-69.37,31.0,15.0,110,8,,6.21,29.88189,,,,,,,,,,,FEW,1600,,,,,,,VFR,,,,,,,,,,,,METAR,624.0
SUSO 171900Z 24012KT 9999 BKN027 26/16 Q1009,SUSO,2021-01-17T19:00:00Z,-31.43,-57.98,26.0,16.0,240,12,,6.21,29.793306,,,,,,,,,,,BKN,2700,,,,,,,MVFR,,,,,,,,,,,,METAR,37.0
SUMU 171900Z 24016KT 9999 BKN033 23/13 Q1007 NOSIG,SUMU,2021-01-17T19:00:00Z,-34.83,-56.02,23.0,13.0,240,16,,6.21,29.734253,,,,,,TRUE,,,,,BKN,3300,,,,,,,VFR,,,,,,,,,,,,METAR,32.0
SULS 171900Z 24022KT 9999 BKN026 22/14 Q1006,SULS,2021-01-17T19:00:00Z,-34.87,-55.1,22.0,14.0,240,22,,6.21,29.704725,,,,,,,,,,,BKN,2600,,,,,,,MVFR,,,,,,,,,,,,METAR,22.0
SUDU 171900Z 25018KT 9999 SCT030 27/10 Q1008,SUDU,2021-01-17T19:00:00Z,-33.35,-56.5,27.0,10.0,250,18,,6.21,29.763779,,,,,,,,,,,SCT,3000,,,,,,,VFR,,,,,,,,,,,,METAR,91.0
SUCA 171900Z 24016KT 9999 FEW023 25/12 Q1008,SUCA,2021-01-17T19:00:00Z,-34.45,-57.77,25.0,12.0,240,16,,6.21,29.763779,,,,,,,,,,,FEW,2300,,,,,,,VFR,,,,,,,,,,,,METAR,26.0
SUAA 171900Z 25017KT 9999 SCT016 22/14 Q1007,SUAA,2021-01-17T19:00:00Z,-34.78,-56.25,22.0,14.0,250,17,,6.21,29.734253,,,,,,,,,,,SCT,1600,,,,,,,VFR,,,,,,,,,,,,METAR,48.0
SPZO 171900Z 28011KT 9999 -DZ SCT040 BKN080 14/07 Q1026 NOSIG RMK BIRD HAZARD RWY 28 PPTRZ,SPZO,2021-01-17T19:00:00Z,-13.55,-71.93,14.0,7.0,280,11,,6.21,30.295275,,,,,,TRUE,,,,-DZ,SCT,4000,BKN,8000,,,,,VFR,,,,,,,,,,,,SPECI,3249.0
SPYL 171900Z 21014KT CAVOK 30/20 Q1009 RMK BIRD HAZARD RWY 17/35 PP000,SPYL,2021-01-17T19:00:00Z,-4.57,-81.25,30.0,20.0,210,14,,6.21,29.793306,,,,,,,,,,,CAVOK,,,,,,,,VFR,,,,,,,,,,,,SPECI,89.0
SPTU 171900Z 33010KT 300V010 9999 VCSH FEW025 34/24 Q1004 RMK BIRD HAZARD RWY 01/19 PP000,SPTU,2021-01-17T19:00:00Z,-12.62,-69.22,34.0,24.0,330,10,,6.21,29.64567,,,,,,,,,,VCSH,FEW,2500,,,,,,,VFR,,,,,,,,,,,,METAR,213.0
SPTN 171900Z 22013KT 190V250 CAVOK 27/14 Q1012 RMK PP000,SPTN,2021-01-17T19:00:00Z,-18.03,-70.28,27.0,14.0,220,13,,6.21,29.88189,,,,,,,,,,,CAVOK,,,,,,,,VFR,,,,,,,,,,,,SPECI,459.0
SPST 171900Z 04010KT 9999 SCT015 SCT080 33/22 Q1005 RMK BIRD HAZARD RWY 17/35 PP000,SPST,2021-01-17T19:00:00Z,-6.52,-76.37,33.0,22.0,40,10,,6.21,29.675198,,,,,,,,,,,SCT,1500,SCT,8000,,,,,VFR,,,,,,,,,,,,METAR,282.0
SPSO 171900Z 22018KT CAVOK 25/18 Q1010 RMK BIRD HAZARD RWY 22/04 PP000,SPSO,2021-01-17T19:00:00Z,-13.73,-76.22,25.0,18.0,220,18,,6.21,29.822834,,,,,,,,,,,CAVOK,,,,,,,,VFR,,,,,,,,,,,,SPECI,8.0
SPRU 171900Z 17009KT CAVOK 21/18 Q1010 RMK PP000,SPRU,2021-01-17T19:00:00Z,-8.08,-79.12,21.0,18.0,170,9,,6.21,29.822834,,,,,,,,,,,CAVOK,,,,,,,,VFR,,,,,,,,,,,,METAR,23.0
SPQU 171900Z 26012KT 210V290 9999 SCT025 SCT070 19/08 Q1024 NOSIG RMK PP000,SPQU,2021-01-17T19:00:00Z,-16.33,-71.57,19.0,8.0,260,12,,6.21,30.236221,,,,,,TRUE,,,,,SCT,2500,SCT,7000,,,,,VFR,,,,,,,,,,,,SPECI,2527.0
SPQT 171900Z 03010KT 340V070 9999 SCT020 34/22 Q1006 NOSIG RMK BIRD HAZARD RWY 06/24 PP000,SPQT,2021-01-17T19:00:00Z,-3.78,-73.32,34.0,22.0,30,10,,6.21,29.704725,,,,,,TRUE,,,,,SCT,2000,,,,,,,VFR,,,,,,,,,,,,SPECI,92.0
SPNC 171900Z 07011KT 9999 FEW040 29/14 Q1014 RMK PP000,SPNC,2021-01-17T19:00:00Z,-9.87,-76.2,29.0,14.0,70,11,,6.21,29.940945,,,,,,,,,,,FEW,4000,,,,,,,VFR,,,,,,,,,,,,METAR,1856.0
SPMS 171900Z 10006KT 9999 FEW020 33/23 Q1006 RMK BIRD HAZARD RWY 09/27 PP000,SPMS,2021-01-17T19:00:00Z,-5.9,-76.12,33.0,23.0,100,6,,6.21,29.704725,,,,,,,,,,,FEW,2000,,,,,,,VFR,,,,,,,,,,,,METAR,149.0
SPME 171900Z 30005KT 9999 SCT018 30/23 Q1008 RMK BIRD HAZARD RWY 32/14 PP000,SPME,2021-01-17T19:00:00Z,-3.55,-80.4,30.0,23.0,300,5,,6.21,29.763779,,,,,,,,,,,SCT,1800,,,,,,,VFR,,,,,,,,,,,,METAR,26.0
SPJR 171900Z VRB08KT 9999 FEW023 BKN043 21/13 Q1023 RMK PP000,SPJR,2021-01-17T19:00:00Z,-7.13,-78.48,21.0,13.0,0,8,,6.21,30.206694,,,,,,,,,,,FEW,2300,BKN,4300,,,,,VFR,,,,,,,,,,,,METAR,2622.0
SPJL 171900Z 10004KT 9999 BKN020 15/03 Q1029 RMK PP000,SPJL,2021-01-17T19:00:00Z,-15.47,-70.15,15.0,3.0,100,4,,6.21,30.383858,,,,,,,,,,,BKN,2000,,,,,,,MVFR,,,,,,,,,,,,METAR,3837.0
SPJC 171900Z 17015KT CAVOK 24/17 Q1010 NOSIG RMK BIRD HAZARD RWY 15 PP000,SPJC,2021-01-17T19:00:00Z,-12.02,-77.12,24.0,17.0,170,15,,6.21,29.822834,,,,,,TRUE,,,,,CAVOK,,,,,,,,VFR,,,,,,,,,,,,SPECI,26.0
SPHI 171900Z 20017KT CAVOK 27/18 Q1009 RMK BIRD HAZARD RWY 19/01 PP000,SPHI,2021-01-17T19:00:00Z,-6.78,-79.82,27.0,18.0,200,17,,6.21,29.793306,,,,,,,,,,,CAVOK,,,,,,,,VFR,,,,,,,,,,,,METAR,33.0
SPCL 171900Z 36008KT 9999 BKN015 32/23 Q1006 RMK BIRD HAZARD RWY 02/20 PP000,SPCL,2021-01-17T19:00:00Z,-8.38,-74.58,32.0,23.0,360,8,,6.21,29.704725,,,,,,,,,,,BKN,1500,,,,,,,MVFR,,,,,,,,,,,,METAR,154.0
SOCA 171900Z AUTO 05012KT 020V080 9999 BKN024/// BKN038/// BKN049/// ///TCU 29/24 Q1009,SOCA,2021-01-17T19:00:00Z,4.82,-52.37,29.0,24.0,50,12,,6.21,29.793306,,,TRUE,,,,,,,,BKN,2400,BKN,3800,BKN,4900,,,MVFR,,,,,,,,,,,,METAR,7.0
SMZO 171900Z 02005KT 9999 FEW025 30/23 Q1009 NOSIG,SMZO,2021-01-17T19:00:00Z,5.82,-55.18,30.0,23.0,20,5,,6.21,29.793306,,,,,,TRUE,,,,,FEW,2500,,,,,,,VFR,,,,,,,,,,,,METAR,7.0
SMJP 171900Z 06014KT 9999 SCT025 30/22 Q1008 NOSIG,SMJP,2021-01-17T19:00:00Z,5.45,-55.18,30.0,22.0,60,14,,6.21,29.763779,,,,,,TRUE,,,,,SCT,2500,,,,,,,VFR,,,,,,,,,,,,METAR,14.0
SLVR 171900Z 17010KT 4000 -RA SCT007 BKN017 FEW030CB OVC070 20/20 Q1010,SLVR,2021-01-17T19:00:00Z,-17.63,-63.13,20.0,20.0,170,10,,2.49,29.822834,,,,,,,,,,-RA,SCT,700,BKN,1700,FEW,3000,OVC,7000,IFR,,,,,,,,,,,,METAR,377.0
SLTR 171900Z 03004KT 8000 VCSH SCT017 FEW020CB BKN200 28/24 Q1005,SLTR,2021-01-17T19:00:00Z,-14.83,-64.92,28.0,24.0,30,4,,4.97,29.675198,,,,,,,,,,VCSH,SCT,1700,FEW,2000,BKN,20000,,,MVFR,,,,,,,,,,,,METAR,157.0
SLTJ 171900Z 13014KT 6000 VCSH SCT008 BKN020 OVC070 16/08 Q1020,SLTJ,2021-01-17T19:00:00Z,-21.55,-64.72,16.0,8.0,130,14,,3.73,30.11811,,,,,,,,,,VCSH,SCT,800,BKN,2000,OVC,7000,,,MVFR,,,,,,,,,,,,METAR,1850.0
SLSI 171900Z 36008KT 9999 BKN015 OVC070 25/24 Q1007,SLSI,2021-01-17T19:00:00Z,-16.38,-60.95,25.0,24.0,360,8,,6.21,29.734253,,,,,,,,,,,BKN,1500,OVC,7000,,,,,MVFR,,,,,,,,,,,,METAR,417.0
SLSA 171900Z 34012KT 8000 VCSH SCT017 FEW020CB BKN200 31/25 Q1005,SLSA,2021-01-17T19:00:00Z,-13.77,-65.43,31.0,25.0,340,12,,4.97,29.675198,,,,,,,,,,VCSH,SCT,1700,FEW,2000,BKN,20000,,,MVFR,,,,,,,,,,,,METAR,144.0
SLRY 171900Z 32006KT 6000 VCSH SCT017 SCT080 BKN200 29/25 Q1003,SLRY,2021-01-17T19:00:00Z,-14.3,-67.37,29.0,25.0,320,6,,3.73,29.616142,,,,,,,,,,VCSH,SCT,1700,SCT,8000,BKN,20000,,,MVFR,,,,,,,,,,,,METAR,187.0
SLRQ 171900Z 33012KT 9999 SCT017 FEW023CB BKN200 32/25 Q1004,SLRQ,2021-01-17T19:00:00Z,-14.42,-67.5,32.0,25.0,330,12,,6.21,29.64567,,,,,,,,,,,SCT,1700,FEW,2300,BKN,20000,,,VFR,,,,,,,,,,,,METAR,209.0
SLRI 171900Z 36012KT 8000 VCSH SCT017 FEW020CB BKN200 32/24 Q1006,SLRI,2021-01-17T19:00:00Z,-11.02,-66.08,32.0,24.0,360,12,,4.97,29.704725,,,,,,,,,,VCSH,SCT,1700,FEW,2000,BKN,20000,,,MVFR,,,,,,,,,,,,METAR,136.0
SLRB 171900Z 24008KT 5000 -RA OVC015 23/22 Q1010,SLRB,2021-01-17T19:00:00Z,-18.32,-59.75,23.0,22.0,240,8,,3.11,29.822834,,,,,,,,,,-RA,OVC,1500,,,,,,,MVFR,,,,,,,,,,,,METAR,266.0
SLMG 171900Z 30014KT 9999 SCT017 31/25 Q1006,SLMG,2021-01-17T19:00:00Z,-13.27,-64.07,31.0,25.0,300,14,,6.21,29.704725,,,,,,,,,,,SCT,1700,,,,,,,VFR,,,,,,,,,,,,METAR,146.0
SLLP 171900Z 10006KT 080V140 9999 FEW015 FEW017CB SCT070 BKN200 11/06 Q1032,SLLP,2021-01-17T19:00:00Z,-16.52,-68.17,11.0,6.0,100,6,,6.21,30.47244,,,,,,,,,,,FEW,1500,FEW,1700,SCT,7000,BKN,20000,VFR,,,,,,,,,,,,METAR,4061.0
SLET 171900Z 15010KT 7000 -RA SCT015 BKN020 OVC070 20/19 Q1010,SLET,2021-01-17T19:00:00Z,-17.8,-63.17,20.0,19.0,150,10,,4.35,29.822834,,,,,,,,,,-RA,SCT,1500,BKN,2000,OVC,7000,,,MVFR,,,,,,,,,,,,METAR,414.0
SLCP 171900Z 19015KT 9999 BKN013 OVC070 22/21 Q1012,SLCP,2021-01-17T19:00:00Z,-16.15,-62.02,22.0,21.0,190,15,,6.21,29.88189,,,,,,,,,,,BKN,1300,OVC,7000,,,,,MVFR,,,,,,,,,,,,METAR,502.0
SLCB 171900Z 02004KT 6000 -RA SCT008 BKN020 FEW030CB OVC070 14/13 Q1022,SLCB,2021-01-17T19:00:00Z,-17.42,-66.18,14.0,13.0,20,4,,3.73,30.177166,,,,,,,,,,-RA,SCT,800,BKN,2000,FEW,3000,OVC,7000,MVFR,,,,,,,,,,,,METAR,2560.0
SLCA 171900Z 18006KT 9999 BKN033 OVC070 21/15 Q1017,SLCA,2021-01-17T19:00:00Z,-20.0,-63.53,21.0,15.0,180,6,,6.21,30.029528,,,,,,,,,,,BKN,3300,OVC,7000,,,,,VFR,,,,,,,,,,,,METAR,796.0
SLAL 171900Z 33010KT 3000 -RA BR BKN008 OVC070 11/10 Q1026,SLAL,2021-01-17T19:00:00Z,-19.23,-65.15,11.0,10.0,330,10,,1.86,30.295275,,,,,,,,,,-RA BR,BKN,800,OVC,7000,,,,,IFR,,,,,,,,,,,,METAR,3109.0
SKSP 171900Z 06008KT 9999 FEW017 SCT200 30/24 Q1011 RMK A2984,SKSP,2021-01-17T19:00:00Z,12.58,-81.72,30.0,24.0,60,8,,6.21,29.852362,,,,,,,,,,,FEW,1700,SCT,20000,,,,,VFR,,,,,,,,,,,,SPECI,6.0
SKPE 171900Z 29005KT 9999 FEW017TCU SCT080 26/17 Q1015 RMK TCU NE/E A2997,SKPE,2021-01-17T19:00:00Z,4.82,-75.73,26.0,17.0,290,5,,6.21,29.970472,,,,,,,,,,,FEW,1700,SCT,8000,,,,,VFR,,,,,,,,,,,,SPECI,1341.0
SKLT 171900Z 02003KT 9999 SCT020TCU SCT200 33/26 Q1006 RMK TCU NE A2972,SKLT,2021-01-17T19:00:00Z,-4.2,-69.93,33.0,26.0,20,3,,6.21,29.704725,,,,,,,,,,,SCT,2000,SCT,20000,,,,,VFR,,,,,,,,,,,,SPECI,78.0
SKCL 171900Z 16003KT 9999 FEW020 BKN120 27/18 Q1012 NOSIG RMKA2990,SKCL,2021-01-17T19:00:00Z,3.53,-76.37,27.0,18.0,160,3,,6.21,29.88189,,,,,,TRUE,,,,,FEW,2000,BKN,12000,,,,,VFR,,,,,,,,,,,,METAR,967.0
SKCG 171900Z 33009KT 290V360 9999 FEW017 30/24 Q1008 RMK A2977,SKCG,2021-01-17T19:00:00Z,10.43,-75.52,30.0,24.0,330,9,,6.21,29.763779,,,,,,,,,,,FEW,1700,,,,,,,VFR,,,,,,,,,,,,SPECI,6.0
SKCC 171900Z 36011KT 9999 SCT018 31/20 Q1012 RMK A2988,SKCC,2021-01-17T19:00:00Z,7.92,-72.52,31.0,20.0,360,11,,6.21,29.88189,,,,,,,,,,,SCT,1800,,,,,,,VFR,,,,,,,,,,,,METAR,308.0
SKBQ 171900Z 03011KT 9999 FEW015 31/23 Q1008 NOSIG RMK A2977,SKBQ,2021-01-17T19:00:00Z,10.87,-74.77,31.0,23.0,30,11,,6.21,29.763779,,,,,,TRUE,,,,,FEW,1500,,,,,,,VFR,,,,,,,,,,,,SPECI,23.0
SKBO 171900Z 31010KT 9999 BKN020 18/11 Q1023 NOSIG RMK A3023,SKBO,2021-01-17T19:00:00Z,4.7,-74.15,18.0,11.0,310,10,,6.21,30.206694,,,,,,TRUE,,,,,BKN,2000,,,,,,,MVFR,,,,,,,,,,,,SPECI,2547.0
SKBG 171900Z 30006KT 9999 SCT013 26/18 Q1013 RMK A2991,SKBG,2021-01-17T19:00:00Z,7.13,-73.18,26.0,18.0,300,6,,6.21,29.911417,,,,,,,,,,,SCT,1300,,,,,,,VFR,,,,,,,,,,,,SPECI,1187.0
SGES 171900Z 24009KT 9999 FEW010 BKN020 OVC060 26/23 Q1007,SGES,2021-01-17T19:00:00Z,-25.45,-54.85,26.0,23.0,240,9,,6.21,29.734253,,,,,,,,,,,FEW,1000,BKN,2000,OVC,6000,,,MVFR,,,,,,,,,,,,METAR,256.0
SGEN 171900Z 18012KT 9999 BKN033 27/21 Q1007,SGEN,2021-01-17T19:00:00Z,-27.23,-55.83,27.0,21.0,180,12,,6.21,29.734253,,,,,,,,,,,BKN,3300,,,,,,,VFR,,,,,,,,,,,,METAR,202.0
SGAS 171900Z 20013KT 9999 BKN020 BKN070 26/23 Q1008,SGAS,2021-01-17T19:00:00Z,-25.25,-57.52,26.0,23.0,200,13,,6.21,29.763779,,,,,,,,,,,BKN,2000,BKN,7000,,,,,MVFR,,,,,,,,,,,,METAR,83.0
SETN 171900Z 31007KT 9999 FEW026 28/25 Q1009 RMK A2981,SETN,2021-01-17T19:00:00Z,0.98,-79.63,28.0,25.0,310,7,,6.21,29.793306,,,,,,,,,,,FEW,2600,,,,,,,VFR,,,,,,,,,,,,METAR,10.0
SEST 171900Z 18008KT 9999 SCT020 29/24 Q1008 RMK A2978,SEST,2021-01-17T19:00:00Z,-0.9,-89.62,29.0,24.0,180,8,,6.21,29.763779,,,,,,,,,,,SCT,2000,,,,,,,VFR,,,,,,,,,,,,METAR,13.0
SESM 171900Z 00000KT 9999 SCT030 BKN100 27/20 Q1012 RMK A2991,SESM,2021-01-17T19:00:00Z,-1.5,-78.07,27.0,20.0,0,0,,6.21,29.88189,,,,,,,,,,,SCT,3000,BKN,10000,,,,,VFR,,,,,,,,,,,,METAR,1056.0
SESA 171900Z 23008KT CAVOK 29/23 Q1009 RMK A2982,SESA,2021-01-17T19:00:00Z,-2.2,-80.98,29.0,23.0,230,8,,6.21,29.793306,,,,,,,,,,,CAVOK,,,,,,,,VFR,,,,,,,,,,,,METAR,6.0
SERO 171900Z 34008KT 9999 FEW010 30/22 Q1008,SERO,2021-01-17T19:00:00Z,-3.43,-79.98,30.0,22.0,340,8,,6.21,29.763779,,,,,,,,,,,FEW,1000,,,,,,,VFR,,,,,,,,,,,,METAR,6.0
SEQM 171900Z 01013KT 9999 SCT030 BKN070 19/12 Q1022 NOSIG RMK A3019,SEQM,2021-01-17T19:00:00Z,-0.12,-78.35,19.0,12.0,10,13,,6.21,30.177166,,,,,,TRUE,,,,,SCT,3000,BKN,7000,,,,,VFR,,,,,,,,,,,,SPECI,2386.0
SENL 171900Z 07006KT 9999 BKN020 32/22 Q1009 RMK A2980,SENL,2021-01-17T19:00:00Z,0.1,-76.87,32.0,22.0,70,6,,6.21,29.793306,,,,,,,,,,,BKN,2000,,,,,,,MVFR,,,,,,,,,,,,METAR,293.0
SEMT 171900Z 27009KT 9999 SCT020 28/22 Q1009 RMK A2981,SEMT,2021-01-17T19:00:00Z,-0.95,-80.67,28.0,22.0,270,9,,6.21,29.793306,,,,,,,,,,,SCT,2000,,,,,,,VFR,,,,,,,,,,,,SPECI,13.0
SEMC 171900Z 03009KT 9999 FEW033 27/17 Q1013 RMK A2992,SEMC,2021-01-17T19:00:00Z,-2.3,-78.12,27.0,17.0,30,9,,6.21,29.911417,,,,,,,,,,,FEW,3300,,,,,,,VFR,,,,,,,,,,,,METAR,1036.0
SELT 171900Z 17009KT 9999 SCT030 18/07 Q1025,SELT,2021-01-17T19:00:00Z,-0.92,-78.62,18.0,7.0,170,9,,6.21,30.265747,,,,,,,,,,,SCT,3000,,,,,,,VFR,,,,,,,,,,,,METAR,2779.0
SEJD 171900Z 08008KT 9999 SCT023 32/24 Q1009 RMK A2980,SEJD,2021-01-17T19:00:00Z,-1.07,-77.58,32.0,24.0,80,8,,6.21,29.793306,,,,,,,,,,,SCT,2300,,,,,,,VFR,,,,,,,,,,,,METAR,376.0
SEGU 171900Z 04006KT 9999 SCT023 SCT100 30/23 Q1008 NOSIG RMK A2978,SEGU,2021-01-17T19:00:00Z,-2.15,-79.88,30.0,23.0,40,6,,6.21,29.763779,,,,,,TRUE,,,,,SCT,2300,SCT,10000,,,,,VFR,,,,,,,,,,,,SPECI,6.0
SEGS 171900Z 12016KT 9999 BKN030 28/21 Q1010 A2983,SEGS,2021-01-17T19:00:00Z,-0.45,-90.27,28.0,21.0,120,16,,6.21,29.822834,,,,,,,,,,,BKN,3000,,,,,,,MVFR,,,,,,,,,,,,METAR,51.0
SECU 171900Z 02003KT 9999 BKN040 22/10 Q1021,SECU,2021-01-17T19:00:00Z,-2.88,-78.98,22.0,10.0,20,3,,6.21,30.147638,,,,,,,,,,,BKN,4000,,,,,,,VFR,,,,,,,,,,,,METAR,2516.0
SECO 171900Z 09005KT 9999 SCT025 SCT100 33/23 Q1008 RMK A2976,SECO,2021-01-17T19:00:00Z,-0.45,-76.98,33.0,23.0,90,5,,6.21,29.763779,,,,,,,,,,,SCT,2500,SCT,10000,,,,,VFR,,,,,,,,,,,,METAR,256.0
SECA 171900Z 28012KT 9999 BKN040 28/16 Q1014,SECA,2021-01-17T19:00:00Z,-4.0,-79.37,28.0,16.0,280,12,,6.21,29.940945,,,,,,,,,,,BKN,4000,,,,,,,VFR,,,,,,,,,,,,METAR,1237.0
SCVM 171900Z 30013KT 7000 NSC 18/14 Q1014 RMK FU 2500FT ESE,SCVM,2021-01-17T19:00:00Z,-32.95,-71.48,18.0,14.0,300,13,,4.35,29.940945,,,,,,,,,,,CLR,,,,,,,,MVFR,,,,,,,,,,,,METAR,136.0
SCVD 171900Z VRB07KT CAVOK 24/12 Q1018,SCVD,2021-01-17T19:00:00Z,-39.65,-73.08,24.0,12.0,0,7,,6.21,30.059055,,,,,,,,,,,CAVOK,,,,,,,,VFR,,,,,,,,,,,,METAR,19.0
SCTN 171900Z AUTO 20009KT CAVOK 17/11 Q1020,SCTN,2021-01-17T19:00:00Z,-42.92,-72.7,17.0,11.0,200,9,,6.21,30.11811,,,TRUE,,,,,,,,CAVOK,,,,,,,,VFR,,,,,,,,,,,,METAR,8.0
SCTE 171900Z 15011KT 130V190 9999 FEW040 20/11 Q1019 NOSIG,SCTE,2021-01-17T19:00:00Z,-41.43,-73.08,20.0,11.0,150,11,,6.21,30.088583,,,,,,TRUE,,,,,FEW,4000,,,,,,,VFR,,,,,,,,,,,,METAR,85.0
SCTB 171900Z 20005KT CAVOK 32/03 Q1014,SCTB,2021-01-17T19:00:00Z,-33.45,-70.53,32.0,3.0,200,5,,6.21,29.940945,,,,,,,,,,,CAVOK,,,,,,,,VFR,,,,,,,,,,,,METAR,655.0
SCSN 171900Z 26009KT 230V290 CAVOK 17/13 Q1014,SCSN,2021-01-17T19:00:00Z,-33.65,-71.62,17.0,13.0,260,9,,6.21,29.940945,,,,,,,,,,,CAVOK,,,,,,,,VFR,,,,,,,,,,,,METAR,73.0
SCSE 171900Z 27012KT CAVOK 20/13 Q1013,SCSE,2021-01-17T19:00:00Z,-29.92,-71.2,20.0,13.0,270,12,,6.21,29.911417,,,,,,,,,,,CAVOK,,,,,,,,VFR,,,,,,,,,,,,METAR,141.0
SCRM 171900Z 29011KT 0100 FG VV001 02/02 Q0992 NOSIG,SCRM,2021-01-17T19:00:00Z,-62.18,-58.98,2.0,2.0,290,11,,0.06,29.291338,,,,,,TRUE,,,,FG,OVX,0,,,,,,,LIFR,,,,,,,,,,,100,METAR,45.0
SCRG 171900Z /////KT 5000 FU NSC 30/06 Q1014,SCRG,2021-01-17T19:00:00Z,-34.17,-70.77,30.0,6.0,,,,3.11,29.940945,,,,,,,,,,FU,CLR,,,,,,,,MVFR,,,,,,,,,,,,METAR,488.0
SCRD 171900Z 02007KT CAVOK 21/12 Q1014 RMK FU 3500FT E,SCRD,2021-01-17T19:00:00Z,-33.07,-71.55,21.0,12.0,20,7,,6.21,29.940945,,,,,,,,,,,CAVOK,,,,,,,,VFR,,,,,,,,,,,,METAR,342.0
SCQP 171900Z 21010KT 130V250 CAVOK 25/12 Q1016,SCQP,2021-01-17T19:00:00Z,-38.92,-72.65,25.0,12.0,210,10,,6.21,30.0,,,,,,,,,,,CAVOK,,,,,,,,VFR,,,,,,,,,,,,METAR,97.0
SCPQ 171900Z 16006KT 090V210 9999 SCT035 21/12 Q1019,SCPQ,2021-01-17T19:00:00Z,-42.33,-73.72,21.0,12.0,160,6,,6.21,30.088583,,,,,,,,,,,SCT,3500,,,,,,,VFR,,,,,,,,,,,,METAR,166.0
SCON 171900Z AUTO 13008KT 100V170 9999 SCT051/// 17/12 Q1020,SCON,2021-01-17T19:00:00Z,-43.13,-73.62,17.0,12.0,130,8,,6.21,30.11811,,,TRUE,,,,,,,,SCT,5100,,,,,,,VFR,,,,,,,,,,,,METAR,11.0
SCNT 171900Z 29026G36KT 250V320 9999 SCT050 18/09 Q0997,SCNT,2021-01-17T19:00:00Z,-51.67,-72.53,18.0,9.0,290,26,36,6.21,29.438976,,,,,,,,,,,SCT,5000,,,,,,,VFR,,,,,,,,,,,,METAR,68.0
SCMK 171900Z AUTO 07004KT 350V100 //// // FEW018/// BKN033/// 15/12 Q1020,SCMK,2021-01-17T19:00:00Z,-43.9,-73.73,15.0,12.0,70,4,,,30.11811,,,TRUE,,,,,,,,FEW,1800,BKN,3300,,,,,,,,,,,,,,,,,METAR,22.0
SCJO 171900Z 18008KT 9999 FEW030 23/12 Q1018,SCJO,2021-01-17T19:00:00Z,-40.6,-73.05,23.0,12.0,180,8,,6.21,30.059055,,,,,,,,,,,FEW,3000,,,,,,,VFR,,,,,,,,,,,,METAR,61.0
SCIR 171900Z 16013G23KT 9999 OVC015 18/14 Q1023,SCIR,2021-01-17T19:00:00Z,-33.67,-78.93,18.0,14.0,160,13,23,6.21,30.206694,,,,,,,,,,,OVC,1500,,,,,,,MVFR,,,,,,,,,,,,METAR,132.0
SCIP 171900Z 11015KT 9999 SCT025 27/19 Q1024 NOSIG,SCIP,2021-01-17T19:00:00Z,-27.17,-109.43,27.0,19.0,110,15,,6.21,30.236221,,,,,,TRUE,,,,,SCT,2500,,,,,,,VFR,,,,,,,,,,,,METAR,48.0
SCIE 171900Z 23017KT CAVOK 23/13 Q1014,SCIE,2021-01-17T19:00:00Z,-36.77,-73.07,23.0,13.0,230,17,,6.21,29.940945,,,,,,,,,,,CAVOK,,,,,,,,VFR,,,,,,,,,,,,METAR,8.0
SCIC 171900Z 19010KT CAVOK 30/06 Q1012,SCIC,2021-01-17T19:00:00Z,-34.97,-71.22,30.0,6.0,190,10,,6.21,29.88189,,,,,,,,,,,CAVOK,,,,,,,,VFR,,,,,,,,,,,,METAR,230.0
SCGE 171900Z 18014KT 140V210 CAVOK 29/07 Q1014,SCGE,2021-01-17T19:00:00Z,-37.4,-72.42,29.0,7.0,180,14,,6.21,29.940945,,,,,,,,,,,CAVOK,,,,,,,,VFR,,,,,,,,,,,,METAR,122.0
SCFT 171900Z AUTO 30011KT 260V020 CAVOK 23/07 Q1015,SCFT,2021-01-17T19:00:00Z,-43.18,-71.85,23.0,7.0,300,11,,6.21,29.970472,,,TRUE,,,,,,,,CAVOK,,,,,,,,VFR,,,,,,,,,,,,METAR,345.0
SCFA 171900Z 19011KT 9999 FEW013 22/13 Q1012 NOSIG,SCFA,2021-01-17T19:00:00Z,-23.43,-70.43,22.0,13.0,190,11,,6.21,29.88189,,,,,,TRUE,,,,,FEW,1300,,,,,,,VFR,,,,,,,,,,,,METAR,113.0
SCEL 171900Z 20013KT 160V230 CAVOK 31/01 Q1012 NOSIG,SCEL,2021-01-17T19:00:00Z,-33.38,-70.78,31.0,1.0,200,13,,6.21,29.88189,,,,,,TRUE,,,,,CAVOK,,,,,,,,VFR,,,,,,,,,,,,METAR,478.0
SCDA 171900Z 28010KT 230V300 CAVOK 25/13 Q1011,SCDA,2021-01-17T19:00:00Z,-20.53,-70.17,25.0,13.0,280,10,,6.21,29.852362,,,,,,,,,,,CAVOK,,,,,,,,VFR,,,,,,,,,,,,METAR,41.0
SCCY 171900Z VRB09G19KT 9999 FEW040 20/08 Q1014,SCCY,2021-01-17T19:00:00Z,-45.58,-72.1,20.0,8.0,0,9,19,6.21,29.940945,,,,,,,,,,,FEW,4000,,,,,,,VFR,,,,,,,,,,,,METAR,301.0
SCCI 171900Z 31017KT 9999 FEW025 SCT040 BKN050 16/10 Q0995 NOSIG,SCCI,2021-01-17T19:00:00Z,-53.0,-70.85,16.0,10.0,310,17,,6.21,29.379921,,,,,,TRUE,,,,,FEW,2500,SCT,4000,BKN,5000,,,VFR,,,,,,,,,,,,METAR,37.0
SCCH 171900Z 20012KT CAVOK 30/07 Q1013 RMK EMISION VA VOLCAN 357070,SCCH,2021-01-17T19:00:00Z,-36.57,-72.02,30.0,7.0,200,12,,6.21,29.911417,,,,,,,,,,,CAVOK,,,,,,,,VFR,,,,,,,,,,,,SPECI,148.0
SCCF 171900Z 26020KT 9999 FEW060 23/02 Q1021,SCCF,2021-01-17T19:00:00Z,-22.5,-68.9,23.0,2.0,260,20,,6.21,30.147638,,,,,,,,,,,FEW,6000,,,,,,,VFR,,,,,,,,,,,,METAR,2290.0
SCBA 171900Z 30030KT 9999 SCT050 BKN200 20/07 Q1012,SCBA,2021-01-17T19:00:00Z,-45.92,-71.68,20.0,7.0,300,30,,6.21,29.88189,,,,,,,,,,,SCT,5000,BKN,20000,,,,,VFR,,,,,,,,,,,,METAR,516.0
SCAT 171900Z 29013KT CAVOK 21/13 Q1013,SCAT,2021-01-17T19:00:00Z,-27.27,-70.77,21.0,13.0,290,13,,6.21,29.911417,,,,,,,,,,,CAVOK,,,,,,,,VFR,,,,,,,,,,,,METAR,209.0
SCAR 171900Z 21014KT CAVOK 26/14 Q1010,SCAR,2021-01-17T19:00:00Z,-18.35,-70.33,26.0,14.0,210,14,,6.21,29.822834,,,,,,,,,,,CAVOK,,,,,,,,VFR,,,,,,,,,,,,METAR,57.0
SCAP 171900Z AUTO 23012KT 190V270 9999 ////// 23/07 Q1018,SCAP,2021-01-17T19:00:00Z,-43.62,-71.8,23.0,7.0,230,12,,6.21,30.059055,,,TRUE,,,,,,,,,,,,,,,,,,,,,,,,,,,,METAR,252.0
SBYS 171900Z 35014KT 0900 R02/P2000 R20/P2000D +RA FEW005 BKN025 FEW035TCU OVC043 23/21 Q1011 RERA,SBYS,2021-01-17T19:00:00Z,-21.97,-47.33,23.0,21.0,350,14,,0.56,29.852362,,,,,,,,,,+RA,FEW,500,BKN,2500,FEW,3500,OVC,4300,LIFR,,,,,,,,,,,,METAR,600.0
SBVT 171900Z 07016KT 9999 FEW030 29/21 Q1012,SBVT,2021-01-17T19:00:00Z,-20.25,-40.28,29.0,21.0,70,16,,6.21,29.88189,,,,,,,,,,,FEW,3000,,,,,,,VFR,,,,,,,,,,,,METAR,4.0
SBVH 171900Z 32010KT 9999 VCSH BKN020 FEW030TCU 24/23 Q1010,SBVH,2021-01-17T19:00:00Z,-12.68,-60.08,24.0,23.0,320,10,,6.21,29.822834,,,,,,,,,,VCSH,BKN,2000,FEW,3000,,,,,MVFR,,,,,,,,,,,,METAR,615.0
SBUR 171900Z 31010KT 9999 SCT040 24/20 Q1013,SBUR,2021-01-17T19:00:00Z,-19.77,-47.97,24.0,20.0,310,10,,6.21,29.911417,,,,,,,,,,,SCT,4000,,,,,,,VFR,,,,,,,,,,,,METAR,807.0
SBUA 171900Z 04004KT 9999 TS BKN027 FEW036CB 30/25 Q1006,SBUA,2021-01-17T19:00:00Z,-0.15,-66.98,30.0,25.0,40,4,,6.21,29.704725,,,,,,,,,,TS,BKN,2700,FEW,3600,,,,,MVFR,,,,,,,,,,,,METAR,73.0
SBTT 171900Z 30006KT 9999 SCT030 FEW035TCU 32/23 Q1007,SBTT,2021-01-17T19:00:00Z,-4.25,-69.93,32.0,23.0,300,6,,6.21,29.734253,,,,,,,,,,,SCT,3000,FEW,3500,,,,,VFR,,,,,,,,,,,,METAR,79.0
SBTF 171900Z 08005KT 9999 SCT020 FEW025TCU SCT070 28/25 Q1007,SBTF,2021-01-17T19:00:00Z,-3.37,-64.72,28.0,25.0,80,5,,6.21,29.734253,,,,,,,,,,,SCT,2000,FEW,2500,SCT,7000,,,VFR,,,,,,,,,,,,METAR,55.0
SBTE 171900Z 18010KT 9999 SCT030 35/19 Q1005,SBTE,2021-01-17T19:00:00Z,-5.05,-42.82,35.0,19.0,180,10,,6.21,29.675198,,,,,,,,,,,SCT,3000,,,,,,,VFR,,,,,,,,,,,,METAR,60.0
SBTC 171900Z 15006KT 9999 FEW020 30/23 Q1013,SBTC,2021-01-17T19:00:00Z,-15.35,-38.98,30.0,23.0,150,6,,6.21,29.911417,,,,,,,,,,,FEW,2000,,,,,,,VFR,,,,,,,,,,,,METAR,6.0
SBSV 171900Z 11012KT 9999 SCT023 30/21 Q1011,SBSV,2021-01-17T19:00:00Z,-12.9,-38.32,30.0,21.0,110,12,,6.21,29.852362,,,,,,,,,,,SCT,2300,,,,,,,VFR,,,,,,,,,,,,METAR,9.0
SBST 171900Z 16014KT 9999 SCT040 33/23 Q1005,SBST,2021-01-17T19:00:00Z,-23.92,-46.3,33.0,23.0,160,14,,6.21,29.675198,,,,,,,,,,,SCT,4000,,,,,,,VFR,,,,,,,,,,,,METAR,5.0
SBSR 171900Z 02004KT 9999 SCT025 BKN045 26/18 Q1011,SBSR,2021-01-17T19:00:00Z,-20.8,-49.4,26.0,18.0,20,4,,6.21,29.852362,,,,,,,,,,,SCT,2500,BKN,4500,,,,,VFR,,,,,,,,,,,,METAR,537.0
SBSP 171900Z 02011KT 9999 FEW047TCU SCT050 29/17 Q1012,SBSP,2021-01-17T19:00:00Z,-23.62,-46.65,29.0,17.0,20,11,,6.21,29.88189,,,,,,,,,,,FEW,4700,SCT,5000,,,,,VFR,,,,,,,,,,,,METAR,802.0
SBSN 171900Z 09006KT 9999 SCT023 32/24 Q1006,SBSN,2021-01-17T19:00:00Z,-2.42,-54.78,32.0,24.0,90,6,,6.21,29.704725,,,,,,,,,,,SCT,2300,,,,,,,VFR,,,,,,,,,,,,METAR,57.0
SBSL 171900Z 03016KT 9999 BKN020 FEW025TCU 29/24 Q1007,SBSL,2021-01-17T19:00:00Z,-2.58,-44.23,29.0,24.0,30,16,,6.21,29.734253,,,,,,,,,,,BKN,2000,FEW,2500,,,,,MVFR,,,,,,,,,,,,METAR,53.0
SBSJ 171900Z 35007KT 9999 FEW035 FEW040TCU SCT100 29/16 Q1011,SBSJ,2021-01-17T19:00:00Z,-23.22,-45.87,29.0,16.0,350,7,,6.21,29.852362,,,,,,,,,,,FEW,3500,FEW,4000,SCT,10000,,,VFR,,,,,,,,,,,,METAR,640.0
SBSG 171900Z 15015KT 9999 SCT029 28/21 Q1009,SBSG,2021-01-17T19:00:00Z,-5.77,-35.37,28.0,21.0,150,15,,6.21,29.793306,,,,,,,,,,,SCT,2900,,,,,,,VFR,,,,,,,,,,,,METAR,83.0
SBSC 171900Z 35008KT 9999 FEW030 36/19 Q1006,SBSC,2021-01-17T19:00:00Z,-22.92,-43.72,36.0,19.0,350,8,,6.21,29.704725,,,,,,,,,,,FEW,3000,,,,,,,VFR,,,,,,,,,,,,METAR,6.0
SBRP 171900Z 33012KT 9999 FEW040 BKN100 26/20 Q1011,SBRP,2021-01-17T19:00:00Z,-21.13,-47.77,26.0,20.0,330,12,,6.21,29.852362,,,,,,,,,,,FEW,4000,BKN,10000,,,,,VFR,,,,,,,,,,,,METAR,550.0
SBRJ 171900Z 16011KT 9999 FEW030 30/21 Q1006,SBRJ,2021-01-17T19:00:00Z,-22.9,-43.17,30.0,21.0,160,11,,6.21,29.704725,,,,,,,,,,,FEW,3000,,,,,,,VFR,,,,,,,,,,,,METAR,6.0
SBRF 171900Z 15012KT 9999 FEW025 27/20 Q1010,SBRF,2021-01-17T19:00:00Z,-8.13,-34.92,27.0,20.0,150,12,,6.21,29.822834,,,,,,,,,,,FEW,2500,,,,,,,VFR,,,,,,,,,,,,METAR,10.0
SBRB 171900Z 33004KT 260V020 9999 BKN030 FEW035TCU 32/25 Q1006,SBRB,2021-01-17T19:00:00Z,-9.87,-67.88,32.0,25.0,330,4,,6.21,29.704725,,,,,,,,,,,BKN,3000,FEW,3500,,,,,MVFR,,,,,,,,,,,,METAR,190.0
SBPV 171900Z 08006KT 9999 VCSH SCT035 FEW040TCU 30/24 Q1006,SBPV,2021-01-17T19:00:00Z,-8.72,-63.9,30.0,24.0,80,6,,6.21,29.704725,,,,,,,,,,VCSH,SCT,3500,FEW,4000,,,,,VFR,,,,,,,,,,,,METAR,89.0
SBPS 171900Z 11008KT 080V140 9999 SCT020 28/21 Q1013,SBPS,2021-01-17T19:00:00Z,-16.43,-39.07,28.0,21.0,110,8,,6.21,29.911417,,,,,,,,,,,SCT,2000,,,,,,,VFR,,,,,,,,,,,,METAR,44.0
SBPR 171900Z 06012KT 9999 SCT025 28/17 Q1015,SBPR,2021-01-17T19:00:00Z,-19.9,-43.98,28.0,17.0,60,12,,6.21,29.970472,,,,,,,,,,,SCT,2500,,,,,,,VFR,,,,,,,,,,,,METAR,936.0
SBPP 171900Z 15010KT 2000 RA BR BKN005 OVC015 20/20 Q1009,SBPP,2021-01-17T19:00:00Z,-22.55,-55.7,20.0,20.0,150,10,,1.24,29.793306,,,,,,,,,,RA BR,BKN,500,OVC,1500,,,,,IFR,,,,,,,,,,,,METAR,650.0
SBPL 171900Z 14008KT 9999 FEW040 32/13 Q1009,SBPL,2021-01-17T19:00:00Z,-9.37,-40.57,32.0,13.0,140,8,,6.21,29.793306,,,,,,,,,,,FEW,4000,,,,,,,VFR,,,,,,,,,,,,METAR,386.0
SBPK 171900Z 20014KT 9999 BKN040 27/20 Q1005,SBPK,2021-01-17T19:00:00Z,-31.72,-52.33,27.0,20.0,200,14,,6.21,29.675198,,,,,,,,,,,BKN,4000,,,,,,,VFR,,,,,,,,,,,,METAR,17.0
SBPJ 171900Z 07007KT 9999 -TSRA SCT025 FEW030CB SCT080 25/21 Q1008,SBPJ,2021-01-17T19:00:00Z,-10.28,-48.37,25.0,21.0,70,7,,6.21,29.763779,,,,,,,,,,-TSRA,SCT,2500,FEW,3000,SCT,8000,,,VFR,,,,,,,,,,,,METAR,226.0
SBPC 171900Z /////KT 9999 BKN015 24/18 Q1015,SBPC,2021-01-17T19:00:00Z,-21.85,-46.57,24.0,18.0,,,,6.21,29.970472,,,,,,,,,,,BKN,1500,,,,,,,MVFR,,,,,,,,,,,,METAR,1259.0
SBPB 171900Z 04006KT 9999 TS SCT013 BKN017 FEW025CB BKN090 26/24 Q1008,SBPB,2021-01-17T19:00:00Z,-2.88,-41.72,26.0,24.0,40,6,,6.21,29.763779,,,,,,,,,,TS,SCT,1300,BKN,1700,FEW,2500,BKN,9000,MVFR,,,,,,,,,,,,METAR,3.0
SBPA 171900Z 28007KT 9999 SCT023 BKN027 BKN100 30/23 Q1003,SBPA,2021-01-17T19:00:00Z,-30.0,-51.17,30.0,23.0,280,7,,6.21,29.616142,,,,,,,,,,,SCT,2300,BKN,2700,BKN,10000,,,MVFR,,,,,,,,,,,,METAR,3.0
SBOI 171900Z 18003KT 9999 SCT017 BKN023 BKN077 24/23 Q1010 RERA,SBOI,2021-01-17T19:00:00Z,3.85,-51.78,24.0,23.0,180,3,,6.21,29.822834,,,,,,,,,,,SCT,1700,BKN,2300,BKN,7700,,,MVFR,,,,,,,,,,,,METAR,15.0
SBNT 171900Z 11016KT 9999 FEW030 28/22 Q1008,SBNT,2021-01-17T19:00:00Z,-5.92,-35.25,28.0,22.0,110,16,,6.21,29.763779,,,,,,,,,,,FEW,3000,,,,,,,VFR,,,,,,,,,,,,METAR,51.0
SBNF 171900Z 03011KT 9999 FEW025TCU SCT045 29/25 Q1003 RETS,SBNF,2021-01-17T19:00:00Z,-26.88,-48.65,29.0,25.0,30,11,,6.21,29.616142,,,,,,,,,,,FEW,2500,SCT,4500,,,,,VFR,,,,,,,,,,,,METAR,5.0
SBMS 171900Z 05015KT 9999 FEW030 31/22 Q1007,SBMS,2021-01-17T19:00:00Z,-5.2,-37.37,31.0,22.0,50,15,,6.21,29.734253,,,,,,,,,,,FEW,3000,,,,,,,VFR,,,,,,,,,,,,METAR,23.0
SBMQ 171900Z 10005KT 9999 SCT025 SCT090 30/25 Q1007 RETS,SBMQ,2021-01-17T19:00:00Z,0.05,-51.07,30.0,25.0,100,5,,6.21,29.734253,,,,,,,,,,,SCT,2500,SCT,9000,,,,,VFR,,,,,,,,,,,,METAR,15.0
SBMO 171900Z 13012KT 9999 SCT033 29/21 Q1011,SBMO,2021-01-17T19:00:00Z,-9.52,-35.78,29.0,21.0,130,12,,6.21,29.852362,,,,,,,,,,,SCT,3300,,,,,,,VFR,,,,,,,,,,,,METAR,116.0
SBMN 171900Z 09003KT 9999 VCSH SCT020 FEW025TCU SCT100 33/25 Q1006,SBMN,2021-01-17T19:00:00Z,-3.13,-59.98,33.0,25.0,90,3,,6.21,29.704725,,,,,,,,,,VCSH,SCT,2000,FEW,2500,SCT,10000,,,VFR,,,,,,,,,,,,METAR,71.0
SBME 171900Z 11015KT CAVOK 30/20 Q1010,SBME,2021-01-17T19:00:00Z,-22.35,-41.77,30.0,20.0,110,15,,6.21,29.822834,,,,,,,,,,,CAVOK,,,,,,,,VFR,,,,,,,,,,,,METAR,2.0
SBMA 171900Z 18008KT 9999 FEW020 FEW025TCU BKN100 30/24 Q1006,SBMA,2021-01-17T19:00:00Z,-5.37,-49.13,30.0,24.0,180,8,,6.21,29.704725,,,,,,,,,,,FEW,2000,FEW,2500,BKN,10000,,,VFR,,,,,,,,,,,,METAR,110.0
SBLS 171900Z 09008KT 010V110 9999 SCT036 25/18 Q1015,SBLS,2021-01-17T19:00:00Z,-19.67,-43.88,25.0,18.0,90,8,,6.21,29.970472,,,,,,,,,,,SCT,3600,,,,,,,VFR,,,,,,,,,,,,METAR,850.0
SBKP 171900Z 02013KT 9999 SCT040 SCT100 28/20 Q1010,SBKP,2021-01-17T19:00:00Z,-23.0,-47.13,28.0,20.0,20,13,,6.21,29.822834,,,,,,,,,,,SCT,4000,SCT,10000,,,,,VFR,,,,,,,,,,,,METAR,659.0
SBKG 171900Z 09013KT 9999 SCT035 30/18 Q1010,SBKG,2021-01-17T19:00:00Z,-7.27,-35.88,30.0,18.0,90,13,,6.21,29.822834,,,,,,,,,,,SCT,3500,,,,,,,VFR,,,,,,,,,,,,METAR,499.0
SBJV 171900Z 05005KT 010V100 9999 SCT030 SCT050 BKN100 32/25 Q1003,SBJV,2021-01-17T19:00:00Z,-26.22,-48.8,32.0,25.0,50,5,,6.21,29.616142,,,,,,,,,,,SCT,3000,SCT,5000,BKN,10000,,,VFR,,,,,,,,,,,,METAR,3.0
SBJR 171900Z 03006KT 9999 FEW030 40/20 Q1006,SBJR,2021-01-17T19:00:00Z,-22.98,-43.37,40.0,20.0,30,6,,6.21,29.704725,,,,,,,,,,,FEW,3000,,,,,,,VFR,,,,,,,,,,,,METAR,5.0
SBJP 171900Z 11017KT 9999 FEW030 29/22 Q1009,SBJP,2021-01-17T19:00:00Z,-7.15,-34.95,29.0,22.0,110,17,,6.21,29.793306,,,,,,,,,,,FEW,3000,,,,,,,VFR,,,,,,,,,,,,METAR,66.0
SBJE 171900Z 08012KT 9999 FEW020 SCT070 31/22 Q1007,SBJE,2021-01-17T19:00:00Z,-2.9,-40.35,31.0,22.0,80,12,,6.21,29.734253,,,,,,,,,,,FEW,2000,SCT,7000,,,,,VFR,,,,,,,,,,,,METAR,25.0
SBIZ 171900Z 09009KT 9999 SCT025 FEW030TCU BKN100 30/25 Q1006,SBIZ,2021-01-17T19:00:00Z,-5.52,-47.45,30.0,25.0,90,9,,6.21,29.704725,,,,,,,,,,,SCT,2500,FEW,3000,BKN,10000,,,VFR,,,,,,,,,,,,METAR,131.0
SBIL 171900Z 11010KT 9999 FEW020 FEW025TCU 29/24 Q1012,SBIL,2021-01-17T19:00:00Z,-14.8,-39.02,29.0,24.0,110,10,,6.21,29.88189,,,,,,,,,,,FEW,2000,FEW,2500,,,,,VFR,,,,,,,,,,,,METAR,9.0
SBHT 171900Z 05002KT 9999 SCT030 33/21 Q1006,SBHT,2021-01-17T19:00:00Z,-3.25,-52.27,33.0,21.0,50,2,,6.21,29.704725,,,,,,,,,,,SCT,3000,,,,,,,VFR,,,,,,,,,,,,METAR,105.0
SBGW 171900Z VRB04KT 9999 SCT030 FEW035TCU 31/19 Q1010,SBGW,2021-01-17T19:00:00Z,-22.78,-45.2,31.0,19.0,0,4,,6.21,29.822834,,,,,,,,,,,SCT,3000,FEW,3500,,,,,VFR,,,,,,,,,,,,METAR,539.0
SBGR 171900Z 34008KT 9999 SCT043 SCT083 29/18 Q1011,SBGR,2021-01-17T19:00:00Z,-23.42,-46.47,29.0,18.0,340,8,,6.21,29.852362,,,,,,,,,,,SCT,4300,SCT,8300,,,,,VFR,,,,,,,,,,,,METAR,745.0
SBGO 171900Z 36007KT 330V030 9999 SCT040 FEW045TCU 28/17 Q1012,SBGO,2021-01-17T19:00:00Z,-16.62,-49.22,28.0,17.0,360,7,,6.21,29.88189,,,,,,,,,,,SCT,4000,FEW,4500,,,,,VFR,,,,,,,,,,,,METAR,740.0
SBGM 171900Z 33010KT 9999 SCT032 31/24 Q1006,SBGM,2021-01-17T19:00:00Z,-10.78,-65.28,31.0,24.0,330,10,,6.21,29.704725,,,,,,,,,,,SCT,3200,,,,,,,VFR,,,,,,,,,,,,METAR,147.0
SBGL 171900Z 08009KT 9999 FEW040 35/18 Q1006,SBGL,2021-01-17T19:00:00Z,-22.82,-43.25,35.0,18.0,80,9,,6.21,29.704725,,,,,,,,,,,FEW,4000,,,,,,,VFR,,,,,,,,,,,,METAR,3.0
SBFZ 171900Z 07011KT 9999 FEW025 SCT090 29/22 Q1008,SBFZ,2021-01-17T19:00:00Z,-3.77,-38.52,29.0,22.0,70,11,,6.21,29.763779,,,,,,,,,,,FEW,2500,SCT,9000,,,,,VFR,,,,,,,,,,,,METAR,32.0
SBFN 171900Z AUTO 14012KT 110V170 9999 SCT021 29/22 Q1009,SBFN,2021-01-17T19:00:00Z,-3.85,-32.42,29.0,22.0,140,12,,6.21,29.793306,,,TRUE,,,,,,,,SCT,2100,,,,,,,VFR,,,,,,,,,,,,METAR,52.0
SBFL 171900Z 01013KT 9999 FEW035TCU SCT100 31/24 Q1003,SBFL,2021-01-17T19:00:00Z,-27.67,-48.53,31.0,24.0,10,13,,6.21,29.616142,,,,,,,,,,,FEW,3500,SCT,10000,,,,,VFR,,,,,,,,,,,,METAR,5.0
SBFI 171900Z 25005KT 5000 2000SW -RA SCT010 BKN020 FEW030TCU 25/24 Q1007,SBFI,2021-01-17T19:00:00Z,-25.6,-54.48,25.0,24.0,250,5,,3.11,29.734253,,,,,,,,,,-RA,SCT,1000,BKN,2000,FEW,3000,,,MVFR,,,,,,,,,,,,METAR,233.0
SBES 171900Z 06021KT 9999 FEW025 30/// Q1009,SBES,2021-01-17T19:00:00Z,-22.82,-42.1,,,60,21,,6.21,29.793306,,,,,,,,,,,FEW,2500,,,,,,,VFR,,,,,,,,,,,,METAR,16.0
SBEG 171900Z 13004KT 9999 SCT020 FEW025TCU 31/26 Q1006,SBEG,2021-01-17T19:00:00Z,-3.03,-60.03,31.0,26.0,130,4,,6.21,29.704725,,,,,,,,,,,SCT,2000,FEW,2500,,,,,VFR,,,,,,,,,,,,METAR,69.0
SBDN 171900Z 32006KT 9999 SCT025 FEW050TCU 27/22 Q1009 RESHRA,SBDN,2021-01-17T19:00:00Z,-22.18,-51.43,27.0,22.0,320,6,,6.21,29.793306,,,,,,,,,,,SCT,2500,FEW,5000,,,,,VFR,,,,,,,,,,,,METAR,438.0
SBCZ 171900Z 36008KT 9999 BKN030 33/25 Q1006,SBCZ,2021-01-17T19:00:00Z,-7.58,-72.77,33.0,25.0,360,8,,6.21,29.704725,,,,,,,,,,,BKN,3000,,,,,,,MVFR,,,,,,,,,,,,METAR,193.0
SBCY 171900Z 31008KT 9999 SCT013 BKN090 26/23 Q1009,SBCY,2021-01-17T19:00:00Z,-15.65,-56.12,26.0,23.0,310,8,,6.21,29.793306,,,,,,,,,,,SCT,1300,BKN,9000,,,,,VFR,,,,,,,,,,,,METAR,182.0
SBCT 171900Z 32012KT 9999 VCSH BKN030 FEW040TCU BKN100 26/20 Q1010,SBCT,2021-01-17T19:00:00Z,-25.52,-49.17,26.0,20.0,320,12,,6.21,29.822834,,,,,,,,,,VCSH,BKN,3000,FEW,4000,BKN,10000,,,MVFR,,,,,,,,,,,,METAR,914.0
SBCR 171900Z 02008KT 330V050 9999 BKN025 29/24 Q1005,SBCR,2021-01-17T19:00:00Z,-19.0,-57.67,29.0,24.0,20,8,,6.21,29.675198,,,,,,,,,,,BKN,2500,,,,,,,MVFR,,,,,,,,,,,,METAR,142.0
SBCP 171900Z 09018KT CAVOK 30/20 Q1011,SBCP,2021-01-17T19:00:00Z,-21.7,-41.3,30.0,20.0,90,18,,6.21,29.852362,,,,,,,,,,,CAVOK,,,,,,,,VFR,,,,,,,,,,,,METAR,15.0
SBCO 171900Z 26007KT 9999 SCT030 BKN100 29/23 Q1003,SBCO,2021-01-17T19:00:00Z,-29.95,-51.15,29.0,23.0,260,7,,6.21,29.616142,,,,,,,,,,,SCT,3000,BKN,10000,,,,,VFR,,,,,,,,,,,,METAR,8.0
SBCJ 171900Z 36003KT 9999 SCT025 28/21 Q1010,SBCJ,2021-01-17T19:00:00Z,-6.12,-50.0,28.0,21.0,360,3,,6.21,29.822834,,,,,,,,,,,SCT,2500,,,,,,,VFR,,,,,,,,,,,,METAR,634.0
SBCG 171900Z 33015KT 9999 SHRA FEW013 SCT017 BKN030 FEW050TCU 25/21 Q1008,SBCG,2021-01-17T19:00:00Z,-20.47,-54.67,25.0,21.0,330,15,,6.21,29.763779,,,,,,,,,,SHRA,FEW,1300,SCT,1700,BKN,3000,FEW,5000,MVFR,,,,,,,,,,,,METAR,556.0
SBCF 171900Z 07009KT 9999 SCT040 27/18 Q1014,SBCF,2021-01-17T19:00:00Z,-19.63,-43.97,27.0,18.0,70,9,,6.21,29.940945,,,,,,,,,,,SCT,4000,,,,,,,VFR,,,,,,,,,,,,METAR,825.0
SBCC 171900Z 24003KT 200V330 9999 SCT010 SCT030 BKN100 23/22 Q1010,SBCC,2021-01-17T19:00:00Z,-9.33,-54.95,23.0,22.0,240,3,,6.21,29.822834,,,,,,,,,,,SCT,1000,SCT,3000,BKN,10000,,,VFR,,,,,,,,,,,,METAR,540.0
SBCB 171900Z 04020G31KT CAVOK 29/19 Q1009,SBCB,2021-01-17T19:00:00Z,-22.92,-42.08,29.0,19.0,40,20,31,6.21,29.793306,,,,,,,,,,,CAVOK,,,,,,,,VFR,,,,,,,,,,,,METAR,3.0
SBBW 171900Z 00000KT 9999 -RA FEW005 BKN015 BKN070 24/23 Q1011,SBBW,2021-01-17T19:00:00Z,-15.87,-52.38,24.0,23.0,0,0,,6.21,29.852362,,,,,,,,,,-RA,FEW,500,BKN,1500,BKN,7000,,,MVFR,,,,,,,,,,,,METAR,354.0
SBBV 171900Z 08006KT 9999 SCT040 FEW045TCU BKN080 33/19 Q1008,SBBV,2021-01-17T19:00:00Z,2.85,-60.7,33.0,19.0,80,6,,6.21,29.763779,,,,,,,,,,,SCT,4000,FEW,4500,BKN,8000,,,VFR,,,,,,,,,,,,METAR,80.0
SBBR 171900Z 07005KT 9999 SCT040 FEW045TCU BKN100 25/17 Q1014,SBBR,2021-01-17T19:00:00Z,-15.87,-47.92,25.0,17.0,70,5,,6.21,29.940945,,,,,,,,,,,SCT,4000,FEW,4500,BKN,10000,,,VFR,,,,,,,,,,,,METAR,1051.0
SBBQ 171900Z 06008KT 9999 SCT045 24/16 Q1017,SBBQ,2021-01-17T19:00:00Z,-21.25,-43.77,24.0,16.0,60,8,,6.21,30.029528,,,,,,,,,,,SCT,4500,,,,,,,VFR,,,,,,,,,,,,METAR,1106.0
SBBH 171900Z 06008KT 9999 SCT049 28/14 Q1014,SBBH,2021-01-17T19:00:00Z,-19.85,-43.95,28.0,14.0,60,8,,6.21,29.940945,,,,,,,,,,,SCT,4900,,,,,,,VFR,,,,,,,,,,,,METAR,799.0
SBBG 171900Z AUTO 22013KT 200V260 9999 SCT048 26/15 Q1007,SBBG,2021-01-17T19:00:00Z,-31.38,-54.12,26.0,15.0,220,13,,6.21,29.734253,,,TRUE,,,,,,,,SCT,4800,,,,,,,VFR,,,,,,,,,,,,METAR,182.0
SBBE 171900Z 35007KT 9999 SCT040 FEW043TCU 30/25 Q1006,SBBE,2021-01-17T19:00:00Z,-1.37,-48.47,30.0,25.0,350,7,,6.21,29.704725,,,,,,,,,,,SCT,4000,FEW,4300,,,,,VFR,,,,,,,,,,,,METAR,16.0
SBAR 171900Z 14012KT 9999 SCT023 29/21 Q1010,SBAR,2021-01-17T19:00:00Z,-10.98,-37.07,29.0,21.0,140,12,,6.21,29.822834,,,,,,,,,,,SCT,2300,,,,,,,VFR,,,,,,,,,,,,METAR,4.0
SBAN 171900Z 28004KT 9999 SCT035 FEW040TCU 25/16 Q1015,SBAN,2021-01-17T19:00:00Z,-16.22,-48.97,25.0,16.0,280,4,,6.21,29.970472,,,,,,,,,,,SCT,3500,FEW,4000,,,,,VFR,,,,,,,,,,,,METAR,1131.0
SBAF 171900Z 11006KT 9999 FEW010 36/19 Q1007,SBAF,2021-01-17T19:00:00Z,-22.87,-43.38,36.0,19.0,110,6,,6.21,29.734253,,,,,,,,,,,FEW,1000,,,,,,,VFR,,,,,,,,,,,,METAR,34.0
SAZS 171900Z 29021KT CAVOK 24/01 Q1015,SAZS,2021-01-17T19:00:00Z,-41.15,-71.17,24.0,1.0,290,21,,6.21,29.970472,,,,,,,,,,,CAVOK,,,,,,,,VFR,,,,,,,,,,,,METAR,843.0
SAZN 171900Z 25007KT CAVOK 31/07 Q1011,SAZN,2021-01-17T19:00:00Z,-38.95,-68.15,31.0,7.0,250,7,,6.21,29.852362,,,,,,,,,,,CAVOK,,,,,,,,VFR,,,,,,,,,,,,METAR,273.0
SAZM 171900Z 23013G26KT 170V260 9999 BKN027 BKN040 19/13 Q1006,SAZM,2021-01-17T19:00:00Z,-37.92,-57.57,19.0,13.0,230,13,26,6.21,29.704725,,,,,,,,,,,BKN,2700,BKN,4000,,,,,MVFR,,,,,,,,,,,,METAR,17.0
SAWH 171900Z 09005KT 9999 DZ BKN035 OVC050 12/07 Q0996,SAWH,2021-01-17T19:00:00Z,-54.85,-68.3,12.0,7.0,90,5,,6.21,29.409449,,,,,,,,,,DZ,BKN,3500,OVC,5000,,,,,VFR,,,,,,,,,,,,METAR,22.0
SAWG 171900Z 36016KT 9999 SCT030 BKN090 16/13 Q0998,SAWG,2021-01-17T19:00:00Z,-51.62,-69.27,16.0,13.0,360,16,,6.21,29.468504,,,,,,,,,,,SCT,3000,BKN,9000,,,,,VFR,,,,,,,,,,,,METAR,15.0
SAWE 171900Z 36013KT 7000 -DZ BKN010 OVC080 10/10 Q0999,SAWE,2021-01-17T19:00:00Z,-53.78,-67.75,10.0,10.0,360,13,,4.35,29.498032,,,,,,,,,,-DZ,BKN,1000,OVC,8000,,,,,MVFR,,,,,,,,,,,,METAR,22.0
SAVC 171900Z 07011KT 020V120 CAVOK 27/08 Q1007,SAVC,2021-01-17T19:00:00Z,-45.78,-67.47,27.0,8.0,70,11,,6.21,29.734253,,,,,,,,,,,CAVOK,,,,,,,,VFR,,,,,,,,,,,,METAR,58.0
SASJ 171900Z 05005KT 9999 SCT035 BKN100 24/13 Q1017,SASJ,2021-01-17T19:00:00Z,-24.38,-65.1,24.0,13.0,50,5,,6.21,30.029528,,,,,,,,,,,SCT,3500,BKN,10000,,,,,VFR,,,,,,,,,,,,METAR,913.0
SASA 171900Z 36004KT CAVOK 23/09 Q1018,SASA,2021-01-17T19:00:00Z,-24.85,-65.48,23.0,9.0,360,4,,6.21,30.059055,,,,,,,,,,,CAVOK,,,,,,,,VFR,,,,,,,,,,,,METAR,1235.0
SARP 171900Z 23012KT 9999 SCT025 BKN200 28/20 Q1008,SARP,2021-01-17T19:00:00Z,-27.38,-55.97,28.0,20.0,230,12,,6.21,29.763779,,,,,,,,,,,SCT,2500,BKN,20000,,,,,VFR,,,,,,,,,,,,METAR,123.0
SARL 171900Z 20016KT 9999 SCT015 SCT100 27/14 Q1009,SARL,2021-01-17T19:00:00Z,-29.68,-57.15,27.0,14.0,200,16,,6.21,29.793306,,,,,,,,,,,SCT,1500,SCT,10000,,,,,VFR,,,,,,,,,,,,METAR,70.0
SARI 171900Z 23008KT 9999 BKN025 BKN100 26/23 Q1007,SARI,2021-01-17T19:00:00Z,-25.73,-54.47,26.0,23.0,230,8,,6.21,29.734253,,,,,,,,,,,BKN,2500,BKN,10000,,,,,MVFR,,,,,,,,,,,,METAR,268.0
SARF 171900Z 18011KT CAVOK 25/17 Q1009,SARF,2021-01-17T19:00:00Z,-26.22,-58.22,25.0,17.0,180,11,,6.21,29.793306,,,,,,,,,,,CAVOK,,,,,,,,VFR,,,,,,,,,,,,METAR,65.0
SARE 171900Z 20013KT CAVOK 28/13 Q1010,SARE,2021-01-17T19:00:00Z,-27.43,-59.05,28.0,13.0,200,13,,6.21,29.822834,,,,,,,,,,,CAVOK,,,,,,,,VFR,,,,,,,,,,,,METAR,52.0
SARC 171900Z 20018KT 7000 NSC 27/15 Q1010,SARC,2021-01-17T19:00:00Z,-27.43,-58.77,27.0,15.0,200,18,,4.35,29.822834,,,,,,,,,,,CLR,,,,,,,,MVFR,,,,,,,,,,,,METAR,60.0
SAOC 171900Z 23006KT CAVOK 26/06 Q1014,SAOC,2021-01-17T19:00:00Z,-33.08,-64.27,26.0,6.0,230,6,,6.21,29.940945,,,,,,,,,,,CAVOK,,,,,,,,VFR,,,,,,,,,,,,METAR,422.0
SANT 171900Z 00000KT 9999 FEW040 27/18 Q1015,SANT,2021-01-17T19:00:00Z,-26.85,-65.1,27.0,18.0,0,0,,6.21,29.970472,,,,,,,,,,,FEW,4000,,,,,,,VFR,,,,,,,,,,,,METAR,446.0
SAME 171900Z 05009KT CAVOK 29/05 Q1014,SAME,2021-01-17T19:00:00Z,-32.82,-68.78,29.0,5.0,50,9,,6.21,29.940945,,,,,,,,,,,CAVOK,,,,,,,,VFR,,,,,,,,,,,,METAR,709.0
SAEZ 171900Z 23011G21KT CAVOK 24/10 Q1008 NOSIG,SAEZ,2021-01-17T19:00:00Z,-34.82,-58.53,24.0,10.0,230,11,21,6.21,29.763779,,,,,,TRUE,,,,,CAVOK,,,,,,,,VFR,,,,,,,,,,,,METAR,16.0
SADF 171900Z 23019KT 9999 FEW048 27/08 Q1009,SADF,2021-01-17T19:00:00Z,-34.45,-58.58,27.0,8.0,230,19,,6.21,29.793306,,,,,,,,,,,FEW,4800,,,,,,,VFR,,,,,,,,,,,,METAR,4.0
SACO 171900Z 17006KT 110V230 CAVOK 26/08 Q1015 NOSIG,SACO,2021-01-17T19:00:00Z,-31.32,-64.22,26.0,8.0,170,6,,6.21,29.970472,,,,,,TRUE,,,,,CAVOK,,,,,,,,VFR,,,,,,,,,,,,METAR,474.0
SABE 171900Z 23011G23KT 170V280 CAVOK 26/08 Q1008 NOSIG,SABE,2021-01-17T19:00:00Z,-34.57,-58.42,26.0,8.0,230,11,23,6.21,29.763779,,,,,,TRUE,,,,,CAVOK,,,,,,,,VFR,,,,,,,,,,,,METAR,3.0
SAAR 171900Z 20016KT CAVOK 27/09 Q1011,SAAR,2021-01-17T19:00:00Z,-32.92,-60.77,27.0,9.0,200,16,,6.21,29.852362,,,,,,,,,,,CAVOK,,,,,,,,VFR,,,,,,,,,,,,METAR,24.0
RPVM 171900Z 34005KT 9999 FEW020 OVC100 26/23 Q1007 RMK A2974,RPVM,2021-01-17T19:00:00Z,10.32,123.98,26.0,23.0,340,5,,6.21,29.734253,,,,,,,,,,,FEW,2000,OVC,10000,,,,,VFR,,,,,,,,,,,,METAR,9.0
RPMD 171900Z VRB02KT 9999 -RA SCT015 BKN090 OVC260 24/24 Q1006 RMK A2971,RPMD,2021-01-17T19:00:00Z,7.12,125.65,24.0,24.0,0,2,,6.21,29.704725,,,,,,,,,,-RA,SCT,1500,BKN,9000,OVC,26000,,,VFR,,,,,,,,,,,,METAR,19.0
RPLL 171900Z 04003KT 9999 SCT025 OVC100 25/21 Q1009 NOSIG RMK A2980,RPLL,2021-01-17T19:00:00Z,14.52,121.0,25.0,21.0,40,3,,6.21,29.793306,,,,,,TRUE,,,,,SCT,2500,OVC,10000,,,,,VFR,,,,,,,,,,,,METAR,15.0
RPLC 171900Z 33004KT 8000 SCT020 BKN100 24/18 Q1010 NOSIG RMK A2983,RPLC,2021-01-17T19:00:00Z,15.18,120.55,24.0,18.0,330,4,,4.97,29.822834,,,,,,TRUE,,,,,SCT,2000,BKN,10000,,,,,MVFR,,,,,,,,,,,,SPECI,138.0
RPLB 171900Z 05010KT 9999 FEW020 BKN080 26/19 Q1009 NOSIG RMK A2980,RPLB,2021-01-17T19:00:00Z,14.8,120.27,26.0,19.0,50,10,,6.21,29.793306,,,,,,TRUE,,,,,FEW,2000,BKN,8000,,,,,VFR,,,,,,,,,,,,METAR,19.0
ROYN 171900Z AUTO 03021KT 9999 BKN032 BKN038 OVC046 15/09 Q1023,ROYN,2021-01-17T19:00:00Z,24.47,122.97,15.0,9.0,30,21,,6.21,30.206694,,,TRUE,,,,,,,,BKN,3200,BKN,3800,OVC,4600,,,VFR,,,,,,,,,,,,METAR,21.0
RORY 171900Z AUTO 35013KT 9999 -RA SCT037 SCT045 BKN050 15/07 Q1021,RORY,2021-01-17T19:00:00Z,27.05,128.4,15.0,7.0,350,13,,6.21,30.147638,,,TRUE,,,,,,,-RA,SCT,3700,SCT,4500,BKN,5000,,,VFR,,,,,,,,,,,,METAR,13.0
RORK 171900Z AUTO 35012KT 9999 FEW037 SCT048 BKN050 16/09 Q1019,RORK,2021-01-17T19:00:00Z,25.93,131.32,16.0,9.0,350,12,,6.21,30.088583,,,TRUE,,,,,,,,FEW,3700,SCT,4800,BKN,5000,,,VFR,,,,,,,,,,,,METAR,11.0
ROMD 171900Z AUTO 01012KT 9999 FEW037 BKN042 BKN049 16/09 Q1019,ROMD,2021-01-17T19:00:00Z,25.83,131.25,16.0,9.0,10,12,,6.21,30.088583,,,TRUE,,,,,,,,FEW,3700,BKN,4200,BKN,4900,,,VFR,,,,,,,,,,,,METAR,45.0
ROAH 171900Z 35013KT 9999 FEW035 BKN050 15/07 Q1022 RMK 2CU035 6SC050 A3018,ROAH,2021-01-17T19:00:00Z,26.18,127.65,15.0,7.0,350,13,,6.21,30.177166,,,,,,,,,,,FEW,3500,BKN,5000,,,,,VFR,,,,,,,,,,,,METAR,6.0
RKTU 171900Z 24003KT 9000 -SN BKN030 M07/M08 Q1022,RKTU,2021-01-17T19:00:00Z,36.7,127.5,-7.0,-8.0,240,3,,5.59,30.177166,,,,,,,,,,-SN,BKN,3000,,,,,,,MVFR,,,,,,,,,,,,METAR,46.0
RKTN 171900Z 07002KT 9999 FEW050 M07/M13 Q1023,RKTN,2021-01-17T19:00:00Z,35.88,128.65,-7.0,-13.0,70,2,,6.21,30.206694,,,,,,,,,,,FEW,5000,,,,,,,VFR,,,,,,,,,,,,METAR,25.0
RKSS 171900Z 15005KT 9999 BKN040 M06/M08 Q1021 NOSIG,RKSS,2021-01-17T19:00:00Z,37.55,126.78,-6.0,-8.0,150,5,,6.21,30.147638,,,,,,TRUE,,,,,BKN,4000,,,,,,,VFR,,,,,,,,,,,,METAR,18.0
RKSM 171900Z 22005KT 9999 -SN BKN060 M05/M07 A3016,RKSM,2021-01-17T19:00:00Z,37.43,127.12,-5.0,-7.0,220,5,,6.21,30.159449,,,,,,,,,,-SN,BKN,6000,,,,,,,VFR,,,,,,,,,,,,METAR,18.0
RKSI 171900Z 15006KT 9999 BKN045 OVC130 M04/M05 Q1020 NOSIG,RKSI,2021-01-17T19:00:00Z,37.47,126.45,-4.0,-5.0,150,6,,6.21,30.11811,,,,,,TRUE,,,,,BKN,4500,OVC,13000,,,,,VFR,,,,,,,,,,,,METAR,7.0
RKPK 171900Z 33004KT 9999 FEW050 M05/M13 Q1023,RKPK,2021-01-17T19:00:00Z,35.17,128.93,-5.0,-13.0,330,4,,6.21,30.206694,,,,,,,,,,,FEW,5000,,,,,,,VFR,,,,,,,,,,,,METAR,3.0
RKPC 171900Z 26013KT 9999 -SHSNRA FEW015 BKN025 05/M01 Q1024 NOSIG,RKPC,2021-01-17T19:00:00Z,33.5,126.48,5.0,-1.0,260,13,,6.21,30.236221,,,,,,TRUE,,,,-SHSN -SHRA,FEW,1500,BKN,2500,,,,,MVFR,,,,,,,,,,,,METAR,23.0
RKNY 171900Z AUTO 28002KT 9999 NCD M03/M11 Q1019,RKNY,2021-01-17T19:00:00Z,38.07,128.67,-3.0,-11.0,280,2,,6.21,30.088583,,,TRUE,,,,,,,,CLR,,,,,,,,VFR,,,,,,,,,,,,METAR,76.0
RJTT 171900Z 02009KT CAVOK 04/M01 Q1015 NOSIG RMK A2999,RJTT,2021-01-17T19:00:00Z,35.55,139.77,4.0,-1.0,20,9,,6.21,29.970472,,,,,,TRUE,,,,,CAVOK,,,,,,,,VFR,,,,,,,,,,,,METAR,5.0
RJSM 171900Z 20005KT 9999 FEW030 M05/M11 Q1016,RJSM,2021-01-17T19:00:00Z,40.7,141.37,-5.0,-11.0,200,5,,6.21,30.0,,,,,,,,,,,FEW,3000,,,,,,,VFR,,,,,,,,,,,,METAR,31.0
RJOS 171900Z 32015KT 9999 FEW030 02/M07 Q1020,RJOS,2021-01-17T19:00:00Z,34.12,134.62,2.0,-7.0,320,15,,6.21,30.11811,,,,,,,,,,,FEW,3000,,,,,,,VFR,,,,,,,,,,,,METAR,3.0
RJOH 171900Z 24006KT 9999 -SHSN FEW008 SCT015 BKN025 M00/M01 Q1020,RJOH,2021-01-17T19:00:00Z,35.48,133.25,0.0,-1.0,240,6,,6.21,30.11811,,,,,,,,,,-SHSN,FEW,800,SCT,1500,BKN,2500,,,MVFR,,,,,,,,,,,,METAR,6.0
RJNK 171900Z 16010KT 9999 -SHSNRA FEW010 SCT020 FEW020TCU BKN030 01/M01 Q1017,RJNK,2021-01-17T19:00:00Z,36.38,136.42,1.0,-1.0,160,10,,6.21,30.029528,,,,,,,,,,-SHSN -SHRA,FEW,1000,SCT,2000,FEW,2000,BKN,3000,MVFR,,,,,,,,,,,,METAR,7.0
RJKI 171900Z AUTO 34010KT 290V360 9999 FEW025 BKN032 BKN039 13/08 Q1021,RJKI,2021-01-17T19:00:00Z,28.32,129.92,13.0,8.0,340,10,,6.21,30.147638,,,TRUE,,,,,,,,FEW,2500,BKN,3200,BKN,3900,,,VFR,,,,,,,,,,,,METAR,6.0
RJGG 171900Z 28021KT 9999 FEW020 SCT050 04/M01 Q1018 NOSIG,RJGG,2021-01-17T19:00:00Z,34.87,136.8,4.0,-1.0,280,21,,6.21,30.059055,,,,,,TRUE,,,,,FEW,2000,SCT,5000,,,,,VFR,,,,,,,,,,,,METAR,5.0
RJFR 171900Z 23010KT 9999 FEW030 BKN060 03/M06 Q1022,RJFR,2021-01-17T19:00:00Z,33.83,131.03,3.0,-6.0,230,10,,6.21,30.177166,,,,,,,,,,,FEW,3000,BKN,6000,,,,,VFR,,,,,,,,,,,,METAR,9.0
RJFF 171900Z AUTO 16010KT 9999 FEW047 BKN050 OVC060 02/M05 Q1023 NOSIG RMK A3021,RJFF,2021-01-17T19:00:00Z,33.58,130.45,2.0,-5.0,160,10,,6.21,30.206694,,,TRUE,,,TRUE,,,,,FEW,4700,BKN,5000,OVC,6000,,,VFR,,,,,,,,,,,,METAR,7.0
RJCC 171900Z 13001KT 9999 FEW015 M16/M17 Q1013 RMK 1ST015 A2994,RJCC,2021-01-17T19:00:00Z,42.77,141.68,-16.0,-17.0,130,1,,6.21,29.911417,,,,,,,,,,,FEW,1500,,,,,,,VFR,,,,,,,,,,,,METAR,19.0
RJBB 171900Z AUTO 30020KT 9999 NCD 04/M01 Q1020 NOSIG,RJBB,2021-01-17T19:00:00Z,34.43,135.25,4.0,-1.0,300,20,,6.21,30.11811,,,TRUE,,,TRUE,,,,,CLR,,,,,,,,VFR,,,,,,,,,,,,METAR,8.0
RJAH 171900Z 36005KT 9999 FEW035 M02/M05 Q1014,RJAH,2021-01-17T19:00:00Z,36.17,140.42,-2.0,-5.0,360,5,,6.21,29.940945,,,,,,,,,,,FEW,3500,,,,,,,VFR,,,,,,,,,,,,METAR,31.0
RJAA 171900Z 33005KT 9999 FEW020 BKN070 01/M02 Q1014 NOSIG RMK 1CU020 7AC070 A2997,RJAA,2021-01-17T19:00:00Z,35.77,140.38,1.0,-2.0,330,5,,6.21,29.940945,,,,,,TRUE,,,,,FEW,2000,BKN,7000,,,,,VFR,,,,,,,,,,,,METAR,36.0
RCTP 171900Z 06011KT 9999 FEW010 SCT022 BKN035 13/07 Q1024 NOSIG RMK A3025,RCTP,2021-01-17T19:00:00Z,25.07,121.22,13.0,7.0,60,11,,6.21,30.236221,,,,,,TRUE,,,,,FEW,1000,SCT,2200,BKN,3500,,,VFR,,,,,,,,,,,,METAR,33.0
RCSS 171900Z 08007KT 9999 FEW015 BKN050 BKN080 13/09 Q1024 NOSIG RMK A3026,RCSS,2021-01-17T19:00:00Z,25.07,121.55,13.0,9.0,80,7,,6.21,30.236221,,,,,,TRUE,,,,,FEW,1500,BKN,5000,BKN,8000,,,VFR,,,,,,,,,,,,SPECI,8.0
RCNN 171900Z 01006KT 9999 FEW012 10/05 Q1021 RMK A3016,RCNN,2021-01-17T19:00:00Z,22.93,120.2,10.0,5.0,10,6,,6.21,30.147638,,,,,,,,,,,FEW,1200,,,,,,,VFR,,,,,,,,,,,,SPECI,15.0
RCMQ 171900Z 02010KT 9999 FEW012 SCT060 11/07 Q1021 RMK A3015,RCMQ,2021-01-17T19:00:00Z,24.27,120.62,11.0,7.0,20,10,,6.21,30.147638,,,,,,,,,,,FEW,1200,SCT,6000,,,,,VFR,,,,,,,,,,,,SPECI,202.0
RCKH 171900Z 01006KT 9999 FEW014 SCT038 BKN054 13/08 Q1020 NOSIG RMK A3014,RCKH,2021-01-17T19:00:00Z,22.57,120.33,13.0,8.0,10,6,,6.21,30.11811,,,,,,TRUE,,,,,FEW,1400,SCT,3800,BKN,5400,,,VFR,,,,,,,,,,,,METAR,6.0
PLCH 171900Z 10006KT 9999 SCT020 BKN040 26/22 Q1012,PLCH,2021-01-17T19:00:00Z,1.98,-157.35,26.0,22.0,100,6,,6.21,29.88189,,,,,,,,,,,SCT,2000,BKN,4000,,,,,VFR,,,,,,,,,,,,METAR,5.0
PKWA 171900Z AUTO 07019G23KT 10SM SCT023 SCT027 27/24 A2985 RMK AO2 T02730241,PKWA,2021-01-17T19:00:00Z,8.72,167.72,27.3,24.1,70,19,23,10.0,29.84941,,,TRUE,TRUE,,,,,,,SCT,2300,SCT,2700,,,,,VFR,,,,,,,,,,,,METAR,6.0
OTHH 171900Z 20004KT 180V240 9000 NSC 20/13 Q1012 NOSIG,OTHH,2021-01-17T19:00:00Z,25.27,51.6,20.0,13.0,200,4,,5.59,29.88189,,,,,,TRUE,,,,,CLR,,,,,,,,VFR,,,,,,,,,,,,METAR,3.0
OTBD 171900Z 19003KT 160V230 9000 NSC 20/15 Q1012 NOSIG,OTBD,2021-01-17T19:00:00Z,25.25,51.57,20.0,15.0,190,3,,5.59,29.88189,,,,,,TRUE,,,,,CLR,,,,,,,,VFR,,,,,,,,,,,,METAR,13.0
OSLK 171900Z 26010G20KT 6000 SCT025 CB BKN030 15/04 Q1008,OSLK,2021-01-17T19:00:00Z,35.4,35.95,15.0,4.0,260,10,20,3.73,29.763779,,,,,,,,,,,SCT,2500,BKN,3000,,,,,MVFR,,,,,,,,,,,,METAR,47.0
OSDI 171900Z 22014KT 9999 SCT030 BKN100 07/04 Q1010,OSDI,2021-01-17T19:00:00Z,33.42,36.52,7.0,4.0,220,14,,6.21,29.822834,,,,,,,,,,,SCT,3000,BKN,10000,,,,,VFR,,,,,,,,,,,,METAR,614.0
ORSU 171900Z VRB02KT 8000 FEW040 SCT080 06/06 Q1015,ORSU,2021-01-17T19:00:00Z,35.57,45.32,6.0,6.0,0,2,,4.97,29.970472,,,,,,,,,,,FEW,4000,SCT,8000,,,,,MVFR,,,,,,,,,,,,METAR,760.0
ORNI 171900Z 05005KT 6000 NSC 16/09 Q1013 NOSIG,ORNI,2021-01-17T19:00:00Z,31.98,44.4,16.0,9.0,50,5,,3.73,29.911417,,,,,,TRUE,,,,,CLR,,,,,,,,MVFR,,,,,,,,,,,,METAR,33.0
ORMM 171900Z 13008KT 6000 NSC 15/11 Q1013 NOSIG,ORMM,2021-01-17T19:00:00Z,30.53,47.67,15.0,11.0,130,8,,3.73,29.911417,,,,,,TRUE,,,,,CLR,,,,,,,,MVFR,,,,,,,,,,,,METAR,2.0
ORER 171900Z 15013KT 8000 -SHRA SCT040 BKN080 13/06 Q1013 NOSIG,ORER,2021-01-17T19:00:00Z,36.23,43.97,13.0,6.0,150,13,,4.97,29.911417,,,,,,TRUE,,,,-SHRA,SCT,4000,BKN,8000,,,,,MVFR,,,,,,,,,,,,METAR,397.0
ORBI 171900Z 11005KT CAVOK 13/07 Q1013 NOSIG,ORBI,2021-01-17T19:00:00Z,33.27,44.23,13.0,7.0,110,5,,6.21,29.911417,,,,,,TRUE,,,,,CAVOK,,,,,,,,VFR,,,,,,,,,,,,METAR,37.0
OPST 171900Z 00000KT 0030 FG VV/// 08/08 Q1018 BECMG 0010 RH100,OPST,2021-01-17T19:00:00Z,32.53,74.37,8.0,8.0,0,0,,0.02,30.059055,,,,,,,,,,FG,OVX,0,,,,,,,LIFR,,,,,,,,,,,,METAR,234.0
OPSK 171900Z 05002KT 3000 HZ NSC 10/04 Q1013 NOSIG,OPSK,2021-01-17T19:00:00Z,27.72,68.8,10.0,4.0,50,2,,1.86,29.911417,,,,,,TRUE,,,,HZ,CLR,,,,,,,,IFR,,,,,,,,,,,,METAR,62.0
OPPS 171900Z 31004KT 1800 BR FEW200 09/07 Q1018,OPPS,2021-01-17T19:00:00Z,33.98,71.52,9.0,7.0,310,4,,1.12,30.059055,,,,,,,,,,BR,FEW,20000,,,,,,,IFR,,,,,,,,,,,,METAR,356.0
OPMT 171900Z 05006KT 1000 BR VV/// 08/06 Q1016 NOSIG,OPMT,2021-01-17T19:00:00Z,30.2,71.42,8.0,6.0,50,6,,0.62,30.0,,,,,,TRUE,,,,BR,OVX,0,,,,,,,LIFR,,,,,,,,,,,,METAR,122.0
OPKC 171900Z 33005KT 4000 FU NSC 16/12 Q1013 NOSIG,OPKC,2021-01-17T19:00:00Z,24.9,67.13,16.0,12.0,330,5,,2.49,29.911417,,,,,,TRUE,,,,FU,CLR,,,,,,,,IFR,,,,,,,,,,,,METAR,20.0
OMSJ 171900Z 12003KT CAVOK 16/11 Q1014 NOSIG,OMSJ,2021-01-17T19:00:00Z,25.32,55.52,16.0,11.0,120,3,,6.21,29.940945,,,,,,TRUE,,,,,CAVOK,,,,,,,,VFR,,,,,,,,,,,,METAR,33.0
OMRK 171900Z 21004KT 5000 HZ NSC 15/13 Q1014 A2996,OMRK,2021-01-17T19:00:00Z,25.62,55.93,15.0,13.0,210,4,,3.11,29.940945,,,,,,,,,,HZ,CLR,,,,,,,,MVFR,,,,,,,,,,,,METAR,18.0
OMFJ 171900Z 19004KT 160V220 8000 NSC 21/15 Q1013 A2991,OMFJ,2021-01-17T19:00:00Z,25.1,56.32,21.0,15.0,190,4,,4.97,29.911417,,,,,,,,,,,CLR,,,,,,,,MVFR,,,,,,,,,,,,METAR,27.0
OMDW 171900Z 16002KT CAVOK 17/09 Q1015 NOSIG,OMDW,2021-01-17T19:00:00Z,24.9,55.17,17.0,9.0,160,2,,6.21,29.970472,,,,,,TRUE,,,,,CAVOK,,,,,,,,VFR,,,,,,,,,,,,METAR,34.0
OMDB 171900Z 16003KT 130V190 CAVOK 20/09 Q1013 NOSIG,OMDB,2021-01-17T19:00:00Z,25.25,55.37,20.0,9.0,160,3,,6.21,29.911417,,,,,,TRUE,,,,,CAVOK,,,,,,,,VFR,,,,,,,,,,,,METAR,5.0
OMAL 171900Z 04006KT CAVOK 19/07 Q1015 NOSIG,OMAL,2021-01-17T19:00:00Z,24.25,55.6,19.0,7.0,40,6,,6.21,29.970472,,,,,,TRUE,,,,,CAVOK,,,,,,,,VFR,,,,,,,,,,,,METAR,247.0
OMAD 171900Z 12002KT CAVOK 19/14 Q1014 NOSIG,OMAD,2021-01-17T19:00:00Z,24.42,54.47,19.0,14.0,120,2,,6.21,29.940945,,,,,,TRUE,,,,,CAVOK,,,,,,,,VFR,,,,,,,,,,,,METAR,9.0
OMAA 171900Z 11004KT CAVOK 19/10 Q1013 NOSIG,OMAA,2021-01-17T19:00:00Z,24.42,54.65,19.0,10.0,110,4,,6.21,29.911417,,,,,,TRUE,,,,,CAVOK,,,,,,,,VFR,,,,,,,,,,,,METAR,13.0
OLBA 171900Z 18018KT 4000 TSRA FEW018CB BKN025 13/10 Q1011 RERA NOSIG ///,OLBA,2021-01-17T19:00:00Z,33.82,35.48,13.0,10.0,180,18,,2.49,29.852362,,,,,,TRUE,,,,TSRA,FEW,1800,BKN,2500,,,,,IFR,,,,,,,,,,,,METAR,29.0
OKBK 171900Z 18006KT 8000 SKC 12/04 Q1014 NOSIG,OKBK,2021-01-17T19:00:00Z,29.22,47.97,12.0,4.0,180,6,,4.97,29.940945,,,,,,TRUE,,,,,SKC,,,,,,,,MVFR,,,,,,,,,,,,METAR,55.0
OJAQ 171900Z 30006KT 7000 SCT040 BKN080 18/02 Q1016 NOSIG,OJAQ,2021-01-17T19:00:00Z,29.62,35.02,18.0,2.0,300,6,,4.35,30.0,,,,,,TRUE,,,,,SCT,4000,BKN,8000,,,,,MVFR,,,,,,,,,,,,METAR,45.0
OJAM 171900Z 25017KT 6000 RA SCT025TCU FEW035 SCT120 09/05 Q1014 NOSIG,OJAM,2021-01-17T19:00:00Z,31.98,35.98,9.0,5.0,250,17,,3.73,29.940945,,,,,,TRUE,,,,RA,SCT,2500,FEW,3500,SCT,12000,,,MVFR,,,,,,,,,,,,METAR,765.0
OJAI 171900Z 25020KT 5000 HZ NSC 11/02 Q1013 NOSIG,OJAI,2021-01-17T19:00:00Z,31.72,36.0,11.0,2.0,250,20,,3.11,29.911417,,,,,,TRUE,,,,HZ,CLR,,,,,,,,MVFR,,,,,,,,,,,,METAR,723.0
OIZI 171900Z 00000KT CAVOK 14/M08 Q1014,OIZI,2021-01-17T19:00:00Z,27.23,60.72,14.0,-8.0,0,0,,6.21,29.940945,,,,,,,,,,,CAVOK,,,,,,,,VFR,,,,,,,,,,,,METAR,622.0
OIZH 171900Z 15004KT CAVOK 11/M08 Q1015 A2999,OIZH,2021-01-17T19:00:00Z,29.47,60.92,11.0,-8.0,150,4,,6.21,29.970472,,,,,,,,,,,CAVOK,,,,,,,,VFR,,,,,,,,,,,,METAR,1378.0
OIZC 171900Z 32006KT 5000 BR NSC 16/15 Q1011,OIZC,2021-01-17T19:00:00Z,25.45,60.38,16.0,15.0,320,6,,3.11,29.852362,,,,,,,,,,BR,CLR,,,,,,,,MVFR,,,,,,,,,,,,METAR,13.0
OIZB 171900Z 36004KT CAVOK 05/M13 Q1013,OIZB,2021-01-17T19:00:00Z,31.1,61.55,5.0,-13.0,360,4,,6.21,29.911417,,,,,,,,,,,CAVOK,,,,,,,,VFR,,,,,,,,,,,,METAR,483.0
OIYY 171900Z 21004KT CAVOK 09/M01 Q1013,OIYY,2021-01-17T19:00:00Z,31.9,54.28,9.0,-1.0,210,4,,6.21,29.911417,,,,,,,,,,,CAVOK,,,,,,,,VFR,,,,,,,,,,,,METAR,1226.0
OITT 171900Z 35006KT 9999 FEW035 FEW040CB SCT090 00/M03 Q1009 A2981 NOSIG,OITT,2021-01-17T19:00:00Z,38.13,46.23,0.0,-3.0,350,6,,6.21,29.793306,,,,,,TRUE,,,,,FEW,3500,FEW,4000,SCT,9000,,,VFR,,,,,,,,,,,,METAR,1353.0
OITR 171900Z 16010KT 9999 SCT035 06/M02 Q1007,OITR,2021-01-17T19:00:00Z,37.67,45.07,6.0,-2.0,160,10,,6.21,29.734253,,,,,,,,,,,SCT,3500,,,,,,,VFR,,,,,,,,,,,,METAR,1312.0
OITP 171900Z 22004KT CAVOK 01/M00 Q1004,OITP,2021-01-17T19:00:00Z,39.6,47.88,1.0,0.0,220,4,,6.21,29.64567,,,,,,,,,,,CAVOK,,,,,,,,VFR,,,,,,,,,,,,METAR,72.0
OISY 171900Z 15004KT 9999 SCT040 06/M03 Q1018,OISY,2021-01-17T19:00:00Z,30.7,51.55,6.0,-3.0,150,4,,6.21,30.059055,,,,,,,,,,,SCT,4000,,,,,,,VFR,,,,,,,,,,,,METAR,1800.0
OISS 171900Z 31004KT 9999 FEW040 10/M01 Q1016 A3001,OISS,2021-01-17T19:00:00Z,29.53,52.58,10.0,-1.0,310,4,,6.21,30.0,,,,,,,,,,,FEW,4000,,,,,,,VFR,,,,,,,,,,,,METAR,1484.0
OISL 171900Z 00000KT CAVOK 14/03 Q1014 A2994,OISL,2021-01-17T19:00:00Z,27.67,54.37,14.0,3.0,0,0,,6.21,29.940945,,,,,,,,,,,CAVOK,,,,,,,,VFR,,,,,,,,,,,,METAR,804.0
OISF 171900Z 00000KT 8000 NSC 10/01 Q1014 A2996,OISF,2021-01-17T19:00:00Z,28.9,53.72,10.0,1.0,0,0,,4.97,29.940945,,,,,,,,,,,CLR,,,,,,,,MVFR,,,,,,,,,,,,METAR,1305.0
OINR 171900Z 20004KT CAVOK 07/06 Q1004,OINR,2021-01-17T19:00:00Z,36.9,50.67,7.0,6.0,200,4,,6.21,29.64567,,,,,,,,,,,CAVOK,,,,,,,,VFR,,,,,,,,,,,,METAR,-19.0
OINN 171900Z 00000KT CAVOK 07/05 Q1005,OINN,2021-01-17T19:00:00Z,36.67,51.47,7.0,5.0,0,0,,6.21,29.675198,,,,,,,,,,,CAVOK,,,,,,,,VFR,,,,,,,,,,,,METAR,-25.0
OING 171900Z 00000KT 3000 BR NSC 05/04 Q1008,OING,2021-01-17T19:00:00Z,36.9,54.4,5.0,4.0,0,0,,1.86,29.763779,,,,,,,,,,BR,CLR,,,,,,,,IFR,,,,,,,,,,,,METAR,0.0
OIMT 171900Z AUTO 10004KT //// // ////// 11/M08 Q1010,OIMT,2021-01-17T19:00:00Z,33.67,56.88,11.0,-8.0,100,4,,,29.822834,,,TRUE,,,,,,,,,,,,,,,,,,,,,,,,,,,,METAR,693.0
OIMQ 171900Z AUTO 03002KT //// // ////// 06/M08 Q1011,OIMQ,2021-01-17T19:00:00Z,35.27,58.47,6.0,-8.0,30,2,,,29.852362,,,TRUE,,,,,,,,,,,,,,,,,,,,,,,,,,,,METAR,1101.0
OIMN 171900Z 16006KT CAVOK 10/M11 Q1007,OIMN,2021-01-17T19:00:00Z,37.48,57.3,10.0,-11.0,160,6,,6.21,29.734253,,,,,,,,,,,CAVOK,,,,,,,,VFR,,,,,,,,,,,,METAR,1065.0
OIMM 171900Z 00000KT CAVOK 05/M02 Q1008 A2976,OIMM,2021-01-17T19:00:00Z,36.23,59.63,5.0,-2.0,0,0,,6.21,29.763779,,,,,,,,,,,CAVOK,,,,,,,,VFR,,,,,,,,,,,,METAR,995.0
OIMD 171900Z AUTO 22004KT //// // ////// 06/M10 Q1009,OIMD,2021-01-17T19:00:00Z,34.38,58.63,6.0,-10.0,220,4,,,29.793306,,,TRUE,,,,,,,,,,,,,,,,,,,,,,,,,,,,METAR,1097.0
OIMB 171900Z 00000KT CAVOK 04/M18 Q1013,OIMB,2021-01-17T19:00:00Z,32.9,59.28,4.0,-18.0,0,0,,6.21,29.911417,,,,,,,,,,,CAVOK,,,,,,,,VFR,,,,,,,,,,,,METAR,1512.0
OIKQ 171900Z 26006KT 6000 NSC 21/19 Q1012,OIKQ,2021-01-17T19:00:00Z,26.75,55.9,21.0,19.0,260,6,,3.73,29.88189,,,,,,,,,,,CLR,,,,,,,,MVFR,,,,,,,,,,,,METAR,9.0
OIKK 171900Z 12006KT 9999 SCT045 09/M02 Q1016 A3002,OIKK,2021-01-17T19:00:00Z,30.25,56.97,9.0,-2.0,120,6,,6.21,30.0,,,,,,,,,,,SCT,4500,,,,,,,VFR,,,,,,,,,,,,METAR,1749.0
OIKB 171900Z 02004KT 3500 BR NSC 17/14 Q1012 A2990,OIKB,2021-01-17T19:00:00Z,27.22,56.37,17.0,14.0,20,4,,2.17,29.88189,,,,,,,,,,BR,CLR,,,,,,,,IFR,,,,,,,,,,,,METAR,6.0
OIIP 171900Z 18004KT 6000 FEW035 SCT100 05/M01 Q1010 A2984,OIIP,2021-01-17T19:00:00Z,35.78,50.83,5.0,-1.0,180,4,,3.73,29.822834,,,,,,,,,,,FEW,3500,SCT,10000,,,,,MVFR,,,,,,,,,,,,METAR,1270.0
OIIK 171900Z 00000KT 9999 BKN040 04/M01 Q1011,OIIK,2021-01-17T19:00:00Z,36.25,50.05,4.0,-1.0,0,0,,6.21,29.852362,,,,,,,,,,,BKN,4000,,,,,,,VFR,,,,,,,,,,,,METAR,1278.0
OIII 171900Z 31004KT 9999 FEW035 SCT100 06/M03 Q1011 A2987 NOSIG,OIII,2021-01-17T19:00:00Z,35.68,51.3,6.0,-3.0,310,4,,6.21,29.852362,,,,,,TRUE,,,,,FEW,3500,SCT,10000,,,,,VFR,,,,,,,,,,,,METAR,1182.0
OIIE 171900Z 30008KT 9999 FEW035 SCT100 03/00 Q1011,OIIE,2021-01-17T19:00:00Z,35.42,51.15,3.0,0.0,300,8,,6.21,29.852362,,,,,,,,,,,FEW,3500,SCT,10000,,,,,VFR,,,,,,,,,,,,METAR,993.0
OIFS 171900Z 23010KT 9999 SCT035 04/M01 Q1014,OIFS,2021-01-17T19:00:00Z,32.28,50.85,4.0,-1.0,230,10,,6.21,29.940945,,,,,,,,,,,SCT,3500,,,,,,,VFR,,,,,,,,,,,,METAR,2042.0
OIFM 171900Z 22006KT CAVOK 03/M02 Q1014 A2996,OIFM,2021-01-17T19:00:00Z,32.75,51.87,3.0,-2.0,220,6,,6.21,29.940945,,,,,,,,,,,CAVOK,,,,,,,,VFR,,,,,,,,,,,,METAR,1539.0
OICI 171900Z 12004KT CAVOK 04/02 Q1016,OICI,2021-01-17T19:00:00Z,33.58,46.4,4.0,2.0,120,4,,6.21,30.0,,,,,,,,,,,CAVOK,,,,,,,,VFR,,,,,,,,,,,,METAR,1323.0
OICC 171900Z 28004KT CAVOK 05/M02 Q1014 A2996,OICC,2021-01-17T19:00:00Z,34.35,47.17,5.0,-2.0,280,4,,6.21,29.940945,,,,,,,,,,,CAVOK,,,,,,,,VFR,,,,,,,,,,,,METAR,1310.0
OIBK 171900Z 00000KT 6000 NSC 19/16 Q1013,OIBK,2021-01-17T19:00:00Z,26.53,53.98,19.0,16.0,0,0,,3.73,29.911417,,,,,,,,,,,CLR,,,,,,,,MVFR,,,,,,,,,,,,METAR,27.0
OIBB 171900Z 00000KT 6000 NSC 18/17 Q1013 A2992,OIBB,2021-01-17T19:00:00Z,28.93,50.83,18.0,17.0,0,0,,3.73,29.911417,,,,,,,,,,,CLR,,,,,,,,MVFR,,,,,,,,,,,,METAR,15.0
OIAW 171900Z 00000KT 5000 BR NSC 11/11 Q1012,OIAW,2021-01-17T19:00:00Z,31.33,48.77,11.0,11.0,0,0,,3.11,29.88189,,,,,,,,,,BR,CLR,,,,,,,,MVFR,,,,,,,,,,,,METAR,25.0
OIAM 171900Z 00000KT 6000 NSC 16/14 Q1012,OIAM,2021-01-17T19:00:00Z,30.55,49.15,16.0,14.0,0,0,,3.73,29.88189,,,,,,,,,,,CLR,,,,,,,,MVFR,,,,,,,,,,,,METAR,7.0
OIAH 171900Z 00000KT CAVOK 12/04 Q1016,OIAH,2021-01-17T19:00:00Z,30.33,50.83,12.0,4.0,0,0,,6.21,30.0,,,,,,,,,,,CAVOK,,,,,,,,VFR,,,,,,,,,,,,METAR,730.0
OIAA 171900Z 16004KT 8000 NSC 16/14 Q1013,OIAA,2021-01-17T19:00:00Z,30.35,48.22,16.0,14.0,160,4,,4.97,29.911417,,,,,,,,,,,CLR,,,,,,,,MVFR,,,,,,,,,,,,METAR,4.0
OEYN 171900Z 28008KT CAVOK 19/11 Q1013 NOSIG,OEYN,2021-01-17T19:00:00Z,24.13,38.07,19.0,11.0,280,8,,6.21,29.911417,,,,,,TRUE,,,,,CAVOK,,,,,,,,VFR,,,,,,,,,,,,METAR,20.0
OEWJ 171900Z 33005KT 9999 FEW030 20/08 Q1016 NOSIG,OEWJ,2021-01-17T19:00:00Z,26.18,36.47,20.0,8.0,330,5,,6.21,30.0,,,,,,TRUE,,,,,FEW,3000,,,,,,,VFR,,,,,,,,,,,,METAR,8.0
OEWD 171900Z 06008KT CAVOK 19/05 Q1014 NOSIG,OEWD,2021-01-17T19:00:00Z,20.5,45.2,19.0,5.0,60,8,,6.21,29.940945,,,,,,TRUE,,,,,CAVOK,,,,,,,,VFR,,,,,,,,,,,,METAR,629.0
OETR 171900Z 24006KT 9999 SCT030 BKN100 10/04 Q1014 NOSIG,OETR,2021-01-17T19:00:00Z,31.7,38.73,10.0,4.0,240,6,,6.21,29.940945,,,,,,TRUE,,,,,SCT,3000,BKN,10000,,,,,VFR,,,,,,,,,,,,METAR,854.0
OETF 171900Z 29010KT CAVOK 15/10 Q1021 NOSIG,OETF,2021-01-17T19:00:00Z,21.47,40.53,15.0,10.0,290,10,,6.21,30.147638,,,,,,TRUE,,,,,CAVOK,,,,,,,,VFR,,,,,,,,,,,,METAR,1460.0
OETB 171900Z 22006KT CAVOK 13/02 Q1016 NOSIG,OETB,2021-01-17T19:00:00Z,28.37,36.62,13.0,2.0,220,6,,6.21,30.0,,,,,,TRUE,,,,,CAVOK,,,,,,,,VFR,,,,,,,,,,,,METAR,770.0
OESK 171900Z 19006KT CAVOK 11/00 Q1017,OESK,2021-01-17T19:00:00Z,29.78,40.1,11.0,0.0,190,6,,6.21,30.029528,,,,,,,,,,,CAVOK,,,,,,,,VFR,,,,,,,,,,,,METAR,671.0
OESH 171900Z 07006KT CAVOK 21/00 Q1016 NOSIG,OESH,2021-01-17T19:00:00Z,17.47,47.12,21.0,0.0,70,6,,6.21,30.0,,,,,,TRUE,,,,,CAVOK,,,,,,,,VFR,,,,,,,,,,,,METAR,720.0
OERR 171900Z 23009KT CAVOK 12/02 Q1013,OERR,2021-01-17T19:00:00Z,30.9,41.13,12.0,2.0,230,9,,6.21,29.911417,,,,,,,,,,,CAVOK,,,,,,,,VFR,,,,,,,,,,,,METAR,554.0
OERK 171900Z 01002KT CAVOK 16/02 Q1016 NOSIG,OERK,2021-01-17T19:00:00Z,24.95,46.72,16.0,2.0,10,2,,6.21,30.0,,,,,,TRUE,,,,,CAVOK,,,,,,,,VFR,,,,,,,,,,,,METAR,618.0
OERF 171900Z 27005KT CAVOK 11/01 Q1015,OERF,2021-01-17T19:00:00Z,29.62,43.48,11.0,1.0,270,5,,6.21,29.970472,,,,,,,,,,,CAVOK,,,,,,,,VFR,,,,,,,,,,,,METAR,441.0
OEPA 171900Z 27002KT CAVOK 13/05 Q1015 NOSIG,OEPA,2021-01-17T19:00:00Z,28.33,46.12,13.0,5.0,270,2,,6.21,29.970472,,,,,,TRUE,,,,,CAVOK,,,,,,,,VFR,,,,,,,,,,,,METAR,361.0
OENG 171900Z 00000KT CAVOK 18/00 Q1019 NOSIG,OENG,2021-01-17T19:00:00Z,17.62,44.42,18.0,0.0,0,0,,6.21,30.088583,,,,,,TRUE,,,,,CAVOK,,,,,,,,VFR,,,,,,,,,,,,METAR,1210.0
OEMA 171900Z 24006KT CAVOK 21/M04 Q1017 NOSIG,OEMA,2021-01-17T19:00:00Z,24.55,39.7,21.0,-4.0,240,6,,6.21,30.029528,,,,,,TRUE,,,,,CAVOK,,,,,,,,VFR,,,,,,,,,,,,METAR,639.0
OEKM 171900Z 00000KT CAVOK 14/13 Q1024 NOSIG,OEKM,2021-01-17T19:00:00Z,18.3,42.78,14.0,13.0,0,0,,6.21,30.236221,,,,,,TRUE,,,,,CAVOK,,,,,,,,VFR,,,,,,,,,,,,METAR,2038.0
OEKJ 171900Z 07003KT CAVOK 20/M01 Q1018,OEKJ,2021-01-17T19:00:00Z,24.07,47.58,20.0,-1.0,70,3,,6.21,30.059055,,,,,,,,,,,CAVOK,,,,,,,,VFR,,,,,,,,,,,,METAR,487.0
OEJN 171900Z 36010KT CAVOK 23/16 Q1014 NOSIG,OEJN,2021-01-17T19:00:00Z,21.68,39.15,23.0,16.0,360,10,,6.21,29.940945,,,,,,TRUE,,,,,CAVOK,,,,,,,,VFR,,,,,,,,,,,,METAR,8.0
OEJB 171900Z AUTO 27008KT CAVOK 17/04 Q1014 NOSIG,OEJB,2021-01-17T19:00:00Z,27.05,49.4,17.0,4.0,270,8,,6.21,29.940945,,,TRUE,,,TRUE,,,,,CAVOK,,,,,,,,VFR,,,,,,,,,,,,METAR,6.0
OEHL 171900Z 27002KT CAVOK 10/02 Q1017,OEHL,2021-01-17T19:00:00Z,27.43,41.68,10.0,2.0,270,2,,6.21,30.029528,,,,,,,,,,,CAVOK,,,,,,,,VFR,,,,,,,,,,,,METAR,1002.0
OEGT 171900Z 21010KT 9999 SCT040 13/M01 Q1013 NOSIG,OEGT,2021-01-17T19:00:00Z,31.42,37.27,13.0,-1.0,210,10,,6.21,29.911417,,,,,,TRUE,,,,,SCT,4000,,,,,,,VFR,,,,,,,,,,,,METAR,512.0
OEGS 171900Z 07003KT CAVOK 15/06 Q1015,OEGS,2021-01-17T19:00:00Z,26.3,43.77,15.0,6.0,70,3,,6.21,29.970472,,,,,,,,,,,CAVOK,,,,,,,,VFR,,,,,,,,,,,,METAR,647.0
OEGN 171900Z 36003KT 9999 FEW030 26/22 Q1013 NOSIG,OEGN,2021-01-17T19:00:00Z,16.9,42.58,26.0,22.0,360,3,,6.21,29.911417,,,,,,TRUE,,,,,FEW,3000,,,,,,,VFR,,,,,,,,,,,,METAR,5.0
OEDR 171900Z VRB02KT CAVOK 17/08 Q1012,OEDR,2021-01-17T19:00:00Z,26.27,50.17,17.0,8.0,0,2,,6.21,29.88189,,,,,,,,,,,CAVOK,,,,,,,,VFR,,,,,,,,,,,,METAR,17.0
OEDM 171900Z 12008KT CAVOK 15/01 Q1015,OEDM,2021-01-17T19:00:00Z,24.45,44.12,15.0,1.0,120,8,,6.21,29.970472,,,,,,,,,,,CAVOK,,,,,,,,VFR,,,,,,,,,,,,METAR,922.0
OEDF 171900Z 30011KT CAVOK 19/05 Q1013 NOSIG,OEDF,2021-01-17T19:00:00Z,26.43,49.82,19.0,5.0,300,11,,6.21,29.911417,,,,,,TRUE,,,,,CAVOK,,,,,,,,VFR,,,,,,,,,,,,METAR,15.0
OEBH 171900Z 02005KT CAVOK 20/11 Q1017 NOSIG,OEBH,2021-01-17T19:00:00Z,19.98,42.62,20.0,11.0,20,5,,6.21,30.029528,,,,,,TRUE,,,,,CAVOK,,,,,,,,VFR,,,,,,,,,,,,METAR,1167.0
OEBA 171900Z 23006KT CAVOK 16/11 Q1021 NOSIG,OEBA,2021-01-17T19:00:00Z,20.3,41.63,16.0,11.0,230,6,,6.21,30.147638,,,,,,TRUE,,,,,CAVOK,,,,,,,,VFR,,,,,,,,,,,,METAR,1659.0
OEAR 171900Z 00000KT CAVOK 23/13 Q1015,OEAR,2021-01-17T19:00:00Z,,,23.0,13.0,0,0,,6.21,29.970472,,,,,,,,,,,CAVOK,,,,,,,,VFR,,,,,,,,,,,,METAR,
OEAO 171900Z 26004KT CAVOK 16/03 Q1016,OEAO,2021-01-17T19:00:00Z,26.48,38.12,16.0,3.0,260,4,,6.21,30.0,,,,,,,,,,,CAVOK,,,,,,,,VFR,,,,,,,,,,,,METAR,615.0
OEAH 171900Z 34006KT 8000 NSC 19/02 Q1013 NOSIG,OEAH,2021-01-17T19:00:00Z,25.28,49.48,19.0,2.0,340,6,,4.97,29.911417,,,,,,TRUE,,,,,CLR,,,,,,,,MVFR,,,,,,,,,,,,METAR,180.0
OEAB 171900Z 00000KT CAVOK 13/11 Q1024 NOSIG,OEAB,2021-01-17T19:00:00Z,18.23,42.65,13.0,11.0,0,0,,6.21,30.236221,,,,,,TRUE,,,,,CAVOK,,,,,,,,VFR,,,,,,,,,,,,METAR,2092.0
OBBI 171900Z 31003KT 8000 SKC 20/17 Q1013 NOSIG,OBBI,2021-01-17T19:00:00Z,26.27,50.63,20.0,17.0,310,3,,4.97,29.911417,,,,,,TRUE,,,,,SKC,,,,,,,,MVFR,,,,,,,,,,,,METAR,6.0
NWWW 171900Z AUTO VRB02KT CAVOK 23/23 Q1010 TEMPO 4500 SHRA FEW020TCU,NWWW,2021-01-17T19:00:00Z,,,23.0,23.0,0,2,,6.21,29.822834,,,TRUE,,,,,,,,CAVOK,,,,,,,,VFR,,,,,,,,,,,,METAR,
NVVV 171900Z 13002KT 9999 FEW020 24/23 Q1011,NVVV,2021-01-17T19:00:00Z,-17.68,168.3,24.0,23.0,130,2,,6.21,29.852362,,,,,,,,,,,FEW,2000,,,,,,,VFR,,,,,,,,,,,,METAR,23.0
NVSS 171900Z 00000KT 9999 SCT020 BKN300 24/24 Q1010 RMK RERA,NVSS,2021-01-17T19:00:00Z,-15.52,167.22,24.0,24.0,0,0,,6.21,29.822834,,,,,,,,,,,SCT,2000,BKN,30000,,,,,VFR,,,,,,,,,,,,METAR,47.0
NTAA 171900Z 26003KT 200V320 9999 FEW025 30/23 Q1015 NOSIG,NTAA,2021-01-17T19:00:00Z,,,30.0,23.0,260,3,,6.21,29.970472,,,,,,TRUE,,,,,FEW,2500,,,,,,,VFR,,,,,,,,,,,,METAR,
NSTU 171900Z 09012KT 12SM SCT018 29/28 A2989 RMK SLP122 T02940284,NSTU,2021-01-17T19:00:00Z,,,29.4,28.4,90,12,,12.0,29.890747,1012.2,,,,,,,,,,SCT,1800,,,,,,,VFR,,,,,,,,,,,,METAR,
NSFA 171900Z 07005KT 9999 FEW023 29/25 Q1012,NSFA,2021-01-17T19:00:00Z,,,29.0,25.0,70,5,,6.21,29.88189,,,,,,,,,,,FEW,2300,,,,,,,VFR,,,,,,,,,,,,METAR,
NLWW 171900Z 12003KT 090V170 9999 SCT021 SCT100 28/25 Q1011 TEMPO 4500 SHRA FEW020TCU,NLWW,2021-01-17T19:00:00Z,,,28.0,25.0,120,3,,6.21,29.852362,,,,,,,,,,,SCT,2100,SCT,10000,,,,,VFR,,,,,,,,,,,,METAR,
NGTA 171900Z 07011KT 9999 FEW019 SCT040 26/23 Q1010,NGTA,2021-01-17T19:00:00Z,1.37,173.13,26.0,23.0,70,11,,6.21,29.822834,,,,,,,,,,,FEW,1900,SCT,4000,,,,,VFR,,,,,,,,,,,,METAR,8.0
NGFU 171900Z 08006KT 9999 SCT018TCU 29/28 Q1010,NGFU,2021-01-17T19:00:00Z,-8.52,179.18,29.0,28.0,80,6,,6.21,29.822834,,,,,,,,,,,SCT,1800,,,,,,,VFR,,,,,,,,,,,,METAR,2.0
NFTV 171900Z 00000KT 9999 FEW017TCU SCT290 28/22 Q1013,NFTV,2021-01-17T19:00:00Z,-18.58,-173.97,28.0,22.0,0,0,,6.21,29.911417,,,,,,,,,,,FEW,1700,SCT,29000,,,,,VFR,,,,,,,,,,,,METAR,71.0
NFTL 171900Z 06003KT 9999 FEW017 28/26 Q1013,NFTL,2021-01-17T19:00:00Z,-19.78,-174.33,28.0,26.0,60,3,,6.21,29.911417,,,,,,,,,,,FEW,1700,,,,,,,VFR,,,,,,,,,,,,METAR,10.0
NFTF 171900Z 02006KT 9999 FEW017 BKN280 28/26 Q1013,NFTF,2021-01-17T19:00:00Z,-21.23,-175.15,28.0,26.0,20,6,,6.21,29.911417,,,,,,,,,,,FEW,1700,BKN,28000,,,,,VFR,,,,,,,,,,,,METAR,38.0
NFNA 171900Z 33004KT 9999 FEW020 SCT300 25/24 Q1012,NFNA,2021-01-17T19:00:00Z,-18.05,178.57,25.0,24.0,330,4,,6.21,29.88189,,,,,,,,,,,FEW,2000,SCT,30000,,,,,VFR,,,,,,,,,,,,METAR,6.0
NFFN 171900Z 13004KT 9999 FEW028 SCT300 25/24 Q1012 NOSIG,NFFN,2021-01-17T19:00:00Z,-17.75,177.45,25.0,24.0,130,4,,6.21,29.88189,,,,,,TRUE,,,,,FEW,2800,SCT,30000,,,,,VFR,,,,,,,,,,,,METAR,14.0
MZBZ 171900Z 36006KT 9999 FEW021 25/19 A2998 Q1015 NOSIG,MZBZ,2021-01-17T19:00:00Z,17.53,-88.3,25.0,19.0,360,6,,6.21,29.970472,,,,,,TRUE,,,,,FEW,2100,,,,,,,VFR,,,,,,,,,,,,METAR,6.0
MYSM 171900Z AUTO 09007KT 9999 BKN030/// OVC038/// 24/19 A2999,MYSM,2021-01-17T19:00:00Z,24.05,-74.52,24.0,19.0,90,7,,6.21,29.991142,,,TRUE,,,,,,,,BKN,3000,OVC,3800,,,,,MVFR,,,,,,,,,,,,METAR,5.0
MYGF 171900Z 28010KT 250V310 9999 BKN035 BKN055 18/09 A3002,MYGF,2021-01-17T19:00:00Z,26.55,-78.7,18.0,9.0,280,10,,6.21,30.02067,,,,,,,,,,,BKN,3500,BKN,5500,,,,,VFR,,,,,,,,,,,,METAR,2.0
MWCR 171900Z 04004KT 320V090 9999 BKN025 27/23 Q1013,MWCR,2021-01-17T19:00:00Z,19.3,-81.37,27.0,23.0,40,4,,6.21,29.911417,,,,,,,,,,,BKN,2500,,,,,,,MVFR,,,,,,,,,,,,METAR,4.0
MWCB 171900Z 11010KT 9999 FEW016 27/22 Q1014,MWCB,2021-01-17T19:00:00Z,19.68,-79.88,27.0,22.0,110,10,,6.21,29.940945,,,,,,,,,,,FEW,1600,,,,,,,VFR,,,,,,,,,,,,METAR,7.0
MRPV 171900Z 09011KT 9999 FEW045 26/14 A2997 NOSIG,MRPV,2021-01-17T19:00:00Z,9.95,-84.15,26.0,14.0,90,11,,6.21,29.970472,,,,,,TRUE,,,,,FEW,4500,,,,,,,VFR,,,,,,,,,,,,METAR,998.0
MROC 171900Z 11008KT 060V190 9999 FEW045 28/14 A2995 BECMG 24007KT,MROC,2021-01-17T19:00:00Z,10.0,-84.22,28.0,14.0,110,8,,6.21,29.949802,,,,,,,,,,,FEW,4500,,,,,,,VFR,,,,,,,,,,,,METAR,900.0
MRLM 171900Z 05005KT 9999 FEW030 28/23 A2986,MRLM,2021-01-17T19:00:00Z,9.97,-83.03,28.0,23.0,50,5,,6.21,29.861221,,,,,,,,,,,FEW,3000,,,,,,,VFR,,,,,,,,,,,,METAR,2.0
MRLB 171900Z 08013KT 9999 FEW045 32/19 A2979,MRLB,2021-01-17T19:00:00Z,10.6,-85.55,32.0,19.0,80,13,,6.21,29.790354,,,,,,,,,,,FEW,4500,,,,,,,VFR,,,,,,,,,,,,METAR,79.0
MPTO 171900Z 16008KT 9999 SCT018TCU 31/22 Q1009 NOSIG,MPTO,2021-01-17T19:00:00Z,9.05,-79.38,31.0,22.0,160,8,,6.21,29.793306,,,,,,TRUE,,,,,SCT,1800,,,,,,,VFR,,,,,,,,,,,,METAR,7.0
MPSM 171900Z 10009KT 9999 SCT030 30/23 Q1008,MPSM,2021-01-17T19:00:00Z,8.38,-80.13,30.0,23.0,100,9,,6.21,29.763779,,,,,,,,,,,SCT,3000,,,,,,,VFR,,,,,,,,,,,,METAR,36.0
MPPA 171900Z 28006KT 9999 FEW018 31/25 Q1008,MPPA,2021-01-17T19:00:00Z,8.92,-79.6,31.0,25.0,280,6,,6.21,29.763779,,,,,,,,,,,FEW,1800,,,,,,,VFR,,,,,,,,,,,,METAR,1.0
MPMG 171900Z 32008KT 280V340 9999 SCT020 32/24 Q1008 NOSIG,MPMG,2021-01-17T19:00:00Z,8.98,-79.57,32.0,24.0,320,8,,6.21,29.763779,,,,,,TRUE,,,,,SCT,2000,,,,,,,VFR,,,,,,,,,,,,METAR,6.0
MPDA 171900Z 19007KT 9999 SCT018 31/23 Q1008,MPDA,2021-01-17T19:00:00Z,8.4,-82.43,31.0,23.0,190,7,,6.21,29.763779,,,,,,,,,,,SCT,1800,,,,,,,VFR,,,,,,,,,,,,METAR,15.0
MPBO 171900Z 03008KT 9999 SCT02TCU Q1014,MPBO,2021-01-17T19:00:00Z,9.35,-82.25,,,30,8,,6.21,29.940945,,,,,,,,,,,,,,,,,,,,,,,,,,,,,,,METAR,2.0
MNRS 171900Z 09006KT 9999 FEW016 30/23 Q1010,MNRS,2021-01-17T19:00:00Z,11.42,-85.82,30.0,23.0,90,6,,6.21,29.822834,,,,,,,,,,,FEW,1600,,,,,,,VFR,,,,,,,,,,,,METAR,53.0
MNPC 171900Z 07006KT 7000 SCT016 SCT300 29/26 Q1011 HZ,MNPC,2021-01-17T19:00:00Z,14.05,-83.38,29.0,26.0,70,6,,4.35,29.852362,,,,,,,,,,HZ,SCT,1600,SCT,30000,,,,,MVFR,,,,,,,,,,,,METAR,10.0
MNMG 171900Z 07012KT 9999 BKN024 29/22 Q1009 A2982 NOSIG,MNMG,2021-01-17T19:00:00Z,12.15,-86.17,29.0,22.0,70,12,,6.21,29.793306,,,,,,TRUE,,,,,BKN,2400,,,,,,,MVFR,,,,,,,,,,,,METAR,59.0
MNJU 171900Z 09004KT 8000 VCRA SCT020TCU SCT080 25/24 Q1011 TCU ALRED TCURA/SW/W,MNJU,2021-01-17T19:00:00Z,12.08,-85.37,25.0,24.0,90,4,,4.97,29.852362,,,,,,,,,,VCRA RA,SCT,2000,SCT,8000,,,,,MVFR,,,,,,,,,,,,METAR,85.0
MNJG 171900Z 36016KT 9999 BKN018 19/17 Q1012,MNJG,2021-01-17T19:00:00Z,13.13,-86.02,19.0,17.0,360,16,,6.21,29.88189,,,,,,,,,,,BKN,1800,,,,,,,MVFR,,,,,,,,,,,,METAR,981.0
MNCH 171900Z 10006KT 9999 FEW025 33/20 Q1010,MNCH,2021-01-17T19:00:00Z,12.63,-87.13,33.0,20.0,100,6,,6.21,29.822834,,,,,,,,,,,FEW,2500,,,,,,,VFR,,,,,,,,,,,,METAR,70.0
MNBL 171900Z 07004KT 9999 FEW020 29/24 Q1011,MNBL,2021-01-17T19:00:00Z,12.0,-83.77,29.0,24.0,70,4,,6.21,29.852362,,,,,,,,,,,FEW,2000,,,,,,,VFR,,,,,,,,,,,,METAR,10.0
MKJS 171900Z 08014KT 9999 FEW022 28/23 Q1012,MKJS,2021-01-17T19:00:00Z,18.5,-77.92,28.0,23.0,80,14,,6.21,29.88189,,,,,,,,,,,FEW,2200,,,,,,,VFR,,,,,,,,,,,,METAR,3.0
MKJP 171900Z 15018KT 9999 FEW024 29/23 Q1012,MKJP,2021-01-17T19:00:00Z,17.93,-76.78,29.0,23.0,150,18,,6.21,29.88189,,,,,,,,,,,FEW,2400,,,,,,,VFR,,,,,,,,,,,,METAR,3.0
MHYR 171900Z VRB02KT 9999 SCT022 BKN070 21/18,MHYR,2021-01-17T19:00:00Z,15.13,-87.13,21.0,18.0,0,2,,6.21,,,,,,,,,,,,SCT,2200,BKN,7000,,,,,VFR,,,,,,,,,,,,METAR,682.0
MHTR 171900Z 27003KT 9999 FEW025TCU SCT250 27/23,MHTR,2021-01-17T19:00:00Z,15.93,-85.93,27.0,23.0,270,3,,6.21,,,,,,,,,,,,FEW,2500,SCT,25000,,,,,VFR,,,,,,,,,,,,METAR,3.0
MHTG 171900Z 35010KT 9999 SCT026 SCT250 23/17 Q1017 A3003 NOSIG,MHTG,2021-01-17T19:00:00Z,14.07,-87.22,23.0,17.0,350,10,,6.21,30.029528,,,,,,TRUE,,,,,SCT,2600,SCT,25000,,,,,VFR,,,,,,,,,,,,METAR,1001.0
MHTE 171900Z 00000KT 1000 -DZ SCT020 OVC070 22/22 Q1013,MHTE,2021-01-17T19:00:00Z,15.78,-87.48,22.0,22.0,0,0,,0.62,29.911417,,,,,,,,,,-DZ,SCT,2000,OVC,7000,,,,,LIFR,,,,,,,,,,,,METAR,7.0
MHSR 171900Z 05006KT 9999 BKN020 BKN080 21/17,MHSR,2021-01-17T19:00:00Z,14.78,-88.78,21.0,17.0,50,6,,6.21,,,,,,,,,,,,BKN,2000,BKN,8000,,,,,MVFR,,,,,,,,,,,,METAR,1087.0
MHRO 171900Z 16008KT 9999 FEW020 26/24 Q1013 A2992 TEMPO 6000 VCSH,MHRO,2021-01-17T19:00:00Z,16.32,-86.53,26.0,24.0,160,8,,6.21,29.911417,,,,,,,,,,,FEW,2000,,,,,,,VFR,,,,,,,,,,,,METAR,6.0
MHPL 171900Z 02010KT 9999 SCT028TCU BKN250 ///// Q1013,MHPL,2021-01-17T19:00:00Z,15.27,-83.78,,,20,10,,6.21,29.911417,,,,,,,,,,,SCT,2800,BKN,25000,,,,,VFR,,,,,,,,,,,,METAR,13.0
MHNO 171900Z 35010KT 9999 FEW040 26/16,MHNO,2021-01-17T19:00:00Z,14.43,-89.18,26.0,16.0,350,10,,6.21,,,,,,,,,,,,FEW,4000,,,,,,,VFR,,,,,,,,,,,,METAR,790.0
MHLM 171900Z 05006KT 9999 SCT022TCU OVC070 24/20 Q1015 A2997 NOSIG,MHLM,2021-01-17T19:00:00Z,15.45,-87.93,24.0,20.0,50,6,,6.21,29.970472,,,,,,TRUE,,,,,SCT,2200,OVC,7000,,,,,VFR,,,,,,,,,,,,METAR,32.0
MHLE 171900Z 05006KT 8000 VCSH BKN014 17/15,MHLE,2021-01-17T19:00:00Z,14.28,-88.17,17.0,15.0,50,6,,4.97,,,,,,,,,,,VCSH,BKN,1400,,,,,,,MVFR,,,,,,,,,,,,METAR,1688.0
MHLC 171900Z 23010KT 2000 -RA FEW007 SCT018 OVC070 21/21 Q1014 A2995 NOSIG,MHLC,2021-01-17T19:00:00Z,15.75,-86.85,21.0,21.0,230,10,,1.24,29.940945,,,,,,TRUE,,,,-RA,FEW,700,SCT,1800,OVC,7000,,,IFR,,,,,,,,,,,,METAR,13.0
MHGS 171900Z 32004KT 7000 SCT038 BKN080 21/17,MHGS,2021-01-17T19:00:00Z,14.57,-88.6,21.0,17.0,320,4,,4.35,,,,,,,,,,,,SCT,3800,BKN,8000,,,,,MVFR,,,,,,,,,,,,METAR,913.0
MHCH 171900Z 01012KT 9999 SCT034 SCT250 35/23,MHCH,2021-01-17T19:00:00Z,13.32,-87.15,35.0,23.0,10,12,,6.21,,,,,,,,,,,,SCT,3400,SCT,25000,,,,,VFR,,,,,,,,,,,,METAR,58.0
MHCA 171900Z 00000KT 9999 SCT028 BKN250 29/18,MHCA,2021-01-17T19:00:00Z,14.87,-85.78,29.0,18.0,0,0,,6.21,,,,,,,,,,,,SCT,2800,BKN,25000,,,,,VFR,,,,,,,,,,,,METAR,386.0
MGZA 171900Z 03008KT 9999 FEW025 29/15 QFE989/2 FEW200,MGZA,2021-01-17T19:00:00Z,14.97,-89.53,29.0,15.0,30,8,,6.21,,,,,,,,,,,,FEW,2500,FEW,20000,,,,,VFR,,,,,,,,,,,,METAR,195.0
MGSJ 171900Z 18008KT 7000 FEW018 BKN200 31/22 Q1010 A2983 FU,MGSJ,2021-01-17T19:00:00Z,13.93,-90.83,31.0,22.0,180,8,,4.35,29.822834,,,,,,,,,,FU,FEW,1800,BKN,20000,,,,,MVFR,,,,,,,,,,,,METAR,7.0
"MGRT 171900Z 22012KT 9999 SCT022TCU 33/24 Q1013 A2991 TCU S/SW VOL,SANTA MARIA Y SANTIAGUITO EN ACTIVIDAD",MGRT,2021-01-17T19:00:00Z,14.53,-91.7,33.0,24.0,220,12,,6.21,29.911417,,,,,,,,,,SA SA,SCT,2200,,,,,,,VFR,,,,,,,,,,,,METAR,209.0
MGQZ 171900Z 36010KT 9999 SCT020TCU 21/09 QFE771/8 TCU NE,MGQZ,2021-01-17T19:00:00Z,14.87,-91.5,21.0,9.0,360,10,,6.21,,,,,,,,,,,,SCT,2000,,,,,,,VFR,,,,,,,,,,,,METAR,2378.0
MGPB 171900Z 36004KT 9999 FEW020 BKN090 25/20 Q1015 A2997,MGPB,2021-01-17T19:00:00Z,15.73,-88.58,25.0,20.0,360,4,,6.21,29.970472,,,,,,,,,,,FEW,2000,BKN,9000,,,,,VFR,,,,,,,,,,,,METAR,6.0
MGMT 171900Z 18004KT CAVOK 33/21,MGMT,2021-01-17T19:00:00Z,,,33.0,21.0,180,4,,6.21,,,,,,,,,,,,CAVOK,,,,,,,,VFR,,,,,,,,,,,,METAR,
MGMM 171900Z 04006KT CAVOK 27/19 Q1027 A3003 SCT090 SCT200,MGMM,2021-01-17T19:00:00Z,16.9,-89.87,27.0,19.0,40,6,,6.21,30.324802,,,,,,,,,,,SCT,9000,SCT,20000,,,,,VFR,,,,,,,,,,,,METAR,105.0
MGHT 171900Z 20006KT 9999 SCT018 24/12,MGHT,2021-01-17T19:00:00Z,15.32,-91.5,24.0,12.0,200,6,,6.21,,,,,,,,,,,,SCT,1800,,,,,,,VFR,,,,,,,,,,,,METAR,1875.0
MGGT 171900Z 05010KT 9999 SCT020 SCT200 23/14 Q1024 A3024,MGGT,2021-01-17T19:00:00Z,14.58,-90.53,23.0,14.0,50,10,,6.21,30.236221,,,,,,,,,,,SCT,2000,SCT,20000,,,,,VFR,,,,,,,,,,,,METAR,1497.0
MGES 171900Z 03008KT 9999 BKN016 SCT090 22/16 QFE909.4,MGES,2021-01-17T19:00:00Z,14.57,-89.32,22.0,16.0,30,8,,6.21,,,,,,,,,,,,BKN,1600,SCT,9000,,,,,MVFR,,,,,,,,,,,,METAR,948.0
MGCB 171900Z 02004KT 9999 SCT018 24/17 QFE870.4,MGCB,2021-01-17T19:00:00Z,15.48,-90.42,24.0,17.0,20,4,,6.21,,,,,,,,,,,,SCT,1800,,,,,,,VFR,,,,,,,,,,,,METAR,1323.0
MDST 171900Z 11012KT 9999 FEW026 BKN300 30/19 Q1013,MDST,2021-01-17T19:00:00Z,19.4,-70.6,30.0,19.0,110,12,,6.21,29.911417,,,,,,,,,,,FEW,2600,BKN,30000,,,,,VFR,,,,,,,,,,,,METAR,175.0
MDSD 171900Z 14008KT 9999 FEW020 SCT300 29/24 Q1013 NOSIG,MDSD,2021-01-17T19:00:00Z,18.42,-69.67,29.0,24.0,140,8,,6.21,29.911417,,,,,,TRUE,,,,,FEW,2000,SCT,30000,,,,,VFR,,,,,,,,,,,,METAR,18.0
MDPP 171900Z 09015KT 9999 FEW022 29/24 Q1013,MDPP,2021-01-17T19:00:00Z,19.75,-70.57,29.0,24.0,90,15,,6.21,29.911417,,,,,,,,,,,FEW,2200,,,,,,,VFR,,,,,,,,,,,,METAR,9.0
MDPC 171900Z 12008KT 9999 FEW025 28/20 Q1014,MDPC,2021-01-17T19:00:00Z,18.57,-68.37,28.0,20.0,120,8,,6.21,29.940945,,,,,,,,,,,FEW,2500,,,,,,,VFR,,,,,,,,,,,,METAR,10.0
MDLR 171900Z 17010KT 9999 FEW022 SCT300 30/20 Q1014 NOSIG,MDLR,2021-01-17T19:00:00Z,18.45,-68.92,30.0,20.0,170,10,,6.21,29.940945,,,,,,TRUE,,,,,FEW,2200,SCT,30000,,,,,VFR,,,,,,,,,,,,METAR,66.0
MDJB 171900Z 09010KT 9999 FEW018 SCT300 30/22 Q1014,MDJB,2021-01-17T19:00:00Z,18.57,-69.98,30.0,22.0,90,10,,6.21,29.940945,,,,,,,,,,,FEW,1800,SCT,30000,,,,,VFR,,,,,,,,,,,,METAR,24.0
MDCY 171900Z 09006KT 9999 FEW020 BKN300 29/22 Q1014,MDCY,2021-01-17T19:00:00Z,19.27,-69.73,29.0,22.0,90,6,,6.21,29.940945,,,,,,,,,,,FEW,2000,BKN,30000,,,,,VFR,,,,,,,,,,,,METAR,4.0
MDBH 171900Z 13016KT 9999 FEW024 BKN300 28/24 Q1013,MDBH,2021-01-17T19:00:00Z,18.25,-71.12,28.0,24.0,130,16,,6.21,29.911417,,,,,,,,,,,FEW,2400,BKN,30000,,,,,VFR,,,,,,,,,,,,METAR,7.0
MDAB 171900Z 13008KT 9999 FEW020 30/25 Q1015,MDAB,2021-01-17T19:00:00Z,19.2,-69.43,30.0,25.0,130,8,,6.21,29.970472,,,,,,,,,,,FEW,2000,,,,,,,VFR,,,,,,,,,,,,METAR,28.0
MBPV 171900Z 14005KT 9999 SCT012 27/21 Q1013,MBPV,2021-01-17T19:00:00Z,21.77,-72.27,27.0,21.0,140,5,,6.21,29.911417,,,,,,,,,,,SCT,1200,,,,,,,VFR,,,,,,,,,,,,METAR,7.0
MBGT 171900Z 11005KT 9999 FEW020 SCT060 27/20 Q1015,MBGT,2021-01-17T19:00:00Z,21.43,-71.15,27.0,20.0,110,5,,6.21,29.970472,,,,,,,,,,,FEW,2000,SCT,6000,,,,,VFR,,,,,,,,,,,,METAR,6.0
LZZI 171900Z 10003KT CAVOK M16/M18 Q1020,LZZI,2021-01-17T19:00:00Z,49.23,18.62,-16.0,-18.0,100,3,,6.21,30.11811,,,,,,,,,,,CAVOK,,,,,,,,VFR,,,,,,,,,,,,METAR,311.0
LZTT 171900Z VRB01KT 9999 FEW013 BKN023 M16/M18 Q1015,LZTT,2021-01-17T19:00:00Z,49.07,20.25,-16.0,-18.0,0,1,,6.21,29.970472,,,,,,,,,,,FEW,1300,BKN,2300,,,,,MVFR,,,,,,,,,,,,METAR,693.0
LZPP 171900Z 35008KT CAVOK M10/M15 Q1021,LZPP,2021-01-17T19:00:00Z,48.62,17.83,-10.0,-15.0,350,8,,6.21,30.147638,,,,,,,,,,,CAVOK,,,,,,,,VFR,,,,,,,,,,,,METAR,160.0
LZKZ 171900Z 34002KT 9999 BKN027 M08/M11 Q1019,LZKZ,2021-01-17T19:00:00Z,48.67,21.23,-8.0,-11.0,340,2,,6.21,30.088583,,,,,,,,,,,BKN,2700,,,,,,,MVFR,,,,,,,,,,,,METAR,227.0
LZIB 171900Z 34008KT 9999 SCT042 M05/M11 Q1021 R13/710095 NOSIG,LZIB,2021-01-17T19:00:00Z,48.17,17.22,-5.0,-11.0,340,8,,6.21,30.147638,,,,,,TRUE,,,,,SCT,4200,,,,,,,VFR,,,,,,,,,,,,METAR,129.0
LYVR 171900Z AUTO 10002KT 4800 BR FEW002/// BKN018/// BKN041/// M07/M08 Q1020,LYVR,2021-01-17T19:00:00Z,45.13,21.32,-7.0,-8.0,100,2,,2.98,30.11811,,,TRUE,,,,,,,BR,FEW,200,BKN,1800,BKN,4100,,,IFR,,,,,,,,,,,,METAR,82.0
LYUZ 171900Z AUTO 33004KT 310V020 2400 -SN BR BKN001/// OVC023/// M08/M09 Q1014,LYUZ,2021-01-17T19:00:00Z,43.9,19.67,-8.0,-9.0,330,4,,1.49,29.940945,,,TRUE,,,,,,,-SN BR,BKN,100,OVC,2300,,,,,LIFR,,,,,,,,,,,,METAR,914.0
LYTV 171900Z VRB02KT 9999 SCT046 OVC070 03/M03 Q1017,LYTV,2021-01-17T19:00:00Z,42.4,18.72,3.0,-3.0,0,2,,6.21,30.029528,,,,,,,,,,,SCT,4600,OVC,7000,,,,,VFR,,,,,,,,,,,,METAR,3.0
LYPG 171900Z 26003KT 9999 SCT033 OVC070 01/M04 Q1018 NOSIG,LYPG,2021-01-17T19:00:00Z,42.37,19.25,1.0,-4.0,260,3,,6.21,30.059055,,,,,,TRUE,,,,,SCT,3300,OVC,7000,,,,,VFR,,,,,,,,,,,,METAR,32.0
LYNI 171900Z 34002KT 8000 -SN SCT017 OVC033 M05/M06 Q1018 R11/2///95 NOSIG,LYNI,2021-01-17T19:00:00Z,43.33,21.85,-5.0,-6.0,340,2,,4.97,30.059055,,,,,,TRUE,,,,-SN,SCT,1700,OVC,3300,,,,,MVFR,,,,,,,,,,,,METAR,197.0
LYKV 171900Z VRB02KT 9999 FEW015 BKN027 M04/M05 Q1019 NOSIG,LYKV,2021-01-17T19:00:00Z,43.82,20.58,-4.0,-5.0,0,2,,6.21,30.088583,,,,,,TRUE,,,,,FEW,1500,BKN,2700,,,,,MVFR,,,,,,,,,,,,METAR,209.0
LYBT 171900Z VRB01KT 9999 BKN040 M05/M05 Q1020 NOSIG,LYBT,2021-01-17T19:00:00Z,44.93,20.25,-5.0,-5.0,0,1,,6.21,30.11811,,,,,,TRUE,,,,,BKN,4000,,,,,,,VFR,,,,,,,,,,,,METAR,78.0
LYBE 171900Z 00000KT 5000 BR BKN040 M05/M05 Q1020 R12/2///95 TEMPO 3000,LYBE,2021-01-17T19:00:00Z,44.82,20.28,-5.0,-5.0,0,0,,3.11,30.11811,,,,,,,,,,BR,BKN,4000,,,,,,,MVFR,,,,,,,,,,,,METAR,93.0
LWSK 171900Z 17003KT 9999 FEW070 M03/M07 Q1017 NOSIG,LWSK,2021-01-17T19:00:00Z,41.97,21.63,-3.0,-7.0,170,3,,6.21,30.029528,,,,,,TRUE,,,,,FEW,7000,,,,,,,VFR,,,,,,,,,,,,METAR,232.0
LUKK 171900Z VRB02KT 9999 -SN SCT024 OVC061 M07/M11 Q1015 R08/D NOSIG,LUKK,2021-01-17T19:00:00Z,46.93,28.93,-7.0,-11.0,0,2,,6.21,29.970472,,,,,,TRUE,,,,-SN,SCT,2400,OVC,6100,,,,,VFR,,,,,,,,,,,,METAR,102.0
LRTZ 171900Z 34008KT 9999 FEW050 BKN090 M06/M09 Q1014 BLU BLU,LRTZ,2021-01-17T19:00:00Z,43.98,28.62,-6.0,-9.0,340,8,,6.21,29.940945,,,,,,,,,,,FEW,5000,BKN,9000,,,,,VFR,,,,,,,,,,,,METAR,45.0
LRTR 171900Z 05003KT 6000 -SN OVC049 M06/M06 Q1019 R11/590794,LRTR,2021-01-17T19:00:00Z,45.82,21.33,-6.0,-6.0,50,3,,3.73,30.088583,,,,,,,,,,-SN,OVC,4900,,,,,,,MVFR,,,,,,,,,,,,METAR,104.0
LRTM 171900Z AUTO 23002KT 5000 IC OVC031/// M10/M12 Q1018,LRTM,2021-01-17T19:00:00Z,46.47,24.42,-10.0,-12.0,230,2,,3.11,30.059055,,,TRUE,,,,,,,IC,OVC,3100,,,,,,,MVFR,,,,,,,,,,,,METAR,289.0
LRTC 171900Z AUTO 26004KT 9999 SCT065/// OVC080/// M06/M11 Q1017,LRTC,2021-01-17T19:00:00Z,45.07,28.72,-6.0,-11.0,260,4,,6.21,30.029528,,,TRUE,,,,,,,,SCT,6500,OVC,8000,,,,,VFR,,,,,,,,,,,,METAR,52.0
LRSV 171900Z 30007KT 3000 SN BKN011 M06/M07 Q1014 R16/911095,LRSV,2021-01-17T19:00:00Z,47.68,26.35,-6.0,-7.0,300,7,,1.86,29.940945,,,,,,,,,,SN,BKN,1100,,,,,,,IFR,,,,,,,,,,,,METAR,406.0
LRSM 171900Z AUTO 02003KT 330V060 6000 -SN BKN036/// M05/M06 Q1020,LRSM,2021-01-17T19:00:00Z,47.7,22.88,-5.0,-6.0,20,3,,3.73,30.11811,,,TRUE,,,,,,,-SN,BKN,3600,,,,,,,MVFR,,,,,,,,,,,,METAR,123.0
LRSB 171900Z 24003KT 5000 BR NSC M16/M18 Q1017 NOSIG,LRSB,2021-01-17T19:00:00Z,45.78,24.08,-16.0,-18.0,240,3,,3.11,30.029528,,,,,,TRUE,,,,BR,CLR,,,,,,,,MVFR,,,,,,,,,,,,METAR,442.0
LROP 171900Z 28005KT 6000 NSC M07/M09 Q1018 R26L/09//95 NOSIG,LROP,2021-01-17T19:00:00Z,44.57,26.1,-7.0,-9.0,280,5,,3.73,30.059055,,,,,,TRUE,,,,,CLR,,,,,,,,MVFR,,,,,,,,,,,,METAR,92.0
LROD 171900Z 05002KT 9999 OVC038 M04/M06 Q1020,LROD,2021-01-17T19:00:00Z,47.03,21.88,-4.0,-6.0,50,2,,6.21,30.11811,,,,,,,,,,,OVC,3800,,,,,,,VFR,,,,,,,,,,,,METAR,132.0
LRIA 171900Z VRB02KT CAVOK M05/M08 Q1016,LRIA,2021-01-17T19:00:00Z,47.17,27.62,-5.0,-8.0,0,2,,6.21,30.0,,,,,,,,,,,CAVOK,,,,,,,,VFR,,,,,,,,,,,,METAR,71.0
LRFT 171900Z 29003KT 5000 BR OVC040 M05/M06 Q1018 WHT WHT,LRFT,2021-01-17T19:00:00Z,44.38,27.72,-5.0,-6.0,290,3,,3.11,30.059055,,,,,,,,,,BR,OVC,4000,,,,,,,MVFR,,,,,,,,,,,,METAR,54.0
LRCV 171900Z 00000KT CAVOK M09/M11 Q1017,LRCV,2021-01-17T19:00:00Z,44.32,23.88,-9.0,-11.0,0,0,,6.21,30.029528,,,,,,,,,,,CAVOK,,,,,,,,VFR,,,,,,,,,,,,METAR,192.0
LRCT 171900Z 31003KT 5000 BR OVC030 M11/M12 Q1018 WHT WHT,LRCT,2021-01-17T19:00:00Z,46.5,23.88,-11.0,-12.0,310,3,,3.11,30.059055,,,,,,,,,,BR,OVC,3000,,,,,,,MVFR,,,,,,,,,,,,METAR,324.0
LRCL 171900Z 12002KT 6000 OVC030 M08/M10 Q1018 R07/19//95,LRCL,2021-01-17T19:00:00Z,46.78,23.68,-8.0,-10.0,120,2,,3.73,30.059055,,,,,,,,,,,OVC,3000,,,,,,,MVFR,,,,,,,,,,,,METAR,313.0
LRCK 171900Z 29009KT 9999 SCT043 M06/M10 Q1017 NOSIG,LRCK,2021-01-17T19:00:00Z,44.37,28.48,-6.0,-10.0,290,9,,6.21,30.029528,,,,,,TRUE,,,,,SCT,4300,,,,,,,VFR,,,,,,,,,,,,METAR,108.0
LRBS 171900Z 27003KT 8000 NSC M06/M09 Q1018 NOSIG,LRBS,2021-01-17T19:00:00Z,44.5,26.08,-6.0,-9.0,270,3,,4.97,30.059055,,,,,,TRUE,,,,,CLR,,,,,,,,MVFR,,,,,,,,,,,,METAR,91.0
LRBO 171900Z 34004KT 9999 BKN070 M07/M09 Q1017 BLU BLU,LRBO,2021-01-17T19:00:00Z,45.22,26.97,-7.0,-9.0,340,4,,6.21,30.029528,,,,,,,,,,,BKN,7000,,,,,,,VFR,,,,,,,,,,,,METAR,104.0
LRBM 171900Z AUTO 34004KT 9999 -SHSN OVC031/// M05/M10 Q1019,LRBM,2021-01-17T19:00:00Z,47.67,23.47,-5.0,-10.0,340,4,,6.21,30.088583,,,TRUE,,,,,,,-SHSN,OVC,3100,,,,,,,VFR,,,,,,,,,,,,METAR,180.0
LRBC 171900Z VRB01KT 7000 BKN065 M07/M09 Q1016,LRBC,2021-01-17T19:00:00Z,46.52,26.92,-7.0,-9.0,0,1,,4.35,30.0,,,,,,,,,,,BKN,6500,,,,,,,MVFR,,,,,,,,,,,,METAR,183.0
LRAR 171900Z 18001KT 5000 -SN BR BKN012 OVC028 M04/M05 Q1019 R09/490593,LRAR,2021-01-17T19:00:00Z,46.18,21.27,-4.0,-5.0,180,1,,3.11,30.088583,,,,,,,,,,-SN BR,BKN,1200,OVC,2800,,,,,MVFR,,,,,,,,,,,,METAR,102.0
LQTZ 171900Z VRB02KT 9999 FEW015 SCT025 BKN040 M03/M04 Q1019,LQTZ,2021-01-17T19:00:00Z,44.47,18.73,-3.0,-4.0,0,2,,6.21,30.088583,,,,,,,,,,,FEW,1500,SCT,2500,BKN,4000,,,VFR,,,,,,,,,,,,METAR,242.0
LQSA 171900Z 30005KT 3000 -SN FEW015 SCT030 BKN050 M04/M04 Q1016 TEMPO 1500 SN,LQSA,2021-01-17T19:00:00Z,43.82,18.32,-4.0,-4.0,300,5,,1.86,30.0,,,,,,,,,,-SN,FEW,1500,SCT,3000,BKN,5000,,,IFR,,,,,,,,,,,,METAR,505.0
LQMO 171900Z VRB02KT 9999 FEW085 M02/M04 Q1016,LQMO,2021-01-17T19:00:00Z,43.28,17.83,-2.0,-4.0,0,2,,6.21,30.0,,,,,,,,,,,FEW,8500,,,,,,,VFR,,,,,,,,,,,,METAR,49.0
LQBK 171900Z 13002KT 9999 -SN FEW017 BKN037 M03/M03 Q1021 NOSIG,LQBK,2021-01-17T19:00:00Z,44.93,17.3,-3.0,-3.0,130,2,,6.21,30.147638,,,,,,TRUE,,,,-SN,FEW,1700,BKN,3700,,,,,VFR,,,,,,,,,,,,METAR,114.0
LPPT 171900Z 00000KT CAVOK 11/07 Q1028,LPPT,2021-01-17T19:00:00Z,38.77,-9.13,11.0,7.0,0,0,,6.21,30.35433,,,,,,,,,,,CAVOK,,,,,,,,VFR,,,,,,,,,,,,METAR,98.0
LPPS 171900Z 06007KT 020V090 9999 SCT015 BKN030 15/09 Q1028,LPPS,2021-01-17T19:00:00Z,33.07,-16.35,15.0,9.0,60,7,,6.21,30.35433,,,,,,,,,,,SCT,1500,BKN,3000,,,,,MVFR,,,,,,,,,,,,METAR,89.0
LPPR 171900Z 00000KT 8000 NSC 07/05 Q1029,LPPR,2021-01-17T19:00:00Z,41.23,-8.68,7.0,5.0,0,0,,4.97,30.383858,,,,,,,,,,,CLR,,,,,,,,MVFR,,,,,,,,,,,,METAR,64.0
LPPD 171900Z 19015KT 9999 FEW014 BKN045 16/13 Q1022,LPPD,2021-01-17T19:00:00Z,37.73,-25.68,16.0,13.0,190,15,,6.21,30.177166,,,,,,,,,,,FEW,1400,BKN,4500,,,,,VFR,,,,,,,,,,,,METAR,62.0
LPMT 171900Z 27003KT CAVOK 07/05 Q1028,LPMT,2021-01-17T19:00:00Z,38.7,-9.05,7.0,5.0,270,3,,6.21,30.35433,,,,,,,,,,,CAVOK,,,,,,,,VFR,,,,,,,,,,,,METAR,4.0
LPMR 171900Z 31002KT 8000 NSC 06/04 Q1029,LPMR,2021-01-17T19:00:00Z,39.82,-8.88,6.0,4.0,310,2,,4.97,30.383858,,,,,,,,,,,CLR,,,,,,,,MVFR,,,,,,,,,,,,METAR,50.0
LPMA 171900Z 02007KT 350V050 9999 BKN016 SCT030 16/08 Q1028,LPMA,2021-01-17T19:00:00Z,32.7,-16.77,16.0,8.0,20,7,,6.21,30.35433,,,,,,,,,,,BKN,1600,SCT,3000,,,,,MVFR,,,,,,,,,,,,METAR,54.0
LPLA 171900Z /////KT 6000 RA SCT007 BKN014 18/16 Q1019,LPLA,2021-01-17T19:00:00Z,38.77,-27.1,18.0,16.0,,,,3.73,30.088583,,,,,,,,,,RA,SCT,700,BKN,1400,,,,,MVFR,,,,,,,,,,,,METAR,60.0
LPHR 171900Z 21017KT 9999 FEW006 SCT010 FEW014TCU BKN070 16/16 Q1015,LPHR,2021-01-17T19:00:00Z,38.52,-28.72,16.0,16.0,210,17,,6.21,29.970472,,,,,,,,,,,FEW,600,SCT,1000,FEW,1400,BKN,7000,VFR,,,,,,,,,,,,METAR,39.0
LPFR 171900Z 33003KT CAVOK 11/04 Q1027,LPFR,2021-01-17T19:00:00Z,37.02,-7.97,11.0,4.0,330,3,,6.21,30.324802,,,,,,,,,,,CAVOK,,,,,,,,VFR,,,,,,,,,,,,METAR,3.0
LPCS 171900Z 02004KT CAVOK 09/05 Q1028,LPCS,2021-01-17T19:00:00Z,38.73,-9.35,9.0,5.0,20,4,,6.21,30.35433,,,,,,,,,,,CAVOK,,,,,,,,VFR,,,,,,,,,,,,METAR,99.0
LPBJ 171900Z 36003KT CAVOK 10/04 Q1027,LPBJ,2021-01-17T19:00:00Z,38.08,-7.93,10.0,4.0,360,3,,6.21,30.324802,,,,,,,,,,,CAVOK,,,,,,,,VFR,,,,,,,,,,,,METAR,196.0
LPAZ 171900Z 19016KT 9999 FEW022 16/13 Q1023,LPAZ,2021-01-17T19:00:00Z,36.97,-25.17,16.0,13.0,190,16,,6.21,30.206694,,,,,,,,,,,FEW,2200,,,,,,,VFR,,,,,,,,,,,,METAR,96.0
LKTB 171900Z 09009KT 9999 OVC032 M08/M12 Q1021 R27/01//95 NOSIG,LKTB,2021-01-17T19:00:00Z,49.15,16.68,-8.0,-12.0,90,9,,6.21,30.147638,,,,,,TRUE,,,,,OVC,3200,,,,,,,VFR,,,,,,,,,,,,METAR,233.0
LKPR 171900Z 22005KT 9999 BKN032 M04/M07 Q1020 R24/29//95 R30/32//95 NOSIG,LKPR,2021-01-17T19:00:00Z,50.1,14.27,-4.0,-7.0,220,5,,6.21,30.11811,,,,,,TRUE,,,,,BKN,3200,,,,,,,VFR,,,,,,,,,,,,METAR,364.0
LKPD 171900Z VRB02KT 9999 BKN030 M05/M08 Q1021 NOSIG RMK BLU BLU,LKPD,2021-01-17T19:00:00Z,50.02,15.73,-5.0,-8.0,0,2,,6.21,30.147638,,,,,,TRUE,,,,,BKN,3000,,,,,,,MVFR,,,,,,,,,,,,METAR,226.0
LKNA 171900Z 31009KT 9999 OVC022 M05/M10 Q1019 NOSIG RMK WHT WHT,LKNA,2021-01-17T19:00:00Z,49.17,16.12,-5.0,-10.0,310,9,,6.21,30.088583,,,,,,TRUE,,,,,OVC,2200,,,,,,,MVFR,,,,,,,,,,,,METAR,460.0
LKMT 171900Z 30002KT 5000 BR SCT015 M16/M18 Q1021 R04/420195 NOSIG,LKMT,2021-01-17T19:00:00Z,49.68,18.12,-16.0,-18.0,300,2,,3.11,30.147638,,,,,,TRUE,,,,BR,SCT,1500,,,,,,,MVFR,,,,,,,,,,,,METAR,251.0
LKLN 171900Z AUTO 25003KT 220V310 9999 OVC024 M04/M07 Q1021,LKLN,2021-01-17T19:00:00Z,49.68,13.27,-4.0,-7.0,250,3,,6.21,30.147638,,,TRUE,,,,,,,,OVC,2400,,,,,,,MVFR,,,,,,,,,,,,METAR,353.0
LKKV 171900Z VRB02KT 9999 OVC017 M10/M11 Q1018 R29///////,LKKV,2021-01-17T19:00:00Z,50.2,12.92,-10.0,-11.0,0,2,,6.21,30.059055,,,,,,,,,,,OVC,1700,,,,,,,MVFR,,,,,,,,,,,,METAR,600.0
LKKB 171900Z 21002KT 9999 BKN032 M07/M09 Q1020 NOSIG,LKKB,2021-01-17T19:00:00Z,50.12,14.53,-7.0,-9.0,210,2,,6.21,30.11811,,,,,,TRUE,,,,,BKN,3200,,,,,,,VFR,,,,,,,,,,,,METAR,281.0
LKCV 171900Z 30004KT 9999 OVC028 M04/M07 Q1021 NOSIG RMK BLU BLU,LKCV,2021-01-17T19:00:00Z,49.93,15.38,-4.0,-7.0,300,4,,6.21,30.147638,,,,,,TRUE,,,,,OVC,2800,,,,,,,MVFR,,,,,,,,,,,,METAR,234.0
LJPZ 171900Z 12007KT CAVOK 00/M03 Q1018,LJPZ,2021-01-17T19:00:00Z,45.47,13.62,0.0,-3.0,120,7,,6.21,30.059055,,,,,,,,,,,CAVOK,,,,,,,,VFR,,,,,,,,,,,,METAR,2.0
LJMB 171900Z 15004KT 7000 -SN BKN015 OVC028 M02/M04 Q1020,LJMB,2021-01-17T19:00:00Z,46.47,15.67,-2.0,-4.0,150,4,,4.35,30.11811,,,,,,,,,,-SN,BKN,1500,OVC,2800,,,,,MVFR,,,,,,,,,,,,METAR,263.0
LJLJ 171900Z VRB02KT 9999 FEW020 SCT060 M07/M08 Q1020 NOSIG,LJLJ,2021-01-17T19:00:00Z,46.22,14.47,-7.0,-8.0,0,2,,6.21,30.11811,,,,,,TRUE,,,,,FEW,2000,SCT,6000,,,,,VFR,,,,,,,,,,,,METAR,363.0
LJCE 171900Z AUTO 04002KT 9000 -SN OVC028/// M02/M04 Q1021,LJCE,2021-01-17T19:00:00Z,45.9,15.52,-2.0,-4.0,40,2,,5.59,30.147638,,,TRUE,,,,,,,-SN,OVC,2800,,,,,,,MVFR,,,,,,,,,,,,METAR,153.0
LHBP 171900Z 13003KT 9000 -SHSN OVC028 M04/M06 Q1020 R88/19//95 NOSIG,LHBP,2021-01-17T19:00:00Z,47.43,19.27,-4.0,-6.0,130,3,,5.59,30.11811,,,,,,TRUE,,,,-SHSN,OVC,2800,,,,,,,MVFR,,,,,,,,,,,,METAR,141.0
LGKP 171900Z AUTO 28019KT //// // ////// 09/M01 Q1014 RE//,LGKP,2021-01-17T19:00:00Z,35.42,27.15,9.0,-1.0,280,19,,,29.940945,,,TRUE,,,,,,,,,,,,,,,,,,,,,,,,,,,,METAR,20.0
LFYR 171900Z AUTO 00000KT //// // FEW043 00/M00 Q1028,LFYR,2021-01-17T19:00:00Z,47.32,1.68,0.0,0.0,0,0,,,30.35433,,,TRUE,,,,,,,,FEW,4300,,,,,,,,,,,,,,,,,,,METAR,83.0
LFVP 171900Z 13023KT 3500 -RA BR BKN004 04/04 Q0993 NOSIG,LFVP,2021-01-17T19:00:00Z,46.77,-56.18,4.0,4.0,130,23,,2.17,29.320866,,,,,,TRUE,,,,-RA BR,BKN,400,,,,,,,LIFR,,,,,,,,,,,,METAR,5.0
LFTW 171900Z AUTO 35010KT CAVOK 07/M02 Q1024 NOSIG,LFTW,2021-01-17T19:00:00Z,43.75,4.42,7.0,-2.0,350,10,,6.21,30.236221,,,TRUE,,,TRUE,,,,,CAVOK,,,,,,,,VFR,,,,,,,,,,,,METAR,91.0
LFTH 171900Z AUTO 33017G31KT CAVOK 10/M03 Q1016 NOSIG,LFTH,2021-01-17T19:00:00Z,43.1,6.15,10.0,-3.0,330,17,31,6.21,30.0,,,TRUE,,,TRUE,,,,,CAVOK,,,,,,,,VFR,,,,,,,,,,,,METAR,3.0
LFSX 171900Z AUTO 31004KT 7000 BKN007 OVC012 02/01 Q1026,LFSX,2021-01-17T19:00:00Z,47.77,6.35,2.0,1.0,310,4,,4.35,30.295275,,,TRUE,,,,,,,,BKN,700,OVC,1200,,,,,IFR,,,,,,,,,,,,METAR,266.0
LFST 171900Z AUTO 23008KT 9999 OVC033 02/00 Q1024 TEMPO 3000 BR BKN012,LFST,2021-01-17T19:00:00Z,48.53,7.63,2.0,0.0,230,8,,6.21,30.236221,,,TRUE,,,,,,,,OVC,3300,,,,,,,VFR,,,,,,,,,,,,METAR,149.0
LFSO 171900Z AUTO 27005KT 9999 FEW011 OVC032 01/01 Q1025,LFSO,2021-01-17T19:00:00Z,48.57,5.97,1.0,1.0,270,5,,6.21,30.265747,,,TRUE,,,,,,,,FEW,1100,OVC,3200,,,,,VFR,,,,,,,,,,,,METAR,328.0
LFSN 171900Z AUTO 29004KT 9999 BKN010 BKN039 OVC048 03/01 Q1025,LFSN,2021-01-17T19:00:00Z,48.68,6.22,3.0,1.0,290,4,,6.21,30.265747,,,TRUE,,,,,,,,BKN,1000,BKN,3900,OVC,4800,,,MVFR,,,,,,,,,,,,METAR,214.0
LFSM 171900Z AUTO 25005KT 6000 -RA OVC006 02/02 Q1025,LFSM,2021-01-17T19:00:00Z,,,2.0,2.0,250,5,,3.73,30.265747,,,TRUE,,,,,,,-RA,OVC,600,,,,,,,IFR,,,,,,,,,,,,METAR,
LFSL 171900Z AUTO 28002KT CAVOK 00/M01 Q1029 NOSIG,LFSL,2021-01-17T19:00:00Z,45.03,1.48,0.0,-1.0,280,2,,6.21,30.383858,,,TRUE,,,TRUE,,,,,CAVOK,,,,,,,,VFR,,,,,,,,,,,,METAR,300.0
LFSI 171900Z AUTO 22003KT 9999 OVC042 03/02 Q1026,LFSI,2021-01-17T19:00:00Z,48.62,4.9,3.0,2.0,220,3,,6.21,30.295275,,,TRUE,,,,,,,,OVC,4200,,,,,,,VFR,,,,,,,,,,,,METAR,136.0
LFSG 171900Z AUTO 25006KT 9999 FEW011 OVC032 02/01 Q1025,LFSG,2021-01-17T19:00:00Z,48.33,6.07,2.0,1.0,250,6,,6.21,30.265747,,,TRUE,,,,,,,,FEW,1100,OVC,3200,,,,,VFR,,,,,,,,,,,,METAR,320.0
LFSD 171900Z AUTO VRB02KT CAVOK 00/M00 Q1027,LFSD,2021-01-17T19:00:00Z,47.27,5.08,0.0,0.0,0,2,,6.21,30.324802,,,TRUE,,,,,,,,CAVOK,,,,,,,,VFR,,,,,,,,,,,,METAR,218.0
LFSB 171900Z AUTO 24006KT 9999 FEW009 BKN028 BKN035 02/01 Q1025 TEMPO BKN010,LFSB,2021-01-17T19:00:00Z,47.6,7.52,2.0,1.0,240,6,,6.21,30.265747,,,TRUE,,,,,,,,FEW,900,BKN,2800,BKN,3500,,,MVFR,,,,,,,,,,,,METAR,262.0
LFRZ 171900Z AUTO 30002KT CAVOK 06/03 Q1030 NOSIG,LFRZ,2021-01-17T19:00:00Z,47.32,-2.17,6.0,3.0,300,2,,6.21,30.413385,,,TRUE,,,TRUE,,,,,CAVOK,,,,,,,,VFR,,,,,,,,,,,,METAR,2.0
LFRV 171900Z AUTO 01003KT CAVOK 03/02 Q1030,LFRV,2021-01-17T19:00:00Z,47.72,-2.72,3.0,2.0,10,3,,6.21,30.413385,,,TRUE,,,,,,,,CAVOK,,,,,,,,VFR,,,,,,,,,,,,METAR,132.0
LFRT 171900Z AUTO 25004KT CAVOK 05/02 Q1029,LFRT,2021-01-17T19:00:00Z,48.53,-2.85,5.0,2.0,250,4,,6.21,30.383858,,,TRUE,,,,,,,,CAVOK,,,,,,,,VFR,,,,,,,,,,,,METAR,134.0
LFRS 171900Z AUTO 32002KT CAVOK 04/02 Q1030 NOSIG,LFRS,2021-01-17T19:00:00Z,47.17,-1.6,4.0,2.0,320,2,,6.21,30.413385,,,TRUE,,,TRUE,,,,,CAVOK,,,,,,,,VFR,,,,,,,,,,,,METAR,26.0
LFRQ 171900Z AUTO VRB01KT CAVOK 04/03 Q1030 NOSIG,LFRQ,2021-01-17T19:00:00Z,47.97,-4.17,4.0,3.0,0,1,,6.21,30.413385,,,TRUE,,,TRUE,,,,,CAVOK,,,,,,,,VFR,,,,,,,,,,,,METAR,94.0
LFRO 171900Z AUTO 28003KT CAVOK 04/02 Q1031,LFRO,2021-01-17T19:00:00Z,48.75,-3.47,4.0,2.0,280,3,,6.21,30.442913,,,TRUE,,,,,,,,CAVOK,,,,,,,,VFR,,,,,,,,,,,,METAR,86.0
LFRN 171900Z AUTO 28003KT CAVOK 05/03 Q1030 BECMG 3000 BR,LFRN,2021-01-17T19:00:00Z,48.07,-1.73,5.0,3.0,280,3,,6.21,30.413385,,,TRUE,,,,,,,,CAVOK,,,,,,,,VFR,,,,,,,,,,,,METAR,35.0
LFRM 171900Z AUTO 00000KT CAVOK 03/02 Q1029 NOSIG,LFRM,2021-01-17T19:00:00Z,47.95,0.2,3.0,2.0,0,0,,6.21,30.383858,,,TRUE,,,TRUE,,,,,CAVOK,,,,,,,,VFR,,,,,,,,,,,,METAR,51.0
LFRL 171900Z AUTO 05001KT 9999 FEW034 BKN040 OVC210 07/04 Q1030,LFRL,2021-01-17T19:00:00Z,48.27,-4.43,7.0,4.0,50,1,,6.21,30.413385,,,TRUE,,,,,,,,FEW,3400,BKN,4000,OVC,21000,,,VFR,,,,,,,,,,,,METAR,80.0
LFRK 171900Z AUTO 25007KT 9999 SCT027 04/02 Q1029 NOSIG,LFRK,2021-01-17T19:00:00Z,49.17,-0.45,4.0,2.0,250,7,,6.21,30.383858,,,TRUE,,,TRUE,,,,,SCT,2700,,,,,,,VFR,,,,,,,,,,,,METAR,66.0
LFRJ 171900Z AUTO 22003KT CAVOK 06/04 Q1030,LFRJ,2021-01-17T19:00:00Z,48.52,-4.15,6.0,4.0,220,3,,6.21,30.413385,,,TRUE,,,,,,,,CAVOK,,,,,,,,VFR,,,,,,,,,,,,METAR,109.0
LFRI 171900Z AUTO 30002KT CAVOK 04/03 Q1030 BECMG 3000 BR,LFRI,2021-01-17T19:00:00Z,46.7,-1.37,4.0,3.0,300,2,,6.21,30.413385,,,TRUE,,,,,,,,CAVOK,,,,,,,,VFR,,,,,,,,,,,,METAR,89.0
LFRH 171900Z AUTO VRB02KT CAVOK 04/02 Q1030 NOSIG,LFRH,2021-01-17T19:00:00Z,47.77,-3.45,4.0,2.0,0,2,,6.21,30.413385,,,TRUE,,,TRUE,,,,,CAVOK,,,,,,,,VFR,,,,,,,,,,,,METAR,46.0
LFRG 171900Z AUTO 29003KT 9999 BKN040 BKN190 05/03 Q1028 BECMG 3000 BR,LFRG,2021-01-17T19:00:00Z,49.37,0.15,5.0,3.0,290,3,,6.21,30.35433,,,TRUE,,,,,,,,BKN,4000,BKN,19000,,,,,VFR,,,,,,,,,,,,METAR,146.0
LFRD 171900Z AUTO 33004KT CAVOK 05/02 Q1030 NOSIG,LFRD,2021-01-17T19:00:00Z,48.58,-2.07,5.0,2.0,330,4,,6.21,30.413385,,,TRUE,,,TRUE,,,,,CAVOK,,,,,,,,VFR,,,,,,,,,,,,METAR,56.0
LFRC 171900Z AUTO 31009KT 280V340 9999 BKN020 BKN027 BKN034 07/04 Q1028,LFRC,2021-01-17T19:00:00Z,49.63,-1.47,7.0,4.0,310,9,,6.21,30.35433,,,TRUE,,,,,,,,BKN,2000,BKN,2700,BKN,3400,,,MVFR,,,,,,,,,,,,METAR,137.0
LFRB 171900Z AUTO 20001KT 9999 BKN039 OVC200 05/04 Q1030 NOSIG,LFRB,2021-01-17T19:00:00Z,48.45,-4.42,5.0,4.0,200,1,,6.21,30.413385,,,TRUE,,,TRUE,,,,,BKN,3900,OVC,20000,,,,,VFR,,,,,,,,,,,,METAR,91.0
LFQQ 171900Z AUTO 25006KT 9999 FEW025 OVC042 04/03 Q1025 NOSIG,LFQQ,2021-01-17T19:00:00Z,50.57,3.1,4.0,3.0,250,6,,6.21,30.265747,,,TRUE,,,TRUE,,,,,FEW,2500,OVC,4200,,,,,VFR,,,,,,,,,,,,METAR,43.0
LFQB 171900Z AUTO VRB02KT 9999 SCT022 BKN029 OVC034 03/02 Q1027,LFQB,2021-01-17T19:00:00Z,48.32,4.02,3.0,2.0,0,2,,6.21,30.324802,,,TRUE,,,,,,,,SCT,2200,BKN,2900,OVC,3400,,,MVFR,,,,,,,,,,,,METAR,107.0
LFQA 171900Z AUTO VRB02KT 9999 SCT028 OVC034 04/02 Q1026,LFQA,2021-01-17T19:00:00Z,49.2,4.15,4.0,2.0,0,2,,6.21,30.295275,,,TRUE,,,,,,,,SCT,2800,OVC,3400,,,,,VFR,,,,,,,,,,,,METAR,92.0
LFPV 171900Z AUTO 31006KT 9999 BKN028 OVC230 04/01 Q1027 NOSIG,LFPV,2021-01-17T19:00:00Z,48.77,2.2,4.0,1.0,310,6,,6.21,30.324802,,,TRUE,,,TRUE,,,,,BKN,2800,OVC,23000,,,,,MVFR,,,,,,,,,,,,METAR,171.0
LFPT 171900Z AUTO 31003KT 9999 OVC030 04/02 Q1027,LFPT,2021-01-17T19:00:00Z,49.1,2.03,4.0,2.0,310,3,,6.21,30.324802,,,TRUE,,,,,,,,OVC,3000,,,,,,,MVFR,,,,,,,,,,,,METAR,91.0
LFPO 171900Z 26003KT 9999 SCT032 BKN220 03/02 Q1027 NOSIG,LFPO,2021-01-17T19:00:00Z,48.72,2.38,3.0,2.0,260,3,,6.21,30.324802,,,,,,TRUE,,,,,SCT,3200,BKN,22000,,,,,VFR,,,,,,,,,,,,METAR,88.0
LFPN 171900Z AUTO 28002KT 9999 BKN029 BKN160 OVC230 02/01 Q1027 NOSIG,LFPN,2021-01-17T19:00:00Z,48.75,2.12,2.0,1.0,280,2,,6.21,30.324802,,,TRUE,,,TRUE,,,,,BKN,2900,BKN,16000,OVC,23000,,,MVFR,,,,,,,,,,,,METAR,152.0
LFPM 171900Z AUTO 28004KT CAVOK 02/01 Q1027,LFPM,2021-01-17T19:00:00Z,48.62,2.67,2.0,1.0,280,4,,6.21,30.324802,,,TRUE,,,,,,,,CAVOK,,,,,,,,VFR,,,,,,,,,,,,METAR,91.0
LFPG 171900Z 28004KT 9999 BKN030 05/03 Q1027 NOSIG,LFPG,2021-01-17T19:00:00Z,49.02,2.53,5.0,3.0,280,4,,6.21,30.324802,,,,,,TRUE,,,,,BKN,3000,,,,,,,MVFR,,,,,,,,,,,,METAR,107.0
LFPB 171900Z AUTO 29004KT 260V320 9999 OVC034 05/03 Q1027 NOSIG,LFPB,2021-01-17T19:00:00Z,48.97,2.42,5.0,3.0,290,4,,6.21,30.324802,,,TRUE,,,TRUE,,,,,OVC,3400,,,,,,,VFR,,,,,,,,,,,,METAR,50.0
LFOZ 171900Z AUTO 00000KT CAVOK 01/00 Q1028,LFOZ,2021-01-17T19:00:00Z,47.9,2.17,1.0,0.0,0,0,,6.21,30.35433,,,TRUE,,,,,,,,CAVOK,,,,,,,,VFR,,,,,,,,,,,,METAR,121.0
LFOV 171900Z AUTO 30004KT 260V330 CAVOK 06/03 Q1029,LFOV,2021-01-17T19:00:00Z,48.03,-0.75,6.0,3.0,300,4,,6.21,30.383858,,,TRUE,,,,,,,,CAVOK,,,,,,,,VFR,,,,,,,,,,,,METAR,99.0
LFOT 171900Z AUTO 28002KT 9999 BKN042 04/01 Q1029 NOSIG,LFOT,2021-01-17T19:00:00Z,47.43,0.72,4.0,1.0,280,2,,6.21,30.383858,,,TRUE,,,TRUE,,,,,BKN,4200,,,,,,,VFR,,,,,,,,,,,,METAR,107.0
LFOP 171900Z AUTO 28005KT 9999 BKN033 OVC170 03/02 Q1027 BECMG 3000 BR,LFOP,2021-01-17T19:00:00Z,49.37,1.17,3.0,2.0,280,5,,6.21,30.324802,,,TRUE,,,,,,,,BKN,3300,OVC,17000,,,,,VFR,,,,,,,,,,,,METAR,149.0
LFOK 171900Z AUTO 30007KT 9999 OVC025 02/01 Q1026 NOSIG,LFOK,2021-01-17T19:00:00Z,48.78,4.15,2.0,1.0,300,7,,6.21,30.295275,,,TRUE,,,TRUE,,,,,OVC,2500,,,,,,,MVFR,,,,,,,,,,,,METAR,166.0
LFOJ 171900Z AUTO 28005KT CAVOK 01/01 Q1028 NOSIG,LFOJ,2021-01-17T19:00:00Z,47.98,1.75,1.0,1.0,280,5,,6.21,30.35433,,,TRUE,,,TRUE,,,,,CAVOK,,,,,,,,VFR,,,,,,,,,,,,METAR,122.0
LFOH 171900Z AUTO 31008KT 9999 BKN041 BKN220 07/03 Q1028 NOSIG,LFOH,2021-01-17T19:00:00Z,49.52,0.08,7.0,3.0,310,8,,6.21,30.35433,,,TRUE,,,TRUE,,,,,BKN,4100,BKN,22000,,,,,VFR,,,,,,,,,,,,METAR,87.0
LFOE 171900Z AUTO 27005KT 9999 FEW030 OVC160 02/01 Q1028 NOSIG,LFOE,2021-01-17T19:00:00Z,49.02,1.22,2.0,1.0,270,5,,6.21,30.35433,,,TRUE,,,TRUE,,,,,FEW,3000,OVC,16000,,,,,VFR,,,,,,,,,,,,METAR,132.0
LFOC 171900Z AUTO 28004KT 9999 ////// 03/01 Q1028,LFOC,2021-01-17T19:00:00Z,48.05,1.37,3.0,1.0,280,4,,6.21,30.35433,,,TRUE,,,,,,,,,,,,,,,,,,,,,,,,,,,,METAR,124.0
LFOB 171900Z AUTO VRB01KT 9999 OVC032 04/03 Q1027 NOSIG,LFOB,2021-01-17T19:00:00Z,49.47,2.12,4.0,3.0,0,1,,6.21,30.324802,,,TRUE,,,TRUE,,,,,OVC,3200,,,,,,,VFR,,,,,,,,,,,,METAR,99.0
LFOA 171900Z AUTO 27002KT 9999 OVC046 03/02 Q1028,LFOA,2021-01-17T19:00:00Z,47.05,2.63,3.0,2.0,270,2,,6.21,30.35433,,,TRUE,,,,,,,,OVC,4600,,,,,,,VFR,,,,,,,,,,,,METAR,174.0
LFMY 171900Z AUTO 33019KT 300V360 CAVOK 07/00 Q1022,LFMY,2021-01-17T19:00:00Z,43.6,5.1,7.0,0.0,330,19,,6.21,30.177166,,,TRUE,,,,,,,,CAVOK,,,,,,,,VFR,,,,,,,,,,,,METAR,57.0
LFMV 171900Z AUTO 35021KT CAVOK 07/01 Q1023 NOSIG,LFMV,2021-01-17T19:00:00Z,43.9,4.9,7.0,1.0,350,21,,6.21,30.206694,,,TRUE,,,TRUE,,,,,CAVOK,,,,,,,,VFR,,,,,,,,,,,,METAR,33.0
LFMU 171900Z AUTO 32010KT CAVOK 08/M00 Q1026 NOSIG,LFMU,2021-01-17T19:00:00Z,43.32,3.35,8.0,0.0,320,10,,6.21,30.295275,,,TRUE,,,TRUE,,,,,CAVOK,,,,,,,,VFR,,,,,,,,,,,,METAR,14.0
LFMT 171900Z AUTO 33009KT CAVOK 07/M03 Q1025 NOSIG,LFMT,2021-01-17T19:00:00Z,43.57,3.97,7.0,-3.0,330,9,,6.21,30.265747,,,TRUE,,,TRUE,,,,,CAVOK,,,,,,,,VFR,,,,,,,,,,,,METAR,1.0
LFMP 171900Z AUTO 30014KT CAVOK 09/00 Q1027 BECMG 31015G25KT,LFMP,2021-01-17T19:00:00Z,42.73,2.87,9.0,0.0,300,14,,6.21,30.324802,,,TRUE,,,,,,,,CAVOK,,,,,,,,VFR,,,,,,,,,,,,METAR,41.0
LFMO 171900Z AUTO 35020KT CAVOK 07/01 Q1024 NOSIG,LFMO,2021-01-17T19:00:00Z,44.13,4.87,7.0,1.0,350,20,,6.21,30.236221,,,TRUE,,,TRUE,,,,,CAVOK,,,,,,,,VFR,,,,,,,,,,,,METAR,56.0
LFMN 171900Z 32008KT CAVOK 07/04 Q1016 NOSIG,LFMN,2021-01-17T19:00:00Z,43.65,7.2,7.0,4.0,320,8,,6.21,30.0,,,,,,TRUE,,,,,CAVOK,,,,,,,,VFR,,,,,,,,,,,,METAR,4.0
LFML 171900Z AUTO 31021KT CAVOK 08/01 Q1022 TEMPO 34020G40KT,LFML,2021-01-17T19:00:00Z,43.45,5.22,8.0,1.0,310,21,,6.21,30.177166,,,TRUE,,,,,,,,CAVOK,,,,,,,,VFR,,,,,,,,,,,,METAR,20.0
LFMK 171900Z AUTO 27009KT 240V300 9999 FEW037 07/03 Q1029,LFMK,2021-01-17T19:00:00Z,43.22,2.32,7.0,3.0,270,9,,6.21,30.383858,,,TRUE,,,,,,,,FEW,3700,,,,,,,VFR,,,,,,,,,,,,METAR,124.0
LFMI 171900Z AUTO 35027G38KT CAVOK 07/01 Q1022 NOSIG,LFMI,2021-01-17T19:00:00Z,43.52,4.93,7.0,1.0,350,27,38,6.21,30.177166,,,TRUE,,,TRUE,,,,,CAVOK,,,,,,,,VFR,,,,,,,,,,,,METAR,20.0
LFMH 171900Z AUTO VRB02KT 9999 SCT024 BKN044 02/01 Q1027 TEMPO 4000 -RA BKN012,LFMH,2021-01-17T19:00:00Z,45.52,4.28,2.0,1.0,0,2,,6.21,30.324802,,,TRUE,,,,,,,,SCT,2400,BKN,4400,,,,,VFR,,,,,,,,,,,,METAR,400.0
LFMD 171900Z AUTO 01003KT 340V040 CAVOK 05/03 Q1016 NOSIG,LFMD,2021-01-17T19:00:00Z,43.53,6.95,5.0,3.0,10,3,,6.21,30.0,,,TRUE,,,TRUE,,,,,CAVOK,,,,,,,,VFR,,,,,,,,,,,,METAR,2.0
LFMC 171900Z AUTO 32018KT 9999 ////// 09/M03 Q1016,LFMC,2021-01-17T19:00:00Z,43.37,6.38,9.0,-3.0,320,18,,6.21,30.0,,,TRUE,,,,,,,,,,,,,,,,,,,,,,,,,,,,METAR,79.0
LFLY 171900Z AUTO 36004KT 9999 FEW025 BKN050 03/01 Q1027 BECMG 3000 BR,LFLY,2021-01-17T19:00:00Z,45.72,4.95,3.0,1.0,360,4,,6.21,30.324802,,,TRUE,,,,,,,,FEW,2500,BKN,5000,,,,,VFR,,,,,,,,,,,,METAR,197.0
LFLX 171900Z AUTO 28006KT 9999 BKN045 03/02 Q1029 NOSIG,LFLX,2021-01-17T19:00:00Z,46.87,1.73,3.0,2.0,280,6,,6.21,30.383858,,,TRUE,,,TRUE,,,,,BKN,4500,,,,,,,VFR,,,,,,,,,,,,METAR,157.0
LFLS 171900Z AUTO 36011KT 9999 BKN016 BKN021 02/01 Q1026 TEMPO 4000 -RA BKN006,LFLS,2021-01-17T19:00:00Z,45.37,5.32,2.0,1.0,360,11,,6.21,30.295275,,,TRUE,,,,,,,,BKN,1600,BKN,2100,,,,,MVFR,,,,,,,,,,,,METAR,386.0
LFLP 171900Z AUTO VRB02KT 4900 BR BKN040 BKN054 BKN076 01/00 Q1026 BECMG 7000 NSW,LFLP,2021-01-17T19:00:00Z,45.92,6.1,1.0,0.0,0,2,,3.04,30.295275,,,TRUE,,,,,,,BR,BKN,4000,BKN,5400,BKN,7600,,,MVFR,,,,,,,,,,,,METAR,460.0
LFLN 171900Z AUTO 00000KT 9999 FEW030 SCT041 BKN056 01/00 Q1028 TEMPO 4000 -RA BKN014,LFLN,2021-01-17T19:00:00Z,46.42,4.02,1.0,0.0,0,0,,6.21,30.35433,,,TRUE,,,,,,,,FEW,3000,SCT,4100,BKN,5600,,,VFR,,,,,,,,,,,,METAR,238.0
LFLL 171900Z VRB03KT 9999 FEW009 BKN019 02/01 Q1027 NOSIG,LFLL,2021-01-17T19:00:00Z,45.72,5.07,2.0,1.0,0,3,,6.21,30.324802,,,,,,TRUE,,,,,FEW,900,BKN,1900,,,,,MVFR,,,,,,,,,,,,METAR,234.0
LFLC 171900Z AUTO 04003KT 360V070 9999 BKN029 02/M01 Q1028 NOSIG,LFLC,2021-01-17T19:00:00Z,45.78,3.17,2.0,-1.0,40,3,,6.21,30.35433,,,TRUE,,,TRUE,,,,,BKN,2900,,,,,,,MVFR,,,,,,,,,,,,METAR,325.0
LFLB 171900Z AUTO 19003KT 160V280 9999 SCT013 SCT029 BKN054 03/02 Q1026 NOSIG,LFLB,2021-01-17T19:00:00Z,45.63,5.87,3.0,2.0,190,3,,6.21,30.295275,,,TRUE,,,TRUE,,,,,SCT,1300,SCT,2900,BKN,5400,,,VFR,,,,,,,,,,,,METAR,234.0
LFKS 171900Z AUTO 00000KT 9999 ////// 09/07 Q1013,LFKS,2021-01-17T19:00:00Z,41.92,9.4,9.0,7.0,0,0,,6.21,29.911417,,,TRUE,,,,,,,,,,,,,,,,,,,,,,,,,,,,METAR,22.0
LFKJ 171900Z AUTO 05005KT CAVOK 07/05 Q1013 NOSIG,LFKJ,2021-01-17T19:00:00Z,41.92,8.8,7.0,5.0,50,5,,6.21,29.911417,,,TRUE,,,TRUE,,,,,CAVOK,,,,,,,,VFR,,,,,,,,,,,,METAR,9.0
LFKF 171900Z AUTO 27006KT CAVOK 08/04 Q1013 TEMPO 30015G25KT RA SCT026TCU,LFKF,2021-01-17T19:00:00Z,41.5,9.08,8.0,4.0,270,6,,6.21,29.911417,,,TRUE,,,,,,,,CAVOK,,,,,,,,VFR,,,,,,,,,,,,METAR,15.0
LFKC 171900Z AUTO 16004KT CAVOK 05/03 Q1014 NOSIG,LFKC,2021-01-17T19:00:00Z,42.52,8.8,5.0,3.0,160,4,,6.21,29.940945,,,TRUE,,,TRUE,,,,,CAVOK,,,,,,,,VFR,,,,,,,,,,,,METAR,38.0
LFKB 171900Z AUTO 25005KT 9999 BKN037 BKN150 07/06 Q1013 TEMPO SHRA FEW026CB BKN027,LFKB,2021-01-17T19:00:00Z,42.55,9.48,7.0,6.0,250,5,,6.21,29.911417,,,TRUE,,,,,,,,BKN,3700,BKN,15000,,,,,VFR,,,,,,,,,,,,METAR,7.0
LFJR 171900Z AUTO VRB02KT CAVOK 05/03 Q1029,LFJR,2021-01-17T19:00:00Z,47.57,-0.32,5.0,3.0,0,2,,6.21,30.383858,,,TRUE,,,,,,,,CAVOK,,,,,,,,VFR,,,,,,,,,,,,METAR,50.0
LFJL 171900Z AUTO 30007KT 9999 OVC008 02/01 Q1024 NOSIG,LFJL,2021-01-17T19:00:00Z,48.97,6.25,2.0,1.0,300,7,,6.21,30.236221,,,TRUE,,,TRUE,,,,,OVC,800,,,,,,,IFR,,,,,,,,,,,,METAR,259.0
LFGJ 171900Z AUTO 19003KT 7000 OVC025 02/01 Q1027,LFGJ,2021-01-17T19:00:00Z,47.05,5.43,2.0,1.0,190,3,,4.35,30.324802,,,TRUE,,,,,,,,OVC,2500,,,,,,,MVFR,,,,,,,,,,,,METAR,191.0
LFGA 171900Z AUTO 18003KT 9999 OVC022 01/M00 Q1025,LFGA,2021-01-17T19:00:00Z,48.1,7.35,1.0,0.0,180,3,,6.21,30.265747,,,TRUE,,,,,,,,OVC,2200,,,,,,,MVFR,,,,,,,,,,,,METAR,191.0
LFCR 171900Z AUTO 32006KT CAVOK 02/M01 Q1027 NOSIG,LFCR,2021-01-17T19:00:00Z,44.4,2.47,2.0,-1.0,320,6,,6.21,30.324802,,,TRUE,,,TRUE,,,,,CAVOK,,,,,,,,VFR,,,,,,,,,,,,METAR,576.0
LFCK 171900Z AUTO 29006KT CAVOK 05/02 Q1029 TEMPO BKN003,LFCK,2021-01-17T19:00:00Z,43.55,2.28,5.0,2.0,290,6,,6.21,30.383858,,,TRUE,,,,,,,,CAVOK,,,,,,,,VFR,,,,,,,,,,,,METAR,223.0
LFBZ 171900Z AUTO VRB03KT 9999 BKN022 BKN033 BKN050 07/07 Q1030 NOSIG,LFBZ,2021-01-17T19:00:00Z,43.47,-1.53,7.0,7.0,0,3,,6.21,30.413385,,,TRUE,,,TRUE,,,,,BKN,2200,BKN,3300,BKN,5000,,,MVFR,,,,,,,,,,,,METAR,70.0
LFBY 171900Z AUTO VRB02KT 7000 // ////// 07/05 Q1030,LFBY,2021-01-17T19:00:00Z,43.68,-1.07,7.0,5.0,0,2,,4.35,30.413385,,,TRUE,,,,,,,,,,,,,,,,,,,,,,,,,,,,METAR,32.0
LFBU 171900Z AUTO /////KT 9999 FEW047 04/02 Q1030,LFBU,2021-01-17T19:00:00Z,45.72,0.22,4.0,2.0,,,,6.21,30.413385,,,TRUE,,,,,,,,FEW,4700,,,,,,,VFR,,,,,,,,,,,,METAR,124.0
LFBT 171900Z AUTO 01002KT 2500 -DZ BR BKN005 OVC010 06/06 Q1029 TEMPO 3000 BR,LFBT,2021-01-17T19:00:00Z,43.18,0.0,6.0,6.0,10,2,,1.55,30.383858,,,TRUE,,,,,,,-DZ BR,BKN,500,OVC,1000,,,,,IFR,,,,,,,,,,,,METAR,359.0
LFBP 171900Z AUTO 02003KT 350V050 9999 BKN028 07/06 Q1030 NOSIG,LFBP,2021-01-17T19:00:00Z,43.38,-0.42,7.0,6.0,20,3,,6.21,30.413385,,,TRUE,,,TRUE,,,,,BKN,2800,,,,,,,MVFR,,,,,,,,,,,,METAR,182.0
LFBO 171900Z AUTO 28004KT CAVOK 04/01 Q1030 NOSIG,LFBO,2021-01-17T19:00:00Z,43.62,1.37,4.0,1.0,280,4,,6.21,30.413385,,,TRUE,,,TRUE,,,,,CAVOK,,,,,,,,VFR,,,,,,,,,,,,METAR,150.0
LFBM 171900Z AUTO 00000KT 9999 0700 R27/P2000 BCFG NSC 03/02 Q1030 BECMG 32010KT,LFBM,2021-01-17T19:00:00Z,43.92,-0.5,3.0,2.0,0,0,,6.21,30.413385,,,TRUE,,,,,,,BCFG,CLR,,,,,,,,VFR,,,,,,,,,,,,METAR,56.0
LFBL 171900Z AUTO 33005KT CAVOK 02/00 Q1028 NOSIG,LFBL,2021-01-17T19:00:00Z,45.87,1.17,2.0,0.0,330,5,,6.21,30.35433,,,TRUE,,,TRUE,,,,,CAVOK,,,,,,,,VFR,,,,,,,,,,,,METAR,402.0
LFBI 171900Z AUTO 28003KT 9999 SCT038 BKN048 05/02 Q1029 NOSIG,LFBI,2021-01-17T19:00:00Z,46.58,0.32,5.0,2.0,280,3,,6.21,30.383858,,,TRUE,,,TRUE,,,,,SCT,3800,BKN,4800,,,,,VFR,,,,,,,,,,,,METAR,117.0
LFBH 171900Z AUTO 33002KT CAVOK 05/03 Q1030 TEMPO 3000 BR,LFBH,2021-01-17T19:00:00Z,46.18,-1.2,5.0,3.0,330,2,,6.21,30.413385,,,TRUE,,,,,,,,CAVOK,,,,,,,,VFR,,,,,,,,,,,,METAR,18.0
LFBG 171900Z AUTO 20001KT CAVOK 04/00 Q1030,LFBG,2021-01-17T19:00:00Z,45.67,-0.32,4.0,0.0,200,1,,6.21,30.413385,,,TRUE,,,,,,,,CAVOK,,,,,,,,VFR,,,,,,,,,,,,METAR,28.0
LFBE 171900Z AUTO 23003KT CAVOK 01/00 Q1030 NOSIG,LFBE,2021-01-17T19:00:00Z,44.82,0.52,1.0,0.0,230,3,,6.21,30.413385,,,TRUE,,,TRUE,,,,,CAVOK,,,,,,,,VFR,,,,,,,,,,,,METAR,49.0
LFBD 171900Z AUTO 26002KT CAVOK 04/02 Q1031 NOSIG,LFBD,2021-01-17T19:00:00Z,44.82,-0.7,4.0,2.0,260,2,,6.21,30.442913,,,TRUE,,,TRUE,,,,,CAVOK,,,,,,,,VFR,,,,,,,,,,,,METAR,48.0
LFBC 171900Z AUTO 34002KT CAVOK 04/03 Q1031,LFBC,2021-01-17T19:00:00Z,44.52,-1.12,4.0,3.0,340,2,,6.21,30.442913,,,TRUE,,,,,,,,CAVOK,,,,,,,,VFR,,,,,,,,,,,,METAR,22.0
LFBA 171900Z AUTO 00000KT CAVOK 03/01 Q1030 NOSIG,LFBA,2021-01-17T19:00:00Z,44.17,0.6,3.0,1.0,0,0,,6.21,30.413385,,,TRUE,,,TRUE,,,,,CAVOK,,,,,,,,VFR,,,,,,,,,,,,METAR,68.0
LFAT 171900Z AUTO 31007KT 9999 SCT029 BKN037 BKN230 07/02 Q1026,LFAT,2021-01-17T19:00:00Z,50.52,1.62,7.0,2.0,310,7,,6.21,30.295275,,,TRUE,,,,,,,,SCT,2900,BKN,3700,BKN,23000,,,VFR,,,,,,,,,,,,METAR,2.0
LFAQ 171900Z AUTO 28003KT 9999 BKN033 03/02 Q1026,LFAQ,2021-01-17T19:00:00Z,49.97,2.7,3.0,2.0,280,3,,6.21,30.295275,,,TRUE,,,,,,,,BKN,3300,,,,,,,VFR,,,,,,,,,,,,METAR,107.0
LFAC 171900Z AUTO 30008KT 9999 OVC026 06/03 Q1026,LFAC,2021-01-17T19:00:00Z,50.97,1.95,6.0,3.0,300,8,,6.21,30.295275,,,TRUE,,,,,,,,OVC,2600,,,,,,,MVFR,,,,,,,,,,,,METAR,3.0
LEZL 171900Z VRB02KT CAVOK 09/04 Q1026 NOSIG,LEZL,2021-01-17T19:00:00Z,37.42,-5.9,9.0,4.0,0,2,,6.21,30.295275,,,,,,TRUE,,,,,CAVOK,,,,,,,,VFR,,,,,,,,,,,,METAR,26.0
LEZG 171900Z 28009KT CAVOK 10/06 Q1027,LEZG,2021-01-17T19:00:00Z,41.67,-1.02,10.0,6.0,280,9,,6.21,30.324802,,,,,,,,,,,CAVOK,,,,,,,,VFR,,,,,,,,,,,,METAR,245.0
LEXJ 171900Z 23002KT 9999 FEW008 BKN016 11/11 Q1030,LEXJ,2021-01-17T19:00:00Z,43.42,-3.82,11.0,11.0,230,2,,6.21,30.413385,,,,,,,,,,,FEW,800,BKN,1600,,,,,MVFR,,,,,,,,,,,,METAR,1.0
LEVX 171900Z 36005KT CAVOK 10/08 Q1029 NOSIG,LEVX,2021-01-17T19:00:00Z,42.23,-8.62,10.0,8.0,360,5,,6.21,30.383858,,,,,,TRUE,,,,,CAVOK,,,,,,,,VFR,,,,,,,,,,,,METAR,253.0
LEVT 171900Z 27002KT 2800 -DZ BR FEW005 SCT014 BKN030 08/08 Q1029,LEVT,2021-01-17T19:00:00Z,42.87,-2.72,8.0,8.0,270,2,,1.74,30.383858,,,,,,,,,,-DZ BR,FEW,500,SCT,1400,BKN,3000,,,IFR,,,,,,,,,,,,METAR,501.0
LEVS 171900Z 03001KT CAVOK 01/M03 Q1028 R/SNOCLO,LEVS,2021-01-17T19:00:00Z,40.37,-3.78,1.0,-3.0,30,1,,6.21,30.35433,,,,,,,,,,SN,CAVOK,,,,,,,,VFR,,,,,,,,,,,,SPECI,683.0
LEVD 171900Z VRB01KT 5000 BR FEW044 M01/M01 Q1029,LEVD,2021-01-17T19:00:00Z,41.72,-4.85,-1.0,-1.0,0,1,,3.11,30.383858,,,,,,,,,,BR,FEW,4400,,,,,,,MVFR,,,,,,,,,,,,METAR,844.0
LEVC 171900Z 27004KT CAVOK 11/03 Q1025 NOSIG,LEVC,2021-01-17T19:00:00Z,39.5,-0.47,11.0,3.0,270,4,,6.21,30.265747,,,,,,TRUE,,,,,CAVOK,,,,,,,,VFR,,,,,,,,,,,,METAR,58.0
LETU 171900Z AUTO 31010KT 9999 NSC 10/06 Q1028,LETU,2021-01-17T19:00:00Z,,,10.0,6.0,310,10,,6.21,30.35433,,,TRUE,,,,,,,,CLR,,,,,,,,VFR,,,,,,,,,,,,METAR,
LETO 171900Z 02006KT CAVOK M02/M05 Q1029 NOSIG,LETO,2021-01-17T19:00:00Z,40.48,-3.47,-2.0,-5.0,20,6,,6.21,30.383858,,,,,,TRUE,,,,,CAVOK,,,,,,,,VFR,,,,,,,,,,,,METAR,598.0
LETL 171900Z AUTO 32005KT CAVOK M01/M06 Q1028,LETL,2021-01-17T19:00:00Z,40.42,-1.22,-1.0,-6.0,320,5,,6.21,30.35433,,,TRUE,,,,,,,,CAVOK,,,,,,,,VFR,,,,,,,,,,,,METAR,1024.0
LEST 171900Z 06003KT 020V110 9999 FEW012 BKN017 10/09 Q1030 NOSIG,LEST,2021-01-17T19:00:00Z,42.88,-8.42,10.0,9.0,60,3,,6.21,30.413385,,,,,,TRUE,,,,,FEW,1200,BKN,1700,,,,,MVFR,,,,,,,,,,,,METAR,363.0
LESO 171900Z 22003KT 200V260 9999 SCT012 BKN025 08/08 Q1031,LESO,2021-01-17T19:00:00Z,43.35,-1.8,8.0,8.0,220,3,,6.21,30.442913,,,,,,,,,,,SCT,1200,BKN,2500,,,,,MVFR,,,,,,,,,,,,METAR,3.0
LESB 171900Z AUTO 20008KT 090V240 CAVOK 14/07 Q1024,LESB,2021-01-17T19:00:00Z,39.6,2.7,14.0,7.0,200,8,,6.21,30.236221,,,TRUE,,,,,,,,CAVOK,,,,,,,,VFR,,,,,,,,,,,,METAR,48.0
LESA 171900Z AUTO 00000KT CAVOK M01/M04 Q1030,LESA,2021-01-17T19:00:00Z,40.95,-5.5,-1.0,-4.0,0,0,,6.21,30.413385,,,TRUE,,,,,,,,CAVOK,,,,,,,,VFR,,,,,,,,,,,,METAR,788.0
LERT 171900Z 33005KT CAVOK 09/06 Q1026 NOSIG,LERT,2021-01-17T19:00:00Z,36.63,-6.33,9.0,6.0,330,5,,6.21,30.295275,,,,,,TRUE,,,,,CAVOK,,,,,,,,VFR,,,,,,,,,,,,METAR,27.0
LERS 171900Z 31007KT 240V020 CAVOK 15/06 Q1022,LERS,2021-01-17T19:00:00Z,41.13,1.17,15.0,6.0,310,7,,6.21,30.177166,,,,,,,,,,,CAVOK,,,,,,,,VFR,,,,,,,,,,,,METAR,68.0
LEPP 171900Z 33006KT 9999 SCT017 OVC023 09/07 Q1028,LEPP,2021-01-17T19:00:00Z,42.77,-1.65,9.0,7.0,330,6,,6.21,30.35433,,,,,,,,,,,SCT,1700,OVC,2300,,,,,MVFR,,,,,,,,,,,,METAR,448.0
LEPA 171900Z 20006KT 150V250 CAVOK 15/07 Q1023 NOSIG,LEPA,2021-01-17T19:00:00Z,39.55,2.73,15.0,7.0,200,6,,6.21,30.206694,,,,,,TRUE,,,,,CAVOK,,,,,,,,VFR,,,,,,,,,,,,METAR,8.0
LEMO 171900Z 01002KT CAVOK 08/03 Q1026 NOSIG,LEMO,2021-01-17T19:00:00Z,37.17,-5.62,8.0,3.0,10,2,,6.21,30.295275,,,,,,TRUE,,,,,CAVOK,,,,,,,,VFR,,,,,,,,,,,,METAR,82.0
LEMI 171900Z 26004KT 230V290 CAVOK 14/M04 Q1025,LEMI,2021-01-17T19:00:00Z,37.8,-1.12,14.0,-4.0,260,4,,6.21,30.265747,,,,,,,,,,,CAVOK,,,,,,,,VFR,,,,,,,,,,,,METAR,193.0
LEMH 171900Z 01010KT CAVOK 09/06 Q1023,LEMH,2021-01-17T19:00:00Z,39.87,4.22,9.0,6.0,10,10,,6.21,30.206694,,,,,,,,,,,CAVOK,,,,,,,,VFR,,,,,,,,,,,,METAR,82.0
LEMG 171900Z 29002KT 6000 FEW015 SCT050 11/09 Q1026 NOSIG,LEMG,2021-01-17T19:00:00Z,36.67,-4.47,11.0,9.0,290,2,,3.73,30.295275,,,,,,TRUE,,,,,FEW,1500,SCT,5000,,,,,MVFR,,,,,,,,,,,,METAR,5.0
LEMD 171900Z 01001KT CAVOK M01/M05 Q1029 NOSIG,LEMD,2021-01-17T19:00:00Z,40.45,-3.57,-1.0,-5.0,10,1,,6.21,30.383858,,,,,,TRUE,,,,,CAVOK,,,,,,,,VFR,,,,,,,,,,,,METAR,589.0
LELO 171900Z 29006KT 250V320 9999 BKN035 09/05 Q1029,LELO,2021-01-17T19:00:00Z,42.45,-2.32,9.0,5.0,290,6,,6.21,30.383858,,,,,,,,,,,BKN,3500,,,,,,,VFR,,,,,,,,,,,,METAR,352.0
LELN 171900Z 20004KT 170V330 9999 FEW037 01/M00 Q1029,LELN,2021-01-17T19:00:00Z,42.58,-5.65,1.0,0.0,200,4,,6.21,30.383858,,,,,,,,,,,FEW,3700,,,,,,,VFR,,,,,,,,,,,,METAR,911.0
LELL 171900Z AUTO 28003KT CAVOK 07/03 Q1023,LELL,2021-01-17T19:00:00Z,41.52,2.1,7.0,3.0,280,3,,6.21,30.206694,,,TRUE,,,,,,,,CAVOK,,,,,,,,VFR,,,,,,,,,,,,METAR,136.0
LELC 171900Z 25007KT CAVOK 11/07 Q1025 NOSIG,LELC,2021-01-17T19:00:00Z,37.77,-0.8,11.0,7.0,250,7,,6.21,30.265747,,,,,,TRUE,,,,,CAVOK,,,,,,,,VFR,,,,,,,,,,,,METAR,3.0
LEJR 171900Z 00000KT CAVOK 09/07 Q1026,LEJR,2021-01-17T19:00:00Z,36.75,-6.07,9.0,7.0,0,0,,6.21,30.295275,,,,,,,,,,,CAVOK,,,,,,,,VFR,,,,,,,,,,,,METAR,25.0
LEIB 171900Z 24008KT CAVOK 12/10 Q1023 NOSIG,LEIB,2021-01-17T19:00:00Z,38.87,1.38,12.0,10.0,240,8,,6.21,30.206694,,,,,,TRUE,,,,,CAVOK,,,,,,,,VFR,,,,,,,,,,,,METAR,4.0
LEHC 171900Z AUTO 29018KT CAVOK 09/05 Q1024,LEHC,2021-01-17T19:00:00Z,42.08,-0.32,9.0,5.0,290,18,,6.21,30.236221,,,TRUE,,,,,,,,CAVOK,,,,,,,,VFR,,,,,,,,,,,,METAR,540.0
LEGR 171900Z 00000KT CAVOK 06/01 Q1027,LEGR,2021-01-17T19:00:00Z,37.18,-3.78,6.0,1.0,0,0,,6.21,30.324802,,,,,,,,,,,CAVOK,,,,,,,,VFR,,,,,,,,,,,,METAR,560.0
LEGE 171900Z 01003KT 320V060 CAVOK 08/04 Q1024,LEGE,2021-01-17T19:00:00Z,41.9,2.77,8.0,4.0,10,3,,6.21,30.236221,,,,,,,,,,,CAVOK,,,,,,,,VFR,,,,,,,,,,,,METAR,140.0
LEDA 171900Z 27004KT 230V310 CAVOK 09/07 Q1023,LEDA,2021-01-17T19:00:00Z,41.73,0.53,9.0,7.0,270,4,,6.21,30.206694,,,,,,,,,,,CAVOK,,,,,,,,VFR,,,,,,,,,,,,METAR,352.0
LECO 171900Z VRB02KT 9999 SCT011 OVC028 12/12 Q1031 TEMPO 3000 BR,LECO,2021-01-17T19:00:00Z,43.3,-8.37,12.0,12.0,0,2,,6.21,30.442913,,,,,,,,,,,SCT,1100,OVC,2800,,,,,MVFR,,,,,,,,,,,,SPECI,80.0
LECH 171900Z AUTO 30016G27KT 250V340 CAVOK 15/03 Q1024,LECH,2021-01-17T19:00:00Z,40.92,-1.28,15.0,3.0,300,16,27,6.21,30.236221,,,TRUE,,,,,,,,CAVOK,,,,,,,,VFR,,,,,,,,,,,,METAR,885.0
LEBZ 171900Z 00000KT CAVOK 07/04 Q1028,LEBZ,2021-01-17T19:00:00Z,38.87,-6.82,7.0,4.0,0,0,,6.21,30.35433,,,,,,,,,,,CAVOK,,,,,,,,VFR,,,,,,,,,,,,METAR,183.0
LEBT 171900Z AUTO 35008G20KT 260V060 CAVOK 16/02 Q1024,LEBT,2021-01-17T19:00:00Z,39.58,-0.45,16.0,2.0,350,8,20,6.21,30.236221,,,TRUE,,,,,,,,CAVOK,,,,,,,,VFR,,,,,,,,,,,,METAR,50.0
LEBR 171900Z AUTO 31009KT 9999 SCT037 OVC066 10/07 Q1028,LEBR,2021-01-17T19:00:00Z,42.2,-1.43,10.0,7.0,310,9,,6.21,30.35433,,,TRUE,,,,,,,,SCT,3700,OVC,6600,,,,,VFR,,,,,,,,,,,,METAR,347.0
LEBL 171900Z VRB02KT CAVOK 09/05 Q1023 NOSIG,LEBL,2021-01-17T19:00:00Z,41.28,2.07,9.0,5.0,0,2,,6.21,30.206694,,,,,,TRUE,,,,,CAVOK,,,,,,,,VFR,,,,,,,,,,,,METAR,2.0
LEBG 171900Z 00000KT 9999 BKN013 01/M00 Q1029,LEBG,2021-01-17T19:00:00Z,42.37,-3.62,1.0,0.0,0,0,,6.21,30.383858,,,,,,,,,,,BKN,1300,,,,,,,MVFR,,,,,,,,,,,,METAR,892.0
LEBB 171900Z 10004KT 060V150 5000 BR SCT004 BKN010 10/10 Q1030 TEMPO 3000 -DZ BKN010,LEBB,2021-01-17T19:00:00Z,43.28,-2.92,10.0,10.0,100,4,,3.11,30.413385,,,,,,,,,,BR,SCT,400,BKN,1000,,,,,MVFR,,,,,,,,,,,,SPECI,38.0
LEBA 171900Z 00000KT CAVOK 06/03 Q1027,LEBA,2021-01-17T19:00:00Z,37.85,-4.83,6.0,3.0,0,0,,6.21,30.324802,,,,,,,,,,,CAVOK,,,,,,,,VFR,,,,,,,,,,,,METAR,88.0
LEAS 171900Z 29007KT 5000 -DZ FEW005 BKN009 11/10 Q1030 TEMPO 3000 DZ,LEAS,2021-01-17T19:00:00Z,43.57,-6.03,11.0,10.0,290,7,,3.11,30.413385,,,,,,,,,,-DZ,FEW,500,BKN,900,,,,,IFR,,,,,,,,,,,,SPECI,120.0
LEAM 171900Z 02002KT CAVOK 11/09 Q1026,LEAM,2021-01-17T19:00:00Z,36.85,-2.37,11.0,9.0,20,2,,6.21,30.295275,,,,,,,,,,,CAVOK,,,,,,,,VFR,,,,,,,,,,,,METAR,16.0
LEAL 171900Z 31017KT CAVOK 17/M09 Q1024 NOSIG,LEAL,2021-01-17T19:00:00Z,38.27,-0.55,17.0,-9.0,310,17,,6.21,30.236221,,,,,,TRUE,,,,,CAVOK,,,,,,,,VFR,,,,,,,,,,,,METAR,26.0
LEAG 171900Z AUTO 29006KT 260V340 CAVOK 15/09 Q1027,LEAG,2021-01-17T19:00:00Z,36.12,-5.45,15.0,9.0,290,6,,6.21,30.324802,,,TRUE,,,,,,,,CAVOK,,,,,,,,VFR,,,,,,,,,,,,METAR,4.0
LEAB 171900Z 09003KT CAVOK 00/M04 Q1028 NOSIG,LEAB,2021-01-17T19:00:00Z,38.95,-1.85,0.0,-4.0,90,3,,6.21,30.35433,,,,,,TRUE,,,,,CAVOK,,,,,,,,VFR,,,,,,,,,,,,METAR,704.0
LDZD 171900Z 09008KT 050V130 9999 FEW030 03/M04 Q1017 NOSIG,LDZD,2021-01-17T19:00:00Z,44.1,15.33,3.0,-4.0,90,8,,6.21,30.029528,,,,,,TRUE,,,,,FEW,3000,,,,,,,VFR,,,,,,,,,,,,METAR,82.0
LDZA 171900Z 00000KT 8000 -SN FEW025 M02/M03 Q1021 NOSIG,LDZA,2021-01-17T19:00:00Z,45.72,16.07,-2.0,-3.0,0,0,,4.97,30.147638,,,,,,TRUE,,,,-SN,FEW,2500,,,,,,,MVFR,,,,,,,,,,,,METAR,103.0
LDSP 171900Z 35007KT CAVOK 01/M04 Q1017 NOSIG,LDSP,2021-01-17T19:00:00Z,43.53,16.3,1.0,-4.0,350,7,,6.21,30.029528,,,,,,TRUE,,,,,CAVOK,,,,,,,,VFR,,,,,,,,,,,,METAR,16.0
LDRI 171900Z VRB03KT 9999 SCT045 02/M06 Q1018,LDRI,2021-01-17T19:00:00Z,45.22,14.57,2.0,-6.0,0,3,,6.21,30.059055,,,,,,,,,,,SCT,4500,,,,,,,VFR,,,,,,,,,,,,METAR,80.0
LDPL 171900Z 08009KT 9999 FEW032 03/M01 Q1017,LDPL,2021-01-17T19:00:00Z,44.88,13.92,3.0,-1.0,80,9,,6.21,30.029528,,,,,,,,,,,FEW,3200,,,,,,,VFR,,,,,,,,,,,,METAR,63.0
LDOS 171900Z 34003KT 9999 SCT030 M04/M04 Q1020 R11///////,LDOS,2021-01-17T19:00:00Z,45.47,18.82,-4.0,-4.0,340,3,,6.21,30.11811,,,,,,,,,,,SCT,3000,,,,,,,VFR,,,,,,,,,,,,METAR,82.0
LDDU 171900Z 03012KT 300V080 9999 FEW023 BKN040 01/M02 Q1016 TEMPO 03020G30KT,LDDU,2021-01-17T19:00:00Z,42.57,18.27,1.0,-2.0,30,12,,6.21,30.0,,,,,,,,,,,FEW,2300,BKN,4000,,,,,VFR,,,,,,,,,,,,METAR,156.0
LCPH 171900Z 29027KT 9999 FEW030 BKN043 14/05 Q1010,LCPH,2021-01-17T19:00:00Z,34.72,32.47,14.0,5.0,290,27,,6.21,29.822834,,,,,,,,,,,FEW,3000,BKN,4300,,,,,VFR,,,,,,,,,,,,METAR,8.0
LCLK 171900Z 24014KT 9999 FEW020 12/05 Q1008 NOSIG,LCLK,2021-01-17T19:00:00Z,34.87,33.62,12.0,5.0,240,14,,6.21,29.763779,,,,,,TRUE,,,,,FEW,2000,,,,,,,VFR,,,,,,,,,,,,METAR,2.0
LBWN 171900Z 33011KT CAVOK M05/M08 Q1017 NOSIG,LBWN,2021-01-17T19:00:00Z,43.22,27.82,-5.0,-8.0,330,11,,6.21,30.029528,,,,,,TRUE,,,,,CAVOK,,,,,,,,VFR,,,,,,,,,,,,METAR,74.0
LBSF 171900Z 31005KT 280V350 9999 BKN035 OVC074 M06/M09 Q1015 NOSIG,LBSF,2021-01-17T19:00:00Z,42.65,23.37,-6.0,-9.0,310,5,,6.21,29.970472,,,,,,TRUE,,,,,BKN,3500,OVC,7400,,,,,VFR,,,,,,,,,,,,METAR,592.0
LBPL 171900Z 24002KT 9999 SCT100 M05/M09 Q1019,LBPL,2021-01-17T19:00:00Z,43.45,24.5,-5.0,-9.0,240,2,,6.21,30.088583,,,,,,,,,,,SCT,10000,,,,,,,VFR,,,,,,,,,,,,METAR,93.0
LBPG 171900Z 00000KT 9999 BKN060 M03/M12 Q1017,LBPG,2021-01-17T19:00:00Z,42.28,24.72,-3.0,-12.0,0,0,,6.21,30.029528,,,,,,,,,,,BKN,6000,,,,,,,VFR,,,,,,,,,,,,METAR,198.0
LBPD 171900Z AUTO 32001KT 9999 OVC056 M02/M11 Q1018 NOSIG,LBPD,2021-01-17T19:00:00Z,42.05,24.85,-2.0,-11.0,320,1,,6.21,30.059055,,,TRUE,,,TRUE,,,,,OVC,5600,,,,,,,VFR,,,,,,,,,,,,METAR,182.0
LBIA 171900Z 07004KT 9999 SKC M05/M11 Q1018,LBIA,2021-01-17T19:00:00Z,42.45,26.35,-5.0,-11.0,70,4,,6.21,30.059055,,,,,,,,,,,SKC,,,,,,,,VFR,,,,,,,,,,,,METAR,155.0
LBGO 171900Z AUTO 11002KT 1500 1000W R/////// BR NCD M12/M12 Q1019 R99/29//95,LBGO,2021-01-17T19:00:00Z,43.15,25.72,-12.0,-12.0,110,2,,0.93,30.088583,,,TRUE,,,,,,,BR,CLR,,,,,,,,LIFR,,,,,,,,,,,,METAR,84.0
LBBG 171900Z 29004KT 250V310 CAVOK M04/M08 Q1018 NOSIG,LBBG,2021-01-17T19:00:00Z,42.57,27.52,-4.0,-8.0,290,4,,6.21,30.059055,,,,,,TRUE,,,,,CAVOK,,,,,,,,VFR,,,,,,,,,,,,METAR,41.0
KW99 171900Z AUTO 21003KT 10SM BKN042 OVC048 06/M02 A2974 RMK AO2 T00551022,KW99,2021-01-17T19:00:00Z,39.0,-79.15,5.5,-2.2,210,3,,10.0,29.740158,,,TRUE,TRUE,,,,,,,BKN,4200,OVC,4800,,,,,VFR,,,,,,,,,,,,METAR,288.0
KQEX 171900Z AUTO 14004KT 9999 OVC037 M03/M10 A3011 RMK A02 TSNO,KQEX,2021-01-17T19:00:00Z,,,-3.0,-10.0,140,4,,6.21,30.109253,,,TRUE,TRUE,,,TRUE,,,,OVC,3700,,,,,,,VFR,,,,,,,,,,,,METAR,
KNEL 171900Z AUTO 26012G21KT 10SM OVC050 07/M02 A2966 RMK AO2 PK WND 29028/1828 SLP042 T00671022 $,KNEL,2021-01-17T19:00:00Z,40.03,-74.33,6.7,-2.2,260,12,21,10.0,29.660433,1004.2,,TRUE,TRUE,TRUE,,,,,,OVC,5000,,,,,,,VFR,,,,,,,,,,,,METAR,26.0
KMP1 171900Z 20011G20KT -1/ A2993 RMK 4/019 SOG 19.0 ,KMP1,2021-01-17T19:00:00Z,,,,,200,11,20,,29.929134,,,,,,,,,,,,,,,,,,,,,,,,,,,,,19.0,,METAR,
KLHQ 171900Z AUTO 22008KT 8SM -SN BKN012 OVC020 02/00 A2972 RMK AO2 SNB1854 P0000 T00220000,KLHQ,2021-01-17T19:00:00Z,39.75,-82.67,2.2,0.0,220,8,,8.0,29.719488,,,TRUE,TRUE,,,,,,-SN,BKN,1200,OVC,2000,,,,,MVFR,,,,,,0.005,,,,,,SPECI,259.0
KFDY 171900Z AUTO 24007KT 4SM -SN BR SCT008 BKN014 OVC028 02/00 A2967 RMK AO2 P0000 T00220000,KFDY,2021-01-17T19:00:00Z,41.02,-83.67,2.2,0.0,240,7,,4.0,29.66929,,,TRUE,TRUE,,,,,,-SN BR,SCT,800,BKN,1400,OVC,2800,,,MVFR,,,,,,0.005,,,,,,SPECI,247.0
KDZB 171900Z AUTO 35005KT 10SM CLR 16/M03 A3013 RMK AO2,KDZB,2021-01-17T19:00:00Z,30.53,-98.37,16.0,-3.0,350,5,,10.0,30.129921,,,TRUE,TRUE,,,,,,,CLR,,,,,,,,VFR,,,,,,,,,,,,METAR,329.0
KAQW 171900Z AUTO 28013G22KT 4SM -SN BKN024 OVC030 02/M02 A2947 RMK AO2 P0000 T00221022,KAQW,2021-01-17T19:00:00Z,42.7,-73.17,2.2,-2.2,280,13,22,4.0,29.471457,,,TRUE,TRUE,,,,,,-SN,BKN,2400,OVC,3000,,,,,MVFR,,,,,,0.005,,,,,,SPECI,196.0
KAGC 171900Z 23007KT 4SM -SN BR BKN011 OVC018 01/M01 A2968 RMK AO2 P0000 T00111006,KAGC,2021-01-17T19:00:00Z,40.35,-79.92,1.1,-0.6,230,7,,4.0,29.681103,,,,TRUE,,,,,,-SN BR,BKN,1100,OVC,1800,,,,,MVFR,,,,,,0.005,,,,,,SPECI,380.0
K0A9 171900Z AUTO 25005KT 10SM OVC037 04/M03 A2981 RMK AO2,K0A9,2021-01-17T19:00:00Z,36.37,-82.17,4.0,-3.0,250,5,,10.0,29.811024,,,TRUE,TRUE,,,,,,,OVC,3700,,,,,,,VFR,,,,,,,,,,,,METAR,479.0
HTZA 171900Z 05010KT 9999 FEW012 27/24 Q1009 NOSIG,HTZA,2021-01-17T19:00:00Z,-6.22,39.22,27.0,24.0,50,10,,6.21,29.793306,,,,,,TRUE,,,,,FEW,1200,,,,,,,VFR,,,,,,,,,,,,SPECI,19.0
HTTB 171900Z 00000KT 9999 FEW017 21/20 Q1016 NOSIG,HTTB,2021-01-17T19:00:00Z,-5.07,32.82,21.0,20.0,0,0,,6.21,30.0,,,,,,TRUE,,,,,FEW,1700,,,,,,,VFR,,,,,,,,,,,,SPECI,1185.0
HTSU 171900Z 00000KT 9999 FEW018 FEW020CB SCT200 17/16 Q1021,HTSU,2021-01-17T19:00:00Z,-7.95,31.6,17.0,16.0,0,0,,6.21,30.147638,,,,,,,,,,,FEW,1800,FEW,2000,SCT,20000,,,VFR,,,,,,,,,,,,SPECI,1820.0
HTSO 171900Z 11003KT 9999 FEW020 FEW021CB 23/19 Q1014,HTSO,2021-01-17T19:00:00Z,-10.67,35.58,23.0,19.0,110,3,,6.21,29.940945,,,,,,,,,,,FEW,2000,FEW,2100,,,,,VFR,,,,,,,,,,,,SPECI,1058.0
HTMW 171900Z 00000KT 9999 FEW021 FEW022CB 20/19 Q1014 NOSIG,HTMW,2021-01-17T19:00:00Z,-2.43,32.92,20.0,19.0,0,0,,6.21,29.940945,,,,,,TRUE,,,,,FEW,2100,FEW,2200,,,,,VFR,,,,,,,,,,,,SPECI,1144.0
HTMU 171900Z 00000KT 9999 FEW014 FEW016CB BKN090 22/19 Q1016,HTMU,2021-01-17T19:00:00Z,-1.5,33.8,22.0,19.0,0,0,,6.21,30.0,,,,,,,,,,,FEW,1400,FEW,1600,BKN,9000,,,VFR,,,,,,,,,,,,SPECI,1154.0
HTMT 171900Z 36010KT 9999 FEW022 FEW023CB 27/25 Q1009,HTMT,2021-01-17T19:00:00Z,-10.33,40.18,27.0,25.0,360,10,,6.21,29.793306,,,,,,,,,,,FEW,2200,FEW,2300,,,,,VFR,,,,,,,,,,,,SPECI,114.0
HTMG 171900Z 00000KT 9999 FEW024 25/22 Q1012,HTMG,2021-01-17T19:00:00Z,-6.78,37.65,25.0,22.0,0,0,,6.21,29.88189,,,,,,,,,,,FEW,2400,,,,,,,VFR,,,,,,,,,,,,SPECI,512.0
HTKJ 171900Z 09010KT 9999 FEW028 25/18 Q1014 NOSIG,HTKJ,2021-01-17T19:00:00Z,-3.42,37.07,25.0,18.0,90,10,,6.21,29.940945,,,,,,TRUE,,,,,FEW,2800,,,,,,,VFR,,,,,,,,,,,,SPECI,893.0
HTKA 171900Z 00000KT 9999 FEW020 FEW021CB BKN090 23/21 Q1013 NOSIG,HTKA,2021-01-17T19:00:00Z,-4.88,29.67,23.0,21.0,0,0,,6.21,29.911417,,,,,,TRUE,,,,,FEW,2000,FEW,2100,BKN,9000,,,VFR,,,,,,,,,,,,SPECI,819.0
HTIR 171900Z 19004KT 9999 FEW022 20/17 Q1017,HTIR,2021-01-17T19:00:00Z,-7.67,35.75,20.0,17.0,190,4,,6.21,30.029528,,,,,,,,,,,FEW,2200,,,,,,,VFR,,,,,,,,,,,,SPECI,1432.0
HTIB 171900Z 00000KT 9999 SCT022 FEW023CB SCT080 23/19 Q1014,HTIB,2021-01-17T19:00:00Z,,,23.0,19.0,0,0,,6.21,29.940945,,,,,,,,,,,SCT,2200,FEW,2300,SCT,8000,,,VFR,,,,,,,,,,,,SPECI,
HTDO 171900Z 00000KT 9999 FEW021 FEW022CB 22/19 Q1015 NOSIG,HTDO,2021-01-17T19:00:00Z,-6.17,35.77,22.0,19.0,0,0,,6.21,29.970472,,,,,,TRUE,,,,,FEW,2100,FEW,2200,,,,,VFR,,,,,,,,,,,,SPECI,1119.0
HTDA 171900Z 06018KT 9999 SCT010 27/24 Q1010 NOSIG,HTDA,2021-01-17T19:00:00Z,-6.88,39.2,27.0,24.0,60,18,,6.21,29.822834,,,,,,TRUE,,,,,SCT,1000,,,,,,,VFR,,,,,,,,,,,,SPECI,53.0
HTBU 171900Z 00000KT 9999 FEW019 FEW021CB 20/18 Q1014,HTBU,2021-01-17T19:00:00Z,-1.32,31.82,20.0,18.0,0,0,,6.21,29.940945,,,,,,,,,,,FEW,1900,FEW,2100,,,,,VFR,,,,,,,,,,,,SPECI,1144.0
HTAR 171900Z 00000KT 9999 SCT026 BKN090 22/16 Q1018 NOSIG,HTAR,2021-01-17T19:00:00Z,-3.37,36.63,22.0,16.0,0,0,,6.21,30.059055,,,,,,TRUE,,,,,SCT,2600,BKN,9000,,,,,VFR,,,,,,,,,,,,SPECI,1386.0
HSSS 171900Z 36008KT CAVOK 26/02 Q1014 NOSIG,HSSS,2021-01-17T19:00:00Z,15.58,32.55,26.0,2.0,360,8,,6.21,29.940945,,,,,,TRUE,,,,,CAVOK,,,,,,,,VFR,,,,,,,,,,,,METAR,387.0
HECA 171900Z 30005KT 6000 SCT025 BKN030 14/10 Q1017 NOSIG,HECA,2021-01-17T19:00:00Z,30.12,31.4,14.0,10.0,300,5,,3.73,30.029528,,,,,,TRUE,,,,,SCT,2500,BKN,3000,,,,,MVFR,,,,,,,,,,,,METAR,68.0
GVSV 171900Z 05024KT 8000 NSC 23/15 Q1013 NOSIG,GVSV,2021-01-17T19:00:00Z,16.83,-25.07,23.0,15.0,50,24,,4.97,29.911417,,,,,,TRUE,,,,,CLR,,,,,,,,MVFR,,,,,,,,,,,,METAR,16.0
GVNP 171900Z 03016KT 7000 NSC 23/16 Q1013 NOSIG,GVNP,2021-01-17T19:00:00Z,14.95,-23.48,23.0,16.0,30,16,,4.35,29.911417,,,,,,TRUE,,,,,CLR,,,,,,,,MVFR,,,,,,,,,,,,METAR,70.0
GVBA 171900Z 05010KT 6000 NSC 23/16 Q1013 NOSIG,GVBA,2021-01-17T19:00:00Z,16.13,-22.88,23.0,16.0,50,10,,3.73,29.911417,,,,,,TRUE,,,,,CLR,,,,,,,,MVFR,,,,,,,,,,,,METAR,23.0
GVAC 171900Z 07018KT 6000 NSC 22/15 Q1014 NOSIG,GVAC,2021-01-17T19:00:00Z,16.73,-22.93,22.0,15.0,70,18,,3.73,29.940945,,,,,,TRUE,,,,,CLR,,,,,,,,MVFR,,,,,,,,,,,,METAR,54.0
GQPP 171900Z 07008KT 7000 NSC 21/08 Q1017 NOSIG,GQPP,2021-01-17T19:00:00Z,20.92,-17.02,21.0,8.0,70,8,,4.35,30.029528,,,,,,TRUE,,,,,CLR,,,,,,,,MVFR,,,,,,,,,,,,METAR,5.0
GQNO 171900Z 08009KT 3500 BLSA NSC 25/M12 Q1014 NOSIG,GQNO,2021-01-17T19:00:00Z,18.3,-15.97,25.0,-12.0,80,9,,2.17,29.940945,,,,,,TRUE,,,,BLSA,CLR,,,,,,,,IFR,,,,,,,,,,,,METAR,1.0
GOTT 171900Z 02006KT CAVOK 29/M03 Q1010,GOTT,2021-01-17T19:00:00Z,13.73,-13.65,29.0,-3.0,20,6,,6.21,29.822834,,,,,,,,,,,CAVOK,,,,,,,,VFR,,,,,,,,,,,,METAR,53.0
GOSS 171900Z 04006KT 320V090 CAVOK 27/06 Q1012,GOSS,2021-01-17T19:00:00Z,16.05,-16.45,27.0,6.0,40,6,,6.21,29.88189,,,,,,,,,,,CAVOK,,,,,,,,VFR,,,,,,,,,,,,METAR,3.0
GOSP 171900Z 08002KT 7000 NSC 26/07 Q1013,GOSP,2021-01-17T19:00:00Z,16.68,-14.97,26.0,7.0,80,2,,4.35,29.911417,,,,,,,,,,,CLR,,,,,,,,MVFR,,,,,,,,,,,,METAR,10.0
GOSM 171900Z 04004KT 8000 NSC 27/03 Q1012,GOSM,2021-01-17T19:00:00Z,15.6,-13.33,27.0,3.0,40,4,,4.97,29.88189,,,,,,,,,,,CLR,,,,,,,,MVFR,,,,,,,,,,,,METAR,28.0
GOOY 171900Z 04014KT CAVOK 20/11 Q1010,GOOY,2021-01-17T19:00:00Z,14.73,-17.5,20.0,11.0,40,14,,6.21,29.822834,,,,,,,,,,,CAVOK,,,,,,,,VFR,,,,,,,,,,,,METAR,21.0
GOOK 171900Z 08006KT CAVOK 30/11 Q1012,GOOK,2021-01-17T19:00:00Z,14.15,-16.07,30.0,11.0,80,6,,6.21,29.88189,,,,,,,,,,,CAVOK,,,,,,,,VFR,,,,,,,,,,,,METAR,8.0
GOOD 171900Z 04004KT CAVOK 28/09 Q1011,GOOD,2021-01-17T19:00:00Z,14.65,-16.22,28.0,9.0,40,4,,6.21,29.852362,,,,,,,,,,,CAVOK,,,,,,,,VFR,,,,,,,,,,,,METAR,9.0
GOGS 171900Z 36004KT CAVOK 25/16 Q1010,GOGS,2021-01-17T19:00:00Z,12.4,-16.75,25.0,16.0,360,4,,6.21,29.822834,,,,,,,,,,,CAVOK,,,,,,,,VFR,,,,,,,,,,,,METAR,13.0
GOGK 171900Z 00000KT CAVOK 28/13 Q1009,GOGK,2021-01-17T19:00:00Z,12.9,-14.97,28.0,13.0,0,0,,6.21,29.793306,,,,,,,,,,,CAVOK,,,,,,,,VFR,,,,,,,,,,,,METAR,37.0
GOGG 171900Z 32004KT CAVOK 27/17 Q1011,GOGG,2021-01-17T19:00:00Z,12.55,-16.27,27.0,17.0,320,4,,6.21,29.852362,,,,,,,,,,,CAVOK,,,,,,,,VFR,,,,,,,,,,,,METAR,24.0
GOBD 171900Z 04008KT 9000 NSC 28/15 Q1011 NOSIG,GOBD,2021-01-17T19:00:00Z,14.67,-17.07,28.0,15.0,40,8,,5.59,29.852362,,,,,,TRUE,,,,,CLR,,,,,,,,VFR,,,,,,,,,,,,METAR,90.0
GMTT 171900Z 07004KT CAVOK 11/10 Q1026 NOSIG,GMTT,2021-01-17T19:00:00Z,35.72,-5.9,11.0,10.0,70,4,,6.21,30.295275,,,,,,TRUE,,,,,CAVOK,,,,,,,,VFR,,,,,,,,,,,,METAR,19.0
GMTN 171900Z VRB02KT 9999 FEW020 BKN200 10/08 Q1026 NOSIG,GMTN,2021-01-17T19:00:00Z,35.58,-5.32,10.0,8.0,0,2,,6.21,30.295275,,,,,,TRUE,,,,,FEW,2000,BKN,20000,,,,,VFR,,,,,,,,,,,,METAR,10.0
GMTA 171900Z 18004KT 120V200 CAVOK 11/08 Q1026 NOSIG,GMTA,2021-01-17T19:00:00Z,35.17,-3.85,11.0,8.0,180,4,,6.21,30.295275,,,,,,TRUE,,,,,CAVOK,,,,,,,,VFR,,,,,,,,,,,,METAR,14.0
GMMZ 171900Z VRB01KT CAVOK 13/M09 Q1027 NOSIG,GMMZ,2021-01-17T19:00:00Z,30.93,-6.9,13.0,-9.0,0,1,,6.21,30.324802,,,,,,TRUE,,,,,CAVOK,,,,,,,,VFR,,,,,,,,,,,,METAR,1139.0
GMMX 171900Z 24003KT CAVOK 14/00 Q1026 NOSIG,GMMX,2021-01-17T19:00:00Z,31.62,-8.03,14.0,0.0,240,3,,6.21,30.295275,,,,,,TRUE,,,,,CAVOK,,,,,,,,VFR,,,,,,,,,,,,METAR,465.0
GMMW 171900Z 17003KT CAVOK 09/06 Q1026 NOSIG,GMMW,2021-01-17T19:00:00Z,34.98,-3.02,9.0,6.0,170,3,,6.21,30.295275,,,,,,TRUE,,,,,CAVOK,,,,,,,,VFR,,,,,,,,,,,,METAR,174.0
GMMN 171900Z 31002KT CAVOK 11/11 Q1027 NOSIG,GMMN,2021-01-17T19:00:00Z,33.37,-7.58,11.0,11.0,310,2,,6.21,30.324802,,,,,,TRUE,,,,,CAVOK,,,,,,,,VFR,,,,,,,,,,,,METAR,196.0
GMML 171900Z 01010KT CAVOK 17/11 Q1024 NOSIG,GMML,2021-01-17T19:00:00Z,27.13,-13.23,17.0,11.0,10,10,,6.21,30.236221,,,,,,TRUE,,,,,CAVOK,,,,,,,,VFR,,,,,,,,,,,,METAR,63.0
GMMI 171900Z AUTO VRB01KT //// ////// 13/07 Q1026 NOSIG,GMMI,2021-01-17T19:00:00Z,31.4,-9.68,13.0,7.0,0,1,,,30.295275,,,TRUE,,,TRUE,,,,,,,,,,,,,,,,,,,,,,,,,METAR,102.0
GMMH 171900Z 01019KT 010V080 8000 NSC 18/12 Q1020 NOSIG,GMMH,2021-01-17T19:00:00Z,23.72,-15.93,18.0,12.0,10,19,,4.97,30.11811,,,,,,TRUE,,,,,CLR,,,,,,,,MVFR,,,,,,,,,,,,METAR,11.0
GMME 171900Z 00000KT 8000 NSC 10/09 Q1026 NOSIG,GMME,2021-01-17T19:00:00Z,34.05,-6.77,10.0,9.0,0,0,,4.97,30.295275,,,,,,TRUE,,,,,CLR,,,,,,,,MVFR,,,,,,,,,,,,METAR,84.0
GMMD 171900Z 10003KT CAVOK 08/06 Q1027 NOSIG,GMMD,2021-01-17T19:00:00Z,32.4,-6.32,8.0,6.0,100,3,,6.21,30.324802,,,,,,TRUE,,,,,CAVOK,,,,,,,,VFR,,,,,,,,,,,,METAR,515.0
GMMC 171900Z 02002KT CAVOK 12/09 Q1027,GMMC,2021-01-17T19:00:00Z,33.57,-7.67,12.0,9.0,20,2,,6.21,30.324802,,,,,,,,,,,CAVOK,,,,,,,,VFR,,,,,,,,,,,,METAR,62.0
GMMB 171900Z AUTO VRB02KT 6000NDV ////// 10/09 Q1027 NOSIG,GMMB,2021-01-17T19:00:00Z,33.65,-7.22,10.0,9.0,0,2,,,30.324802,,,TRUE,,,TRUE,,,,,,,,,,,,,,,,,,,,,,,,,METAR,191.0
GMFO 171900Z 24005KT CAVOK 08/03 Q1026 NOSIG,GMFO,2021-01-17T19:00:00Z,34.78,-1.92,8.0,3.0,240,5,,6.21,30.295275,,,,,,TRUE,,,,,CAVOK,,,,,,,,VFR,,,,,,,,,,,,METAR,452.0
GMFM 171900Z 16005KT CAVOK 07/04 Q1027 NOSIG,GMFM,2021-01-17T19:00:00Z,33.87,-5.52,7.0,4.0,160,5,,6.21,30.324802,,,,,,TRUE,,,,,CAVOK,,,,,,,,VFR,,,,,,,,,,,,METAR,569.0
GMFK 171900Z 00000KT CAVOK 12/M08 Q1029 NOSIG,GMFK,2021-01-17T19:00:00Z,31.95,-4.4,12.0,-8.0,0,0,,6.21,30.383858,,,,,,TRUE,,,,,CAVOK,,,,,,,,VFR,,,,,,,,,,,,METAR,1033.0
GMFF 171900Z 18005KT CAVOK 09/05 Q1028 NOSIG,GMFF,2021-01-17T19:00:00Z,33.92,-4.97,9.0,5.0,180,5,,6.21,30.35433,,,,,,TRUE,,,,,CAVOK,,,,,,,,VFR,,,,,,,,,,,,METAR,575.0
GMAD 171900Z 19009KT CAVOK 14/11 Q1024 NOSIG,GMAD,2021-01-17T19:00:00Z,30.32,-9.42,14.0,11.0,190,9,,6.21,30.236221,,,,,,TRUE,,,,,CAVOK,,,,,,,,VFR,,,,,,,,,,,,METAR,66.0
GLRB 171900Z 23005KT 9999 FEW016 28/26 Q1008 NOSIG,GLRB,2021-01-17T19:00:00Z,6.25,-10.35,28.0,26.0,230,5,,6.21,29.763779,,,,,,TRUE,,,,,FEW,1600,,,,,,,VFR,,,,,,,,,,,,METAR,12.0
GGOV 171900Z 36002KT 8000 NSC 28/13 Q1009 NOSIG,GGOV,2021-01-17T19:00:00Z,11.88,-15.65,28.0,13.0,360,2,,4.97,29.793306,,,,,,TRUE,,,,,CLR,,,,,,,,MVFR,,,,,,,,,,,,METAR,31.0
GEML 171900Z AUTO 00000KT CAVOK 12/08 Q1027,GEML,2021-01-17T19:00:00Z,35.27,-2.95,12.0,8.0,0,0,,6.21,30.324802,,,TRUE,,,,,,,,CAVOK,,,,,,,,VFR,,,,,,,,,,,,METAR,48.0
GCXO 171900Z 11003KT 080V150 9999 BKN014 12/09 Q1026 NOSIG,GCXO,2021-01-17T19:00:00Z,28.48,-16.35,12.0,9.0,110,3,,6.21,30.295275,,,,,,TRUE,,,,,BKN,1400,,,,,,,MVFR,,,,,,,,,,,,METAR,623.0
GCTS 171900Z 06009KT 9999 FEW035 18/11 Q1025 NOSIG,GCTS,2021-01-17T19:00:00Z,28.05,-16.57,18.0,11.0,60,9,,6.21,30.265747,,,,,,TRUE,,,,,FEW,3500,,,,,,,VFR,,,,,,,,,,,,METAR,59.0
GCRR 171900Z 06008KT 9999 FEW025 17/13 Q1025,GCRR,2021-01-17T19:00:00Z,28.95,-13.58,17.0,13.0,60,8,,6.21,30.265747,,,,,,,,,,,FEW,2500,,,,,,,VFR,,,,,,,,,,,,METAR,9.0
GCLP 171900Z 01011KT 9999 FEW030 18/11 Q1025 NOSIG,GCLP,2021-01-17T19:00:00Z,27.92,-15.38,18.0,11.0,10,11,,6.21,30.265747,,,,,,TRUE,,,,,FEW,3000,,,,,,,VFR,,,,,,,,,,,,METAR,16.0
GCLA 171900Z 34006KT 9999 BKN041 19/12 Q1025,GCLA,2021-01-17T19:00:00Z,28.62,-17.75,19.0,12.0,340,6,,6.21,30.265747,,,,,,,,,,,BKN,4100,,,,,,,VFR,,,,,,,,,,,,METAR,20.0
GCHI 171900Z AUTO 06006KT 9999 SCT035 18/11 Q1025,GCHI,2021-01-17T19:00:00Z,27.82,-17.88,18.0,11.0,60,6,,6.21,30.265747,,,TRUE,,,,,,,,SCT,3500,,,,,,,VFR,,,,,,,,,,,,METAR,21.0
GCGM 171900Z AUTO 11004KT 080V150 CAVOK 17/11 Q1025 RMK R09/08004KT 030V190 ARP/VRB04KT,GCGM,2021-01-17T19:00:00Z,28.03,-17.22,17.0,11.0,110,4,,6.21,30.265747,,,TRUE,,,,,,,,CAVOK,,,,,,,,VFR,,,,,,,,,,,,METAR,217.0
GBYD 171900Z 08009KT 9000 NSC 25/08 Q1010,GBYD,2021-01-17T19:00:00Z,13.33,-16.65,25.0,8.0,80,9,,5.59,29.822834,,,,,,,,,,,CLR,,,,,,,,VFR,,,,,,,,,,,,METAR,29.0
GABS 171900Z 05006KT CAVOK 27/M03 Q1013 NOSIG,GABS,2021-01-17T19:00:00Z,12.53,-7.95,27.0,-3.0,50,6,,6.21,29.911417,,,,,,TRUE,,,,,CAVOK,,,,,,,,VFR,,,,,,,,,,,,METAR,375.0
FYWW 171900Z AUTO 10003KT //// // ////// 23/13 Q1018,FYWW,2021-01-17T19:00:00Z,-22.57,17.1,23.0,13.0,100,3,,,30.059055,,,TRUE,,,,,,,,,,,,,,,,,,,,,,,,,,,,SPECI,1672.0
FYWB 171900Z AUTO 26010KT //// // ////// 19/15 Q1012,FYWB,2021-01-17T19:00:00Z,-22.98,14.65,19.0,15.0,260,10,,,29.88189,,,TRUE,,,,,,,,,,,,,,,,,,,,,,,,,,,,METAR,87.0
FYOW 171900Z AUTO 14001KT //// // ////// 20/19 Q1016,FYOW,2021-01-17T19:00:00Z,-20.43,16.67,20.0,19.0,140,1,,,30.0,,,TRUE,,,,,,,,,,,,,,,,,,,,,,,,,,,,SPECI,1480.0
FYOO 171900Z AUTO 00000KT //// // ////// 23/19 Q1014,FYOO,2021-01-17T19:00:00Z,-19.15,15.92,23.0,19.0,0,0,,,29.940945,,,TRUE,,,,,,,,,,,,,,,,,,,,,,,,,,,,METAR,1105.0
FYOA 171900Z AUTO 14003KT //// // ////// 29/15 Q1011,FYOA,2021-01-17T19:00:00Z,-17.88,15.97,29.0,15.0,140,3,,,29.852362,,,TRUE,,,,,,,,,,,,,,,,,,,,,,,,,,,,METAR,1099.0
FYML 171900Z AUTO 17001KT //// // ////// 28/11 Q1015,FYML,2021-01-17T19:00:00Z,-24.6,17.93,28.0,11.0,170,1,,,29.970472,,,TRUE,,,,,,,,,,,,,,,,,,,,,,,,,,,,SPECI,1113.0
FYLZ 171900Z AUTO 20014KT //// // ////// 19/15 Q1010,FYLZ,2021-01-17T19:00:00Z,-26.68,15.25,19.0,15.0,200,14,,,29.822834,,,TRUE,,,,,,,,,,,,,,,,,,,,,,,,,,,,METAR,129.0
FYKM 171900Z AUTO 31002KT //// // ////// 23/22 Q1012,FYKM,2021-01-17T19:00:00Z,-17.63,24.18,23.0,22.0,310,2,,,29.88189,,,TRUE,,,,,,,,,,,,,,,,,,,,,,,,,,,,METAR,959.0
FYGF 171900Z AUTO 19001KT //// // ////// 21/19 Q1016,FYGF,2021-01-17T19:00:00Z,-19.6,18.12,21.0,19.0,190,1,,,30.0,,,TRUE,,,,,,,,,,,,,,,,,,,,,,,,,,,,METAR,1407.0
FYGB 171900Z AUTO 18001KT //// // ////// 22/14 Q1017,FYGB,2021-01-17T19:00:00Z,-22.5,18.97,22.0,14.0,180,1,,,30.029528,,,TRUE,,,,,,,,,,,,,,,,,,,,,,,,,,,,METAR,1436.0
FTTJ 171900Z 02004KT 6000 NSC 24/M01 Q1011 NOSIG,FTTJ,2021-01-17T19:00:00Z,12.13,15.03,24.0,-1.0,20,4,,3.73,29.852362,,,,,,TRUE,,,,,CLR,,,,,,,,MVFR,,,,,,,,,,,,METAR,295.0
FTTA 171900Z 00000KT 25/12 Q1010,FTTA,2021-01-17T19:00:00Z,9.15,18.37,25.0,12.0,0,0,,,29.822834,,,,,,,,,,,,,,,,,,,,,,,,,,,,,,,METAR,361.0
FSIA 171900Z 31008KT 9999 FEW020 28/23 Q1009 NOSIG,FSIA,2021-01-17T19:00:00Z,-4.67,55.52,28.0,23.0,310,8,,6.21,29.793306,,,,,,TRUE,,,,,FEW,2000,,,,,,,VFR,,,,,,,,,,,,METAR,3.0
FQTT 171900Z 35003KT 320V050 9999 BKN020 FEW025CB 25/25 Q1009 RMK CB TO W/NW/N/NE,FQTT,2021-01-17T19:00:00Z,-16.1,33.63,25.0,25.0,350,3,,6.21,29.793306,,,,,,,,,,,BKN,2000,FEW,2500,,,,,MVFR,,,,,,,,,,,,METAR,146.0
"FQQL 171900Z 09004KT 9999 SCT020 FEW025CB 30/27 Q1006 RMK DIST LIT TO NW,N",FQQL,2021-01-17T19:00:00Z,-17.87,36.87,30.0,27.0,90,4,,6.21,29.704725,,,,,,,,,,,SCT,2000,FEW,2500,,,,,VFR,,,,,,,,,,,,METAR,5.0
FQPB 171900Z 04010KT 9999 SCT020 27/25 Q1008,FQPB,2021-01-17T19:00:00Z,-12.98,40.52,27.0,25.0,40,10,,6.21,29.763779,,,,,,,,,,,SCT,2000,,,,,,,VFR,,,,,,,,,,,,METAR,101.0
FQNP 171900Z 04005KT CAVOK 26/20 Q1009,FQNP,2021-01-17T19:00:00Z,-15.1,39.27,26.0,20.0,40,5,,6.21,29.793306,,,,,,,,,,,CAVOK,,,,,,,,VFR,,,,,,,,,,,,METAR,434.0
FQMA 171900Z 18013KT 9999 FEW015 BKN020 26/21 Q1011 NOSIG,FQMA,2021-01-17T19:00:00Z,-25.92,32.57,26.0,21.0,180,13,,6.21,29.852362,,,,,,TRUE,,,,,FEW,1500,BKN,2000,,,,,MVFR,,,,,,,,,,,,METAR,34.0
FQIN 171900Z 00000KT 9999 SCT020 SCT025 27/26 Q1008,FQIN,2021-01-17T19:00:00Z,-23.87,35.38,27.0,26.0,0,0,,6.21,29.763779,,,,,,,,,,,SCT,2000,SCT,2500,,,,,VFR,,,,,,,,,,,,METAR,10.0
FQBR 171900Z VRB05KT 3000 RA SCT015 SCT030CB BKN030 OVC070 23/23 Q1006 RMK CB TO E/SE/W/N/NW,FQBR,2021-01-17T19:00:00Z,-19.8,34.9,23.0,23.0,0,5,,1.86,29.704725,,,,,,,,,,RA,SCT,1500,SCT,3000,BKN,3000,OVC,7000,IFR,,,,,,,,,,,,METAR,14.0
FPST 171900Z 18008KT 9999 SCT020 27/24 Q1009 NOSIG,FPST,2021-01-17T19:00:00Z,0.37,6.72,27.0,24.0,180,8,,6.21,29.793306,,,,,,TRUE,,,,,SCT,2000,,,,,,,VFR,,,,,,,,,,,,METAR,11.0
FOOL 171900Z 27007KT 8000 -TSRA SCT012 FEW020CB 28/25 Q1009 TEMPO 3000 TSRA,FOOL,2021-01-17T19:00:00Z,0.45,9.42,28.0,25.0,270,7,,4.97,29.793306,,,,,,,,,,-TSRA,SCT,1200,FEW,2000,,,,,MVFR,,,,,,,,,,,,METAR,9.0
FOOG 171900Z 18006KT 150V210 9999 SCT010 BKN033 27/25 Q1009,FOOG,2021-01-17T19:00:00Z,-0.7,8.75,27.0,25.0,180,6,,6.21,29.793306,,,,,,,,,,,SCT,1000,BKN,3300,,,,,VFR,,,,,,,,,,,,METAR,4.0
FNLU 171900Z 19010KT 9999 FEW023 26/21 Q1007 NOSIG,FNLU,2021-01-17T19:00:00Z,-8.85,13.22,26.0,21.0,190,10,,6.21,29.734253,,,,,,TRUE,,,,,FEW,2300,,,,,,,VFR,,,,,,,,,,,,METAR,75.0
FMSD 171900Z 34002KT 9999 VCTS FEW016CB SCT033 29/25 Q1010,FMSD,2021-01-17T19:00:00Z,-25.03,46.95,29.0,25.0,340,2,,6.21,29.822834,,,,,,,,,,VCTS,FEW,1600,SCT,3300,,,,,VFR,,,,,,,,,,,,METAR,7.0
FMNM 171900Z 28005KT 250V310 9999 FEW020TCU 28/25 Q1008 NOSIG,FMNM,2021-01-17T19:00:00Z,-15.67,46.35,28.0,25.0,280,5,,6.21,29.763779,,,,,,TRUE,,,,,FEW,2000,,,,,,,VFR,,,,,,,,,,,,METAR,18.0
FMMT 171900Z 34002KT 9999 SCT017 28/25 Q1010 NOSIG,FMMT,2021-01-17T19:00:00Z,-18.12,49.38,28.0,25.0,340,2,,6.21,29.822834,,,,,,TRUE,,,,,SCT,1700,,,,,,,VFR,,,,,,,,,,,,METAR,13.0
FMMI 171900Z 31006KT 9999 VCTS SCT020CB 22/19 Q1017 NOSIG,FMMI,2021-01-17T19:00:00Z,-18.8,47.47,22.0,19.0,310,6,,6.21,30.029528,,,,,,TRUE,,,,VCTS,SCT,2000,,,,,,,VFR,,,,,,,,,,,,METAR,1269.0
FMEP 171900Z AUTO VRB03KT CAVOK 28/24 Q1011,FMEP,2021-01-17T19:00:00Z,-21.32,55.42,28.0,24.0,0,3,,6.21,29.852362,,,TRUE,,,,,,,,CAVOK,,,,,,,,VFR,,,,,,,,,,,,METAR,21.0
FMEE 171900Z AUTO 12014KT CAVOK 26/22 Q1011 NOSIG,FMEE,2021-01-17T19:00:00Z,-20.88,55.52,26.0,22.0,120,14,,6.21,29.852362,,,TRUE,,,TRUE,,,,,CAVOK,,,,,,,,VFR,,,,,,,,,,,,METAR,20.0
FMCZ 171900Z AUTO VRB03KT CAVOK 28/24 Q1009 NOSIG,FMCZ,2021-01-17T19:00:00Z,-12.8,45.27,28.0,24.0,0,3,,6.21,29.793306,,,TRUE,,,TRUE,,,,,CAVOK,,,,,,,,VFR,,,,,,,,,,,,METAR,7.0
FKYS 171900Z 00000KT 7000 FEW013 24/22 Q1014 NOSIG,FKYS,2021-01-17T19:00:00Z,3.82,11.52,24.0,22.0,0,0,,4.35,29.940945,,,,,,TRUE,,,,,FEW,1300,,,,,,,MVFR,,,,,,,,,,,,METAR,694.0
FKKR 171900Z 05004KT CAVOK 25/04 Q1010 NOSIG,FKKR,2021-01-17T19:00:00Z,9.33,13.37,25.0,4.0,50,4,,6.21,29.822834,,,,,,TRUE,,,,,CAVOK,,,,,,,,VFR,,,,,,,,,,,,METAR,223.0
FKKD 171900Z VRB02KT 8000 FEW016 27/26 Q1008 NOSIG,FKKD,2021-01-17T19:00:00Z,4.0,9.72,27.0,26.0,0,2,,4.97,29.763779,,,,,,TRUE,,,,,FEW,1600,,,,,,,MVFR,,,,,,,,,,,,METAR,10.0
FIMP 171900Z 09010KT 9999 SCT018 26/24 Q1012,FIMP,2021-01-17T19:00:00Z,-20.43,57.68,26.0,24.0,90,10,,6.21,29.88189,,,,,,,,,,,SCT,1800,,,,,,,VFR,,,,,,,,,,,,METAR,57.0
FGSL 171900Z 25004KT 9999 FEW010 27/27 Q1009 NOSIG,FGSL,2021-01-17T19:00:00Z,3.75,8.72,27.0,27.0,250,4,,6.21,29.793306,,,,,,TRUE,,,,,FEW,1000,,,,,,,VFR,,,,,,,,,,,,METAR,23.0
FEFF 171900Z VRB03KT 3000 FU FEW013 29/23 Q1009 TEMPO 4000 FU,FEFF,2021-01-17T19:00:00Z,4.4,18.52,29.0,23.0,0,3,,1.86,29.793306,,,,,,,,,,FU,FEW,1300,,,,,,,IFR,,,,,,,,,,,,SPECI,364.0
FDOT 171900Z AUTO 00000KT //// // ////// 24/18 Q1014,FDOT,2021-01-17T19:00:00Z,-26.7,31.43,24.0,18.0,0,0,,,29.940945,,,TRUE,,,,,,,,,,,,,,,,,,,,,,,,,,,,METAR,342.0
FCPP 171900Z 23005KT 9999 FEW010 27/24 Q1008 NOSIG,FCPP,2021-01-17T19:00:00Z,-4.82,11.9,27.0,24.0,230,5,,6.21,29.763779,,,,,,TRUE,,,,,FEW,1000,,,,,,,VFR,,,,,,,,,,,,METAR,18.0
FCBB 171900Z 28009KT 240V330 8000 TS FEW018 FEW028CB 25/23 Q1010 NOSIG,FCBB,2021-01-17T19:00:00Z,-4.25,15.25,25.0,23.0,280,9,,4.97,29.822834,,,,,,TRUE,,,,TS,FEW,1800,FEW,2800,,,,,MVFR,,,,,,,,,,,,METAR,316.0
FBMN 171900Z 33003KT 9999 FEW025 FEW030CB BKN065 23/23 Q1011,FBMN,2021-01-17T19:00:00Z,-19.97,23.42,23.0,23.0,330,3,,6.21,29.852362,,,,,,,,,,,FEW,2500,FEW,3000,BKN,6500,,,VFR,,,,,,,,,,,,METAR,946.0
FAWB 171900Z AUTO 17008KT //// // ////// 26/12 Q1013,FAWB,2021-01-17T19:00:00Z,-25.65,28.22,26.0,12.0,170,8,,,29.911417,,,TRUE,,,,,,,,,,,,,,,,,,,,,,,,,,,,METAR,1245.0
FAVV 171900Z AUTO 35003KT //// // ////// 20/14 Q1018,FAVV,2021-01-17T19:00:00Z,-26.57,27.97,20.0,14.0,350,3,,,30.059055,,,TRUE,,,,,,,,,,,,,,,,,,,,,,,,,,,,METAR,1480.0
FAUT 171900Z AUTO 10007KT //// // ////// 18/15 Q1017,FAUT,2021-01-17T19:00:00Z,-31.53,28.67,18.0,15.0,100,7,,,30.029528,,,TRUE,,,,,,,,,,,,,,,,,,,,,,,,,,,,METAR,735.0
FAUP 171900Z AUTO 23005KT //// // ////// 25/11 Q1011,FAUP,2021-01-17T19:00:00Z,-28.38,21.27,25.0,11.0,230,5,,,29.852362,,,TRUE,,,,,,,,,,,,,,,,,,,,,,,,,,,,SPECI,845.0
FAPP 171900Z AUTO 08008KT //// // ////// 21/17 Q1015,FAPP,2021-01-17T19:00:00Z,-23.83,29.45,21.0,17.0,80,8,,,29.970472,,,TRUE,,,,,,,,,,,,,,,,,,,,,,,,,,,,METAR,1238.0
FAPE 171900Z 15004KT 9999 SCT030 BKN040 20/16 Q1015 NOSIG,FAPE,2021-01-17T19:00:00Z,-33.98,25.6,20.0,16.0,150,4,,6.21,29.970472,,,,,,TRUE,,,,,SCT,3000,BKN,4000,,,,,VFR,,,,,,,,,,,,METAR,58.0
FAOR 171900Z 16005KT CAVOK 20/11 Q1018 NOSIG,FAOR,2021-01-17T19:00:00Z,-26.13,28.23,20.0,11.0,160,5,,6.21,30.059055,,,,,,TRUE,,,,,CAVOK,,,,,,,,VFR,,,,,,,,,,,,METAR,1684.0
FAOB 171900Z AUTO 16007KT //// // ////// 21/16 Q1014,FAOB,2021-01-17T19:00:00Z,-34.55,20.23,21.0,16.0,160,7,,,29.940945,,,TRUE,,,,,,,,,,,,,,,,,,,,,,,,,,,,METAR,15.0
FAMM 171900Z AUTO 15007KT //// // ////// 25/11 Q1014,FAMM,2021-01-17T19:00:00Z,-25.8,25.53,25.0,11.0,150,7,,,29.940945,,,TRUE,,,,,,,,,,,,,,,,,,,,,,,,,,,,METAR,1280.0
FALW 171900Z AUTO 23006KT //// // ////// 21/14 Q1009,FALW,2021-01-17T19:00:00Z,-32.97,18.17,21.0,14.0,230,6,,,29.793306,,,TRUE,,,,,,,,,,,,,,,,,,,,,,,,,,,,METAR,31.0
FALE 171900Z 20004KT 170V230 9999 -RA SCT020 BKN025 OVC050 23/21 Q1013 NOSIG,FALE,2021-01-17T19:00:00Z,-29.62,31.12,23.0,21.0,200,4,,6.21,29.911417,,,,,,TRUE,,,,-RA,SCT,2000,BKN,2500,OVC,5000,,,MVFR,,,,,,,,,,,,METAR,109.0
FALA 171900Z AUTO 13007KT //// // ////// 24/11 Q1015,FALA,2021-01-17T19:00:00Z,-25.93,27.92,24.0,11.0,130,7,,,29.970472,,,TRUE,,,,,,,,,,,,,,,,,,,,,,,,,,,,METAR,1365.0
FAKN 171900Z AUTO 11008KT //// // ////// 20/18 Q1018,FAKN,2021-01-17T19:00:00Z,-25.38,31.1,20.0,18.0,110,8,,,30.059055,,,TRUE,,,,,,,,,,,,,,,,,,,,,,,,,,,,METAR,864.0
FAKM 171900Z AUTO 18003KT //// // ////// 21/13 Q1014,FAKM,2021-01-17T19:00:00Z,-28.8,24.77,21.0,13.0,180,3,,,29.940945,,,TRUE,,,,,,,,,,,,,,,,,,,,,,,,,,,,METAR,1203.0
FAHS 171900Z AUTO 16008KT //// // ////// 22/22 Q1014,FAHS,2021-01-17T19:00:00Z,-24.37,31.03,22.0,22.0,160,8,,,29.940945,,,TRUE,,,,,,,,,,,,,,,,,,,,,,,,,,,,METAR,532.0
FAGG 171900Z AUTO 10007KT CAVOK 18/16 Q1014,FAGG,2021-01-17T19:00:00Z,-34.0,22.37,18.0,16.0,100,7,,6.21,29.940945,,,TRUE,,,,,,,,CAVOK,,,,,,,,VFR,,,,,,,,,,,,METAR,196.0
FACT 171900Z 21015KT CAVOK 20/14 Q1011 NOSIG,FACT,2021-01-17T19:00:00Z,-33.97,18.6,20.0,14.0,210,15,,6.21,29.852362,,,,,,TRUE,,,,,CAVOK,,,,,,,,VFR,,,,,,,,,,,,METAR,48.0
FABL 171900Z AUTO 23003KT 9999 ///////// 20/13 Q1015,FABL,2021-01-17T19:00:00Z,-29.1,26.3,20.0,13.0,230,3,,6.21,29.970472,,,TRUE,,,,,,,,,,,,,,,,,,,,,,,,,,,,SPECI,1348.0
EPZG 171900Z 10004KT 4000 BR NSC M11/M13 Q1023,EPZG,2021-01-17T19:00:00Z,52.13,15.77,-11.0,-13.0,100,4,,2.49,30.206694,,,,,,,,,,BR,CLR,,,,,,,,IFR,,,,,,,,,,,,METAR,59.0
EPWR 171900Z 17003KT 140V210 4500 BR NSC M14/M15 Q1023 R11/19//95,EPWR,2021-01-17T19:00:00Z,51.1,16.88,-14.0,-15.0,170,3,,2.8,30.206694,,,,,,,,,,BR,CLR,,,,,,,,IFR,,,,,,,,,,,,METAR,118.0
EPWA 171900Z 29005KT 8000 NSC M16/M18 Q1022 R33/1///95 NOSIG,EPWA,2021-01-17T19:00:00Z,52.17,20.97,-16.0,-18.0,290,5,,4.97,30.177166,,,,,,TRUE,,,,,CLR,,,,,,,,MVFR,,,,,,,,,,,,METAR,107.0
EPSY 171900Z 22001KT CAVOK M21/M23 Q1022,EPSY,2021-01-17T19:00:00Z,53.47,20.93,-21.0,-23.0,220,1,,6.21,30.177166,,,,,,,,,,,CAVOK,,,,,,,,VFR,,,,,,,,,,,,METAR,136.0
EPSC 171900Z 12006KT CAVOK M11/M14 Q1023 R13/72//95,EPSC,2021-01-17T19:00:00Z,53.58,14.9,-11.0,-14.0,120,6,,6.21,30.206694,,,,,,,,,,,CAVOK,,,,,,,,VFR,,,,,,,,,,,,METAR,47.0
EPRZ 171900Z 28008KT 9999 -SN OVC008 M11/M13 Q1020 R09/42//95,EPRZ,2021-01-17T19:00:00Z,50.1,22.02,-11.0,-13.0,280,8,,6.21,30.11811,,,,,,,,,,-SN,OVC,800,,,,,,,IFR,,,,,,,,,,,,METAR,206.0
EPPO 171900Z 20002KT 3300 BR NSC M16/M17 Q1023,EPPO,2021-01-17T19:00:00Z,52.42,16.83,-16.0,-17.0,200,2,,2.05,30.206694,,,,,,,,,,BR,CLR,,,,,,,,IFR,,,,,,,,,,,,METAR,87.0
EPMO 171900Z VRB01KT 5000 BR NSC M18/M20 Q1022,EPMO,2021-01-17T19:00:00Z,52.45,20.65,-18.0,-20.0,0,1,,3.11,30.177166,,,,,,,,,,BR,CLR,,,,,,,,MVFR,,,,,,,,,,,,METAR,102.0
EPLL 171900Z 24003KT 6000 SCT004 M19/M21 Q1022 R07/490293,EPLL,2021-01-17T19:00:00Z,51.72,19.4,-19.0,-21.0,240,3,,3.73,30.177166,,,,,,,,,,,SCT,400,,,,,,,MVFR,,,,,,,,,,,,METAR,176.0
EPLB 171900Z 34006KT 7000 -SN OVC013 M12/M12 Q1020,EPLB,2021-01-17T19:00:00Z,51.23,22.72,-12.0,-12.0,340,6,,4.35,30.11811,,,,,,,,,,-SN,OVC,1300,,,,,,,MVFR,,,,,,,,,,,,METAR,206.0
EPKT 171900Z 03001KT 8000 -SN FEW003 BKN004 BKN006 M12/M14 Q1020 R99/410295,EPKT,2021-01-17T19:00:00Z,50.47,19.08,-12.0,-14.0,30,1,,4.97,30.11811,,,,,,,,,,-SN,FEW,300,BKN,400,BKN,600,,,LIFR,,,,,,,,,,,,METAR,296.0
EPKK 171900Z VRB02KT 7000 -SN BKN023 M11/M14 Q1020 R25/41//95,EPKK,2021-01-17T19:00:00Z,50.07,19.8,-11.0,-14.0,0,2,,4.35,30.11811,,,,,,,,,,-SN,BKN,2300,,,,,,,MVFR,,,,,,,,,,,,METAR,237.0
EPGD 171900Z 26003KT 220V290 3300 BR FEW024 M16/M17 Q1021 R11/410195,EPGD,2021-01-17T19:00:00Z,54.37,18.47,-16.0,-17.0,260,3,,2.05,30.147638,,,,,,,,,,BR,FEW,2400,,,,,,,IFR,,,,,,,,,,,,METAR,136.0
EPBY 171900Z 00000KT 7000 NSC M17/M19 Q1023,EPBY,2021-01-17T19:00:00Z,53.1,18.0,-17.0,-19.0,0,0,,4.35,30.206694,,,,,,,,,,,CLR,,,,,,,,MVFR,,,,,,,,,,,,METAR,66.0
EIWF 171900Z 25005KT 220V290 CAVOK 05/03 Q1027,EIWF,2021-01-17T19:00:00Z,52.18,-7.08,5.0,3.0,250,5,,6.21,30.324802,,,,,,,,,,,CAVOK,,,,,,,,VFR,,,,,,,,,,,,METAR,26.0
EINN 171900Z 21005KT 9999 FEW015 BKN030 06/04 Q1026 NOSIG,EINN,2021-01-17T19:00:00Z,52.7,-8.92,6.0,4.0,210,5,,6.21,30.295275,,,,,,TRUE,,,,,FEW,1500,BKN,3000,,,,,MVFR,,,,,,,,,,,,METAR,20.0
EIME 171900Z 23011KT 9999 FEW016 SCT028 05/03 Q1025,EIME,2021-01-17T19:00:00Z,53.3,-6.45,5.0,3.0,230,11,,6.21,30.265747,,,,,,,,,,,FEW,1600,SCT,2800,,,,,VFR,,,,,,,,,,,,METAR,90.0
EIKY 171900Z 24004KT 9999 OVC031 06/04 Q1027,EIKY,2021-01-17T19:00:00Z,52.18,-9.53,6.0,4.0,240,4,,6.21,30.324802,,,,,,,,,,,OVC,3100,,,,,,,VFR,,,,,,,,,,,,METAR,23.0
EIDW 171900Z 24008KT 190V280 9999 FEW020 BKN110 05/03 Q1024 NOSIG,EIDW,2021-01-17T19:00:00Z,53.42,-6.28,5.0,3.0,240,8,,6.21,30.236221,,,,,,TRUE,,,,,FEW,2000,BKN,11000,,,,,VFR,,,,,,,,,,,,METAR,75.0
EIDL 171900Z 25015KT 9999 SCT019 BKN025 08/05 Q1021,EIDL,2021-01-17T19:00:00Z,55.05,-8.33,8.0,5.0,250,15,,6.21,30.147638,,,,,,,,,,,SCT,1900,BKN,2500,,,,,MVFR,,,,,,,,,,,,METAR,2.0
EICK 171900Z 24008KT 9999 SCT040 BKN140 05/03 Q1027 NOSIG,EICK,2021-01-17T19:00:00Z,51.85,-8.47,5.0,3.0,240,8,,6.21,30.324802,,,,,,TRUE,,,,,SCT,4000,BKN,14000,,,,,VFR,,,,,,,,,,,,METAR,158.0
EHVK 171900Z AUTO 27006KT 250V310 9999 FEW014 BKN024 BKN028 05/04 Q1022 WHT,EHVK,2021-01-17T19:00:00Z,51.65,5.7,5.0,4.0,270,6,,6.21,30.177166,,,TRUE,,,,,,,,FEW,1400,BKN,2400,BKN,2800,,,MVFR,,,,,,,,,,,,SPECI,20.0
EGOP 171900Z AUTO 26006KT 9999 // BKN110/// 07/05 Q1027,EGOP,2021-01-17T19:00:00Z,51.72,-4.37,7.0,5.0,260,6,,6.21,30.324802,,,TRUE,,,,,,,,BKN,11000,,,,,,,VFR,,,,,,,,,,,,METAR,8.0
DXXX 171900Z 19008KT 9999 FEW013 28/25 Q1008 NOSIG,DXXX,2021-01-17T19:00:00Z,6.17,1.25,28.0,25.0,190,8,,6.21,29.763779,,,,,,TRUE,,,,,FEW,1300,,,,,,,VFR,,,,,,,,,,,,METAR,22.0
DTTZ 171900Z 25008KT CAVOK 10/M00 Q1025,DTTZ,2021-01-17T19:00:00Z,33.93,8.1,10.0,0.0,250,8,,6.21,30.265747,,,,,,,,,,,CAVOK,,,,,,,,VFR,,,,,,,,,,,,METAR,87.0
DTTX 171900Z 22007KT 9999 FEW020 13/01 Q1021,DTTX,2021-01-17T19:00:00Z,34.72,10.68,13.0,1.0,220,7,,6.21,30.147638,,,,,,,,,,,FEW,2000,,,,,,,VFR,,,,,,,,,,,,METAR,17.0
DTTN 171900Z 25008KT 8000 FEW020 12/M02 Q1022,DTTN,2021-01-17T19:00:00Z,36.47,8.8,12.0,-2.0,250,8,,4.97,30.177166,,,,,,,,,,,FEW,2000,,,,,,,MVFR,,,,,,,,,,,,METAR,145.0
DTTL 171900Z AUTO 25009G19KT 200V300 NCD 13/09 Q1018,DTTL,2021-01-17T19:00:00Z,36.85,11.07,13.0,9.0,250,9,19,,30.059055,,,TRUE,,,,,,,,CLR,,,,,,,,,,,,,,,,,,,,METAR,18.0
DTTK 171900Z 25002KT CAVOK 14/03 Q1021,DTTK,2021-01-17T19:00:00Z,35.67,10.08,14.0,3.0,250,2,,6.21,30.147638,,,,,,,,,,,CAVOK,,,,,,,,VFR,,,,,,,,,,,,METAR,65.0
DTTJ 171900Z 25014KT CAVOK 14/05 Q1023 NOSIG,DTTJ,2021-01-17T19:00:00Z,33.87,10.77,14.0,5.0,250,14,,6.21,30.206694,,,,,,TRUE,,,,,CAVOK,,,,,,,,VFR,,,,,,,,,,,,METAR,3.0
DTTG 171900Z 25014KT CAVOK 12/M01 Q1024 NOSIG,DTTG,2021-01-17T19:00:00Z,33.73,9.92,12.0,-1.0,250,14,,6.21,30.236221,,,,,,TRUE,,,,,CAVOK,,,,,,,,VFR,,,,,,,,,,,,METAR,120.0
DTTF 171900Z 24015KT CAVOK 10/M03 Q1024 NOSIG,DTTF,2021-01-17T19:00:00Z,34.42,8.82,10.0,-3.0,240,15,,6.21,30.236221,,,,,,TRUE,,,,,CAVOK,,,,,,,,VFR,,,,,,,,,,,,METAR,314.0
DTTD 171900Z AUTO 25005KT 210V270 NCD 10/M04 Q1025,DTTD,2021-01-17T19:00:00Z,32.32,10.4,10.0,-4.0,250,5,,,30.265747,,,TRUE,,,,,,,,CLR,,,,,,,,,,,,,,,,,,,,METAR,306.0
DTTB 171900Z 26019G29KT 9999 SCT020 SCT030 14/09 Q1019,DTTB,2021-01-17T19:00:00Z,37.25,9.8,14.0,9.0,260,19,29,6.21,30.088583,,,,,,,,,,,SCT,2000,SCT,3000,,,,,VFR,,,,,,,,,,,,METAR,4.0
DTTA 171900Z 25015KT 9999 FEW023 13/05 Q1020,DTTA,2021-01-17T19:00:00Z,36.85,10.22,13.0,5.0,250,15,,6.21,30.11811,,,,,,,,,,,FEW,2300,,,,,,,VFR,,,,,,,,,,,,METAR,4.0
DTNH 171900Z AUTO 29013KT CAVOK 12/00 Q1020,DTNH,2021-01-17T19:00:00Z,36.07,10.43,12.0,0.0,290,13,,6.21,30.11811,,,TRUE,,,,,,,,CAVOK,,,,,,,,VFR,,,,,,,,,,,,METAR,1.0
DTMB 171900Z 29005KT 9999 FEW046 12/06 Q1021 NOSIG,DTMB,2021-01-17T19:00:00Z,35.77,10.75,12.0,6.0,290,5,,6.21,30.147638,,,,,,TRUE,,,,,FEW,4600,,,,,,,VFR,,,,,,,,,,,,METAR,1.0
DTKA 171900Z 27022KT 9999 SCT020 14/08 Q1021 NOSIG,DTKA,2021-01-17T19:00:00Z,36.98,8.88,14.0,8.0,270,22,,6.21,30.147638,,,,,,TRUE,,,,,SCT,2000,,,,,,,VFR,,,,,,,,,,,,METAR,70.0
DRRT 171900Z 10006KT CAVOK 29/M01 Q1012,DRRT,2021-01-17T19:00:00Z,14.87,5.27,29.0,-1.0,100,6,,6.21,29.88189,,,,,,,,,,,CAVOK,,,,,,,,VFR,,,,,,,,,,,,METAR,387.0
DRRN 171900Z 01004KT 9000 NSC 30/M03 Q1010 NOSIG,DRRN,2021-01-17T19:00:00Z,13.47,2.17,30.0,-3.0,10,4,,5.59,29.822834,,,,,,TRUE,,,,,CLR,,,,,,,,VFR,,,,,,,,,,,,METAR,223.0
DNPO 171900Z 17003KT 8000 FEW009 28/25 Q1008 NOSIG,DNPO,2021-01-17T19:00:00Z,4.83,7.02,28.0,25.0,170,3,,4.97,29.763779,,,,,,TRUE,,,,,FEW,900,,,,,,,MVFR,,,,,,,,,,,,METAR,17.0
DNKN 171900Z 00000KT CAVOK 21/09 Q1015 NOSIG,DNKN,2021-01-17T19:00:00Z,12.05,8.52,21.0,9.0,0,0,,6.21,29.970472,,,,,,TRUE,,,,,CAVOK,,,,,,,,VFR,,,,,,,,,,,,METAR,471.0
DNIL 171900Z 01005KT CAVOK 29/06 Q1010,DNIL,2021-01-17T19:00:00Z,8.43,4.48,29.0,6.0,10,5,,6.21,29.822834,,,,,,,,,,,CAVOK,,,,,,,,VFR,,,,,,,,,,,,METAR,341.0
DNEN 171900Z 00000KT 7000 NSC 29/21 Q1008 NOSIG,DNEN,2021-01-17T19:00:00Z,6.47,7.55,29.0,21.0,0,0,,4.35,29.763779,,,,,,TRUE,,,,,CLR,,,,,,,,MVFR,,,,,,,,,,,,METAR,142.0
DNAA 171900Z 16003KT 8000 30/17 Q1010 NOSIG,DNAA,2021-01-17T19:00:00Z,9.0,7.27,30.0,17.0,160,3,,4.97,29.822834,,,,,,TRUE,,,,,,,,,,,,,,,,,,,,,,,,,METAR,338.0
DIYO 171900Z 00000KT 6000 NSC 26/19 Q1008 NOSIG,DIYO,2021-01-17T19:00:00Z,6.9,-5.35,26.0,19.0,0,0,,3.73,29.763779,,,,,,TRUE,,,,,CLR,,,,,,,,MVFR,,,,,,,,,,,,METAR,202.0
DIBK 171900Z 36006KT 8000 NSC 28/05 Q1010 NOSIG,DIBK,2021-01-17T19:00:00Z,7.73,-5.07,28.0,5.0,360,6,,4.97,29.822834,,,,,,TRUE,,,,,CLR,,,,,,,,MVFR,,,,,,,,,,,,METAR,363.0
DIAP 171900Z 24006KT 9999 TS FEW013 FEW020CB 27/26 Q1008 NOSIG,DIAP,2021-01-17T19:00:00Z,5.25,-3.92,27.0,26.0,240,6,,6.21,29.763779,,,,,,TRUE,,,,TS,FEW,1300,FEW,2000,,,,,VFR,,,,,,,,,,,,METAR,4.0
DGAA 171900Z 18006KT CAVOK 27/25 Q1008 NOSIG,DGAA,2021-01-17T19:00:00Z,5.58,-0.17,27.0,25.0,180,6,,6.21,29.763779,,,,,,TRUE,,,,,CAVOK,,,,,,,,VFR,,,,,,,,,,,,METAR,68.0
DFOO 171900Z 35006KT 6000 NSC 26/06 Q1011,DFOO,2021-01-17T19:00:00Z,11.17,-4.32,26.0,6.0,350,6,,3.73,29.852362,,,,,,,,,,,CLR,,,,,,,,MVFR,,,,,,,,,,,,METAR,461.0
DFFD 171900Z 03003KT 8000 NSC 28/01 Q1010 NOSIG,DFFD,2021-01-17T19:00:00Z,12.35,-1.52,28.0,1.0,30,3,,4.97,29.822834,,,,,,TRUE,,,,,CLR,,,,,,,,MVFR,,,,,,,,,,,,METAR,309.0
DBBB 171900Z 19007KT 9999 FEW012 28/25 Q1008 NOSIG,DBBB,2021-01-17T19:00:00Z,6.35,2.38,28.0,25.0,190,7,,6.21,29.763779,,,,,,TRUE,,,,,FEW,1200,,,,,,,VFR,,,,,,,,,,,,METAR,4.0
DAUZ 171900Z 05005KT CAVOK 10/M06 Q1025,DAUZ,2021-01-17T19:00:00Z,28.05,9.63,10.0,-6.0,50,5,,6.21,30.265747,,,,,,,,,,,CAVOK,,,,,,,,VFR,,,,,,,,,,,,METAR,567.0
DAUU 171900Z 00000KT CAVOK 10/M02 Q1027,DAUU,2021-01-17T19:00:00Z,31.92,5.4,10.0,-2.0,0,0,,6.21,30.324802,,,,,,,,,,,CAVOK,,,,,,,,VFR,,,,,,,,,,,,METAR,147.0
DAUT 171900Z 06010KT CAVOK 12/M02 Q1026,DAUT,2021-01-17T19:00:00Z,29.25,0.27,12.0,-2.0,60,10,,6.21,30.295275,,,,,,,,,,,CAVOK,,,,,,,,VFR,,,,,,,,,,,,METAR,307.0
DAUO 171900Z 23005KT CAVOK 10/M01 Q1026,DAUO,2021-01-17T19:00:00Z,33.5,6.78,10.0,-1.0,230,5,,6.21,30.295275,,,,,,,,,,,CAVOK,,,,,,,,VFR,,,,,,,,,,,,METAR,55.0
DAUL 171900Z 00000KT CAVOK 08/M11 Q1026,DAUL,2021-01-17T19:00:00Z,33.77,2.92,8.0,-11.0,0,0,,6.21,30.295275,,,,,,,,,,,CAVOK,,,,,,,,VFR,,,,,,,,,,,,METAR,755.0
DAUK 171900Z 18004KT CAVOK 11/M01 Q1026,DAUK,2021-01-17T19:00:00Z,33.08,6.08,11.0,-1.0,180,4,,6.21,30.295275,,,,,,,,,,,CAVOK,,,,,,,,VFR,,,,,,,,,,,,METAR,83.0
DAUI 171900Z 06013KT CAVOK 13/M04 Q1023,DAUI,2021-01-17T19:00:00Z,27.25,2.52,13.0,-4.0,60,13,,6.21,30.206694,,,,,,,,,,,CAVOK,,,,,,,,VFR,,,,,,,,,,,,METAR,271.0
DAUH 171900Z 00000KT CAVOK 10/M01 Q1027,DAUH,2021-01-17T19:00:00Z,31.67,6.15,10.0,-1.0,0,0,,6.21,30.324802,,,,,,,,,,,CAVOK,,,,,,,,VFR,,,,,,,,,,,,METAR,141.0
DAUG 171900Z 15003KT CAVOK 11/M03 Q1027,DAUG,2021-01-17T19:00:00Z,32.38,3.78,11.0,-3.0,150,3,,6.21,30.324802,,,,,,,,,,,CAVOK,,,,,,,,VFR,,,,,,,,,,,,METAR,444.0
DAUE 171900Z VRB02KT CAVOK 11/M03 Q1027,DAUE,2021-01-17T19:00:00Z,30.57,2.87,11.0,-3.0,0,2,,6.21,30.324802,,,,,,,,,,,CAVOK,,,,,,,,VFR,,,,,,,,,,,,METAR,396.0
DAUB 171900Z 31007KT CAVOK 14/M04 Q1025,DAUB,2021-01-17T19:00:00Z,34.78,5.73,14.0,-4.0,310,7,,6.21,30.265747,,,,,,,,,,,CAVOK,,,,,,,,VFR,,,,,,,,,,,,METAR,75.0
DAUA 171900Z 01007KT CAVOK 13/M06 Q1024,DAUA,2021-01-17T19:00:00Z,27.83,-0.18,13.0,-6.0,10,7,,6.21,30.236221,,,,,,,,,,,CAVOK,,,,,,,,VFR,,,,,,,,,,,,METAR,278.0
DAOY 171900Z VRB02KT CAVOK 02/M06 Q1027,DAOY,2021-01-17T19:00:00Z,33.72,1.08,2.0,-6.0,0,2,,6.21,30.324802,,,,,,,,,,,CAVOK,,,,,,,,VFR,,,,,,,,,,,,METAR,1340.0
DAOV 171900Z 15003KT CAVOK 10/M02 Q1026,DAOV,2021-01-17T19:00:00Z,35.2,0.15,10.0,-2.0,150,3,,6.21,30.295275,,,,,,,,,,,CAVOK,,,,,,,,VFR,,,,,,,,,,,,METAR,506.0
DAOR 171900Z 36002KT CAVOK 10/M12 Q1028,DAOR,2021-01-17T19:00:00Z,31.65,-2.27,10.0,-12.0,360,2,,6.21,30.35433,,,,,,,,,,,CAVOK,,,,,,,,VFR,,,,,,,,,,,,METAR,809.0
DAOO 171900Z VRB02KT CAVOK 10/08 Q1026,DAOO,2021-01-17T19:00:00Z,35.62,-0.62,10.0,8.0,0,2,,6.21,30.295275,,,,,,,,,,,CAVOK,,,,,,,,VFR,,,,,,,,,,,,METAR,87.0
DAON 171900Z VRB02KT CAVOK 09/04 Q1027,DAON,2021-01-17T19:00:00Z,35.02,-1.47,9.0,4.0,0,2,,6.21,30.324802,,,,,,,,,,,CAVOK,,,,,,,,VFR,,,,,,,,,,,,METAR,245.0
DAOL 171900Z 17004KT CAVOK 08/05 Q1027,DAOL,2021-01-17T19:00:00Z,35.53,-0.52,8.0,5.0,170,4,,6.21,30.324802,,,,,,,,,,,CAVOK,,,,,,,,VFR,,,,,,,,,,,,METAR,103.0
DAOI 171900Z 36003KT CAVOK 11/03 Q1026,DAOI,2021-01-17T19:00:00Z,36.22,1.32,11.0,3.0,360,3,,6.21,30.295275,,,,,,,,,,,CAVOK,,,,,,,,VFR,,,,,,,,,,,,METAR,141.0
DAOF 171900Z 07010KT CAVOK 16/M08 Q1026,DAOF,2021-01-17T19:00:00Z,27.7,-8.17,16.0,-8.0,70,10,,6.21,30.295275,,,,,,,,,,,CAVOK,,,,,,,,VFR,,,,,,,,,,,,METAR,441.0
DAOB 171900Z 22009KT CAVOK 05/M03 Q1027,DAOB,2021-01-17T19:00:00Z,35.33,1.47,5.0,-3.0,220,9,,6.21,30.324802,,,,,,,,,,,CAVOK,,,,,,,,VFR,,,,,,,,,,,,METAR,984.0
DABT 171900Z 25010KT CAVOK 07/M04 Q1025,DABT,2021-01-17T19:00:00Z,35.75,6.32,7.0,-4.0,250,10,,6.21,30.265747,,,,,,,,,,,CAVOK,,,,,,,,VFR,,,,,,,,,,,,METAR,813.0
DABS 171900Z 28004KT CAVOK 08/M01 Q1023,DABS,2021-01-17T19:00:00Z,35.43,8.12,8.0,-1.0,280,4,,6.21,30.206694,,,,,,,,,,,CAVOK,,,,,,,,VFR,,,,,,,,,,,,METAR,806.0
DABC 171900Z VRB02KT CAVOK 07/M01 Q1024,DABC,2021-01-17T19:00:00Z,36.27,6.62,7.0,-1.0,0,2,,6.21,30.236221,,,,,,,,,,,CAVOK,,,,,,,,VFR,,,,,,,,,,,,METAR,700.0
DABB 171900Z 29013KT CAVOK 10/07 Q1022,DABB,2021-01-17T19:00:00Z,36.82,7.82,10.0,7.0,290,13,,6.21,30.177166,,,,,,,,,,,CAVOK,,,,,,,,VFR,,,,,,,,,,,,METAR,3.0
DAAY 171900Z 34004KT CAVOK 05/M04 Q1030,DAAY,2021-01-17T19:00:00Z,33.53,-0.25,5.0,-4.0,340,4,,6.21,30.413385,,,,,,,,,,,CAVOK,,,,,,,,VFR,,,,,,,,,,,,METAR,1116.0
DAAV 171900Z 15003KT CAVOK 09/05 Q1024,DAAV,2021-01-17T19:00:00Z,36.8,5.88,9.0,5.0,150,3,,6.21,30.236221,,,,,,,,,,,CAVOK,,,,,,,,VFR,,,,,,,,,,,,METAR,11.0
DAAT 171900Z 12010KT CAVOK 15/M17 Q1022,DAAT,2021-01-17T19:00:00Z,22.82,5.47,15.0,-17.0,120,10,,6.21,30.177166,,,,,,,,,,,CAVOK,,,,,,,,VFR,,,,,,,,,,,,METAR,1372.0
DAAS 171900Z 27005KT CAVOK 05/M06 Q1025,DAAS,2021-01-17T19:00:00Z,36.18,5.33,5.0,-6.0,270,5,,6.21,30.265747,,,,,,,,,,,CAVOK,,,,,,,,VFR,,,,,,,,,,,,METAR,1012.0
DAAP 171900Z 05004KT CAVOK 11/M06 Q1026,DAAP,2021-01-17T19:00:00Z,26.72,8.62,11.0,-6.0,50,4,,6.21,30.295275,,,,,,,,,,,CAVOK,,,,,,,,VFR,,,,,,,,,,,,METAR,542.0
DAAJ 171900Z 02015KT CAVOK 11/M09 Q1023,DAAJ,2021-01-17T19:00:00Z,24.28,9.47,11.0,-9.0,20,15,,6.21,30.206694,,,,,,,,,,,CAVOK,,,,,,,,VFR,,,,,,,,,,,,METAR,962.0
DAAG 171900Z 24005KT CAVOK 09/06 Q1026,DAAG,2021-01-17T19:00:00Z,36.68,3.22,9.0,6.0,240,5,,6.21,30.295275,,,,,,,,,,,CAVOK,,,,,,,,VFR,,,,,,,,,,,,METAR,18.0
DAAE 171900Z 22004KT CAVOK 08/04 Q1024,DAAE,2021-01-17T19:00:00Z,36.72,5.07,8.0,4.0,220,4,,6.21,30.236221,,,,,,,,,,,CAVOK,,,,,,,,VFR,,,,,,,,,,,,METAR,1.0
CZZJ 171900Z AUTO 26005KT 03/M04 RMK AO1 SOG 11 1008 SLP133 T00301040,CZZJ,2021-01-17T19:00:00Z,53.58,-116.47,3.0,-4.0,260,5,,,,1013.3,,TRUE,TRUE,,,,,,,,,,,,,,,,,,,,,,,,,,,METAR,927.0
CZVL 171900Z AUTO 29010KT 9SM OVC048 03/M01 A2976 RMK SLP106,CZVL,2021-01-17T19:00:00Z,53.67,-113.85,3.0,-1.0,290,10,,9.0,29.760826,1010.6,,TRUE,,,,,,,,OVC,4800,,,,,,,VFR,,,,,,,,,,,,METAR,685.0
CZTB 171900Z AUTO 23006KT M06/M15 RMK AO1 SOG 14 8018 SLP090 T10611147,CZTB,2021-01-17T19:00:00Z,48.37,-89.32,-6.1,-14.7,230,6,,,,1009.0,,TRUE,TRUE,,,,,,,,,,,,,,,,,,,,,,,,,,,METAR,197.0
CZST 171900Z 00000KT 3SM -SN BKN006 OVC012 00/00 A3021 RMK SC5SC3 SLP233,CZST,2021-01-17T19:00:00Z,55.93,-129.98,0.0,0.0,0,0,,3.0,30.209646,1023.3,,,,,,,,,-SN,BKN,600,OVC,1200,,,,,IFR,,,,,,,,,,,,METAR,10.0
CZSP 171900Z AUTO 18016G24KT 04/01 RMK AO1 SOG 06 0005 PK WND 18024/1801 SLP845 T00410006,CZSP,2021-01-17T19:00:00Z,46.45,-62.58,4.1,0.6,180,16,24,,,984.5,,TRUE,TRUE,,,,,,,,,,,,,,,,,,,,,,,,,,,METAR,31.0
CZSM 171900Z AUTO 12003KT M16/M19 RMK AO1 SOG 49 0001 SLP141 T11611187,CZSM,2021-01-17T19:00:00Z,60.03,-111.93,-16.1,-18.7,120,3,,,,1014.1,,TRUE,TRUE,,,,,,,,,,,,,,,,,,,,,,,,,,,SPECI,203.0
CZPC 171900Z AUTO 28017G22KT 9SM 05/M06 A2987 RMK CLD MISG SLP149,CZPC,2021-01-17T19:00:00Z,49.52,-114.0,5.0,-6.0,280,17,22,9.0,29.870079,1014.9,,TRUE,,,,,,,,,,,,,,,,,,,,,,,,,,,,METAR,1187.0
CZOL 171900Z AUTO 29007KT 02/M01 RMK AO1 T00231008,CZOL,2021-01-17T19:00:00Z,53.65,-113.35,2.3,-0.8,290,7,,,,,,TRUE,TRUE,,,,,,,,,,,,,,,,,,,,,,,,,,,METAR,645.0
CZMT 171900Z 18004KT 150V240 15SM SCT040 BKN140 06/05 A3031 RMK SC4AC3 SLP265,CZMT,2021-01-17T19:00:00Z,54.03,-132.13,6.0,5.0,180,4,,15.0,30.31004,1026.5,,,,,,,,,,SCT,4000,BKN,14000,,,,,VFR,,,,,,,,,,,,METAR,11.0
CZMJ 171900Z AUTO 28003KT M02/M07 RMK AO1 SLP135 T10201066 58019,CZMJ,2021-01-17T19:00:00Z,50.33,-105.53,-2.0,-6.6,280,3,,,,1013.5,,TRUE,TRUE,,,,,,,,,,,,,,,,-1.9,,,,,,,,,,,METAR,571.0
CZMD 171900Z AUTO 35009G15KT 9SM -SN FEW016 OVC050 M16/M18 A2979 RMK SLP116,CZMD,2021-01-17T19:00:00Z,53.43,-91.77,-16.0,-18.0,350,9,15,9.0,29.790354,1011.6,,TRUE,,,,,,,-SN,FEW,1600,OVC,5000,,,,,VFR,,,,,,,,,,,,METAR,276.0
CZHY 171900Z AUTO 14003KT M14/M16 RMK AO1 SOG 16 1005 SLP138 T11441163,CZHY,2021-01-17T19:00:00Z,60.83,-115.78,-14.4,-16.3,140,3,,,,1013.8,,TRUE,TRUE,,,,,,,,,,,,,,,,,,,,,,,,,,,SPECI,159.0
CZFS 171900Z AUTO 13004KT M18/M20 RMK AO1 SOG 27 1005 SLP134 T11781198,CZFS,2021-01-17T19:00:00Z,61.77,-121.23,-17.8,-19.8,130,4,,,,1013.4,,TRUE,TRUE,,,,,,,,,,,,,,,,,,,,,,,,,,,SPECI,174.0
CZFA 171900Z VRB02KT 30SM FEW100 FEW180 FEW220 M16/M17 A2973 RMK AC1AC2CI1 AC TR CI TR SLP131,CZFA,2021-01-17T19:00:00Z,62.2,-133.38,-16.0,-17.0,0,2,,30.0,29.731298,1013.1,,,,,,,,,,FEW,10000,FEW,18000,FEW,22000,,,VFR,,,,,,,,,,,,METAR,702.0
CZEV 171900Z AUTO 10002KT M21/M23 RMK AO1 SOG 24 0005 SLP139 T12081231,CZEV,2021-01-17T19:00:00Z,68.32,-133.48,-20.8,-23.1,100,2,,,,1013.9,,TRUE,TRUE,,,,,,,,,,,,,,,,,,,,,,,,,,,SPECI,92.0
CZEL 171900Z AUTO 27009KT M00/M03 RMK AO1 SOG 09 6011 PK WND 31021/1813 SLP025 T10031028,CZEL,2021-01-17T19:00:00Z,43.65,-80.42,-0.3,-2.8,270,9,,,,1002.5,,TRUE,TRUE,,,,,,,,,,,,,,,,,,,,,,,,,,,METAR,370.0
CZDB 171900Z AUTO 21017G27KT 04/M00 RMK AO1 SOG 07 3002 PK WND 21027/1856 SLP860 T00421004,CZDB,2021-01-17T19:00:00Z,45.42,-63.47,4.2,-0.4,210,17,27,,,986.0,,TRUE,TRUE,,,,,,,,,,,,,,,,,,,,,,,,,,,METAR,38.0
CZCR 171900Z AUTO 27007KT M00/M00 RMK AO1 6PAST HR SOG 14 6027 SLP777 P0002 T10011001 50006,CZCR,2021-01-17T19:00:00Z,47.98,-66.33,-0.1,-0.1,270,7,,,,977.7,,TRUE,TRUE,,,,,,,,,,,,,,,,0.6,,,,,0.02,,,,,,METAR,39.0
CZCP 171900Z AUTO 08028G33KT ////SM //// OVC002 M24/M26 A2994,CZCP,2021-01-17T19:00:00Z,70.17,-124.68,-24.0,-26.0,80,28,33,,29.940945,,,TRUE,,,,,,,,OVC,200,,,,,,,,,,,,,,,,,,,METAR,23.0
CZBF 171900Z AUTO 22005KT 1 1/4SM -SN OVC013 M00/M00 A2885 RMK SLP780,CZBF,2021-01-17T19:00:00Z,47.62,-65.75,0.0,0.0,220,5,,1.25,28.851377,978.0,,TRUE,,,,,,,-SN,OVC,1300,,,,,,,IFR,,,,,,,,,,,,METAR,60.0
CYZY 171900Z AUTO 15008KT 9SM CLR 01/M01 A3003 RMK SLP206,CYZY,2021-01-17T19:00:00Z,55.3,-123.13,1.0,-1.0,150,8,,9.0,30.029528,1020.6,,TRUE,,,,,,,,CLR,,,,,,,,VFR,,,,,,,,,,,,METAR,694.0
CYZX 171900Z 23012G17KT 5SM -SHRASN BR OVC017 02/01 A2914 RMK SC8 CIG VRB 12-22 SLP868,CYZX,2021-01-17T19:00:00Z,44.98,-64.92,2.0,1.0,230,12,17,5.0,29.140747,986.8,,,,,,,,,-SHRA -SHSN BR,OVC,1700,,,,,,,MVFR,,,,,,,,,,,,METAR,28.0
CYZW 171900Z 09004KT 010V130 30SM FEW020 BKN050 OVC200 M03/M04 A2981 RMK SC1SC6CI1 SLP139,CYZW,2021-01-17T19:00:00Z,60.17,-132.75,-3.0,-4.0,90,4,,30.0,29.811024,1013.9,,,,,,,,,,FEW,2000,BKN,5000,OVC,20000,,,VFR,,,,,,,,,,,,METAR,700.0
CYZU 171900Z 29015G24KT 3SM -SN DRSN OVC030 02/M01 A2981 RMK SC8 SLP131,CYZU,2021-01-17T19:00:00Z,54.15,-115.78,2.0,-1.0,290,15,24,3.0,29.811024,1013.1,,,,,,,,,-SN DRSN,OVC,3000,,,,,,,MVFR,,,,,,,,,,,,METAR,785.0
CYZT 171900Z 22008KT 20SM BKN042 BKN200 08/06 A3048 RMK SC6CI1 CI TR SLP322,CYZT,2021-01-17T19:00:00Z,50.68,-127.37,8.0,6.0,220,8,,20.0,30.481298,1032.2,,,,,,,,,,BKN,4200,BKN,20000,,,,,VFR,,,,,,,,,,,,METAR,13.0
CYZS 171900Z 30003KT 15SM IC FEW100 M31/M34 A2977 RMK AC1 SLP092,CYZS,2021-01-17T19:00:00Z,64.2,-83.35,-31.0,-34.0,300,3,,15.0,29.769686,1009.2,,,,,,,,,IC,FEW,10000,,,,,,,VFR,,,,,,,,,,,,METAR,60.0
CYZR 171900Z AUTO 31007KT 9SM FEW019 SCT026 OVC031 03/M01 A2962 RMK SLP037,CYZR,2021-01-17T19:00:00Z,43.0,-82.3,3.0,-1.0,310,7,,9.0,29.619095,1003.7,,TRUE,,,,,,,,FEW,1900,SCT,2600,OVC,3100,,,VFR,,,,,,,,,,,,METAR,181.0
CYZP 171900Z AUTO 25010G18KT 220V290 9SM SCT130 08/03 A3033 RMK SLP274,CYZP,2021-01-17T19:00:00Z,53.25,-131.82,8.0,3.0,250,10,18,9.0,30.33071,1027.4,,TRUE,,,,,,,,SCT,13000,,,,,,,VFR,,,,,,,,,,,,METAR,7.0
CYZH 171900Z AUTO 30004KT 3SM -SN OVC020 M01/M02 A2974 RMK SLP108,CYZH,2021-01-17T19:00:00Z,55.28,-114.77,-1.0,-2.0,300,4,,3.0,29.740158,1010.8,,TRUE,,,,,,,-SN,OVC,2000,,,,,,,MVFR,,,,,,,,,,,,METAR,583.0
CYZG 171900Z 20015G21KT 6SM IC HZ DRSN FEW012 BKN075 M24/M27 A2982 RMK HZ1ST1AC5 VIS-10NM NNE SLP134,CYZG,2021-01-17T19:00:00Z,62.17,-75.67,-24.0,-27.0,200,15,21,6.0,29.819881,1013.4,,,,,,,,,IC HZ DRSN,FEW,1200,BKN,7500,,,,,VFR,,,,,,,,,,,,METAR,217.0
CYZF 171900Z 08004KT 15SM -SN OVC008 M19/M21 A2990 RMK SC8 SLP155,CYZF,2021-01-17T19:00:00Z,62.47,-114.45,-19.0,-21.0,80,4,,15.0,29.899607,1015.5,,,,,,,,,-SN,OVC,800,,,,,,,IFR,,,,,,,,,,,,METAR,202.0
CYZE 171900Z AUTO 35006G15KT 9SM CLR M02/M08 A2959 RMK SLP034,CYZE,2021-01-17T19:00:00Z,45.88,-82.57,-2.0,-8.0,350,6,15,9.0,29.589567,1003.4,,TRUE,,,,,,,,CLR,,,,,,,,VFR,,,,,,,,,,,,METAR,189.0
CYYZ 171900Z 29013G23KT 15SM BKN030 BKN045 04/M02 A2955 RMK SC5SC2 SLP014,CYYZ,2021-01-17T19:00:00Z,43.67,-79.62,4.0,-2.0,290,13,23,15.0,29.551182,1001.4,,,,,,,,,,BKN,3000,BKN,4500,,,,,MVFR,,,,,,,,,,,,METAR,171.0
CYYY 171900Z 02014KT 5/8SM R06/3000V4000FT/U -SN VV002 M01/M01 A2898 RMK SN8 SLP817,CYYY,2021-01-17T19:00:00Z,48.6,-68.22,-1.0,-1.0,20,14,,0.63,28.981298,981.7,,,,,,,,,-SN,OVX,0,,,,,,,LIFR,,,,,,,,,,,200,METAR,43.0
CYYW 171900Z AUTO 00000KT 9SM CLR M09/M19 A2974 RMK SLP115,CYYW,2021-01-17T19:00:00Z,50.3,-88.9,-9.0,-19.0,0,0,,9.0,29.740158,1011.5,,TRUE,,,,,,,,CLR,,,,,,,,VFR,,,,,,,,,,,,METAR,320.0
CYYU 171900Z 34009KT 10SM -SN BKN012 M14/M18 A2972 RMK SC7 SLP087,CYYU,2021-01-17T19:00:00Z,49.42,-82.47,-14.0,-18.0,340,9,,10.0,29.719488,1008.7,,,,,,,,,-SN,BKN,1200,,,,,,,MVFR,,,,,,,,,,,,METAR,228.0
CYYT 171900Z 15016G23KT 1/8SM R11/1400V1800FT/N R16/1200V1400FT/N -DZ FG VV001 01/01 A2954 RMK FG8 PRESFR SLP010,CYYT,2021-01-17T19:00:00Z,47.62,-52.73,1.0,1.0,150,16,23,0.13,29.53937,1001.0,,,,,,,,,-DZ FG,OVX,0,,,,,,,LIFR,,,,,,,,,,,100,METAR,128.0
CYYR 171900Z 04009KT 15SM FEW015 BKN028 OVC070 M06/M08 A2957 RMK SC1SC7AC1 SLP017,CYYR,2021-01-17T19:00:00Z,53.32,-60.42,-6.0,-8.0,40,9,,15.0,29.568897,1001.7,,,,,,,,,,FEW,1500,BKN,2800,OVC,7000,,,MVFR,,,,,,,,,,,,METAR,42.0
CYYQ 171900Z 35013KT 15SM -SN DRSN OVC021 M20/M23 A3010 RMK SC8 SLP200,CYYQ,2021-01-17T19:00:00Z,58.75,-94.07,-20.0,-23.0,350,13,,15.0,30.100393,1020.0,,,,,,,,,-SN DRSN,OVC,2100,,,,,,,MVFR,,,,,,,,,,,,METAR,20.0
CYYH 171900Z 17003KT 15SM IC FEW025 FEW090 FEW210 M31/M35 A2993 RMK SC1AC1CI1 SC TR AC TR CI TR FROIN SLP143,CYYH,2021-01-17T19:00:00Z,69.53,-93.57,-31.0,-35.0,170,3,,15.0,29.929134,1014.3,,,,,,,,,IC,FEW,2500,FEW,9000,FEW,21000,,,VFR,,,,,,,,,,,,METAR,19.0
CYYF 171900Z 17014G21KT 15SM FEW065 04/M01 A3029 RMK CF1 SLP273,CYYF,2021-01-17T19:00:00Z,49.47,-119.6,4.0,-1.0,170,14,21,15.0,30.28937,1027.3,,,,,,,,,,FEW,6500,,,,,,,VFR,,,,,,,,,,,,METAR,342.0
CYYE 171900Z 14003KT 30SM BKN069 M06/M09 A2983 RMK AC7 SLP133,CYYE,2021-01-17T19:00:00Z,58.83,-122.58,-6.0,-9.0,140,3,,30.0,29.828741,1013.3,,,,,,,,,,BKN,6900,,,,,,,VFR,,,,,,,,,,,,METAR,379.0
CYYD 171900Z 00000KT 25SM FEW005 BKN070 00/M00 A3015 RMK SF1AC4 SLP232,CYYD,2021-01-17T19:00:00Z,54.82,-127.18,0.0,0.0,0,0,,25.0,30.15059,1023.2,,,,,,,,,,FEW,500,BKN,7000,,,,,VFR,,,,,,,,,,,,METAR,527.0
CYYC 171900Z 28016G22KT 40SM BKN078 BKN120 06/M08 A2981 RMK AC6AC1 SLP134,CYYC,2021-01-17T19:00:00Z,51.12,-114.02,6.0,-8.0,280,16,22,40.0,29.811024,1013.4,,,,,,,,,,BKN,7800,BKN,12000,,,,,VFR,,,,,,,,,,,,METAR,1085.0
CYYB 171900Z 33009KT 30SM OVC012 M08/M10 A2952 RMK SC8 SLP018,CYYB,2021-01-17T19:00:00Z,46.35,-79.42,-8.0,-10.0,330,9,,30.0,29.518702,1001.8,,,,,,,,,,OVC,1200,,,,,,,MVFR,,,,,,,,,,,,METAR,360.0
CYXZ 171900Z 01007KT 340V050 15SM FEW150 FEW250 M11/M16 A2968 RMK AC1CI1 SLP077,CYXZ,2021-01-17T19:00:00Z,47.97,-84.77,-11.0,-16.0,10,7,,15.0,29.681103,1007.7,,,,,,,,,,FEW,15000,FEW,25000,,,,,VFR,,,,,,,,,,,,METAR,287.0
CYXY 171900Z 17015KT 40SM FEW010 FEW038 SCT063 BKN170 M03/M05 A2972 RMK ST1SC1SC2AC3 ST TR SLP106,CYXY,2021-01-17T19:00:00Z,60.72,-135.07,-3.0,-5.0,170,15,,40.0,29.719488,1010.6,,,,,,,,,,FEW,1000,FEW,3800,SCT,6300,BKN,17000,VFR,,,,,,,,,,,,METAR,677.0
CYXX 171900Z 00000KT 10SM FEW003 BKN015 OVC018 06/05 A3045 RMK SF1SC6SC2 SF TR SLP315,CYXX,2021-01-17T19:00:00Z,49.03,-122.38,6.0,5.0,0,0,,10.0,30.448818,1031.5,,,,,,,,,,FEW,300,BKN,1500,OVC,1800,,,MVFR,,,,,,,,,,,,METAR,54.0
CYXT 171900Z 22008KT 5SM -RA BR BKN007 OVC020 04/03 A3025 RMK SF6SC4 SLP254,CYXT,2021-01-17T19:00:00Z,54.47,-128.57,4.0,3.0,220,8,,5.0,30.250984,1025.4,,,,,,,,,-RA BR,BKN,700,OVC,2000,,,,,IFR,,,,,,,,,,,,METAR,213.0
CYXS 171900Z AUTO 18012KT 9SM CLR 01/M02 A3011 RMK SLP234,CYXS,2021-01-17T19:00:00Z,53.88,-122.68,1.0,-2.0,180,12,,9.0,30.109253,1023.4,,TRUE,,,,,,,,CLR,,,,,,,,VFR,,,,,,,,,,,,METAR,685.0
CYXR 171900Z AUTO 31015G21KT 9SM -SN OVC017 M10/M13 A2957 RMK SLP033,CYXR,2021-01-17T19:00:00Z,47.7,-79.85,-10.0,-13.0,310,15,21,9.0,29.568897,1003.3,,TRUE,,,,,,,-SN,OVC,1700,,,,,,,MVFR,,,,,,,,,,,,METAR,244.0
CYXQ 171900Z 00000KT 30SM BKN140 OVC220 M21/M24 A2958 RMK AC5CI3 SLP083,CYXQ,2021-01-17T19:00:00Z,62.42,-140.87,-21.0,-24.0,0,0,,30.0,29.58071,1008.3,,,,,,,,,,BKN,14000,OVC,22000,,,,,VFR,,,,,,,,,,,,METAR,663.0
CYXP 171900Z 18003KT 140V230 15SM SCT024 M22/M25 A2996 RMK SC3 SLP150,CYXP,2021-01-17T19:00:00Z,66.15,-65.72,-22.0,-25.0,180,3,,15.0,29.958662,1015.0,,,,,,,,,,SCT,2400,,,,,,,VFR,,,,,,,,,,,,METAR,29.0
CYXN 171900Z 32013KT 15SM FEW056 SCT120 M25/M28 A3000 RMK SC2AC2 SLP163,CYXN,2021-01-17T19:00:00Z,62.23,-92.58,-25.0,-28.0,320,13,,15.0,30.0,1016.3,,,,,,,,,,FEW,5600,SCT,12000,,,,,VFR,,,,,,,,,,,,METAR,9.0
CYXJ 171900Z 25012KT 60SM SCT160 BKN200 02/M03 A2986 RMK AC3CI4 SLP144,CYXJ,2021-01-17T19:00:00Z,56.25,-120.73,2.0,-3.0,250,12,,60.0,29.861221,1014.4,,,,,,,,,,SCT,16000,BKN,20000,,,,,VFR,,,,,,,,,,,,METAR,700.0
CYXH 171900Z 25006KT 30SM OVC070 02/M03 A2978 RMK AC8 SLP114,CYXH,2021-01-17T19:00:00Z,50.02,-110.72,2.0,-3.0,250,6,,30.0,29.778543,1011.4,,,,,,,,,,OVC,7000,,,,,,,VFR,,,,,,,,,,,,METAR,717.0
CYXE 171900Z 23005KT 15SM OVC120 M08/M11 A2978 RMK AC8 SLP121,CYXE,2021-01-17T19:00:00Z,52.17,-106.7,-8.0,-11.0,230,5,,15.0,29.778543,1012.1,,,,,,,,,,OVC,12000,,,,,,,VFR,,,,,,,,,,,,METAR,504.0
CYXC 171900Z 01003KT 10SM OVC006 M02/M03 A3010 RMK ST8 SLP235,CYXC,2021-01-17T19:00:00Z,49.6,-115.78,-2.0,-3.0,10,3,,10.0,30.100393,1023.5,,,,,,,,,,OVC,600,,,,,,,IFR,,,,,,,,,,,,METAR,928.0
CYWL 171900Z 13003KT 15SM SCT110 BKN230 M03/M05 A3020 RMK AC4CI1 SLP274,CYWL,2021-01-17T19:00:00Z,52.18,-122.07,-3.0,-5.0,130,3,,15.0,30.200787,1027.4,,,,,,,,,,SCT,11000,BKN,23000,,,,,VFR,,,,,,,,,,,,METAR,942.0
CYWK 171900Z CCA 03007KT 1 1/2SM -SN DRSN OVC022 M06/M08 A2920 RMK SC8 /S01/ SLP923,CYWK,2021-01-17T19:00:00Z,52.92,-66.87,-6.0,-8.0,30,7,,1.5,29.199802,992.3,,,,,,,,,DRSN -SN,OVC,2200,,,,,,,IFR,,,,,,,,,,,,METAR,547.0
CYWJ 171900Z 08005KT 050V120 20SM BKN009 BKN170 M17/M18 A2980 RMK ST5AC2 PRESRR SLP120,CYWJ,2021-01-17T19:00:00Z,65.22,-123.43,-17.0,-18.0,80,5,,20.0,29.799213,1012.0,,,,,,,,,,BKN,900,BKN,17000,,,,,IFR,,,,,,,,,,,,METAR,208.0
CYWH 171900Z 24011KT 15SM FEW009 09/07 A3045 RMK CF1 SLP314,CYWH,2021-01-17T19:00:00Z,48.42,-123.38,9.0,7.0,240,11,,15.0,30.448818,1031.4,,,,,,,,,,FEW,900,,,,,,,VFR,,,,,,,,,,,,METAR,4.0
CYWG 171900Z 36008KT 5SM -SN OVC016 M10/M13 A2988 RMK SC8 WSHFT 1804 SLP140,CYWG,2021-01-17T19:00:00Z,49.9,-97.23,-10.0,-13.0,360,8,,5.0,29.878937,1014.0,,,,,,,,,-SN,OVC,1600,,,,,,,MVFR,,,,,,,,,,,,METAR,238.0
CYWE 171900Z AUTO VRB02KT 9SM -SN OVC015 M19/M21 A2984 RMK ICG INTMT SLP153,CYWE,2021-01-17T19:00:00Z,64.18,-114.08,-19.0,-21.0,0,2,,9.0,29.840551,1015.3,,TRUE,,,,,,,-SN,OVC,1500,,,,,,,MVFR,,,,,,,,,,,,METAR,374.0
CYWA 171900Z AUTO 30008KT 9SM OVC015 OVC088 M04/M08 A2949 RMK SLP994,CYWA,2021-01-17T19:00:00Z,45.95,-77.32,-4.0,-8.0,300,8,,9.0,29.489174,999.4,,TRUE,,,,,,,,OVC,1500,OVC,8800,,,,,MVFR,,,,,,,,,,,,METAR,121.0
CYVV 171900Z 32005KT 290V350 15SM SCT022 BKN030 BKN150 M01/M05 A2957 RMK SC3SC4AC1 AC TR SLP024,CYVV,2021-01-17T19:00:00Z,44.75,-81.1,-1.0,-5.0,320,5,,15.0,29.568897,1002.4,,,,,,,,,,SCT,2200,BKN,3000,BKN,15000,,,MVFR,,,,,,,,,,,,METAR,221.0
CYVT 171900Z AUTO 12007KT 9SM OVC009 M10/M13 A2978 RMK SLP117,CYVT,2021-01-17T19:00:00Z,55.83,-108.42,-10.0,-13.0,120,7,,9.0,29.778543,1011.7,,TRUE,,,,,,,,OVC,900,,,,,,,IFR,,,,,,,,,,,,METAR,438.0
CYVR 171900Z 14003KT 20SM SCT023 BKN031 08/06 A3045 RMK SC4SC2 CU ASOCTD SLP314,CYVR,2021-01-17T19:00:00Z,49.17,-123.17,8.0,6.0,140,3,,20.0,30.448818,1031.4,,,,,,,,,,SCT,2300,BKN,3100,,,,,VFR,,,,,,,,,,,,METAR,2.0
CYVQ 171900Z 28006KT 30SM BKN015 M25/M27 A2992 RMK SC7 SLP143,CYVQ,2021-01-17T19:00:00Z,65.27,-126.78,-25.0,-27.0,280,6,,30.0,29.920275,1014.3,,,,,,,,,,BKN,1500,,,,,,,MVFR,,,,,,,,,,,,METAR,63.0
CYVO 171900Z 30012G17KT 15SM -SN DRSN OVC013 M08/M10 A2944 RMK ST8 SLP994,CYVO,2021-01-17T19:00:00Z,48.07,-77.77,-8.0,-10.0,300,12,17,15.0,29.438976,999.4,,,,,,,,,-SN DRSN,OVC,1300,,,,,,,MVFR,,,,,,,,,,,,METAR,329.0
CYVL 171900Z AUTO 00000KT 9SM M21/M23 A2981 RMK CLD MISG SLP134,CYVL,2021-01-17T19:00:00Z,67.02,-126.13,-21.0,-23.0,0,0,,9.0,29.811024,1013.4,,TRUE,,,,,,,,,,,,,,,,,,,,,,,,,,,,METAR,261.0
CYVC 171900Z 08007KT 15SM OVC015 M16/M19 A2988 RMK SC8 SLP155,CYVC,2021-01-17T19:00:00Z,55.15,-105.27,-16.0,-19.0,80,7,,15.0,29.878937,1015.5,,,,,,,,,,OVC,1500,,,,,,,MVFR,,,,,,,,,,,,METAR,378.0
CYUY 171900Z 30009G18KT 6SM -SN DRSN OVC013 M11/M13 A2952 RMK SC8 SLP021,CYUY,2021-01-17T19:00:00Z,48.2,-78.82,-11.0,-13.0,300,9,18,6.0,29.518702,1002.1,,,,,,,,,-SN DRSN,OVC,1300,,,,,,,MVFR,,,,,,,,,,,,METAR,304.0
CYUX 171900Z 01009KT 10SM -SN DRSN OVC015 M14/M15 A2966 RMK SC8 SLP045,CYUX,2021-01-17T19:00:00Z,68.77,-81.22,-14.0,-15.0,10,9,,10.0,29.660433,1004.5,,,,,,,,,-SN DRSN,OVC,1500,,,,,,,MVFR,,,,,,,,,,,,METAR,8.0
CYUT 171900Z 35021G28KT 1/4SM +BLSN OVC020 M22/M25 A2974 RMK SC8 SLP075,CYUT,2021-01-17T19:00:00Z,66.52,-86.22,-22.0,-25.0,350,21,28,0.25,29.740158,1007.5,,,,,,,,,+BLSN,OVC,2000,,,,,,,LIFR,,,,,,,,,,,,METAR,22.0
CYUS 171900Z AUTO 09004KT ////SM //// NCD M34/M39 A2995,CYUS,2021-01-17T19:00:00Z,68.78,-93.42,-34.0,-39.0,90,4,,,29.949802,,,TRUE,,,,,,,,CLR,,,,,,,,,,,,,,,,,,,,METAR,30.0
CYUL 171900Z 26016G22KT 15SM -SN BKN018 OVC025 00/M02 A2934 RMK SC7SC1 SLP938,CYUL,2021-01-17T19:00:00Z,45.47,-73.73,0.0,-2.0,260,16,22,15.0,29.338583,993.8,,,,,,,,,-SN,BKN,1800,OVC,2500,,,,,MVFR,,,,,,,,,,,,METAR,31.0
CYUB 171900Z 10006KT 6SM -SN OVC019 M19/M22 A2996 RMK SC8 SLP147,CYUB,2021-01-17T19:00:00Z,69.43,-133.02,-19.0,-22.0,100,6,,6.0,29.958662,1014.7,,,,,,,,,-SN,OVC,1900,,,,,,,MVFR,,,,,,,,,,,,METAR,5.0
CYUA 171900Z AUTO VRB02KT ////SM OVC009 M26/M30 A2989,CYUA,2021-01-17T19:00:00Z,68.92,-137.23,-26.0,-30.0,0,2,,,29.890747,,,TRUE,,,,,,,,OVC,900,,,,,,,,,,,,,,,,,,,METAR,25.0
CYTZ 171900Z AUTO 28012G18KT 9SM OVC039 04/M03 A2956 RMK SLP015,CYTZ,2021-01-17T19:00:00Z,43.63,-79.4,4.0,-3.0,280,12,18,9.0,29.56004,1001.5,,TRUE,,,,,,,,OVC,3900,,,,,,,VFR,,,,,,,,,,,,METAR,76.0
CYTS 171900Z 30010KT 10SM DRSN OVC016 M13/M17 A2965 RMK SC8 SLP069,CYTS,2021-01-17T19:00:00Z,48.57,-81.37,-13.0,-17.0,300,10,,10.0,29.648623,1006.9,,,,,,,,,DRSN,OVC,1600,,,,,,,MVFR,,,,,,,,,,,,METAR,290.0
CYTR 171900Z 28015G22KT 15SM OVC020 01/M03 A2953 RMK SC8 SLP006,CYTR,2021-01-17T19:00:00Z,44.12,-77.52,1.0,-3.0,280,15,22,15.0,29.530512,1000.6,,,,,,,,,,OVC,2000,,,,,,,MVFR,,,,,,,,,,,,METAR,80.0
CYTQ 171900Z 03008KT 15SM -SN FEW010 SCT050 OVC090 M22/M25 A2985 RMK SC1SC3AC5 SC TR VRY LGT PCPN SLP114,CYTQ,2021-01-17T19:00:00Z,58.67,-69.95,-22.0,-25.0,30,8,,15.0,29.84941,1011.4,,,,,,,,,-SN,FEW,1000,SCT,5000,OVC,9000,,,VFR,,,,,,,,,,,,METAR,14.0
CYTH 171900Z 05004KT 15SM SCT180 BKN210 M24/M27 A3006 RMK AC3CI3 SLP212,CYTH,2021-01-17T19:00:00Z,55.8,-97.83,-24.0,-27.0,50,4,,15.0,30.059055,1021.2,,,,,,,,,,SCT,18000,BKN,21000,,,,,VFR,,,,,,,,,,,,METAR,212.0
CYTE 171900Z AUTO 21014KT 7SM FEW024 BKN038 M18/M20 A2981 RMK SLP105,CYTE,2021-01-17T19:00:00Z,64.22,-76.52,-18.0,-20.0,210,14,,7.0,29.811024,1010.5,,TRUE,,,,,,,,FEW,2400,BKN,3800,,,,,VFR,,,,,,,,,,,,METAR,49.0
CYSP 171900Z 04009KT 15SM FEW100 M10/M19 A2970 RMK AC2 SLP085,CYSP,2021-01-17T19:00:00Z,48.75,-86.35,-10.0,-19.0,40,9,,15.0,29.698818,1008.5,,,,,,,,,,FEW,10000,,,,,,,VFR,,,,,,,,,,,,METAR,312.0
CYSN 171900Z 24012G18KT 12SM SCT020 BKN046 04/M01 A2958 RMK SC3SC3 SLP020,CYSN,2021-01-17T19:00:00Z,43.2,-79.17,4.0,-1.0,240,12,18,12.0,29.58071,1002.0,,,,,,,,,,SCT,2000,BKN,4600,,,,,VFR,,,,,,,,,,,,METAR,96.0
CYSM 171900Z 14006KT 100V160 15SM OVC008 M16/M19 A2988 RMK SC8 SLP144,CYSM,2021-01-17T19:00:00Z,60.03,-111.92,-16.0,-19.0,140,6,,15.0,29.878937,1014.4,,,,,,,,,,OVC,800,,,,,,,IFR,,,,,,,,,,,,METAR,203.0
CYSJ 171900Z 24015G22KT 6SM -SHSN OVC020 02/M01 A2908 RMK CU8 SLP852,CYSJ,2021-01-17T19:00:00Z,45.32,-65.88,2.0,-1.0,240,15,22,6.0,29.078741,985.2,,,,,,,,,-SHSN,OVC,2000,,,,,,,MVFR,,,,,,,,,,,,METAR,89.0
CYSF 171900Z AUTO 09007KT 9SM SCT150 M22/M26 A2995 RMK SLP179,CYSF,2021-01-17T19:00:00Z,59.25,-105.83,-22.0,-26.0,90,7,,9.0,29.949802,1017.9,,TRUE,,,,,,,,SCT,15000,,,,,,,VFR,,,,,,,,,,,,METAR,238.0
CYSC 171900Z AUTO 26010G15KT 1 1/2SM -SN BKN008 OVC015 M00/M01 A2922 RMK SLP909,CYSC,2021-01-17T19:00:00Z,45.43,-71.68,0.0,-1.0,260,10,15,1.5,29.220472,990.9,,TRUE,,,,,,,-SN,BKN,800,OVC,1500,,,,,IFR,,,,,,,,,,,,METAR,236.0
CYSB 171900Z 33009KT 20SM BKN015 M07/M11 A2956 RMK SC7 SLP033,CYSB,2021-01-17T19:00:00Z,46.63,-80.8,-7.0,-11.0,330,9,,20.0,29.56004,1003.3,,,,,,,,,,BKN,1500,,,,,,,MVFR,,,,,,,,,,,,METAR,349.0
CYRT 171900Z 34020KT 6SM IC BLSN FEW057 SCT072 M26/M30 A2993 RMK SC2AC2 SLP143,CYRT,2021-01-17T19:00:00Z,62.82,-92.12,-26.0,-30.0,340,20,,6.0,29.929134,1014.3,,,,,,,,,IC BLSN,FEW,5700,SCT,7200,,,,,VFR,,,,,,,,,,,,METAR,29.0
CYRL 171900Z 33005KT 2 1/2SM -SN OVC012 M09/M09 A2972 RMK SN1SC7 SLP096,CYRL,2021-01-17T19:00:00Z,51.07,-93.78,-9.0,-9.0,330,5,,2.5,29.719488,1009.6,,,,,,,,,-SN,OVC,1200,,,,,,,IFR,,,,,,,,,,,,METAR,370.0
CYRJ 171900Z 30012G18KT 4SM -SN BR OVC017 M02/M03 A2915 RMK SC8 SLP881,CYRJ,2021-01-17T19:00:00Z,48.52,-72.27,-2.0,-3.0,300,12,18,4.0,29.149607,988.1,,,,,,,,,-SN BR,OVC,1700,,,,,,,MVFR,,,,,,,,,,,,METAR,173.0
CYRB 171900Z 03016KT 15SM -SN DRSN OVC033 M18/M21 A3000 RMK SC8 SLP170,CYRB,2021-01-17T19:00:00Z,74.72,-94.97,-18.0,-21.0,30,16,,15.0,30.0,1017.0,,,,,,,,,-SN DRSN,OVC,3300,,,,,,,VFR,,,,,,,,,,,,METAR,59.0
CYQZ 171900Z AUTO 16004KT 130V200 9SM BKN110 01/M02 A3020 RMK SLP256,CYQZ,2021-01-17T19:00:00Z,53.02,-122.52,1.0,-2.0,160,4,,9.0,30.200787,1025.6,,TRUE,,,,,,,,BKN,11000,,,,,,,VFR,,,,,,,,,,,,METAR,548.0
CYQY 171900Z 22019G26KT 20SM FEW020 SCT140 BKN250 05/03 A2921 RMK SC1AC2CI2 SLP893,CYQY,2021-01-17T19:00:00Z,46.17,-60.03,5.0,3.0,220,19,26,20.0,29.208662,989.3,,,,,,,,,,FEW,2000,SCT,14000,BKN,25000,,,VFR,,,,,,,,,,,,METAR,58.0
CYQX 171900Z 11022G29KT 3/8SM R13/3500V4000FT/N R03/3000V4000FT/N -DZ FG VV002 01/01 A2948 RMK FG8 SLP991,CYQX,2021-01-17T19:00:00Z,48.95,-54.58,1.0,1.0,110,22,29,0.38,29.480314,999.1,,,,,,,,,-DZ FG,OVX,0,,,,,,,LIFR,,,,,,,,,,,200,METAR,144.0
CYQW 171900Z AUTO 00000KT 3/4SM -SN FEW010 OVC019 M06/M07 A2979 RMK SLP131,CYQW,2021-01-17T19:00:00Z,52.77,-108.25,-6.0,-7.0,0,0,,0.75,29.790354,1013.1,,TRUE,,,,,,,-SN,FEW,1000,OVC,1900,,,,,LIFR,,,,,,,,,,,,METAR,545.0
CYQV 171900Z AUTO 10003KT 9SM -SN FEW036 SCT047 OVC065 M09/M11 A2983 RMK SLP136,CYQV,2021-01-17T19:00:00Z,51.27,-102.47,-9.0,-11.0,100,3,,9.0,29.828741,1013.6,,TRUE,,,,,,,-SN,FEW,3600,SCT,4700,OVC,6500,,,VFR,,,,,,,,,,,,METAR,493.0
CYQU 171900Z 27016KT 25SM BKN065 BKN120 04/M02 A2985 RMK SC6AC1 VIRGA SLP141,CYQU,2021-01-17T19:00:00Z,55.18,-118.88,4.0,-2.0,270,16,,25.0,29.84941,1014.1,,,,,,,,,,BKN,6500,BKN,12000,,,,,VFR,,,,,,,,,,,,METAR,668.0
CYQT 171900Z 22007KT 20SM FEW220 M06/M13 A2975 RMK CI1 SLP091,CYQT,2021-01-17T19:00:00Z,48.37,-89.32,-6.0,-13.0,220,7,,20.0,29.749016,1009.1,,,,,,,,,,FEW,22000,,,,,,,VFR,,,,,,,,,,,,METAR,197.0
CYQR 171900Z 15006KT 15SM SCT120 BKN200 M07/M10 A2982 RMK AC4CI3 SLP140,CYQR,2021-01-17T19:00:00Z,50.43,-104.67,-7.0,-10.0,150,6,,15.0,29.819881,1014.0,,,,,,,,,,SCT,12000,BKN,20000,,,,,VFR,,,,,,,,,,,,METAR,576.0
CYQQ 171900Z 33008KT 20SM BKN027 07/06 A3047 RMK SC7 SLP319,CYQQ,2021-01-17T19:00:00Z,49.72,-124.9,7.0,6.0,330,8,,20.0,30.469488,1031.9,,,,,,,,,,BKN,2700,,,,,,,MVFR,,,,,,,,,,,,METAR,24.0
CYQL 171900Z 28016G24KT 60SM BKN090 BKN110 07/M05 A2983 RMK AC6AC1 SLP125,CYQL,2021-01-17T19:00:00Z,49.63,-112.8,7.0,-5.0,280,16,24,60.0,29.828741,1012.5,,,,,,,,,,BKN,9000,BKN,11000,,,,,VFR,,,,,,,,,,,,METAR,923.0
CYQK 171900Z 32005KT 12SM -SN OVC004 M09/M10 A2974 RMK ST8 SLP103,CYQK,2021-01-17T19:00:00Z,49.78,-94.37,-9.0,-10.0,320,5,,12.0,29.740158,1010.3,,,,,,,,,-SN,OVC,400,,,,,,,LIFR,,,,,,,,,,,,METAR,413.0
CYQI 171900Z 25022G30KT 12SM BKN026 OVC047 05/01 A2925 RMK SC6SC2 SLP906,CYQI,2021-01-17T19:00:00Z,43.83,-66.08,5.0,1.0,250,22,30,12.0,29.25,990.6,,,,,,,,,,BKN,2600,OVC,4700,,,,,MVFR,,,,,,,,,,,,METAR,37.0
CYQH 171900Z 00000KT 1/2SM R09/0800V1000FT/N FZFG VV003 M12/M13 A2985 RMK FG8 SLP163,CYQH,2021-01-17T19:00:00Z,60.12,-128.82,-12.0,-13.0,0,0,,0.5,29.84941,1016.3,,,,,,,,,FZFG,OVX,0,,,,,,,LIFR,,,,,,,,,,,300,METAR,692.0
CYQD 171900Z AUTO 05004KT 360V080 9SM OVC070 M19/M23 A2999 RMK SLP185,CYQD,2021-01-17T19:00:00Z,53.97,-101.08,-19.0,-23.0,50,4,,9.0,29.991142,1018.5,,TRUE,,,,,,,,OVC,7000,,,,,,,VFR,,,,,,,,,,,,METAR,268.0
CYQB 171900Z 26015KT 10SM -SN SCT032 OVC052 M00/M03 A2916 RMK SC3SC5 SLP880,CYQB,2021-01-17T19:00:00Z,46.78,-71.38,0.0,-3.0,260,15,,10.0,29.161417,988.0,,,,,,,,,-SN,SCT,3200,OVC,5200,,,,,VFR,,,,,,,,,,,,METAR,73.0
CYQA 171900Z AUTO 32010KT 9SM OVC008 M04/M06 A2952 RMK SLP013,CYQA,2021-01-17T19:00:00Z,44.97,-79.3,-4.0,-6.0,320,10,,9.0,29.518702,1001.3,,TRUE,,,,,,,,OVC,800,,,,,,,IFR,,,,,,,,,,,,METAR,277.0
CYPY 171900Z AUTO 04005KT 9SM FEW019 OVC026 M15/M18 A2988 RMK SLP140,CYPY,2021-01-17T19:00:00Z,58.77,-111.12,-15.0,-18.0,40,5,,9.0,29.878937,1014.0,,TRUE,,,,,,,,FEW,1900,OVC,2600,,,,,MVFR,,,,,,,,,,,,METAR,225.0
CYPX 171900Z AUTO 11008KT 9SM OVC005 M27/M29 A2992 RMK SLP137,CYPX,2021-01-17T19:00:00Z,60.03,-77.27,-27.0,-29.0,110,8,,9.0,29.920275,1013.7,,TRUE,,,,,,,,OVC,500,,,,,,,IFR,,,,,,,,,,,,METAR,10.0
CYPW 171900Z 00000KT 20SM FEW006 FEW011 SCT016 BKN043 07/05 A3047 RMK SF1SC1SC3SC4 SF TR SC TR SLP323,CYPW,2021-01-17T19:00:00Z,49.83,-124.5,7.0,5.0,0,0,,20.0,30.469488,1032.3,,,,,,,,,,FEW,600,FEW,1100,SCT,1600,BKN,4300,VFR,,,,,,,,,,,,METAR,122.0
CYPQ 171900Z AUTO 30010G18KT 9SM OVC012 M01/M02 A2954 RMK SLP010,CYPQ,2021-01-17T19:00:00Z,44.22,-78.37,-1.0,-2.0,300,10,18,9.0,29.53937,1001.0,,TRUE,,,,,,,,OVC,1200,,,,,,,MVFR,,,,,,,,,,,,METAR,190.0
CYPO 171900Z AUTO 09003KT 060V150 1 1/2SM -SN OVC024 M14/M17 A2986 RMK SLP119,CYPO,2021-01-17T19:00:00Z,54.98,-85.43,-14.0,-17.0,90,3,,1.5,29.861221,1011.9,,TRUE,,,,,,,-SN,OVC,2400,,,,,,,IFR,,,,,,,,,,,,METAR,49.0
CYPL 171900Z AUTO 19006KT 160V240 9SM FEW070 OVC100 M12/M14 A2970 RMK SLP094,CYPL,2021-01-17T19:00:00Z,51.43,-90.22,-12.0,-14.0,190,6,,9.0,29.698818,1009.4,,TRUE,,,,,,,,FEW,7000,OVC,10000,,,,,VFR,,,,,,,,,,,,METAR,390.0
CYPH 171900Z AUTO /////KT RMK WND MISG CLD MISG WX MISG VIS MISG PCPN MISG PRES MISG T MISG TD MISG ICG MISG DENSITY ALT MISG,CYPH,2021-01-17T19:00:00Z,58.47,-78.08,,,,,,,,,,TRUE,,,,,,,,,,,,,,,,,,,,,,,,,,,,METAR,24.0
CYPE 171900Z 32015KT 8SM -SN OVC030 01/M01 A2981 RMK SC8 SLP125,CYPE,2021-01-17T19:00:00Z,56.22,-117.45,1.0,-1.0,320,15,,8.0,29.811024,1012.5,,,,,,,,,-SN,OVC,3000,,,,,,,MVFR,,,,,,,,,,,,METAR,572.0
CYPD 171900Z AUTO 21019G34KT 9SM SCT030 BKN038 05/M01 A2917 RMK SLP882,CYPD,2021-01-17T19:00:00Z,45.67,-61.37,5.0,-1.0,210,19,34,9.0,29.170275,988.2,,TRUE,,,,,,,,SCT,3000,BKN,3800,,,,,VFR,,,,,,,,,,,,METAR,106.0
CYPC 171900Z 24004KT 15SM BKN044 M23/M25 A2999 RMK SC6 LAST STFD OBS/NEXT 181400Z SLP156,CYPC,2021-01-17T19:00:00Z,69.37,-124.07,-23.0,-25.0,240,4,,15.0,29.991142,1015.6,,,,,,,,,,BKN,4400,,,,,,,VFR,,,,,,,,,,,,METAR,5.0
CYPA 171900Z 11008KT 15SM OVC006 M11/M12 A2983 RMK ST8 SLP137,CYPA,2021-01-17T19:00:00Z,53.22,-105.67,-11.0,-12.0,110,8,,15.0,29.828741,1013.7,,,,,,,,,,OVC,600,,,,,,,IFR,,,,,,,,,,,,METAR,428.0
CYOY 171900Z AUTO 25007KT 220V280 3SM SCT032 M01/M03 A2914 RMK SLP876,CYOY,2021-01-17T19:00:00Z,46.88,-71.5,-1.0,-3.0,250,7,,3.0,29.140747,987.6,,TRUE,,,,,,,,SCT,3200,,,,,,,MVFR,,,,,,,,,,,,METAR,167.0
CYOW 171900Z 28012G18KT 15SM DRSN FEW010 BKN019 OVC040 M03/M06 A2943 RMK SF1SC7SC1 SF TR SLP974,CYOW,2021-01-17T19:00:00Z,45.32,-75.67,-3.0,-6.0,280,12,18,15.0,29.430119,997.4,,,,,,,,,DRSN,FEW,1000,BKN,1900,OVC,4000,,,MVFR,,,,,,,,,,,,METAR,111.0
CYOO 171900Z AUTO 31013G21KT 9SM FEW026 BKN034 02/M02 A2955 RMK SLP014,CYOO,2021-01-17T19:00:00Z,43.92,-78.9,2.0,-2.0,310,13,21,9.0,29.551182,1001.4,,TRUE,,,,,,,,FEW,2600,BKN,3400,,,,,VFR,,,,,,,,,,,,METAR,136.0
CYOD 171900Z 08003KT 3/4SM R31R/5500FT/N -SN OVC008 M03/M04 A2974 RMK SC8 /S01/ SLP101,CYOD,2021-01-17T19:00:00Z,54.4,-110.28,-3.0,-4.0,80,3,,0.75,29.740158,1010.1,,,,,,,,,-SN,OVC,800,,,,,,,LIFR,,,,,,,,,,,,METAR,540.0
CYOC 171900Z VRB02KT 35SM IC VCFG FEW014 FEW038 FEW150 M27/M31 A2974 RMK ST1SC1AC2 ST TR SC TR VIS NE 2 SLP110,CYOC,2021-01-17T19:00:00Z,67.57,-139.83,-27.0,-31.0,0,2,,35.0,29.740158,1011.0,,,,,,,,,IC VCFG,FEW,1400,FEW,3800,FEW,15000,,,VFR,,,,,,,,,,,,METAR,253.0
CYNE 171900Z AUTO 02005KT 330V040 9SM CLR M20/M23 A2999 RMK SLP181,CYNE,2021-01-17T19:00:00Z,53.97,-97.83,-20.0,-23.0,20,5,,9.0,29.991142,1018.1,,TRUE,,,,,,,,CLR,,,,,,,,VFR,,,,,,,,,,,,METAR,220.0
CYND 171900Z 27012KT 10SM OVC018 M02/M04 A2942 RMK SC8 SLP966,CYND,2021-01-17T19:00:00Z,45.52,-75.57,-2.0,-4.0,270,12,,10.0,29.421259,996.6,,,,,,,,,,OVC,1800,,,,,,,MVFR,,,,,,,,,,,,METAR,57.0
CYMX 171900Z 25007G16KT 230V290 25SM -SN BKN015 OVC022 00/M02 A2932 RMK SC5SC3 SLP934,CYMX,2021-01-17T19:00:00Z,45.67,-74.03,0.0,-2.0,250,7,16,25.0,29.320866,993.4,,,,,,,,,-SN,BKN,1500,OVC,2200,,,,,MVFR,,,,,,,,,,,,METAR,78.0
CYMU 171900Z 07010G17KT 15SM DRSN FEW055 SCT180 BKN220 BKN280 M19/M23 A2976 RMK SC1AC3CC2CI1 SC TR SLP090,CYMU,2021-01-17T19:00:00Z,56.53,-76.52,-19.0,-23.0,70,10,17,15.0,29.760826,1009.0,,,,,,,,,DRSN,FEW,5500,SCT,18000,BKN,22000,BKN,28000,VFR,,,,,,,,,,,,METAR,69.0
CYMT 171900Z AUTO 33009G17KT 9SM -SN BKN013 OVC022 M03/M05 A2920 RMK SLP911,CYMT,2021-01-17T19:00:00Z,49.77,-74.52,-3.0,-5.0,330,9,17,9.0,29.199802,991.1,,TRUE,,,,,,,-SN,BKN,1300,OVC,2200,,,,,MVFR,,,,,,,,,,,,METAR,388.0
CYMM 171900Z AUTO 06005KT 9SM CLR M10/M11 A2977 RMK SLP112,CYMM,2021-01-17T19:00:00Z,56.65,-111.22,-10.0,-11.0,60,5,,9.0,29.769686,1011.2,,TRUE,,,,,,,,CLR,,,,,,,,VFR,,,,,,,,,,,,METAR,371.0
CYMH 171900Z AUTO 07010KT 3/4SM -FZRA BR VV004 M01/M01 A2969 RMK ICG SLP054,CYMH,2021-01-17T19:00:00Z,52.3,-55.82,-1.0,-1.0,70,10,,0.75,29.68996,1005.4,,TRUE,,,,,,,-FZRA BR,OVX,0,,,,,,,LIFR,,,,,,,,,,,400,METAR,18.0
CYMA 171900Z 00000KT 20SM FEW040 FEW090 BKN130 M08/M09 A2968 RMK SC2AC1AS2 SLP096,CYMA,2021-01-17T19:00:00Z,63.62,-135.87,-8.0,-9.0,0,0,,20.0,29.681103,1009.6,,,,,,,,,,FEW,4000,FEW,9000,BKN,13000,,,VFR,,,,,,,,,,,,METAR,519.0
CYLW 171900Z AUTO 05003KT 9SM CLR M02/M03 A3028 RMK SLP276,CYLW,2021-01-17T19:00:00Z,49.95,-119.37,-2.0,-3.0,50,3,,9.0,30.280512,1027.6,,TRUE,,,,,,,,CLR,,,,,,,,VFR,,,,,,,,,,,,METAR,420.0
CYLU 171900Z 03008KT 4SM -SN DRSN BKN027 OVC030 M14/M17 A2979 RMK SN2SC4SC2 VIS S 13 SLP098,CYLU,2021-01-17T19:00:00Z,58.72,-65.98,-14.0,-17.0,30,8,,4.0,29.790354,1009.8,,,,,,,,,-SN DRSN,BKN,2700,OVC,3000,,,,,MVFR,,,,,,,,,,,,METAR,61.0
CYLL 171900Z 22005KT 5SM -SN BR OVC038 M01/M02 A2974 RMK SC8 SLP109,CYLL,2021-01-17T19:00:00Z,53.32,-110.07,-1.0,-2.0,220,5,,5.0,29.740158,1010.9,,,,,,,,,-SN BR,OVC,3800,,,,,,,MVFR,,,,,,,,,,,,METAR,664.0
CYLK 171900Z 06002KT 10SM -SN BKN052 M19/M23 A2994 RMK SC7 SLP165,CYLK,2021-01-17T19:00:00Z,62.42,-110.67,-19.0,-23.0,60,2,,10.0,29.940945,1016.5,,,,,,,,,-SN,BKN,5200,,,,,,,VFR,,,,,,,,,,,,METAR,183.0
CYLJ 171900Z 00000KT 15SM SCT048 OVC086 M04/M07 A2975 RMK SC3AC5 SLP106,CYLJ,2021-01-17T19:00:00Z,54.12,-108.52,-4.0,-7.0,0,0,,15.0,29.749016,1010.6,,,,,,,,,,SCT,4800,OVC,8600,,,,,VFR,,,,,,,,,,,,METAR,481.0
CYLH 171900Z AUTO 04002KT 9SM OVC120 M13/M16 A2974 RMK SLP102,CYLH,2021-01-17T19:00:00Z,52.2,-87.93,-13.0,-16.0,40,2,,9.0,29.740158,1010.2,,TRUE,,,,,,,,OVC,12000,,,,,,,VFR,,,,,,,,,,,,METAR,245.0
CYLD 171900Z 36007KT 15SM FEW096 M10/M16 A2962 RMK AC2 SLP069,CYLD,2021-01-17T19:00:00Z,47.82,-83.35,-10.0,-16.0,360,7,,15.0,29.619095,1006.9,,,,,,,,,,FEW,9600,,,,,,,VFR,,,,,,,,,,,,METAR,449.0
CYLA 171900Z 33009KT 15SM BKN130 M24/M28 A2987 RMK AC7 SLP122,CYLA,2021-01-17T19:00:00Z,59.3,-69.58,-24.0,-28.0,330,9,,15.0,29.870079,1012.2,,,,,,,,,,BKN,13000,,,,,,,VFR,,,,,,,,,,,,METAR,35.0
CYKY 171900Z 13007KT 15SM BKN035 OVC120 M03/M07 A2978 RMK SC6AC2 SLP125,CYKY,2021-01-17T19:00:00Z,51.52,-109.17,-3.0,-7.0,130,7,,15.0,29.778543,1012.5,,,,,,,,,,BKN,3500,OVC,12000,,,,,VFR,,,,,,,,,,,,METAR,692.0
CYKQ 171900Z 33013G19KT 15SM SCT010 BKN200 M13/M16 A2962 RMK SF3CI2 SLP033,CYKQ,2021-01-17T19:00:00Z,51.47,-78.75,-13.0,-16.0,330,13,19,15.0,29.619095,1003.3,,,,,,,,,,SCT,1000,BKN,20000,,,,,VFR,,,,,,,,,,,,METAR,28.0
CYKP 171900Z AUTO VRB02KT 9SM CLR M14/M15 A2979 RMK SLP118,CYKP,2021-01-17T19:00:00Z,51.67,-85.9,-14.0,-15.0,0,2,,9.0,29.790354,1011.8,,TRUE,,,,,,,,CLR,,,,,,,,VFR,,,,,,,,,,,,METAR,181.0
CYKO 171900Z 14018KT 1/4SM -SN BLSN OVC005 M25/M28 A2991 RMK ST8 SLP132,CYKO,2021-01-17T19:00:00Z,60.82,-78.15,-25.0,-28.0,140,18,,0.25,29.911417,1013.2,,,,,,,,,-SN BLSN,OVC,500,,,,,,,LIFR,,,,,,,,,,,,METAR,23.0
CYKL 171900Z AUTO 08007KT 1SM -SN OVC022 M07/M08 A2935 RMK SLP982,CYKL,2021-01-17T19:00:00Z,54.8,-66.8,-7.0,-8.0,80,7,,1.0,29.350393,998.2,,TRUE,,,,,,,-SN,OVC,2200,,,,,,,IFR,,,,,,,,,,,,METAR,507.0
CYKJ 171900Z AUTO 13007KT 9SM FEW013 BKN060 M18/M21 A2983 RMK SLP159,CYKJ,2021-01-17T19:00:00Z,57.25,-105.62,-18.0,-21.0,130,7,,9.0,29.828741,1015.9,,TRUE,,,,,,,,FEW,1300,BKN,6000,,,,,VFR,,,,,,,,,,,,METAR,519.0
CYKG 171900Z 32005KT 15SM BKN009 M23/M28 A2986 RMK ST7 SLP137,CYKG,2021-01-17T19:00:00Z,61.58,-71.92,-23.0,-28.0,320,5,,15.0,29.861221,1013.7,,,,,,,,,,BKN,900,,,,,,,IFR,,,,,,,,,,,,METAR,134.0
CYKD 171900Z 00000KT 15SM FEW017 BKN025 BKN120 M27/M30 A2994 RMK SC1SC5AC1 SC TR SLP140,CYKD,2021-01-17T19:00:00Z,68.22,-135.0,-27.0,-30.0,0,0,,15.0,29.940945,1014.0,,,,,,,,,,FEW,1700,BKN,2500,BKN,12000,,,MVFR,,,,,,,,,,,,METAR,7.0
CYKA 171900Z VRB02KT 20SM OVC014 01/M01 A3032 RMK SC8 SLP286,CYKA,2021-01-17T19:00:00Z,50.7,-120.45,1.0,-1.0,0,2,,20.0,30.318897,1028.6,,,,,,,,,,OVC,1400,,,,,,,MVFR,,,,,,,,,,,,METAR,344.0
CYJT 171900Z 10018G29KT 15SM SCT025 SCT080 BKN130 BKN220 05/02 A2920 RMK SC3AC1AC1CI1 CI TR SLP892,CYJT,2021-01-17T19:00:00Z,48.55,-58.57,5.0,2.0,100,18,29,15.0,29.199802,989.2,,,,,,,,,,SCT,2500,SCT,8000,BKN,13000,BKN,22000,VFR,,,,,,,,,,,,METAR,7.0
CYIV 171900Z 02011G19KT 340V050 12SM -SN OVC012 M20/M23 A2993 RMK SC8 SLP160,CYIV,2021-01-17T19:00:00Z,53.85,-94.65,-20.0,-23.0,20,11,19,12.0,29.929134,1016.0,,,,,,,,,-SN,OVC,1200,,,,,,,MVFR,,,,,,,,,,,,METAR,234.0
CYIO 171900Z AUTO 21012KT 160V220 9SM SCT100 M18/M20 A2985 RMK SLP117,CYIO,2021-01-17T19:00:00Z,72.68,-77.97,-18.0,-20.0,210,12,,9.0,29.84941,1011.7,,TRUE,,,,,,,,SCT,10000,,,,,,,VFR,,,,,,,,,,,,METAR,61.0
CYIN 171900Z AUTO VRB02KT 9SM CLR M05/M06 A3018 RMK SLP275,CYIN,2021-01-17T19:00:00Z,51.27,-121.68,-5.0,-6.0,0,2,,9.0,30.180119,1027.5,,TRUE,,,,,,,,CLR,,,,,,,,VFR,,,,,,,,,,,,METAR,1127.0
CYHZ 171900Z 22025G34KT 15SM -SHRA OVC020 03/01 A2915 RMK SC8 CVCTV CLD EMBD SLP876,CYHZ,2021-01-17T19:00:00Z,44.87,-63.5,3.0,1.0,220,25,34,15.0,29.149607,987.6,,,,,,,,,-SHRA,OVC,2000,,,,,,,MVFR,,,,,,,,,,,,METAR,136.0
CYHM 171900Z 24010G16KT 15SM OVC012 02/M00 A2957 RMK SC8 SLP023,CYHM,2021-01-17T19:00:00Z,43.17,-79.93,2.0,0.0,240,10,16,15.0,29.568897,1002.3,,,,,,,,,,OVC,1200,,,,,,,MVFR,,,,,,,,,,,,SPECI,237.0
CYHK 171900Z 32014KT 15SM SCT040 M28/M31 A2996 RMK SC4 SLP156,CYHK,2021-01-17T19:00:00Z,68.62,-95.85,-28.0,-31.0,320,14,,15.0,29.958662,1015.6,,,,,,,,,,SCT,4000,,,,,,,VFR,,,,,,,,,,,,METAR,36.0
CYHA 171900Z VRB02KT 15SM OVC011 M23/M26 A2992 RMK ST8 SLP138,CYHA,2021-01-17T19:00:00Z,61.03,-69.62,-23.0,-26.0,0,2,,15.0,29.920275,1013.8,,,,,,,,,,OVC,1100,,,,,,,MVFR,,,,,,,,,,,,METAR,31.0
CYGX 171900Z 02010KT 4SM -SN OVC018 M21/M24 A3008 RMK SC8 SLP207,CYGX,2021-01-17T19:00:00Z,56.35,-94.7,-21.0,-24.0,20,10,,4.0,30.079725,1020.7,,,,,,,,,-SN,OVC,1800,,,,,,,MVFR,,,,,,,,,,,,METAR,145.0
CYGW 171900Z AUTO 01009KT 320V040 9SM FEW190 M19/M22 A2977 RMK SLP084,CYGW,2021-01-17T19:00:00Z,55.27,-77.77,-19.0,-22.0,10,9,,9.0,29.769686,1008.4,,TRUE,,,,,,,,FEW,19000,,,,,,,VFR,,,,,,,,,,,,METAR,13.0
CYGV 171900Z AUTO 06027G35KT 1SM -SN OVC016 M01/M02 A2897 RMK SLP812,CYGV,2021-01-17T19:00:00Z,50.28,-63.62,-1.0,-2.0,60,27,35,1.0,28.969488,981.2,,TRUE,,,,,,,-SN,OVC,1600,,,,,,,IFR,,,,,,,,,,,,METAR,32.0
CYGT 171900Z 02015KT 6SM -SN DRSN FEW012 SCT018 OVC026 M15/M17 A2965 RMK SC2SC3SC3 SLP051,CYGT,2021-01-17T19:00:00Z,69.37,-81.82,-15.0,-17.0,20,15,,6.0,29.648623,1005.1,,,,,,,,,-SN DRSN,FEW,1200,SCT,1800,OVC,2600,,,MVFR,,,,,,,,,,,,METAR,49.0
CYGR 171900Z 19015G25KT 7SM SCT022 BKN060 03/01 A2905 RMK SC3SC3 SLP839,CYGR,2021-01-17T19:00:00Z,47.42,-61.77,3.0,1.0,190,15,25,7.0,29.049213,983.9,,,,,,,,,,SCT,2200,BKN,6000,,,,,VFR,,,,,,,,,,,,METAR,4.0
CYGQ 171900Z 00000KT 15SM FEW250 M12/M18 A2973 RMK CI1 SLP101,CYGQ,2021-01-17T19:00:00Z,49.77,-86.92,-12.0,-18.0,0,0,,15.0,29.731298,1010.1,,,,,,,,,,FEW,25000,,,,,,,VFR,,,,,,,,,,,,METAR,340.0
CYGP 171900Z VRB03KT 3/4SM -SN OVC006 00/M01 A2877 RMK SC8 S02/ SLP746,CYGP,2021-01-17T19:00:00Z,48.77,-64.47,0.0,-1.0,0,3,,0.75,28.768702,974.6,,,,,,,,,-SN,OVC,600,,,,,,,LIFR,,,,,,,,,,,,METAR,31.0
CYGL 171900Z 34011G18KT 15SM BKN240 M15/M18 A2957 RMK CI5 SLP037,CYGL,2021-01-17T19:00:00Z,53.62,-77.7,-15.0,-18.0,340,11,18,15.0,29.568897,1003.7,,,,,,,,,,BKN,24000,,,,,,,VFR,,,,,,,,,,,,METAR,192.0
CYGK 171900Z 28011KT 15SM OVC020 00/M04 A2952 RMK SC8 SLP000,CYGK,2021-01-17T19:00:00Z,44.22,-76.58,0.0,-4.0,280,11,,15.0,29.518702,1000.0,,,,,,,,,,OVC,2000,,,,,,,MVFR,,,,,,,,,,,,METAR,91.0
CYGH 171900Z 18003KT 15SM OVC008 M21/M23 A2988 RMK ST8 CIG RAG LAST STFD OBS/NXT 181400UTC SLP133,CYGH,2021-01-17T19:00:00Z,66.23,-128.63,-21.0,-23.0,180,3,,15.0,29.878937,1013.3,,,,,,,,,,OVC,800,,,,,,,IFR,,,,,,,,,,,,METAR,72.0
CYGE 171900Z 30003KT 20SM FEW012 SCT050 BKN090 M04/M05 A3015 RMK SC2SC1AC4 VIS N 7 SLP254,CYGE,2021-01-17T19:00:00Z,51.3,-116.98,-4.0,-5.0,300,3,,20.0,30.15059,1025.4,,,,,,,,,,FEW,1200,SCT,5000,BKN,9000,,,VFR,,,,,,,,,,,,METAR,786.0
CYFT 171900Z VRB11G19KT 15SM FEW010 OVC035 M04/M07 A2969 RMK ST1SC7 SLP061,CYFT,2021-01-17T19:00:00Z,55.07,-59.18,-4.0,-7.0,0,11,19,15.0,29.68996,1006.1,,,,,,,,,,FEW,1000,OVC,3500,,,,,VFR,,,,,,,,,,,,METAR,65.0
CYFS 171900Z 15004KT 15SM OVC008 M18/M20 A2986 RMK ST8 SLP133,CYFS,2021-01-17T19:00:00Z,61.75,-121.22,-18.0,-20.0,150,4,,15.0,29.861221,1013.3,,,,,,,,,,OVC,800,,,,,,,IFR,,,,,,,,,,,,METAR,174.0
CYFO 171900Z 05004KT 360V070 15SM OVC100 M20/M23 A2998 RMK AC8 SLP187,CYFO,2021-01-17T19:00:00Z,54.67,-101.67,-20.0,-23.0,50,4,,15.0,29.97933,1018.7,,,,,,,,,,OVC,10000,,,,,,,VFR,,,,,,,,,,,,METAR,303.0
CYFC 171900Z AUTO 22016G22KT 9SM -SN BKN017 BKN023 OVC047 01/M01 A2903 RMK SLP831,CYFC,2021-01-17T19:00:00Z,45.87,-66.53,1.0,-1.0,220,16,22,9.0,29.028543,983.1,,TRUE,,,,,,,-SN,BKN,1700,BKN,2300,OVC,4700,,,MVFR,,,,,,,,,,,,METAR,16.0
CYFB 171900Z 01003KT 30SM FEW041 M25/M29 A3000 RMK SC1 SC TR SLP165,CYFB,2021-01-17T19:00:00Z,63.75,-68.55,-25.0,-29.0,10,3,,30.0,30.0,1016.5,,,,,,,,,,FEW,4100,,,,,,,VFR,,,,,,,,,,,,METAR,23.0
CYEV 171900Z 10003KT 15SM BKN013 M20/M23 A2990 RMK ST7 SLP137,CYEV,2021-01-17T19:00:00Z,68.32,-133.5,-20.0,-23.0,100,3,,15.0,29.899607,1013.7,,,,,,,,,,BKN,1300,,,,,,,MVFR,,,,,,,,,,,,METAR,74.0
CYET 171900Z AUTO 26008KT 9SM OVC075 03/M03 A2980 RMK SLP137,CYET,2021-01-17T19:00:00Z,53.57,-116.47,3.0,-3.0,260,8,,9.0,29.799213,1013.7,,TRUE,,,,,,,,OVC,7500,,,,,,,VFR,,,,,,,,,,,,METAR,925.0
CYER 171900Z AUTO 02016KT 1 1/4SM -SN OVC028 M16/M17 A2992 RMK SLP135,CYER,2021-01-17T19:00:00Z,56.02,-87.68,-16.0,-17.0,20,16,,1.25,29.920275,1013.5,,TRUE,,,,,,,-SN,OVC,2800,,,,,,,IFR,,,,,,,,,,,,METAR,11.0
CYEK 171900Z 32015KT 15SM OVC021 M22/M25 A3007 RMK SC8 SLP187,CYEK,2021-01-17T19:00:00Z,61.1,-94.07,-22.0,-25.0,320,15,,15.0,30.070866,1018.7,,,,,,,,,,OVC,2100,,,,,,,MVFR,,,,,,,,,,,,METAR,7.0
CYEG 171900Z 28009KT 20SM BKN049 02/M02 A2977 RMK SC7 VIRGA SE-S SLP117,CYEG,2021-01-17T19:00:00Z,53.3,-113.58,2.0,-2.0,280,9,,20.0,29.769686,1011.7,,,,,,,,,,BKN,4900,,,,,,,VFR,,,,,,,,,,,,METAR,710.0
CYED 171900Z AUTO 27009G15KT 9SM FEW040 OVC051 02/M02 A2976 RMK SLP107,CYED,2021-01-17T19:00:00Z,53.67,-113.47,2.0,-2.0,270,9,15,9.0,29.760826,1010.7,,TRUE,,,,,,,,FEW,4000,OVC,5100,,,,,VFR,,,,,,,,,,,,METAR,688.0
CYDQ 171900Z AUTO 26016G25KT 9SM FEW240 05/M03 A2986 RMK SLP141,CYDQ,2021-01-17T19:00:00Z,55.75,-120.18,5.0,-3.0,260,16,25,9.0,29.861221,1014.1,,TRUE,,,,,,,,FEW,24000,,,,,,,VFR,,,,,,,,,,,,METAR,658.0
CYDP 171900Z 03011KT 15SM FEW010 OVC026 M05/M06 A2976 RMK SC2SC6 SLP079,CYDP,2021-01-17T19:00:00Z,56.53,-61.68,-5.0,-6.0,30,11,,15.0,29.760826,1007.9,,,,,,,,,,FEW,1000,OVC,2600,,,,,MVFR,,,,,,,,,,,,METAR,14.0
CYDN 171900Z AUTO 04002KT 9SM OVC012 A2992 RMK T MISG TD MISG DENSITY ALT MISG,CYDN,2021-01-17T19:00:00Z,51.1,-100.05,,,40,2,,9.0,29.920275,,,TRUE,,,,,,,,OVC,1200,,,,,,,MVFR,,,,,,,,,,,,METAR,302.0
CYDL 171900Z AUTO VRB02KT 9SM FEW065 M11/M13 A2993 RMK SLP183,CYDL,2021-01-17T19:00:00Z,58.42,-130.02,-11.0,-13.0,0,2,,9.0,29.929134,1018.3,,TRUE,,,,,,,,FEW,6500,,,,,,,VFR,,,,,,,,,,,,METAR,804.0
CYDF 171900Z 02009G16KT 15SM -RA BKN015 OVC050 01/00 A2934 RMK SC5SC3 SLP940,CYDF,2021-01-17T19:00:00Z,49.22,-57.4,1.0,0.0,20,9,16,15.0,29.338583,994.0,,,,,,,,,-RA,BKN,1500,OVC,5000,,,,,MVFR,,,,,,,,,,,,METAR,15.0
CYDC 171900Z VRB02KT 25SM FEW048 FEW055 M00/M03 A3031 RMK SC2SC1 SC TR SLP292,CYDC,2021-01-17T19:00:00Z,49.47,-120.52,0.0,-3.0,0,2,,25.0,30.31004,1029.2,,,,,,,,,,FEW,4800,FEW,5500,,,,,VFR,,,,,,,,,,,,METAR,703.0
CYDB 171900Z AUTO VRB03KT 9SM SCT170 M02/M05 A2954 RMK SLP048,CYDB,2021-01-17T19:00:00Z,61.37,-139.02,-2.0,-5.0,0,3,,9.0,29.53937,1004.8,,TRUE,,,,,,,,SCT,17000,,,,,,,VFR,,,,,,,,,,,,METAR,807.0
CYDA 171900Z 00000KT 20SM SCT037 OVC130 OVC200 M15/M17 A2969 RMK SC3AC5CC1 CC TR SLP095,CYDA,2021-01-17T19:00:00Z,64.03,-139.12,-15.0,-17.0,0,0,,20.0,29.68996,1009.5,,,,,,,,,,SCT,3700,OVC,13000,OVC,20000,,,VFR,,,,,,,,,,,,METAR,338.0
CYCY 171900Z AUTO 33024KT 1 1/2SM -SN BLSN FEW003 SCT008 OVC075 M14/M15 A2978 RMK VIS VRB 3/4-2 1/2 SLP088,CYCY,2021-01-17T19:00:00Z,70.48,-68.52,-14.0,-15.0,330,24,,1.5,29.778543,1008.8,,TRUE,,,,,,,-SN BLSN,FEW,300,SCT,800,OVC,7500,,,IFR,,,,,,,,,,,,METAR,73.0
CYCQ 171900Z 22013G21KT 190V250 35SM FEW040 BKN120 BKN150 OVC210 05/M02 A2992 RMK SC2AC4AC1CI1 DIST PCPN MTS W SLP160,CYCQ,2021-01-17T19:00:00Z,55.7,-121.62,5.0,-2.0,220,13,21,35.0,29.920275,1016.0,,,,,,,,,,FEW,4000,BKN,12000,BKN,15000,OVC,21000,VFR,,,,,,,,,,,,METAR,614.0
CYCP 171900Z 10003KT 090V230 4SM -SHSN FEW003 SCT011 BKN030 BKN045 00/M01 A3018 RMK SF1ST2SC2CU2 SLP253,CYCP,2021-01-17T19:00:00Z,52.13,-119.28,0.0,-1.0,100,3,,4.0,30.180119,1025.3,,,,,,,,,-SHSN,FEW,300,SCT,1100,BKN,3000,BKN,4500,MVFR,,,,,,,,,,,,METAR,677.0
CYCO 171900Z 00000KT 12SM IC FEW030 BKN083 BKN130 M29/M32 A3009 RMK SC1AC6AS1 SLP197,CYCO,2021-01-17T19:00:00Z,67.82,-115.15,-29.0,-32.0,0,0,,12.0,30.088583,1019.7,,,,,,,,,IC,FEW,3000,BKN,8300,BKN,13000,,,VFR,,,,,,,,,,,,METAR,20.0
CYCG 171900Z 17007KT 15SM FEW007 FEW020 FEW060 BKN085 00/M01 A3026 RMK SF1CF1SC2AC3 SF TR CF TR SLP269,CYCG,2021-01-17T19:00:00Z,49.28,-117.63,0.0,-1.0,170,7,,15.0,30.259842,1026.9,,,,,,,,,,FEW,700,FEW,2000,FEW,6000,BKN,8500,VFR,,,,,,,,,,,,METAR,487.0
CYCB 171900Z 34007KT 15SM IC FEW025 M33/M37 A3012 RMK SC2 SLP208,CYCB,2021-01-17T19:00:00Z,69.1,-105.12,-33.0,-37.0,340,7,,15.0,30.121063,1020.8,,,,,,,,,IC,FEW,2500,,,,,,,VFR,,,,,,,,,,,,METAR,19.0
CYCA 171900Z AUTO 02005KT 9SM -SN OVC017 M03/M04 A2973 RMK PRESFR SLP073,CYCA,2021-01-17T19:00:00Z,53.68,-57.03,-3.0,-4.0,20,5,,9.0,29.731298,1007.3,,TRUE,,,,,,,-SN,OVC,1700,,,,,,,MVFR,,,,,,,,,,,,METAR,12.0
CYBX 171900Z CCA 07029G35KT 2 1/2SM -FZDZ BR BKN008 OVC014 M00/M01 A2950 RMK ST5SC3 PRESFR SLP994,CYBX,2021-01-17T19:00:00Z,51.45,-57.18,0.0,-1.0,70,29,35,2.5,29.500984,999.4,,,,,,,,,-FZDZ BR,BKN,800,OVC,1400,,,,,IFR,,,,,,,,,,,,SPECI,32.0
CYBW 171900Z AUTO 29016G21KT 9SM OVC085 05/M07 A2983 RMK SLP136,CYBW,2021-01-17T19:00:00Z,51.1,-114.37,5.0,-7.0,290,16,21,9.0,29.828741,1013.6,,TRUE,,,,,,,,OVC,8500,,,,,,,VFR,,,,,,,,,,,,METAR,1197.0
CYBU 171900Z AUTO 03009KT 9SM OVC015 M14/M16 A2987 RMK SLP153,CYBU,2021-01-17T19:00:00Z,53.32,-104.0,-14.0,-16.0,30,9,,9.0,29.870079,1015.3,,TRUE,,,,,,,,OVC,1500,,,,,,,MVFR,,,,,,,,,,,,METAR,369.0
CYBR 171900Z 32004KT 15SM OVC015 M07/M10 A2987 RMK SC8 SLP143,CYBR,2021-01-17T19:00:00Z,49.92,-99.95,-7.0,-10.0,320,4,,15.0,29.870079,1014.3,,,,,,,,,,OVC,1500,,,,,,,MVFR,,,,,,,,,,,,METAR,405.0
CYBQ 171900Z AUTO 08002KT 9SM OVC026 M25/M28 A3005 RMK SLP219,CYBQ,2021-01-17T19:00:00Z,58.7,-98.5,-25.0,-28.0,80,2,,9.0,30.050198,1021.9,,TRUE,,,,,,,,OVC,2600,,,,,,,MVFR,,,,,,,,,,,,METAR,272.0
CYBN 171900Z AUTO 29008KT 260V320 9SM OVC016 OVC042 M00/M03 A2956 RMK SLP019,CYBN,2021-01-17T19:00:00Z,44.27,-79.92,0.0,-3.0,290,8,,9.0,29.56004,1001.9,,TRUE,,,,,,,,OVC,1600,OVC,4200,,,,,MVFR,,,,,,,,,,,,METAR,223.0
CYBL 171900Z 32005KT 20SM FEW009 FEW020 BKN037 07/05 A3048 RMK SF1SC1SC5 SLP326,CYBL,2021-01-17T19:00:00Z,49.95,-125.27,7.0,5.0,320,5,,20.0,30.481298,1032.6,,,,,,,,,,FEW,900,FEW,2000,BKN,3700,,,VFR,,,,,,,,,,,,METAR,94.0
CYBK 171900Z 33010KT 20SM -SN BKN021 M24/M28 A3006 RMK SC7 SLP183,CYBK,2021-01-17T19:00:00Z,64.3,-96.07,-24.0,-28.0,330,10,,20.0,30.059055,1018.3,,,,,,,,,-SN,BKN,2100,,,,,,,MVFR,,,,,,,,,,,,METAR,14.0
CYBG 171900Z 27010KT 2SM -SN BR BKN007 OVC015 M01/M02 A2911 RMK SF6SC2 VIS VRB 1-3 SLP865,CYBG,2021-01-17T19:00:00Z,48.33,-70.98,-1.0,-2.0,270,10,,2.0,29.111221,986.5,,,,,,,,,-SN BR,BKN,700,OVC,1500,,,,,IFR,,,,,,,,,,,,METAR,151.0
CYBD 171900Z 30007G15KT 260V320 10SM -RA SCT018 BKN065 06/05 A3038 RMK SC3SC4 SLP292,CYBD,2021-01-17T19:00:00Z,52.38,-126.58,6.0,5.0,300,7,15,10.0,30.380905,1029.2,,,,,,,,,-RA,SCT,1800,BKN,6500,,,,,VFR,,,,,,,,,,,,METAR,40.0
CYBC 171900Z AUTO 36007KT 1SM R10/5000FT/U -SN BKN007 OVC013 M01/M01 A2899 RMK SLP823,CYBC,2021-01-17T19:00:00Z,49.13,-68.2,-1.0,-1.0,360,7,,1.0,28.990158,982.3,,TRUE,,,,,,,-SN,BKN,700,OVC,1300,,,,,IFR,,,,,,,,,,,,METAR,20.0
CYBB 171900Z 25013KT 15SM BKN050 M25/M28 A2988 RMK SC6 SLP124,CYBB,2021-01-17T19:00:00Z,68.53,-89.78,-25.0,-28.0,250,13,,15.0,29.878937,1012.4,,,,,,,,,,BKN,5000,,,,,,,VFR,,,,,,,,,,,,METAR,13.0
CYAZ 171900Z 30009KT 8SM FEW009 09/08 A3047 RMK CU2 SLP319,CYAZ,2021-01-17T19:00:00Z,49.08,-125.77,9.0,8.0,300,9,,8.0,30.469488,1031.9,,,,,,,,,,FEW,900,,,,,,,VFR,,,,,,,,,,,,METAR,26.0
CYAM 171900Z 25003KT 20SM FEW022 BKN094 M03/M09 A2964 RMK CU1AC7 CU TR SLP048,CYAM,2021-01-17T19:00:00Z,46.48,-84.52,-3.0,-9.0,250,3,,20.0,29.639763,1004.8,,,,,,,,,,FEW,2200,BKN,9400,,,,,VFR,,,,,,,,,,,,METAR,186.0
CXZV 171900Z AUTO 05008KT 00/M01 RMK AO1 2PAST HR SOG 33 6054 SLP823 P0001 T00001009 50002,CXZV,2021-01-17T19:00:00Z,50.22,-66.25,0.0,-0.9,50,8,,,,982.3,,TRUE,TRUE,,,,,,,,,,,,,,,,0.2,,,,,0.01,,,,,,METAR,43.0
CXZC 171900Z AUTO 34011G17KT M11/M15 RMK AO1 SOG 35 3008 PK WND 34019/1818 SLP075 T11111150,CXZC,2021-01-17T19:00:00Z,51.3,-80.62,-11.1,-15.0,340,11,17,,,1007.5,,TRUE,TRUE,,,,,,,,,,,,,,,,,,,,,,,,,,,METAR,8.0
CXWN 171900Z AUTO 36005KT M10/M14 RMK AO1 SLP139 T11011136 58003,CXWN,2021-01-17T19:00:00Z,49.88,-97.13,-10.1,-13.6,360,5,,,,1013.9,,TRUE,TRUE,,,,,,,,,,,,,,,,-0.3,,,,,,,,,,,METAR,232.0
CXWM 171900Z AUTO 29023KT 06/M04 RMK AO1 PK WND 27038/1800 T00561039,CXWM,2021-01-17T19:00:00Z,49.5,-112.12,5.6,-3.9,290,23,,,,,,TRUE,TRUE,,,,,,,,,,,,,,,,,,,,,,,,,,,METAR,947.0
CXVW 171900Z AUTO 26010KT M00/M00 RMK AO1 T10031002,CXVW,2021-01-17T19:00:00Z,55.1,-117.2,-0.3,-0.2,260,10,,,,,,TRUE,TRUE,,,,,,,,,,,,,,,,,,,,,,,,,,,METAR,696.0
CXVN 171900Z AUTO 24012G17KT 04/M01 RMK AO1 PK WND 24019/1823 SLP023 T00381009 56006,CXVN,2021-01-17T19:00:00Z,43.18,-79.4,3.8,-0.9,240,12,17,,,1002.3,,TRUE,TRUE,,,,,,,,,,,,,,,,-0.6,,,,,,,,,,,METAR,86.0
CXVM 171900Z AUTO 20003KT M03/M04 RMK AO1 T10251037,CXVM,2021-01-17T19:00:00Z,53.35,-110.88,-2.5,-3.7,200,3,,,,,,TRUE,TRUE,,,,,,,,,,,,,,,,,,,,,,,,,,,METAR,622.0
CXTP 171900Z AUTO 12007KT 02/01 RMK AO1 PK WND 14017/1816 SLP993 T00160014 58046,CXTP,2021-01-17T19:00:00Z,48.55,-53.97,1.6,1.4,120,7,,,,999.3,,TRUE,TRUE,,,,,,,,,,,,,,,,-4.6,,,,,,,,,,,METAR,104.0
CXTO 171900Z AUTO 04/M03 RMK AO1 SLP013 T00421033 56004,CXTO,2021-01-17T19:00:00Z,43.67,-79.4,4.2,-3.3,,,,,,1001.3,,TRUE,TRUE,,,,,,,,,,,,,,,,-0.4,,,,,,,,,,,METAR,115.0
CXTH 171900Z AUTO 23007KT M03/M03 RMK AO1 T10261026,CXTH,2021-01-17T19:00:00Z,53.63,-111.68,-2.6,-2.6,230,7,,,,,,TRUE,TRUE,,,,,,,,,,,,,,,,,,,,,,,,,,,METAR,679.0
CXTD 171900Z AUTO 21017G24KT 05/M00 RMK AO1 PK WND 20029/1842 SLP884 T00511001 51012,CXTD,2021-01-17T19:00:00Z,45.62,-61.68,5.1,-0.1,210,17,24,,,988.4,,TRUE,TRUE,,,,,,,,,,,,,,,,1.2,,,,,,,,,,,METAR,58.0
CXSP 171900Z AUTO 21007KT M02/M03 RMK AO1 6PAST HR M P0002 T10221028 50006,CXSP,2021-01-17T19:00:00Z,54.02,-111.27,-2.2,-2.8,210,7,,,,,,TRUE,TRUE,,,,,,,,,,,,,,,,0.6,,,,,0.02,,,,,,METAR,652.0
CXSL 171900Z AUTO 26004KT M02/M03 RMK AO1 0PAST HR M P0004 T10221028 50010,CXSL,2021-01-17T19:00:00Z,54.28,-112.5,-2.2,-2.8,260,4,,,,,,TRUE,TRUE,,,,,,,,,,,,,,,,1.0,,,,,0.04,,,,,,METAR,680.0
CXSH 171900Z AUTO 30006G18KT 00/M03 RMK AO1 PK WND 30018/1859 SLP897 T00001029 53009,CXSH,2021-01-17T19:00:00Z,46.55,-72.73,0.0,-2.9,300,6,18,,,989.7,,TRUE,TRUE,,,,,,,,,,,,,,,,0.9,,,,,,,,,,,METAR,106.0
CXSE 171900Z AUTO 33003KT M29/M32 RMK AO1 SOG 29 1007 SLP205 T12881317,CXSE,2021-01-17T19:00:00Z,73.77,-105.28,-28.8,-31.7,330,3,,,,1020.5,,TRUE,TRUE,,,,,,,,,,,,,,,,,,,,,,,,,,,METAR,11.0
CXSC 171900Z AUTO 21003KT M02/M04 RMK AO1 T10171040,CXSC,2021-01-17T19:00:00Z,50.3,-110.08,-1.7,-4.0,210,3,,,,,,TRUE,TRUE,,,,,,,,,,,,,,,,,,,,,,,,,,,METAR,809.0
CXRL 171900Z AUTO 18005KT M02/M02 RMK AO1 5PAST HR M P0002 T10211024 50005,CXRL,2021-01-17T19:00:00Z,54.5,-111.7,-2.1,-2.4,180,5,,,,,,TRUE,TRUE,,,,,,,,,,,,,,,,0.5,,,,,0.02,,,,,,METAR,585.0
CXRH 171900Z AUTO 11018G35KT 04/02 RMK AO1 35 T00360016,CXRH,2021-01-17T19:00:00Z,49.57,-57.88,3.6,1.6,110,18,35,,,,,TRUE,TRUE,,,,,,,,,,,,,,,,,,,,,,,,,,,METAR,68.0
CXRB 171900Z AUTO 04014KT M18/M20 RMK AO1 SOG 10 3003 PK WND 05018/1800 SLP171 T11781203,CXRB,2021-01-17T19:00:00Z,74.72,-94.98,-17.8,-20.3,40,14,,,,1017.1,,TRUE,TRUE,,,,,,,,,,,,,,,,,,,,,,,,,,,METAR,30.0
CXPL 171900Z AUTO 25008KT M03/M04 RMK AO1 T10321044,CXPL,2021-01-17T19:00:00Z,51.13,-111.7,-3.2,-4.4,250,8,,,,,,TRUE,TRUE,,,,,,,,,,,,,,,,,,,,,,,,,,,METAR,735.0
CXPC 171900Z AUTO M05/M07 RMK AO1 SOG 18 3001 SLP016 T10481073,CXPC,2021-01-17T19:00:00Z,45.35,-80.05,-4.8,-7.3,,,,,,1001.6,,TRUE,TRUE,,,,,,,,,,,,,,,,,,,,,,,,,,,METAR,176.0
CXPA 171900Z AUTO 29010KT 01/01 RMK AO1 4PAST HR M P0002 T00110011 50004,CXPA,2021-01-17T19:00:00Z,55.62,-118.3,1.1,1.1,290,10,,,,,,TRUE,TRUE,,,,,,,,,,,,,,,,0.4,,,,,0.02,,,,,,METAR,628.0
CXOY 171900Z AUTO 23009KT M01/M03 RMK AO1 T10101033,CXOY,2021-01-17T19:00:00Z,51.35,-110.35,-1.0,-3.3,230,9,,,,,,TRUE,TRUE,,,,,,,,,,,,,,,,,,,,,,,,,,,METAR,784.0
CXOX 171900Z AUTO 08006KT M16/M18 RMK AO1 SOG 41 8011 SLP149 T11561175,CXOX,2021-01-17T19:00:00Z,55.15,-105.27,-15.6,-17.5,80,6,,,,1014.9,,TRUE,TRUE,,,,,,,,,,,,,,,,,,,,,,,,,,,METAR,381.0
CXOL 171900Z AUTO 33007KT 01/M04 RMK AO1 T00101042,CXOL,2021-01-17T19:00:00Z,51.77,-114.08,1.0,-4.2,330,7,,,,,,TRUE,TRUE,,,,,,,,,,,,,,,,,,,,,,,,,,,METAR,1026.0
CXNP 171900Z AUTO 20016G24KT 02/01 RMK AO1 SOG 10 3006 PK WND 21031/1810 SLP836 T00210011,CXNP,2021-01-17T19:00:00Z,45.75,-64.23,2.1,1.1,200,16,24,,,983.6,,TRUE,TRUE,,,,,,,,,,,,,,,,,,,,,,,,,,,METAR,19.0
CXNM 171900Z AUTO 02/M00 RMK AO1 SOG 97 T00161004,CXNM,2021-01-17T19:00:00Z,46.82,-60.67,1.6,-0.4,,,,,,,,TRUE,TRUE,,,,,,,,,,,,,,,,,,,,,,,,,,,METAR,452.0
CXMY 171900Z AUTO 04/01 RMK AO1 T00440013,CXMY,2021-01-17T19:00:00Z,44.98,-62.48,4.4,1.3,,,,,,,,TRUE,TRUE,,,,,,,,,,,,,,,,,,,,,,,,,,,METAR,37.0
CXMO 171900Z AUTO 30007KT M01/M02 RMK AO1 T10061018,CXMO,2021-01-17T19:00:00Z,51.67,-112.68,-0.6,-1.8,300,7,,,,,,TRUE,TRUE,,,,,,,,,,,,,,,,,,,,,,,,,,,METAR,837.0
CXMM 171900Z AUTO 00007KT M10/M12 RMK AO1 SOG 19 6001 SLP104 T11021124,CXMM,2021-01-17T19:00:00Z,56.65,-111.22,-10.2,-12.4,0,7,,,,1010.4,,TRUE,TRUE,,,,,,,,,,,,,,,,,,,,,,,,,,,METAR,372.0
CXMI 171900Z AUTO 25026G34KT 04/02 RMK AO1 PK WND 23039/1814 SLP877 T00410017 53007,CXMI,2021-01-17T19:00:00Z,44.6,-63.53,4.1,1.7,250,26,34,,,987.7,,TRUE,TRUE,,,,,,,,,,,,,,,,0.7,,,,,,,,,,,METAR,15.0
CXMG 171900Z AUTO 32003KT M04/M04 RMK AO1 T10371037,CXMG,2021-01-17T19:00:00Z,56.97,-117.45,-3.7,-3.7,320,3,,,,,,TRUE,TRUE,,,,,,,,,,,,,,,,,,,,,,,,,,,METAR,467.0
CXMD 171900Z AUTO 34009KT M08/M12 RMK AO1 PK WND 01017/1832 SLP143 T10841124 58002,CXMD,2021-01-17T19:00:00Z,49.18,-98.08,-8.4,-12.4,340,9,,,,1014.3,,TRUE,TRUE,,,,,,,,,,,,,,,,-0.2,,,,,,,,,,,METAR,297.0
CXLB 171900Z AUTO 21023G30KT 04/02 RMK AO1 PK WND 22030/1855 SLP878 T00390024 53012,CXLB,2021-01-17T19:00:00Z,44.37,-64.3,3.9,2.4,210,23,30,,,987.8,,TRUE,TRUE,,,,,,,,,,,,,,,,1.2,,,,,,,,,,,METAR,4.0
CXKT 171900Z AUTO 23009G17KT 03/01 RMK AO1 4PAST HR SOG 04 3014 PK WND 21019/1846 SLP860 P0002 T00280006 50004,CXKT,2021-01-17T19:00:00Z,45.07,-64.48,2.8,0.6,230,9,17,,,986.0,,TRUE,TRUE,,,,,,,,,,,,,,,,0.4,,,,,0.02,,,,,,METAR,48.0
CXKM 171900Z AUTO 27005KT M01/M04 RMK AO1 T10121040,CXKM,2021-01-17T19:00:00Z,52.83,-111.87,-1.2,-4.0,270,5,,,,,,TRUE,TRUE,,,,,,,,,,,,,,,,,,,,,,,,,,,METAR,679.0
CXKI 171900Z AUTO M11/M13 RMK AO1 SOG 29 3007 SLP038 T11121132,CXKI,2021-01-17T19:00:00Z,48.13,-80.0,-11.2,-13.2,,,,,,1003.8,,TRUE,TRUE,,,,,,,,,,,,,,,,,,,,,,,,,,,METAR,328.0
CXKE 171900Z AUTO 29008KT M01/M04 RMK AO1 SOG 20 2012 SLP970 T10091042,CXKE,2021-01-17T19:00:00Z,45.0,-75.63,-0.9,-4.2,290,8,,,,997.0,,TRUE,TRUE,,,,,,,,,,,,,,,,,,,,,,,,,,,METAR,99.0
CXKA 171900Z AUTO 32008KT M14/M18 RMK AO1 SOG 50 5005 SLP083 T11351177,CXKA,2021-01-17T19:00:00Z,49.4,-82.45,-13.5,-17.7,320,8,,,,1008.3,,TRUE,TRUE,,,,,,,,,,,,,,,,,,,,,,,,,,,METAR,221.0
CXIB 171900Z AUTO 21007KT 06/02 RMK AO1 PK WND 21019/1845 SLP868 T00630016 51003,CXIB,2021-01-17T19:00:00Z,46.67,-60.4,6.3,1.6,210,7,,,,986.8,,TRUE,TRUE,,,,,,,,,,,,,,,,0.3,,,,,,,,,,,METAR,6.0
CXHR 171900Z AUTO 30014KT 01/M02 RMK AO1 PK WND 30018/1801 T00061022,CXHR,2021-01-17T19:00:00Z,51.18,-112.5,0.6,-2.2,300,14,,,,,,TRUE,TRUE,,,,,,,,,,,,,,,,,,,,,,,,,,,METAR,975.0
CXHP 171900Z AUTO 27010KT 01/00 RMK AO1 T00070000,CXHP,2021-01-17T19:00:00Z,55.4,-116.48,0.7,0.0,270,10,,,,,,TRUE,TRUE,,,,,,,,,,,,,,,,,,,,,,,,,,,METAR,601.0
CXHM 171900Z AUTO 27006KT 03/M00 RMK AO1 SLP020 T00331004 57011,CXHM,2021-01-17T19:00:00Z,43.28,-79.9,3.3,-0.4,270,6,,,,1002.0,,TRUE,TRUE,,,,,,,,,,,,,,,,-1.1,,,,,,,,,,,METAR,105.0
CXHF 171900Z AUTO M03/M04 RMK AO1 T10261040,CXHF,2021-01-17T19:00:00Z,45.83,-75.65,-2.6,-4.0,,,,,,,,TRUE,TRUE,,,,,,,,,,,,,,,,,,,,,,,,,,,METAR,185.0
CXHD 171900Z AUTO 27005KT 00/M02 RMK AO1 T00001024,CXHD,2021-01-17T19:00:00Z,53.18,-112.25,0.0,-2.4,270,5,,,,,,TRUE,TRUE,,,,,,,,,,,,,,,,,,,,,,,,,,,METAR,688.0
CXHA 171900Z AUTO 24009KT 02/00 RMK AO1 SLP049 T00210000 56019,CXHA,2021-01-17T19:00:00Z,42.03,-82.9,2.1,0.0,240,9,,,,1004.9,,TRUE,TRUE,,,,,,,,,,,,,,,,-1.9,,,,,,,,,,,METAR,193.0
CXGH 171900Z AUTO 33010KT M12/M16 RMK AO1 PK WND 32017/1806 SLP128 T11241161 58005,CXGH,2021-01-17T19:00:00Z,50.63,-97.0,-12.4,-16.1,330,10,,,,1012.8,,TRUE,TRUE,,,,,,,,,,,,,,,,-0.5,,,,,,,,,,,METAR,217.0
CXFR 171900Z AUTO 29007KT M00/M00 RMK AO1 4PAST HR M P0002 T10011001 50004,CXFR,2021-01-17T19:00:00Z,56.08,-118.43,-0.1,-0.1,290,7,,,,,,TRUE,TRUE,,,,,,,,,,,,,,,,0.4,,,,,0.02,,,,,,METAR,657.0
CXFM 171900Z AUTO 28016KT 06/M04 RMK AO1 PK WND 28024/1807 T00571035,CXFM,2021-01-17T19:00:00Z,49.48,-111.48,5.7,-3.5,280,16,,,,,,TRUE,TRUE,,,,,,,,,,,,,,,,,,,,,,,,,,,METAR,884.0
CXET 171900Z AUTO 31008G15KT M01/M04 RMK AO1 SOG 10 6004 SLP016 T10071037,CXET,2021-01-17T19:00:00Z,44.23,-79.78,-0.7,-3.7,310,8,15,,,1001.6,,TRUE,TRUE,,,,,,,,,,,,,,,,,,,,,,,,,,,METAR,250.0
CXEG 171900Z AUTO 28008KT 02/M02 RMK AO1 SOG 17 6002 SLP117 T00181023,CXEG,2021-01-17T19:00:00Z,53.3,-113.6,1.8,-2.3,280,8,,,,1011.7,,TRUE,TRUE,,,,,,,,,,,,,,,,,,,,,,,,,,,METAR,706.0
CXEC 171900Z AUTO 27005KT 02/M02 RMK AO1 SOG 17 6004 SLP111 T00221024,CXEC,2021-01-17T19:00:00Z,53.57,-113.52,2.2,-2.4,270,5,,,,1011.1,,TRUE,TRUE,,,,,,,,,,,,,,,,,,,,,,,,,,,METAR,666.0
CXEA 171900Z AUTO 30003KT M09/M10 RMK AO1 SOG 25 8012 SLP081 T10891101,CXEA,2021-01-17T19:00:00Z,50.63,-93.22,-8.9,-10.1,300,3,,,,1008.1,,TRUE,TRUE,,,,,,,,,,,,,,,,,,,,,,,,,,,METAR,351.0
CXDW 171900Z AUTO 32014KT M10/M13 RMK AO1 SOG 01 8003 PK WND 33017/1857 SLP144 T10981130,CXDW,2021-01-17T19:00:00Z,49.4,-98.32,-9.8,-13.0,320,14,,,,1014.4,,TRUE,TRUE,,,,,,,,,,,,,,,,,,,,,,,,,,,METAR,341.0
CXDK 171900Z AUTO 10001KT M19/M21 RMK AO1 SOG 39 3006 SLP122 T11861207,CXDK,2021-01-17T19:00:00Z,61.27,-124.47,-18.6,-20.7,100,1,,,,1012.2,,TRUE,TRUE,,,,,,,,,,,,,,,,,,,,,,,,,,,METAR,269.0
CXDI 171900Z AUTO 26005KT 02/M02 RMK AO1 SLP036 T00161017 56012,CXDI,2021-01-17T19:00:00Z,42.87,-80.55,1.6,-1.7,260,5,,,,1003.6,,TRUE,TRUE,,,,,,,,,,,,,,,,-1.2,,,,,,,,,,,METAR,234.0
CXDE 171900Z AUTO 09004KT M17/M19 RMK AO1 SOG 30 1014 SLP125 T11661188,CXDE,2021-01-17T19:00:00Z,65.22,-123.43,-16.6,-18.8,90,4,,,,1012.5,,TRUE,TRUE,,,,,,,,,,,,,,,,,,,,,,,,,,,METAR,208.0
CXDB 171900Z AUTO 28020KT 04/M04 RMK AO1 PK WND 28029/1834 T00411043,CXDB,2021-01-17T19:00:00Z,49.05,-112.82,4.1,-4.3,280,20,,,,,,TRUE,TRUE,,,,,,,,,,,,,,,,,,,,,,,,,,,METAR,1311.0
CXCS 171900Z AUTO 23011KT M02/M06 RMK AO1 T10211057,CXCS,2021-01-17T19:00:00Z,51.93,-110.72,-2.1,-5.7,230,11,,,,,,TRUE,TRUE,,,,,,,,,,,,,,,,,,,,,,,,,,,METAR,771.0
CXCP 171900Z AUTO 33006KT 04/M05 RMK AO1 T00351048,CXCP,2021-01-17T19:00:00Z,50.28,-113.35,3.5,-4.8,330,6,,,,,,TRUE,TRUE,,,,,,,,,,,,,,,,,,,,,,,,,,,METAR,999.0
CXCK 171900Z AUTO 00000KT M16/M18 RMK AO1 SOG 38 1020 SLP107 T11591176,CXCK,2021-01-17T19:00:00Z,62.12,-136.2,-15.9,-17.6,0,0,,,,1010.7,,TRUE,TRUE,,,,,,,,,,,,,,,,,,,,,,,,,,,METAR,526.0
CXCD 171900Z AUTO 32004KT 02/M00 RMK AO1 4PAST HR M P0002 T00211003 50004,CXCD,2021-01-17T19:00:00Z,56.32,-119.75,2.1,-0.3,320,4,,,,,,TRUE,TRUE,,,,,,,,,,,,,,,,0.4,,,,,0.02,,,,,,METAR,628.0
CXCA 171900Z AUTO 35006KT M09/ RMK AO1 SOG 13 7015 SLP100 T1091,CXCA,2021-01-17T19:00:00Z,49.15,-88.35,-9.1,,350,6,,,,1010.0,,TRUE,TRUE,,,,,,,,,,,,,,,,,,,,,,,,,,,METAR,228.0
CXBW 171900Z AUTO 29013KT 06/M04 RMK AO1 PK WND 29019/1843 T00591041,CXBW,2021-01-17T19:00:00Z,49.8,-112.3,5.9,-4.1,290,13,,,,,,TRUE,TRUE,,,,,,,,,,,,,,,,,,,,,,,,,,,METAR,823.0
CXBR 171900Z AUTO 27019KT 05/M06 RMK AO1 PK WND 26028/1806 T00531055,CXBR,2021-01-17T19:00:00Z,49.62,-113.82,5.3,-5.5,270,19,,,,,,TRUE,TRUE,,,,,,,,,,,,,,,,,,,,,,,,,,,METAR,1137.0
CXBO 171900Z AUTO 25011G17KT M00/M03 RMK AO1 PK WND 24018/1803 T10031028,CXBO,2021-01-17T19:00:00Z,46.83,-71.2,-0.3,-2.8,250,11,17,,,,,TRUE,TRUE,,,,,,,,,,,,,,,,,,,,,,,,,,,METAR,8.0
CXBK 171900Z AUTO 16005KT M06/M08 RMK AO1 SLP119 T10561084 58019,CXBK,2021-01-17T19:00:00Z,50.2,-104.7,-5.6,-8.4,160,5,,,,1011.9,,TRUE,TRUE,,,,,,,,,,,,,,,,-1.9,,,,,,,,,,,METAR,585.0
CXBI 171900Z AUTO 30011KT M02/M04 RMK AO1 SOG 23 5002 PK WND 30018/1811 SLP018 T10191041,CXBI,2021-01-17T19:00:00Z,44.48,-79.55,-1.9,-4.1,300,11,,,,1001.8,,TRUE,TRUE,,,,,,,,,,,,,,,,,,,,,,,,,,,METAR,287.0
CXBA 171900Z AUTO 14007KT M02/M06 RMK AO1 T10241055,CXBA,2021-01-17T19:00:00Z,52.12,-110.1,-2.4,-5.5,140,7,,,,,,TRUE,TRUE,,,,,,,,,,,,,,,,,,,,,,,,,,,METAR,696.0
CXAT 171900Z AUTO 06003KT M22/M26 RMK AO1 SLP129 T12221261 53008,CXAT,2021-01-17T19:00:00Z,73.0,-85.03,-22.2,-26.1,60,3,,,,1012.9,,TRUE,TRUE,,,,,,,,,,,,,,,,0.8,,,,,,,,,,,METAR,10.0
CXAK 171900Z AUTO 26009KT M00/M00 RMK AO1 T10041004,CXAK,2021-01-17T19:00:00Z,52.35,-112.6,-0.4,-0.4,260,9,,,,,,TRUE,TRUE,,,,,,,,,,,,,,,,,,,,,,,,,,,METAR,799.0
CXAJ 171900Z AUTO 25006KT M00/M00 RMK AO1 7PAST HR SOG 26 M P0003 T10031004 50007,CXAJ,2021-01-17T19:00:00Z,54.78,-112.82,-0.3,-0.4,250,6,,,,,,TRUE,TRUE,,,,,,,,,,,,,,,,0.7,,,,,0.03,,,,,,METAR,586.0
CXAF 171900Z AUTO 28005KT M00/M00 RMK AO1 T10031003,CXAF,2021-01-17T19:00:00Z,54.28,-112.97,-0.3,-0.3,280,5,,,,,,TRUE,TRUE,,,,,,,,,,,,,,,,,,,,,,,,,,,METAR,667.0
CWZZ 171900Z AUTO 04007KT 360V100 ////SM OVC002 M12/M13 A2971,CWZZ,2021-01-17T19:00:00Z,58.47,-62.65,-12.0,-13.0,40,7,,,29.71063,,,TRUE,,,,,,,,OVC,200,,,,,,,,,,,,,,,,,,,METAR,50.0
CWZW 171900Z AUTO 02002KT M05/M06 RMK AO1 SOG 63 3021 SLP148 T10531059,CWZW,2021-01-17T19:00:00Z,60.17,-132.73,-5.3,-5.9,20,2,,,,1014.8,,TRUE,TRUE,,,,,,,,,,,,,,,,,,,,,,,,,,,METAR,683.0
CWZQ 171900Z AUTO 19016G22KT RMK AO1 PK WND 18028/1836 53010,CWZQ,2021-01-17T19:00:00Z,46.53,-61.05,,,190,16,22,,,,,TRUE,TRUE,,,,,,,,,,,,,,,,1.0,,,,,,,,,,,METAR,13.0
CWZO 171900Z AUTO 36004KT RMK AO1,CWZO,2021-01-17T19:00:00Z,48.57,-123.25,,,360,4,,,,,,TRUE,TRUE,,,,,,,,,,,,,,,,,,,,,,,,,,,METAR,5.0
CWZG 171900Z AUTO 23007KT M02/M07 RMK AO1 SOG 17 0005 SLP189 T10151071,CWZG,2021-01-17T19:00:00Z,51.2,-115.55,-1.5,-7.1,230,7,,,,1018.9,,TRUE,TRUE,,,,,,,,,,,,,,,,,,,,,,,,,,,METAR,1402.0
CWZA 171900Z AUTO 12001KT 06/05 RMK AO1 SLP307 T00620054 51021,CWZA,2021-01-17T19:00:00Z,49.25,-121.77,6.2,5.4,120,1,,,,1030.7,,TRUE,TRUE,,,,,,,,,,,,,,,,2.1,,,,,,,,,,,METAR,18.0
CWYY 171900Z AUTO 18005KT 03/M00 RMK AO1 SLP289 T00321004 51023,CWYY,2021-01-17T19:00:00Z,49.03,-119.43,3.2,-0.4,180,5,,,,1028.9,,TRUE,TRUE,,,,,,,,,,,,,,,,2.3,,,,,,,,,,,METAR,284.0
CWYL 171900Z AUTO 25016KT M05/M06 RMK AO1 SOG 89 1007 PK WND 24021/1843 SLP206 T10541055,CWYL,2021-01-17T19:00:00Z,51.45,-116.33,-5.4,-5.5,250,16,,,,1020.6,,TRUE,TRUE,,,,,,,,,,,,,,,,,,,,,,,,,,,METAR,1602.0
CWYJ 171900Z AUTO 24004KT 10/08 RMK AO1 SLP314 T01010079 52023,CWYJ,2021-01-17T19:00:00Z,48.45,-123.3,10.1,7.9,240,4,,,,1031.4,,TRUE,TRUE,,,,,,,,,,,,,,,,2.3,,,,,,,,,,,METAR,59.0
CWXL 171900Z AUTO 30016KT 05/M03 RMK AO1 PK WND 30020/1837 SLP113 T00471034 58005,CWXL,2021-01-17T19:00:00Z,49.73,-111.45,4.7,-3.4,300,16,,,,1011.3,,TRUE,TRUE,,,,,,,,,,,,,,,,-0.5,,,,,,,,,,,METAR,815.0
CWXI 171900Z AUTO 01/M01 RMK AO1 PRESFR SLP963 T00141012 58051,CWXI,2021-01-17T19:00:00Z,51.02,-57.1,1.4,-1.2,,,,,,996.3,,TRUE,TRUE,,,,,,,,,,,,,,,,-5.1,,,,,,,,,,,METAR,15.0
CWXA 171900Z AUTO 25009G19KT 02/M10 RMK AO1 PK WND 27019/1853 SLP163 T00231095 51009,CWXA,2021-01-17T19:00:00Z,51.07,-115.07,2.3,-9.5,250,9,19,,,1016.3,,TRUE,TRUE,,,,,,,,,,,,,,,,0.9,,,,,,,,,,,METAR,1303.0
CWWZ 171900Z AUTO 25010KT 04/01 RMK AO1 PK WND 26020/1812 SLP020 T00360009 56006,CWWZ,2021-01-17T19:00:00Z,43.25,-79.22,3.6,0.9,250,10,,,,1002.0,,TRUE,TRUE,,,,,,,,,,,,,,,,-0.6,,,,,,,,,,,METAR,75.0
CWWS 171900Z AUTO M17/M20 RMK AO1 SOG 01 8001 SLP162 T11661196,CWWS,2021-01-17T19:00:00Z,52.82,-97.62,-16.6,-19.6,,,,,,1016.2,,TRUE,TRUE,,,,,,,,,,,,,,,,,,,,,,,,,,,METAR,220.0
CWWK 171900Z AUTO 09001KT RMK AO1 SOG 02 1023,CWWK,2021-01-17T19:00:00Z,49.02,-122.78,,,90,1,,,,,,TRUE,TRUE,,,,,,,,,,,,,,,,,,,,,,,,,,,METAR,10.0
CWWF 171900Z AUTO 22004KT M04/M08 RMK AO1 SOG 04 8021 SLP135 T10391078,CWWF,2021-01-17T19:00:00Z,49.7,-103.8,-3.9,-7.8,220,4,,,,1013.5,,TRUE,TRUE,,,,,,,,,,,,,,,,,,,,,,,,,,,METAR,583.0
CWWE 171900Z AUTO 23022G30KT 05/01 RMK AO1 PK WND 23036/1845 SLP900 T00490013 53014,CWWE,2021-01-17T19:00:00Z,43.98,-64.67,4.9,1.3,230,22,30,,,990.0,,TRUE,TRUE,,,,,,,,,,,,,,,,1.4,,,,,,,,,,,METAR,4.0
CWWB 171900Z AUTO 25005KT 03/01 RMK AO1 SLP019 T00330005 56009,CWWB,2021-01-17T19:00:00Z,43.3,-79.78,3.3,0.5,250,5,,,,1001.9,,TRUE,TRUE,,,,,,,,,,,,,,,,-0.9,,,,,,,,,,,METAR,77.0
CWWA 171900Z AUTO 18001KT 06/06 RMK AO1 SLP311 T00600056 51024,CWWA,2021-01-17T19:00:00Z,49.35,-123.18,6.0,5.6,180,1,,,,1031.1,,TRUE,TRUE,,,,,,,,,,,,,,,,2.4,,,,,,,,,,,METAR,172.0
CWVU 171900Z AUTO 24020G29KT 06/01 RMK AO1 PK WND 26032/1846 SLP887 T00550009 53020,CWVU,2021-01-17T19:00:00Z,44.28,-66.33,5.5,0.9,240,20,29,,,988.7,,TRUE,TRUE,,,,,,,,,,,,,,,,2.0,,,,,,,,,,,METAR,4.0
CWVT 171900Z AUTO 10006KT M10/M12 RMK AO1 SOG 24 8006 SLP131 T11011122,CWVT,2021-01-17T19:00:00Z,55.83,-108.42,-10.1,-12.2,100,6,,,,1013.1,,TRUE,TRUE,,,,,,,,,,,,,,,,,,,,,,,,,,,METAR,431.0
CWVQ 171900Z AUTO 26010KT M00/M02 RMK AO1 SOG 32 3017 PK WND 27020/1835 SLP941 T10041021,CWVQ,2021-01-17T19:00:00Z,45.42,-73.92,-0.4,-2.1,260,10,,,,994.1,,TRUE,TRUE,,,,,,,,,,,,,,,,,,,,,,,,,,,METAR,38.0
CWVP 171900Z AUTO 30007KT M00/M07 RMK AO1 SOG 13 8015 SLP100 T10021069,CWVP,2021-01-17T19:00:00Z,49.63,-109.52,-0.2,-6.9,300,7,,,,1010.0,,TRUE,TRUE,,,,,,,,,,,,,,,,,,,,,,,,,,,METAR,1269.0
CWVN 171900Z AUTO 17002KT M02/M07 RMK AO1 SLP126 T10201071 58026,CWVN,2021-01-17T19:00:00Z,49.07,-107.58,-2.0,-7.1,170,2,,,,1012.6,,TRUE,TRUE,,,,,,,,,,,,,,,,-2.6,,,,,,,,,,,METAR,792.0
CWVI 171900Z AUTO 25006KT M01/M04 RMK AO1 SOG 19 8009 SLP106 T10091040,CWVI,2021-01-17T19:00:00Z,53.52,-112.1,-0.9,-4.0,250,6,,,,1010.6,,TRUE,TRUE,,,,,,,,,,,,,,,,,,,,,,,,,,,METAR,640.0
CWVF 171900Z AUTO 14002KT 08/06 RMK AO1 T00750055,CWVF,2021-01-17T19:00:00Z,49.1,-123.3,7.5,5.5,140,2,,,,,,TRUE,TRUE,,,,,,,,,,,,,,,,,,,,,,,,,,,METAR,13.0
CWUX 171900Z AUTO 28010KT M02/M02 RMK AO1 SLP858 T10161015 56004,CWUX,2021-01-17T19:00:00Z,48.3,-70.93,-1.6,-1.5,280,10,,,,985.8,,TRUE,TRUE,,,,,,,,,,,,,,,,-0.4,,,,,,,,,,,METAR,150.0
CWUS 171900Z AUTO 36002KT 04/M01 RMK AO1 SLP281 T00441008 53018,CWUS,2021-01-17T19:00:00Z,49.57,-119.65,4.4,-0.8,360,2,,,,1028.1,,TRUE,TRUE,,,,,,,,,,,,,,,,1.8,,,,,,,,,,,METAR,455.0
CWTY 171900Z AUTO 23009KT M00/M00 RMK AO1 SLP902 T10011001 53012,CWTY,2021-01-17T19:00:00Z,46.35,-72.52,-0.1,-0.1,230,9,,,,990.2,,TRUE,TRUE,,,,,,,,,,,,,,,,1.2,,,,,,,,,,,METAR,8.0
CWTT 171900Z AUTO 26013G20KT 01/M02 RMK AO1 PK WND 26026/1807 T00051024,CWTT,2021-01-17T19:00:00Z,45.27,-72.17,0.5,-2.4,260,13,20,,,,,TRUE,TRUE,,,,,,,,,,,,,,,,,,,,,,,,,,,METAR,210.0
CWTN 171900Z AUTO 28006KT M00/M01 RMK AO1 SLP863 T10011014 53002,CWTN,2021-01-17T19:00:00Z,47.07,-70.78,-0.1,-1.4,280,6,,,,986.3,,TRUE,TRUE,,,,,,,,,,,,,,,,0.2,,,,,,,,,,,METAR,5.0
CWTG 171900Z AUTO 04018G28KT M01/M01 RMK AO1 1PAST HR 6038 PK WND 04030/1800 SLP809 P0004 T10101011 50011,CWTG,2021-01-17T19:00:00Z,49.32,-67.37,-1.0,-1.1,40,18,28,,,980.9,,TRUE,TRUE,,,,,,,,,,,,,,,,1.1,,,,,0.04,,,,,,METAR,6.0
CWTA 171900Z AUTO 22004KT 01/M02 RMK AO1 SOG 36 3015 SLP931 T00051023,CWTA,2021-01-17T19:00:00Z,45.5,-73.58,0.5,-2.3,220,4,,,,993.1,,TRUE,TRUE,,,,,,,,,,,,,,,,,,,,,,,,,,,METAR,71.0
CWSW 171900Z 18009KT 140V210 15SM FEW020 FEW030 BKN046 BKN060 02/M03 A3007 RMK CU1CU2CU3CU1 CU TR SLP223,CWSW,2021-01-17T19:00:00Z,49.83,-114.87,2.0,-3.0,180,9,,15.0,30.070866,1022.3,,,,,,,,,,FEW,2000,FEW,3000,BKN,4600,BKN,6000,VFR,,,,,,,,,,,,METAR,1173.0
CWST 171900Z AUTO 23013KT 01/M01 RMK AO1 SOG 09 3003 PK WND 23017/1854 SLP847 T00051011,CWST,2021-01-17T19:00:00Z,47.35,-70.02,0.5,-1.1,230,13,,,,984.7,,TRUE,TRUE,,,,,,,,,,,,,,,,,,,,,,,,,,,METAR,31.0
CWSS 171900Z AUTO 25013G21KT 02/M02 RMK AO1 SOG 02 3020 PK WND 25022/1848 SLP861 T00151017,CWSS,2021-01-17T19:00:00Z,45.2,-67.25,1.5,-1.7,250,13,21,,,986.1,,TRUE,TRUE,,,,,,,,,,,,,,,,,,,,,,,,,,,METAR,27.0
CWSR 171900Z AUTO 29005KT M04/M08 RMK AO1 SOG 12 8013 SLP096 T10441078,CWSR,2021-01-17T19:00:00Z,53.37,-107.55,-4.4,-7.8,290,5,,,,1009.6,,TRUE,TRUE,,,,,,,,,,,,,,,,,,,,,,,,,,,METAR,589.0
CWSP 171900Z AUTO 28009KT 08/07 RMK AO1 SLP320 T00830070 52021,CWSP,2021-01-17T19:00:00Z,48.38,-123.92,8.3,7.0,280,9,,,,1032.0,,TRUE,TRUE,,,,,,,,,,,,,,,,2.1,,,,,,,,,,,METAR,2.0
CWSL 171900Z AUTO 19001KT 01/M01 RMK AO1 SOG 03 1023 SLP281 T00111014,CWSL,2021-01-17T19:00:00Z,50.7,-119.28,1.1,-1.4,190,1,,,,1028.1,,TRUE,TRUE,,,,,,,,,,,,,,,,,,,,,,,,,,,METAR,353.0
CWSK 171900Z AUTO 02001KT 05/05 RMK AO1 SLP313 T00530051 52024,CWSK,2021-01-17T19:00:00Z,49.78,-123.17,5.3,5.1,20,1,,,,1031.3,,TRUE,TRUE,,,,,,,,,,,,,,,,2.4,,,,,,,,,,,METAR,59.0
CWSG 171900Z AUTO 06017G23KT M01/M01 RMK AO1 3PAST HR 6036 PK WND 05024/1820 SLP799 P0001 T10091013 50003,CWSG,2021-01-17T19:00:00Z,49.12,-66.65,-0.9,-1.3,60,17,23,,,979.9,,TRUE,TRUE,,,,,,,,,,,,,,,,0.3,,,,,0.01,,,,,,METAR,5.0
CWSF 171900Z AUTO 04010KT M01/M01 RMK AO1 1PAST HR SOG 10 6064 PK WND 05020/1806 SLP778 P0004 T10051006 50011,CWSF,2021-01-17T19:00:00Z,49.25,-65.32,-0.5,-0.6,40,10,,,,977.8,,TRUE,TRUE,,,,,,,,,,,,,,,,1.1,,,,,0.04,,,,,,METAR,15.0
CWSD 171900Z AUTO 21021G28KT 03/M00 RMK AO1 SOG 02 5002 PK WND 21029/1848 SLP816 T00251002,CWSD,2021-01-17T19:00:00Z,46.43,-63.85,2.5,-0.2,210,21,28,,,981.6,,TRUE,TRUE,,,,,,,,,,,,,,,,,,,,,,,,,,,METAR,12.0
CWSA 171900Z AUTO 23017G22KT 3SM HZ CLR 07/03 A2940 RMK SLP956,CWSA,2021-01-17T19:00:00Z,43.93,-60.0,7.0,3.0,230,17,22,3.0,29.40059,995.6,,TRUE,,,,,,,HZ,CLR,,,,,,,,MVFR,,,,,,,,,,,,METAR,4.0
CWRZ 171900Z AUTO 20015KT M00/M00 RMK AO1 PK WND 21018/1853 SLP748 T10021003 56044,CWRZ,2021-01-17T19:00:00Z,48.42,-64.32,-0.2,-0.3,200,15,,,,974.8,,TRUE,TRUE,,,,,,,,,,,,,,,,-4.4,,,,,,,,,,,METAR,16.0
CWRY 171900Z AUTO 29022G29KT 06/M04 RMK AO1 PK WND 29033/1837 SLP113 T00591043 57004,CWRY,2021-01-17T19:00:00Z,49.12,-112.05,5.9,-4.3,290,22,29,,,1011.3,,TRUE,TRUE,,,,,,,,,,,,,,,,-0.4,,,,,,,,,,,METAR,1048.0
CWRX 171900Z AUTO 14017G23KT ////SM //// NCD M19/M21 A2970,CWRX,2021-01-17T19:00:00Z,69.07,-79.07,-19.0,-21.0,140,17,23,,29.698818,,,TRUE,,,,,,,,CLR,,,,,,,,,,,,,,,,,,,,METAR,39.0
CWRT 171900Z AUTO 29012G23KT 03/M04 RMK AO1 PK WND 30025/1828 T00321042,CWRT,2021-01-17T19:00:00Z,49.62,-114.47,3.2,-4.2,290,12,23,,,,,TRUE,TRUE,,,,,,,,,,,,,,,,,,,,,,,,,,,METAR,1311.0
CWRO 171900Z AUTO 21009KT 05/05 RMK AO1 SLP261 T00540054 53045,CWRO,2021-01-17T19:00:00Z,54.17,-131.67,5.4,5.4,210,9,,,,1026.1,,TRUE,TRUE,,,,,,,,,,,,,,,,4.5,,,,,,,,,,,METAR,7.0
CWRN 171900Z AUTO 21023G31KT 06/01 RMK AO1 PK WND 22039/1820 SLP901 T00600012 51013,CWRN,2021-01-17T19:00:00Z,45.35,-60.98,6.0,1.2,210,23,31,,,990.1,,TRUE,TRUE,,,,,,,,,,,,,,,,1.3,,,,,,,,,,,METAR,8.0
CWRM 171900Z AUTO 32004KT M00/M05 RMK AO1 SOG 11 3007 SLP139 T10011054,CWRM,2021-01-17T19:00:00Z,52.42,-114.92,-0.1,-5.4,320,4,,,,1013.9,,TRUE,TRUE,,,,,,,,,,,,,,,,,,,,,,,,,,,METAR,986.0
CWRK 171900Z AUTO 28005KT M04/M07 RMK AO1 SOG 31 3006 SLP995 T10381067,CWRK,2021-01-17T19:00:00Z,45.07,-77.87,-3.8,-6.7,280,5,,,,999.5,,TRUE,TRUE,,,,,,,,,,,,,,,,,,,,,,,,,,,METAR,328.0
CWRJ 171900Z AUTO 25005KT M05/M07 RMK AO1 SOG 15 8014 SLP129 T10491070,CWRJ,2021-01-17T19:00:00Z,51.57,-107.92,-4.9,-7.0,250,5,,,,1012.9,,TRUE,TRUE,,,,,,,,,,,,,,,,,,,,,,,,,,,METAR,586.0
CWRA 171900Z AUTO 10012KT 03/ RMK AO1 PK WND 09018/1828 SLP003 T0028 56045,CWRA,2021-01-17T19:00:00Z,46.65,-53.07,2.8,,100,12,,,,1000.3,,TRUE,TRUE,,,,,,,,,,,,,,,,-4.5,,,,,,,,,,,METAR,4.0
CWQV 171900Z AUTO 28013KT RMK AO1 PK WND 28019/1841,CWQV,2021-01-17T19:00:00Z,48.27,-70.12,,,280,13,,,,,,TRUE,TRUE,,,,,,,,,,,,,,,,,,,,,,,,,,,METAR,4.0
CWQR 171900Z AUTO 06031G41KT M00/ RMK AO1 PK WND 07042/1842 T1001,CWQR,2021-01-17T19:00:00Z,50.22,-64.22,-0.1,,60,31,41,,,,,TRUE,TRUE,,,,,,,,,,,,,,,,,,,,,,,,,,,METAR,9.0
CWQP 171900Z AUTO 30017G23KT 02/M02 RMK AO1 PK WND 28026/1811 SLP008 T00161018 53008,CWQP,2021-01-17T19:00:00Z,43.83,-77.15,1.6,-1.8,300,17,23,,,1000.8,,TRUE,TRUE,,,,,,,,,,,,,,,,0.8,,,,,,,,,,,METAR,77.0
CWQO 171900Z AUTO 36011G16KT M00/M00 RMK AO1 T10011003,CWQO,2021-01-17T19:00:00Z,48.42,-68.9,-0.1,-0.3,360,11,16,,,,,TRUE,TRUE,,,,,,,,,,,,,,,,,,,,,,,,,,,METAR,7.0
CWQK 171900Z AUTO 26025KT 09/ RMK AO1 PK WND 26027/1841 SLP308 T0091 51016,CWQK,2021-01-17T19:00:00Z,48.3,-123.53,9.1,,260,25,,,,1030.8,,TRUE,TRUE,,,,,,,,,,,,,,,,1.6,,,,,,,,,,,METAR,5.0
CWQH 171900Z AUTO 25011G17KT M01/M02 RMK AO1 5PAST HR SOG 19 3018 PK WND 25017/1857 SLP915 P0002 T10061015 50005,CWQH,2021-01-17T19:00:00Z,45.37,-71.82,-0.6,-1.5,250,11,17,,,991.5,,TRUE,TRUE,,,,,,,,,,,,,,,,0.5,,,,,0.02,,,,,,METAR,181.0
CWPZ 171900Z AUTO 27001KT M05/M06 RMK AO1 SOG 42 1032 SLP244 T10461064,CWPZ,2021-01-17T19:00:00Z,54.38,-125.97,-4.6,-6.4,270,1,,,,1024.4,,TRUE,TRUE,,,,,,,,,,,,,,,,,,,,,,,,,,,METAR,715.0
CWPX 171900Z AUTO 35012KT ////SM //// OVC025 ///// A////,CWPX,2021-01-17T19:00:00Z,69.03,-107.82,,,350,12,,,,,,TRUE,,,,,,,,OVC,2500,,,,,,,,,,,,,,,,,,,METAR,163.0
CWPR 171900Z AUTO 35001KT M02/M04 RMK AO1 SOG 27 1017 SLP289 T10161043,CWPR,2021-01-17T19:00:00Z,49.47,-120.52,-1.6,-4.3,350,1,,,,1028.9,,TRUE,TRUE,,,,,,,,,,,,,,,,,,,,,,,,,,,METAR,703.0
CWPO 171900Z AUTO 35007KT M09/M12 RMK AO1 SOG 10 8007 SLP143 T10871115,CWPO,2021-01-17T19:00:00Z,49.2,-98.9,-8.7,-11.5,350,7,,,,1014.3,,TRUE,TRUE,,,,,,,,,,,,,,,,,,,,,,,,,,,METAR,471.0
CWPK 171900Z AUTO 30006KT M03/M05 RMK AO1 2PAST HR SOG 50 3004 SLP914 P0001 T10251047 50002,CWPK,2021-01-17T19:00:00Z,47.92,-74.62,-2.5,-4.7,300,6,,,,991.4,,TRUE,TRUE,,,,,,,,,,,,,,,,0.2,,,,,0.01,,,,,,METAR,443.0
CWPF 171900Z AUTO 24005KT 10/06 RMK AO1 SLP308 T01000061 53022,CWPF,2021-01-17T19:00:00Z,48.43,-123.43,10.0,6.1,240,5,,,,1030.8,,TRUE,TRUE,,,,,,,,,,,,,,,,2.2,,,,,,,,,,,METAR,5.0
CWPE 171900Z AUTO 24012G28KT 04/M01 RMK AO1 PK WND 23028/1859 SLP860 T00371012 53019,CWPE,2021-01-17T19:00:00Z,45.07,-66.47,3.7,-1.2,240,12,28,,,986.0,,TRUE,TRUE,,,,,,,,,,,,,,,,1.9,,,,,,,,,,,METAR,9.0
CWPD 171900Z AUTO 36005KT M05/M07 RMK AO1 SLP852 T10481070 53007,CWPD,2021-01-17T19:00:00Z,47.57,-71.22,-4.8,-7.0,360,5,,,,985.2,,TRUE,TRUE,,,,,,,,,,,,,,,,0.7,,,,,,,,,,,METAR,795.0
CWPC 171900Z AUTO 27016KT 02/M01 RMK AO1 PK WND 27025/1804 SLP032 T00211011 56005,CWPC,2021-01-17T19:00:00Z,42.87,-79.25,2.1,-1.1,270,16,,,,1003.2,,TRUE,TRUE,,,,,,,,,,,,,,,,-0.5,,,,,,,,,,,METAR,174.0
CWOY 171900Z AUTO 13003KT M06/M08 RMK AO1 SOG 05 8021 SLP125 T10591076,CWOY,2021-01-17T19:00:00Z,51.77,-104.2,-5.9,-7.6,130,3,,,,1012.5,,TRUE,TRUE,,,,,,,,,,,,,,,,,,,,,,,,,,,METAR,557.0
CWOE 171900Z AUTO 14002KT M03/M06 RMK AO1 SOG 03 8015 SLP112 T10261061,CWOE,2021-01-17T19:00:00Z,49.12,-110.47,-2.6,-6.1,140,2,,,,1011.2,,TRUE,TRUE,,,,,,,,,,,,,,,,,,,,,,,,,,,METAR,931.0
CWOD 171900Z AUTO 31008KT M01/M03 RMK AO1 SOG 28 6005 SLP866 T10121028,CWOD,2021-01-17T19:00:00Z,48.85,-72.55,-1.2,-2.8,310,8,,,,986.6,,TRUE,TRUE,,,,,,,,,,,,,,,,,,,,,,,,,,,METAR,150.0
CWOC 171900Z AUTO 25003KT M00/M00 RMK AO1 1PAST HR 5025 SLP760 P0004 T10011001 50011,CWOC,2021-01-17T19:00:00Z,48.02,-65.32,-0.1,-0.1,250,3,,,,976.0,,TRUE,TRUE,,,,,,,,,,,,,,,,1.1,,,,,0.04,,,,,,METAR,42.0
CWOB 171900Z AUTO 25011KT ////SM NCD M19/M22 A2984,CWOB,2021-01-17T19:00:00Z,63.33,-64.15,-19.0,-22.0,250,11,,,29.840551,,,TRUE,,,,,,,,CLR,,,,,,,,,,,,,,,,,,,,METAR,369.0
CWNZ 171900Z AUTO 34003KT M14/M17 RMK AO1 SOG 42 8012 SLP100 T11351167,CWNZ,2021-01-17T19:00:00Z,49.75,-84.17,-13.5,-16.7,340,3,,,,1010.0,,TRUE,TRUE,,,,,,,,,,,,,,,,,,,,,,,,,,,METAR,261.0
CWNQ 171900Z AUTO 24013KT 00/M01 RMK AO1 SLP909 T00001010 53011,CWNQ,2021-01-17T19:00:00Z,46.22,-72.65,0.0,-1.0,240,13,,,,990.9,,TRUE,TRUE,,,,,,,,,,,,,,,,1.1,,,,,,,,,,,METAR,9.0
CWNP 171900Z AUTO 14003KT 01/M02 RMK AO1 SOG 15 1011 SLP260 T00131018,CWNP,2021-01-17T19:00:00Z,50.27,-117.82,1.3,-1.8,140,3,,,,1026.0,,TRUE,TRUE,,,,,,,,,,,,,,,,,,,,,,,,,,,METAR,517.0
CWNM 171900Z AUTO 26008KT 02/M01 RMK AO1 SOG 01 1016 SLP263 T00171006,CWNM,2021-01-17T19:00:00Z,49.5,-117.3,1.7,-0.6,260,8,,,,1026.3,,TRUE,TRUE,,,,,,,,,,,,,,,,,,,,,,,,,,,METAR,533.0
CWNK 171900Z AUTO 00033KT M10/M13 RMK AO1 T11011134,CWNK,2021-01-17T19:00:00Z,49.5,-98.03,-10.1,-13.4,0,33,,,,,,TRUE,TRUE,,,,,,,,,,,,,,,,,,,,,,,,,,,METAR,271.0
CWNH 171900Z AUTO 29003KT M01/M01 RMK AO1 0PAST HR SOG 14 3003 SLP845 P0004 T10061009 50010,CWNH,2021-01-17T19:00:00Z,47.8,-69.53,-0.6,-0.9,290,3,,,,984.5,,TRUE,TRUE,,,,,,,,,,,,,,,,1.0,,,,,0.04,,,,,,METAR,147.0
CWNE 171900Z AUTO 18010G15KT 02/01 RMK AO1 3PAST HR 3002 PK WND 22021/1837 SLP794 P0001 T00220012 50003,CWNE,2021-01-17T19:00:00Z,47.07,-64.0,2.2,1.2,180,10,15,,,979.4,,TRUE,TRUE,,,,,,,,,,,,,,,,0.3,,,,,0.01,,,,,,METAR,5.0
CWNC 171900Z AUTO 31010G17KT 02/M03 RMK AO1 SOG 01 3003 PK WND 31018/1829 SLP005 T00221031,CWNC,2021-01-17T19:00:00Z,43.95,-78.17,2.2,-3.1,310,10,17,,,1000.5,,TRUE,TRUE,,,,,,,,,,,,,,,,,,,,,,,,,,,METAR,71.0
CWMT 171900Z AUTO 10003KT M18/M20 RMK AO1 SOG 36 1004 SLP137 T11811202,CWMT,2021-01-17T19:00:00Z,63.13,-117.25,-18.1,-20.2,100,3,,,,1013.7,,TRUE,TRUE,,,,,,,,,,,,,,,,,,,,,,,,,,,SPECI,274.0
CWMQ 171900Z AUTO 26002KT 03/M06 RMK AO1 SLP119 T00291059 58014,CWMQ,2021-01-17T19:00:00Z,49.9,-109.47,2.9,-5.9,260,2,,,,1011.9,,TRUE,TRUE,,,,,,,,,,,,,,,,-1.4,,,,,,,,,,,METAR,767.0
CWMM 171900Z AUTO 04001KT 06/05 RMK AO1 SLP318 T00580050 51023,CWMM,2021-01-17T19:00:00Z,49.22,-122.68,5.8,5.0,40,1,,,,1031.8,,TRUE,TRUE,,,,,,,,,,,,,,,,2.3,,,,,,,,,,,METAR,2.0
CWMJ 171900Z AUTO 28006KT M04/M06 RMK AO1 SOG 32 3016 SLP963 T10391061,CWMJ,2021-01-17T19:00:00Z,46.27,-76.0,-3.9,-6.1,280,6,,,,996.3,,TRUE,TRUE,,,,,,,,,,,,,,,,,,,,,,,,,,,METAR,198.0
CWLY 171900Z AUTO 03004KT 330V070 9SM CLR 04/00 A3030 RMK SLP270,CWLY,2021-01-17T19:00:00Z,50.22,-121.58,4.0,0.0,30,4,,9.0,30.301182,1027.0,,TRUE,,,,,,,,CLR,,,,,,,,VFR,,,,,,,,,,,,METAR,228.0
CWLS 171900Z AUTO 29006KT M01/M03 RMK AO1 SOG 11 6009 SLP024 T10071029,CWLS,2021-01-17T19:00:00Z,43.97,-80.75,-0.7,-2.9,290,6,,,,1002.4,,TRUE,TRUE,,,,,,,,,,,,,,,,,,,,,,,,,,,METAR,413.0
CWLP 171900Z AUTO 17002KT 09/ RMK AO1 SLP318 T0086 51033,CWLP,2021-01-17T19:00:00Z,50.93,-127.63,8.6,,170,2,,,,1031.8,,TRUE,TRUE,,,,,,,,,,,,,,,,3.3,,,,,,,,,,,METAR,15.0
CWLM 171900Z AUTO 26012KT 10/07 RMK AO1 PK WND 26017/1817 SLP312 T00980069 53021,CWLM,2021-01-17T19:00:00Z,48.42,-123.32,9.8,6.9,260,12,,,,1031.2,,TRUE,TRUE,,,,,,,,,,,,,,,,2.1,,,,,,,,,,,METAR,62.0
CWLI 171900Z AUTO 05012KT ////SM //// OVC022 ///// A////,CWLI,2021-01-17T19:00:00Z,69.6,-130.9,,,50,12,,,,,,TRUE,,,,,,,,OVC,2200,,,,,,,,,,,,,,,,,,,METAR,92.0
CWLE 171900Z AUTO 28014KT M01/ RMK AO1 SOG 10 8014 PK WND 28019/1825 SLP125 T1012,CWLE,2021-01-17T19:00:00Z,50.95,-107.15,-1.2,,280,14,,,,1012.5,,TRUE,TRUE,,,,,,,,,,,,,,,,,,,,,,,,,,,METAR,666.0
CWLC 171900Z AUTO 21004KT 07/04 RMK AO1 T00730042,CWLC,2021-01-17T19:00:00Z,54.3,-130.62,7.3,4.2,210,4,,,,,,TRUE,TRUE,,,,,,,,,,,,,,,,,,,,,,,,,,,METAR,27.0
CWLB 171900Z AUTO 24002KT M00/M01 RMK AO1 5PAST HR SOG 10 6010 SLP095 P0002 T10041014 50005,CWLB,2021-01-17T19:00:00Z,54.77,-112.02,-0.4,-1.4,240,2,,,,1009.5,,TRUE,TRUE,,,,,,,,,,,,,,,,0.5,,,,,0.02,,,,,,METAR,561.0
CWKX 171900Z AUTO 00000KT M11/M12 RMK AO1 SOG 40 3024 SLP199 T11101115,CWKX,2021-01-17T19:00:00Z,58.43,-130.02,-11.0,-11.5,0,0,,,,1019.9,,TRUE,TRUE,,,,,,,,,,,,,,,,,,,,,,,,,,,METAR,807.0
CWKO 171900Z AUTO 22005KT M01/M07 RMK AO1 SLP127 T10131070 58024,CWKO,2021-01-17T19:00:00Z,49.17,-105.97,-1.3,-7.0,220,5,,,,1012.7,,TRUE,TRUE,,,,,,,,,,,,,,,,-2.4,,,,,,,,,,,METAR,914.0
CWKK 171900Z AUTO 01003KT M10/M15 RMK AO1 SOG 18 8017 SLP083 T10981154,CWKK,2021-01-17T19:00:00Z,49.72,-88.33,-9.8,-15.4,10,3,,,,1008.3,,TRUE,TRUE,,,,,,,,,,,,,,,,,,,,,,,,,,,METAR,259.0
CWKH 171900Z AUTO 07/ RMK AO1 SLP299 T0072 52024,CWKH,2021-01-17T19:00:00Z,48.57,-123.55,7.2,,,,,,,1029.9,,TRUE,TRUE,,,,,,,,,,,,,,,,2.4,,,,,,,,,,,METAR,327.0
CWKG 171900Z AUTO 25008G22KT 02/02 RMK AO1 2PAST HR 3015 PK WND 26022/1859 SLP882 P0001 T00200015 50002,CWKG,2021-01-17T19:00:00Z,44.43,-65.2,2.0,1.5,250,8,22,,,988.2,,TRUE,TRUE,,,,,,,,,,,,,,,,0.2,,,,,0.01,,,,,,METAR,154.0
CWJX 171900Z AUTO 08004KT M03/M06 RMK AO1 SOG 11 8013 SLP121 T10301060,CWJX,2021-01-17T19:00:00Z,50.88,-109.5,-3.0,-6.0,80,4,,,,1012.1,,TRUE,TRUE,,,,,,,,,,,,,,,,,,,,,,,,,,,METAR,671.0
CWJW 171900Z AUTO 17008KT 02/M04 RMK AO1 SOG 15 1009 SLP182 T00181043,CWJW,2021-01-17T19:00:00Z,52.93,-118.03,1.8,-4.3,170,8,,,,1018.2,,TRUE,TRUE,,,,,,,,,,,,,,,,,,,,,,,,,,,METAR,1022.0
CWJV 171900Z AUTO 11003KT M00/M03 RMK AO1 SLP273 T10041031 53024,CWJV,2021-01-17T19:00:00Z,50.22,-119.18,-0.4,-3.1,110,3,,,,1027.3,,TRUE,TRUE,,,,,,,,,,,,,,,,2.4,,,,,,,,,,,METAR,487.0
CWJT 171900Z AUTO 27003KT M02/M02 RMK AO1 SLP938 T10181024 53014,CWJT,2021-01-17T19:00:00Z,46.07,-74.57,-1.8,-2.4,270,3,,,,993.8,,TRUE,TRUE,,,,,,,,,,,,,,,,1.4,,,,,,,,,,,METAR,236.0
CWJR 171900Z AUTO 30002KT M00/M02 RMK AO1 SLP261 T10011015 53010,CWJR,2021-01-17T19:00:00Z,49.03,-116.5,-0.1,-1.5,300,2,,,,1026.1,,TRUE,TRUE,,,,,,,,,,,,,,,,1.0,,,,,,,,,,,METAR,642.0
CWJI 171900Z AUTO 28005KT M01/M07 RMK AO1 SLP127 T10101070 58023,CWJI,2021-01-17T19:00:00Z,49.72,-105.93,-1.0,-7.0,280,5,,,,1012.7,,TRUE,TRUE,,,,,,,,,,,,,,,,-2.3,,,,,,,,,,,METAR,724.0
CWJH 171900Z AUTO 14001KT M20/M24 RMK AO1 SOG 52 8009 SLP193 T11991238,CWJH,2021-01-17T19:00:00Z,56.32,-103.27,-19.9,-23.8,140,1,,,,1019.3,,TRUE,TRUE,,,,,,,,,,,,,,,,,,,,,,,,,,,METAR,345.0
CWJD 171900Z AUTO 02005KT M18/M22 RMK AO1 SOG 31 6004 SLP179 T11811217,CWJD,2021-01-17T19:00:00Z,53.18,-99.27,-18.1,-21.7,20,5,,,,1017.9,,TRUE,TRUE,,,,,,,,,,,,,,,,,,,,,,,,,,,METAR,222.0
CWJC 171900Z AUTO 23001KT M25/M28 RMK AO1 SOG 07 7010 SLP195 T12511280,CWJC,2021-01-17T19:00:00Z,61.13,-100.9,-25.1,-28.0,230,1,,,,1019.5,,TRUE,TRUE,,,,,,,,,,,,,,,,,,,,,,,,,,,METAR,340.0
CWJB 171900Z AUTO 21007KT M01/ RMK AO1 SOG 35 T1005,CWJB,2021-01-17T19:00:00Z,46.78,-71.28,-0.5,,210,7,,,,,,TRUE,TRUE,,,,,,,,,,,,,,,,,,,,,,,,,,,METAR,90.0
CWIZ 171900Z AUTO 27011G21KT 00/M02 RMK AO1 SOG 23 PK WND 30021/1851 T00001021,CWIZ,2021-01-17T19:00:00Z,45.28,-73.33,0.0,-2.1,270,11,21,,,,,TRUE,TRUE,,,,,,,,,,,,,,,,,,,,,,,,,,,METAR,45.0
CWIW 171900Z AUTO 20004KT M07/M09 RMK AO1 SOG 03 8018 SLP123 T10731093,CWIW,2021-01-17T19:00:00Z,51.67,-105.4,-7.3,-9.3,200,4,,,,1012.3,,TRUE,TRUE,,,,,,,,,,,,,,,,,,,,,,,,,,,METAR,524.0
CWIT 171900Z AUTO 27011G16KT M01/M02 RMK AO1 SOG 19 3018 PK WND 25019/1847 SLP941 T10091015,CWIT,2021-01-17T19:00:00Z,45.17,-73.67,-0.9,-1.5,270,11,16,,,994.1,,TRUE,TRUE,,,,,,,,,,,,,,,,,,,,,,,,,,,METAR,53.0
CWIS 171900Z AUTO 32002KT M03/M03 RMK AO1 SOG 47 3001 SLP843 T10311033,CWIS,2021-01-17T19:00:00Z,47.28,-70.63,-3.1,-3.3,320,2,,,,984.3,,TRUE,TRUE,,,,,,,,,,,,,,,,,,,,,,,,,,,METAR,720.0
CWIP 171900Z AUTO 04008KT M00/M01 RMK AO1 T10041008,CWIP,2021-01-17T19:00:00Z,50.17,-66.43,-0.4,-0.8,40,8,,,,,,TRUE,TRUE,,,,,,,,,,,,,,,,,,,,,,,,,,,METAR,27.0
CWIL 171900Z AUTO 31014KT ////SM ////// M27/M29 A3008,CWIL,2021-01-17T19:00:00Z,68.32,-100.07,-27.0,-29.0,310,14,,,30.079725,,,TRUE,,,,,,,,,,,,,,,,,,,,,,,,,,,,METAR,28.0
CWIK 171900Z AUTO 34002KT M06/M08 RMK AO1 SOG 04 8016 SLP131 T10601075,CWIK,2021-01-17T19:00:00Z,50.37,-102.58,-6.0,-7.5,340,2,,,,1013.1,,TRUE,TRUE,,,,,,,,,,,,,,,,,,,,,,,,,,,SPECI,597.0
CWIJ 171900Z AUTO 00012KT M24/M26 RMK AO1 SOG 31 6004 SLP163 T12371263,CWIJ,2021-01-17T19:00:00Z,65.77,-111.23,-23.7,-26.3,0,12,,,,1016.3,,TRUE,TRUE,,,,,,,,,,,,,,,,,,,,,,,,,,,METAR,490.0
CWII 171900Z AUTO 33019KT M13/M16 RMK AO1 PK WND 33024/1804 SLP142 T11251157 55002,CWII,2021-01-17T19:00:00Z,50.7,-96.57,-12.5,-15.7,330,19,,,,1014.2,,TRUE,TRUE,,,,,,,,,,,,,,,,-0.2,,,,,,,,,,,METAR,216.0
CWIG 171900Z AUTO 23022G29KT RMK AO1 PK WND 23030/1841,CWIG,2021-01-17T19:00:00Z,47.07,-70.53,,,230,22,29,,,,,TRUE,TRUE,,,,,,,,,,,,,,,,,,,,,,,,,,,METAR,12.0
CWID 171900Z AUTO 00000KT M17/M19 RMK AO1 SLP140 T11681187 58001,CWID,2021-01-17T19:00:00Z,61.32,-117.6,-16.8,-18.7,0,0,,,,1014.0,,TRUE,TRUE,,,,,,,,,,,,,,,,-0.1,,,,,,,,,,,METAR,160.0
CWHV 171900Z AUTO 26003KT M01/M03 RMK AO1 SLP873 T10061033 53009,CWHV,2021-01-17T19:00:00Z,46.2,-70.78,-0.6,-3.3,260,3,,,,987.3,,TRUE,TRUE,,,,,,,,,,,,,,,,0.9,,,,,,,,,,,METAR,227.0
CWHT 171900Z AUTO 34003KT M08/M09 RMK AO1 SOG 64 3022 SLP096 T10781090,CWHT,2021-01-17T19:00:00Z,60.77,-137.58,-7.8,-9.0,340,3,,,,1009.6,,TRUE,TRUE,,,,,,,,,,,,,,,,,,,,,,,,,,,METAR,601.0
CWHQ 171900Z AUTO 27005KT M00/M00 RMK AO1 T10011003,CWHQ,2021-01-17T19:00:00Z,46.68,-71.97,-0.1,-0.3,270,5,,,,,,TRUE,TRUE,,,,,,,,,,,,,,,,,,,,,,,,,,,METAR,56.0
CWHO 171900Z AUTO M04/M06 RMK AO1 SLP072 T10441061 56027,CWHO,2021-01-17T19:00:00Z,55.45,-60.22,-4.4,-6.1,,,,,,1007.2,,TRUE,TRUE,,,,,,,,,,,,,,,,-2.7,,,,,,,,,,,METAR,16.0
CWHN 171900Z AUTO 00000KT 9SM OVC033 OVC073 M04/M06 A2970 RMK SLP095,CWHN,2021-01-17T19:00:00Z,54.9,-109.97,-4.0,-6.0,0,0,,9.0,29.698818,1009.5,,TRUE,,,,,,,,OVC,3300,OVC,7300,,,,,VFR,,,,,,,,,,,,METAR,635.0
CWHI 171900Z AUTO 27012KT M00/M04 RMK AO1 T10031041,CWHI,2021-01-17T19:00:00Z,51.7,-113.22,-0.3,-4.1,270,12,,,,,,TRUE,TRUE,,,,,,,,,,,,,,,,,,,,,,,,,,,METAR,906.0
CWGY 171900Z AUTO 11004KT M01/M05 RMK AO1 SLP120 T10141049 58015,CWGY,2021-01-17T19:00:00Z,51.67,-110.2,-1.4,-4.9,110,4,,,,1012.0,,TRUE,TRUE,,,,,,,,,,,,,,,,-1.5,,,,,,,,,,,METAR,709.0
CWGX 171900Z AUTO 03011KT M21/M24 RMK AO1 SOG 42 8002 SLP205 T12111239,CWGX,2021-01-17T19:00:00Z,56.35,-94.7,-21.1,-23.9,30,11,,,,1020.5,,TRUE,TRUE,,,,,,,,,,,,,,,,,,,,,,,,,,,METAR,145.0
CWGW 171900Z AUTO 18007KT 02/M03 RMK AO1 SOG 23 8001 SLP199 T00151032,CWGW,2021-01-17T19:00:00Z,49.75,-114.9,1.5,-3.2,180,7,,,,1019.9,,TRUE,TRUE,,,,,,,,,,,,,,,,,,,,,,,,,,,METAR,1137.0
CWGT 171900Z AUTO 34002KT 08/05 RMK AO1 SLP317 T00770053 51032,CWGT,2021-01-17T19:00:00Z,49.48,-124.43,7.7,5.3,340,2,,,,1031.7,,TRUE,TRUE,,,,,,,,,,,,,,,,3.2,,,,,,,,,,,METAR,5.0
CWGR 171900Z AUTO 18015G23KT 04/02 RMK AO1 PK WND 17028/1827 SLP839 T00360016 51029,CWGR,2021-01-17T19:00:00Z,47.42,-61.77,3.6,1.6,180,15,23,,,983.9,,TRUE,TRUE,,,,,,,,,,,,,,,,2.9,,,,,,,,,,,METAR,4.0
CWGM 171900Z AUTO 24021G31KT 04/M07 RMK AO1 PK WND 25039/1800 T00431069,CWGM,2021-01-17T19:00:00Z,49.13,-113.8,4.3,-6.9,240,21,31,,,,,TRUE,TRUE,,,,,,,,,,,,,,,,,,,,,,,,,,,METAR,1292.0
CWGL 171900Z AUTO 32010KT M03/M05 RMK AO1 SLP999 T10271048 53001,CWGL,2021-01-17T19:00:00Z,44.53,-79.22,-2.7,-4.8,320,10,,,,999.9,,TRUE,TRUE,,,,,,,,,,,,,,,,0.1,,,,,,,,,,,METAR,220.0
CWGH 171900Z AUTO 26004KT M00/M04 RMK AO1 SLP991 T10021036 53013,CWGH,2021-01-17T19:00:00Z,44.42,-75.85,-0.2,-3.6,260,4,,,,999.1,,TRUE,TRUE,,,,,,,,,,,,,,,,1.3,,,,,,,,,,,METAR,76.0
CWGD 171900Z AUTO 30008KT M00/M01 RMK AO1 3PAST HR 6010 SLP041 P0001 T10011010 50003,CWGD,2021-01-17T19:00:00Z,43.77,-81.72,-0.1,-1.0,300,8,,,,1004.1,,TRUE,TRUE,,,,,,,,,,,,,,,,0.3,,,,,0.01,,,,,,METAR,214.0
CWGB 171900Z AUTO 26005KT 06/ RMK AO1 SLP316 T0062 51030,CWGB,2021-01-17T19:00:00Z,49.35,-124.13,6.2,,260,5,,,,1031.6,,TRUE,TRUE,,,,,,,,,,,,,,,,3.0,,,,,,,,,,,METAR,6.0
CWFQ 171900Z AUTO 27004KT M02/M03 RMK AO1 SOG 23 3021 PK WND 30018/1826 SLP936 T10151026,CWFQ,2021-01-17T19:00:00Z,45.03,-72.85,-1.5,-2.6,270,4,,,,993.6,,TRUE,TRUE,,,,,,,,,,,,,,,,,,,,,,,,,,,METAR,190.0
CWFJ 171900Z AUTO 28014G24KT 06/M06 RMK AO1 PK WND 28028/1803 T00601062,CWFJ,2021-01-17T19:00:00Z,49.2,-113.27,6.0,-6.2,280,14,24,,,,,TRUE,TRUE,,,,,,,,,,,,,,,,,,,,,,,,,,,METAR,1142.0
CWFF 171900Z AUTO 10006KT M09/M12 RMK AO1 SOG 31 8017 SLP124 T10911117,CWFF,2021-01-17T19:00:00Z,52.82,-104.6,-9.1,-11.7,100,6,,,,1012.4,,TRUE,TRUE,,,,,,,,,,,,,,,,,,,,,,,,,,,METAR,482.0
CWFD 171900Z AUTO 22009KT ////SM NCD M16/M17 A2949,CWFD,2021-01-17T19:00:00Z,66.57,-61.58,-16.0,-17.0,220,9,,,29.489174,,,TRUE,,,,,,,,CLR,,,,,,,,,,,,,,,,,,,,METAR,375.0
CWEZ 171900Z AUTO 33003KT 08/06 RMK AO1 SLP311 T00820064 53027,CWEZ,2021-01-17T19:00:00Z,48.78,-123.05,8.2,6.4,330,3,,,,1031.1,,TRUE,TRUE,,,,,,,,,,,,,,,,2.7,,,,,,,,,,,METAR,23.0
CWEW 171900Z AUTO 26008KT 01/01 RMK AO1 SOG 33 3013 PK WND 22017/1838 SLP929 T00080005,CWEW,2021-01-17T19:00:00Z,45.82,-73.43,0.8,0.5,260,8,,,,992.9,,TRUE,TRUE,,,,,,,,,,,,,,,,,,,,,,,,,,,METAR,17.0
CWEU 171900Z 28003KT 15SM FEW043 BKN087 M28/M31 A3005 RMK SC2AC5 SLP192,CWEU,2021-01-17T19:00:00Z,80.0,-85.93,-28.0,-31.0,280,3,,15.0,30.050198,1019.2,,,,,,,,,,FEW,4300,BKN,8700,,,,,VFR,,,,,,,,,,,,METAR,2.0
CWER 171900Z AUTO 24017KT RMK AO1 PK WND 23022/1833,CWER,2021-01-17T19:00:00Z,47.0,-70.82,,,240,17,,,,,,TRUE,TRUE,,,,,,,,,,,,,,,,,,,,,,,,,,,METAR,4.0
CWEQ 171900Z AUTO 06004KT M14/M16 RMK AO1 SOG 04 8014 SLP163 T11391160,CWEQ,2021-01-17T19:00:00Z,52.12,-101.22,-13.9,-16.0,60,4,,,,1016.3,,TRUE,TRUE,,,,,,,,,,,,,,,,,,,,,,,,,,,METAR,331.0
CWEL 171900Z AUTO 33006KT 07/06 RMK AO1 SLP316 T00730056 51030,CWEL,2021-01-17T19:00:00Z,49.22,-123.8,7.3,5.6,330,6,,,,1031.6,,TRUE,TRUE,,,,,,,,,,,,,,,,3.0,,,,,,,,,,,METAR,0.0
CWEH 171900Z AUTO 30006KT M05/M08 RMK AO1 SOG 17 8019 SLP115 T10471081,CWEH,2021-01-17T19:00:00Z,49.43,-108.98,-4.7,-8.1,300,6,,,,1011.5,,TRUE,TRUE,,,,,,,,,,,,,,,,,,,,,,,,,,,METAR,1077.0
CWEB 171900Z AUTO 32015KT 09/08 RMK AO1 PK WND 32020/1813 SLP327 T00870078 51029,CWEB,2021-01-17T19:00:00Z,49.38,-126.55,8.7,7.8,320,15,,,,1032.7,,TRUE,TRUE,,,,,,,,,,,,,,,,2.9,,,,,,,,,,,METAR,1.0
CWDZ 171900Z AUTO 12001KT M03/M07 RMK AO1 SLP145 T10261071 50003,CWDZ,2021-01-17T19:00:00Z,51.43,-112.67,-2.6,-7.1,120,1,,,,1014.5,,TRUE,TRUE,,,,,,,,,,,,,,,,0.3,,,,,,,,,,,METAR,689.0
CWDV 171900Z AUTO 00000KT M06/M15 RMK AO1 SOG 32 7016 SLP085 T10621147,CWDV,2021-01-17T19:00:00Z,49.02,-90.47,-6.2,-14.7,0,0,,,,1008.5,,TRUE,TRUE,,,,,,,,,,,,,,,,,,,,,,,,,,,METAR,487.0
CWDQ 171900Z AUTO 00000KT M02/M03 RMK AO1 SOG 27 3006 SLP895 T10191034,CWDQ,2021-01-17T19:00:00Z,47.42,-72.78,-1.9,-3.4,0,0,,,,989.5,,TRUE,TRUE,,,,,,,,,,,,,,,,,,,,,,,,,,,METAR,174.0
CWDO 171900Z AUTO 12019G31KT 01/01 RMK AO1 PK WND 12032/1838 SLP981 T00140010 58046,CWDO,2021-01-17T19:00:00Z,49.68,-54.78,1.4,1.0,120,19,31,,,998.1,,TRUE,TRUE,,,,,,,,,,,,,,,,-4.6,,,,,,,,,,,METAR,89.0
CWDM 171900Z AUTO 07017G27KT 00/00 RMK AO1 4PAST HR SOG 01 6062 PK WND 09028/1849 SLP918 P0009 T00000000 50024,CWDM,2021-01-17T19:00:00Z,50.47,-59.63,0.0,0.0,70,17,27,,,991.8,,TRUE,TRUE,,,,,,,,,,,,,,,,2.4,,,,,0.09,,,,,,METAR,2.0
CWDK 171900Z AUTO 30018G25KT 08/M09 RMK AO1 PK WND 28027/1814 SLP121 T00841093 53005,CWDK,2021-01-17T19:00:00Z,50.02,-113.62,8.4,-9.3,300,18,25,,,1012.1,,TRUE,TRUE,,,,,,,,,,,,,,,,0.5,,,,,,,,,,,METAR,1014.0
CWDJ 171900Z AUTO 16004KT M07/M11 RMK AO1 SOG 01 8017 SLP140 T10741108,CWDJ,2021-01-17T19:00:00Z,50.4,-104.58,-7.4,-10.8,160,4,,,,1014.0,,TRUE,TRUE,,,,,,,,,,,,,,,,,,,,,,,,,,,METAR,576.0
CWDC 171900Z AUTO M18/M21 RMK AO1 SOG 60 7003 SLP157 T11801214,CWDC,2021-01-17T19:00:00Z,59.57,-108.48,-18.0,-21.4,,,,,,1015.7,,TRUE,TRUE,,,,,,,,,,,,,,,,,,,,,,,,,,,METAR,311.0
CWCT 171900Z AUTO 29008KT M02/M05 RMK AO1 SLP125 T10201051 58005,CWCT,2021-01-17T19:00:00Z,52.07,-111.43,-2.0,-5.1,290,8,,,,1012.5,,TRUE,TRUE,,,,,,,,,,,,,,,,-0.5,,,,,,,,,,,METAR,793.0
CWCO 171900Z AUTO 29007KT M00/M04 RMK AO1 SLP022 T10021036 55006,CWCO,2021-01-17T19:00:00Z,44.5,-80.22,-0.2,-3.6,290,7,,,,1002.2,,TRUE,TRUE,,,,,,,,,,,,,,,,-0.6,,,,,,,,,,,METAR,182.0
CWCJ 171900Z AUTO 04005KT M08/M19 RMK AO1 SOG 20 8013 SLP082 T10751187,CWCJ,2021-01-17T19:00:00Z,48.6,-86.28,-7.5,-18.7,40,5,,,,1008.2,,TRUE,TRUE,,,,,,,,,,,,,,,,,,,,,,,,,,,METAR,207.0
CWCF 171900Z AUTO 34005KT M15/M18 RMK AO1 SOG 31 1002 SLP150 T11491181,CWCF,2021-01-17T19:00:00Z,52.35,-97.03,-14.9,-18.1,340,5,,,,1015.0,,TRUE,TRUE,,,,,,,,,,,,,,,,,,,,,,,,,,,METAR,219.0
CWBZ 171900Z AUTO 26014G21KT M01/M04 RMK AO1 PK WND 25024/1818 SLP950 T10111041 53018,CWBZ,2021-01-17T19:00:00Z,45.12,-74.28,-1.1,-4.1,260,14,21,,,995.0,,TRUE,TRUE,,,,,,,,,,,,,,,,1.8,,,,,,,,,,,METAR,49.0
CWBY 171900Z AUTO 06022G31KT M01/M02 RMK AO1 PRESFR PK WND 06040/1848 SLP779 T10071016 57076,CWBY,2021-01-17T19:00:00Z,49.83,-64.28,-0.7,-1.6,60,22,31,,,977.9,,TRUE,TRUE,,,,,,,,,,,,,,,,-7.6,,,,,,,,,,,METAR,56.0
CWBV 171900Z AUTO 22035G43KT 05/02 RMK AO1 PK WND 22044/1823 T00490016,CWBV,2021-01-17T19:00:00Z,44.82,-62.33,4.9,1.6,220,35,43,,,,,TRUE,TRUE,,,,,,,,,,,,,,,,,,,,,,,,,,,METAR,16.0
CWBU 171900Z AUTO 06009KT M15/M17 RMK AO1 SOG 23 8020 SLP145 T11471173,CWBU,2021-01-17T19:00:00Z,53.33,-104.02,-14.7,-17.3,60,9,,,,1014.5,,TRUE,TRUE,,,,,,,,,,,,,,,,,,,,,,,,,,,SPECI,369.0
CWBT 171900Z AUTO 06010G21KT M00/M01 RMK AO1 1PAST HR PRESFR 6071 PK WND 07024/1838 SLP810 P0000 T10011009 50001,CWBT,2021-01-17T19:00:00Z,50.27,-64.23,-0.1,-0.9,60,10,21,,,981.0,,TRUE,TRUE,,,,,,,,,,,,,,,,0.1,,,,,0.005,,,,,,METAR,12.0
CWBS 171900Z AUTO 24014KT 01/M02 RMK AO1 PK WND 23018/1842 T00101017,CWBS,2021-01-17T19:00:00Z,46.18,-72.92,1.0,-1.7,240,14,,,,,,TRUE,TRUE,,,,,,,,,,,,,,,,,,,,,,,,,,,METAR,3.0
CWBK 171900Z AUTO 20015G24KT 05/01 RMK AO1 PK WND 19025/1843 SLP854 T00460012 53005,CWBK,2021-01-17T19:00:00Z,45.77,-62.67,4.6,1.2,200,15,24,,,985.4,,TRUE,TRUE,,,,,,,,,,,,,,,,0.5,,,,,,,,,,,METAR,2.0
CWBE 171900Z AUTO 34006KT M03/M08 RMK AO1 SLP030 T10271079 56008,CWBE,2021-01-17T19:00:00Z,45.98,-81.48,-2.7,-7.9,340,6,,,,1003.0,,TRUE,TRUE,,,,,,,,,,,,,,,,-0.8,,,,,,,,,,,METAR,188.0
CWBA 171900Z AUTO 32005KT M06/M10 RMK AO1 SOG 33 T10551098,CWBA,2021-01-17T19:00:00Z,46.72,-79.1,-5.5,-9.8,320,5,,,,,,TRUE,TRUE,,,,,,,,,,,,,,,,,,,,,,,,,,,METAR,181.0
CWAV 171900Z AUTO 27005KT M01/M07 RMK AO1 SOG 12 3001 SLP144 T10061066,CWAV,2021-01-17T19:00:00Z,51.77,-114.67,-0.6,-6.6,270,5,,,,1014.4,,TRUE,TRUE,,,,,,,,,,,,,,,,,,,,,,,,,,,METAR,1115.0
CWAQ 171900Z AUTO 12003KT 01/ RMK AO1 SLP123 T0009 58023,CWAQ,2021-01-17T19:00:00Z,49.05,-105.48,0.9,,120,3,,,,1012.3,,TRUE,TRUE,,,,,,,,,,,,,,,,-2.3,,,,,,,,,,,METAR,761.0
CWAJ 171900Z AUTO 24010KT 02/M00 RMK AO1 SLP037 T00201002 56018,CWAJ,2021-01-17T19:00:00Z,42.25,-81.9,2.0,-0.2,240,10,,,,1003.7,,TRUE,TRUE,,,,,,,,,,,,,,,,-1.8,,,,,,,,,,,METAR,177.0
CWAF 171900Z AUTO 31017KT M00/01 RMK AO1 PK WND 30020/1828 T10020005,CWAF,2021-01-17T19:00:00Z,48.07,-69.55,-0.2,0.5,310,17,,,,,,TRUE,TRUE,,,,,,,,,,,,,,,,,,,,,,,,,,,METAR,6.0
CWAE 171900Z 18005KT 8SM SCT005 OVC019 02/02 A3037 RMK ST3SC4 WND ESTD SLP303,CWAE,2021-01-17T19:00:00Z,50.13,-122.95,2.0,2.0,180,5,,8.0,30.369095,1030.3,,,,,,,,,,SCT,500,OVC,1900,,,,,MVFR,,,,,,,,,,,,METAR,658.0
CTNK 171900Z AUTO 29003KT M05/M07 RMK AO1 SOG 40 3004 SLP994 T10471071,CTNK,2021-01-17T19:00:00Z,45.53,-78.27,-4.7,-7.1,290,3,,,,999.4,,TRUE,TRUE,,,,,,,,,,,,,,,,,,,,,,,,,,,METAR,405.0
CTCK 171900Z AUTO 26011G17KT M03/M04 RMK AO1 SOG 26 3017 PK WND 25017/1821 SLP964 T10261039,CTCK,2021-01-17T19:00:00Z,45.25,-74.97,-2.6,-3.9,260,11,17,,,996.4,,TRUE,TRUE,,,,,,,,,,,,,,,,,,,,,,,,,,,METAR,84.0
CPXL 171900Z AUTO 31006KT 03/M03 RMK AO1 T00251034,CPXL,2021-01-17T19:00:00Z,49.87,-111.38,2.5,-3.4,310,6,,,,,,TRUE,TRUE,,,,,,,,,,,,,,,,,,,,,,,,,,,METAR,801.0
CPSV 171900Z AUTO 26004KT 02/M02 RMK AO1 T00151024,CPSV,2021-01-17T19:00:00Z,49.92,-110.92,1.5,-2.4,260,4,,,,,,TRUE,TRUE,,,,,,,,,,,,,,,,,,,,,,,,,,,METAR,766.0
CPST 171900Z AUTO 31006KT 02/M04 RMK AO1 T00181038,CPST,2021-01-17T19:00:00Z,51.03,-113.28,1.8,-3.8,310,6,,,,,,TRUE,TRUE,,,,,,,,,,,,,,,,,,,,,,,,,,,METAR,1005.0
CPRY 171900Z AUTO 27018KT 06/M04 RMK AO1 PK WND 28034/1800 T00561040,CPRY,2021-01-17T19:00:00Z,49.48,-112.68,5.6,-4.0,270,18,,,,,,TRUE,TRUE,,,,,,,,,,,,,,,,,,,,,,,,,,,METAR,947.0
CPRO 171900Z AUTO 31003KT M02/M04 RMK AO1 T10231044,CPRO,2021-01-17T19:00:00Z,50.83,-112.05,-2.3,-4.4,310,3,,,,,,TRUE,TRUE,,,,,,,,,,,,,,,,,,,,,,,,,,,METAR,733.0
CPIR 171900Z AUTO 32009KT 06/M05 RMK AO1 T00561046,CPIR,2021-01-17T19:00:00Z,49.9,-112.73,5.6,-4.6,320,9,,,,,,TRUE,TRUE,,,,,,,,,,,,,,,,,,,,,,,,,,,METAR,895.0
CPFI 171900Z AUTO 30012KT 06/M04 RMK AO1 T00581039,CPFI,2021-01-17T19:00:00Z,49.8,-112.03,5.8,-3.9,300,12,,,,,,TRUE,TRUE,,,,,,,,,,,,,,,,,,,,,,,,,,,METAR,804.0
CPEH 171900Z AUTO 32009KT 04/M04 RMK AO1 T00411044,CPEH,2021-01-17T19:00:00Z,50.18,-112.43,4.1,-4.4,320,9,,,,,,TRUE,TRUE,,,,,,,,,,,,,,,,,,,,,,,,,,,METAR,814.0
CPBT 171900Z AUTO 29024KT 06/M05 RMK AO1 PK WND 28031/1801 T00611053,CPBT,2021-01-17T19:00:00Z,49.53,-113.05,6.1,-5.3,290,24,,,,,,TRUE,TRUE,,,,,,,,,,,,,,,,,,,,,,,,,,,METAR,998.0
CMGB 171900Z AUTO 24010G16KT M00/M01 RMK AO1 SOG 20 3017 PK WND 25017/1814 SLP925 T10011011,CMGB,2021-01-17T19:00:00Z,45.37,-72.77,-0.1,-1.1,240,10,16,,,992.5,,TRUE,TRUE,,,,,,,,,,,,,,,,,,,,,,,,,,,SPECI,87.0
CMFM 171900Z AUTO 32008KT M04/M06 RMK AO1 2PAST HR SOG 37 3006 SLP844 P0001 T10361060 50002,CMFM,2021-01-17T19:00:00Z,47.32,-71.15,-3.6,-6.0,320,8,,,,984.4,,TRUE,TRUE,,,,,,,,,,,,,,,,0.2,,,,,0.01,,,,,,SPECI,663.0
CERM 171900Z AUTO 29004KT M00/M01 RMK AO1 7PAST HR SOG 23 5003 SLP814 P0003 T10011009 50007,CERM,2021-01-17T19:00:00Z,47.42,-68.32,-0.1,-0.9,290,4,,,,981.4,,TRUE,TRUE,,,,,,,,,,,,,,,,0.7,,,,,0.03,,,,,,METAR,151.0
CBBC 171900Z AUTO /////KT 8SM BKN016 OVC043 08/07 A3042 RMK PRESRR WND MISG SLP303,CBBC,2021-01-17T19:00:00Z,52.18,-128.15,8.0,7.0,,,,8.0,30.41929,1030.3,,TRUE,,,,,,,,BKN,1600,OVC,4300,,,,,MVFR,,,,,,,,,,,,METAR,36.0
CAHR 171900Z AUTO 20017G27KT 02/M00 RMK AO1 4PAST HR SOG 04 3006 PK WND 19027/1853 SLP832 P0002 T00231004 50004,CAHR,2021-01-17T19:00:00Z,46.35,-63.17,2.3,-0.4,200,17,27,,,983.2,,TRUE,TRUE,,,,,,,,,,,,,,,,0.4,,,,,0.02,,,,,,METAR,52.0
BKPR 171900Z 01012KT 1000 R17/P1500 -SN BR SCT008 BKN015 M04/M07 Q1015 TEMPO 3000 RMK 17010095,BKPR,2021-01-17T19:00:00Z,42.58,21.03,-4.0,-7.0,10,12,,0.62,29.970472,,,,,,,,,,-SN BR,SCT,800,BKN,1500,,,,,LIFR,,,,,,,,,,,,METAR,545.0
BIRK 171900Z 30010KT 9999 4500E -SHSN SCT003 BKN019 01/M01 Q1002 R31/290049,BIRK,2021-01-17T19:00:00Z,64.13,-21.93,1.0,-1.0,300,10,,6.21,29.586615,,,,,,,,,,-SHSN,SCT,300,BKN,1900,,,,,MVFR,,,,,,,,,,,,SPECI,12.0
BIKF 171900Z 30019KT 9999 -SHSN FEW003 BKN017CB BKN034 01/M01 Q1002,BIKF,2021-01-17T19:00:00Z,63.98,-22.6,1.0,-1.0,300,19,,6.21,29.586615,,,,,,,,,,-SHSN,FEW,300,BKN,1700,BKN,3400,,,MVFR,,,,,,,,,,,,METAR,49.0
BIEG 171900Z 31013KT 9999 BKN050 OVC071 02/M01 Q0994 R04/290195,BIEG,2021-01-17T19:00:00Z,65.27,-14.4,2.0,-1.0,310,13,,6.21,29.350393,,,,,,,,,,,BKN,5000,OVC,7100,,,,,VFR,,,,,,,,,,,,SPECI,20.0
BIAR 171900Z 20003KT 170V240 9999 BKN050 M01/M02 Q0998,BIAR,2021-01-17T19:00:00Z,65.67,-18.07,-1.0,-2.0,200,3,,6.21,29.468504,,,,,,,,,,,BKN,5000,,,,,,,VFR,,,,,,,,,,,,METAR,1.0
ANYN 171900Z 07008KT 9999 FEW 020 26/2 Q1010,ANYN,2021-01-17T19:00:00Z,-0.55,166.92,26.0,,70,8,,6.21,29.822834,,,,,,,,,,,FEW,2000,,,,,,,VFR,,,,,,,,,,,,METAR,7.0
AGGH 171900Z 16002KT 9999 FEW014 24/23 Q1007,AGGH,2021-01-17T19:00:00Z,-9.42,160.05,24.0,23.0,160,2,,6.21,29.734253,,,,,,,,,,,FEW,1400,,,,,,,VFR,,,,,,,,,,,,METAR,6.0
KPWK 171859Z 33004KT 7SM -SN OVC015 01/M02 A2968 RMK AO2 P0001 T00111017,KPWK,2021-01-17T18:59:00Z,42.12,-87.9,1.1,-1.7,330,4,,7.0,29.681103,,,,TRUE,,,,,,-SN,OVC,1500,,,,,,,MVFR,,,,,,0.01,,,,,,SPECI,194.0
KPOE 171859Z AUTO 28012KT 10SM CLR 16/M02 A3007 RMK AO2 WSHFT 54 SLP185,KPOE,2021-01-17T18:59:00Z,31.05,-93.2,16.0,-2.0,280,12,,10.0,30.070866,1018.5,,TRUE,TRUE,,,,,,,CLR,,,,,,,,VFR,,,,,,,,,,,,SPECI,98.0
KP92 171859Z AUTO 28007KT 240V310 13/02 A3007 RMK AO1 SLP182 T01330017,KP92,2021-01-17T18:59:00Z,29.57,-91.53,13.3,1.7,280,7,,,30.070866,1018.2,,TRUE,TRUE,,,,,,,,,,,,,,,,,,,,,,,,,,,METAR,1.0
KNGU 171859Z 25010KT 10SM BKN160 09/M02 A2983 RMK AO2 SLP102 T00941022 $,KNGU,2021-01-17T18:59:00Z,36.93,-76.27,9.4,-2.2,250,10,,10.0,29.828741,1010.2,,,TRUE,TRUE,,,,,,BKN,16000,,,,,,,VFR,,,,,,,,,,,,METAR,3.0
KMNN 171859Z AUTO 25008KT 1 3/4SM -SN BR SCT008 BKN013 OVC032 01/M01 A2969 RMK AO2 P0000 T00111011,KMNN,2021-01-17T18:59:00Z,40.62,-83.07,1.1,-1.1,250,8,,1.75,29.68996,,,TRUE,TRUE,,,,,,-SN BR,SCT,800,BKN,1300,OVC,3200,,,IFR,,,,,,0.005,,,,,,SPECI,301.0
KCIC 171859Z 31012KT 25SM FEW250 20/04 A3016,KCIC,2021-01-17T18:59:00Z,39.78,-121.85,20.0,4.0,310,12,,25.0,30.159449,,,,,,,,,,,FEW,25000,,,,,,,VFR,,,,,,,,,,,,METAR,72.0
RKSY 171858Z AUTO 00000KT 9999 BKN040 BKN160 M02/M05 A3014 RMK AO2 UPB41E51 SLP210 P0000 T10251054 $,RKSY,2021-01-17T18:58:00Z,37.52,126.97,-2.5,-5.4,0,0,,6.21,30.138779,1021.0,,TRUE,TRUE,TRUE,,,,,,BKN,4000,BKN,16000,,,,,VFR,,,,,,0.005,,,,,,METAR,16.0
PWAK 171858Z AUTO 08010KT 9999 FEW037 25/18 A3003 RMK AO2 SLP175 T02500177 $,PWAK,2021-01-17T18:58:00Z,19.28,166.62,25.0,17.7,80,10,,6.21,30.029528,1017.5,,TRUE,TRUE,TRUE,,,,,,FEW,3700,,,,,,,VFR,,,,,,,,,,,,METAR,7.0
PHSF 171858Z AUTO 00000KT 10SM CLR 14/09 A3032 RMK AO2 SLP158 T01390093 $,PHSF,2021-01-17T18:58:00Z,19.77,-155.55,13.9,9.3,0,0,,10.0,30.318897,1015.8,,TRUE,TRUE,TRUE,,,,,,CLR,,,,,,,,VFR,,,,,,,,,,,,METAR,1863.0
PASD 171858Z 33016KT 10SM -SN SCT020 BKN046 OVC060 M02/M05 A2946 RMK AO2 PNO $,PASD,2021-01-17T18:58:00Z,55.33,-160.52,-2.0,-5.0,330,16,,10.0,29.459646,,,,TRUE,TRUE,,,,,-SN,SCT,2000,BKN,4600,OVC,6000,,,VFR,,,,,,,,,,,,METAR,6.0
PAMD 171858Z AUTO 16013G19KT 6SM -RA BR BKN009 BKN016 OVC027 06/05 A2960 RMK AO2 CIG 006V013 P0000,PAMD,2021-01-17T18:58:00Z,59.43,-146.3,6.0,5.0,160,13,19,6.0,29.601377,,,TRUE,TRUE,,,,,,-RA BR,BKN,900,BKN,1600,OVC,2700,,,IFR,,,,,,0.005,,,,,,METAR,20.0
PAFR 171858Z AUTO 02004KT 10SM FEW075 OVC110 M01/M04 A2944 RMK AO2 SLP979 T10141038 FZRANO $,PAFR,2021-01-17T18:58:00Z,61.27,-149.65,-1.4,-3.8,20,4,,10.0,29.438976,997.9,,TRUE,TRUE,TRUE,,,TRUE,,,FEW,7500,OVC,11000,,,,,VFR,,,,,,,,,,,,SPECI,106.0
PAFB 171858Z AUTO 00000KT 10SM CLR M13/M15 A2951 RMK AO2 SLP007 T11341150 $,PAFB,2021-01-17T18:58:00Z,64.83,-147.62,-13.4,-15.0,0,0,,10.0,29.509842,1000.7,,TRUE,TRUE,TRUE,,,,,,CLR,,,,,,,,VFR,,,,,,,,,,,,SPECI,137.0
OKAS 171858Z 28008KT 9999 CLR 14/04 A2992 RMK AO2A SLP131 T01390039 $,OKAS,2021-01-17T18:58:00Z,29.35,47.52,13.9,3.9,280,8,,6.21,29.920275,1013.1,,,TRUE,TRUE,,,,,,CLR,,,,,,,,VFR,,,,,,,,,,,,METAR,144.0
OAIX 171858Z 00000KT 9000 HZ FEW150 02/M07 A3006 RMK AO2A SLP151 T00241069 $,OAIX,2021-01-17T18:58:00Z,34.95,69.27,2.4,-6.9,0,0,,5.59,30.059055,1015.1,,,TRUE,TRUE,,,,,HZ,FEW,15000,,,,,,,VFR,,,,,,,,,,,,METAR,1480.0
KVCT 171858Z 10SM BKN020 21/00 A3010 RMK AO2 T02060000,KVCT,2021-01-17T18:58:00Z,28.87,-96.93,20.6,0.0,,,,10.0,30.100393,,,,TRUE,,,,,,,BKN,2000,,,,,,,MVFR,,,,,,,,,,,,SPECI,33.0
KVBG 171858Z AUTO 00000KT 10SM CLR 24/02 A3005 RMK AO2 SLP177 T02440023,KVBG,2021-01-17T18:58:00Z,34.73,-120.58,24.4,2.3,0,0,,10.0,30.050198,1017.7,,TRUE,TRUE,,,,,,,CLR,,,,,,,,VFR,,,,,,,,,,,,METAR,96.0
KTCM 171858Z AUTO 19003KT 10SM BKN006 OVC019 08/07 A3048 RMK AO2 SLP327 T00780072 $,KTCM,2021-01-17T18:58:00Z,47.13,-122.47,7.8,7.2,190,3,,10.0,30.481298,1032.7,,TRUE,TRUE,TRUE,,,,,,BKN,600,OVC,1900,,,,,IFR,,,,,,,,,,,,METAR,87.0
KT70 171858Z AUTO 00000KT 10SM CLR 19/M01 A3007 RMK AO2 SLP178 T01871006 $,KT70,2021-01-17T18:58:00Z,29.12,-100.48,18.7,-0.6,0,0,,10.0,30.070866,1017.8,,TRUE,TRUE,TRUE,,,,,,CLR,,,,,,,,VFR,,,,,,,,,,,,METAR,296.0
KSXS 171858Z AUTO 24005KT 10SM CLR 13/M02 A2998 RMK AO2 SLP156 T01271017,KSXS,2021-01-17T18:58:00Z,31.37,-85.85,12.7,-1.7,240,5,,10.0,29.97933,1015.6,,TRUE,TRUE,,,,,,,CLR,,,,,,,,VFR,,,,,,,,,,,,METAR,120.0
KSUU 171858Z AUTO 02008KT 10SM CLR 19/08 A3015 RMK AO2 SLP217 T01900077 $,KSUU,2021-01-17T18:58:00Z,38.27,-121.93,19.0,7.7,20,8,,10.0,30.15059,1021.7,,TRUE,TRUE,TRUE,,,,,,CLR,,,,,,,,VFR,,,,,,,,,,,,METAR,9.0
KSLI 171858Z 00000KT 10SM CLR 27/01 A3001 RMK AO2A SLP165 T02690006,KSLI,2021-01-17T18:58:00Z,33.78,-118.03,26.9,0.6,0,0,,10.0,30.008858,1016.5,,,TRUE,,,,,,,CLR,,,,,,,,VFR,,,,,,,,,,,,METAR,8.0
KSKA 171858Z 26007KT 6SM BR OVC003 00/00 A3027 RMK AO2A SLP277 T00020002 $,KSKA,2021-01-17T18:58:00Z,47.62,-117.67,0.2,0.2,260,7,,6.0,30.268702,1027.7,,,TRUE,TRUE,,,,,BR,OVC,300,,,,,,,LIFR,,,,,,,,,,,,METAR,754.0
KSEQ 171858Z AUTO 25008KT 10SM CLR 19/M01 A3014 RMK AO2 SLP207 T01941006,KSEQ,2021-01-17T18:58:00Z,29.57,-97.9,19.4,-0.6,250,8,,10.0,30.138779,1020.7,,TRUE,TRUE,,,,,,,CLR,,,,,,,,VFR,,,,,,,,,,,,METAR,160.0
KROG 171858Z 26014G20KT 10SM FEW065 07/M04 A2994 RMK AO2 SLP143 T00721039,KROG,2021-01-17T18:58:00Z,36.37,-94.1,7.2,-3.9,260,14,20,10.0,29.940945,1014.3,,,TRUE,,,,,,,FEW,6500,,,,,,,VFR,,,,,,,,,,,,METAR,407.0
KRIV 171858Z AUTO 07007KT 10SM CLR 26/M08 A3008 RMK AO2 SLP177 T02601080,KRIV,2021-01-17T18:58:00Z,33.87,-117.23,26.0,-8.0,70,7,,10.0,30.079725,1017.7,,TRUE,TRUE,,,,,,,CLR,,,,,,,,VFR,,,,,,,,,,,,METAR,454.0
KPRN 171858Z AUTO 24006G15KT 10SM CLR 12/M03 A2997 RMK AO2 SLP099 T01221033,KPRN,2021-01-17T18:58:00Z,31.85,-86.62,12.2,-3.3,240,6,15,10.0,29.970472,1009.9,,TRUE,TRUE,,,,,,,CLR,,,,,,,,VFR,,,,,,,,,,,,METAR,137.0
KMUO 171858Z AUTO 33003KT 10SM CLR 02/ A3032 RMK AO2 SLP291 $,KMUO,2021-01-17T18:58:00Z,43.03,-115.87,2.0,,330,3,,10.0,30.318897,1029.1,,TRUE,TRUE,TRUE,,,,,,CLR,,,,,,,,VFR,,,,,,,,,,,,METAR,915.0
KMRH 171858Z AUTO 24012KT 10SM CLR 09/M01 A2991 RMK AO2 SLP127 I1000 T00891006 TSNO,KMRH,2021-01-17T18:58:00Z,34.73,-76.65,8.9,-0.6,240,12,,10.0,29.911417,1012.7,,TRUE,TRUE,,,TRUE,,,,CLR,,,,,,,,VFR,,,,,,,,,,,,METAR,2.0
KMEI 171858Z 23010G17KT 210V270 10SM CLR 15/M04 A2996 RMK AO2 SLP144 I1000 T01501044 $,KMEI,2021-01-17T18:58:00Z,32.33,-88.75,15.0,-4.4,230,10,17,10.0,29.958662,1014.4,,,TRUE,TRUE,,,,,,CLR,,,,,,,,VFR,,,,,,,,,,,,METAR,90.0
KLUF 171858Z AUTO 00000KT 10SM CLR 21/M10 A3006 RMK AO2 SLP175 T02081097 $,KLUF,2021-01-17T18:58:00Z,33.53,-112.37,20.8,-9.7,0,0,,10.0,30.059055,1017.5,,TRUE,TRUE,TRUE,,,,,,CLR,,,,,,,,VFR,,,,,,,,,,,,SPECI,333.0
KLSV 171858Z AUTO 00000KT 10SM CLR 14/M05 A3019 RMK AO2 SLP219 T01361051 $,KLSV,2021-01-17T18:58:00Z,36.23,-115.05,13.6,-5.1,0,0,,10.0,30.188976,1021.9,,TRUE,TRUE,TRUE,,,,,,CLR,,,,,,,,VFR,,,,,,,,,,,,METAR,563.0
KLOR 171858Z AUTO 23006KT 10SM CLR 13/M02 A2999 RMK AO2 SLP140 T01281019,KLOR,2021-01-17T18:58:00Z,31.35,-85.75,12.8,-1.9,230,6,,10.0,29.991142,1014.0,,TRUE,TRUE,,,,,,,CLR,,,,,,,,VFR,,,,,,,,,,,,METAR,92.0
KLGF 171858Z AUTO 36019KT M M M M M RMK AO2 SLPNO $,KLGF,2021-01-17T18:58:00Z,32.87,-114.4,,,360,19,,,,,,TRUE,TRUE,TRUE,,,,,,,,,,,,,,,,,,,,,,,,,,METAR,118.0
KINS 171858Z AUTO 35003KT 10SM CLR 14/M08 A3021 RMK AO2 SLP218 T01361077 $,KINS,2021-01-17T18:58:00Z,36.58,-115.68,13.6,-7.7,350,3,,10.0,30.209646,1021.8,,TRUE,TRUE,TRUE,,,,,,CLR,,,,,,,,VFR,,,,,,,,,,,,METAR,954.0
KHUA 171858Z AUTO 27012G19KT 10SM CLR 10/M04 A2986 RMK AO2 SLP115 T01031039,KHUA,2021-01-17T18:58:00Z,34.68,-86.68,10.3,-3.9,270,12,19,10.0,29.861221,1011.5,,TRUE,TRUE,,,,,,,CLR,,,,,,,,VFR,,,,,,,,,,,,METAR,200.0
KHMN 171858Z AUTO 00000KT 10SM CLR 12/M11 A3015 RMK AO2 SLP193 T01231107 $,KHMN,2021-01-17T18:58:00Z,32.85,-106.1,12.3,-10.7,0,0,,10.0,30.15059,1019.3,,TRUE,TRUE,TRUE,,,,,,CLR,,,,,,,,VFR,,,,,,,,,,,,METAR,1240.0
KHLR 171858Z AUTO 04004KT 10SM CLR 16/M03 A3012 RMK AO2 LTG DSNT S SLP198 T01591028,KHLR,2021-01-17T18:58:00Z,31.13,-97.72,15.9,-2.8,40,4,,10.0,30.121063,1019.8,,TRUE,TRUE,,,,,,,CLR,,,,,,,,VFR,,,,,,,,,,,,SPECI,271.0
KHIF 171858Z AUTO 00000KT 10SM FEW075 04/M02 A3029 RMK AO2 SLP267 T00381022,KHIF,2021-01-17T18:58:00Z,41.12,-111.97,3.8,-2.2,0,0,,10.0,30.28937,1026.7,,TRUE,TRUE,,,,,,,FEW,7500,,,,,,,VFR,,,,,,,,,,,,METAR,1461.0
KHEY 171858Z AUTO 28006KT 10SM CLR 13/M01 A2998 RMK AO2 SLP156 T01271011,KHEY,2021-01-17T18:58:00Z,31.35,-85.65,12.7,-1.1,280,6,,10.0,29.97933,1015.6,,TRUE,TRUE,,,,,,,CLR,,,,,,,,VFR,,,,,,,,,,,,METAR,95.0
KGXF 171858Z AUTO 01009KT 10SM CLR 21/M10 A3006 RMK AO2 SLP174 T02121103,KGXF,2021-01-17T18:58:00Z,32.88,-112.72,21.2,-10.3,10,9,,10.0,30.059055,1017.4,,TRUE,TRUE,,,,,,,CLR,,,,,,,,VFR,,,,,,,,,,,,METAR,261.0
KGUR 171858Z AUTO 35003KT 9SM OVC090 03/M07 A3001 RMK AO2 SLP193 T00341075,KGUR,2021-01-17T18:58:00Z,42.25,-104.72,3.4,-7.5,350,3,,9.0,30.008858,1019.3,,TRUE,TRUE,,,,,,,OVC,9000,,,,,,,VFR,,,,,,,,,,,,METAR,1341.0
KGRK 171858Z AUTO 02010KT 7SM CLR 15/M03 A3011 RMK AO2 SLP197 T01541027 $,KGRK,2021-01-17T18:58:00Z,31.07,-97.83,15.4,-2.7,20,10,,7.0,30.109253,1019.7,,TRUE,TRUE,TRUE,,,,,,CLR,,,,,,,,VFR,,,,,,,,,,,,METAR,311.0
KGRF 171858Z AUTO 00000KT 10SM OVC005 08/08 A3047 RMK AO2 SLP324 T00800080 $,KGRF,2021-01-17T18:58:00Z,47.07,-122.57,8.0,8.0,0,0,,10.0,30.469488,1032.4,,TRUE,TRUE,TRUE,,,,,,OVC,500,,,,,,,IFR,,,,,,,,,,,,METAR,91.0
KGFA 171858Z AUTO 24016G20KT 10SM OVC120 06/M03 A2989 RMK AO2 SLP149 T00561031 $,KGFA,2021-01-17T18:58:00Z,47.5,-111.18,5.6,-3.1,240,16,20,10.0,29.890747,1014.9,,TRUE,TRUE,TRUE,,,,,,OVC,12000,,,,,,,VFR,,,,,,,,,,,,METAR,1058.0
KFHU 171858Z AUTO 13007KT 10SM CLR 19/M16 A3018 RMK AO2 SLP174 T01861161,KFHU,2021-01-17T18:58:00Z,31.58,-110.35,18.6,-16.1,130,7,,10.0,30.180119,1017.4,,TRUE,TRUE,,,,,,,CLR,,,,,,,,VFR,,,,,,,,,,,,METAR,1424.0
KFEW 171858Z AUTO 29012KT 10SM OVC075 05/M12 A2998 RMK AO2 SLP173 T00451125 $,KFEW,2021-01-17T18:58:00Z,41.13,-104.87,4.5,-12.5,290,12,,10.0,29.97933,1017.3,,TRUE,TRUE,TRUE,,,,,,OVC,7500,,,,,,,VFR,,,,,,,,,,,,METAR,1877.0
KFCS 171858Z AUTO 20011KT 10SM M 02/M08 A3001 RMK AO2 SLP208 T00231084 $,KFCS,2021-01-17T18:58:00Z,38.67,-104.77,2.3,-8.4,200,11,,10.0,30.008858,1020.8,,TRUE,TRUE,TRUE,,,,,,,,,,,,,,,,,,,,,,,,,,METAR,1789.0
KEUF 171858Z AUTO 27007G15KT 10SM CLR 13/M02 A2999 RMK AO2 SLP154 I1000 T01281017,KEUF,2021-01-17T18:58:00Z,31.95,-85.13,12.8,-1.7,270,7,15,10.0,29.991142,1015.4,,TRUE,TRUE,,,,,,,CLR,,,,,,,,VFR,,,,,,,,,,,,SPECI,87.0
KEDW 171858Z 00000KT 90SM FEW300 14/M04 A3019 RMK AO2A SLP221 T01371040,KEDW,2021-01-17T18:58:00Z,34.9,-117.87,13.7,-4.0,0,0,,90.0,30.188976,1022.1,,,TRUE,,,,,,,FEW,30000,,,,,,,VFR,,,,,,,,,,,,METAR,698.0
KDMA 171858Z AUTO 22005KT 10SM CLR 21/M13 A3008 RMK AO2 SLP164 T02121130 FZRANO $,KDMA,2021-01-17T18:58:00Z,32.17,-110.88,21.2,-13.0,220,5,,10.0,30.079725,1016.4,,TRUE,TRUE,TRUE,,,TRUE,,,CLR,,,,,,,,VFR,,,,,,,,,,,,SPECI,804.0
KCWN 171858Z AUTO 14008KT 10SM BKN190 01/M08 A2995 RMK AO2 SLP076 T00051083 PWINO FZRANO $,KCWN,2021-01-17T18:58:00Z,38.75,-104.85,0.5,-8.3,140,8,,10.0,29.949802,1007.6,,TRUE,TRUE,TRUE,,,TRUE,TRUE,,BKN,19000,,,,,,,VFR,,,,,,,,,,,,METAR,2040.0
KCVS 171858Z AUTO 11008KT 10SM CLR 06/M07 A3013 RMK AO2 PRESFR SLP209 T00631070 $,KCVS,2021-01-17T18:58:00Z,34.37,-103.32,6.3,-7.0,110,8,,10.0,30.129921,1020.9,,TRUE,TRUE,TRUE,,,,,,CLR,,,,,,,,VFR,,,,,,,,,,,,METAR,1305.0
KBYS 171858Z AUTO 15004KT 10SM CLR 19/M07 A3019 RMK AO2 SLP215 T01851070 $,KBYS,2021-01-17T18:58:00Z,35.28,-116.63,18.5,-7.0,150,4,,10.0,30.188976,1021.5,,TRUE,TRUE,TRUE,,,,,,CLR,,,,,,,,VFR,,,,,,,,,,,,METAR,717.0
KBKF 171858Z 05004KT 10SM FEW080 BKN120 BKN200 07/M11 A2998 RMK AO2A SLP157 T00711107,KBKF,2021-01-17T18:58:00Z,39.72,-104.75,7.1,-10.7,50,4,,10.0,29.97933,1015.7,,,TRUE,,,,,,,FEW,8000,BKN,12000,BKN,20000,,,VFR,,,,,,,,,,,,METAR,1703.0
KBIF 171858Z AUTO 14005KT 10SM CLR 13/M10 A3014 RMK AO2 SLP187 T01321099 $,KBIF,2021-01-17T18:58:00Z,31.85,-106.38,13.2,-9.9,140,5,,10.0,30.138779,1018.7,,TRUE,TRUE,TRUE,,,,,,CLR,,,,,,,,VFR,,,,,,,,,,,,METAR,1201.0
KBAB 171858Z AUTO 00000KT 10SM CLR 16/09 A3014 RMK AO2 SLP210 T01560090 $,KBAB,2021-01-17T18:58:00Z,39.13,-121.43,15.6,9.0,0,0,,10.0,30.138779,1021.0,,TRUE,TRUE,TRUE,,,,,,CLR,,,,,,,,VFR,,,,,,,,,,,,METAR,31.0
KAPG 171858Z AUTO 28011G20KT 9SM BKN047 08/M03 A2973 RMK AO2 SLP071 T00801027 $,KAPG,2021-01-17T18:58:00Z,39.47,-76.17,8.0,-2.7,280,11,20,9.0,29.731298,1007.1,,TRUE,TRUE,TRUE,,,,,,BKN,4700,,,,,,,VFR,,,,,,,,,,,,METAR,18.0
KAMN 171858Z AUTO 28004KT 7SM -SN BKN018 BKN034 OVC042 02/M01 A2964 RMK AO2 T00201010,KAMN,2021-01-17T18:58:00Z,43.32,-84.68,2.0,-1.0,280,4,,7.0,29.639763,,,TRUE,TRUE,,,,,,-SN,BKN,1800,BKN,3400,OVC,4200,,,MVFR,,,,,,,,,,,,METAR,228.0
KAFF 171858Z AUTO 18005KT 10SM FEW200 02/M09 A2999 RMK AO2 SLP175 T00201093,KAFF,2021-01-17T18:58:00Z,38.97,-104.82,2.0,-9.3,180,5,,10.0,29.991142,1017.5,,TRUE,TRUE,,,,,,,FEW,20000,,,,,,,VFR,,,,,,,,,,,,METAR,2003.0
KABH 171858Z AUTO 22009KT 10SM CLR 02/M09 A3004 RMK AO2 SLP211 T00171087,KABH,2021-01-17T18:58:00Z,38.75,-104.3,1.7,-8.7,220,9,,10.0,30.041338,1021.1,,TRUE,TRUE,,,,,,,CLR,,,,,,,,VFR,,,,,,,,,,,,METAR,1838.0
K9L2 171858Z AUTO 00000KT 6SM HZ CLR 15/M05 A3020 RMK AO2 SLP225 T01511051 $,K9L2,2021-01-17T18:58:00Z,34.98,-117.87,15.1,-5.1,0,0,,6.0,30.200787,1022.5,,TRUE,TRUE,TRUE,,,,,HZ,CLR,,,,,,,,VFR,,,,,,,,,,,,METAR,697.0
K4MR 171858Z AUTO 13010KT 10SM CLR 07/M07 A3013 RMK AO2 SLP202 T00671075 $,K4MR,2021-01-17T18:58:00Z,34.3,-103.8,6.7,-7.5,130,10,,10.0,30.129921,1020.2,,TRUE,TRUE,TRUE,,,,,,CLR,,,,,,,,VFR,,,,,,,,,,,,METAR,1339.0
K1YT 171858Z AUTO 00000KT 8SM CLR 04/00 A3032 RMK AO2 SLPNO T00380004 $,K1YT,2021-01-17T18:58:00Z,46.67,-120.45,3.8,0.4,0,0,,8.0,30.318897,,,TRUE,TRUE,TRUE,,,,,,CLR,,,,,,,,VFR,,,,,,,,,,,,METAR,423.0
K1OW 171858Z AUTO 29009KT 10SM BKN075 03/M07 A2997 RMK AO2 SLP185 T00331070 $,K1OW,2021-01-17T18:58:00Z,40.88,-104.0,3.3,-7.0,290,9,,10.0,29.970472,1018.5,,TRUE,TRUE,TRUE,,,,,,BKN,7500,,,,,,,VFR,,,,,,,,,,,,METAR,1650.0
K1OM 171858Z AUTO 28027G34KT 10SM BKN033 BKN095 06/00 A2979 RMK AO2 RAB02E04 SLP114 T00641005 $,K1OM,2021-01-17T18:58:00Z,47.33,-108.93,6.4,-0.5,280,27,34,10.0,29.790354,1011.4,,TRUE,TRUE,TRUE,,,,,,BKN,3300,BKN,9500,,,,,VFR,,,,,,,,,,,,METAR,1088.0
K1NW 171858Z AUTO 26007KT 10SM CLR 04/M07 A2998 RMK AO2 SLP170 T00351073 $,K1NW,2021-01-17T18:58:00Z,40.63,-103.83,3.5,-7.3,260,7,,10.0,29.97933,1017.0,,TRUE,TRUE,TRUE,,,,,,CLR,,,,,,,,VFR,,,,,,,,,,,,METAR,1461.0
K1MW 171858Z AUTO 27009KT 10SM BKN230 05/M08 A2999 RMK AO2 SLP182 T00481079 $,K1MW,2021-01-17T18:58:00Z,40.7,-103.48,4.8,-7.9,270,9,,10.0,29.991142,1018.2,,TRUE,TRUE,TRUE,,,,,,BKN,23000,,,,,,,VFR,,,,,,,,,,,,METAR,1338.0
K1LW 171858Z AUTO 32014KT 10SM SCT080 04/M08 A2999 RMK AO2 SLP183 T00441085 $,K1LW,2021-01-17T18:58:00Z,40.92,-103.7,4.4,-8.5,320,14,,10.0,29.991142,1018.3,,TRUE,TRUE,TRUE,,,,,,SCT,8000,,,,,,,VFR,,,,,,,,,,,,METAR,1514.0
K1LM 171858Z AUTO 27019G27KT 10SM OVC050 05/M04 A2983 RMK AO2 PK WND 27027/47 SLP135 T00461039 $,K1LM,2021-01-17T18:58:00Z,46.7,-109.73,4.6,-3.9,270,19,27,10.0,29.828741,1013.5,,TRUE,TRUE,TRUE,,,,,,OVC,5000,,,,,,,VFR,,,,,,,,,,,,METAR,1417.0
K1KW 171858Z AUTO 32014KT 10SM CLR 05/M08 A2995 RMK AO2 SLP173 T00501085 $,K1KW,2021-01-17T18:58:00Z,41.13,-103.48,5.0,-8.5,320,14,,10.0,29.949802,1017.3,,TRUE,TRUE,TRUE,,,,,,CLR,,,,,,,,VFR,,,,,,,,,,,,METAR,1443.0
K1KM 171858Z AUTO 28024KT 10SM BKN045 BKN070 05/M04 A2986 RMK AO2 PK WND 27033/19 SLP133 T00481040 $,K1KM,2021-01-17T18:58:00Z,46.45,-109.8,4.8,-4.0,280,24,,10.0,29.861221,1013.3,,TRUE,TRUE,TRUE,,,,,,BKN,4500,BKN,7000,,,,,VFR,,,,,,,,,,,,METAR,1332.0
K1IM 171858Z AUTO 26027G38KT 10SM BKN120 06/M04 A2988 RMK AO2 PK WND 25038/48 SLP147 T00601036 $,K1IM,2021-01-17T18:58:00Z,47.32,-111.47,6.0,-3.6,260,27,38,10.0,29.878937,1014.7,,TRUE,TRUE,TRUE,,,,,,BKN,12000,,,,,,,VFR,,,,,,,,,,,,METAR,1110.0
K1HW 171858Z AUTO 33014KT 10SM FEW095 SCT150 05/M09 A2998 RMK AO2 SLP183 T00471092 $,K1HW,2021-01-17T18:58:00Z,41.32,-102.83,4.7,-9.2,330,14,,10.0,29.97933,1018.3,,TRUE,TRUE,TRUE,,,,,,FEW,9500,SCT,15000,,,,,VFR,,,,,,,,,,,,METAR,1265.0
K1HM 171858Z AUTO 26025G31KT 10SM FEW100 FEW150 07/M06 A2986 RMK AO2 PK WND 26031/51 SLP127 T00681060 $,K1HM,2021-01-17T18:58:00Z,47.7,-111.95,6.8,-6.0,260,25,31,10.0,29.861221,1012.7,,TRUE,TRUE,TRUE,,,,,,FEW,10000,FEW,15000,,,,,VFR,,,,,,,,,,,,METAR,1181.0
K1GM 171858Z AUTO 21016KT 10SM BKN050 04/M04 A2990 RMK AO2 PK WND 21026/28 SLP149 T00421039 $,K1GM,2021-01-17T18:58:00Z,47.33,-112.1,4.2,-3.9,210,16,,10.0,29.899607,1014.9,,TRUE,TRUE,TRUE,,,,,,BKN,5000,,,,,,,VFR,,,,,,,,,,,,METAR,1317.0
K1FW 171858Z AUTO 32014KT 10SM CLR 05/M08 A2997 RMK AO2 SLP171 T00461082 $,K1FW,2021-01-17T18:58:00Z,41.37,-103.48,4.6,-8.2,320,14,,10.0,29.970472,1017.1,,TRUE,TRUE,TRUE,,,,,,CLR,,,,,,,,VFR,,,,,,,,,,,,METAR,1451.0
K1EM 171858Z AUTO 28013G25KT 10SM -SHRA OVC029 05/M01 A2982 RMK AO2 SHRAB03 SLP131 T00471009 $,K1EM,2021-01-17T18:58:00Z,47.45,-109.42,4.7,-0.9,280,13,25,10.0,29.819881,1013.1,,TRUE,TRUE,TRUE,,,,,-SHRA,OVC,2900,,,,,,,MVFR,,,,,,,,,,,,METAR,1118.0
K1DM 171858Z AUTO 29017G28KT 10SM -RA OVC041 05/M01 A2980 RMK AO2 PK WND 28030/16 SHRAB18E20RAB20 SLP132 T00531006 $,K1DM,2021-01-17T18:58:00Z,47.37,-109.8,5.3,-0.6,290,17,28,10.0,29.799213,1013.2,,TRUE,TRUE,TRUE,,,,,-RA,OVC,4100,,,,,,,VFR,,,,,,,,,,,,METAR,1093.0
K1CW 171858Z AUTO 30014KT 10SM FEW075 FEW110 05/M10 A3000 RMK AO2 SLP180 T00511098 $,K1CW,2021-01-17T18:58:00Z,41.58,-103.57,5.1,-9.8,300,14,,10.0,30.0,1018.0,,TRUE,TRUE,TRUE,,,,,,FEW,7500,FEW,11000,,,,,VFR,,,,,,,,,,,,METAR,1370.0
K1CM 171858Z AUTO 26015KT 10SM BKN055 06/M03 A2983 RMK AO2 PK WND 30026/37 SLP131 T00601033 $,K1CM,2021-01-17T18:58:00Z,47.1,-110.17,6.0,-3.3,260,15,,10.0,29.828741,1013.1,,TRUE,TRUE,TRUE,,,,,,BKN,5500,,,,,,,VFR,,,,,,,,,,,,METAR,1338.0
K1BW 171858Z AUTO 31020G26KT 10SM BKN095 04/M09 A2997 RMK AO2 PK WND 30027/21 SLP180 T00391087 $,K1BW,2021-01-17T18:58:00Z,41.52,-104.0,3.9,-8.7,310,20,26,10.0,29.970472,1018.0,,TRUE,TRUE,TRUE,,,,,,BKN,9500,,,,,,,VFR,,,,,,,,,,,,METAR,1606.0
K1BM 171858Z AUTO 27024G32KT 10SM OVC042 06/M04 A2982 RMK AO2 PK WND 27032/47 SLP125 T00641039 $,K1BM,2021-01-17T18:58:00Z,47.28,-110.37,6.4,-3.9,270,24,32,10.0,29.819881,1012.5,,TRUE,TRUE,TRUE,,,,,,OVC,4200,,,,,,,VFR,,,,,,,,,,,,METAR,1234.0
K1AM 171858Z AUTO 22017G22KT 10SM BKN075 BKN110 06/M04 A2986 RMK AO2 PK WND 21031/34 SLP083 T00641044 $,K1AM,2021-01-17T18:58:00Z,47.28,-110.8,6.4,-4.4,220,17,22,10.0,29.861221,1008.3,,TRUE,TRUE,TRUE,,,,,,BKN,7500,BKN,11000,,,,,VFR,,,,,,,,,,,,METAR,1228.0
ETEB 171858Z 23003KT 9999 -SN BKN007 BKN029 M03/M03 A3013 RMK AO2A SNB58 CIG 007V060 BKN007 V FEW SLP253 FZRANO $,ETEB,2021-01-17T18:58:00Z,49.32,10.63,-3.0,-3.0,230,3,,6.21,30.129921,1025.3,,,TRUE,TRUE,,,TRUE,,-SN,BKN,700,BKN,2900,,,,,IFR,,,,,,,,,,,,SPECI,466.0
PHNG 171857Z 23003KT 10SM FEW029 SCT044 OVC060 24/19 A3000 RMK AO2 SLP152 T02390189 PNO $,PHNG,2021-01-17T18:57:00Z,21.43,-157.77,23.9,18.9,230,3,,10.0,30.0,1015.2,,,TRUE,TRUE,,,,,,FEW,2900,SCT,4400,OVC,6000,,,VFR,,,,,,,,,,,,SPECI,1.0
PAEH 171857Z AUTO 35022KT 2SM -SN BR OVC007 M08/M09 A2943 RMK AO2 SLP982,PAEH,2021-01-17T18:57:00Z,58.65,-162.07,-8.0,-9.0,350,22,,2.0,29.430119,998.2,,TRUE,TRUE,,,,,,-SN BR,OVC,700,,,,,,,IFR,,,,,,,,,,,,METAR,101.0
MMBT 171857Z RTD 18007KT 10SM SCT020 BKN100 28/22 A2990 RMK 8/130 CU N,MMBT,2021-01-17T18:57:00Z,15.77,-96.27,28.0,22.0,180,7,,10.0,29.899607,,,,,,,,,,,SCT,2000,BKN,10000,,,,,VFR,,,,,,,,,,,,METAR,137.0
KPHN 171857Z AUTO 27006KT 10SM BKN022 OVC027 02/M01 A2963 RMK AO2,KPHN,2021-01-17T18:57:00Z,42.92,-82.52,2.0,-1.0,270,6,,10.0,29.630905,,,TRUE,TRUE,,,,,,,BKN,2200,OVC,2700,,,,,MVFR,,,,,,,,,,,,METAR,195.0
KP58 171857Z AUTO 30008KT 00/M02 A2959 RMK AO1 SLP030 T00001017,KP58,2021-01-17T18:57:00Z,44.02,-82.8,0.0,-1.7,300,8,,,29.589567,1003.0,,TRUE,TRUE,,,,,,,,,,,,,,,,,,,,,,,,,,,METAR,180.0
KNYL 171857Z AUTO 03014KT 10SM CLR 24/M06 A3007 RMK AO2 SLP180 T02391061 $,KNYL,2021-01-17T18:57:00Z,32.65,-114.62,23.9,-6.1,30,14,,10.0,30.070866,1018.0,,TRUE,TRUE,TRUE,,,,,,CLR,,,,,,,,VFR,,,,,,,,,,,,METAR,58.0
KNJW 171857Z AUTO 25011G20KT 10SM BKN070 14/M05 A2994 RMK AO2 SLP942 T01391050 $,KNJW,2021-01-17T18:57:00Z,32.78,-88.82,13.9,-5.0,250,11,20,10.0,29.940945,994.2,,TRUE,TRUE,TRUE,,,,,,BKN,7000,,,,,,,VFR,,,,,,,,,,,,METAR,165.0
KNJM 171857Z AUTO 22015KT 10SM CLR 09/M03 A2991 RMK AO2 SLP133 T00941028 $,KNJM,2021-01-17T18:57:00Z,34.68,-77.02,9.4,-2.8,220,15,,10.0,29.911417,1013.3,,TRUE,TRUE,TRUE,,,,,,CLR,,,,,,,,VFR,,,,,,,,,,,,METAR,5.0
KFLG 171857Z 00000KT 10SM CLR 13/M24 A3025 RMK AO2 SLP195 T01331239,KFLG,2021-01-17T18:57:00Z,35.13,-111.67,13.3,-23.9,0,0,,10.0,30.250984,1019.5,,,TRUE,,,,,,,CLR,,,,,,,,VFR,,,,,,,,,,,,METAR,2134.0
KFFX 171857Z AUTO 00000KT 5SM -SN OVC018 00/M02 A2964 RMK AO2 T00001020,KFFX,2021-01-17T18:57:00Z,43.43,-86.0,0.0,-2.0,0,0,,5.0,29.639763,,,TRUE,TRUE,,,,,,-SN,OVC,1800,,,,,,,MVFR,,,,,,,,,,,,METAR,234.0
KAQV 171857Z AUTO 10SM CLR 17/M02 A3003 RMK AO2 SLP171 T01671022 $,KAQV,2021-01-17T18:57:00Z,31.4,-93.3,16.7,-2.2,,,,10.0,30.029528,1017.1,,TRUE,TRUE,TRUE,,,,,,CLR,,,,,,,,VFR,,,,,,,,,,,,METAR,123.0
KAOH 171857Z AUTO 24009KT 2SM -SN BR BKN008 BKN014 OVC019 01/M01 A2967 RMK AO2 P0001 T00111006 $,KAOH,2021-01-17T18:57:00Z,40.7,-84.02,1.1,-0.6,240,9,,2.0,29.66929,,,TRUE,TRUE,TRUE,,,,,-SN BR,BKN,800,BKN,1400,OVC,1900,,,IFR,,,,,,0.01,,,,,,METAR,294.0
K2V6 171857Z AUTO 28006KT 10SM CLR 04/M08 A3001 RMK AO2,K2V6,2021-01-17T18:57:00Z,40.1,-102.72,4.0,-8.0,280,6,,10.0,30.008858,,,TRUE,TRUE,,,,,,,CLR,,,,,,,,VFR,,,,,,,,,,,,METAR,1257.0
TJSJ 171856Z 06013KT 10SM FEW025 SCT040 SCT120 28/22 A2997 RMK AO2 SLP147 SHRA DSNT SW P0001 T02780217,TJSJ,2021-01-17T18:56:00Z,18.43,-66.02,27.8,21.7,60,13,,10.0,29.970472,1014.7,,,TRUE,,,,,,,FEW,2500,SCT,4000,SCT,12000,,,VFR,,,,,,0.01,,,,,,METAR,3.0
ROTM 171856Z 01014KT 9999 SCT040 BKN050 14/03 A3020 RMK SLP210 T01380033,ROTM,2021-01-17T18:56:00Z,26.27,127.75,13.8,3.3,10,14,,6.21,30.200787,1021.0,,,,,,,,,,SCT,4000,BKN,5000,,,,,VFR,,,,,,,,,,,,METAR,80.0
RODN 171856Z AUTO 36008KT 10SM SCT039 OVC049 14/07 A3018 RMK AO2 SLP228 T01400066 $,RODN,2021-01-17T18:56:00Z,26.35,127.77,14.0,6.6,360,8,,10.0,30.180119,1022.8,,TRUE,TRUE,TRUE,,,,,,SCT,3900,OVC,4900,,,,,VFR,,,,,,,,,,,,METAR,38.0
RKSG 171856Z 15003KT 4SM BR SCT030 M05/M06 A3016 RMK AO2A SNE1756 SLP218 T10461061 $,RKSG,2021-01-17T18:56:00Z,36.97,127.02,-4.6,-6.1,150,3,,4.0,30.159449,1021.8,,,TRUE,TRUE,,,,,BR,SCT,3000,,,,,,,MVFR,,,,,,,,,,,,METAR,12.0
RKJK 171856Z 16010KT 9SM CLR M01/M03 A3016 RMK AO2A SLP218 T10091028 FZRANO $,RKJK,2021-01-17T18:56:00Z,35.9,126.62,-0.9,-2.8,160,10,,9.0,30.159449,1021.8,,,TRUE,TRUE,,,TRUE,,,CLR,,,,,,,,VFR,,,,,,,,,,,,METAR,8.0
RJTY 171856Z AUTO 03003KT 10SM CLR M04/M07 A3001 RMK AO2 SLP175 T10441070 FZRANO $,RJTY,2021-01-17T18:56:00Z,35.75,139.33,-4.4,-7.0,30,3,,10.0,30.008858,1017.5,,TRUE,TRUE,TRUE,,,TRUE,,,CLR,,,,,,,,VFR,,,,,,,,,,,,METAR,136.0
PPIZ 171856Z AUTO 06012KT 9SM -SN OVC016 M21/M23 A2986 RMK AO2 SLP117 P0000 T12061233 FZRANO,PPIZ,2021-01-17T18:56:00Z,69.73,-163.0,-20.6,-23.3,60,12,,9.0,29.861221,1011.7,,TRUE,TRUE,,,,TRUE,,-SN,OVC,1600,,,,,,,MVFR,,,,,,0.005,,,,,,METAR,5.0
PPIT 171856Z AUTO 33020KT 1/2SM FZFG M10/M10 A2947 RMK AO2 SLP984 T11001100 PWINO FZRANO TSNO $,PPIT,2021-01-17T18:56:00Z,60.9,-162.43,-10.0,-10.0,330,20,,0.5,29.471457,998.4,,TRUE,TRUE,TRUE,,TRUE,TRUE,TRUE,FZFG,,,,,,,,,,,,,,,,,,,,,METAR,4.0
PMDY 171856Z AUTO 02010KT 7SM BKN048 15/04 A3038 RMK AO2 SLP285 T01500044,PMDY,2021-01-17T18:56:00Z,28.22,-177.37,15.0,4.4,20,10,,7.0,30.380905,1028.5,,TRUE,TRUE,,,,,,,BKN,4800,,,,,,,VFR,,,,,,,,,,,,METAR,6.0
PHBK 171856Z AUTO 14005KT 10SM CLR A2999 RMK AO2 SLP159 $,PHBK,2021-01-17T18:56:00Z,22.03,-159.78,,,140,5,,10.0,29.991142,1015.9,,TRUE,TRUE,TRUE,,,,,,CLR,,,,,,,,VFR,,,,,,,,,,,,METAR,5.0
PGUA 171856Z 10011KT 10SM FEW022 25/21 A2987 RMK AO2A SLP105 T02530205 $,PGUA,2021-01-17T18:56:00Z,13.57,144.92,25.3,20.5,100,11,,10.0,29.870079,1010.5,,,TRUE,TRUE,,,,,,FEW,2200,,,,,,,VFR,,,,,,,,,,,,SPECI,159.0
PFYU 171856Z 00000KT 4SM HZ CLR M28/M31 A2964 RMK AO2 SLP061 T12831311,PFYU,2021-01-17T18:56:00Z,66.57,-145.23,-28.3,-31.1,0,0,,4.0,29.639763,1006.1,,,TRUE,,,,,,HZ,CLR,,,,,,,,MVFR,,,,,,,,,,,,METAR,130.0
PFWS 171856Z AUTO 15012KT 10SM BKN049 OVC055 02/02 A2934 RMK AO2 SLP978 P0001 T00170017 FZRANO,PFWS,2021-01-17T18:56:00Z,58.7,-157.0,1.7,1.7,150,12,,10.0,29.338583,997.8,,TRUE,TRUE,,,,TRUE,,,BKN,4900,OVC,5500,,,,,VFR,,,,,,0.01,,,,,,METAR,40.0
PFSH 171856Z AUTO 02020KT 10SM BKN080 OVC100 M11/M12 A2950 RMK AO2 PK WND 02028/1815 SLP990 T11061117 FZRANO,PFSH,2021-01-17T18:56:00Z,64.37,-161.22,-10.6,-11.7,20,20,,10.0,29.500984,999.0,,TRUE,TRUE,,,,TRUE,,,BKN,8000,OVC,10000,,,,,VFR,,,,,,,,,,,,METAR,6.0
PFNO 171856Z AUTO 01005KT 9SM BKN075 M12/M13 A2957 RMK AO2 SLP098 T11171133 FZRANO,PFNO,2021-01-17T18:56:00Z,66.82,-161.02,-11.7,-13.3,10,5,,9.0,29.568897,1009.8,,TRUE,TRUE,,,,TRUE,,,BKN,7500,,,,,,,VFR,,,,,,,,,,,,METAR,14.0
PFKT 171856Z AUTO VRB03KT 10SM SCT016 BKN024 OVC036 M14/M17 A2966 RMK AO2 SLP046 T11391167 FZRANO,PFKT,2021-01-17T18:56:00Z,65.33,-166.47,-13.9,-16.7,0,3,,10.0,29.660433,1004.6,,TRUE,TRUE,,,,TRUE,,,SCT,1600,BKN,2400,OVC,3600,,,MVFR,,,,,,,,,,,,METAR,8.0
PFEL 171856Z AUTO 36007KT 9SM -SN OVC034 M09/M13 A2950 RMK AO2 SLP992 P0000 T10941128 FZRANO,PFEL,2021-01-17T18:56:00Z,64.62,-162.27,-9.4,-12.8,360,7,,9.0,29.500984,999.2,,TRUE,TRUE,,,,TRUE,,-SN,OVC,3400,,,,,,,VFR,,,,,,0.005,,,,,,METAR,50.0
PAWS 171856Z AUTO 00000KT 10SM OVC120 02/M06 A2950 RMK AO2 SLP994 T00221056 FZRANO,PAWS,2021-01-17T18:56:00Z,61.57,-149.53,2.2,-5.6,0,0,,10.0,29.500984,999.4,,TRUE,TRUE,,,,TRUE,,,OVC,12000,,,,,,,VFR,,,,,,,,,,,,METAR,102.0
PAWN 171856Z AUTO 01009KT 9SM -SN FEW024 OVC040 M11/M14 A2959 RMK AO2 SNB06 SLP034 P0000 T11061144 FZRANO,PAWN,2021-01-17T18:56:00Z,67.57,-162.98,-10.6,-14.4,10,9,,9.0,29.589567,1003.4,,TRUE,TRUE,,,,TRUE,,-SN,FEW,2400,OVC,4000,,,,,VFR,,,,,,0.005,,,,,,METAR,26.0
PAWM 171856Z AUTO 34013KT 5SM -SN BR FEW032 BKN065 OVC080 M13/M14 A2952 RMK AO2 SLP003 P0000 T11281144 FZRANO,PAWM,2021-01-17T18:56:00Z,64.68,-163.42,-12.8,-14.4,340,13,,5.0,29.518702,1000.3,,TRUE,TRUE,,,,TRUE,,-SN BR,FEW,3200,BKN,6500,OVC,8000,,,MVFR,,,,,,0.005,,,,,,METAR,80.0
PAWG 171856Z 15005KT 10SM SCT030 BKN034 OVC060 06/04 A3019 RMK AO2 RAE09B43E55 SLP223 P0000 T00610039,PAWG,2021-01-17T18:56:00Z,56.48,-132.37,6.1,3.9,150,5,,10.0,30.188976,1022.3,,,TRUE,,,,,,,SCT,3000,BKN,3400,OVC,6000,,,VFR,,,,,,0.005,,,,,,METAR,6.0
PAVD 171856Z 00000KT 6SM -RA BR FEW002 BKN045 OVC060 01/01 A2970 RMK AO2 SLP056 PCPN VRY LGT P0002 T00060006,PAVD,2021-01-17T18:56:00Z,61.13,-146.25,0.6,0.6,0,0,,6.0,29.698818,1005.6,,,TRUE,,,,,,-RA BR,FEW,200,BKN,4500,OVC,6000,,,VFR,,,,,,0.02,,,,,,METAR,21.0
PAUN 171856Z AUTO 07006KT 10SM OVC045 M09/M11 A2950 RMK AO2 SNB31E42 SLP992 P0000 T10891111 FZRANO,PAUN,2021-01-17T18:56:00Z,63.88,-160.8,-8.9,-11.1,70,6,,10.0,29.500984,999.2,,TRUE,TRUE,,,,TRUE,,,OVC,4500,,,,,,,VFR,,,,,,0.005,,,,,,METAR,4.0
PATQ 171856Z AUTO 08016KT 9SM CLR M27/M29 A2987 RMK AO2 SLP120 T12671289 FZRANO TSNO PNO $,PATQ,2021-01-17T18:56:00Z,70.47,-157.43,-26.7,-28.9,80,16,,9.0,29.870079,1012.0,,TRUE,TRUE,TRUE,,TRUE,TRUE,,,CLR,,,,,,,,VFR,,,,,,,,,,,,METAR,28.0
PATE 171856Z AUTO 03010KT 10SM OVC018 M14/M17 A2961 RMK AO2 SNE08 SLP039 P0000 T11441167 FZRANO,PATE,2021-01-17T18:56:00Z,65.23,-166.33,-14.4,-16.7,30,10,,10.0,29.610237,1003.9,,TRUE,TRUE,,,,TRUE,,,OVC,1800,,,,,,,MVFR,,,,,,0.005,,,,,,METAR,93.0
PASX 171856Z AUTO 00000KT 10SM FEW080 00/M02 A2949 RMK AO2 SLP997 T00001022 FZRANO,PASX,2021-01-17T18:56:00Z,60.48,-151.05,0.0,-2.2,0,0,,10.0,29.489174,999.7,,TRUE,TRUE,,,,TRUE,,,FEW,8000,,,,,,,VFR,,,,,,,,,,,,METAR,28.0
PASL 171856Z AUTO 00000KT 10SM OVC017 M08/M11 A2948 RMK AO2 SNE39 SLP976 P0000 T10831106 FZRANO,PASL,2021-01-17T18:56:00Z,61.68,-157.15,-8.3,-10.6,0,0,,10.0,29.480314,997.6,,TRUE,TRUE,,,,TRUE,,,OVC,1700,,,,,,,MVFR,,,,,,0.005,,,,,,METAR,64.0
PASK 171856Z AUTO 24004KT 10SM SCT095 M11/M13 A2957 RMK AO2 SLP010 T11111128 FZRANO,PASK,2021-01-17T18:56:00Z,66.6,-160.0,-11.1,-12.8,240,4,,10.0,29.568897,1001.0,,TRUE,TRUE,,,,TRUE,,,SCT,9500,,,,,,,VFR,,,,,,,,,,,,METAR,3.0
PASA 171856Z AUTO 32013KT 9SM -SN OVC013 M14/M17 A2980 RMK AO2 SLP092 P0000 T11441167 FZRANO,PASA,2021-01-17T18:56:00Z,63.68,-170.5,-14.4,-16.7,320,13,,9.0,29.799213,1009.2,,TRUE,TRUE,,,,TRUE,,-SN,OVC,1300,,,,,,,MVFR,,,,,,0.005,,,,,,METAR,9.0
PARS 171856Z AUTO 34005KT 10SM FEW016 OVC038 M08/M09 A2945 RMK AO2 SLP975 T10831094 PWINO FZRANO $,PARS,2021-01-17T18:56:00Z,61.77,-161.32,-8.3,-9.4,340,5,,10.0,29.450787,997.5,,TRUE,TRUE,TRUE,,,TRUE,TRUE,,FEW,1600,OVC,3800,,,,,VFR,,,,,,,,,,,,METAR,15.0
PARC 171856Z AUTO 35003KT 10SM FEW047 M21/M23 A2954 RMK AO2 SLP099 T12111233 FZRANO,PARC,2021-01-17T18:56:00Z,68.12,-145.58,-21.1,-23.3,350,3,,10.0,29.53937,1009.9,,TRUE,TRUE,,,,TRUE,,,FEW,4700,,,,,,,VFR,,,,,,,,,,,,METAR,626.0
PAPO 171856Z AUTO 03028G36KT 5SM HZ BKN020 M14/M18 A2974 RMK AO2 PK WND 03037/1827 SLP069 T11441178 FZRANO,PAPO,2021-01-17T18:56:00Z,68.35,-166.8,-14.4,-17.8,30,28,36,5.0,29.740158,1006.9,,TRUE,TRUE,,,,TRUE,,HZ,BKN,2000,,,,,,,MVFR,,,,,,,,,,,,METAR,4.0
PAPH 171856Z AUTO 22017KT 2 1/2SM -SN BR OVC003 00/M01 A2935 RMK AO2 SLP939 P0000 T00001006 FZRANO,PAPH,2021-01-17T18:56:00Z,56.95,-158.62,0.0,-0.6,220,17,,2.5,29.350393,993.9,,TRUE,TRUE,,,,TRUE,,-SN BR,OVC,300,,,,,,,LIFR,,,,,,0.005,,,,,,METAR,29.0
PAPG 171856Z 20009KT 10SM BKN036 BKN043 06/03 A3015 RMK AO2 RAE33 SLP213 P0001 T00610033,PAPG,2021-01-17T18:56:00Z,56.82,-132.93,6.1,3.3,200,9,,10.0,30.15059,1021.3,,,TRUE,,,,,,,BKN,3600,BKN,4300,,,,,VFR,,,,,,0.01,,,,,,METAR,24.0
PANI 171856Z AUTO VRB03KT 1 3/4SM -SN BR BKN024 BKN028 OVC037 M08/M10 A2947 RMK AO2 SLP971 P0000 T10831100 FZRANO,PANI,2021-01-17T18:56:00Z,61.58,-159.53,-8.3,-10.0,0,3,,1.75,29.471457,997.1,,TRUE,TRUE,,,,TRUE,,-SN BR,BKN,2400,BKN,2800,OVC,3700,,,IFR,,,,,,0.005,,,,,,METAR,21.0
PAMK 171856Z AUTO 34011KT 3SM -SN BR FEW020 OVC027 M09/M11 A2950 RMK AO2 SLP992 P0000 T10941106 FZRANO,PAMK,2021-01-17T18:56:00Z,63.48,-162.12,-9.4,-10.6,340,11,,3.0,29.500984,999.2,,TRUE,TRUE,,,,TRUE,,-SN BR,FEW,2000,OVC,2700,,,,,MVFR,,,,,,0.005,,,,,,METAR,31.0
PAMH 171856Z AUTO 00000KT 10SM BKN075 M14/M15 A2948 RMK AO2 SLP995 T11391150 FZRANO,PAMH,2021-01-17T18:56:00Z,63.9,-152.28,-13.9,-15.0,0,0,,10.0,29.480314,999.5,,TRUE,TRUE,,,,TRUE,,,BKN,7500,,,,,,,VFR,,,,,,,,,,,,METAR,200.0
PAMB 171856Z AUTO 04009KT 7SM UP OVC008 M01/M01 A2933 RMK AO2 UPE11B48SNB11E48 CIG 004V011 SLP935 P0001 T10061011 FZRANO $,PAMB,2021-01-17T18:56:00Z,58.98,-159.05,-0.6,-1.1,40,9,,7.0,29.329725,993.5,,TRUE,TRUE,TRUE,,,TRUE,,UP,OVC,800,,,,,,,IFR,,,,,,0.01,,,,,,METAR,28.0
PAKP 171856Z AUTO 03007KT 10SM OVC095 M24/M27 A2949 RMK AO2 SLP084 T12441267 FZRANO,PAKP,2021-01-17T18:56:00Z,68.13,-151.73,-24.4,-26.7,30,7,,10.0,29.489174,1008.4,,TRUE,TRUE,,,,TRUE,,,OVC,9500,,,,,,,VFR,,,,,,,,,,,,METAR,649.0
PAKK 171856Z AUTO 34009G15KT 10SM OVC095 M11/M14 A2945 RMK AO2 SLP984 T11111139 FZRANO,PAKK,2021-01-17T18:56:00Z,64.93,-161.15,-11.1,-13.9,340,9,15,10.0,29.450787,998.4,,TRUE,TRUE,,,,TRUE,,,OVC,9500,,,,,,,VFR,,,,,,,,,,,,METAR,56.0
PAKI 171856Z AUTO CLR A2958 RMK AO2 SLPNO PWINO FZRANO $,PAKI,2021-01-17T18:56:00Z,59.93,-164.03,,,,,,,29.58071,,,TRUE,TRUE,TRUE,,,TRUE,TRUE,,CLR,,,,,,,,,,,,,,,,,,,,METAR,4.0
PAKH 171856Z AUTO 10SM UP BKN017 OVC022 A2943 RMK AO2 UPB15E26B52 SLPNO P0000 FZRANO $,PAKH,2021-01-17T18:56:00Z,56.93,-154.18,,,,,,10.0,29.430119,,,TRUE,TRUE,TRUE,,,TRUE,,UP,BKN,1700,OVC,2200,,,,,MVFR,,,,,,0.005,,,,,,METAR,15.0
PAJZ 171856Z AUTO 31004KT 5SM -SN BR OVC028 M01/M02 A2939 RMK AO2 UPB04E29B50E56SNE04B14E25B29E50B56 SLP960 P0001 T10111017 FZRANO $,PAJZ,2021-01-17T18:56:00Z,59.73,-157.27,-1.1,-1.7,310,4,,5.0,29.388779,996.0,,TRUE,TRUE,TRUE,,,TRUE,,-SN BR,OVC,2800,,,,,,,MVFR,,,,,,0.01,,,,,,METAR,80.0
PAIW 171856Z AUTO 01025G30KT 6SM -SN BR OVC016 M14/M15 A2973 RMK AO2 PK WND 01030/1850 SLP070 P0000 T11391150 FZRANO,PAIW,2021-01-17T18:56:00Z,65.62,-168.1,-13.9,-15.0,10,25,30,6.0,29.731298,1007.0,,TRUE,TRUE,,,,TRUE,,-SN BR,OVC,1600,,,,,,,MVFR,,,,,,0.005,,,,,,METAR,6.0
PAIN 171856Z AUTO 15005KT 10SM BKN047 OVC110 00/M06 A2943 RMK AO2 SLP996 T00001056 FZRANO,PAIN,2021-01-17T18:56:00Z,63.73,-148.92,0.0,-5.6,150,5,,10.0,29.430119,999.6,,TRUE,TRUE,,,,TRUE,,,BKN,4700,OVC,11000,,,,,VFR,,,,,,,,,,,,METAR,525.0
PAIK 171856Z AUTO 07005KT 10SM FEW070 SCT090 BKN120 M11/M13 A2957 RMK AO2 SLP019 T11111128 FZRANO,PAIK,2021-01-17T18:56:00Z,66.98,-160.43,-11.1,-12.8,70,5,,10.0,29.568897,1001.9,,TRUE,TRUE,,,,TRUE,,,FEW,7000,SCT,9000,BKN,12000,,,VFR,,,,,,,,,,,,METAR,49.0
PAIG 171856Z AUTO 09003KT SCT038 OVC047 02/01 A2934 RMK AO2 SLP944 T00170006 PWINO FZRANO $,PAIG,2021-01-17T18:56:00Z,59.32,-155.9,1.7,0.6,90,3,,,29.338583,994.4,,TRUE,TRUE,TRUE,,,TRUE,TRUE,,SCT,3800,OVC,4700,,,,,,,,,,,,,,,,,METAR,24.0
PAHY 171856Z AUTO 09004KT 10SM -RA BKN028 OVC044 06/04 A3024 RMK AO2 RAB14 SLP237 T00610044 PNO $,PAHY,2021-01-17T18:56:00Z,55.2,-132.83,6.1,4.4,90,4,,10.0,30.239174,1023.7,,TRUE,TRUE,TRUE,,,,,-RA,BKN,2800,OVC,4400,,,,,MVFR,,,,,,,,,,,,METAR,0.0
PAHL 171856Z AUTO 00000KT 10SM OVC085 M11/M13 A2951 RMK AO2 SLP998 T11061128 FZRANO,PAHL,2021-01-17T18:56:00Z,65.7,-156.35,-10.6,-12.8,0,0,,10.0,29.509842,999.8,,TRUE,TRUE,,,,TRUE,,,OVC,8500,,,,,,,VFR,,,,,,,,,,,,METAR,49.0
PAGS 171856Z AUTO 14005KT 10SM -RA OVC030 05/03 A2999 RMK AO2 RAB38 SLP154 P0001 T00500033,PAGS,2021-01-17T18:56:00Z,58.42,-135.7,5.0,3.3,140,5,,10.0,29.991142,1015.4,,TRUE,TRUE,,,,,,-RA,OVC,3000,,,,,,,MVFR,,,,,,0.01,,,,,,METAR,9.0
PAGM 171856Z AUTO 36017KT 10SM BKN028 OVC034 M15/M18 A2983 RMK AO2 SLP108 T11501178 FZRANO,PAGM,2021-01-17T18:56:00Z,63.77,-171.73,-15.0,-17.8,360,17,,10.0,29.828741,1010.8,,TRUE,TRUE,,,,TRUE,,,BKN,2800,OVC,3400,,,,,MVFR,,,,,,,,,,,,METAR,6.0
PAGH 171856Z AUTO 25004KT 10SM BKN100 OVC120 M13/M15 A2954 RMK AO2 SLP012 T11281150 FZRANO,PAGH,2021-01-17T18:56:00Z,66.88,-157.17,-12.8,-15.0,250,4,,10.0,29.53937,1001.2,,TRUE,TRUE,,,,TRUE,,,BKN,10000,OVC,12000,,,,,VFR,,,,,,,,,,,,METAR,56.0
PAGA 171856Z AUTO 00000KT 10SM CLR M18/M19 A2951 RMK AO2 SLP000 T11781194 FZRANO,PAGA,2021-01-17T18:56:00Z,64.73,-156.93,-17.8,-19.4,0,0,,10.0,29.509842,1000.0,,TRUE,TRUE,,,,TRUE,,,CLR,,,,,,,,VFR,,,,,,,,,,,,METAR,39.0
PAFM 171856Z AUTO 03015G21KT 10SM CLR M11/M16 A2956 RMK AO2 SLP019 T11111161 FZRANO,PAFM,2021-01-17T18:56:00Z,67.1,-157.85,-11.1,-16.1,30,15,21,10.0,29.56004,1001.9,,TRUE,TRUE,,,,TRUE,,,CLR,,,,,,,,VFR,,,,,,,,,,,,METAR,79.0
PAFE 171856Z AUTO VRB06KT 10SM FEW043 BKN055 BKN100 06/03 A3012 RMK AO2 PRESRR SLP213 T00560033 $,PAFE,2021-01-17T18:56:00Z,56.97,-133.92,5.6,3.3,0,6,,10.0,30.121063,1021.3,,TRUE,TRUE,TRUE,,,,,,FEW,4300,BKN,5500,BKN,10000,,,VFR,,,,,,,,,,,,METAR,1.0
PAEI 171856Z AUTO 00000KT 10SM BKN085 BKN140 M14/M17 A2949 RMK AO2 SLP003 T11451172 $,PAEI,2021-01-17T18:56:00Z,64.67,-147.1,-14.5,-17.2,0,0,,10.0,29.489174,1000.3,,TRUE,TRUE,TRUE,,,,,,BKN,8500,BKN,14000,,,,,VFR,,,,,,,,,,,,SPECI,166.0
PAED 171856Z 00000KT 10SM FEW070 BKN100 BKN120 00/M04 A2948 RMK AO2A SLP980 T00001044 $,PAED,2021-01-17T18:56:00Z,61.25,-149.83,0.0,-4.4,0,0,,10.0,29.480314,998.0,,,TRUE,TRUE,,,,,,FEW,7000,BKN,10000,BKN,12000,,,VFR,,,,,,,,,,,,METAR,54.0
PADL 171856Z 03007KT 2 1/2SM -SN BR OVC012 M01/M01 A2934 RMK AO2 VIS 1 1/2V4 SLP939 P0001 T10061011,PADL,2021-01-17T18:56:00Z,59.05,-158.5,-0.6,-1.1,30,7,,2.5,29.338583,993.9,,,TRUE,,,,,,-SN BR,OVC,1200,,,,,,,IFR,,,,,,0.01,,,,,,METAR,20.0
PADK 171856Z AUTO 24006KT 10SM CLR M09/M12 A3010 RMK AO2 SLP192 T10891122 FZRANO,PADK,2021-01-17T18:56:00Z,51.88,-176.65,-8.9,-12.2,240,6,,10.0,30.100393,1019.2,,TRUE,TRUE,,,,TRUE,,,CLR,,,,,,,,VFR,,,,,,,,,,,,METAR,3.0
PACM 171856Z AUTO 28017KT 9SM -SN OVC013 M12/M13 A2966 RMK AO2 SLP041 T11221133 FZRANO PNO $,PACM,2021-01-17T18:56:00Z,61.85,-165.57,-12.2,-13.3,280,17,,9.0,29.660433,1004.1,,TRUE,TRUE,TRUE,,,TRUE,,-SN,OVC,1300,,,,,,,MVFR,,,,,,,,,,,,METAR,3.0
PABV 171856Z AUTO 07003KT 10SM CLR M02/M04 A2950 RMK AO2 SLP995 T10221039 FZRANO,PABV,2021-01-17T18:56:00Z,61.42,-149.52,-2.2,-3.9,70,3,,10.0,29.500984,999.5,,TRUE,TRUE,,,,TRUE,,,CLR,,,,,,,,VFR,,,,,,,,,,,,METAR,21.0
PABL 171856Z AUTO 33010KT 9SM -SN OVC011 M13/M15 A2958 RMK AO2 SLP018 P0000 T11281150 FZRANO,PABL,2021-01-17T18:56:00Z,65.98,-161.15,-12.8,-15.0,330,10,,9.0,29.58071,1001.8,,TRUE,TRUE,,,,TRUE,,-SN,OVC,1100,,,,,,,MVFR,,,,,,0.005,,,,,,METAR,7.0
OTBH 171856Z 17005KT 9999 CLR 17/14 A2991 RMK AO2A SLP130 T01730142 $,OTBH,2021-01-17T18:56:00Z,25.12,51.32,17.3,14.2,170,5,,6.21,29.911417,1013.0,,,TRUE,TRUE,,,,,,CLR,,,,,,,,VFR,,,,,,,,,,,,METAR,40.0
OEPS 171856Z 07005KT 6000 HZ CLR 18/00 A3013 RMK AO2A SLP182 WND DATA ESTMD T01831003,OEPS,2021-01-17T18:56:00Z,24.07,47.58,18.3,-0.3,70,5,,3.73,30.129921,1018.2,,,TRUE,,,,,,HZ,CLR,,,,,,,,MVFR,,,,,,,,,,,,METAR,503.0
MTPP 171856Z 09008KT 040V130 9999 FEW028 SCT200 32/17 Q1012 A2989,MTPP,2021-01-17T18:56:00Z,18.57,-72.3,32.0,17.0,90,8,,6.21,29.88189,,,,,,,,,,,FEW,2800,SCT,20000,,,,,VFR,,,,,,,,,,,,METAR,36.0
KYKN 171856Z AUTO 30013KT 10SM OVC046 01/M03 A2989 RMK AO2 SLP149 T00111033 FZRANO,KYKN,2021-01-17T18:56:00Z,42.92,-97.37,1.1,-3.3,300,13,,10.0,29.890747,1014.9,,TRUE,TRUE,,,,TRUE,,,OVC,4600,,,,,,,VFR,,,,,,,,,,,,METAR,388.0
KY70 171856Z AUTO 00000KT 5SM -SN BKN013 BKN020 OVC033 01/M02 A2963 RMK AO2 T00061019,KY70,2021-01-17T18:56:00Z,42.93,-85.07,0.6,-1.9,0,0,,5.0,29.630905,,,TRUE,TRUE,,,,,,-SN,BKN,1300,BKN,2000,OVC,3300,,,MVFR,,,,,,,,,,,,METAR,247.0
KY50 171856Z AUTO 32007KT 7SM -SN OVC024 M01/M06 A2971 RMK AO2 UPB05E19SNB47 SLP068 P0000 T10111061 FZRANO $,KY50,2021-01-17T18:56:00Z,44.03,-89.3,-1.1,-6.1,320,7,,7.0,29.71063,1006.8,,TRUE,TRUE,TRUE,,,TRUE,,-SN,OVC,2400,,,,,,,MVFR,,,,,,0.005,,,,,,METAR,261.0
KXMR 171856Z AUTO 23006KT 10SM SCT200 15/07 A3000 RMK AO2 SLP162 T01530066 $,KXMR,2021-01-17T18:56:00Z,28.47,-80.57,15.3,6.6,230,6,,10.0,30.0,1016.2,,TRUE,TRUE,TRUE,,,,,,SCT,20000,,,,,,,VFR,,,,,,,,,,,,METAR,5.0
KWWD 171856Z AUTO 27013G18KT 10SM CLR 08/M01 A2974 RMK AO2 SLP074 T00781006 $,KWWD,2021-01-17T18:56:00Z,39.02,-74.92,7.8,-0.6,270,13,18,10.0,29.740158,1007.4,,TRUE,TRUE,TRUE,,,,,,CLR,,,,,,,,VFR,,,,,,,,,,,,METAR,4.0
KWVL 171856Z AUTO 24010KT 10SM BKN049 04/M03 A2920 RMK AO2 SLP916 T00391028,KWVL,2021-01-17T18:56:00Z,44.52,-69.67,3.9,-2.8,240,10,,10.0,29.199802,991.6,,TRUE,TRUE,,,,,,,BKN,4900,,,,,,,VFR,,,,,,,,,,,,METAR,87.0
KWRI 171856Z AUTO 26011G22KT 10SM BKN049 07/M03 A2966 RMK AO2 PK WND 26026/31 SLP044 T00681035 $,KWRI,2021-01-17T18:56:00Z,40.02,-74.58,6.8,-3.5,260,11,22,10.0,29.660433,1004.4,,TRUE,TRUE,TRUE,,,,,,BKN,4900,,,,,,,VFR,,,,,,,,,,,,METAR,35.0
KWRB 171856Z 26008KT 10SM BKN100 12/M01 A2995 RMK AO2A SLP146 T01181014,KWRB,2021-01-17T18:56:00Z,32.63,-83.58,11.8,-1.4,260,8,,10.0,29.949802,1014.6,,,TRUE,,,,,,,BKN,10000,,,,,,,VFR,,,,,,,,,,,,METAR,82.0
KWMC 171856Z AUTO 00000KT 10SM CLR 07/M01 A3037 RMK AO2 SLP294 T00671011 $,KWMC,2021-01-17T18:56:00Z,40.9,-117.8,6.7,-1.1,0,0,,10.0,30.369095,1029.4,,TRUE,TRUE,TRUE,,,,,,CLR,,,,,,,,VFR,,,,,,,,,,,,METAR,1311.0
KWJF 171856Z 00000KT 10SM CLR 16/M03 A3022 RMK AO2 SLP235 T01561033,KWJF,2021-01-17T18:56:00Z,34.73,-118.22,15.6,-3.3,0,0,,10.0,30.221457,1023.5,,,TRUE,,,,,,,CLR,,,,,,,,VFR,,,,,,,,,,,,METAR,712.0
KVPZ 171856Z AUTO 24010KT 5SM -SN OVC013 M01/M04 A2969 RMK AO2 SLP061 P0000 T10111039,KVPZ,2021-01-17T18:56:00Z,41.45,-87.0,-1.1,-3.9,240,10,,5.0,29.68996,1006.1,,TRUE,TRUE,,,,,,-SN,OVC,1300,,,,,,,MVFR,,,,,,0.005,,,,,,METAR,235.0
KVOK 171856Z 35006KT 10SM OVC027 M01/M04 A2970 RMK AO2A SLP072,KVOK,2021-01-17T18:56:00Z,43.93,-90.27,-1.0,-4.0,350,6,,10.0,29.698818,1007.2,,,TRUE,,,,,,,OVC,2700,,,,,,,MVFR,,,,,,,,,,,,METAR,278.0
KVIS 171856Z AUTO 00000KT 4SM HZ CLR 16/08 A3017 RMK AO2 SLP224 T01610078,KVIS,2021-01-17T18:56:00Z,36.32,-119.4,16.1,7.8,0,0,,4.0,30.171259,1022.4,,TRUE,TRUE,,,,,,HZ,CLR,,,,,,,,MVFR,,,,,,,,,,,,METAR,92.0
KVBT 171856Z AUTO 28011G19KT 10SM CLR 07/M03 A2996 RMK AO2 SLP155 T00721028 TSNO PNO $,KVBT,2021-01-17T18:56:00Z,36.35,-94.22,7.2,-2.8,280,11,19,10.0,29.958662,1015.5,,TRUE,TRUE,TRUE,,TRUE,,,,CLR,,,,,,,,VFR,,,,,,,,,,,,METAR,390.0
KVAD 171856Z AUTO 24008KT 10SM CLR 14/M02 A2998 RMK AO2 SLP155 T01371023 $,KVAD,2021-01-17T18:56:00Z,30.97,-83.2,13.7,-2.3,240,8,,10.0,29.97933,1015.5,,TRUE,TRUE,TRUE,,,,,,CLR,,,,,,,,VFR,,,,,,,,,,,,METAR,70.0
KUKI 171856Z AUTO 00000KT 10SM CLR 16/07 A3017 RMK AO2 SLP214 T01560072,KUKI,2021-01-17T18:56:00Z,39.12,-123.2,15.6,7.2,0,0,,10.0,30.171259,1021.4,,TRUE,TRUE,,,,,,,CLR,,,,,,,,VFR,,,,,,,,,,,,METAR,183.0
KUDG 171856Z AUTO 24009G17KT 10SM FEW046 08/M01 A2991 RMK AO2 SLP132 T00781011,KUDG,2021-01-17T18:56:00Z,34.45,-79.88,7.8,-1.1,240,9,17,10.0,29.911417,1013.2,,TRUE,TRUE,,,,,,,FEW,4600,,,,,,,VFR,,,,,,,,,,,,METAR,57.0
KUCP 171856Z AUTO 25010KT 10SM OVC020 02/M02 RMK AO2 SLPNO T00221017 PWINO FZRANO $,KUCP,2021-01-17T18:56:00Z,41.03,-80.42,2.2,-1.7,250,10,,10.0,,,,TRUE,TRUE,TRUE,,,TRUE,TRUE,,OVC,2000,,,,,,,MVFR,,,,,,,,,,,,METAR,313.0
KTVF 171856Z AUTO 35008KT 10SM OVC009 M06/M08 A2983 RMK AO2 CIG 008V013 SLP127 T10611078 FZRANO,KTVF,2021-01-17T18:56:00Z,48.07,-96.17,-6.1,-7.8,350,8,,10.0,29.828741,1012.7,,TRUE,TRUE,,,,TRUE,,,OVC,900,,,,,,,IFR,,,,,,,,,,,,METAR,339.0
KTTS 171856Z AUTO 23004KT 10SM BKN190 16/07 A3001 RMK AO2 SLP167 T01550065 $,KTTS,2021-01-17T18:56:00Z,28.58,-80.67,15.5,6.5,230,4,,10.0,30.008858,1016.7,,TRUE,TRUE,TRUE,,,,,,BKN,19000,,,,,,,VFR,,,,,,,,,,,,METAR,1.0
KTTF 171856Z AUTO 24010KT 10SM BKN015 BKN032 OVC040 02/01 A2965 RMK AO2 T00200010,KTTF,2021-01-17T18:56:00Z,41.93,-83.42,2.0,1.0,240,10,,10.0,29.648623,,,TRUE,TRUE,,,,,,,BKN,1500,BKN,3200,OVC,4000,,,MVFR,,,,,,,,,,,,METAR,186.0
KTPH 171856Z AUTO 01009KT 10SM CLR 12/M09 A3032 RMK AO2 SLP254 T01221094,KTPH,2021-01-17T18:56:00Z,38.05,-117.08,12.2,-9.4,10,9,,10.0,30.318897,1025.4,,TRUE,TRUE,,,,,,,CLR,,,,,,,,VFR,,,,,,,,,,,,METAR,1647.0
KTIK 171856Z AUTO 31019G26KT 10SM CLR 11/M07 A3005 RMK AO2 SLP186 T01141070 $,KTIK,2021-01-17T18:56:00Z,35.4,-97.38,11.4,-7.0,310,19,26,10.0,30.050198,1018.6,,TRUE,TRUE,TRUE,,,,,,CLR,,,,,,,,VFR,,,,,,,,,,,,METAR,387.0
KTDR 171856Z AUTO 30007KT 10SM CLR 14/01 A3004 RMK AO2 SLP176 T01350012 $,KTDR,2021-01-17T18:56:00Z,30.05,-85.52,13.5,1.2,300,7,,10.0,30.041338,1017.6,,TRUE,TRUE,TRUE,,,,,,CLR,,,,,,,,VFR,,,,,,,,,,,,METAR,4.0
KTBN 171856Z AUTO 26007KT 10SM BKN048 OVC075 03/M05 A2984 RMK AO2 SLP116 T00341048 $,KTBN,2021-01-17T18:56:00Z,37.73,-92.13,3.4,-4.8,260,7,,10.0,29.840551,1011.6,,TRUE,TRUE,TRUE,,,,,,BKN,4800,OVC,7500,,,,,VFR,,,,,,,,,,,,METAR,349.0
KSZL 171856Z 30010G18KT 10SM FEW060 04/M02 A2982 RMK AO2A SLP108 T00381022 $,KSZL,2021-01-17T18:56:00Z,38.73,-93.53,3.8,-2.2,300,10,18,10.0,29.819881,1010.8,,,TRUE,TRUE,,,,,,FEW,6000,,,,,,,VFR,,,,,,,,,,,,METAR,259.0
KSXT 171856Z AUTO VRB03KT 10SM CLR 10/03 A3039 RMK AO2 SLP283 T01000028,KSXT,2021-01-17T18:56:00Z,42.6,-123.37,10.0,2.8,0,3,,10.0,30.389763,1028.3,,TRUE,TRUE,,,,,,,CLR,,,,,,,,VFR,,,,,,,,,,,,METAR,1151.0
KSVN 171856Z AUTO 27010KT 10SM FEW200 12/M02 A2994 RMK AO2 SLP142 T01241023 $,KSVN,2021-01-17T18:56:00Z,32.02,-81.12,12.4,-2.3,270,10,,10.0,29.940945,1014.2,,TRUE,TRUE,TRUE,,,,,,FEW,20000,,,,,,,VFR,,,,,,,,,,,,METAR,13.0
KSUE 171856Z AUTO 34009KT 10SM BKN017 M01/M04 A2968 RMK AO2 SLP059 T10061044 FZRANO,KSUE,2021-01-17T18:56:00Z,44.85,-87.42,-0.6,-4.4,340,9,,10.0,29.681103,1005.9,,TRUE,TRUE,,,,TRUE,,,BKN,1700,,,,,,,MVFR,,,,,,,,,,,,METAR,215.0
KSSC 171856Z AUTO 25011G21KT 10SM BKN130 10/M03 A2991 RMK AO2 SLP131 T01011032 $,KSSC,2021-01-17T18:56:00Z,33.97,-80.47,10.1,-3.2,250,11,21,10.0,29.911417,1013.1,,TRUE,TRUE,TRUE,,,,,,BKN,13000,,,,,,,VFR,,,,,,,,,,,,METAR,71.0
KSRC 171856Z AUTO 28007KT 10SM CLR 11/M05 A2994 RMK AO2 SLP138 T01111050,KSRC,2021-01-17T18:56:00Z,35.22,-91.73,11.1,-5.0,280,7,,10.0,29.940945,1013.8,,TRUE,TRUE,,,,,,,CLR,,,,,,,,VFR,,,,,,,,,,,,METAR,80.0
KSQI 171856Z 33008KT 6SM -SN BKN012 OVC030 01/M02 A2972 RMK AO2 UPB16E27RAB27E35SNE02B35 SLP934 P0000 T00111022 FZRANO,KSQI,2021-01-17T18:56:00Z,41.75,-89.67,1.1,-2.2,330,8,,6.0,29.719488,993.4,,,TRUE,,,,TRUE,,-SN,BKN,1200,OVC,3000,,,,,MVFR,,,,,,0.005,,,,,,METAR,196.0
KSPD 171856Z AUTO 00000KT 07/M08 A3008 RMK AO1 SLP179 T00671083,KSPD,2021-01-17T18:56:00Z,37.28,-102.62,6.7,-8.3,0,0,,,30.079725,1017.9,,TRUE,TRUE,,,,,,,,,,,,,,,,,,,,,,,,,,,METAR,1340.0
KSOP 171856Z AUTO 21011G14KT 10SM CLR 09/M03 A2987 RMK AO2 SLP124 T00941033 PNO $,KSOP,2021-01-17T18:56:00Z,35.23,-79.4,9.4,-3.3,210,11,14,10.0,29.870079,1012.4,,TRUE,TRUE,TRUE,,,,,,CLR,,,,,,,,VFR,,,,,,,,,,,,METAR,135.0
KSMN 171856Z AUTO 00000KT 10SM UP FEW005 OVC045 M03/M05 A3023 RMK AO2 UPE1757B46SNB1757E44 SLP282 P0000 T10281050 FZRANO,KSMN,2021-01-17T18:56:00Z,45.12,-113.87,-2.8,-5.0,0,0,,10.0,30.230314,1028.2,,TRUE,TRUE,,,,TRUE,,UP,FEW,500,OVC,4500,,,,,VFR,,,,,,0.005,,,,,,METAR,1228.0
KSLG 171856Z AUTO 31011KT 10SM CLR 08/M03 A2996 RMK AO2 SLP152 T00831033 TSNO,KSLG,2021-01-17T18:56:00Z,36.2,-94.48,8.3,-3.3,310,11,,10.0,29.958662,1015.2,,TRUE,TRUE,,,TRUE,,,,CLR,,,,,,,,VFR,,,,,,,,,,,,METAR,361.0
KSLE 171856Z 15003KT 10SM BKN007 OVC018 09/07 A3049 RMK AO2 SLP326 T00940072,KSLE,2021-01-17T18:56:00Z,44.9,-123.0,9.4,7.2,150,3,,10.0,30.490158,1032.6,,,TRUE,,,,,,,BKN,700,OVC,1800,,,,,IFR,,,,,,,,,,,,METAR,63.0
KSKX 171856Z AUTO 25005KT 10SM CLR 04/M11 A3015 RMK AO2 SLP229 T00441106,KSKX,2021-01-17T18:56:00Z,36.45,-105.67,4.4,-10.6,250,5,,10.0,30.15059,1022.9,,TRUE,TRUE,,,,,,,CLR,,,,,,,,VFR,,,,,,,,,,,,METAR,2163.0
KSKF 171856Z AUTO 25006KT 10SM CLR 20/04 A3008 RMK AO2 SLP185 T01950044 $,KSKF,2021-01-17T18:56:00Z,29.38,-98.57,19.5,4.4,250,6,,10.0,30.079725,1018.5,,TRUE,TRUE,TRUE,,,,,,CLR,,,,,,,,VFR,,,,,,,,,,,,METAR,214.0
KSHV 171856Z 33009KT 10SM SCT120 BKN140 13/M06 A3007 RMK AO2 SLP180 T01331056 $,KSHV,2021-01-17T18:56:00Z,32.45,-93.83,13.3,-5.6,330,9,,10.0,30.070866,1018.0,,,TRUE,TRUE,,,,,,SCT,12000,BKN,14000,,,,,VFR,,,,,,,,,,,,METAR,70.0
KSGU 171856Z AUTO VRB03KT 10SM CLR 08/M06 A3026 RMK AO2 SLP244 T00831061,KSGU,2021-01-17T18:56:00Z,37.03,-113.52,8.3,-6.1,0,3,,10.0,30.259842,1024.4,,TRUE,TRUE,,,,,,,CLR,,,,,,,,VFR,,,,,,,,,,,,METAR,877.0
KSGT 171856Z AUTO 29007KT 10SM CLR 10/M04 A2997 RMK AO2 SLP149 T01001044 PNO $,KSGT,2021-01-17T18:56:00Z,34.6,-91.57,10.0,-4.4,290,7,,10.0,29.970472,1014.9,,TRUE,TRUE,TRUE,,,,,,CLR,,,,,,,,VFR,,,,,,,,,,,,METAR,67.0
KSGJ 171856Z 29012G16KT 10SM CLR 14/01 A3002 RMK AO2 SLP163 T01390011 $,KSGJ,2021-01-17T18:56:00Z,29.97,-81.33,13.9,1.1,290,12,16,10.0,30.02067,1016.3,,,TRUE,TRUE,,,,,,CLR,,,,,,,,VFR,,,,,,,,,,,,METAR,2.0
KSFZ 171856Z AUTO 27014G25KT 10SM BKN049 06/M04 A2946 RMK AO2 PK WND 27026/1842 SLP927 T00561044 PNO $,KSFZ,2021-01-17T18:56:00Z,41.92,-71.5,5.6,-4.4,270,14,25,10.0,29.459646,992.7,,TRUE,TRUE,TRUE,,,,,,BKN,4900,,,,,,,VFR,,,,,,,,,,,,METAR,129.0
KSFO 171856Z 13004KT 10SM FEW200 20/05 A3014 RMK AO2 SLP206 T02000050,KSFO,2021-01-17T18:56:00Z,37.62,-122.37,20.0,5.0,130,4,,10.0,30.138779,1020.6,,,TRUE,,,,,,,FEW,20000,,,,,,,VFR,,,,,,,,,,,,METAR,2.0
KSFM 171856Z AUTO 27020G27KT 10SM 04/M04 A2932 RMK AO2 PK WND 27027/1854 SLP933 T00441039 $,KSFM,2021-01-17T18:56:00Z,43.38,-70.72,4.4,-3.9,270,20,27,10.0,29.320866,993.3,,TRUE,TRUE,TRUE,,,,,,,,,,,,,,,,,,,,,,,,,,METAR,70.0
KSDY 171856Z AUTO 19005KT 10SM BKN085 BKN100 M01/M06 A2988 RMK AO2 SLP146 T10111061 FZRANO,KSDY,2021-01-17T18:56:00Z,47.7,-104.2,-1.1,-6.1,190,5,,10.0,29.878937,1014.6,,TRUE,TRUE,,,,TRUE,,,BKN,8500,BKN,10000,,,,,VFR,,,,,,,,,,,,METAR,600.0
KSBP 171856Z 00000KT 10SM CLR 25/02 A3004 RMK AO2 SLP171 T02500022,KSBP,2021-01-17T18:56:00Z,35.23,-120.63,25.0,2.2,0,0,,10.0,30.041338,1017.1,,,TRUE,,,,,,,CLR,,,,,,,,VFR,,,,,,,,,,,,METAR,52.0
KRYM 171856Z AUTO 00000KT 10SM OVC009 M06/M07 A2977 RMK AO2 SLP105 T10561074 $,KRYM,2021-01-17T18:56:00Z,46.08,-94.37,-5.6,-7.4,0,0,,10.0,29.769686,1010.5,,TRUE,TRUE,TRUE,,,,,,OVC,900,,,,,,,IFR,,,,,,,,,,,,METAR,344.0
KRUT 171856Z AUTO 25012G19KT 9SM -RA BKN024 BKN031 OVC046 02/M03 A2940 RMK AO2 PK WND 25029/1822 RAB56SNE56 SLP958 P0000 T00171028 FZRANO $,KRUT,2021-01-17T18:56:00Z,43.53,-72.95,1.7,-2.8,250,12,19,9.0,29.40059,995.8,,TRUE,TRUE,TRUE,,,TRUE,,-RA,BKN,2400,BKN,3100,OVC,4600,,,MVFR,,,,,,0.005,,,,,,METAR,238.0
KRND 171856Z AUTO 24010KT 10SM CLR 20/02 A3008 RMK AO2 SLP185 T01990018 $,KRND,2021-01-17T18:56:00Z,29.53,-98.27,19.9,1.8,240,10,,10.0,30.079725,1018.5,,TRUE,TRUE,TRUE,,,,,,CLR,,,,,,,,VFR,,,,,,,,,,,,METAR,224.0
KRKD 171856Z AUTO 26018G26KT 10SM SCT035 BKN045 04/M02 A2925 RMK AO2 PK WND 25028/1843 SLP903 T00441022,KRKD,2021-01-17T18:56:00Z,44.07,-69.1,4.4,-2.2,260,18,26,10.0,29.25,990.3,,TRUE,TRUE,,,,,,,SCT,3500,BKN,4500,,,,,VFR,,,,,,,,,,,,METAR,15.0
KRDR 171856Z 01012KT 10SM -SN SCT010 SCT014 OVC022 M05/M06 A2987 RMK AO2A CIG 014V022 SNB45 SLP135 P0000 T10491056 $,KRDR,2021-01-17T18:56:00Z,47.93,-97.4,-4.9,-5.6,10,12,,10.0,29.870079,1013.5,,,TRUE,TRUE,,,,,-SN,SCT,1000,SCT,1400,OVC,2200,,,MVFR,,,,,,0.005,,,,,,SPECI,276.0
KRDM 171856Z 29005KT 10SM CLR 10/02 A3039 RMK AO2 SLP299 T01000017,KRDM,2021-01-17T18:56:00Z,44.25,-121.15,10.0,1.7,290,5,,10.0,30.389763,1029.9,,,TRUE,,,,,,,CLR,,,,,,,,VFR,,,,,,,,,,,,METAR,930.0
KRCA 171856Z 31003KT 10SM FEW085 05/M12 A2990 RMK AO2A SLP151 T00501116 PWINO PNO $,KRCA,2021-01-17T18:56:00Z,44.15,-103.12,5.0,-11.6,310,3,,10.0,29.899607,1015.1,,,TRUE,TRUE,,,,TRUE,,FEW,8500,,,,,,,VFR,,,,,,,,,,,,METAR,993.0
KQVF 171856Z AUTO 10006KT 9000 /// /// CLR 26/23 A2981 RMK AO2 SLP097 WND DATA ESTMD T02620234,KQVF,2021-01-17T18:56:00Z,,,26.2,23.4,100,6,,5.59,29.811024,1009.7,,TRUE,TRUE,,,,,,,CLR,,,,,,,,VFR,,,,,,,,,,,,METAR,
KQRH 171856Z AUTO 00000KT 9000 HZ CLR 24/20 A2991 RMK AO2 SLP131 WND DATA ESTMD T02380202,KQRH,2021-01-17T18:56:00Z,,,23.8,20.2,0,0,,5.59,29.911417,1013.1,,TRUE,TRUE,,,,,,HZ,CLR,,,,,,,,VFR,,,,,,,,,,,,METAR,
KQHY 171856Z AUTO 24006KT 10SM CLR 13/01 A3003 RMK AO2 SLPNO T01270011,KQHY,2021-01-17T18:56:00Z,,,12.7,1.1,240,6,,10.0,30.029528,,,TRUE,TRUE,,,,,,,CLR,,,,,,,,VFR,,,,,,,,,,,,METAR,
KQD3 171856Z AUTO 00000KT 9999 CLR 24/21 A2993 RMK AO2 SLP120 WND DATA ESTMD T02410209,KQD3,2021-01-17T18:56:00Z,,,24.1,20.9,0,0,,6.21,29.929134,1012.0,,TRUE,TRUE,,,,,,,CLR,,,,,,,,VFR,,,,,,,,,,,,METAR,
KQBL 171856Z AUTO VRB05KT M /// /// CLR 13/01 A3006 RMK AO2 SLPNO WND DATA ESTMD T01300010 $,KQBL,2021-01-17T18:56:00Z,,,13.0,1.0,0,5,,,30.059055,,,TRUE,TRUE,TRUE,,,,,,CLR,,,,,,,,,,,,,,,,,,,,METAR,
KQAJ 171856Z 23005KT 9999 CLR 13/02 A2995 RMK AO2A SLP155 WND DATA ESTMD T01260015,KQAJ,2021-01-17T18:56:00Z,,,12.6,1.5,230,5,,6.21,29.949802,1015.5,,,TRUE,,,,,,,CLR,,,,,,,,VFR,,,,,,,,,,,,SPECI,
KPWT 171856Z AUTO 15004KT 10SM OVC008 08/07 A3047 RMK AO2 CIG 005V011 SLP326 T00780067 $,KPWT,2021-01-17T18:56:00Z,47.5,-122.77,7.8,6.7,150,4,,10.0,30.469488,1032.6,,TRUE,TRUE,TRUE,,,,,,OVC,800,,,,,,,IFR,,,,,,,,,,,,METAR,143.0
KPWG 171856Z AUTO 10SM CLR 16/M02 A3013 RMK AO2 SLP204 T01561022 $,KPWG,2021-01-17T18:56:00Z,31.48,-97.32,15.6,-2.2,,,,10.0,30.129921,1020.4,,TRUE,TRUE,TRUE,,,,,,CLR,,,,,,,,VFR,,,,,,,,,,,,METAR,178.0
KPVU 171856Z VRB04KT 10SM SCT200 01/M04 A3033 RMK AO2 SLP297 T00111039,KPVU,2021-01-17T18:56:00Z,40.22,-111.72,1.1,-3.9,0,4,,10.0,30.33071,1029.7,,,TRUE,,,,,,,SCT,20000,,,,,,,VFR,,,,,,,,,,,,METAR,1370.0
KPVC 171856Z AUTO 26022G27KT 10SM OVC055 07/M02 A2945 RMK AO2 PK WND 27027/1855 SLP970 T00671017 PNO $,KPVC,2021-01-17T18:56:00Z,42.07,-70.22,6.7,-1.7,260,22,27,10.0,29.450787,997.0,,TRUE,TRUE,TRUE,,,,,,OVC,5500,,,,,,,VFR,,,,,,,,,,,,METAR,1.0
KPTV 171856Z AUTO 26003KT 6SM HZ CLR 16/07 A3017 RMK AO2 SLP216 T01610072,KPTV,2021-01-17T18:56:00Z,36.02,-119.07,16.1,7.2,260,3,,6.0,30.171259,1021.6,,TRUE,TRUE,,,,,,HZ,CLR,,,,,,,,VFR,,,,,,,,,,,,METAR,132.0
KPTN 171856Z AUTO 29008KT 10SM CLR 16/00 A3008 RMK AO2 SLP185 T01560000 $,KPTN,2021-01-17T18:56:00Z,29.72,-91.33,15.6,0.0,290,8,,10.0,30.079725,1018.5,,TRUE,TRUE,TRUE,,,,,,CLR,,,,,,,,VFR,,,,,,,,,,,,METAR,2.0
KPSM 171856Z 24014G24KT 10SM SCT043 BKN050 05/M05 A2934 RMK AO2A PK WND 24029/30 SLP939 T00531051 RVRNO $,KPSM,2021-01-17T18:56:00Z,43.08,-70.82,5.3,-5.1,240,14,24,10.0,29.338583,993.9,,,TRUE,TRUE,,,,,,SCT,4300,BKN,5000,,,,,VFR,,,,,,,,,,,,METAR,34.0
KPRX 171856Z AUTO 29010G18KT 10SM BKN100 11/M04 A3008 RMK AO2 SLP206 T01061039,KPRX,2021-01-17T18:56:00Z,33.63,-95.45,10.6,-3.9,290,10,18,10.0,30.079725,1020.6,,TRUE,TRUE,,,,,,,BKN,10000,,,,,,,VFR,,,,,,,,,,,,METAR,165.0
KPQI 171856Z AUTO 27009KT 1 1/2SM -SN BR SCT007 BKN014 OVC021 01/M01 A2900 RMK AO2 SLP851 P0000 T00061006,KPQI,2021-01-17T18:56:00Z,46.68,-68.05,0.6,-0.6,270,9,,1.5,28.999016,985.1,,TRUE,TRUE,,,,,,-SN BR,SCT,700,BKN,1400,OVC,2100,,,IFR,,,,,,0.005,,,,,,METAR,154.0
KPOB 171856Z AUTO 23010KT 10SM OVC130 09/M04 A2987 RMK AO2 SLP119 T00901036 $,KPOB,2021-01-17T18:56:00Z,35.17,-79.02,9.0,-3.6,230,10,,10.0,29.870079,1011.9,,TRUE,TRUE,TRUE,,,,,,OVC,13000,,,,,,,VFR,,,,,,,,,,,,METAR,57.0
KPNM 171856Z AUTO 00000KT 10SM OVC005 M08/M09 A2978 RMK AO2,KPNM,2021-01-17T18:56:00Z,45.53,-93.6,-8.0,-9.0,0,0,,10.0,29.778543,,,TRUE,TRUE,,,,,,,OVC,500,,,,,,,IFR,,,,,,,,,,,,METAR,298.0
KPIB 171856Z AUTO VRB06KT 10SM 15/M01 A3001 RMK AO2 SLP164 T01501011,KPIB,2021-01-17T18:56:00Z,31.47,-89.33,15.0,-1.1,0,6,,10.0,30.008858,1016.4,,TRUE,TRUE,,,,,,,,,,,,,,,,,,,,,,,,,,,METAR,91.0
KPAM 171856Z AUTO 27009KT 10SM CLR 13/01 A3002 RMK AO2 SLP169 T01310008 $,KPAM,2021-01-17T18:56:00Z,30.07,-85.57,13.1,0.8,270,9,,10.0,30.02067,1016.9,,TRUE,TRUE,TRUE,,,,,,CLR,,,,,,,,VFR,,,,,,,,,,,,METAR,4.0
KP60 171856Z AUTO M04/M07 A3010 RMK AO1 SLP229 T10441072,KP60,2021-01-17T18:56:00Z,44.55,-110.42,-4.4,-7.2,,,,,30.100393,1022.9,,TRUE,TRUE,,,,,,,,,,,,,,,,,,,,,,,,,,,METAR,2377.0
KP53 171856Z AUTO 04008KT M01/M04 A2966 RMK AO1 SLP054 P0001 T10111044 $,KP53,2021-01-17T18:56:00Z,46.42,-86.65,-1.1,-4.4,40,8,,,29.660433,1005.4,,TRUE,TRUE,TRUE,,,,,,,,,,,,,,,,,,,,0.01,,,,,,METAR,185.0
KP28 171856Z AUTO 33014G27KT 09/M06 A3004 RMK AO1 PK WND 31028/1841 SLP177 T00941061 $,KP28,2021-01-17T18:56:00Z,37.28,-98.55,9.4,-6.1,330,14,27,,30.041338,1017.7,,TRUE,TRUE,TRUE,,,,,,,,,,,,,,,,,,,,,,,,,,METAR,469.0
KOZR 171856Z AUTO 21007KT 10SM CLR 13/M02 A2999 RMK AO2 SLP159 T01341018,KOZR,2021-01-17T18:56:00Z,31.28,-85.72,13.4,-1.8,210,7,,10.0,29.991142,1015.9,,TRUE,TRUE,,,,,,,CLR,,,,,,,,VFR,,,,,,,,,,,,METAR,90.0
KOWB 171856Z 26009KT 10SM BKN019 OVC049 03/00 A2980 RMK AO2 RAE09B28E39 SLP094 P0000 T00280000,KOWB,2021-01-17T18:56:00Z,37.72,-87.17,2.8,0.0,260,9,,10.0,29.799213,1009.4,,,TRUE,,,,,,,BKN,1900,OVC,4900,,,,,MVFR,,,,,,0.005,,,,,,METAR,121.0
KOTH 171856Z 36011KT 10SM CLR 11/09 A3047 RMK AO2 SLP316 T01110094,KOTH,2021-01-17T18:56:00Z,43.42,-124.25,11.1,9.4,360,11,,10.0,30.469488,1031.6,,,TRUE,,,,,,,CLR,,,,,,,,VFR,,,,,,,,,,,,METAR,3.0
KOTG 171856Z AUTO 32012KT 10SM BKN013 OVC042 M01/M03 A2980 RMK AO2 SLP115 T10111033 FZRANO,KOTG,2021-01-17T18:56:00Z,43.65,-95.57,-1.1,-3.3,320,12,,10.0,29.799213,1011.5,,TRUE,TRUE,,,,TRUE,,,BKN,1300,OVC,4200,,,,,MVFR,,,,,,,,,,,,METAR,478.0
KOLU 171856Z AUTO 30018KT 10SM CLR 04/M04 A2992 RMK AO2 SLP145 T00441039,KOLU,2021-01-17T18:56:00Z,41.45,-97.33,4.4,-3.9,300,18,,10.0,29.920275,1014.5,,TRUE,TRUE,,,,,,,CLR,,,,,,,,VFR,,,,,,,,,,,,METAR,438.0
KOKK 171856Z AUTO 28011KT 10SM OVC010 M01/M02 A2970 RMK AO2 UPB1757E32SNE1757 SLP067 P0000 T10061017 FZRANO,KOKK,2021-01-17T18:56:00Z,40.53,-86.07,-0.6,-1.7,280,11,,10.0,29.698818,1006.7,,TRUE,TRUE,,,,TRUE,,,OVC,1000,,,,,,,MVFR,,,,,,0.005,,,,,,METAR,251.0
KOFK 171856Z AUTO 32013G20KT 10SM CLR 04/M04 A2989 RMK AO2 SLP136 T00391039,KOFK,2021-01-17T18:56:00Z,41.98,-97.43,3.9,-3.9,320,13,20,10.0,29.890747,1013.6,,TRUE,TRUE,,,,,,,CLR,,,,,,,,VFR,,,,,,,,,,,,METAR,476.0
KOFF 171856Z AUTO 32014KT 10SM FEW024 02/M04 A2988 RMK AO2 SLP135 T00221037 $,KOFF,2021-01-17T18:56:00Z,41.12,-95.92,2.2,-3.7,320,14,,10.0,29.878937,1013.5,,TRUE,TRUE,TRUE,,,,,,FEW,2400,,,,,,,VFR,,,,,,,,,,,,METAR,308.0
KOCH 171856Z AUTO 32008G16KT 10SM CLR 16/M02 A3009 RMK AO2 SLP193 T01561022,KOCH,2021-01-17T18:56:00Z,31.57,-94.72,15.6,-2.2,320,8,16,10.0,30.088583,1019.3,,TRUE,TRUE,,,,,,,CLR,,,,,,,,VFR,,,,,,,,,,,,METAR,105.0
KOAJ 171856Z 17009KT 10SM CLR 10/M02 A2989 RMK AO2 SLP123 T01001022 $,KOAJ,2021-01-17T18:56:00Z,34.82,-77.62,10.0,-2.2,170,9,,10.0,29.890747,1012.3,,,TRUE,TRUE,,,,,,CLR,,,,,,,,VFR,,,,,,,,,,,,METAR,26.0
KNYG 171856Z AUTO 25009KT 10SM CLR 10/M03 A2977 RMK AO2 SLP083 T01001033,KNYG,2021-01-17T18:56:00Z,38.5,-77.3,10.0,-3.3,250,9,,10.0,29.769686,1008.3,,TRUE,TRUE,,,,,,,CLR,,,,,,,,VFR,,,,,,,,,,,,METAR,2.0
KNXP 171856Z AUTO 31003KT 10SM CLR 19/M07 A3024 RMK AO2 SLP990 T01941067,KNXP,2021-01-17T18:56:00Z,34.28,-116.13,19.4,-6.7,310,3,,10.0,30.239174,999.0,,TRUE,TRUE,,,,,,,CLR,,,,,,,,VFR,,,,,,,,,,,,METAR,610.0
KNUW 171856Z 24004KT 10SM SCT016 BKN025 OVC035 09/06 A3051 RMK AO2 SLP329 T00940061 $,KNUW,2021-01-17T18:56:00Z,48.35,-122.65,9.4,6.1,240,4,,10.0,30.510826,1032.9,,,TRUE,TRUE,,,,,,SCT,1600,BKN,2500,OVC,3500,,,MVFR,,,,,,,,,,,,SPECI,14.0
KNUC 171856Z 14010KT 10SM FEW250 24/03 A3004 RMK AO2 SLP168 T02440033 $,KNUC,2021-01-17T18:56:00Z,33.02,-118.57,24.4,3.3,140,10,,10.0,30.041338,1016.8,,,TRUE,TRUE,,,,,,FEW,25000,,,,,,,VFR,,,,,,,,,,,,METAR,52.0
KNTU 171856Z 24006KT 10SM FEW030 BKN150 BKN250 11/M03 A2981 RMK AO2 SLP098 T01061028,KNTU,2021-01-17T18:56:00Z,36.82,-76.02,10.6,-2.8,240,6,,10.0,29.811024,1009.8,,,TRUE,,,,,,,FEW,3000,BKN,15000,BKN,25000,,,VFR,,,,,,,,,,,,METAR,6.0
KNRS 171856Z AUTO 10SM CLR A3003 RMK AO2 SLP170 $,KNRS,2021-01-17T18:56:00Z,32.57,-117.12,,,,,,10.0,30.029528,1017.0,,TRUE,TRUE,TRUE,,,,,,CLR,,,,,,,,VFR,,,,,,,,,,,,METAR,15.0
KNQI 171856Z AUTO 11006KT 10SM OVC045 22/11 A3008 RMK AO2 SLP182 T02170106 $,KNQI,2021-01-17T18:56:00Z,27.5,-97.82,21.7,10.6,110,6,,10.0,30.079725,1018.2,,TRUE,TRUE,TRUE,,,,,,OVC,4500,,,,,,,VFR,,,,,,,,,,,,METAR,15.0
KNOG 171856Z AUTO 16005KT 10SM CLR A3010 RMK AO2 SLPNO PWINO FZRANO PNO $,KNOG,2021-01-17T18:56:00Z,27.9,-98.05,,,160,5,,10.0,30.100393,,,TRUE,TRUE,TRUE,,,TRUE,TRUE,,CLR,,,,,,,,VFR,,,,,,,,,,,,METAR,72.0
KNMM 171856Z 24007G15KT 10SM FEW075 SCT180 14/M04 A2995 RMK AO2 SLP153 T01391039,KNMM,2021-01-17T18:56:00Z,32.53,-88.53,13.9,-3.9,240,7,15,10.0,29.949802,1015.3,,,TRUE,,,,,,,FEW,7500,SCT,18000,,,,,VFR,,,,,,,,,,,,SPECI,94.0
KNLC 171856Z 01004KT 5SM HZ CLR 16/08 A3017 RMK AO2 SLP216 T01610078,KNLC,2021-01-17T18:56:00Z,36.32,-119.95,16.1,7.8,10,4,,5.0,30.171259,1021.6,,,TRUE,,,,,,HZ,CLR,,,,,,,,MVFR,,,,,,,,,,,,SPECI,69.0
KNID 171856Z AUTO 06004KT 10SM CLR 18/M03 A3019 RMK AO2 SLP221 T01831028 $,KNID,2021-01-17T18:56:00Z,35.68,-117.68,18.3,-2.8,60,4,,10.0,30.188976,1022.1,,TRUE,TRUE,TRUE,,,,,,CLR,,,,,,,,VFR,,,,,,,,,,,,METAR,682.0
KNGP 171856Z AUTO 07008KT 10SM CLR 20/09 A3010 RMK AO2 CIG 011 SLP191 T02000094,KNGP,2021-01-17T18:56:00Z,27.68,-97.28,20.0,9.4,70,8,,10.0,30.100393,1019.1,,TRUE,TRUE,,,,,,,CLR,,,,,,,,VFR,,,,,,,,,,,,METAR,5.0
KNFL 171856Z 00000KT 10SM FEW250 08/M01 A3037 RMK AO2 SLP240 T00831006,KNFL,2021-01-17T18:56:00Z,39.42,-118.7,8.3,-0.6,0,0,,10.0,30.369095,1024.0,,,TRUE,,,,,,,FEW,25000,,,,,,,VFR,,,,,,,,,,,,SPECI,1199.0
KNFE 171856Z AUTO VRB04KT 10SM CLR 09/M03 A2983 RMK AO2 SLP103 T00941028 $,KNFE,2021-01-17T18:56:00Z,36.7,-76.13,9.4,-2.8,0,4,,10.0,29.828741,1010.3,,TRUE,TRUE,TRUE,,,,,,CLR,,,,,,,,VFR,,,,,,,,,,,,METAR,4.0
KNDZ 171856Z AUTO 28006KT 10SM CLR 14/M01 A3002 RMK AO2 SLP154 T01441011 $,KNDZ,2021-01-17T18:56:00Z,30.7,-87.02,14.4,-1.1,280,6,,10.0,30.02067,1015.4,,TRUE,TRUE,TRUE,,,,,,CLR,,,,,,,,VFR,,,,,,,,,,,,METAR,51.0
KNCA 171856Z AUTO 20010KT 10SM CLR 10/M04 A2989 RMK AO2 SLP124 T01001044 $,KNCA,2021-01-17T18:56:00Z,34.72,-77.45,10.0,-4.4,200,10,,10.0,29.890747,1012.4,,TRUE,TRUE,TRUE,,,,,,CLR,,,,,,,,VFR,,,,,,,,,,,,SPECI,9.0
KMYR 171856Z 24011G19KT 10SM CLR 11/M02 A2992 RMK AO2 SLP131 T01061022,KMYR,2021-01-17T18:56:00Z,33.68,-78.92,10.6,-2.2,240,11,19,10.0,29.920275,1013.1,,,TRUE,,,,,,,CLR,,,,,,,,VFR,,,,,,,,,,,,METAR,7.0
KMXF 171856Z AUTO 27007KT 10SM FEW210 13/M01 A2997 RMK AO2 SLP152 T01251014 $,KMXF,2021-01-17T18:56:00Z,32.38,-86.37,12.5,-1.4,270,7,,10.0,29.970472,1015.2,,TRUE,TRUE,TRUE,,,,,,FEW,21000,,,,,,,VFR,,,,,,,,,,,,METAR,47.0
KMVN 171856Z AUTO VRB05KT 10SM BKN022 OVC027 02/M02 A2981 RMK AO2 SLP101 T00171022 FZRANO,KMVN,2021-01-17T18:56:00Z,38.32,-88.87,1.7,-2.2,0,5,,10.0,29.811024,1010.1,,TRUE,TRUE,,,,TRUE,,,BKN,2200,OVC,2700,,,,,MVFR,,,,,,,,,,,,METAR,145.0
KMUI 171856Z AUTO 29011KT 10SM OVC041 06/M04 A2967 RMK AO2 SLP053 T00571037,KMUI,2021-01-17T18:56:00Z,40.43,-76.57,5.7,-3.7,290,11,,10.0,29.66929,1005.3,,TRUE,TRUE,,,,,,,OVC,4100,,,,,,,VFR,,,,,,,,,,,,METAR,146.0
KMTW 171856Z AUTO 32007KT 10SM FEW022 OVC085 01/M05 A2969 RMK AO2 SLP062 T00061050 FZRANO,KMTW,2021-01-17T18:56:00Z,44.12,-87.67,0.6,-5.0,320,7,,10.0,29.68996,1006.2,,TRUE,TRUE,,,,TRUE,,,FEW,2200,OVC,8500,,,,,VFR,,,,,,,,,,,,METAR,197.0
KMTC 171856Z 23008KT 10SM BKN020 OVC026 03/01 A2962 RMK AO2A SLP040 T00320008 $,KMTC,2021-01-17T18:56:00Z,42.62,-82.83,3.2,0.8,230,8,,10.0,29.619095,1004.0,,,TRUE,TRUE,,,,,,BKN,2000,OVC,2600,,,,,MVFR,,,,,,,,,,,,METAR,177.0
KMRF 171856Z AUTO 26017KT 10SM CLR 16/M11 A3017 RMK AO2 SLP194 T01561106,KMRF,2021-01-17T18:56:00Z,30.37,-104.02,15.6,-10.6,260,17,,10.0,30.171259,1019.4,,TRUE,TRUE,,,,,,,CLR,,,,,,,,VFR,,,,,,,,,,,,METAR,1476.0
KMQY 171856Z 24015KT 10SM BKN045 09/M03 A2984 RMK AO2 SLP114 T00941028 PNO $,KMQY,2021-01-17T18:56:00Z,36.02,-86.52,9.4,-2.8,240,15,,10.0,29.840551,1011.4,,,TRUE,TRUE,,,,,,BKN,4500,,,,,,,VFR,,,,,,,,,,,,METAR,156.0
KMOB 171856Z 22006KT 10SM BKN220 12/M02 A3003 RMK AO2 SLP168 T01221022,KMOB,2021-01-17T18:56:00Z,30.68,-88.25,12.2,-2.2,220,6,,10.0,30.029528,1016.8,,,TRUE,,,,,,,BKN,22000,,,,,,,VFR,,,,,,,,,,,,METAR,67.0
KMNM 171856Z AUTO 01005KT 10SM BKN031 BKN075 M01/M06 A2968 RMK AO2 SLP060 T10061061 FZRANO $,KMNM,2021-01-17T18:56:00Z,45.12,-87.63,-0.6,-6.1,10,5,,10.0,29.681103,1006.0,,TRUE,TRUE,TRUE,,,TRUE,,,BKN,3100,BKN,7500,,,,,VFR,,,,,,,,,,,,METAR,188.0
KMMT 171856Z AUTO 26012G19KT 10SM FEW130 11/M03 A2990 RMK AO2 PK WND 24026/20 SLP129 T01061031 $,KMMT,2021-01-17T18:56:00Z,33.92,-80.8,10.6,-3.1,260,12,19,10.0,29.899607,1012.9,,TRUE,TRUE,TRUE,,,,,,FEW,13000,,,,,,,VFR,,,,,,,,,,,,METAR,76.0
KMML 171856Z AUTO 35011KT 10SM OVC014 M02/M04 A2981 RMK AO2 SLP113 T10171039 FZRANO,KMML,2021-01-17T18:56:00Z,44.45,-95.82,-1.7,-3.9,350,11,,10.0,29.811024,1011.3,,TRUE,TRUE,,,,TRUE,,,OVC,1400,,,,,,,MVFR,,,,,,,,,,,,METAR,358.0
KMKY 171856Z AUTO 16007KT 10SM SCT065 18/10 A3005 RMK AO2 SLP174 T01830100 TSNO $,KMKY,2021-01-17T18:56:00Z,26.0,-81.67,18.3,10.0,160,7,,10.0,30.050198,1017.4,,TRUE,TRUE,TRUE,,TRUE,,,,SCT,6500,,,,,,,VFR,,,,,,,,,,,,METAR,2.0
KMKT 171856Z AUTO 33006KT 10SM OVC006 M04/M04 A2979 RMK AO2 SLP105 T10391044 FZRANO,KMKT,2021-01-17T18:56:00Z,44.22,-93.92,-3.9,-4.4,330,6,,10.0,29.790354,1010.5,,TRUE,TRUE,,,,TRUE,,,OVC,600,,,,,,,IFR,,,,,,,,,,,,METAR,309.0
KMJX 171856Z AUTO 26016G21KT 10SM SCT047 08/M03 A2967 RMK AO2 SLP052 T00781028,KMJX,2021-01-17T18:56:00Z,39.93,-74.3,7.8,-2.8,260,16,21,10.0,29.66929,1005.2,,TRUE,TRUE,,,,,,,SCT,4700,,,,,,,VFR,,,,,,,,,,,,METAR,22.0
KMIB 171856Z AUTO 34008KT 10SM SCT012 M03/M07 A2985 RMK AO2 SLP137 T10331068,KMIB,2021-01-17T18:56:00Z,48.42,-101.35,-3.3,-6.8,340,8,,10.0,29.84941,1013.7,,TRUE,TRUE,,,,,,,SCT,1200,,,,,,,VFR,,,,,,,,,,,,METAR,505.0
KMHS 171856Z AUTO 00000KT 10SM CLR 06/01 A3035 RMK AO2 SLP304 T00610011,KMHS,2021-01-17T18:56:00Z,41.32,-122.32,6.1,1.1,0,0,,10.0,30.351377,1030.4,,TRUE,TRUE,,,,,,,CLR,,,,,,,,VFR,,,,,,,,,,,,METAR,1080.0
KMGE 171856Z 22011KT 10SM SCT045 SCT100 BKN250 10/M02 A2989 RMK AO2A SLP128 T00991024 $,KMGE,2021-01-17T18:56:00Z,33.92,-84.52,9.9,-2.4,220,11,,10.0,29.890747,1012.8,,,TRUE,TRUE,,,,,,SCT,4500,SCT,10000,BKN,25000,,,VFR,,,,,,,,,,,,METAR,309.0
KMEH 171856Z AUTO 00000KT 10SM OVC014 04/02 A3031 RMK AO2 SLP288 T00440017,KMEH,2021-01-17T18:56:00Z,45.52,-118.42,4.4,1.7,0,0,,10.0,30.31004,1028.8,,TRUE,TRUE,,,,,,,OVC,1400,,,,,,,MVFR,,,,,,,,,,,,METAR,1138.0
KMDT 171856Z 27014G19KT 10SM SCT039 OVC050 06/M02 A2969 RMK AO2 SLP056 BINOVC T00611022,KMDT,2021-01-17T18:56:00Z,40.2,-76.77,6.1,-2.2,270,14,19,10.0,29.68996,1005.6,,,TRUE,,,,,,,SCT,3900,OVC,5000,,,,,VFR,,,,,,,,,,,,METAR,91.0
KMCF 171856Z AUTO 18004KT 10SM BKN065 OVC200 15/08 A3003 RMK AO2 SLP172 T01540084 FZRANO VISNO RWY05 $,KMCF,2021-01-17T18:56:00Z,27.85,-82.52,15.4,8.4,180,4,,10.0,30.029528,1017.2,,TRUE,TRUE,TRUE,,,TRUE,,,BKN,6500,OVC,20000,,,,,VFR,,,,,,,,,,,,METAR,3.0
KMBL 171856Z AUTO 28009KT 10SM OVC020 01/M02 A2965 RMK AO2 RAE19UPB03E13B39E46SNB19E39 SLP046 P0000 T00061022 FZRANO,KMBL,2021-01-17T18:56:00Z,44.27,-86.25,0.6,-2.2,280,9,,10.0,29.648623,1004.6,,TRUE,TRUE,,,,TRUE,,,OVC,2000,,,,,,,MVFR,,,,,,0.005,,,,,,METAR,187.0
KM19 171856Z AUTO 29013KT 10SM CLR 09/M04 A2992 RMK AO2 SLP133 T00941044,KM19,2021-01-17T18:56:00Z,35.65,-91.17,9.4,-4.4,290,13,,10.0,29.920275,1013.3,,TRUE,TRUE,,,,,,,CLR,,,,,,,,VFR,,,,,,,,,,,,METAR,72.0
KLZU 171856Z 23009KT 10SM BKN043 09/M02 A2990 RMK AO2 SLP142 T00891022,KLZU,2021-01-17T18:56:00Z,33.98,-83.97,8.9,-2.2,230,9,,10.0,29.899607,1014.2,,,TRUE,,,,,,,BKN,4300,,,,,,,VFR,,,,,,,,,,,,METAR,316.0
KLTS 171856Z AUTO 34009KT 10SM CLR 13/ A3013 RMK AO2 SLP205 $,KLTS,2021-01-17T18:56:00Z,34.67,-99.27,13.0,,340,9,,10.0,30.129921,1020.5,,TRUE,TRUE,TRUE,,,,,,CLR,,,,,,,,VFR,,,,,,,,,,,,METAR,416.0
KLSF 171856Z AUTO 23006KT 10SM BKN200 12/M02 A2996 RMK AO2 SLP152 T01161022 $,KLSF,2021-01-17T18:56:00Z,32.32,-84.97,11.6,-2.2,230,6,,10.0,29.958662,1015.2,,TRUE,TRUE,TRUE,,,,,,BKN,20000,,,,,,,VFR,,,,,,,,,,,,METAR,68.0
KLRF 171856Z AUTO 27013G16KT 10SM CLR 11/M06 A2995 RMK AO2 SLP146 T01091065,KLRF,2021-01-17T18:56:00Z,34.92,-92.12,10.9,-6.5,270,13,16,10.0,29.949802,1014.6,,TRUE,TRUE,,,,,,,CLR,,,,,,,,VFR,,,,,,,,,,,,METAR,85.0
KLRD 171856Z VRB04KT 10SM FEW032 19/08 A3011 RMK AO2 SLP197 T01890083,KLRD,2021-01-17T18:56:00Z,27.55,-99.47,18.9,8.3,0,4,,10.0,30.109253,1019.7,,,TRUE,,,,,,,FEW,3200,,,,,,,VFR,,,,,,,,,,,,METAR,150.0
KLPC 171856Z AUTO 00000KT 10SM 22/04 A3005 RMK AO2 SLP175 T02220044 $,KLPC,2021-01-17T18:56:00Z,34.67,-120.47,22.2,4.4,0,0,,10.0,30.050198,1017.5,,TRUE,TRUE,TRUE,,,,,,,,,,,,,,,,,,,,,,,,,,METAR,26.0
KLNR 171856Z AUTO 33003KT 9SM OVC030 M01/M05 A2972 RMK AO2 SNB41E51 SLP068 P0000 T10061050,KLNR,2021-01-17T18:56:00Z,43.22,-90.18,-0.6,-5.0,330,3,,9.0,29.719488,1006.8,,TRUE,TRUE,,,,,,,OVC,3000,,,,,,,MVFR,,,,,,0.005,,,,,,METAR,218.0
KLHW 171856Z AUTO 27009KT 10SM CLR 13/M02 A2995 RMK AO2 SLP145 T01291018 $,KLHW,2021-01-17T18:56:00Z,31.88,-81.57,12.9,-1.8,270,9,,10.0,29.949802,1014.5,,TRUE,TRUE,TRUE,,,,,,CLR,,,,,,,,VFR,,,,,,,,,,,,METAR,14.0
KLGD 171856Z AUTO VRB03KT 10SM OVC027 05/02 A3035 RMK AO2 RAE14 SLP293 P0000 T00500017,KLGD,2021-01-17T18:56:00Z,45.28,-118.0,5.0,1.7,0,3,,10.0,30.351377,1029.3,,TRUE,TRUE,,,,,,,OVC,2700,,,,,,,MVFR,,,,,,0.005,,,,,,METAR,827.0
KLFI 171856Z AUTO 25009G17KT 10SM OVC150 09/M01 A2982 RMK AO2 SLP105 T00891007 $,KLFI,2021-01-17T18:56:00Z,37.08,-76.33,8.9,-0.7,250,9,17,10.0,29.819881,1010.5,,TRUE,TRUE,TRUE,,,,,,OVC,15000,,,,,,,VFR,,,,,,,,,,,,METAR,2.0
KLEW 171856Z AUTO 25017G23KT 10SM FEW055 04/M03 A2926 RMK AO2 SLP915 T00391028,KLEW,2021-01-17T18:56:00Z,44.03,-70.28,3.9,-2.8,250,17,23,10.0,29.258858,991.5,,TRUE,TRUE,,,,,,,FEW,5500,,,,,,,VFR,,,,,,,,,,,,METAR,81.0
KLCI 171856Z AUTO 25017G25KT 10SM -RA OVC035 03/M03 A2933 RMK AO2 PK WND 24027/1840 RAB52 SLP936 P0000 T00281033,KLCI,2021-01-17T18:56:00Z,43.57,-71.42,2.8,-3.3,250,17,25,10.0,29.329725,993.6,,TRUE,TRUE,,,,,,-RA,OVC,3500,,,,,,,VFR,,,,,,0.005,,,,,,METAR,166.0
KLBL 171856Z AUTO 32012KT 10SM CLR 09/M11 A3009 RMK AO2 SLP194 T00941106,KLBL,2021-01-17T18:56:00Z,37.03,-100.97,9.4,-10.6,320,12,,10.0,30.088583,1019.4,,TRUE,TRUE,,,,,,,CLR,,,,,,,,VFR,,,,,,,,,,,,METAR,877.0
KLAS 171856Z 04003KT 10SM FEW250 16/M06 A3020 RMK AO2 SLP222 T01611056 $,KLAS,2021-01-17T18:56:00Z,36.07,-115.17,16.1,-5.6,40,3,,10.0,30.200787,1022.2,,,TRUE,TRUE,,,,,,FEW,25000,,,,,,,VFR,,,,,,,,,,,,METAR,662.0
KKLS 171856Z AUTO 17004KT 10SM OVC010 08/07 A3052 RMK AO2 SLP338 T00830067,KKLS,2021-01-17T18:56:00Z,46.12,-122.9,8.3,6.7,170,4,,10.0,30.519686,1033.8,,TRUE,TRUE,,,,,,,OVC,1000,,,,,,,MVFR,,,,,,,,,,,,METAR,4.0
KJXN 171856Z 22006KT 3SM -SN BR FEW012 SCT024 OVC030 01/M01 A2964 RMK AO2 SLP045 P0000 T00111011,KJXN,2021-01-17T18:56:00Z,42.27,-84.47,1.1,-1.1,220,6,,3.0,29.639763,1004.5,,,TRUE,,,,,,-SN BR,FEW,1200,SCT,2400,OVC,3000,,,MVFR,,,,,,0.005,,,,,,METAR,303.0
KJRB 171856Z AUTO 27007G17KT 210V320 10SM OVC045 07/M03 A2963 RMK AO2 SLP035 T00671028,KJRB,2021-01-17T18:56:00Z,40.7,-74.02,6.7,-2.8,270,7,17,10.0,29.630905,1003.5,,TRUE,TRUE,,,,,,,OVC,4500,,,,,,,VFR,,,,,,,,,,,,METAR,2.0
KJMS 171856Z AUTO 34009KT 10SM OVC012 M02/M06 A2984 RMK AO2 SLP124 T10171061,KJMS,2021-01-17T18:56:00Z,46.93,-98.67,-1.7,-6.1,340,9,,10.0,29.840551,1012.4,,TRUE,TRUE,,,,,,,OVC,1200,,,,,,,MVFR,,,,,,,,,,,,METAR,455.0
KJAX 171856Z 27011KT 10SM FEW200 BKN250 13/M01 A3000 RMK AO2 SLP158 T01331006,KJAX,2021-01-17T18:56:00Z,30.5,-81.68,13.3,-0.6,270,11,,10.0,30.0,1015.8,,,TRUE,,,,,,,FEW,20000,BKN,25000,,,,,VFR,,,,,,,,,,,,METAR,8.0
KJAC 171856Z 12003KT 9SM SCT035 OVC048 M03/M07 A3014 RMK AO2 SLP264 T10281067,KJAC,2021-01-17T18:56:00Z,43.62,-110.73,-2.8,-6.7,120,3,,9.0,30.138779,1026.4,,,TRUE,,,,,,,SCT,3500,OVC,4800,,,,,VFR,,,,,,,,,,,,METAR,1967.0
KIWD 171856Z AUTO 29004KT 10SM OVC011 M05/M07 A2972 RMK AO2 SNB18E31 SLP083 P0000 T10501067 FZRANO,KIWD,2021-01-17T18:56:00Z,46.52,-90.12,-5.0,-6.7,290,4,,10.0,29.719488,1008.3,,TRUE,TRUE,,,,TRUE,,,OVC,1100,,,,,,,MVFR,,,,,,0.005,,,,,,METAR,373.0
KITH 171856Z 25012KT 10SM OVC031 02/M03 A2956 RMK AO2 SLP018 T00221028,KITH,2021-01-17T18:56:00Z,42.48,-76.45,2.2,-2.8,250,12,,10.0,29.56004,1001.8,,,TRUE,,,,,,,OVC,3100,,,,,,,VFR,,,,,,,,,,,,METAR,338.0
KISP 171856Z 27015G23KT 10SM SCT046 SCT200 07/M04 A2960 RMK AO2 PK WND 26026/1829 SLP024 T00671039,KISP,2021-01-17T18:56:00Z,40.8,-73.1,6.7,-3.9,270,15,23,10.0,29.601377,1002.4,,,TRUE,,,,,,,SCT,4600,SCT,20000,,,,,VFR,,,,,,,,,,,,METAR,25.0
KISO 171856Z 23008KT 10SM CLR 11/M03 A2988,KISO,2021-01-17T18:56:00Z,35.32,-77.62,11.0,-3.0,230,8,,10.0,29.878937,,,,,,,,,,,CLR,,,,,,,,VFR,,,,,,,,,,,,METAR,27.0
KISM 171856Z 15004KT 10SM CLR 14/09 A3003 RMK AO2 SLP170 T01440089 PNO $,KISM,2021-01-17T18:56:00Z,28.28,-81.43,14.4,8.9,150,4,,10.0,30.029528,1017.0,,,TRUE,TRUE,,,,,,CLR,,,,,,,,VFR,,,,,,,,,,,,METAR,25.0
KINW 171856Z AUTO 00000KT 10SM CLR 07/M11 A3026 RMK AO2 SLP254 T00671111 TSNO,KINW,2021-01-17T18:56:00Z,35.03,-110.72,6.7,-11.1,0,0,,10.0,30.259842,1025.4,,TRUE,TRUE,,,TRUE,,,,CLR,,,,,,,,VFR,,,,,,,,,,,,METAR,1492.0
KILE 171856Z AUTO 03003KT 10SM CLR 16/M02 A3012 RMK AO2 SLP198 T01611017,KILE,2021-01-17T18:56:00Z,31.08,-97.68,16.1,-1.7,30,3,,10.0,30.121063,1019.8,,TRUE,TRUE,,,,,,,CLR,,,,,,,,VFR,,,,,,,,,,,,METAR,256.0
KIAB 171856Z AUTO 34020G27KT 10SM CLR 09/M07 A2999 RMK AO2 PK WND 34027/48 SLP165 T00861068 $,KIAB,2021-01-17T18:56:00Z,37.62,-97.27,8.6,-6.8,340,20,27,10.0,29.991142,1016.5,,TRUE,TRUE,TRUE,,,,,,CLR,,,,,,,,VFR,,,,,,,,,,,,METAR,413.0
KHYS 171856Z AUTO 32013KT 10SM CLR 08/M06 A3003 RMK AO2 SLP177 T00831061,KHYS,2021-01-17T18:56:00Z,38.85,-99.27,8.3,-6.1,320,13,,10.0,30.029528,1017.7,,TRUE,TRUE,,,,,,,CLR,,,,,,,,VFR,,,,,,,,,,,,METAR,607.0
KHYI 171856Z VRB06KT 10SM CLR 21/M03 A3010 RMK AO2 SLP189 T02111033,KHYI,2021-01-17T18:56:00Z,29.88,-97.87,21.1,-3.3,0,6,,10.0,30.100393,1018.9,,,TRUE,,,,,,,CLR,,,,,,,,VFR,,,,,,,,,,,,METAR,180.0
KHYA 171856Z 24022G29KT 10SM CLR 07/M02 A2945 RMK AO2 PK WND 23030/1814 SLP972 T00671022,KHYA,2021-01-17T18:56:00Z,41.67,-70.27,6.7,-2.2,240,22,29,10.0,29.450787,997.2,,,TRUE,,,,,,,CLR,,,,,,,,VFR,,,,,,,,,,,,METAR,11.0
KHWV 171856Z AUTO 25019G24KT 10SM SCT050 07/M04 A2960 RMK AO2 PK WND 25027/1802 SLP024 T00721044,KHWV,2021-01-17T18:56:00Z,40.82,-72.87,7.2,-4.4,250,19,24,10.0,29.601377,1002.4,,TRUE,TRUE,,,,,,,SCT,5000,,,,,,,VFR,,,,,,,,,,,,METAR,20.0
KHST 171856Z AUTO 24005KT 10SM OVC060 20/04 A3003 RMK AO2 SLP172 T01990036,KHST,2021-01-17T18:56:00Z,25.48,-80.37,19.9,3.6,240,5,,10.0,30.029528,1017.2,,TRUE,TRUE,,,,,,,OVC,6000,,,,,,,VFR,,,,,,,,,,,,METAR,1.0
KHRT 171856Z AUTO 23007KT 10SM CLR 14/M00 A3001 RMK AO2 SLP164 T01431002 $,KHRT,2021-01-17T18:56:00Z,30.42,-86.68,14.3,-0.2,230,7,,10.0,30.008858,1016.4,,TRUE,TRUE,TRUE,,,,,,CLR,,,,,,,,VFR,,,,,,,,,,,,METAR,10.0
KHPN 171856Z 27007KT 10SM BKN047 06/M05 A2958 RMK AO2 SLP023 T00561050,KHPN,2021-01-17T18:56:00Z,41.07,-73.7,5.6,-5.0,270,7,,10.0,29.58071,1002.3,,,TRUE,,,,,,,BKN,4700,,,,,,,VFR,,,,,,,,,,,,METAR,113.0
KHOP 171856Z AUTO 25019G22KT 10SM FEW046 SCT060 06/M03 A2980 RMK AO2 SLP096 T00621032,KHOP,2021-01-17T18:56:00Z,36.67,-87.5,6.2,-3.2,250,19,22,10.0,29.799213,1009.6,,TRUE,TRUE,,,,,,,FEW,4600,SCT,6000,,,,,VFR,,,,,,,,,,,,METAR,170.0
KHND 171856Z 00000KT 10SM CLR 15/M06 A3023 RMK AO2 SLP251 T01501056,KHND,2021-01-17T18:56:00Z,35.98,-115.13,15.0,-5.6,0,0,,10.0,30.230314,1025.1,,,TRUE,,,,,,,CLR,,,,,,,,VFR,,,,,,,,,,,,METAR,740.0
KHNB 171856Z AUTO 26012KT 10SM -RA SCT020 OVC055 02/M01 A2978 RMK AO2 UPB05E13B34E47 SLP090 P0000 T00171011 FZRANO,KHNB,2021-01-17T18:56:00Z,38.25,-86.95,1.7,-1.1,260,12,,10.0,29.778543,1009.0,,TRUE,TRUE,,,,TRUE,,-RA,SCT,2000,OVC,5500,,,,,VFR,,,,,,0.005,,,,,,METAR,159.0
KHFF 171856Z AUTO 26007KT 10SM FEW047 BKN140 08/M03 A2988 RMK AO2 SLP136 T00821029 $,KHFF,2021-01-17T18:56:00Z,35.03,-79.5,8.2,-2.9,260,7,,10.0,29.878937,1013.6,,TRUE,TRUE,TRUE,,,,,,FEW,4700,BKN,14000,,,,,VFR,,,,,,,,,,,,METAR,100.0
KHEZ 171856Z AUTO 27011KT 10SM CLR 15/M02 A3002 RMK AO2 SLP168 T01501022,KHEZ,2021-01-17T18:56:00Z,31.62,-91.3,15.0,-2.2,270,11,,10.0,30.02067,1016.8,,TRUE,TRUE,,,,,,,CLR,,,,,,,,VFR,,,,,,,,,,,,METAR,82.0
KHEF 171856Z 26008KT 10SM BKN046 BKN055 08/M01 A2976 RMK AO2 SLP084 T00831011,KHEF,2021-01-17T18:56:00Z,38.72,-77.52,8.3,-1.1,260,8,,10.0,29.760826,1008.4,,,TRUE,,,,,,,BKN,4600,BKN,5500,,,,,VFR,,,,,,,,,,,,METAR,53.0
KHDN 171856Z AUTO 05003KT 10SM BKN070 OVC095 00/M08 A3019 RMK AO2 SLP255 T00001078 FZRANO,KHDN,2021-01-17T18:56:00Z,40.48,-107.22,0.0,-7.8,50,3,,10.0,30.188976,1025.5,,TRUE,TRUE,,,,TRUE,,,BKN,7000,OVC,9500,,,,,VFR,,,,,,,,,,,,METAR,2012.0
KGXY 171856Z AUTO 12006KT 10SM OVC090 04/M07 A3000 RMK AO2 SLP191 T00391067,KGXY,2021-01-17T18:56:00Z,40.43,-104.62,3.9,-6.7,120,6,,10.0,30.0,1019.1,,TRUE,TRUE,,,,,,,OVC,9000,,,,,,,VFR,,,,,,,,,,,,METAR,1420.0
KGVQ 171856Z AUTO 28013G20KT 10SM SCT021 BKN028 OVC034 02/M01 A2955 RMK AO2 SLP014 T00221011 FZRANO,KGVQ,2021-01-17T18:56:00Z,43.03,-78.17,2.2,-1.1,280,13,20,10.0,29.551182,1001.4,,TRUE,TRUE,,,,TRUE,,,SCT,2100,BKN,2800,OVC,3400,,,MVFR,,,,,,,,,,,,METAR,279.0
KGUC 171856Z AUTO 25013KT 10SM CLR 03/M12 A3016 RMK AO2 SLP246 T00331122,KGUC,2021-01-17T18:56:00Z,38.52,-106.93,3.3,-12.2,250,13,,10.0,30.159449,1024.6,,TRUE,TRUE,,,,,,,CLR,,,,,,,,VFR,,,,,,,,,,,,METAR,2337.0
KGTU 171856Z AUTO 33010KT 10SM CLR 17/M05 A3013 RMK AO2 SLP202 T01721050,KGTU,2021-01-17T18:56:00Z,30.68,-97.68,17.2,-5.0,330,10,,10.0,30.129921,1020.2,,TRUE,TRUE,,,,,,,CLR,,,,,,,,VFR,,,,,,,,,,,,METAR,232.0
KGTR 171856Z 23013G19KT 10SM FEW085 13/M02 A2993 RMK AO2 SLP142 T01331022,KGTR,2021-01-17T18:56:00Z,33.45,-88.58,13.3,-2.2,230,13,19,10.0,29.929134,1014.2,,,TRUE,,,,,,,FEW,8500,,,,,,,VFR,,,,,,,,,,,,METAR,80.0
KGTB 171856Z AUTO 28009KT 10SM OVC015 M01/M04 A2947 RMK AO2 CIG 013 RWY03 SLP987 T10111038,KGTB,2021-01-17T18:56:00Z,44.07,-75.72,-1.1,-3.8,280,9,,10.0,29.471457,998.7,,TRUE,TRUE,,,,,,,OVC,1500,,,,,,,MVFR,,,,,,,,,,,,SPECI,206.0
KGSB 171856Z AUTO 20009KT 10SM CLR 10/M05 A2985 RMK AO2 SLP112 T01001048 $,KGSB,2021-01-17T18:56:00Z,35.33,-77.93,10.0,-4.8,200,9,,10.0,29.84941,1011.2,,TRUE,TRUE,TRUE,,,,,,CLR,,,,,,,,VFR,,,,,,,,,,,,METAR,33.0
KGRD 171856Z AUTO 25009KT 10SM BKN049 09/M03 A2991 RMK AO2 SLP129 T00941028,KGRD,2021-01-17T18:56:00Z,34.25,-82.15,9.4,-2.8,250,9,,10.0,29.911417,1012.9,,TRUE,TRUE,,,,,,,BKN,4900,,,,,,,VFR,,,,,,,,,,,,METAR,188.0
KGPZ 171856Z AUTO 28005KT 8SM -SN OVC004 M08/M09 A2977 RMK AO2 SNE09B42 SLP110 P0000 T10781094 FZRANO,KGPZ,2021-01-17T18:56:00Z,47.22,-93.52,-7.8,-9.4,280,5,,8.0,29.769686,1011.0,,TRUE,TRUE,,,,TRUE,,-SN,OVC,400,,,,,,,LIFR,,,,,,0.005,,,,,,METAR,410.0
KGNR 171856Z AUTO 29008G15KT 200V330 M01/M05 A2909 RMK AO1 SLP863 T10061050,KGNR,2021-01-17T18:56:00Z,45.47,-69.55,-0.6,-5.0,290,8,15,,29.090551,986.3,,TRUE,TRUE,,,,,,,,,,,,,,,,,,,,,,,,,,,METAR,426.0
KGNA 171856Z AUTO VRB03KT M04/M10 A2975 RMK AO1 SLP091 T10391100,KGNA,2021-01-17T18:56:00Z,47.75,-90.35,-3.9,-10.0,0,3,,,29.749016,1009.1,,TRUE,TRUE,,,,,,,,,,,,,,,,,,,,,,,,,,,METAR,186.0
KGDV 171856Z AUTO 16007KT 10SM BKN070 OVC080 00/M07 A2986 RMK AO2 SLP138 T00001072 FZRANO,KGDV,2021-01-17T18:56:00Z,47.13,-104.8,0.0,-7.2,160,7,,10.0,29.861221,1013.8,,TRUE,TRUE,,,,TRUE,,,BKN,7000,OVC,8000,,,,,VFR,,,,,,,,,,,,METAR,749.0
KGBD 171856Z AUTO 33015G21KT 10SM CLR 08/M06 A3003 RMK AO2 SLP178 T00831056,KGBD,2021-01-17T18:56:00Z,38.35,-98.87,8.3,-5.6,330,15,21,10.0,30.029528,1017.8,,TRUE,TRUE,,,,,,,CLR,,,,,,,,VFR,,,,,,,,,,,,METAR,573.0
KGAI 171856Z AUTO 26011KT 10SM FEW047 07/M03 A2974 RMK AO2 SLP087 T00721028,KGAI,2021-01-17T18:56:00Z,39.17,-77.17,7.2,-2.8,260,11,,10.0,29.740158,1008.7,,TRUE,TRUE,,,,,,,FEW,4700,,,,,,,VFR,,,,,,,,,,,,METAR,151.0
KGAD 171856Z AUTO 22008G15KT 10SM CLR 11/M02 A2990 RMK AO2 SLP131 T01111017,KGAD,2021-01-17T18:56:00Z,33.97,-86.08,11.1,-1.7,220,8,15,10.0,29.899607,1013.1,,TRUE,TRUE,,,,,,,CLR,,,,,,,,VFR,,,,,,,,,,,,METAR,169.0
KFSI 171856Z AUTO 32009KT 10SM OVC090 11/M05 A3011 RMK AO2 SLP195 T01081052 $,KFSI,2021-01-17T18:56:00Z,34.65,-98.4,10.8,-5.2,320,9,,10.0,30.109253,1019.5,,TRUE,TRUE,TRUE,,,,,,OVC,9000,,,,,,,VFR,,,,,,,,,,,,METAR,360.0
KFSD 171856Z 30014KT 10SM BKN042 01/M03 A2983 RMK AO2 SLP119 P0000 T00061033 $,KFSD,2021-01-17T18:56:00Z,43.58,-96.75,0.6,-3.3,300,14,,10.0,29.828741,1011.9,,,TRUE,TRUE,,,,,,BKN,4200,,,,,,,VFR,,,,,,0.005,,,,,,METAR,433.0
KFRI 171856Z AUTO 30014KT 10SM CLR 08/M05 A2994 RMK AO2 SLP145 T00811050,KFRI,2021-01-17T18:56:00Z,39.05,-96.77,8.1,-5.0,300,14,,10.0,29.940945,1014.5,,TRUE,TRUE,,,,,,,CLR,,,,,,,,VFR,,,,,,,,,,,,METAR,232.0
KFOD 171856Z AUTO 32009KT 10SM OVC014 M02/M05 A2981 RMK AO2 SLP139 T10171050 FZRANO,KFOD,2021-01-17T18:56:00Z,42.53,-94.17,-1.7,-5.0,320,9,,10.0,29.811024,1013.9,,TRUE,TRUE,,,,TRUE,,,OVC,1400,,,,,,,MVFR,,,,,,,,,,,,METAR,347.0
KFNL 171856Z 17005KT 10SM SCT100 04/M06 A2999 RMK AO2 SLP165 T00441061,KFNL,2021-01-17T18:56:00Z,40.45,-105.02,4.4,-6.1,170,5,,10.0,29.991142,1016.5,,,TRUE,,,,,,,SCT,10000,,,,,,,VFR,,,,,,,,,,,,METAR,1529.0
KFLP 171856Z AUTO 28014G22KT 10SM BKN070 OVC100 09/M04 A2990 RMK AO2 SLP128 T00941044,KFLP,2021-01-17T18:56:00Z,36.28,-92.58,9.4,-4.4,280,14,22,10.0,29.899607,1012.8,,TRUE,TRUE,,,,,,,BKN,7000,OVC,10000,,,,,VFR,,,,,,,,,,,,METAR,215.0
KFKL 171856Z AUTO 23005KT 9SM -SN BKN017 BKN025 OVC030 01/M01 A2963 RMK AO2 RAE32SNB32 SLP051 P0000 T00061011 FZRANO,KFKL,2021-01-17T18:56:00Z,41.37,-79.87,0.6,-1.1,230,5,,9.0,29.630905,1005.1,,TRUE,TRUE,,,,TRUE,,-SN,BKN,1700,BKN,2500,OVC,3000,,,MVFR,,,,,,0.005,,,,,,METAR,468.0
KFFO 171856Z 23008KT 1SM R23R/P6000FT -SN BR BKN005 OVC015 01/M01 A2970 RMK AO2A SLP067 P0000 T00081010,KFFO,2021-01-17T18:56:00Z,39.83,-84.03,0.8,-1.0,230,8,,1.0,29.698818,1006.7,,,TRUE,,,,,,-SN BR,BKN,500,OVC,1500,,,,,IFR,,,,,,0.005,,,,,,METAR,250.0
KFCI 171856Z AUTO 24008KT 10SM CLR 09/M03 A2981 RMK AO2 SLP108 T00891028 PNO $,KFCI,2021-01-17T18:56:00Z,37.4,-77.52,8.9,-2.8,240,8,,10.0,29.811024,1010.8,,TRUE,TRUE,TRUE,,,,,,CLR,,,,,,,,VFR,,,,,,,,,,,,METAR,63.0
KFBG 171856Z AUTO 25007KT 10SM SCT140 09/M04 A2986 RMK AO2 SLP116 T00901039,KFBG,2021-01-17T18:56:00Z,35.12,-78.92,9.0,-3.9,250,7,,10.0,29.861221,1011.6,,TRUE,TRUE,,,,,,,SCT,14000,,,,,,,VFR,,,,,,,,,,,,METAR,69.0
KFAM 171856Z AUTO 25012KT 10SM SCT032 04/M04 A2983 RMK AO2 SLP117 T00391039,KFAM,2021-01-17T18:56:00Z,37.77,-90.42,3.9,-3.9,250,12,,10.0,29.828741,1011.7,,TRUE,TRUE,,,,,,,SCT,3200,,,,,,,VFR,,,,,,,,,,,,METAR,276.0
KFAF 171856Z AUTO 22006KT 10SM SCT150 10/M01 A2980 RMK AO2 SLP094 T00961012 $,KFAF,2021-01-17T18:56:00Z,37.13,-76.62,9.6,-1.2,220,6,,10.0,29.799213,1009.4,,TRUE,TRUE,TRUE,,,,,,SCT,15000,,,,,,,VFR,,,,,,,,,,,,METAR,3.0
KEWK 171856Z AUTO 32016G23KT 10SM CLR 08/M04 A2999 RMK AO2 PK WND 31026/1839 SLP162 T00831044,KEWK,2021-01-17T18:56:00Z,38.05,-97.27,8.3,-4.4,320,16,23,10.0,29.991142,1016.2,,TRUE,TRUE,,,,,,,CLR,,,,,,,,VFR,,,,,,,,,,,,METAR,468.0
KEUL 171856Z AUTO 00000KT 4SM BR OVC011 02/01 A3036 RMK AO2 SLP299 T00220011 FZRANO,KEUL,2021-01-17T18:56:00Z,43.63,-116.62,2.2,1.1,0,0,,4.0,30.360237,1029.9,,TRUE,TRUE,,,,TRUE,,BR,OVC,1100,,,,,,,MVFR,,,,,,,,,,,,METAR,741.0
KESC 171856Z AUTO 35004KT 9SM -SN BKN029 OVC035 M01/M05 A2968 RMK AO2 UPB09E11B37E39SNE09B39 SLP061 P0000 T10061050 FZRANO,KESC,2021-01-17T18:56:00Z,45.72,-87.08,-0.6,-5.0,350,4,,9.0,29.681103,1006.1,,TRUE,TRUE,,,,TRUE,,-SN,BKN,2900,OVC,3500,,,,,MVFR,,,,,,0.005,,,,,,METAR,180.0
KENV 171856Z AUTO 13003KT 10SM CLR 03/M03 A3031 RMK AO2 SLP293 T00331033 PNO $,KENV,2021-01-17T18:56:00Z,40.72,-114.02,3.3,-3.3,130,3,,10.0,30.31004,1029.3,,TRUE,TRUE,TRUE,,,,,,CLR,,,,,,,,VFR,,,,,,,,,,,,METAR,1291.0
KEND 171856Z AUTO 32020G28KT 10SM CLR 11/M07 A3004 RMK AO2 PK WND 30028/31 SLP178 T01091069 $,KEND,2021-01-17T18:56:00Z,36.33,-97.92,10.9,-6.9,320,20,28,10.0,30.041338,1017.8,,TRUE,TRUE,TRUE,,,,,,CLR,,,,,,,,VFR,,,,,,,,,,,,METAR,392.0
KELZ 171856Z AUTO 26007G16KT 10SM BKN016 OVC020 M01/M03 A2956 RMK AO2 SLP031 T10061033 $,KELZ,2021-01-17T18:56:00Z,42.1,-77.98,-0.6,-3.3,260,7,16,10.0,29.56004,1003.1,,TRUE,TRUE,TRUE,,,,,,BKN,1600,OVC,2000,,,,,MVFR,,,,,,,,,,,,METAR,639.0
KEKY 171856Z AUTO 22010G16KT 10SM CLR 12/M02 A2992 RMK AO2 SLP983 T01171017 PNO $,KEKY,2021-01-17T18:56:00Z,33.32,-86.93,11.7,-1.7,220,10,16,10.0,29.920275,998.3,,TRUE,TRUE,TRUE,,,,,,CLR,,,,,,,,VFR,,,,,,,,,,,,METAR,213.0
KEKQ 171856Z AUTO 25019KT 10SM BKN033 OVC046 04/M01 A2982 RMK AO2 PK WND 24029/1843 SLP097 T00441006,KEKQ,2021-01-17T18:56:00Z,36.85,-84.85,4.4,-0.6,250,19,,10.0,29.819881,1009.7,,TRUE,TRUE,,,,,,,BKN,3300,OVC,4600,,,,,VFR,,,,,,,,,,,,METAR,291.0
KEKO 171856Z AUTO 22004KT 10SM CLR 06/M02 A3034 RMK AO2 SLP286 T00561017,KEKO,2021-01-17T18:56:00Z,40.82,-115.78,5.6,-1.7,220,4,,10.0,30.339567,1028.6,,TRUE,TRUE,,,,,,,CLR,,,,,,,,VFR,,,,,,,,,,,,METAR,1541.0
KEGE 171856Z VRB03KT 10SM CLR 06/M08 A3018 RMK AO2 SLP246 T00561078 PNO $,KEGE,2021-01-17T18:56:00Z,39.63,-106.92,5.6,-7.8,0,3,,10.0,30.180119,1024.6,,,TRUE,TRUE,,,,,,CLR,,,,,,,,VFR,,,,,,,,,,,,METAR,1993.0
KEEN 171856Z AUTO 24008G17KT 220V330 10SM OVC038 04/M03 A2943 RMK AO2 RAB15E25 SLP973 P0000 T00391033 $,KEEN,2021-01-17T18:56:00Z,42.88,-72.27,3.9,-3.3,240,8,17,10.0,29.430119,997.3,,TRUE,TRUE,TRUE,,,,,,OVC,3800,,,,,,,VFR,,,,,,0.005,,,,,,METAR,143.0
KEAU 171856Z 28007KT 10SM FEW017 OVC026 M02/M06 A2973 RMK AO2 SLP079 T10171056,KEAU,2021-01-17T18:56:00Z,44.87,-91.48,-1.7,-5.6,280,7,,10.0,29.731298,1007.9,,,TRUE,,,,,,,FEW,1700,OVC,2600,,,,,MVFR,,,,,,,,,,,,METAR,271.0
KEAR 171856Z AUTO 30014KT 10SM CLR 06/M06 A2996 RMK AO2 SLP156 T00561061,KEAR,2021-01-17T18:56:00Z,40.72,-99.0,5.6,-6.1,300,14,,10.0,29.958662,1015.6,,TRUE,TRUE,,,,,,,CLR,,,,,,,,VFR,,,,,,,,,,,,METAR,649.0
KDYS 171856Z AUTO 06004KT 10SM CLR 12/M06 A3014 RMK AO2 SLP206 T01181061,KDYS,2021-01-17T18:56:00Z,32.42,-99.83,11.8,-6.1,60,4,,10.0,30.138779,1020.6,,TRUE,TRUE,,,,,,,CLR,,,,,,,,VFR,,,,,,,,,,,,METAR,544.0
KDYR 171856Z AUTO 29012G18KT 10SM CLR 07/M03 A2989 RMK AO2 SLP130 T00721028 PNO $,KDYR,2021-01-17T18:56:00Z,36.0,-89.4,7.2,-2.8,290,12,18,10.0,29.890747,1013.0,,TRUE,TRUE,TRUE,,,,,,CLR,,,,,,,,VFR,,,,,,,,,,,,METAR,98.0
KDWU 171856Z AUTO 23008KT 10SM -RA BKN016 OVC024 03/01 A2977 RMK AO2 SLP086 P0000 T00280006,KDWU,2021-01-17T18:56:00Z,38.55,-82.73,2.8,0.6,230,8,,10.0,29.769686,1008.6,,TRUE,TRUE,,,,,,-RA,BKN,1600,OVC,2400,,,,,MVFR,,,,,,0.005,,,,,,METAR,165.0
KDOV 171856Z AUTO 24016G21KT 10SM BKN047 BKN055 08/M02 A2973 RMK AO2 SLP071 T00821024 $,KDOV,2021-01-17T18:56:00Z,39.12,-75.47,8.2,-2.4,240,16,21,10.0,29.731298,1007.1,,TRUE,TRUE,TRUE,,,,,,BKN,4700,BKN,5500,,,,,VFR,,,,,,,,,,,,METAR,6.0
KDLF 171856Z AUTO 28003KT 10SM CLR 16/M03 A3012 RMK AO2 SLP197 T01631033 $,KDLF,2021-01-17T18:56:00Z,29.37,-100.78,16.3,-3.3,280,3,,10.0,30.121063,1019.7,,TRUE,TRUE,TRUE,,,,,,CLR,,,,,,,,VFR,,,,,,,,,,,,METAR,328.0
KDIK 171856Z AUTO 27004KT 10SM CLR M01/M07 A2984 RMK AO2 SLP136 T10061072,KDIK,2021-01-17T18:56:00Z,46.8,-102.8,-0.6,-7.2,270,4,,10.0,29.840551,1013.6,,TRUE,TRUE,,,,,,,CLR,,,,,,,,VFR,,,,,,,,,,,,METAR,788.0
KDAA 171856Z AUTO 29009G15KT 10SM SCT050 09/M04 A2976 RMK AO2 SLP081 T00911038 $,KDAA,2021-01-17T18:56:00Z,38.72,-77.17,9.1,-3.8,290,9,15,10.0,29.760826,1008.1,,TRUE,TRUE,TRUE,,,,,,SCT,5000,,,,,,,VFR,,,,,,,,,,,,METAR,17.0
KD07 171856Z AUTO 32010KT 03/M08 A2989 RMK AO1 SLP150 T00281078,KD07,2021-01-17T18:56:00Z,45.03,-102.02,2.8,-7.8,320,10,,,29.890747,1015.0,,TRUE,TRUE,,,,,,,,,,,,,,,,,,,,,,,,,,,METAR,786.0
KCXY 171856Z 26012G19KT 10SM SCT038 OVC047 07/M03 A2969 RMK AO2 SLP058 T00671028,KCXY,2021-01-17T18:56:00Z,40.22,-76.85,6.7,-2.8,260,12,19,10.0,29.68996,1005.8,,,TRUE,,,,,,,SCT,3800,OVC,4700,,,,,VFR,,,,,,,,,,,,METAR,102.0
KCWI 171856Z AUTO 29011KT 10SM SCT065 M02/M04 A2974 RMK AO2 SNE02 SLP084 P0000 T10221044 FZRANO,KCWI,2021-01-17T18:56:00Z,41.82,-90.32,-2.2,-4.4,290,11,,10.0,29.740158,1008.4,,TRUE,TRUE,,,,TRUE,,,SCT,6500,,,,,,,VFR,,,,,,0.005,,,,,,METAR,212.0
KCVO 171856Z AUTO 00000KT 10SM OVC006 09/08 A3050 RMK AO2 SLP331 T00890078,KCVO,2021-01-17T18:56:00Z,44.5,-123.28,8.9,7.8,0,0,,10.0,30.499016,1033.1,,TRUE,TRUE,,,,,,,OVC,600,,,,,,,IFR,,,,,,,,,,,,METAR,75.0
KCVN 171856Z AUTO VRB06KT 10SM CLR 07/M07 A3014 RMK AO2 SLP221 T00671067,KCVN,2021-01-17T18:56:00Z,34.42,-103.07,6.7,-6.7,0,6,,10.0,30.138779,1022.1,,TRUE,TRUE,,,,,,,CLR,,,,,,,,VFR,,,,,,,,,,,,METAR,1278.0
KCTB 171856Z AUTO 26030G37KT 10SM CLR 07/M05 A2982 RMK AO2 PK WND 25039/1818 SLP111 T00671050,KCTB,2021-01-17T18:56:00Z,48.6,-112.37,6.7,-5.0,260,30,37,10.0,29.819881,1011.1,,TRUE,TRUE,,,,,,,CLR,,,,,,,,VFR,,,,,,,,,,,,METAR,1172.0
KCQM 171856Z AUTO 00000KT 10SM OVC004 M08/M08 A2973 RMK AO2,KCQM,2021-01-17T18:56:00Z,47.82,-92.68,-8.0,-8.0,0,0,,10.0,29.731298,,,TRUE,TRUE,,,,,,,OVC,400,,,,,,,LIFR,,,,,,,,,,,,METAR,406.0
KCOF 171856Z AUTO 08004KT 10SM FEW060 15/06 A3002 RMK AO2 SLP170 T01530060 $,KCOF,2021-01-17T18:56:00Z,28.23,-80.6,15.3,6.0,80,4,,10.0,30.02067,1017.0,,TRUE,TRUE,TRUE,,,,,,FEW,6000,,,,,,,VFR,,,,,,,,,,,,METAR,1.0
KCOE 171856Z AUTO 26007KT 8SM OVC007 02/01 A3027 RMK AO2 CIG 004V010 SLP288 T00170011 FZRANO,KCOE,2021-01-17T18:56:00Z,47.77,-116.82,1.7,1.1,260,7,,8.0,30.268702,1028.8,,TRUE,TRUE,,,,TRUE,,,OVC,700,,,,,,,IFR,,,,,,,,,,,,METAR,693.0
KCOD 171856Z AUTO 26019G29KT 10SM CLR 06/M07 A2992 RMK AO2 PK WND 26032/1843 PRESFR SLP157 T00561067,KCOD,2021-01-17T18:56:00Z,44.52,-109.02,5.6,-6.7,260,19,29,10.0,29.920275,1015.7,,TRUE,TRUE,,,,,,,CLR,,,,,,,,VFR,,,,,,,,,,,,METAR,1550.0
KCIU 171856Z AUTO 01004KT 10SM OVC090 M02/M07 A2963 RMK AO2 SLP044 T10221072 FZRANO,KCIU,2021-01-17T18:56:00Z,46.25,-84.47,-2.2,-7.2,10,4,,10.0,29.630905,1004.4,,TRUE,TRUE,,,,TRUE,,,OVC,9000,,,,,,,VFR,,,,,,,,,,,,METAR,242.0
KCHS 171856Z 26011G15KT 10SM FEW050 SCT150 BKN250 11/M02 A2994 RMK AO2 SLP138 T01111022,KCHS,2021-01-17T18:56:00Z,32.9,-80.03,11.1,-2.2,260,11,15,10.0,29.940945,1013.8,,,TRUE,,,,,,,FEW,5000,SCT,15000,BKN,25000,,,VFR,,,,,,,,,,,,METAR,12.0
KCGZ 171856Z AUTO 08004KT 10SM CLR 21/M10 A3009 RMK AO2 SLP183 T02061100 $,KCGZ,2021-01-17T18:56:00Z,32.95,-111.77,20.6,-10.0,80,4,,10.0,30.088583,1018.3,,TRUE,TRUE,TRUE,,,,,,CLR,,,,,,,,VFR,,,,,,,,,,,,METAR,444.0
KCEF 171856Z 25012G21KT 10SM BKN042 04/M04 A2948 RMK AO2A SLP991 T00441043,KCEF,2021-01-17T18:56:00Z,42.2,-72.52,4.4,-4.3,250,12,21,10.0,29.480314,999.1,,,TRUE,,,,,,,BKN,4200,,,,,,,VFR,,,,,,,,,,,,METAR,72.0
KCEC 171856Z AUTO 01010KT 7SM CLR 15/07 A3030 RMK AO2 SLP261 T01500072,KCEC,2021-01-17T18:56:00Z,41.78,-124.23,15.0,7.2,10,10,,7.0,30.301182,1026.1,,TRUE,TRUE,,,,,,,CLR,,,,,,,,VFR,,,,,,,,,,,,METAR,17.0
KCBM 171856Z AUTO 26011KT 10SM CLR 13/M04 A2991 RMK AO2 SLP132 T01281044 $,KCBM,2021-01-17T18:56:00Z,33.65,-88.45,12.8,-4.4,260,11,,10.0,29.911417,1013.2,,TRUE,TRUE,TRUE,,,,,,CLR,,,,,,,,VFR,,,,,,,,,,,,METAR,59.0
KCAE 171856Z 27012G21KT 10SM FEW049 SCT130 BKN250 10/M03 A2991 RMK AO2 SLP130 T01001028,KCAE,2021-01-17T18:56:00Z,33.93,-81.12,10.0,-2.8,270,12,21,10.0,29.911417,1013.0,,,TRUE,,,,,,,FEW,4900,SCT,13000,BKN,25000,,,VFR,,,,,,,,,,,,METAR,69.0
KBZN 171856Z 00000KT 10SM OVC055 01/M03 A3000 RMK AO2 SLP188 T00111033,KBZN,2021-01-17T18:56:00Z,45.78,-111.17,1.1,-3.3,0,0,,10.0,30.0,1018.8,,,TRUE,,,,,,,OVC,5500,,,,,,,VFR,,,,,,,,,,,,METAR,1349.0
KBVX 171856Z AUTO 28010G15KT 10SM CLR 11/M06 A2991 RMK AO2 SLP131 T01061056,KBVX,2021-01-17T18:56:00Z,35.73,-91.65,10.6,-5.6,280,10,15,10.0,29.911417,1013.1,,TRUE,TRUE,,,,,,,CLR,,,,,,,,VFR,,,,,,,,,,,,METAR,137.0
KBTP 171856Z AUTO 24007G14KT 10SM BKN022 OVC029 02/M02 A2968 RMK AO2 RAE46 SLP066 P0000 T00171022 FZRANO,KBTP,2021-01-17T18:56:00Z,40.77,-79.95,1.7,-2.2,240,7,14,10.0,29.681103,1006.6,,TRUE,TRUE,,,,TRUE,,,BKN,2200,OVC,2900,,,,,MVFR,,,,,,0.005,,,,,,METAR,375.0
KBOK 171856Z AUTO 03011G20KT 10SM CLR 18/07 A3031 RMK AO2 SLP265 T01830067,KBOK,2021-01-17T18:56:00Z,42.07,-124.28,18.3,6.7,30,11,20,10.0,30.31004,1026.5,,TRUE,TRUE,,,,,,,CLR,,,,,,,,VFR,,,,,,,,,,,,METAR,140.0
KBMI 171856Z 26010G17KT 9SM -SN OVC011 M02/M04 A2972 RMK AO2 SLP072 P0000 T10171039,KBMI,2021-01-17T18:56:00Z,40.47,-88.92,-1.7,-3.9,260,10,17,9.0,29.719488,1007.2,,,TRUE,,,,,,-SN,OVC,1100,,,,,,,MVFR,,,,,,0.005,,,,,,METAR,262.0
KBLV 171856Z AUTO 25013KT 10SM OVC027 03/M04 A2980 RMK AO2 CIG 026 RWY14R CIG 026 RWY32R SLP098 T00301036 $,KBLV,2021-01-17T18:56:00Z,38.53,-89.83,3.0,-3.6,250,13,,10.0,29.799213,1009.8,,TRUE,TRUE,TRUE,,,,,,OVC,2700,,,,,,,MVFR,,,,,,,,,,,,METAR,134.0
KBLM 171856Z AUTO 26013KT 10SM OVC048 07/M04 A2966 RMK AO2 PK WND 27026/1820 SLP045 T00671039,KBLM,2021-01-17T18:56:00Z,40.17,-74.12,6.7,-3.9,260,13,,10.0,29.660433,1004.5,,TRUE,TRUE,,,,,,,OVC,4800,,,,,,,VFR,,,,,,,,,,,,METAR,45.0
KBKX 171856Z AUTO 32011KT 10SM BKN018 OVC024 M01/M04 A2981 RMK AO2 SLP130 T10061039 FZRANO,KBKX,2021-01-17T18:56:00Z,44.3,-96.82,-0.6,-3.9,320,11,,10.0,29.811024,1013.0,,TRUE,TRUE,,,,TRUE,,,BKN,1800,OVC,2400,,,,,MVFR,,,,,,,,,,,,METAR,494.0
KBIX 171856Z AUTO 23009KT 10SM CLR 13/04 A3003 RMK AO2 SLP172 T01250042,KBIX,2021-01-17T18:56:00Z,30.42,-88.92,12.5,4.2,230,9,,10.0,30.029528,1017.2,,TRUE,TRUE,,,,,,,CLR,,,,,,,,VFR,,,,,,,,,,,,METAR,4.0
KBIH 171856Z AUTO 29006G15KT 10SM CLR 19/M07 A3026 RMK AO2 SLP223 T01891067,KBIH,2021-01-17T18:56:00Z,37.37,-118.35,18.9,-6.7,290,6,15,10.0,30.259842,1022.3,,TRUE,TRUE,,,,,,,CLR,,,,,,,,VFR,,,,,,,,,,,,METAR,1252.0
KBID 171856Z AUTO 26023G31KT 10SM CLR 05/M03 A2954 RMK AO2 PK WND 26033/1810 SLP005 T00501033,KBID,2021-01-17T18:56:00Z,41.17,-71.58,5.0,-3.3,260,23,31,10.0,29.53937,1000.5,,TRUE,TRUE,,,,,,,CLR,,,,,,,,VFR,,,,,,,,,,,,METAR,32.0
KBHB 171856Z AUTO 25010G21KT 10SM BKN039 OVC050 04/M02 A2921 RMK AO2 RAB03E18 SLP894 P0000 T00441022,KBHB,2021-01-17T18:56:00Z,44.45,-68.37,4.4,-2.2,250,10,21,10.0,29.208662,989.4,,TRUE,TRUE,,,,,,,BKN,3900,OVC,5000,,,,,VFR,,,,,,0.005,,,,,,METAR,21.0
KBAD 171856Z AUTO 33009KT 10SM SCT110 BKN140 12/M04 A3005 RMK AO2 SLP179 T01211045,KBAD,2021-01-17T18:56:00Z,32.5,-93.67,12.1,-4.5,330,9,,10.0,30.050198,1017.9,,TRUE,TRUE,,,,,,,SCT,11000,BKN,14000,,,,,VFR,,,,,,,,,,,,METAR,49.0
KAWO 171856Z AUTO 20004KT 10SM OVC021 08/06 A3048 RMK AO2 SLP327 T00830061,KAWO,2021-01-17T18:56:00Z,48.17,-122.17,8.3,6.1,200,4,,10.0,30.481298,1032.7,,TRUE,TRUE,,,,,,,OVC,2100,,,,,,,MVFR,,,,,,,,,,,,METAR,38.0
KAUO 171856Z AUTO 09/M01 RMK AO2 SLPNO T00941011 $,KAUO,2021-01-17T18:56:00Z,32.62,-85.43,9.4,-1.1,,,,,,,,TRUE,TRUE,TRUE,,,,,,,,,,,,,,,,,,,,,,,,,,METAR,231.0
KASH 171856Z VRB05G18KT 10SM BKN041 04/M03 A2941 RMK AO2 SLP965 T00441033,KASH,2021-01-17T18:56:00Z,42.78,-71.52,4.4,-3.3,0,5,18,10.0,29.409449,996.5,,,TRUE,,,,,,,BKN,4100,,,,,,,VFR,,,,,,,,,,,,METAR,56.0
KART 171856Z AUTO 27017G26KT 10SM OVC019 01/M04 A2951 RMK AO2 PK WND 27026/1856 SLP998 T00061039,KART,2021-01-17T18:56:00Z,43.98,-76.03,0.6,-3.9,270,17,26,10.0,29.509842,999.8,,TRUE,TRUE,,,,,,,OVC,1900,,,,,,,MVFR,,,,,,,,,,,,METAR,100.0
KARG 171856Z AUTO 28013KT 10SM CLR 08/M04 A2990 RMK AO2 SLP129 T00831044,KARG,2021-01-17T18:56:00Z,36.12,-90.92,8.3,-4.4,280,13,,10.0,29.899607,1012.9,,TRUE,TRUE,,,,,,,CLR,,,,,,,,VFR,,,,,,,,,,,,METAR,82.0
KAND 171856Z AUTO 25010KT 10SM SCT055 09/M03 A2988 RMK AO2 SLP121 T00891033,KAND,2021-01-17T18:56:00Z,34.5,-82.72,8.9,-3.3,250,10,,10.0,29.878937,1012.1,,TRUE,TRUE,,,,,,,SCT,5500,,,,,,,VFR,,,,,,,,,,,,METAR,233.0
KALK 171856Z AUTO 04006KT 10SM CLR 19/M14 A3018 RMK AO2 SLP154 T01941139,KALK,2021-01-17T18:56:00Z,31.6,-110.43,19.4,-13.9,40,6,,10.0,30.180119,1015.4,,TRUE,TRUE,,,,,,,CLR,,,,,,,,VFR,,,,,,,,,,,,METAR,1451.0
KAJO 171856Z AUTO 09013G19KT 10SM CLR 28/M06 A3005 RMK AO2 SLP166 T02831056,KAJO,2021-01-17T18:56:00Z,33.9,-117.6,28.3,-5.6,90,13,19,10.0,30.050198,1016.6,,TRUE,TRUE,,,,,,,CLR,,,,,,,,VFR,,,,,,,,,,,,METAR,161.0
KAIZ 171856Z AUTO 29007KT 10SM OVC049 04/M04 A2987 RMK AO2 SLP120 T00391039,KAIZ,2021-01-17T18:56:00Z,38.1,-92.53,3.9,-3.9,290,7,,10.0,29.870079,1012.0,,TRUE,TRUE,,,,,,,OVC,4900,,,,,,,VFR,,,,,,,,,,,,METAR,263.0
KAFJ 171856Z AUTO 22007KT 7SM -SN BKN012 OVC018 01/00 A2973 RMK AO2 SLP077 P0000 T00110000 FZRANO,KAFJ,2021-01-17T18:56:00Z,40.13,-80.28,1.1,0.0,220,7,,7.0,29.731298,1007.7,,TRUE,TRUE,,,,TRUE,,-SN,BKN,1200,OVC,1800,,,,,MVFR,,,,,,0.005,,,,,,METAR,360.0
KADW 171856Z AUTO 24008KT 10SM BKN049 08/M03 A2975 RMK AO2 SLP083 T00761027 $,KADW,2021-01-17T18:56:00Z,38.82,-76.87,7.6,-2.7,240,8,,10.0,29.749016,1008.3,,TRUE,TRUE,TRUE,,,,,,BKN,4900,,,,,,,VFR,,,,,,,,,,,,METAR,87.0
KADF 171856Z AUTO 27009G18KT 10SM CLR 13/M04 A3000 RMK AO2 SLP160 T01281039,KADF,2021-01-17T18:56:00Z,34.1,-93.07,12.8,-3.9,270,9,18,10.0,30.0,1016.0,,TRUE,TRUE,,,,,,,CLR,,,,,,,,VFR,,,,,,,,,,,,METAR,54.0
KADC 171856Z AUTO 31008KT 5SM BR SCT010 BKN043 OVC060 M07/M07 A2976 RMK AO2,KADC,2021-01-17T18:56:00Z,46.45,-95.22,-7.0,-7.0,310,8,,5.0,29.760826,,,TRUE,TRUE,,,,,,BR,SCT,1000,BKN,4300,OVC,6000,,,MVFR,,,,,,,,,,,,METAR,416.0
K8D3 171856Z AUTO 35009KT M01/M04 A2983 RMK AO1 SLP121 T10111039,K8D3,2021-01-17T18:56:00Z,45.67,-96.98,-1.1,-3.9,350,9,,,29.828741,1012.1,,TRUE,TRUE,,,,,,,,,,,,,,,,,,,,,,,,,,,METAR,535.0
K7N0 171856Z AUTO VRB05KT 10SM CLR 15/M01 A3007 RMK AO2 SLP182 T01501011,K7N0,2021-01-17T18:56:00Z,29.95,-90.07,15.0,-1.1,0,5,,10.0,30.070866,1018.2,,TRUE,TRUE,,,,,,,CLR,,,,,,,,VFR,,,,,,,,,,,,METAR,0.0
K79J 171856Z AUTO 24007KT 10SM CLR 14/M02 A2999 RMK AO2 SLP157 T01391017,K79J,2021-01-17T18:56:00Z,31.32,-86.4,13.9,-1.7,240,7,,10.0,29.991142,1015.7,,TRUE,TRUE,,,,,,,CLR,,,,,,,,VFR,,,,,,,,,,,,METAR,93.0
K2WX 171856Z AUTO 27012KT 04/M10 A2984 RMK AO1 SLP134 T00391100,K2WX,2021-01-17T18:56:00Z,45.6,-103.55,3.9,-10.0,270,12,,,29.840551,1013.4,,TRUE,TRUE,,,,,,,,,,,,,,,,,,,,,,,,,,,METAR,925.0
K2DP 171856Z AUTO 28012G17KT 10SM CLR 11/M02 A2987 RMK AO2 SLPNO T01081016 $,K2DP,2021-01-17T18:56:00Z,35.68,-75.9,10.8,-1.6,280,12,17,10.0,29.870079,,,TRUE,TRUE,TRUE,,,,,,CLR,,,,,,,,VFR,,,,,,,,,,,,METAR,1.0
K1M4 171856Z AUTO 25010G16KT 10SM CLR 10/M04 A2990 RMK AO2 SLP650 T01001039,K1M4,2021-01-17T18:56:00Z,34.28,-87.6,10.0,-3.9,250,10,16,10.0,29.899607,965.0,,TRUE,TRUE,,,,,,,CLR,,,,,,,,VFR,,,,,,,,,,,,METAR,283.0
ETIK 171856Z AUTO 00000KT 9999 FEW045 SCT070 BKN100 M02/M02 A3016 RMK AO2 UPE04UPB25E50 SLP239 P0000 T10241024,ETIK,2021-01-17T18:56:00Z,49.47,10.38,-2.4,-2.4,0,0,,6.21,30.159449,1023.9,,TRUE,TRUE,,,,,,,FEW,4500,SCT,7000,BKN,10000,,,VFR,,,,,,0.005,,,,,,METAR,326.0
ETIH 171856Z AUTO 00000KT 9999 OVC033 M04/M07 A3014 RMK AO2 SLP244 T10401071,ETIH,2021-01-17T18:56:00Z,49.22,11.83,-4.0,-7.1,0,0,,6.21,30.138779,1024.4,,TRUE,TRUE,,,,,,,OVC,3300,,,,,,,VFR,,,,,,,,,,,,METAR,436.0
ETIC 171856Z AUTO 00000KT 9999 -UP BKN032 OVC075 M A3012 RMK AO2 UPB47 SLPNO ALSTG ESTMD P0000 $,ETIC,2021-01-17T18:56:00Z,49.7,11.93,,,0,0,,6.21,30.121063,,,TRUE,TRUE,TRUE,,,,,UP,BKN,3200,OVC,7500,,,,,VFR,,,,,,0.005,,,,,,METAR,414.0
EGVA 171856Z AUTO 23007KT 9999 SCT100 04/04 A3030 RMK AO2 SLP268 T00440038 FZRANO $,EGVA,2021-01-17T18:56:00Z,51.67,-1.78,4.4,3.8,230,7,,6.21,30.301182,1026.8,,TRUE,TRUE,TRUE,,,TRUE,,,SCT,10000,,,,,,,VFR,,,,,,,,,,,,SPECI,84.0
EGUN 171856Z AUTO 24008KT 9999 CLR 04/04 A3025 RMK AO2 SLP247 T00420042 FZRANO,EGUN,2021-01-17T18:56:00Z,52.37,0.48,4.2,4.2,240,8,,6.21,30.250984,1024.7,,TRUE,TRUE,,,,TRUE,,,CLR,,,,,,,,VFR,,,,,,,,,,,,SPECI,10.0
EGUL 171856Z AUTO 24009KT 9999 CLR 04/04 A3024 RMK AO2 SLP244 T00370037 $,EGUL,2021-01-17T18:56:00Z,52.42,0.57,3.7,3.7,240,9,,6.21,30.239174,1024.4,,TRUE,TRUE,TRUE,,,,,,CLR,,,,,,,,VFR,,,,,,,,,,,,SPECI,8.0
BGTL 171856Z AUTO 00000KT 6000 BR CLR M24/M24 A2982 RMK AO2 SLP090 T12381241 TSNO $,BGTL,2021-01-17T18:56:00Z,76.53,-68.75,-23.8,-24.1,0,0,,3.73,29.819881,1009.0,,TRUE,TRUE,TRUE,,TRUE,,,BR,CLR,,,,,,,,MVFR,,,,,,,,,,,,SPECI,79.0
TXKF 171855Z 28016KT 9999 SCT038 BKN300 19/11 Q1014 ,TXKF,2021-01-17T18:55:00Z,32.37,-64.68,19.0,11.0,280,16,,6.21,29.940945,,,,,,,,,,,SCT,3800,BKN,30000,,,,,VFR,,,,,,,,,,,,METAR,4.0
TNCE 171855Z AUTO 08012KT 050V120 //// // ///////// 28/21 Q1014 RE//,TNCE,2021-01-17T18:55:00Z,17.48,-62.97,28.0,21.0,80,12,,,29.940945,,,TRUE,,,,,,,,,,,,,,,,,,,,,,,,,,,,METAR,38.0
TNCB 171855Z 08013KT 050V110 9999 BKN026 BKN034 29/21 Q1011,TNCB,2021-01-17T18:55:00Z,12.13,-68.28,29.0,21.0,80,13,,6.21,29.852362,,,,,,,,,,,BKN,2600,BKN,3400,,,,,MVFR,,,,,,,,,,,,METAR,6.0
PAUT 171855Z AUTO 31033G42KT 5SM BKN027 OVC035 M01/M05 A2968 RMK AO2 T10081049 PWINO,PAUT,2021-01-17T18:55:00Z,54.13,-165.6,-0.8,-4.9,310,33,42,5.0,29.681103,,,TRUE,TRUE,,,,,TRUE,,BKN,2700,OVC,3500,,,,,MVFR,,,,,,,,,,,,METAR,25.0
PATL 171855Z AUTO VRB05KT 10SM OVC044 M10/M12 A2946 RMK AO2 SLP003 T11031121,PATL,2021-01-17T18:55:00Z,62.9,-155.97,-10.3,-12.1,0,5,,10.0,29.459646,1000.3,,TRUE,TRUE,,,,,,,OVC,4400,,,,,,,VFR,,,,,,,,,,,,METAR,261.0
PATC 171855Z AUTO 02033KT 2 1/2SM -SHSN BR BKN013 M15/M16 A2964 RMK AO2 PK WND 02036/1836 SNB1824E1832SHSNB1832 SLP047 P0000 T11481160,PATC,2021-01-17T18:55:00Z,65.57,-167.92,-14.8,-16.0,20,33,,2.5,29.639763,1004.7,,TRUE,TRUE,,,,,,-SHSN BR,BKN,1300,,,,,,,IFR,,,,,,0.005,,,,,,METAR,77.0
PASV 171855Z AUTO 07003KT 10SM -RA OVC022 01/01 A2933 RMK AO2 RAB1709DZB1758E1803 SLP961 P0002 T00130009,PASV,2021-01-17T18:55:00Z,61.1,-155.57,1.3,0.9,70,3,,10.0,29.329725,996.1,,TRUE,TRUE,,,,,,-RA,OVC,2200,,,,,,,MVFR,,,,,,0.02,,,,,,METAR,462.0
PAIM 171855Z AUTO 13007G19KT 080V190 9SM -SN OVC049 M08/M13 A2946 RMK AO2 SNB1843 SLP009 T10851127,PAIM,2021-01-17T18:55:00Z,66.0,-153.7,-8.5,-12.7,130,7,19,9.0,29.459646,1000.9,,TRUE,TRUE,,,,,,-SN,OVC,4900,,,,,,,VFR,,,,,,,,,,,,METAR,309.0
PACZ 171855Z AUTO 36030G34KT 260V050 1 1/4SM -SN BR BKN005 M13/M14 A2957 RMK AO2 PK WND 35034/1854 SNB1755 SLP030 P0000 T11341136,PACZ,2021-01-17T18:55:00Z,61.78,-166.03,-13.4,-13.6,360,30,34,1.25,29.568897,1003.0,,TRUE,TRUE,,,,,,-SN BR,BKN,500,,,,,,,IFR,,,,,,0.005,,,,,,METAR,129.0
PAAD 171855Z AUTO 00000KT 3SM -SN OVC009 M25/M28 A2985 RMK AO2 T12491279,PAAD,2021-01-17T18:55:00Z,70.13,-146.28,-24.9,-27.9,0,0,,3.0,29.84941,,,TRUE,TRUE,,,,,,-SN,OVC,900,,,,,,,IFR,,,,,,,,,,,,METAR,8.0
OPNH 171855Z 31504KT 3000 FU NSC 09/05 Q1013 NOSIG,OPNH,2021-01-17T18:55:00Z,26.22,68.38,9.0,5.0,315,4,,1.86,29.911417,,,,,,TRUE,,,,FU,CLR,,,,,,,,IFR,,,,,,,,,,,,METAR,30.0
OPLA 171855Z 36005KT 1200 BR NSC 07/05 Q1016 NOSIG RMK QFE989 RMK 30.03,OPLA,2021-01-17T18:55:00Z,31.52,74.4,7.0,5.0,360,5,,0.75,30.0,,,,,,TRUE,,,,BR,CLR,,,,,,,,LIFR,,,,,,,,,,,,METAR,217.0
OPIS 171855Z 09008KT 0050 R28L/0275N RMID/0275N R10R/0275D FG VV/// 06/06 Q1018,OPIS,2021-01-17T18:55:00Z,33.55,72.83,6.0,6.0,90,8,,0.03,30.059055,,,,,,,,,,FG,OVX,0,,,,,,,LIFR,,,,,,,,,,,,METAR,542.0
OPFA 171855Z 00000KT 2000 BR SCT040 BKN100 08/06 Q1018 NOSIG,OPFA,2021-01-17T18:55:00Z,31.37,73.0,8.0,6.0,0,0,,1.24,30.059055,,,,,,TRUE,,,,BR,SCT,4000,BKN,10000,,,,,IFR,,,,,,,,,,,,METAR,185.0
NZFX 171855Z 01008KT 9999 FEW020 FEW060 FEW130 M08/M13 A2935 RMK SLP933 RCRNR FATA MORGANA GRID NW-N GRID18008KT SDG/HDG,NZFX,2021-01-17T18:55:00Z,-77.95,166.77,-8.0,-13.0,10,8,,6.21,29.350393,993.3,,,,,,,,,,FEW,2000,FEW,6000,FEW,13000,,,VFR,,,,,,,,,,,,METAR,10.0
MUHA 171855Z 03010KT 350V060 9000 SCT040 23/15 Q1016,MUHA,2021-01-17T18:55:00Z,22.98,-82.42,23.0,15.0,30,10,,5.59,30.0,,,,,,,,,,,SCT,4000,,,,,,,VFR,,,,,,,,,,,,METAR,61.0
LIVP 171855Z 01008KT CAVOK M09/M13 Q1009 RMK BKN FEW060 SCT200 MON LIB VAL NIL VIS MIN 9999,LIVP,2021-01-17T18:55:00Z,46.15,11.03,-9.0,-13.0,10,8,,6.21,29.793306,,,,,,,,,,,CAVOK,,,,,,,,VFR,,,,,,,,,,,,METAR,2099.0
LIVM 171855Z AUTO 29004KT 250V330 //// 04/01 Q1016,LIVM,2021-01-17T18:55:00Z,44.45,12.3,4.0,1.0,290,4,,,30.0,,,TRUE,,,,,,,,,,,,,,,,,,,,,,,,,,,,METAR,6.0
LIVF 171855Z 06003KT 0200 FG VV/// 01/00 Q1013 RMK MON INVIS VAL INVIS VIS MIN 0200,LIVF,2021-01-17T18:55:00Z,43.52,12.72,1.0,0.0,60,3,,0.12,29.911417,,,,,,,,,,FG,OVX,0,,,,,,,LIFR,,,,,,,,,,,,METAR,549.0
LIVC 171855Z AUTO 35005G16KT //// M07/M13 Q1010,LIVC,2021-01-17T18:55:00Z,44.2,10.68,-7.0,-13.0,350,5,16,,29.822834,,,TRUE,,,,,,,,,,,,,,,,,,,,,,,,,,,,METAR,2139.0
LIRX 171855Z 15008KT 9999 SCT005 06/05 Q1011 RMK BKN SCT060 VIS MIN 9999 VIS MAR 15 KM,LIRX,2021-01-17T18:55:00Z,42.73,10.38,6.0,5.0,150,8,,6.21,29.852362,,,,,,,,,,,SCT,500,,,,,,,VFR,,,,,,,,,,,,METAR,397.0
LIRT 171855Z 34003KT 0000 FZFG VV/// M02/M03 Q1009 RMK MON INVIS VAL INVIS VIS MIN 0000,LIRT,2021-01-17T18:55:00Z,41.03,15.22,-2.0,-3.0,340,3,,0.0,29.793306,,,,,,,,,,FZFG,OVX,0,,,,,,,LIFR,,,,,,,,,,,,METAR,1058.0
LIRS 171855Z 01006KT 9999 BKN060 04/01 Q1014 RMK BKN VIS MIN 9999 WIND THR03 03006KT WIND THR21 01005KT BLU,LIRS,2021-01-17T18:55:00Z,42.75,11.07,4.0,1.0,10,6,,6.21,29.940945,,,,,,,,,,,BKN,6000,,,,,,,VFR,,,,,,,,,,,,METAR,3.0
LIRM 171855Z /////KT 8000 SCT030 BKN060 04/01 Q1012,LIRM,2021-01-17T18:55:00Z,41.05,14.07,4.0,1.0,,,,4.97,29.88189,,,,,,,,,,,SCT,3000,BKN,6000,,,,,MVFR,,,,,,,,,,,,METAR,6.0
LIRK 171855Z AUTO 08035KT //// M06/M08 Q1006,LIRK,2021-01-17T18:55:00Z,42.47,12.97,-6.0,-8.0,80,35,,,29.704725,,,TRUE,,,,,,,,,,,,,,,,,,,,,,,,,,,,METAR,1721.0
LIRE 171855Z 01006KT CAVOK 04/02 Q1013 RMK SKC VIS MIN 9999 WIND THR13 01005KT WIND THR31 /////KT BLU,LIRE,2021-01-17T18:55:00Z,41.65,12.43,4.0,2.0,10,6,,6.21,29.911417,,,,,,,,,,,CAVOK,,,,,,,,VFR,,,,,,,,,,,,METAR,16.0
LIQC 171855Z 08006KT 9999 -RA SCT015 SCT020 07/05 Q1010 RMK OVC QUK / QUL / VIS MAR 10 KM VIS MIN 9999,LIQC,2021-01-17T18:55:00Z,40.55,14.2,7.0,5.0,80,6,,6.21,29.822834,,,,,,,,,,-RA,SCT,1500,SCT,2000,,,,,VFR,,,,,,,,,,,,METAR,154.0
LIPS 171855Z 01004KT CAVOK 02/M02 Q1016 RMK BKN BKN200 VIS MIN 9999 WIND THR26 31004KT WIND THR08 34005KT BLU,LIPS,2021-01-17T18:55:00Z,45.68,12.1,2.0,-2.0,10,4,,6.21,30.0,,,,,,,,,,,CAVOK,,,,,,,,VFR,,,,,,,,,,,,METAR,42.0
LIPL 171855Z 30001KT 6000 FEW035 00/00 Q1017 RMK BKN BKN120 VIS MIN 6000 WIND THR31 06001KT WIND THR13 28001KT WHT,LIPL,2021-01-17T18:55:00Z,45.42,10.27,0.0,0.0,300,1,,3.73,30.029528,,,,,,,,,,,FEW,3500,,,,,,,MVFR,,,,,,,,,,,,METAR,96.0
LIPC 171855Z 26006KT 3000 BR NSC 01/M01 Q1017 RMK FEW FEW080 VIS MIN 3000 WIND THR11 26005KT WIND THR29 /////KT YLO,LIPC,2021-01-17T18:55:00Z,44.22,12.3,1.0,-1.0,260,6,,1.86,30.029528,,,,,,,,,,BR,CLR,,,,,,,,IFR,,,,,,,,,,,,METAR,10.0
LIMU 171855Z 04008KT CAVOK 08/06 Q1014 RMK SKC QUK / QUL / VIS MAR 30 KM VIS MIN 9999,LIMU,2021-01-17T18:55:00Z,43.95,8.17,8.0,6.0,40,8,,6.21,29.940945,,,,,,,,,,,CAVOK,,,,,,,,VFR,,,,,,,,,,,,METAR,215.0
LIMK 171855Z 29006KT CAVOK 01/M03 Q1014 RMK SKC VAL NIL VIS MIN 9999,LIMK,2021-01-17T18:55:00Z,45.02,7.72,1.0,-3.0,290,6,,6.21,29.940945,,,,,,,,,,,CAVOK,,,,,,,,VFR,,,,,,,,,,,,METAR,693.0
LIED 171855Z 30015KT 9999 BKN035 13/09 Q1015 RMK BKN VIS MIN 9999 WIND THR35 /////KT WIND THR17 31013KT BLU,LIED,2021-01-17T18:55:00Z,39.35,8.97,13.0,9.0,300,15,,6.21,29.970472,,,,,,,,,,,BKN,3500,,,,,,,VFR,,,,,,,,,,,,METAR,26.0
LICZ 171855Z 26008KT 9999 SCT040 BKN080 10/10 Q1013 RMK BKN VIS MIN 9999 WIND THR28 28008KT WIND THR10 30007KT A2994 BLU,LICZ,2021-01-17T18:55:00Z,37.4,14.92,10.0,10.0,260,8,,6.21,29.911417,,,,,,,,,,,SCT,4000,BKN,8000,,,,,VFR,,,,,,,,,,,,METAR,22.0
LICT 171855Z 30026KT 9999 SCT023 13/10 Q1014 RMK BKN BKN060 VIS MIN 9999 WIND THR13 31025KT BLU,LICT,2021-01-17T18:55:00Z,37.92,12.5,13.0,10.0,300,26,,6.21,29.940945,,,,,,,,,,,SCT,2300,,,,,,,VFR,,,,,,,,,,,,METAR,4.0
LICF 171855Z 23004KT 4000 RA FEW015 SCT020 09/08 Q1011 RMK OVC OVC100 QUK / QUL / VIS MAR 4 KM MON INVIS NC VIS MIN 4000,LICF,2021-01-17T18:55:00Z,38.2,15.55,9.0,8.0,230,4,,2.49,29.852362,,,,,,,,,,RA,FEW,1500,SCT,2000,,,,,IFR,,,,,,,,,,,,METAR,66.0
LIBV 171855Z 14010KT 8000 -SN SCT030 SCT035 04/00 Q1012 RMK OVC VIS MIN 8000 WIND THR32 15008KT WIND THR14 15007KT BLU,LIBV,2021-01-17T18:55:00Z,40.77,16.93,4.0,0.0,140,10,,4.97,29.88189,,,,,,,,,,-SN,SCT,3000,SCT,3500,,,,,MVFR,,,,,,,,,,,,METAR,344.0
LIBQ 171855Z 04003KT 0000 SN FZFG VV/// M04/M04 Q1004 RMK MON INVIS VAL INVIS VIS MIN 0000,LIBQ,2021-01-17T18:55:00Z,39.32,16.38,-4.0,-4.0,40,3,,0.0,29.64567,,,,,,,,,,SN FZFG,OVX,0,,,,,,,LIFR,,,,,,,,,,,,METAR,1660.0
LIBN 171855Z 09005KT 9999 FEW015 SCT030 BKN050 05/02 Q1015 RMK OVC VIS MIN 9999 WIND THR14 10006KT WIND THR32 11005KT BLU,LIBN,2021-01-17T18:55:00Z,40.23,18.13,5.0,2.0,90,5,,6.21,29.970472,,,,,,,,,,,FEW,1500,SCT,3000,BKN,5000,,,VFR,,0.6,,,,,,,,,,METAR,46.0
LIBA 171855Z 27002KT 9999 SCT050 03/M01 Q1015 RMK OVC BKN120 VIS MIN 9999 WIND THR11 26002KT WIND THR29 /////KT BLU,LIBA,2021-01-17T18:55:00Z,41.53,15.72,3.0,-1.0,270,2,,6.21,29.970472,,,,,,,,,,,SCT,5000,,,,,,,VFR,,,,,,,,,,,,METAR,55.0
KZPH 171855Z AUTO 00000KT 10SM CLR 15/08 A3004 RMK A02 T01470081,KZPH,2021-01-17T18:55:00Z,28.23,-82.15,14.7,8.1,0,0,,10.0,30.041338,,,TRUE,TRUE,,,,,,,CLR,,,,,,,,VFR,,,,,,,,,,,,METAR,26.0
KY49 171855Z AUTO 00000KT 2 1/2SM -SN OVC006 M07/M07 A2975 RMK AO2 T10701075,KY49,2021-01-17T18:55:00Z,47.15,-94.65,-7.0,-7.5,0,0,,2.5,29.749016,,,TRUE,TRUE,,,,,,-SN,OVC,600,,,,,,,IFR,,,,,,,,,,,,METAR,413.0
KXNX 171855Z AUTO 24009G16KT 200V260 10SM BKN044 BKN049 OVC055 07/M03 A2984 RMK A01,KXNX,2021-01-17T18:55:00Z,36.38,-86.42,7.0,-3.0,240,9,16,10.0,29.840551,,,TRUE,TRUE,,,,,,,BKN,4400,BKN,4900,OVC,5500,,,VFR,,,,,,,,,,,,METAR,178.0
KXLL 171855Z AUTO 28010G18KT 10SM OVC038 05/M02 A2966 RMK AO2,KXLL,2021-01-17T18:55:00Z,40.57,-75.48,5.0,-2.0,280,10,18,10.0,29.660433,,,TRUE,TRUE,,,,,,,OVC,3800,,,,,,,VFR,,,,,,,,,,,,METAR,118.0
KXER 171855Z AUTO 00000KT 10SM CLR 17/03 A3010 RMK A01,KXER,2021-01-17T18:55:00Z,,,17.0,3.0,0,0,,10.0,30.100393,,,TRUE,TRUE,,,,,,,CLR,,,,,,,,VFR,,,,,,,,,,,,METAR,
KXBP 171855Z AUTO 31007KT 10SM CLR 14/M04 A3014 RMK AO2 T01381039,KXBP,2021-01-17T18:55:00Z,33.18,-97.83,13.8,-3.9,310,7,,10.0,30.138779,,,TRUE,TRUE,,,,,,,CLR,,,,,,,,VFR,,,,,,,,,,,,METAR,256.0
KX26 171855Z AUTO 08005KT 10SM OVC048 16/08 A3002 RMK AO2 T01620082,KX26,2021-01-17T18:55:00Z,27.82,-80.5,16.2,8.2,80,5,,10.0,30.02067,,,TRUE,TRUE,,,,,,,OVC,4800,,,,,,,VFR,,,,,,,,,,,,METAR,5.0
KWWR 171855Z AUTO 32012G21KT 10SM CLR 09/M08 A3012 RMK AO2,KWWR,2021-01-17T18:55:00Z,36.45,-99.52,9.0,-8.0,320,12,21,10.0,30.121063,,,TRUE,TRUE,,,,,,,CLR,,,,,,,,VFR,,,,,,,,,,,,METAR,664.0
KWDR 171855Z AUTO 25007KT 10SM BKN047 BKN055 08/M03 A2994 RMK AO2,KWDR,2021-01-17T18:55:00Z,33.98,-83.67,8.0,-3.0,250,7,,10.0,29.940945,,,TRUE,TRUE,,,,,,,BKN,4700,BKN,5500,,,,,VFR,,,,,,,,,,,,METAR,280.0
KW43 171855Z AUTO 10SM BKN085 02/M08 A2990 RMK AO2,KW43,2021-01-17T18:55:00Z,44.67,-104.57,2.0,-8.0,,,,10.0,29.899607,,,TRUE,TRUE,,,,,,,BKN,8500,,,,,,,VFR,,,,,,,,,,,,METAR,1292.0
KW22 171855Z AUTO 21006KT 7SM BKN010 BKN014 01/M00 A2973 RMK AO2,KW22,2021-01-17T18:55:00Z,39.0,-80.27,1.0,0.0,210,6,,7.0,29.731298,,,TRUE,TRUE,,,,,,,BKN,1000,BKN,1400,,,,,MVFR,,,,,,,,,,,,METAR,497.0
KVYS 171855Z AUTO 27010G14KT 10SM OVC008 M01/M03 A2971 RMK AO2 T10151031,KVYS,2021-01-17T18:55:00Z,41.35,-89.15,-1.5,-3.1,270,10,14,10.0,29.71063,,,TRUE,TRUE,,,,,,,OVC,800,,,,,,,IFR,,,,,,,,,,,,METAR,198.0
KVWU 171855Z AUTO 00000KT 10SM BKN013 OVC090 M08/M09 A2977 RMK AO2,KVWU,2021-01-17T18:55:00Z,48.15,-94.52,-8.0,-9.0,0,0,,10.0,29.769686,,,TRUE,TRUE,,,,,,,BKN,1300,OVC,9000,,,,,MVFR,,,,,,,,,,,,METAR,359.0
KVTP 171855Z AUTO 27012G19KT 10SM CLR M01/M13 A3007 RMK AO2,KVTP,2021-01-17T18:55:00Z,37.5,-105.17,-1.0,-13.0,270,12,19,10.0,30.070866,,,TRUE,TRUE,,,,,,,CLR,,,,,,,,VFR,,,,,,,,,,,,METAR,3086.0
KVPS 171855Z 24011KT 10SM FEW120 SCT250 15/00 A3001 RMK SLP165 WND DATA ESTMD ALSTG/SLP ESTMD,KVPS,2021-01-17T18:55:00Z,30.47,-86.52,15.0,0.0,240,11,,10.0,30.008858,1016.5,,,,,,,,,,FEW,12000,SCT,25000,,,,,VFR,,,,,,,,,,,,METAR,21.0
KVKY 171855Z AUTO 30009KT 10SM CLR 12/01 A3008 RMK A01,KVKY,2021-01-17T18:55:00Z,29.25,-88.43,12.0,1.0,300,9,,10.0,30.079725,,,TRUE,TRUE,,,,,,,CLR,,,,,,,,VFR,,,,,,,,,,,,METAR,32.0
KVKS 171855Z AUTO 26011G19KT 10SM CLR 16/M04 A2999 RMK A01,KVKS,2021-01-17T18:55:00Z,32.23,-90.93,16.0,-4.0,260,11,19,10.0,29.991142,,,TRUE,TRUE,,,,,,,CLR,,,,,,,,VFR,,,,,,,,,,,,METAR,31.0
KVHN 171855Z AUTO 06007KT 10SM CLR 17/M10 A3017 RMK AO2 T01661099,KVHN,2021-01-17T18:55:00Z,31.07,-104.78,16.6,-9.9,60,7,,10.0,30.171259,,,TRUE,TRUE,,,,,,,CLR,,,,,,,,VFR,,,,,,,,,,,,METAR,1200.0
KVGC 171855Z AUTO 29009G15KT 260V330 7SM OVC019 01/M02 A2952 RMK AO2,KVGC,2021-01-17T18:55:00Z,42.85,-75.57,1.0,-2.0,290,9,15,7.0,29.518702,,,TRUE,TRUE,,,,,,,OVC,1900,,,,,,,MVFR,,,,,,,,,,,,METAR,346.0
KVES 171855Z AUTO 25004KT 1 1/2SM -SN OVC005 00/00 A2968 RMK AO2,KVES,2021-01-17T18:55:00Z,40.2,-84.53,0.0,0.0,250,4,,1.5,29.681103,,,TRUE,TRUE,,,,,,-SN,OVC,500,,,,,,,IFR,,,,,,,,,,,,METAR,308.0
KVDI 171855Z AUTO 24009KT 10SM CLR 12/M04 A2996 RMK AO2,KVDI,2021-01-17T18:55:00Z,32.2,-82.37,12.0,-4.0,240,9,,10.0,29.958662,,,TRUE,TRUE,,,,,,,CLR,,,,,,,,VFR,,,,,,,,,,,,METAR,81.0
KUYF 171855Z AUTO 23010KT 1SM -SN OVC006 00/00 A2970 RMK AO2,KUYF,2021-01-17T18:55:00Z,39.93,-83.47,0.0,0.0,230,10,,1.0,29.698818,,,TRUE,TRUE,,,,,,-SN,OVC,600,,,,,,,IFR,,,,,,,,,,,,METAR,326.0
KUVA 171855Z AUTO 00000KT 10SM CLR 17/03 A3014 RMK AO2 T01680031,KUVA,2021-01-17T18:55:00Z,29.22,-99.75,16.8,3.1,0,0,,10.0,30.138779,,,TRUE,TRUE,,,,,,,CLR,,,,,,,,VFR,,,,,,,,,,,,METAR,285.0
KUNI 171855Z AUTO 23006KT 10SM -RA SCT016 OVC024 03/01 A2974 RMK AO2 T00250006,KUNI,2021-01-17T18:55:00Z,39.22,-82.23,2.5,0.6,230,6,,10.0,29.740158,,,TRUE,TRUE,,,,,,-RA,SCT,1600,OVC,2400,,,,,MVFR,,,,,,,,,,,,METAR,232.0
KULS 171855Z AUTO 32012G18KT 10SM CLR 08/M08 A3007 RMK AO2,KULS,2021-01-17T18:55:00Z,37.6,-101.37,8.0,-8.0,320,12,18,10.0,30.070866,,,TRUE,TRUE,,,,,,,CLR,,,,,,,,VFR,,,,,,,,,,,,METAR,934.0
KUKL 171855Z AUTO 32019G23KT 10SM BKN095 07/M04 A2993 RMK AO2 T00711043,KUKL,2021-01-17T18:55:00Z,38.3,-95.73,7.1,-4.3,320,19,23,10.0,29.929134,,,TRUE,TRUE,,,,,,,BKN,9500,,,,,,,VFR,,,,,,,,,,,,METAR,357.0
KUGN 171855Z 32005KT 10SM BKN015 OVC050 01/M04 A2966 RMK AO2 SLP055 T00111039,KUGN,2021-01-17T18:55:00Z,42.42,-87.87,1.1,-3.9,320,5,,10.0,29.660433,1005.5,,,TRUE,,,,,,,BKN,1500,OVC,5000,,,,,MVFR,,,,,,,,,,,,METAR,217.0
KUCY 171855Z AUTO 28014G21KT 10SM SCT034 07/M01 A2986 RMK A01,KUCY,2021-01-17T18:55:00Z,36.38,-88.98,7.0,-1.0,280,14,21,10.0,29.861221,,,TRUE,TRUE,,,,,,,SCT,3400,,,,,,,VFR,,,,,,,,,,,,METAR,97.0
KU69 171855Z AUTO 11007KT 10SM CLR 00/M07 A3017 RMK A01,KU69,2021-01-17T18:55:00Z,,,0.0,-7.0,110,7,,10.0,30.171259,,,TRUE,TRUE,,,,,,,CLR,,,,,,,,VFR,,,,,,,,,,,,METAR,
KU68 171855Z AUTO 10005KT 10SM OVC100 01/M07 A2996 RMK AO2,KU68,2021-01-17T18:55:00Z,44.92,-108.45,1.0,-7.0,100,5,,10.0,29.958662,,,TRUE,TRUE,,,,,,,OVC,10000,,,,,,,VFR,,,,,,,,,,,,METAR,1244.0
KTYQ 171855Z AUTO 28006KT 2SM -SN BKN010 OVC014 M01/M03 A2971 RMK AO2 T10111028,KTYQ,2021-01-17T18:55:00Z,40.03,-86.25,-1.1,-2.8,280,6,,2.0,29.71063,,,TRUE,TRUE,,,,,,-SN,BKN,1000,OVC,1400,,,,,IFR,,,,,,,,,,,,METAR,279.0
KTXW 171855Z AUTO 19004KT 10SM SCT034 OVC040 23/13 A3006 RMK AO2 T02340128,KTXW,2021-01-17T18:55:00Z,26.18,-97.97,23.4,12.8,190,4,,10.0,30.059055,,,TRUE,TRUE,,,,,,,SCT,3400,OVC,4000,,,,,VFR,,,,,,,,,,,,METAR,21.0
KTVK 171855Z AUTO 9SM FEW012 M01/M01 A2981 RMK AO2,KTVK,2021-01-17T18:55:00Z,40.68,-92.9,-1.0,-1.0,,,,9.0,29.811024,,,TRUE,TRUE,,,,,,,FEW,1200,,,,,,,VFR,,,,,,,,,,,,METAR,311.0
KTVI 171855Z AUTO 25005KT 10SM CLR 12/M01 A3002 RMK AO2,KTVI,2021-01-17T18:55:00Z,30.9,-83.88,12.0,-1.0,250,5,,10.0,30.02067,,,TRUE,TRUE,,,,,,,CLR,,,,,,,,VFR,,,,,,,,,,,,METAR,74.0
KTQK 171855Z AUTO 10SM CLR 07/M10 A3005 RMK AO1 T00701100,KTQK,2021-01-17T18:55:00Z,38.47,-100.88,7.0,-10.0,,,,10.0,30.050198,,,TRUE,TRUE,,,,,,,CLR,,,,,,,,VFR,,,,,,,,,,,,METAR,906.0
KTQH 171855Z AUTO 28014G19KT 10SM CLR 10/M02 A3000 RMK AO2,KTQH,2021-01-17T18:55:00Z,35.93,-95.0,10.0,-2.0,280,14,19,10.0,30.0,,,TRUE,TRUE,,,,,,,CLR,,,,,,,,VFR,,,,,,,,,,,,METAR,265.0
KTPF 171855Z AUTO 00000KT 10SM BKN065 16/08 A3004 RMK AO2,KTPF,2021-01-17T18:55:00Z,27.92,-82.45,16.0,8.0,0,0,,10.0,30.041338,,,TRUE,TRUE,,,,,,,BKN,6500,,,,,,,VFR,,,,,,,,,,,,METAR,1.0
KTOC 171855Z AUTO 26011G19KT 230V290 10SM BKN050 BKN080 10/M04 A2988 RMK AO2 T00951036,KTOC,2021-01-17T18:55:00Z,34.6,-83.3,9.5,-3.6,260,11,19,10.0,29.878937,,,TRUE,TRUE,,,,,,,BKN,5000,BKN,8000,,,,,VFR,,,,,,,,,,,,METAR,292.0
KTNB 171855Z AUTO 27004KT 10SM 02/M07 A2975 RMK AO2 T00191066,KTNB,2021-01-17T18:55:00Z,36.2,-81.65,1.9,-6.6,270,4,,10.0,29.749016,,,TRUE,TRUE,,,,,,,,,,,,,,,,,,,,,,,,,,,METAR,958.0
KTMT 171855Z AUTO 00000KT 10SM 06/M04 A3037 RMK AO2 T00571039,KTMT,2021-01-17T18:55:00Z,39.47,-117.2,5.7,-3.9,0,0,,10.0,30.369095,,,TRUE,TRUE,,,,,,,,,,,,,,,,,,,,,,,,,,,METAR,1748.0
KTMK 171855Z AUTO 00000KT 10SM BKN003 OVC010 09/08 A3053 RMK AO2,KTMK,2021-01-17T18:55:00Z,45.42,-123.82,9.0,8.0,0,0,,10.0,30.528543,,,TRUE,TRUE,,,,,,,BKN,300,OVC,1000,,,,,LIFR,,,,,,,,,,,,METAR,8.0
KTMA 171855Z AUTO 23008KT 10SM CLR 12/M02 A2999 RMK AO2 T01151016,KTMA,2021-01-17T18:55:00Z,31.43,-83.48,11.5,-1.6,230,8,,10.0,29.991142,,,TRUE,TRUE,,,,,,,CLR,,,,,,,,VFR,,,,,,,,,,,,METAR,105.0
KTIP 171855Z AUTO 26013G18KT 10SM OVC017 M01/M04 A2972 RMK AO2 T10141042,KTIP,2021-01-17T18:55:00Z,40.28,-88.15,-1.4,-4.2,260,13,18,10.0,29.719488,,,TRUE,TRUE,,,,,,,OVC,1700,,,,,,,MVFR,,,,,,,,,,,,METAR,224.0
KTIF 171855Z AUTO 31016G26KT 10SM CLR 05/M08 A2996 RMK AO2 T00531079,KTIF,2021-01-17T18:55:00Z,41.97,-100.57,5.3,-7.9,310,16,26,10.0,29.958662,,,TRUE,TRUE,,,,,,,CLR,,,,,,,,VFR,,,,,,,,,,,,METAR,888.0
KTHA 171855Z AUTO 25010G19KT 10SM SCT046 SCT055 09/M03 A2983 RMK A01,KTHA,2021-01-17T18:55:00Z,35.38,-86.25,9.0,-3.0,250,10,19,10.0,29.828741,,,TRUE,TRUE,,,,,,,SCT,4600,SCT,5500,,,,,VFR,,,,,,,,,,,,METAR,333.0
KTFP 171855Z AUTO 14004KT 10SM CLR 21/07 A3009 RMK AO2 T02070073,KTFP,2021-01-17T18:55:00Z,27.92,-97.22,20.7,7.3,140,4,,10.0,30.088583,,,TRUE,TRUE,,,,,,,CLR,,,,,,,,VFR,,,,,,,,,,,,METAR,5.0
KTEX 171855Z AUTO 23004KT 10SM CLR 03/M15 A3022 RMK AO2,KTEX,2021-01-17T18:55:00Z,37.95,-107.9,3.0,-15.0,230,4,,10.0,30.221457,,,TRUE,TRUE,,,,,,,CLR,,,,,,,,VFR,,,,,,,,,,,,METAR,2760.0
KTDF 171855Z AUTO 27004KT 10SM CLR 07/M03 A2985 RMK AO2,KTDF,2021-01-17T18:55:00Z,36.28,-78.98,7.0,-3.0,270,4,,10.0,29.84941,,,TRUE,TRUE,,,,,,,CLR,,,,,,,,VFR,,,,,,,,,,,,METAR,180.0
KTCY 171855Z AUTO 36006KT 10SM CLR 18/07 A3016 RMK A01,KTCY,2021-01-17T18:55:00Z,37.68,-121.43,18.0,7.0,360,6,,10.0,30.159449,,,TRUE,TRUE,,,,,,,CLR,,,,,,,,VFR,,,,,,,,,,,,METAR,51.0
KTBR 171855Z AUTO 27010G15KT 10SM CLR 12/M03 A2996 RMK AO2 T01181028,KTBR,2021-01-17T18:55:00Z,32.48,-81.73,11.8,-2.8,270,10,15,10.0,29.958662,,,TRUE,TRUE,,,,,,,CLR,,,,,,,,VFR,,,,,,,,,,,,METAR,54.0
KTAZ 171855Z AUTO 27012KT 10SM BKN017 BKN028 OVC042 M01/M03 A2977 RMK AO2 T10061035,KTAZ,2021-01-17T18:55:00Z,39.53,-89.33,-0.6,-3.5,270,12,,10.0,29.769686,,,TRUE,TRUE,,,,,,,BKN,1700,BKN,2800,OVC,4200,,,MVFR,,,,,,,,,,,,METAR,188.0
KT82 171855Z AUTO 29005KT 10SM CLR 17/M04 A3010 RMK AO2 T01731044,KT82,2021-01-17T18:55:00Z,30.25,-98.92,17.3,-4.4,290,5,,10.0,30.100393,,,TRUE,TRUE,,,,,,,CLR,,,,,,,,VFR,,,,,,,,,,,,METAR,509.0
KT74 171855Z AUTO 01011G18KT 10SM CLR 18/M01 A3011 RMK AO2 T01791012,KT74,2021-01-17T18:55:00Z,30.57,-97.45,17.9,-1.2,10,11,18,10.0,30.109253,,,TRUE,TRUE,,,,,,,CLR,,,,,,,,VFR,,,,,,,,,,,,METAR,169.0
KT41 171855Z AUTO 29010KT 10SM CLR 18/M03 A3010 RMK AO2 T01851034,KT41,2021-01-17T18:55:00Z,29.67,-95.07,18.5,-3.4,290,10,,10.0,30.100393,,,TRUE,TRUE,,,,,,,CLR,,,,,,,,VFR,,,,,,,,,,,,METAR,8.0
KT35 171855Z AUTO 02007KT 10SM CLR 16/00 A3013 RMK AO2 T01580000,KT35,2021-01-17T18:55:00Z,30.88,-96.97,15.8,0.0,20,7,,10.0,30.129921,,,TRUE,TRUE,,,,,,,CLR,,,,,,,,VFR,,,,,,,,,,,,METAR,122.0
KT20 171855Z AUTO 00000KT 10SM CLR 19/00 A3010 RMK AO2 T01941004,KT20,2021-01-17T18:55:00Z,29.52,-97.47,19.4,-0.4,0,0,,10.0,30.100393,,,TRUE,TRUE,,,,,,,CLR,,,,,,,,VFR,,,,,,,,,,,,METAR,107.0
KSZY 171855Z AUTO 27011G20KT 240V320 10SM CLR 10/M05 A2985 RMK A01,KSZY,2021-01-17T18:55:00Z,,,10.0,-5.0,270,11,20,10.0,29.84941,,,TRUE,TRUE,,,,,,,CLR,,,,,,,,VFR,,,,,,,,,,,,METAR,
KSZT 171855Z AUTO 21009KT 10SM OVC017 02/01 A3023 RMK AO2,KSZT,2021-01-17T18:55:00Z,48.3,-116.57,2.0,1.0,210,9,,10.0,30.230314,,,TRUE,TRUE,,,,,,,OVC,1700,,,,,,,MVFR,,,,,,,,,,,,METAR,649.0
KSYI 171855Z AUTO 25011G17KT 10SM SCT046 SCT050 08/M02 A2983 RMK A01,KSYI,2021-01-17T18:55:00Z,35.57,-86.45,8.0,-2.0,250,11,17,10.0,29.828741,,,TRUE,TRUE,,,,,,,SCT,4600,SCT,5000,,,,,VFR,,,,,,,,,,,,METAR,244.0
KSYF 171855Z AUTO 32017G28KT 10SM CLR 07/M14 A3003 RMK AO2 T00661145 PWINO,KSYF,2021-01-17T18:55:00Z,39.77,-101.8,6.6,-14.5,320,17,28,10.0,30.029528,,,TRUE,TRUE,,,,,TRUE,,CLR,,,,,,,,VFR,,,,,,,,,,,,METAR,1041.0
KSWW 171855Z AUTO 06009KT 10SM CLR 11/M05 A3018 RMK AO2 T01141047,KSWW,2021-01-17T18:55:00Z,32.47,-100.47,11.4,-4.7,60,9,,10.0,30.180119,,,TRUE,TRUE,,,,,,,CLR,,,,,,,,VFR,,,,,,,,,,,,METAR,718.0
KSUN 171855Z 13009KT 10SM MIFG SKC M04/M05 A3022,KSUN,2021-01-17T18:55:00Z,43.5,-114.28,-4.0,-5.0,130,9,,10.0,30.221457,,,,,,,,,,MIFG,SKC,,,,,,,,VFR,,,,,,,,,,,,METAR,1619.0
KSTK 171855Z AUTO 29010KT 10SM CLR 06/M06 A2999 RMK AO2,KSTK,2021-01-17T18:55:00Z,40.62,-103.27,6.0,-6.0,290,10,,10.0,29.991142,,,TRUE,TRUE,,,,,,,CLR,,,,,,,,VFR,,,,,,,,,,,,METAR,1228.0
KSTE 171855Z AUTO 36003KT 10SM OVC026 M03/M08 A2970 RMK AO2 T10261083,KSTE,2021-01-17T18:55:00Z,44.55,-89.53,-2.6,-8.3,360,3,,10.0,29.698818,,,TRUE,TRUE,,,,,,,OVC,2600,,,,,,,MVFR,,,,,,,,,,,,METAR,335.0
KSRE 171855Z AUTO 29016G23KT 270V330 9SM SCT070 12/M07 A3005 RMK AO2,KSRE,2021-01-17T18:55:00Z,35.27,-96.68,12.0,-7.0,290,16,23,9.0,30.050198,,,TRUE,TRUE,,,,,,,SCT,7000,,,,,,,VFR,,,,,,,,,,,,METAR,306.0
KSRB 171855Z AUTO 23009KT 10SM SCT038 BKN044 OVC070 07/M02 A2981 RMK A01,KSRB,2021-01-17T18:55:00Z,36.05,-85.53,7.0,-2.0,230,9,,10.0,29.811024,,,TRUE,TRUE,,,,,,,SCT,3800,BKN,4400,OVC,7000,,,VFR,,,,,,,,,,,,METAR,303.0
KSOA 171855Z AUTO VRB03KT 10SM CLR 14/M05 A3016 RMK AO2,KSOA,2021-01-17T18:55:00Z,30.58,-100.65,14.0,-5.0,0,3,,10.0,30.159449,,,TRUE,TRUE,,,,,,,CLR,,,,,,,,VFR,,,,,,,,,,,,METAR,654.0
KSNL 171855Z AUTO 31015G24KT 10SM CLR 11/M09 A3005 RMK AO2 T01131087,KSNL,2021-01-17T18:55:00Z,35.35,-96.95,11.3,-8.7,310,15,24,10.0,30.050198,,,TRUE,TRUE,,,,,,,CLR,,,,,,,,VFR,,,,,,,,,,,,METAR,327.0
KSNK 171855Z AUTO 06010KT 10SM CLR 10/M04 A3016 RMK AO2 T01021044,KSNK,2021-01-17T18:55:00Z,32.7,-100.95,10.2,-4.4,60,10,,10.0,30.159449,,,TRUE,TRUE,,,,,,,CLR,,,,,,,,VFR,,,,,,,,,,,,METAR,738.0
KSNH 171855Z AUTO 29009G16KT 10SM CLR 10/M05 A2985 RMK A01,KSNH,2021-01-17T18:55:00Z,35.17,-88.22,10.0,-5.0,290,9,16,10.0,29.84941,,,TRUE,TRUE,,,,,,,CLR,,,,,,,,VFR,,,,,,,,,,,,METAR,142.0
KSME 171855Z AUTO 22010G16KT 180V240 10SM SCT029 BKN034 OVC041 03/M03 A2981 RMK AO2,KSME,2021-01-17T18:55:00Z,37.05,-84.62,3.0,-3.0,220,10,16,10.0,29.811024,,,TRUE,TRUE,,,,,,,SCT,2900,BKN,3400,OVC,4100,,,VFR,,,,,,,,,,,,METAR,279.0
KSMD 171855Z AUTO 22010KT 3SM BR FEW008 SCT025 BKN030 01/00 A2968 RMK A01,KSMD,2021-01-17T18:55:00Z,41.15,-85.15,1.0,0.0,220,10,,3.0,29.681103,,,TRUE,TRUE,,,,,,BR,FEW,800,SCT,2500,BKN,3000,,,MVFR,,,,,,,,,,,,METAR,252.0
KSLR 171855Z AUTO 28007KT 10SM OVC100 11/M03 A3013 RMK AO2 T01091035,KSLR,2021-01-17T18:55:00Z,33.17,-95.62,10.9,-3.5,280,7,,10.0,30.129921,,,TRUE,TRUE,,,,,,,OVC,10000,,,,,,,VFR,,,,,,,,,,,,METAR,144.0
KSLO 171855Z AUTO 27006G15KT 10SM OVC016 01/M02 A2980 RMK AO2 T00051020,KSLO,2021-01-17T18:55:00Z,38.65,-88.97,0.5,-2.0,270,6,15,10.0,29.799213,,,TRUE,TRUE,,,,,,,OVC,1600,,,,,,,MVFR,,,,,,,,,,,,METAR,173.0
KSJS 171855Z AUTO 23006KT 10SM SCT024 BKN031 OVC050 03/M01 A2977 RMK AO2 T00301007,KSJS,2021-01-17T18:55:00Z,37.75,-82.63,3.0,-0.7,230,6,,10.0,29.769686,,,TRUE,TRUE,,,,,,,SCT,2400,BKN,3100,OVC,5000,,,VFR,,,,,,,,,,,,METAR,359.0
KSFY 171855Z AUTO 31007KT 10SM OVC026 00/M05 A2973 RMK AO2,KSFY,2021-01-17T18:55:00Z,42.05,-90.12,0.0,-5.0,310,7,,10.0,29.731298,,,TRUE,TRUE,,,,,,,OVC,2600,,,,,,,MVFR,,,,,,,,,,,,METAR,188.0
KSEZ 171855Z AUTO 00000KT 10SM CLR 15/M17 A3021 RMK AO2,KSEZ,2021-01-17T18:55:00Z,34.85,-111.78,15.0,-17.0,0,0,,10.0,30.209646,,,TRUE,TRUE,,,,,,,CLR,,,,,,,,VFR,,,,,,,,,,,,METAR,1455.0
KSEP 171855Z AUTO 36008KT 10SM CLR 15/M06 A3016 RMK AO2 T01501057,KSEP,2021-01-17T18:55:00Z,32.22,-98.17,15.0,-5.7,360,8,,10.0,30.159449,,,TRUE,TRUE,,,,,,,CLR,,,,,,,,VFR,,,,,,,,,,,,METAR,399.0
KSEF 171855Z AUTO 23003KT 10SM OVC040 16/08 A3004 RMK AO2 T01630075,KSEF,2021-01-17T18:55:00Z,27.45,-81.35,16.3,7.5,230,3,,10.0,30.041338,,,TRUE,TRUE,,,,,,,OVC,4000,,,,,,,VFR,,,,,,,,,,,,METAR,17.0
KSCX 171855Z AUTO 22007G17KT 10SM BKN029 OVC037 03/M02 A2979 RMK A01,KSCX,2021-01-17T18:55:00Z,36.45,-84.58,3.0,-2.0,220,7,17,10.0,29.790354,,,TRUE,TRUE,,,,,,,BKN,2900,OVC,3700,,,,,MVFR,,,,,,,,,,,,METAR,462.0
KSCK 171855Z 00000KT 3SM HZ CLR 16/11 A3015 RMK AO2 SLP210 T01560106,KSCK,2021-01-17T18:55:00Z,37.88,-121.22,15.6,10.6,0,0,,3.0,30.15059,1021.0,,,TRUE,,,,,,HZ,CLR,,,,,,,,MVFR,,,,,,,,,,,,METAR,8.0
KSCD 171855Z AUTO 26013G16KT 10SM CLR 10/M01 A2994 RMK AO2 T01021013,KSCD,2021-01-17T18:55:00Z,33.17,-86.3,10.2,-1.3,260,13,16,10.0,29.940945,,,TRUE,TRUE,,,,,,,CLR,,,,,,,,VFR,,,,,,,,,,,,METAR,164.0
KSBS 171855Z AUTO 00000KT 10SM SCT120 M02/M08 A3016 RMK AO1 T10211080,KSBS,2021-01-17T18:55:00Z,40.52,-106.87,-2.1,-8.0,0,0,,10.0,30.159449,,,TRUE,TRUE,,,,,,,SCT,12000,,,,,,,VFR,,,,,,,,,,,,METAR,2097.0
KSBO 171855Z AUTO 28006KT 10SM CLR 12/M01 A2995 RMK AO2,KSBO,2021-01-17T18:55:00Z,32.62,-82.37,12.0,-1.0,280,6,,10.0,29.949802,,,TRUE,TRUE,,,,,,,CLR,,,,,,,,VFR,,,,,,,,,,,,METAR,98.0
KSAA 171855Z AUTO 24022G31KT 10SM BKN065 00/M08 A3007 RMK AO2,KSAA,2021-01-17T18:55:00Z,41.45,-106.8,0.0,-8.0,240,22,31,10.0,30.070866,,,TRUE,TRUE,,,,,,,BKN,6500,,,,,,,VFR,,,,,,,,,,,,METAR,2093.0
KS52 171855Z AUTO 00000KT 10SM OVC011 M05/M06 A3035 RMK AO2 T10521061,KS52,2021-01-17T18:55:00Z,48.42,-120.15,-5.2,-6.1,0,0,,10.0,30.351377,,,TRUE,TRUE,,,,,,,OVC,1100,,,,,,,MVFR,,,,,,,,,,,,METAR,517.0
KS39 171855Z AUTO 25005KT 10SM CLR 09/01 A3039 RMK AO2,KS39,2021-01-17T18:55:00Z,44.28,-120.9,9.0,1.0,250,5,,10.0,30.389763,,,TRUE,TRUE,,,,,,,CLR,,,,,,,,VFR,,,,,,,,,,,,METAR,987.0
KS21 171855Z AUTO 19005KT 10SM CLR 07/00 A3044 RMK AO2,KS21,2021-01-17T18:55:00Z,43.88,-121.45,7.0,0.0,190,5,,10.0,30.43996,,,TRUE,TRUE,,,,,,,CLR,,,,,,,,VFR,,,,,,,,,,,,METAR,1269.0
KRZR 171855Z AUTO 20012G18KT 10SM SCT044 BKN050 OVC055 08/M01 A2984 RMK A01,KRZR,2021-01-17T18:55:00Z,35.22,-84.8,8.0,-1.0,200,12,18,10.0,29.840551,,,TRUE,TRUE,,,,,,,SCT,4400,BKN,5000,OVC,5500,,,VFR,,,,,,,,,,,,METAR,259.0
KRYW 171855Z AUTO 00000KT 10SM CLR A3011 RMK AO2,KRYW,2021-01-17T18:55:00Z,30.5,-97.97,,,0,0,,10.0,30.109253,,,TRUE,TRUE,,,,,,,CLR,,,,,,,,VFR,,,,,,,,,,,,METAR,370.0
KRWV 171855Z AUTO 35010G14KT 10SM CLR 17/M01 A3011 RMK AO2 T01681007,KRWV,2021-01-17T18:55:00Z,30.52,-96.7,16.8,-0.7,350,10,14,10.0,30.109253,,,TRUE,TRUE,,,,,,,CLR,,,,,,,,VFR,,,,,,,,,,,,METAR,116.0
KRVJ 171855Z AUTO 25011KT 10SM CLR 11/M02 A2997 RMK AO2 T01131023,KRVJ,2021-01-17T18:55:00Z,32.07,-82.15,11.3,-2.3,250,11,,10.0,29.970472,,,TRUE,TRUE,,,,,,,CLR,,,,,,,,VFR,,,,,,,,,,,,METAR,60.0
KRUQ 171855Z AUTO 24004KT 10SM OVC049 07/M03 A2985 RMK AO2 T00651034,KRUQ,2021-01-17T18:55:00Z,35.65,-80.52,6.5,-3.4,240,4,,10.0,29.84941,,,TRUE,TRUE,,,,,,,OVC,4900,,,,,,,VFR,,,,,,,,,,,,METAR,231.0
KRTS 171855Z AUTO 00000KT 10SM CLR 07/M00 A3038 RMK AO2,KRTS,2021-01-17T18:55:00Z,39.67,-119.88,7.0,0.0,0,0,,10.0,30.380905,,,TRUE,TRUE,,,,,,,CLR,,,,,,,,VFR,,,,,,,,,,,,METAR,1537.0
KRSV 171855Z AUTO 28013G16KT 10SM BKN022 OVC031 00/M02 A2978 RMK AO2 T00021023,KRSV,2021-01-17T18:55:00Z,39.02,-87.65,0.2,-2.3,280,13,16,10.0,29.778543,,,TRUE,TRUE,,,,,,,BKN,2200,OVC,3100,,,,,MVFR,,,,,,,,,,,,METAR,139.0
KRSN 171855Z AUTO 30008KT 260V330 10SM SCT090 SCT110 13/M11 A3006 RMK AO2 T01251110,KRSN,2021-01-17T18:55:00Z,32.52,-92.58,12.5,-11.0,300,8,,10.0,30.059055,,,TRUE,TRUE,,,,,,,SCT,9000,SCT,11000,,,,,VFR,,,,,,,,,,,,METAR,86.0
KRQO 171855Z AUTO 32020G26KT 10SM CLR 11/M05 A3008 RMK AO2 T01141054,KRQO,2021-01-17T18:55:00Z,35.47,-98.0,11.4,-5.4,320,20,26,10.0,30.079725,,,TRUE,TRUE,,,,,,,CLR,,,,,,,,VFR,,,,,,,,,,,,METAR,431.0
KRQB 171855Z AUTO 00000KT 10SM OVC020 00/M03 A2963 RMK AO2 T00001035,KRQB,2021-01-17T18:55:00Z,43.72,-85.5,0.0,-3.5,0,0,,10.0,29.630905,,,TRUE,TRUE,,,,,,,OVC,2000,,,,,,,MVFR,,,,,,,,,,,,METAR,282.0
KRPJ 171855Z AUTO 32008KT 7SM -SN SCT017 OVC045 00/M01 A2970 RMK AO2 T10031015,KRPJ,2021-01-17T18:55:00Z,41.88,-89.08,-0.3,-1.5,320,8,,7.0,29.698818,,,TRUE,TRUE,,,,,,-SN,SCT,1700,OVC,4500,,,,,VFR,,,,,,,,,,,,METAR,234.0
KRNV 171855Z AUTO 29010KT 10SM CLR 11/M02 A2997 RMK AO2 T01091019,KRNV,2021-01-17T18:55:00Z,33.77,-90.75,10.9,-1.9,290,10,,10.0,29.970472,,,TRUE,TRUE,,,,,,,CLR,,,,,,,,VFR,,,,,,,,,,,,METAR,42.0
KRNO 171855Z 00000KT 10SM FEW180 FEW250 07/M01 A3038 RMK AO2 SLP286 T00721006 $,KRNO,2021-01-17T18:55:00Z,39.5,-119.77,7.2,-0.6,0,0,,10.0,30.380905,1028.6,,,TRUE,TRUE,,,,,,FEW,18000,FEW,25000,,,,,VFR,,,,,,,,,,,,METAR,1344.0
KRNC 171855Z AUTO 25011G20KT 10SM BKN041 BKN050 07/M02 A2983 RMK A01,KRNC,2021-01-17T18:55:00Z,35.7,-85.85,7.0,-2.0,250,11,20,10.0,29.828741,,,TRUE,TRUE,,,,,,,BKN,4100,BKN,5000,,,,,VFR,,,,,,,,,,,,METAR,310.0
KRLD 171855Z AUTO 18005KT 10SM CLR 08/03 A3036 RMK AO2 T00760034,KRLD,2021-01-17T18:55:00Z,46.3,-119.3,7.6,3.4,180,5,,10.0,30.360237,,,TRUE,TRUE,,,,,,,CLR,,,,,,,,VFR,,,,,,,,,,,,METAR,118.0
KRKW 171855Z AUTO 22007G15KT 200V270 10SM FEW029 SCT035 BKN043 05/M02 A2980 RMK A01,KRKW,2021-01-17T18:55:00Z,35.92,-84.68,5.0,-2.0,220,7,15,10.0,29.799213,,,TRUE,TRUE,,,,,,,FEW,2900,SCT,3500,BKN,4300,,,VFR,,,,,,,,,,,,METAR,505.0
KRKR 171855Z AUTO 28010G17KT 10SM CLR 11/M04 A3001 RMK AO2,KRKR,2021-01-17T18:55:00Z,35.02,-94.62,11.0,-4.0,280,10,17,10.0,30.008858,,,TRUE,TRUE,,,,,,,CLR,,,,,,,,VFR,,,,,,,,,,,,METAR,136.0
KRHP 171855Z AUTO 25005G08KT 10SM SCT033 BKN040 OVC046 04/M01 A2984 RMK AO2 T00441015,KRHP,2021-01-17T18:55:00Z,35.18,-83.85,4.4,-1.5,250,5,8,10.0,29.840551,,,TRUE,TRUE,,,,,,,SCT,3300,BKN,4000,OVC,4600,,,VFR,,,,,,,,,,,,METAR,515.0
KRGA 171855Z AUTO 23008KT 10SM SCT018 SCT028 OVC045 02/00 A2976 RMK AO2,KRGA,2021-01-17T18:55:00Z,37.63,-84.33,2.0,0.0,230,8,,10.0,29.760826,,,TRUE,TRUE,,,,,,,SCT,1800,SCT,2800,OVC,4500,,,VFR,,,,,,,,,,,,METAR,301.0
KREG 171855Z AUTO 30006G14KT 10SM CLR 16/M05 A3006 RMK AO2 T01631054,KREG,2021-01-17T18:55:00Z,30.17,-90.93,16.3,-5.4,300,6,14,10.0,30.059055,,,TRUE,TRUE,,,,,,,CLR,,,,,,,,VFR,,,,,,,,,,,,METAR,3.0
KRCV 171855Z AUTO 29006KT 10SM CLR 08/M10 A3010 RMK AO2 T00761104,KRCV,2021-01-17T18:55:00Z,37.72,-106.35,7.6,-10.4,290,6,,10.0,30.100393,,,TRUE,TRUE,,,,,,,CLR,,,,,,,,VFR,,,,,,,,,,,,METAR,2418.0
KRCR 171855Z AUTO 27008KT 10SM BKN011 OVC016 00/M02 A2969 RMK AO2,KRCR,2021-01-17T18:55:00Z,41.07,-86.18,0.0,-2.0,270,8,,10.0,29.68996,,,TRUE,TRUE,,,,,,,BKN,1100,OVC,1600,,,,,MVFR,,,,,,,,,,,,METAR,240.0
KRBO 171855Z AUTO 11005KT 10SM CLR 22/11 A3009 RMK AO2 T02200105,KRBO,2021-01-17T18:55:00Z,27.78,-97.68,22.0,10.5,110,5,,10.0,30.088583,,,TRUE,TRUE,,,,,,,CLR,,,,,,,,VFR,,,,,,,,,,,,METAR,24.0
KRAS 171855Z AUTO 08007KT 10SM CLR 18/09 A3011 RMK AO2 T01800088,KRAS,2021-01-17T18:55:00Z,27.82,-97.08,18.0,8.8,80,7,,10.0,30.109253,,,TRUE,TRUE,,,,,,,CLR,,,,,,,,VFR,,,,,,,,,,,,METAR,3.0
KQAZ 171855Z 11010KT 9999 CLR 24/M04 A2999 RMK A02A SLP132 WND DATA ESTMD T02441040,KQAZ,2021-01-17T18:55:00Z,,,24.4,-4.0,110,10,,6.21,29.991142,1013.2,,,TRUE,,,,,,,CLR,,,,,,,,VFR,,,,,,,,,,,,SPECI,
KPZZ 171855Z AUTO 29007KT 10SM CLR 14/05 A3009 RMK A01,KPZZ,2021-01-17T18:55:00Z,28.43,-91.03,14.0,5.0,290,7,,10.0,30.088583,,,TRUE,TRUE,,,,,,,CLR,,,,,,,,VFR,,,,,,,,,,,,METAR,25.0
KPYX 171855Z AUTO 30012G17KT 10SM CLR 09/M09 A3010 RMK AO2 T00881093,KPYX,2021-01-17T18:55:00Z,36.42,-100.75,8.8,-9.3,300,12,17,10.0,30.100393,,,TRUE,TRUE,,,,,,,CLR,,,,,,,,VFR,,,,,,,,,,,,METAR,890.0
KPXE 171855Z AUTO 26010G19KT 10SM CLR 11/M02 A2996 RMK AO2 T01151020,KPXE,2021-01-17T18:55:00Z,32.52,-83.77,11.5,-2.0,260,10,19,10.0,29.958662,,,TRUE,TRUE,,,,,,,CLR,,,,,,,,VFR,,,,,,,,,,,,METAR,126.0
KPVW 171855Z AUTO 08004KT 10SM CLR 08/M07 A3012 RMK AO2 T00771069,KPVW,2021-01-17T18:55:00Z,34.17,-101.72,7.7,-6.9,80,4,,10.0,30.121063,,,TRUE,TRUE,,,,,,,CLR,,,,,,,,VFR,,,,,,,,,,,,METAR,1029.0
KPVJ 171855Z AUTO 31010KT 10SM BKN120 11/M05 A3009 RMK AO2 T01121050,KPVJ,2021-01-17T18:55:00Z,34.72,-97.22,11.2,-5.0,310,10,,10.0,30.088583,,,TRUE,TRUE,,,,,,,BKN,12000,,,,,,,VFR,,,,,,,,,,,,METAR,287.0
KPVF 171855Z AUTO 00000KT 10SM CLR 16/05 A3020 RMK AO1,KPVF,2021-01-17T18:55:00Z,38.72,-120.75,16.0,5.0,0,0,,10.0,30.200787,,,TRUE,TRUE,,,,,,,CLR,,,,,,,,VFR,,,,,,,,,,,,METAR,788.0
KPVE 171855Z AUTO 26014G22KT 10SM FEW055 09/M05 A2984 RMK A01,KPVE,2021-01-17T18:55:00Z,35.65,-88.2,9.0,-5.0,260,14,22,10.0,29.840551,,,TRUE,TRUE,,,,,,,FEW,5500,,,,,,,VFR,,,,,,,,,,,,METAR,146.0
KPUJ 171855Z AUTO 24011G16KT 200V270 10SM SCT043 08/M02 A2988 RMK AO2,KPUJ,2021-01-17T18:55:00Z,33.92,-84.93,8.0,-2.0,240,11,16,10.0,29.878937,,,TRUE,TRUE,,,,,,,SCT,4300,,,,,,,VFR,,,,,,,,,,,,METAR,385.0
KPTT 171855Z AUTO 35018G25KT 10SM CLR 09/M07 A3004 RMK AO2 T00861075,KPTT,2021-01-17T18:55:00Z,37.7,-98.75,8.6,-7.5,350,18,25,10.0,30.041338,,,TRUE,TRUE,,,,,,,CLR,,,,,,,,VFR,,,,,,,,,,,,METAR,594.0
KPTD 171855Z AUTO 26012KT 10SM FEW016 BKN024 OVC046 M00/M03 A2943 RMK AO2,KPTD,2021-01-17T18:55:00Z,44.68,-74.95,0.0,-3.0,260,12,,10.0,29.430119,,,TRUE,TRUE,,,,,,,FEW,1600,BKN,2400,OVC,4600,,,MVFR,,,,,,,,,,,,METAR,144.0
KPSO 171855Z AUTO 20003KT 10SM CLR 02/M11 A3017 RMK AO2 T00191114,KPSO,2021-01-17T18:55:00Z,37.28,-107.05,1.9,-11.4,200,3,,10.0,30.171259,,,TRUE,TRUE,,,,,,,CLR,,,,,,,,VFR,,,,,,,,,,,,METAR,2332.0
KPSN 171855Z AUTO 35010KT 10SM CLR 15/M02 A3011 RMK AO2 T01561028,KPSN,2021-01-17T18:55:00Z,31.78,-95.7,15.6,-2.8,350,10,,10.0,30.109253,,,TRUE,TRUE,,,,,,,CLR,,,,,,,,VFR,,,,,,,,,,,,METAR,124.0
KPRS 171855Z AUTO 22005KT 10SM CLR 16/M08 A3018 RMK AO2 T01591077,KPRS,2021-01-17T18:55:00Z,29.63,-104.35,15.9,-7.7,220,5,,10.0,30.180119,,,TRUE,TRUE,,,,,,,CLR,,,,,,,,VFR,,,,,,,,,,,,METAR,890.0
KPRG 171855Z AUTO 27010G13KT 10SM OVC011 M01/M02 A2975 RMK AO2 T10101019,KPRG,2021-01-17T18:55:00Z,39.7,-87.67,-1.0,-1.9,270,10,13,10.0,29.749016,,,TRUE,TRUE,,,,,,,OVC,1100,,,,,,,MVFR,,,,,,,,,,,,METAR,197.0
KPPQ 171855Z AUTO 29010G14KT 10SM OVC021 00/M03 A2980 RMK AO2 T00001030,KPPQ,2021-01-17T18:55:00Z,39.63,-90.78,0.0,-3.0,290,10,14,10.0,29.799213,,,TRUE,TRUE,,,,,,,OVC,2100,,,,,,,MVFR,,,,,,,,,,,,METAR,215.0
KPPO 171855Z AUTO 26007KT 2SM -SN OVC016 M01/M03 A2969 RMK AO2 T10101026,KPPO,2021-01-17T18:55:00Z,41.57,-86.73,-1.0,-2.6,260,7,,2.0,29.68996,,,TRUE,TRUE,,,,,,-SN,OVC,1600,,,,,,,IFR,,,,,,,,,,,,METAR,242.0
KPPA 171855Z AUTO 32011KT 10SM CLR 10/M09 A3012 RMK AO2 T00981086,KPPA,2021-01-17T18:55:00Z,35.62,-101.0,9.8,-8.6,320,11,,10.0,30.121063,,,TRUE,TRUE,,,,,,,CLR,,,,,,,,VFR,,,,,,,,,,,,METAR,989.0
KPOY 171855Z AUTO 18007KT 10SM SCT080 BKN090 00/M09 A2990 RMK AO2,KPOY,2021-01-17T18:55:00Z,44.87,-108.8,0.0,-9.0,180,7,,10.0,29.899607,,,TRUE,TRUE,,,,,,,SCT,8000,BKN,9000,,,,,VFR,,,,,,,,,,,,METAR,1547.0
KPNT 171855Z AUTO 27011KT 10SM OVC014 M02/M04 A2973 RMK AO2 T10201037,KPNT,2021-01-17T18:55:00Z,40.92,-88.62,-2.0,-3.7,270,11,,10.0,29.731298,,,TRUE,TRUE,,,,,,,OVC,1400,,,,,,,MVFR,,,,,,,,,,,,METAR,199.0
KPMV 171855Z AUTO 32013G20KT 10SM CLR 02/M03 A2988 RMK AO2 T00231028,KPMV,2021-01-17T18:55:00Z,40.95,-95.92,2.3,-2.8,320,13,20,10.0,29.878937,,,TRUE,TRUE,,,,,,,CLR,,,,,,,,VFR,,,,,,,,,,,,METAR,365.0
KPMU 171855Z AUTO 29010KT 10SM CLR 11/M05 A2993 RMK AO2,KPMU,2021-01-17T18:55:00Z,34.37,-89.9,11.0,-5.0,290,10,,10.0,29.929134,,,TRUE,TRUE,,,,,,,CLR,,,,,,,,VFR,,,,,,,,,,,,METAR,67.0
KPLU 171855Z AUTO 00000KT 10SM OVC007 08/08 A3047 RMK AO2,KPLU,2021-01-17T18:55:00Z,47.1,-122.28,8.0,8.0,0,0,,10.0,30.469488,,,TRUE,TRUE,,,,,,,OVC,700,,,,,,,IFR,,,,,,,,,,,,METAR,164.0
KPKV 171855Z AUTO 08003KT 10SM CLR 21/M11 A3010 RMK AO2 T02081107,KPKV,2021-01-17T18:55:00Z,28.65,-96.68,20.8,-10.7,80,3,,10.0,30.100393,,,TRUE,TRUE,,,,,,,CLR,,,,,,,,VFR,,,,,,,,,,,,METAR,8.0
KPIM 171855Z AUTO 22009KT 10SM CLR 10/M03 A2995 RMK AO2 T00951026,KPIM,2021-01-17T18:55:00Z,32.83,-84.88,9.5,-2.6,220,9,,10.0,29.949802,,,TRUE,TRUE,,,,,,,CLR,,,,,,,,VFR,,,,,,,,,,,,METAR,274.0
KPHT 171855Z AUTO 25015G21KT 10SM SCT044 SCT049 08/M03 A2983 RMK A01,KPHT,2021-01-17T18:55:00Z,36.33,-88.38,8.0,-3.0,250,15,21,10.0,29.828741,,,TRUE,TRUE,,,,,,,SCT,4400,SCT,4900,,,,,VFR,,,,,,,,,,,,METAR,172.0
KPHP 171855Z AUTO 30013KT 10SM CLR 04/M08 A2993 RMK AO2 SLP151 T00441078,KPHP,2021-01-17T18:55:00Z,44.05,-101.6,4.4,-7.8,300,13,,10.0,29.929134,1015.1,,TRUE,TRUE,,,,,,,CLR,,,,,,,,VFR,,,,,,,,,,,,METAR,673.0
KPEZ 171855Z AUTO 28009G15KT 10SM CLR 21/06 A3012 RMK AO2 T02090061,KPEZ,2021-01-17T18:55:00Z,28.95,-98.52,20.9,6.1,280,9,15,10.0,30.121063,,,TRUE,TRUE,,,,,,,CLR,,,,,,,,VFR,,,,,,,,,,,,METAR,126.0
KPEQ 171855Z AUTO 05006KT 10SM CLR 12/M06 A3013 RMK AO2 T01201064 PWINO,KPEQ,2021-01-17T18:55:00Z,31.38,-103.52,12.0,-6.4,50,6,,10.0,30.129921,,,TRUE,TRUE,,,,,TRUE,,CLR,,,,,,,,VFR,,,,,,,,,,,,METAR,794.0
KPCW 171855Z AUTO 25011KT 10SM FEW030 BKN040 OVC047 03/M00 A2966 RMK AO2,KPCW,2021-01-17T18:55:00Z,41.52,-82.87,3.0,0.0,250,11,,10.0,29.660433,,,TRUE,TRUE,,,,,,,FEW,3000,BKN,4000,OVC,4700,,,VFR,,,,,,,,,,,,METAR,179.0
KPCM 171855Z AUTO 19003KT 10SM SCT060 15/08 A3004 RMK AO2,KPCM,2021-01-17T18:55:00Z,28.0,-82.17,15.0,8.0,190,3,,10.0,30.041338,,,TRUE,TRUE,,,,,,,SCT,6000,,,,,,,VFR,,,,,,,,,,,,METAR,43.0
KPCD 171855Z AUTO 32011G15KT 10SM OVC037 04/M04 A2983 RMK AO2 T00411038,KPCD,2021-01-17T18:55:00Z,37.87,-89.87,4.1,-3.8,320,11,15,10.0,29.828741,,,TRUE,TRUE,,,,,,,OVC,3700,,,,,,,VFR,,,,,,,,,,,,METAR,112.0
KPBX 171855Z AUTO 21003KT 10SM SCT033 BKN040 OVC046 03/M03 A2976 RMK AO2 T00251028,KPBX,2021-01-17T18:55:00Z,37.57,-82.57,2.5,-2.8,210,3,,10.0,29.760826,,,TRUE,TRUE,,,,,,,SCT,3300,BKN,4000,OVC,4600,,,VFR,,,,,,,,,,,,METAR,447.0
KP08 171855Z AUTO 25004KT 10SM CLR 20/M10 A3008 RMK AO2,KP08,2021-01-17T18:55:00Z,32.93,-111.43,20.0,-10.0,250,4,,10.0,30.079725,,,TRUE,TRUE,,,,,,,CLR,,,,,,,,VFR,,,,,,,,,,,,METAR,477.0
KOZA 171855Z AUTO 20004KT 10SM CLR 14/M02 A3014 RMK AO2,KOZA,2021-01-17T18:55:00Z,30.73,-101.2,14.0,-2.0,200,4,,10.0,30.138779,,,TRUE,TRUE,,,,,,,CLR,,,,,,,,VFR,,,,,,,,,,,,METAR,721.0
KOYM 171855Z AUTO 26010G16KT 10SM OVC012 00/M01 A2963 RMK AO2,KOYM,2021-01-17T18:55:00Z,41.42,-78.5,0.0,-1.0,260,10,16,10.0,29.630905,,,TRUE,TRUE,,,,,,,OVC,1200,,,,,,,MVFR,,,,,,,,,,,,METAR,582.0
KOXI 171855Z AUTO 24009KT 10SM OVC015 00/M03 A2969 RMK AO1,KOXI,2021-01-17T18:55:00Z,41.33,-86.67,0.0,-3.0,240,9,,10.0,29.68996,,,TRUE,TRUE,,,,,,,OVC,1500,,,,,,,MVFR,,,,,,,,,,,,METAR,208.0
KOXD 171855Z AUTO 27008KT 1 1/4SM -SN OVC005 01/01 A2970 RMK AO2 T00050005,KOXD,2021-01-17T18:55:00Z,39.5,-84.78,0.5,0.5,270,8,,1.25,29.698818,,,TRUE,TRUE,,,,,,-SN,OVC,500,,,,,,,IFR,,,,,,,,,,,,METAR,317.0
KOWX 171855Z AUTO 25010KT 5SM BKN010 OVC021 02/00 A2969 RMK AO1,KOWX,2021-01-17T18:55:00Z,41.03,-83.98,2.0,0.0,250,10,,5.0,29.68996,,,TRUE,TRUE,,,,,,,BKN,1000,OVC,2100,,,,,MVFR,,,,,,,,,,,,METAR,232.0
KOWP 171855Z AUTO 30009KT 12/M05 A3001 RMK AO2 T01231052 PWINO,KOWP,2021-01-17T18:55:00Z,36.18,-96.15,12.3,-5.2,300,9,,,30.008858,,,TRUE,TRUE,,,,,TRUE,,,,,,,,,,,,,,,,,,,,,,METAR,267.0
KOVL 171855Z AUTO 32011KT 10SM SCT009 M04/M06 A2979 RMK AO2,KOVL,2021-01-17T18:55:00Z,44.78,-95.03,-4.0,-6.0,320,11,,10.0,29.790354,,,TRUE,TRUE,,,,,,,SCT,900,,,,,,,VFR,,,,,,,,,,,,METAR,329.0
KOSA 171855Z AUTO 28008KT 7SM CLR 12/M06 A3011 RMK AO1 T01211058,KOSA,2021-01-17T18:55:00Z,33.1,-94.97,12.1,-5.8,280,8,,7.0,30.109253,,,TRUE,TRUE,,,,,,,CLR,,,,,,,,VFR,,,,,,,,,,,,METAR,108.0
KORG 171855Z AUTO 25009KT 10SM CLR 19/M08 A3009 RMK AO2 T01891077,KORG,2021-01-17T18:55:00Z,30.07,-93.8,18.9,-7.7,250,9,,10.0,30.088583,,,TRUE,TRUE,,,,,,,CLR,,,,,,,,VFR,,,,,,,,,,,,METAR,2.0
KOPN 171855Z AUTO 28009G16KT 10SM CLR 10/M02 A2995 RMK AO2,KOPN,2021-01-17T18:55:00Z,32.95,-84.27,10.0,-2.0,280,9,16,10.0,29.949802,,,TRUE,TRUE,,,,,,,CLR,,,,,,,,VFR,,,,,,,,,,,,METAR,241.0
KOPL 171855Z AUTO 25007G14KT 10SM CLR 16/M02 A3006 RMK AO2 T01571025,KOPL,2021-01-17T18:55:00Z,30.55,-92.1,15.7,-2.5,250,7,14,10.0,30.059055,,,TRUE,TRUE,,,,,,,CLR,,,,,,,,VFR,,,,,,,,,,,,METAR,22.0
KONX 171855Z AUTO 22010G15KT 10SM CLR 09/00 A2984 RMK AO2 T00940003,KONX,2021-01-17T18:55:00Z,36.4,-76.02,9.4,0.3,220,10,15,10.0,29.840551,,,TRUE,TRUE,,,,,,,CLR,,,,,,,,VFR,,,,,,,,,,,,METAR,4.0
KONP 171855Z AUTO 00000KT 10SM OVC005 10/09 A3052 RMK AO2,KONP,2021-01-17T18:55:00Z,44.57,-124.05,10.0,9.0,0,0,,10.0,30.519686,,,TRUE,TRUE,,,,,,,OVC,500,,,,,,,IFR,,,,,,,,,,,,METAR,43.0
KONL 171855Z AUTO 32013G19KT 10SM SCT034 04/M05 A2991 RMK AO2 T00361051,KONL,2021-01-17T18:55:00Z,42.47,-98.68,3.6,-5.1,320,13,19,10.0,29.911417,,,TRUE,TRUE,,,,,,,SCT,3400,,,,,,,VFR,,,,,,,,,,,,METAR,619.0
KOMH 171855Z AUTO 21008KT 10SM OVC050 07/M01 A2977 RMK AO2,KOMH,2021-01-17T18:55:00Z,38.25,-78.05,7.0,-1.0,210,8,,10.0,29.769686,,,TRUE,TRUE,,,,,,,OVC,5000,,,,,,,VFR,,,,,,,,,,,,METAR,136.0
KOLY 171855Z AUTO 27010G15KT 10SM BKN018 OVC025 01/M03 A2979 RMK AO2 T00051026,KOLY,2021-01-17T18:55:00Z,38.72,-88.18,0.5,-2.6,270,10,15,10.0,29.790354,,,TRUE,TRUE,,,,,,,BKN,1800,OVC,2500,,,,,MVFR,,,,,,,,,,,,METAR,144.0
KOLE 171855Z AUTO 27006KT 10SM OVC016 M01/M02 A2954 RMK AO2,KOLE,2021-01-17T18:55:00Z,42.23,-78.37,-1.0,-2.0,270,6,,10.0,29.53937,,,TRUE,TRUE,,,,,,,OVC,1600,,,,,,,MVFR,,,,,,,,,,,,METAR,651.0
KOKZ 171855Z AUTO 27009G16KT 10SM CLR 10/M02 A2994 RMK AO2 T01031024,KOKZ,2021-01-17T18:55:00Z,32.97,-82.83,10.3,-2.4,270,9,16,10.0,29.940945,,,TRUE,TRUE,,,,,,,CLR,,,,,,,,VFR,,,,,,,,,,,,METAR,128.0
KOKM 171855Z AUTO 31011G23KT 10SM CLR 12/M06 A3002 RMK AO2 T01231057,KOKM,2021-01-17T18:55:00Z,35.67,-95.95,12.3,-5.7,310,11,23,10.0,30.02067,,,TRUE,TRUE,,,,,,,CLR,,,,,,,,VFR,,,,,,,,,,,,METAR,215.0
KOJA 171855Z AUTO 33013G18KT 10SM CLR 11/M07 A3009 RMK AO2 T01081074,KOJA,2021-01-17T18:55:00Z,35.55,-98.67,10.8,-7.4,330,13,18,10.0,30.088583,,,TRUE,TRUE,,,,,,,CLR,,,,,,,,VFR,,,,,,,,,,,,METAR,490.0
KOIN 171855Z AUTO 33014G19KT 10SM CLR 07/M09 A3005 RMK AO1 T00701091,KOIN,2021-01-17T18:55:00Z,39.83,-100.53,7.0,-9.1,330,14,19,10.0,30.050198,,,TRUE,TRUE,,,,,,,CLR,,,,,,,,VFR,,,,,,,,,,,,METAR,810.0
KOGS 171855Z AUTO 27012G19KT 10SM SCT022 OVC029 00/M03 A2944 RMK AO2,KOGS,2021-01-17T18:55:00Z,44.67,-75.47,0.0,-3.0,270,12,19,10.0,29.438976,,,TRUE,TRUE,,,,,,,SCT,2200,OVC,2900,,,,,MVFR,,,,,,,,,,,,METAR,88.0
KOGA 171855Z AUTO 34005G16KT 10SM CLR 07/M09 A2998 RMK AO2 T00651092,KOGA,2021-01-17T18:55:00Z,41.12,-101.77,6.5,-9.2,340,5,16,10.0,29.97933,,,TRUE,TRUE,,,,,,,CLR,,,,,,,,VFR,,,,,,,,,,,,METAR,991.0
KOCQ 171855Z AUTO 01004KT 10SM SCT028 SCT075 00/M06 A2968 RMK AO1 T00021064,KOCQ,2021-01-17T18:55:00Z,44.87,-87.92,0.2,-6.4,10,4,,10.0,29.681103,,,TRUE,TRUE,,,,,,,SCT,2800,SCT,7500,,,,,VFR,,,,,,,,,,,,METAR,181.0
KOBE 171855Z AUTO 20008KT 10SM BKN046 OVC060 16/07 A3004 RMK AO2,KOBE,2021-01-17T18:55:00Z,27.27,-80.85,16.0,7.0,200,8,,10.0,30.041338,,,TRUE,TRUE,,,,,,,BKN,4600,OVC,6000,,,,,VFR,,,,,,,,,,,,METAR,11.0
KOAR 171855Z AUTO 07006KT 10SM CLR 18/07 A3012 RMK AO2,KOAR,2021-01-17T18:55:00Z,,,18.0,7.0,70,6,,10.0,30.121063,,,TRUE,TRUE,,,,,,,CLR,,,,,,,,VFR,,,,,,,,,,,,METAR,
KNUQ 171855Z AUTO VRB04KT 10SM CLR 21/04 A3015 RMK AO2,KNUQ,2021-01-17T18:55:00Z,37.4,-122.05,21.0,4.0,0,4,,10.0,30.15059,,,TRUE,TRUE,,,,,,,CLR,,,,,,,,VFR,,,,,,,,,,,,METAR,9.0
KNOW 171855Z AUTO 27010KT 10SM CLR 10/09 A3047 RMK AO2 T00970086,KNOW,2021-01-17T18:55:00Z,48.13,-123.4,9.7,8.6,270,10,,10.0,30.469488,,,TRUE,TRUE,,,,,,,CLR,,,,,,,,VFR,,,,,,,,,,,,METAR,3.0
KNKX 171855Z 36003KT 10SM CLR 28/M04 A3002 RMK AO2 SLP159 T02781039 $,KNKX,2021-01-17T18:55:00Z,32.87,-117.13,27.8,-3.9,360,3,,10.0,30.02067,1015.9,,,TRUE,TRUE,,,,,,CLR,,,,,,,,VFR,,,,,,,,,,,,SPECI,138.0
KNFG 171855Z AUTO 04008KT 10SM CLR 31/M13 A3000 RMK AO2 SLP159 T03061128,KNFG,2021-01-17T18:55:00Z,33.3,-117.35,30.6,-12.8,40,8,,10.0,30.0,1015.9,,TRUE,TRUE,,,,,,,CLR,,,,,,,,VFR,,,,,,,,,,,,SPECI,21.0
KNBG 171855Z COR 28010KT 10SM FEW120 SCT250 15/02 A3005 RMK AO2 SLP176 T01500022 $,KNBG,2021-01-17T18:55:00Z,29.83,-90.02,15.0,2.2,280,10,,10.0,30.050198,1017.6,TRUE,,TRUE,TRUE,,,,,,FEW,12000,SCT,25000,,,,,VFR,,,,,,,,,,,,METAR,0.0
KN38 171855Z AUTO 24010KT 10SM BKN022 OVC027 00/M03 A2956 RMK AO2,KN38,2021-01-17T18:55:00Z,41.73,-77.4,0.0,-3.0,240,10,,10.0,29.56004,,,TRUE,TRUE,,,,,,,BKN,2200,OVC,2700,,,,,MVFR,,,,,,,,,,,,METAR,576.0
KMZZ 171855Z AUTO 26009KT 4SM -SN SCT009 BKN014 OVC021 00/M01 A2970 RMK AO2 T10051015,KMZZ,2021-01-17T18:55:00Z,40.48,-85.68,-0.5,-1.5,260,9,,4.0,29.698818,,,TRUE,TRUE,,,,,,-SN,SCT,900,BKN,1400,OVC,2100,,,MVFR,,,,,,,,,,,,METAR,260.0
KMYZ 171855Z AUTO 33018G26KT 10SM CLR 06/M03 A2993 RMK AO2,KMYZ,2021-01-17T18:55:00Z,39.85,-96.63,6.0,-3.0,330,18,26,10.0,29.929134,,,TRUE,TRUE,,,,,,,CLR,,,,,,,,VFR,,,,,,,,,,,,METAR,388.0
KMYP 171855Z AUTO 27040G45KT 10SM CLR M06/M15 A3019 RMK AO2,KMYP,2021-01-17T18:55:00Z,38.48,-106.32,-6.0,-15.0,270,40,45,10.0,30.188976,,,TRUE,TRUE,,,,,,,CLR,,,,,,,,VFR,,,,,,,,,,,,METAR,3629.0
KMWO 171855Z AUTO 20005KT 4SM -RA BR OVC004 01/01 A2973 RMK AO2 T00140013,KMWO,2021-01-17T18:55:00Z,39.53,-84.4,1.4,1.3,200,5,,4.0,29.731298,,,TRUE,TRUE,,,,,,-RA BR,OVC,400,,,,,,,LIFR,,,,,,,,,,,,METAR,197.0
KMWK 171855Z AUTO 27005KT 10SM SCT047 OVC065 07/M02 A2983 RMK AO2 T00701019,KMWK,2021-01-17T18:55:00Z,36.47,-80.55,7.0,-1.9,270,5,,10.0,29.828741,,,TRUE,TRUE,,,,,,,SCT,4700,OVC,6500,,,,,VFR,,,,,,,,,,,,METAR,374.0
KMVH 171855Z AUTO 29013G25KT 10SM CLR 06/M02 A2983 RMK AO2,KMVH,2021-01-17T18:55:00Z,46.83,-108.93,6.0,-2.0,290,13,25,10.0,29.828741,,,TRUE,TRUE,,,,,,,CLR,,,,,,,,VFR,,,,,,,,,,,,METAR,1352.0
KMTK 171855Z AUTO 34003KT 10SM CLR 12/04 A3007 RMK A01,KMTK,2021-01-17T18:55:00Z,,,12.0,4.0,340,3,,10.0,30.070866,,,TRUE,TRUE,,,,,,,CLR,,,,,,,,VFR,,,,,,,,,,,,METAR,
KMRN 171855Z AUTO 00000KT 10SM CLR 08/M04 A2984 RMK AO2 T00841045,KMRN,2021-01-17T18:55:00Z,35.82,-81.62,8.4,-4.5,0,0,,10.0,29.840551,,,TRUE,TRUE,,,,,,,CLR,,,,,,,,VFR,,,,,,,,,,,,METAR,375.0
KMRJ 171855Z AUTO 34005KT 10SM BKN023 OVC027 00/M05 A2970 RMK AO2,KMRJ,2021-01-17T18:55:00Z,42.88,-90.23,0.0,-5.0,340,5,,10.0,29.698818,,,TRUE,TRUE,,,,,,,BKN,2300,OVC,2700,,,,,MVFR,,,,,,,,,,,,METAR,350.0
KMRC 171855Z AUTO 25008G21KT 10SM BKN055 BKN065 09/M05 A2982 RMK A01,KMRC,2021-01-17T18:55:00Z,35.55,-87.18,9.0,-5.0,250,8,21,10.0,29.819881,,,TRUE,TRUE,,,,,,,BKN,5500,BKN,6500,,,,,VFR,,,,,,,,,,,,METAR,205.0
KMQS 171855Z AUTO 27014G20KT 230V290 10SM SCT039 SCT046 05/M02 A2969 RMK AO2,KMQS,2021-01-17T18:55:00Z,39.98,-75.87,5.0,-2.0,270,14,20,10.0,29.68996,,,TRUE,TRUE,,,,,,,SCT,3900,SCT,4600,,,,,VFR,,,,,,,,,,,,METAR,200.0
KMQI 171855Z AUTO 26015G19KT 10SM CLR 09/M02 A2987 RMK AO2 T00891016,KMQI,2021-01-17T18:55:00Z,35.92,-75.7,8.9,-1.6,260,15,19,10.0,29.870079,,,TRUE,TRUE,,,,,,,CLR,,,,,,,,VFR,,,,,,,,,,,,METAR,3.0
KMQB 171855Z AUTO 30011KT 4SM UP OVC010 M02/M04 A2980 RMK AO2 T10241037,KMQB,2021-01-17T18:55:00Z,40.52,-90.65,-2.4,-3.7,300,11,,4.0,29.799213,,,TRUE,TRUE,,,,,,UP,OVC,1000,,,,,,,MVFR,,,,,,,,,,,,METAR,205.0
KMPZ 171855Z AUTO 28007KT 10SM SCT015 00/M03 A2979 RMK AO2,KMPZ,2021-01-17T18:55:00Z,40.95,-91.52,0.0,-3.0,280,7,,10.0,29.790354,,,TRUE,TRUE,,,,,,,SCT,1500,,,,,,,VFR,,,,,,,,,,,,METAR,222.0
KMOR 171855Z AUTO 24012G19KT 9SM BKN035 OVC047 05/M02 A2980 RMK A01,KMOR,2021-01-17T18:55:00Z,36.18,-83.37,5.0,-2.0,240,12,19,9.0,29.799213,,,TRUE,TRUE,,,,,,,BKN,3500,OVC,4700,,,,,VFR,,,,,,,,,,,,METAR,393.0
KMNZ 171855Z AUTO 03005KT 10SM CLR 16/M03 A3014 RMK AO2 T01591032,KMNZ,2021-01-17T18:55:00Z,31.67,-98.15,15.9,-3.2,30,5,,10.0,30.138779,,,TRUE,TRUE,,,,,,,CLR,,,,,,,,VFR,,,,,,,,,,,,METAR,397.0
KMNV 171855Z AUTO 20011G17KT 10SM FEW040 BKN048 BKN055 07/M00 A2983 RMK A01,KMNV,2021-01-17T18:55:00Z,35.55,-84.38,7.0,0.0,200,11,17,10.0,29.828741,,,TRUE,TRUE,,,,,,,FEW,4000,BKN,4800,BKN,5500,,,VFR,,,,,,,,,,,,METAR,306.0
KMNH 171855Z AUTO 34006KT 10SM CLR 03/M13 A3000 RMK AO2,KMNH,2021-01-17T18:55:00Z,39.22,-104.65,3.0,-13.0,340,6,,10.0,30.0,,,TRUE,TRUE,,,,,,,CLR,,,,,,,,VFR,,,,,,,,,,,,METAR,2152.0
KMNE 171855Z AUTO 30010KT 10SM SCT070 SCT100 13/M04 A3006 RMK AO2 T01291041,KMNE,2021-01-17T18:55:00Z,32.65,-93.3,12.9,-4.1,300,10,,10.0,30.059055,,,TRUE,TRUE,,,,,,,SCT,7000,SCT,10000,,,,,VFR,,,,,,,,,,,,METAR,84.0
KMMI 171855Z AUTO 24010G19KT 10SM SCT040 BKN048 OVC060 07/M02 A2986 RMK A01,KMMI,2021-01-17T18:55:00Z,35.4,-84.57,7.0,-2.0,240,10,19,10.0,29.861221,,,TRUE,TRUE,,,,,,,SCT,4000,BKN,4800,OVC,6000,,,VFR,,,,,,,,,,,,METAR,252.0
KMLE 171855Z AUTO 32009G19KT 10SM SCT024 03/M03 A2989 RMK AO2 T00301034,KMLE,2021-01-17T18:55:00Z,41.2,-96.12,3.0,-3.4,320,9,19,10.0,29.890747,,,TRUE,TRUE,,,,,,,SCT,2400,,,,,,,VFR,,,,,,,,,,,,METAR,318.0
KMKN 171855Z AUTO 04005KT 10SM CLR 14/M03 A3015 RMK AO2 T01371030,KMKN,2021-01-17T18:55:00Z,31.92,-98.6,13.7,-3.0,40,5,,10.0,30.15059,,,TRUE,TRUE,,,,,,,CLR,,,,,,,,VFR,,,,,,,,,,,,METAR,428.0
KMIS 171855Z AUTO 29010KT 10SM CLR 12/02 A3006 RMK A01,KMIS,2021-01-17T18:55:00Z,29.3,-88.85,12.0,2.0,290,10,,10.0,30.059055,,,TRUE,TRUE,,,,,,,CLR,,,,,,,,VFR,,,,,,,,,,,,METAR,24.0
KMEZ 171855Z AUTO 30018G23KT 10SM SCT070 SCT080 12/M03 A3000 RMK AO2,KMEZ,2021-01-17T18:55:00Z,34.55,-94.2,12.0,-3.0,300,18,23,10.0,30.0,,,TRUE,TRUE,,,,,,,SCT,7000,SCT,8000,,,,,VFR,,,,,,,,,,,,METAR,320.0
KMEV 171855Z AUTO 00000KT 10SM CLR 06/M01 A3038 RMK AO2,KMEV,2021-01-17T18:55:00Z,38.98,-119.75,6.0,-1.0,0,0,,10.0,30.380905,,,TRUE,TRUE,,,,,,,CLR,,,,,,,,VFR,,,,,,,,,,,,METAR,1437.0
KMDS 171855Z AUTO 32017KT 10SM BKN016 M01/M01 A2983 RMK AO2,KMDS,2021-01-17T18:55:00Z,44.02,-97.08,-1.0,-1.0,320,17,,10.0,29.828741,,,TRUE,TRUE,,,,,,,BKN,1600,,,,,,,MVFR,,,,,,,,,,,,METAR,524.0
KMDQ 171855Z AUTO 26012G21KT 10SM SCT050 10/M03 A2986 RMK A02 T00961031,KMDQ,2021-01-17T18:55:00Z,34.87,-86.55,9.6,-3.1,260,12,21,10.0,29.861221,,,TRUE,TRUE,,,,,,,SCT,5000,,,,,,,VFR,,,,,,,,,,,,METAR,221.0
KMDJ 171855Z AUTO 30008KT 10SM CLR 13/02 A3009 RMK A01,KMDJ,2021-01-17T18:55:00Z,28.65,-89.8,13.0,2.0,300,8,,10.0,30.088583,,,TRUE,TRUE,,,,,,,CLR,,,,,,,,VFR,,,,,,,,,,,,METAR,20.0
KMDD 171855Z AUTO 11006KT 10SM CLR 12/M06 A3014 RMK AO2 T01181055,KMDD,2021-01-17T18:55:00Z,32.03,-102.1,11.8,-5.5,110,6,,10.0,30.138779,,,TRUE,TRUE,,,,,,,CLR,,,,,,,,VFR,,,,,,,,,,,,METAR,853.0
KMCC 171855Z AUTO 00000KT 9SM CLR 15/10 A3016 RMK AO2,KMCC,2021-01-17T18:55:00Z,38.67,-121.4,15.0,10.0,0,0,,9.0,30.159449,,,TRUE,TRUE,,,,,,,CLR,,,,,,,,VFR,,,,,,,,,,,,METAR,21.0
KMBT 171855Z AUTO 26011G19KT 10SM BKN050 BKN055 BKN065 08/M04 A2982 RMK A01,KMBT,2021-01-17T18:55:00Z,35.88,-86.38,8.0,-4.0,260,11,19,10.0,29.819881,,,TRUE,TRUE,,,,,,,BKN,5000,BKN,5500,BKN,6500,,,VFR,,,,,,,,,,,,METAR,187.0
KM91 171855Z AUTO 26013G21KT 10SM FEW045 BKN050 OVC060 06/M02 A2980 RMK A01,KM91,2021-01-17T18:55:00Z,36.53,-86.92,6.0,-2.0,260,13,21,10.0,29.799213,,,TRUE,TRUE,,,,,,,FEW,4500,BKN,5000,OVC,6000,,,VFR,,,,,,,,,,,,METAR,214.0
KM75 171855Z AUTO 24004KT 3SM HZ SCT036 SCT042 M01/M05 A2980 RMK A01,KM75,2021-01-17T18:55:00Z,48.37,-107.92,-1.0,-5.0,240,4,,3.0,29.799213,,,TRUE,TRUE,,,,,,HZ,SCT,3600,SCT,4200,,,,,MVFR,,,,,,,,,,,,METAR,687.0
KM54 171855Z AUTO 24014G19KT 10SM BKN047 OVC055 07/M03 A2981 RMK A01,KM54,2021-01-17T18:55:00Z,36.18,-86.32,7.0,-3.0,240,14,19,10.0,29.811024,,,TRUE,TRUE,,,,,,,BKN,4700,OVC,5500,,,,,VFR,,,,,,,,,,,,METAR,168.0
KM08 171855Z AUTO 26010G17KT 10SM CLR 10/M05 A2987 RMK A01,KM08,2021-01-17T18:55:00Z,35.22,-89.05,10.0,-5.0,260,10,17,10.0,29.870079,,,TRUE,TRUE,,,,,,,CLR,,,,,,,,VFR,,,,,,,,,,,,METAR,149.0
KM04 171855Z AUTO 29013KT 10SM CLR 09/M04 A2989 RMK A01,KM04,2021-01-17T18:55:00Z,35.58,-89.58,9.0,-4.0,290,13,,10.0,29.890747,,,TRUE,TRUE,,,,,,,CLR,,,,,,,,VFR,,,,,,,,,,,,METAR,83.0
KM02 171855Z AUTO 25012G20KT 10SM SCT050 BKN055 07/M04 A2981 RMK A01,KM02,2021-01-17T18:55:00Z,36.13,-87.43,7.0,-4.0,250,12,20,10.0,29.811024,,,TRUE,TRUE,,,,,,,SCT,5000,BKN,5500,,,,,VFR,,,,,,,,,,,,METAR,268.0
KLYO 171855Z AUTO 32017G21KT 10SM CLR 08/M05 A3001 RMK AO2 T00851051,KLYO,2021-01-17T18:55:00Z,38.35,-98.23,8.5,-5.1,320,17,21,10.0,30.008858,,,TRUE,TRUE,,,,,,,CLR,,,,,,,,VFR,,,,,,,,,,,,METAR,515.0
KLXY 171855Z AUTO 03005KT 10SM CLR 16/M02 A3011 RMK AO2 T01551024,KLXY,2021-01-17T18:55:00Z,31.63,-96.52,15.5,-2.4,30,5,,10.0,30.109253,,,TRUE,TRUE,,,,,,,CLR,,,,,,,,VFR,,,,,,,,,,,,METAR,164.0
KLXN 171855Z AUTO 32016KT 10SM CLR 05/M06 A2998 RMK AO2 T00531061,KLXN,2021-01-17T18:55:00Z,40.78,-99.77,5.3,-6.1,320,16,,10.0,29.97933,,,TRUE,TRUE,,,,,,,CLR,,,,,,,,VFR,,,,,,,,,,,,METAR,734.0
KLVN 171855Z AUTO 26005KT 10SM OVC014 M04/M08 A2977 RMK AO2,KLVN,2021-01-17T18:55:00Z,44.63,-93.23,-4.0,-8.0,260,5,,10.0,29.769686,,,TRUE,TRUE,,,,,,,OVC,1400,,,,,,,MVFR,,,,,,,,,,,,METAR,292.0
KLUV 171855Z AUTO 09010KT 10SM OVC110 10/M04 A3016 RMK AO2,KLUV,2021-01-17T18:55:00Z,32.75,-101.92,10.0,-4.0,90,10,,10.0,30.159449,,,TRUE,TRUE,,,,,,,OVC,11000,,,,,,,VFR,,,,,,,,,,,,METAR,910.0
KLUL 171855Z AUTO 26010KT 10SM CLR 15/M03 A3000 RMK A02 T01461033,KLUL,2021-01-17T18:55:00Z,31.67,-89.17,14.6,-3.3,260,10,,10.0,30.0,,,TRUE,TRUE,,,,,,,CLR,,,,,,,,VFR,,,,,,,,,,,,METAR,74.0
KLUG 171855Z AUTO 28011G16KT 250V310 10SM SCT048 09/M04 A2983 RMK A01,KLUG,2021-01-17T18:55:00Z,35.52,-86.8,9.0,-4.0,280,11,16,10.0,29.828741,,,TRUE,TRUE,,,,,,,SCT,4800,,,,,,,VFR,,,,,,,,,,,,METAR,218.0
KLUD 171855Z AUTO 32008G15KT 290V350 10SM SCT080 13/M05 A3013 RMK AO2 T01331046,KLUD,2021-01-17T18:55:00Z,33.25,-97.58,13.3,-4.6,320,8,15,10.0,30.129921,,,TRUE,TRUE,,,,,,,SCT,8000,,,,,,,VFR,,,,,,,,,,,,METAR,319.0
KLOT 171855Z AUTO 26006KT 5SM -SN OVC009 M02/M03 A2970 RMK AO2 T10211030,KLOT,2021-01-17T18:55:00Z,41.6,-88.1,-2.1,-3.0,260,6,,5.0,29.698818,,,TRUE,TRUE,,,,,,-SN,OVC,900,,,,,,,IFR,,,,,,,,,,,,METAR,205.0
KLOM 171855Z AUTO 27012G20KT 10SM BKN044 06/M03 A2967 RMK AO2 T00621027,KLOM,2021-01-17T18:55:00Z,40.13,-75.27,6.2,-2.7,270,12,20,10.0,29.66929,,,TRUE,TRUE,,,,,,,BKN,4400,,,,,,,VFR,,,,,,,,,,,,METAR,87.0
KLNN 171855Z AUTO 25011G16KT 10SM BKN012 OVC017 01/M01 A2967 RMK AO1 T00141010,KLNN,2021-01-17T18:55:00Z,41.68,-81.38,1.4,-1.0,250,11,16,10.0,29.66929,,,TRUE,TRUE,,,,,,,BKN,1200,OVC,1700,,,,,MVFR,,,,,,,,,,,,METAR,190.0
KLNC 171855Z AUTO 33009G14KT 10SM CLR 14/M02 A3013 RMK AO2 T01351018,KLNC,2021-01-17T18:55:00Z,32.58,-96.72,13.5,-1.8,330,9,14,10.0,30.129921,,,TRUE,TRUE,,,,,,,CLR,,,,,,,,VFR,,,,,,,,,,,,METAR,152.0
KLNA 171855Z AUTO 00000KT 10SM CLR 19/07 A3004 RMK AO2 T01920071 PNO,KLNA,2021-01-17T18:55:00Z,26.6,-80.08,19.2,7.1,0,0,,10.0,30.041338,,,TRUE,TRUE,,,,,,,CLR,,,,,,,,VFR,,,,,,,,,,,,METAR,3.0
KLMO 171855Z AUTO 05005KT 10SM OVC100 08/M08 A3001 RMK AO2 T00761077,KLMO,2021-01-17T18:55:00Z,40.17,-105.17,7.6,-7.7,50,5,,10.0,30.008858,,,TRUE,TRUE,,,,,,,OVC,10000,,,,,,,VFR,,,,,,,,,,,,METAR,1535.0
KLLJ 171855Z AUTO 35005KT 10SM FEW060 SCT080 OVC100 M04/M07 A3016 RMK AO2 SLP252 T10391067,KLLJ,2021-01-17T18:55:00Z,44.52,-114.22,-3.9,-6.7,350,5,,10.0,30.159449,1025.2,,TRUE,TRUE,,,,,,,FEW,6000,SCT,8000,OVC,10000,,,VFR,,,,,,,,,,,,METAR,1535.0
KLIC 171855Z AUTO 10SM FEW090 05/M09 A3002 RMK AO2 SLP170 T00501094 $,KLIC,2021-01-17T18:55:00Z,39.27,-103.67,5.0,-9.4,,,,10.0,30.02067,1017.0,,TRUE,TRUE,TRUE,,,,,,FEW,9000,,,,,,,VFR,,,,,,,,,,,,METAR,1635.0
KLHM 171855Z AUTO 00000KT 10SM CLR 15/09 A3015 RMK AO1,KLHM,2021-01-17T18:55:00Z,38.92,-121.35,15.0,9.0,0,0,,10.0,30.15059,,,TRUE,TRUE,,,,,,,CLR,,,,,,,,VFR,,,,,,,,,,,,METAR,36.0
KLHB 171855Z AUTO 36008KT 10SM CLR 17/00 A3013 RMK AO2 T01721003,KLHB,2021-01-17T18:55:00Z,30.87,-96.62,17.2,-0.3,360,8,,10.0,30.129921,,,TRUE,TRUE,,,,,,,CLR,,,,,,,,VFR,,,,,,,,,,,,METAR,83.0
KLGC 171855Z AUTO 27008G15KT 10SM SCT047 10/M03 A2995 RMK AO2 T00971029,KLGC,2021-01-17T18:55:00Z,33.0,-85.07,9.7,-2.9,270,8,15,10.0,29.949802,,,TRUE,TRUE,,,,,,,SCT,4700,,,,,,,VFR,,,,,,,,,,,,METAR,209.0
KLCK 171855Z AUTO 24007KT 10SM UP SCT014 OVC021 02/00 A2971 RMK AO2 T00160001,KLCK,2021-01-17T18:55:00Z,39.82,-82.92,1.6,0.1,240,7,,10.0,29.71063,,,TRUE,TRUE,,,,,,UP,SCT,1400,OVC,2100,,,,,MVFR,,,,,,,,,,,,METAR,225.0
KLCG 171855Z AUTO 32014KT 10SM OVC048 02/M03 A2988 RMK AO2 T00151029,KLCG,2021-01-17T18:55:00Z,42.25,-96.98,1.5,-2.9,320,14,,10.0,29.878937,,,TRUE,TRUE,,,,,,,OVC,4800,,,,,,,VFR,,,,,,,,,,,,METAR,434.0
KLAM 171855Z AUTO 00000KT 10SM CLR 04/M13 A3015 RMK AO2 T00411132,KLAM,2021-01-17T18:55:00Z,35.87,-106.27,4.1,-13.2,0,0,,10.0,30.15059,,,TRUE,TRUE,,,,,,,CLR,,,,,,,,VFR,,,,,,,,,,,,METAR,2166.0
KL35 171855Z AUTO 10006KT 10SM CLR 12/M18 A3030 RMK AO2,KL35,2021-01-17T18:55:00Z,34.27,-116.85,12.0,-18.0,100,6,,10.0,30.301182,,,TRUE,TRUE,,,,,,,CLR,,,,,,,,VFR,,,,,,,,,,,,METAR,2062.0
KKNB 171855Z AUTO 00000KT 10SM CLR 10/M14 A3026 RMK A01,KKNB,2021-01-17T18:55:00Z,37.02,-112.53,10.0,-14.0,0,0,,10.0,30.259842,,,TRUE,TRUE,,,,,,,CLR,,,,,,,,VFR,,,,,,,,,,,,METAR,1476.0
KK88 171855Z AUTO 30018G22KT 10SM OVC100 09/M04 A2995 RMK AO1 T00851036,KK88,2021-01-17T18:55:00Z,37.87,-95.38,8.5,-3.6,300,18,22,10.0,29.949802,,,TRUE,TRUE,,,,,,,OVC,10000,,,,,,,VFR,,,,,,,,,,,,METAR,308.0
KJZP 171855Z AUTO 31008KT 240V320 10SM BKN039 OVC070 07/M02 A2989 RMK AO2 T00701021,KJZP,2021-01-17T18:55:00Z,34.45,-84.47,7.0,-2.1,310,8,,10.0,29.890747,,,TRUE,TRUE,,,,,,,BKN,3900,OVC,7000,,,,,VFR,,,,,,,,,,,,METAR,462.0
KJYR 171855Z AUTO 30017G24KT 10SM CLR 05/M04 A2992 RMK AO2,KJYR,2021-01-17T18:55:00Z,40.9,-97.62,5.0,-4.0,300,17,24,10.0,29.920275,,,TRUE,TRUE,,,,,,,CLR,,,,,,,,VFR,,,,,,,,,,,,METAR,508.0
KJYL 171855Z AUTO 24010G14KT 10SM CLR 12/M01 A2997 RMK AO2 T01171014,KJYL,2021-01-17T18:55:00Z,32.65,-81.6,11.7,-1.4,240,10,14,10.0,29.970472,,,TRUE,TRUE,,,,,,,CLR,,,,,,,,VFR,,,,,,,,,,,,METAR,54.0
KJWY 171855Z AUTO 36007KT 10SM CLR 15/M02 A3013 RMK AO2 T01501020,KJWY,2021-01-17T18:55:00Z,32.45,-96.92,15.0,-2.0,360,7,,10.0,30.129921,,,TRUE,TRUE,,,,,,,CLR,,,,,,,,VFR,,,,,,,,,,,,METAR,211.0
KJWN 171855Z AUTO 24013G19KT 10SM BKN055 BKN065 08/M04 A2981 RMK A01,KJWN,2021-01-17T18:55:00Z,36.18,-86.88,8.0,-4.0,240,13,19,10.0,29.811024,,,TRUE,TRUE,,,,,,,BKN,5500,BKN,6500,,,,,VFR,,,,,,,,,,,,METAR,149.0
KJWG 171855Z AUTO 29019KT 10SM CLR 11/M07 A3010 RMK AO2 T01091072,KJWG,2021-01-17T18:55:00Z,35.87,-98.42,10.9,-7.2,290,19,,10.0,30.100393,,,TRUE,TRUE,,,,,,,CLR,,,,,,,,VFR,,,,,,,,,,,,METAR,469.0
KJVY 171855Z AUTO 23005KT 10SM SCT005 SCT010 BKN029 02/01 A2977 RMK AO2 T00190011 TSNO,KJVY,2021-01-17T18:55:00Z,38.37,-85.73,1.9,1.1,230,5,,10.0,29.769686,,,TRUE,TRUE,,,TRUE,,,,SCT,500,SCT,1000,BKN,2900,,,MVFR,,,,,,,,,,,,METAR,141.0
KJTC 171855Z AUTO 36006KT 10SM CLR 12/M23 A3026 RMK AO2,KJTC,2021-01-17T18:55:00Z,34.13,-109.32,12.0,-23.0,360,6,,10.0,30.259842,,,TRUE,TRUE,,,,,,,CLR,,,,,,,,VFR,,,,,,,,,,,,METAR,2148.0
KJSY 171855Z AUTO 00000KT 10SM OVC044 02/M01 A3030 RMK AO2 T00211006,KJSY,2021-01-17T18:55:00Z,45.35,-117.25,2.1,-0.6,0,0,,10.0,30.301182,,,TRUE,TRUE,,,,,,,OVC,4400,,,,,,,VFR,,,,,,,,,,,,METAR,1256.0
KJSV 171855Z AUTO 28016G21KT 10SM CLR 11/M03 A3000 RMK AO2,KJSV,2021-01-17T18:55:00Z,35.43,-94.8,11.0,-3.0,280,16,21,10.0,30.0,,,TRUE,TRUE,,,,,,,CLR,,,,,,,,VFR,,,,,,,,,,,,METAR,158.0
KJOT 171855Z AUTO 25006KT 7SM -SN BKN009 OVC020 M01/M03 A2970 RMK AO2 T10091028,KJOT,2021-01-17T18:55:00Z,41.52,-88.18,-0.9,-2.8,250,6,,7.0,29.698818,,,TRUE,TRUE,,,,,,-SN,BKN,900,OVC,2000,,,,,IFR,,,,,,,,,,,,METAR,175.0
KJKA 171855Z AUTO 27010G14KT 10SM CLR 14/00 A3005 RMK AO2 T01351003,KJKA,2021-01-17T18:55:00Z,30.28,-87.67,13.5,-0.3,270,10,14,10.0,30.050198,,,TRUE,TRUE,,,,,,,CLR,,,,,,,,VFR,,,,,,,,,,,,METAR,5.0
KJES 171855Z AUTO 27004KT 10SM CLR 12/M02 A2999 RMK AO2,KJES,2021-01-17T18:55:00Z,31.55,-81.88,12.0,-2.0,270,4,,10.0,29.991142,,,TRUE,TRUE,,,,,,,CLR,,,,,,,,VFR,,,,,,,,,,,,METAR,26.0
KJDD 171855Z AUTO 32006KT 10SM OVC100 11/M05 A3011 RMK AO2,KJDD,2021-01-17T18:55:00Z,32.75,-95.5,11.0,-5.0,320,6,,10.0,30.109253,,,TRUE,TRUE,,,,,,,OVC,10000,,,,,,,VFR,,,,,,,,,,,,METAR,127.0
KJCA 171855Z AUTO 27008G20KT 10SM BKN048 BKN055 BKN075 09/M03 A2990 RMK AO2 T00851027,KJCA,2021-01-17T18:55:00Z,34.18,-83.57,8.5,-2.7,270,8,20,10.0,29.899607,,,TRUE,TRUE,,,,,,,BKN,4800,BKN,5500,BKN,7500,,,VFR,,,,,,,,,,,,METAR,287.0
KJAU 171855Z AUTO 24011G20KT 210V270 10SM BKN039 BKN048 OVC085 06/M03 A2984 RMK A01,KJAU,2021-01-17T18:55:00Z,36.33,-84.17,6.0,-3.0,240,11,20,10.0,29.840551,,,TRUE,TRUE,,,,,,,BKN,3900,BKN,4800,OVC,8500,,,VFR,,,,,,,,,,,,METAR,350.0
KJAS 171855Z AUTO 31005KT 10SM CLR 17/00 A3009 RMK AO2 T01691004,KJAS,2021-01-17T18:55:00Z,30.88,-94.03,16.9,-0.4,310,5,,10.0,30.088583,,,TRUE,TRUE,,,,,,,CLR,,,,,,,,VFR,,,,,,,,,,,,METAR,60.0
KIZA 171855Z AUTO 00000KT 10SM CLR 21/04 A3007 RMK AO2,KIZA,2021-01-17T18:55:00Z,34.6,-120.07,21.0,4.0,0,0,,10.0,30.070866,,,TRUE,TRUE,,,,,,,CLR,,,,,,,,VFR,,,,,,,,,,,,METAR,200.0
KIYA 171855Z AUTO 26007KT 10SM CLR 16/M08 A3008 RMK AO2 T01641078,KIYA,2021-01-17T18:55:00Z,29.98,-92.08,16.4,-7.8,260,7,,10.0,30.079725,,,TRUE,TRUE,,,,,,,CLR,,,,,,,,VFR,,,,,,,,,,,,METAR,4.0
KIWA 171855Z 27004KT 10SM FEW250 19/M08 A3009,KIWA,2021-01-17T18:55:00Z,33.3,-111.65,19.0,-8.0,270,4,,10.0,30.088583,,,,,,,,,,,FEW,25000,,,,,,,VFR,,,,,,,,,,,,METAR,420.0
KINJ 171855Z AUTO 33012KT 10SM CLR 16/M03 A3012 RMK AO2 T01551032,KINJ,2021-01-17T18:55:00Z,32.08,-97.1,15.5,-3.2,330,12,,10.0,30.121063,,,TRUE,TRUE,,,,,,,CLR,,,,,,,,VFR,,,,,,,,,,,,METAR,208.0
KIMM 171855Z AUTO VRB04KT 10SM FEW043 OVC060 18/09 A3003 RMK AO2 PWINO,KIMM,2021-01-17T18:55:00Z,26.43,-81.4,18.0,9.0,0,4,,10.0,30.029528,,,TRUE,TRUE,,,,,TRUE,,FEW,4300,OVC,6000,,,,,VFR,,,,,,,,,,,,METAR,11.0
KIKW 171855Z AUTO 28003KT 10SM SCT015 OVC022 01/M02 A2963 RMK AO2 T00131016,KIKW,2021-01-17T18:55:00Z,43.67,-84.27,1.3,-1.6,280,3,,10.0,29.630905,,,TRUE,TRUE,,,,,,,SCT,1500,OVC,2200,,,,,MVFR,,,,,,,,,,,,METAR,190.0
KIKK 171855Z AUTO 27010KT 10SM BKN019 OVC024 M01/M03 A2972 RMK AO2 T10121034,KIKK,2021-01-17T18:55:00Z,41.07,-87.85,-1.2,-3.4,270,10,,10.0,29.719488,,,TRUE,TRUE,,,,,,,BKN,1900,OVC,2400,,,,,MVFR,,,,,,,,,,,,METAR,188.0
KIKG 171855Z AUTO 11005KT 10SM BKN043 23/13 A3009 RMK AO2 T02320130,KIKG,2021-01-17T18:55:00Z,27.55,-98.03,23.2,13.0,110,5,,10.0,30.088583,,,TRUE,TRUE,,,,,,,BKN,4300,,,,,,,VFR,,,,,,,,,,,,METAR,37.0
KIJX 171855Z AUTO 29011KT 10SM -SN SCT017 OVC027 M01/M03 A2978 RMK AO2 T10121028,KIJX,2021-01-17T18:55:00Z,39.77,-90.25,-1.2,-2.8,290,11,,10.0,29.778543,,,TRUE,TRUE,,,,,,-SN,SCT,1700,OVC,2700,,,,,MVFR,,,,,,,,,,,,METAR,187.0
KIIY 171855Z AUTO 24007KT 10SM 09/M02 A2991 RMK AO2,KIIY,2021-01-17T18:55:00Z,33.78,-82.82,9.0,-2.0,240,7,,10.0,29.911417,,,TRUE,TRUE,,,,,,,,,,,,,,,,,,,,,,,,,,,METAR,192.0
KIGQ 171855Z AUTO 24008KT 10SM OVC013 M01/M03 A2970 RMK AO2 T10121034,KIGQ,2021-01-17T18:55:00Z,41.53,-87.53,-1.2,-3.4,240,8,,10.0,29.698818,,,TRUE,TRUE,,,,,,,OVC,1300,,,,,,,MVFR,,,,,,,,,,,,METAR,187.0
KIER 171855Z AUTO 34008KT 10SM CLR 16/M01 A3006 RMK AO2 T01581008,KIER,2021-01-17T18:55:00Z,31.73,-93.1,15.8,-0.8,340,8,,10.0,30.059055,,,TRUE,TRUE,,,,,,,CLR,,,,,,,,VFR,,,,,,,,,,,,METAR,35.0
KIDP 171855Z AUTO 32017G25KT 10SM CLR 10/M04 A2998 RMK AO2 T00961036,KIDP,2021-01-17T18:55:00Z,37.17,-95.78,9.6,-3.6,320,17,25,10.0,29.97933,,,TRUE,TRUE,,,,,,,CLR,,,,,,,,VFR,,,,,,,,,,,,METAR,252.0
KIBM 171855Z AUTO 31014G21KT 10SM SCT085 BKN110 06/M09 A2997 RMK AO2 T00631088,KIBM,2021-01-17T18:55:00Z,41.18,-103.68,6.3,-8.8,310,14,21,10.0,29.970472,,,TRUE,TRUE,,,,,,,SCT,8500,BKN,11000,,,,,VFR,,,,,,,,,,,,METAR,1494.0
KI74 171855Z AUTO 24003KT 1 1/4SM -SN OVC005 00/00 A2969 RMK AO2 P0001,KI74,2021-01-17T18:55:00Z,40.12,-83.75,0.0,0.0,240,3,,1.25,29.68996,,,TRUE,TRUE,,,,,,-SN,OVC,500,,,,,,,IFR,,,,,,0.01,,,,,,METAR,322.0
KI63 171855Z AUTO 30011KT 2 1/2SM -SN BKN010 BKN014 OVC020 M02/M03 A2978 RMK AO2 T10181027,KI63,2021-01-17T18:55:00Z,39.98,-90.8,-1.8,-2.7,300,11,,2.5,29.778543,,,TRUE,TRUE,,,,,,-SN,BKN,1000,BKN,1400,OVC,2000,,,IFR,,,,,,,,,,,,METAR,221.0
KI35 171855Z AUTO 00000KT 10SM OVC030 03/M03 A2978 RMK AO2 T00251027,KI35,2021-01-17T18:55:00Z,36.87,-83.37,2.5,-2.7,0,0,,10.0,29.778543,,,TRUE,TRUE,,,,,,,OVC,3000,,,,,,,MVFR,,,,,,,,,,,,METAR,467.0
KI19 171855Z AUTO 24004KT 1 1/4SM -SN OVC005 01/01 A2972 RMK AO2 P0001 T00050005,KI19,2021-01-17T18:55:00Z,39.7,-83.98,0.5,0.5,240,4,,1.25,29.719488,,,TRUE,TRUE,,,,,,-SN,OVC,500,,,,,,,IFR,,,,,,0.01,,,,,,METAR,285.0
KI16 171855Z AUTO 10SM SCT017 BKN021 OVC055 03/00 A2981 RMK AO2 T00301003,KI16,2021-01-17T18:55:00Z,37.6,-81.57,3.0,-0.3,,,,10.0,29.811024,,,TRUE,TRUE,,,,,,,SCT,1700,BKN,2100,OVC,5500,,,MVFR,,,,,,,,,,,,METAR,528.0
KHZR 171855Z AUTO 28007KT 10SM CLR 16/M02 A3005 RMK AO2 T01611024,KHZR,2021-01-17T18:55:00Z,30.72,-91.48,16.1,-2.4,280,7,,10.0,30.050198,,,TRUE,TRUE,,,,,,,CLR,,,,,,,,VFR,,,,,,,,,,,,METAR,11.0
KHZD 171855Z AUTO 27009G20KT 10SM SCT050 09/M03 A2984 RMK A01,KHZD,2021-01-17T18:55:00Z,36.08,-88.47,9.0,-3.0,270,9,20,10.0,29.840551,,,TRUE,TRUE,,,,,,,SCT,5000,,,,,,,VFR,,,,,,,,,,,,METAR,147.0
KHVE 171855Z AUTO 00000KT 10SM CLR 06/M05 A3024 RMK AO2,KHVE,2021-01-17T18:55:00Z,38.42,-110.7,6.0,-5.0,0,0,,10.0,30.239174,,,TRUE,TRUE,,,,,,,CLR,,,,,,,,VFR,,,,,,,,,,,,METAR,1351.0
KHTO 171855Z AUTO 26016G27KT 10SM SCT050 06/M05 A2957 RMK AO2 T00641047,KHTO,2021-01-17T18:55:00Z,40.95,-72.25,6.4,-4.7,260,16,27,10.0,29.568897,,,TRUE,TRUE,,,,,,,SCT,5000,,,,,,,VFR,,,,,,,,,,,,METAR,10.0
KHTH 171855Z AUTO 00000KT 10SM CLR 08/M01 A3039 RMK A01,KHTH,2021-01-17T18:55:00Z,,,8.0,-1.0,0,0,,10.0,30.389763,,,TRUE,TRUE,,,,,,,CLR,,,,,,,,VFR,,,,,,,,,,,,METAR,
KHSG 171855Z AUTO 00000KT 10SM SCT110 03/M07 A2996 RMK AO2 T00291072 PWINO,KHSG,2021-01-17T18:55:00Z,43.72,-108.38,2.9,-7.2,0,0,,10.0,29.958662,,,TRUE,TRUE,,,,,TRUE,,SCT,11000,,,,,,,VFR,,,,,,,,,,,,METAR,1497.0
KHSD 171855Z AUTO 32018G25KT 10SM CLR 11/M06 A3008 RMK A01,KHSD,2021-01-17T18:55:00Z,35.6,-97.72,11.0,-6.0,320,18,25,10.0,30.079725,,,TRUE,TRUE,,,,,,,CLR,,,,,,,,VFR,,,,,,,,,,,,METAR,358.0
KHSB 171855Z AUTO 29009G16KT 10SM BKN024 BKN030 OVC038 03/M04 A2983 RMK AO2 T00311042,KHSB,2021-01-17T18:55:00Z,37.82,-88.55,3.1,-4.2,290,9,16,10.0,29.828741,,,TRUE,TRUE,,,,,,,BKN,2400,BKN,3000,OVC,3800,,,MVFR,,,,,,,,,,,,METAR,118.0
KHRX 171855Z AUTO 00000KT 7SM CLR 09/M07 A3013 RMK AO2 T00851070,KHRX,2021-01-17T18:55:00Z,34.87,-102.33,8.5,-7.0,0,0,,7.0,30.129921,,,TRUE,TRUE,,,,,,,CLR,,,,,,,,VFR,,,,,,,,,,,,METAR,1153.0
KHQU 171855Z AUTO 30006KT 10SM CLR 10/M03 A2992 RMK AO2 T00991028,KHQU,2021-01-17T18:55:00Z,33.53,-82.52,9.9,-2.8,300,6,,10.0,29.920275,,,TRUE,TRUE,,,,,,,CLR,,,,,,,,VFR,,,,,,,,,,,,METAR,141.0
KHQG 171855Z AUTO 35011G17KT 10SM CLR 08/M09 A3009 RMK AO2 T00831094,KHQG,2021-01-17T18:55:00Z,37.17,-101.37,8.3,-9.4,350,11,17,10.0,30.088583,,,TRUE,TRUE,,,,,,,CLR,,,,,,,,VFR,,,,,,,,,,,,METAR,956.0
KHQG 171855Z AUTO 35011G17KT 10SM CLR 08/M09 A3009 RMK AO2 T00831094,KHQG,2021-01-17T18:55:00Z,37.17,-101.37,8.3,-9.4,350,11,17,10.0,30.088583,,,TRUE,TRUE,,,,,,,CLR,,,,,,,,VFR,,,,,,,,,,,,METAR,956.0
KHMZ 171855Z AUTO 25004KT 10SM BKN024 OVC031 03/M02 A2970 RMK AO2 T00261020,KHMZ,2021-01-17T18:55:00Z,40.08,-78.52,2.6,-2.0,250,4,,10.0,29.698818,,,TRUE,TRUE,,,,,,,BKN,2400,OVC,3100,,,,,MVFR,,,,,,,,,,,,METAR,351.0
KHMP 171855Z AUTO 24013KT 10SM SCT047 09/M02 A2996 RMK AO2 T00911016,KHMP,2021-01-17T18:55:00Z,33.38,-84.33,9.1,-1.6,240,13,,10.0,29.958662,,,TRUE,TRUE,,,,,,,SCT,4700,,,,,,,VFR,,,,,,,,,,,,METAR,263.0
KHLB 171855Z AUTO VRB05G11KT 5SM BR SCT013 SCT018 00/00 A2971 RMK A01 P0002,KHLB,2021-01-17T18:55:00Z,,,0.0,0.0,0,5,11,5.0,29.71063,,,TRUE,TRUE,,,,,,BR,SCT,1300,SCT,1800,,,,,MVFR,,,,,,0.02,,,,,,METAR,
KHJH 171855Z AUTO 32012KT 10SM CLR 07/M05 A2994 RMK AO2 T00741048,KHJH,2021-01-17T18:55:00Z,40.15,-97.58,7.4,-4.8,320,12,,10.0,29.940945,,,TRUE,TRUE,,,,,,,CLR,,,,,,,,VFR,,,,,,,,,,,,METAR,449.0
KHII 171855Z AUTO 33010KT 10SM CLR 20/M06 A3012 RMK AO2,KHII,2021-01-17T18:55:00Z,34.57,-114.37,20.0,-6.0,330,10,,10.0,30.121063,,,TRUE,TRUE,,,,,,,CLR,,,,,,,,VFR,,,,,,,,,,,,METAR,241.0
KHHW 171855Z AUTO 29011G15KT 10SM CLR 11/M07 A3006 RMK AO2,KHHW,2021-01-17T18:55:00Z,34.03,-95.55,11.0,-7.0,290,11,15,10.0,30.059055,,,TRUE,TRUE,,,,,,,CLR,,,,,,,,VFR,,,,,,,,,,,,METAR,178.0
KHHG 171855Z AUTO 26009KT 5SM -SN BKN010 OVC016 00/M01 A2968 RMK AO2 T00001013,KHHG,2021-01-17T18:55:00Z,40.85,-85.45,0.0,-1.3,260,9,,5.0,29.681103,,,TRUE,TRUE,,,,,,-SN,BKN,1000,OVC,1600,,,,,MVFR,,,,,,,,,,,,METAR,247.0
KHHF 171855Z AUTO 32013G16KT 10SM CLR 10/M09 A3011 RMK AO2 T00991088,KHHF,2021-01-17T18:55:00Z,35.9,-100.4,9.9,-8.8,320,13,16,10.0,30.109253,,,TRUE,TRUE,,,,,,,CLR,,,,,,,,VFR,,,,,,,,,,,,METAR,729.0
KHFJ 171855Z AUTO 29011KT 10SM SCT070 SCT085 06/M02 A2992 RMK AO2,KHFJ,2021-01-17T18:55:00Z,36.9,-94.02,6.0,-2.0,290,11,,10.0,29.920275,,,TRUE,TRUE,,,,,,,SCT,7000,SCT,8500,,,,,VFR,,,,,,,,,,,,METAR,398.0
KHEQ 171855Z AUTO 32008KT 10SM CLR 08/M11 A3000 RMK AO2,KHEQ,2021-01-17T18:55:00Z,40.57,-102.28,8.0,-11.0,320,8,,10.0,30.0,,,TRUE,TRUE,,,,,,,CLR,,,,,,,,VFR,,,,,,,,,,,,METAR,1136.0
KHDE 171855Z AUTO 31012G16KT 10SM CLR 06/M06 A2997 RMK AO2 T00621060,KHDE,2021-01-17T18:55:00Z,40.45,-99.33,6.2,-6.0,310,12,16,10.0,29.970472,,,TRUE,TRUE,,,,,,,CLR,,,,,,,,VFR,,,,,,,,,,,,METAR,703.0
KHDC 171855Z AUTO 28005KT 10SM CLR 16/M03 A3004 RMK AO2,KHDC,2021-01-17T18:55:00Z,30.52,-90.42,16.0,-3.0,280,5,,10.0,30.041338,,,TRUE,TRUE,,,,,,,CLR,,,,,,,,VFR,,,,,,,,,,,,METAR,12.0
KHCR 171855Z AUTO 00000KT 10SM CLR 00/M04 A3028 RMK AO2,KHCR,2021-01-17T18:55:00Z,40.48,-111.43,0.0,-4.0,0,0,,10.0,30.280512,,,TRUE,TRUE,,,,,,,CLR,,,,,,,,VFR,,,,,,,,,,,,METAR,1708.0
KHBV 171855Z AUTO 00000KT 10SM BKN039 BKN046 21/05 A3009 RMK AO2 T02100046,KHBV,2021-01-17T18:55:00Z,27.35,-98.73,21.0,4.6,0,0,,10.0,30.088583,,,TRUE,TRUE,,,,,,,BKN,3900,BKN,4600,,,,,VFR,,,,,,,,,,,,METAR,200.0
KGZS 171855Z AUTO 27015G21KT 10SM FEW055 10/M03 A2984 RMK A01,KGZS,2021-01-17T18:55:00Z,35.15,-87.05,10.0,-3.0,270,15,21,10.0,29.840551,,,TRUE,TRUE,,,,,,,FEW,5500,,,,,,,VFR,,,,,,,,,,,,METAR,198.0
KGYF 171855Z AUTO 12004KT 10SM OVC065 19/08 A3007 RMK AO2 T01860085,KGYF,2021-01-17T18:55:00Z,,,18.6,8.5,120,4,,10.0,30.070866,,,TRUE,TRUE,,,,,,,OVC,6500,,,,,,,VFR,,,,,,,,,,,,METAR,
KGYB 171855Z AUTO 32007KT 280V350 10SM CLR 19/M03 A3012 RMK AO2 T01911028,KGYB,2021-01-17T18:55:00Z,30.17,-96.98,19.1,-2.8,320,7,,10.0,30.121063,,,TRUE,TRUE,,,,,,,CLR,,,,,,,,VFR,,,,,,,,,,,,METAR,140.0
KGWB 171855Z AUTO 25005KT 3SM -SN SCT008 OVC017 00/00 A2967 RMK AO2,KGWB,2021-01-17T18:55:00Z,41.3,-85.07,0.0,0.0,250,5,,3.0,29.66929,,,TRUE,TRUE,,,,,,-SN,SCT,800,OVC,1700,,,,,MVFR,,,,,,,,,,,,METAR,268.0
KGVT 171855Z AUTO 30006KT 10SM OVC110 12/M03 A3012 RMK AO2,KGVT,2021-01-17T18:55:00Z,33.07,-96.07,12.0,-3.0,300,6,,10.0,30.121063,,,TRUE,TRUE,,,,,,,OVC,11000,,,,,,,VFR,,,,,,,,,,,,METAR,165.0
KGVE 171855Z AUTO 22010G15KT 10SM OVC050 07/M02 A2977 RMK AO1 T00701016,KGVE,2021-01-17T18:55:00Z,38.15,-78.17,7.0,-1.6,220,10,15,10.0,29.769686,,,TRUE,TRUE,,,,,,,OVC,5000,,,,,,,VFR,,,,,,,,,,,,METAR,138.0
KGRN 171855Z AUTO 30011KT 10SM CLR 04/M09 A2994 RMK AO2 T00391094,KGRN,2021-01-17T18:55:00Z,42.8,-102.17,3.9,-9.4,300,11,,10.0,29.940945,,,TRUE,TRUE,,,,,,,CLR,,,,,,,,VFR,,,,,,,,,,,,METAR,1080.0
KGPI 171855Z 22004KT 10SM OVC004 01/M01 A3008 RMK AO2 SLP213 T00061011,KGPI,2021-01-17T18:55:00Z,48.32,-114.25,0.6,-1.1,220,4,,10.0,30.079725,1021.3,,,TRUE,,,,,,,OVC,400,,,,,,,LIFR,,,,,,,,,,,,METAR,903.0
KGPC 171855Z AUTO 26009KT 10SM BKN019 BKN032 OVC041 M01/M03 A2972 RMK AO2 T10051034,KGPC,2021-01-17T18:55:00Z,39.63,-86.82,-0.5,-3.4,260,9,,10.0,29.719488,,,TRUE,TRUE,,,,,,,BKN,1900,BKN,3200,OVC,4100,,,MVFR,,,,,,,,,,,,METAR,254.0
KGOP 171855Z AUTO 02005G11KT 10SM CLR 15/M04 A3014 RMK AO2,KGOP,2021-01-17T18:55:00Z,31.42,-97.8,15.0,-4.0,20,5,11,10.0,30.138779,,,TRUE,TRUE,,,,,,,CLR,,,,,,,,VFR,,,,,,,,,,,,METAR,272.0
KGOO 171855Z AUTO 34004KT 10SM CLR 20/M04 A3020 RMK A01,KGOO,2021-01-17T18:55:00Z,39.22,-121.0,20.0,-4.0,340,4,,10.0,30.200787,,,TRUE,TRUE,,,,,,,CLR,,,,,,,,VFR,,,,,,,,,,,,METAR,950.0
KGNG 171855Z AUTO 27008KT 3/4SM BR OVC003 M01/M01 A3032 RMK AO2,KGNG,2021-01-17T18:55:00Z,,,-1.0,-1.0,270,8,,0.75,30.318897,,,TRUE,TRUE,,,,,,BR,OVC,300,,,,,,,LIFR,,,,,,,,,,,,METAR,
KGNC 171855Z AUTO 13006KT 10SM CLR 10/M04 A3019 RMK AO2 T01041045,KGNC,2021-01-17T18:55:00Z,32.68,-102.65,10.4,-4.5,130,6,,10.0,30.188976,,,TRUE,TRUE,,,,,,,CLR,,,,,,,,VFR,,,,,,,,,,,,METAR,1002.0
KGMJ 171855Z AUTO 26010KT 10SM CLR 08/M01 A2998 RMK AO2,KGMJ,2021-01-17T18:55:00Z,36.6,-94.73,8.0,-1.0,260,10,,10.0,29.97933,,,TRUE,TRUE,,,,,,,CLR,,,,,,,,VFR,,,,,,,,,,,,METAR,251.0
KGLW 171855Z AUTO 25011G16KT 10SM SCT015 BKN019 OVC031 03/01 A2980 RMK AO2 P0001 T00320008,KGLW,2021-01-17T18:55:00Z,37.03,-85.95,3.2,0.8,250,11,16,10.0,29.799213,,,TRUE,TRUE,,,,,,,SCT,1500,BKN,1900,OVC,3100,,,MVFR,,,,,,0.01,,,,,,METAR,216.0
KGLE 171855Z AUTO 30009KT 10SM SCT100 13/M04 A3012 RMK AO2 T01251044,KGLE,2021-01-17T18:55:00Z,33.65,-97.2,12.5,-4.4,300,9,,10.0,30.121063,,,TRUE,TRUE,,,,,,,SCT,10000,,,,,,,VFR,,,,,,,,,,,,METAR,250.0
KGIC 171855Z AUTO 23014G21KT 10SM SCT031 BKN036 BKN046 06/01 A3024 RMK AO1,KGIC,2021-01-17T18:55:00Z,45.95,-116.12,6.0,1.0,230,14,21,10.0,30.239174,,,TRUE,TRUE,,,,,,,SCT,3100,BKN,3600,BKN,4600,,,VFR,,,,,,,,,,,,METAR,1002.0
KGHG 171855Z AUTO 25015G28KT 210V290 10SM OVC055 08/M05 A2943 RMK AO2,KGHG,2021-01-17T18:55:00Z,42.1,-70.67,8.0,-5.0,250,15,28,10.0,29.430119,,,TRUE,TRUE,,,,,,,OVC,5500,,,,,,,VFR,,,,,,,,,,,,METAR,3.0
KGGP 171855Z AUTO 27010KT 10SM OVC010 M01/M02 A2971 RMK AO2,KGGP,2021-01-17T18:55:00Z,40.72,-86.37,-1.0,-2.0,270,10,,10.0,29.71063,,,TRUE,TRUE,,,,,,,OVC,1000,,,,,,,MVFR,,,,,,,,,,,,METAR,224.0
KGDJ 171855Z AUTO 01005KT 10SM CLR 15/M03 A3015 RMK AO2 T01471028,KGDJ,2021-01-17T18:55:00Z,32.45,-97.82,14.7,-2.8,10,5,,10.0,30.15059,,,TRUE,TRUE,,,,,,,CLR,,,,,,,,VFR,,,,,,,,,,,,METAR,235.0
KGCY 171855Z AUTO 23006G11KT 10SM BKN035 BKN050 OVC055 04/M02 A2980 RMK A01,KGCY,2021-01-17T18:55:00Z,36.2,-82.82,4.0,-2.0,230,6,11,10.0,29.799213,,,TRUE,TRUE,,,,,,,BKN,3500,BKN,5000,OVC,5500,,,VFR,,,,,,,,,,,,METAR,488.0
KGCM 171855Z AUTO 29011G16KT 10SM CLR 10/M05 A3001 RMK AO2,KGCM,2021-01-17T18:55:00Z,36.3,-95.48,10.0,-5.0,290,11,16,10.0,30.008858,,,TRUE,TRUE,,,,,,,CLR,,,,,,,,VFR,,,,,,,,,,,,METAR,215.0
KGBG 171855Z AUTO 29010KT 4SM -SN OVC008 M04/M06 A2977 RMK AO2 T10391056,KGBG,2021-01-17T18:55:00Z,40.93,-90.43,-3.9,-5.6,290,10,,4.0,29.769686,,,TRUE,TRUE,,,,,,-SN,OVC,800,,,,,,,IFR,,,,,,,,,,,,METAR,230.0
KGAO 171855Z AUTO 23009KT 10SM CLR 15/02 A3007 RMK AO2 T01480017,KGAO,2021-01-17T18:55:00Z,29.45,-90.27,14.8,1.7,230,9,,10.0,30.070866,,,TRUE,TRUE,,,,,,,CLR,,,,,,,,VFR,,,,,,,,,,,,METAR,0.0
KFZG 171855Z AUTO 22008KT 10SM CLR 12/M02 A2999 RMK AO2 T01241023,KFZG,2021-01-17T18:55:00Z,31.68,-83.27,12.4,-2.3,220,8,,10.0,29.991142,,,TRUE,TRUE,,,,,,,CLR,,,,,,,,VFR,,,,,,,,,,,,METAR,105.0
KFYM 171855Z AUTO 23013G22KT 10SM FEW047 09/M03 A2986 RMK A01,KFYM,2021-01-17T18:55:00Z,35.07,-86.57,9.0,-3.0,230,13,22,10.0,29.861221,,,TRUE,TRUE,,,,,,,FEW,4700,,,,,,,VFR,,,,,,,,,,,,METAR,297.0
KFYJ 171855Z AUTO 24011KT 10SM CLR 10/M02 A2981 RMK AO1 T00951022,KFYJ,2021-01-17T18:55:00Z,37.52,-76.77,9.5,-2.2,240,11,,10.0,29.811024,,,TRUE,TRUE,,,,,,,CLR,,,,,,,,VFR,,,,,,,,,,,,METAR,3.0
KFYE 171855Z AUTO 29009G17KT 230V320 10SM CLR 10/M05 A2987 RMK A01,KFYE,2021-01-17T18:55:00Z,35.2,-89.38,10.0,-5.0,290,9,17,10.0,29.870079,,,TRUE,TRUE,,,,,,,CLR,,,,,,,,VFR,,,,,,,,,,,,METAR,133.0
KFXY 171855Z AUTO 32009KT 10SM OVC009 M02/M02 A2977 RMK AO2,KFXY,2021-01-17T18:55:00Z,43.23,-93.62,-2.0,-2.0,320,9,,10.0,29.769686,,,TRUE,TRUE,,,,,,,OVC,900,,,,,,,IFR,,,,,,,,,,,,METAR,366.0
KFWZ 171855Z AUTO 25008KT 10SM CLR 00/M10 A2994 RMK AO2,KFWZ,2021-01-17T18:55:00Z,42.52,-108.78,0.0,-10.0,250,8,,10.0,29.940945,,,TRUE,TRUE,,,,,,,CLR,,,,,,,,VFR,,,,,,,,,,,,METAR,2605.0
KFWC 171855Z AUTO 27004KT 10SM BKN024 OVC030 01/M03 A2979 RMK AO1 T00131031,KFWC,2021-01-17T18:55:00Z,38.38,-88.42,1.3,-3.1,270,4,,10.0,29.790354,,,TRUE,TRUE,,,,,,,BKN,2400,OVC,3000,,,,,MVFR,,,,,,,,,,,,METAR,131.0
KFTN 171855Z AUTO 00000KT 10SM CLR 17/06 A3014 RMK A01,KFTN,2021-01-17T18:55:00Z,28.22,-100.02,17.0,6.0,0,0,,10.0,30.138779,,,TRUE,TRUE,,,,,,,CLR,,,,,,,,VFR,,,,,,,,,,,,METAR,236.0
KFPY 171855Z AUTO 10SM CLR 15/02 A3002 RMK AO2 T01540020,KFPY,2021-01-17T18:55:00Z,30.07,-83.57,15.4,2.0,,,,10.0,30.02067,,,TRUE,TRUE,,,,,,,CLR,,,,,,,,VFR,,,,,,,,,,,,METAR,12.0
KFOT 171855Z AUTO 31007KT 10SM CLR 13/10 A3026 RMK AO1,KFOT,2021-01-17T18:55:00Z,40.55,-124.13,13.0,10.0,310,7,,10.0,30.259842,,,TRUE,TRUE,,,,,,,CLR,,,,,,,,VFR,,,,,,,,,,,,METAR,118.0
KFOA 171855Z AUTO 29013KT 10SM OVC021 00/M03 A2980 RMK AO2,KFOA,2021-01-17T18:55:00Z,38.67,-88.45,0.0,-3.0,290,13,,10.0,29.799213,,,TRUE,TRUE,,,,,,,OVC,2100,,,,,,,MVFR,,,,,,,,,,,,METAR,141.0
KFMM 171855Z AUTO 17004KT 10SM SCT090 06/M09 A3001 RMK AO2 T00571091,KFMM,2021-01-17T18:55:00Z,40.33,-103.8,5.7,-9.1,170,4,,10.0,30.008858,,,TRUE,TRUE,,,,,,,SCT,9000,,,,,,,VFR,,,,,,,,,,,,METAR,1376.0
KFLY 171855Z AUTO 21008KT 10SM CLR 01/M10 A3003 RMK AO2 T00141096,KFLY,2021-01-17T18:55:00Z,38.95,-104.57,1.4,-9.6,210,8,,10.0,30.029528,,,TRUE,TRUE,,,,,,,CLR,,,,,,,,VFR,,,,,,,,,,,,METAR,2096.0
KFKR 171855Z AUTO 27009KT 1 1/2SM -SN BR SCT010 OVC017 M01/M02 A2971 RMK AO2,KFKR,2021-01-17T18:55:00Z,40.27,-86.57,-1.0,-2.0,270,9,,1.5,29.71063,,,TRUE,TRUE,,,,,,-SN BR,SCT,1000,OVC,1700,,,,,IFR,,,,,,,,,,,,METAR,260.0
KFKA 171855Z AUTO 33005KT 7SM OVC005 M06/M07 A2974 RMK AO2 T10611070,KFKA,2021-01-17T18:55:00Z,43.68,-92.17,-6.1,-7.0,330,5,,7.0,29.740158,,,TRUE,TRUE,,,,,,,OVC,500,,,,,,,IFR,,,,,,,,,,,,METAR,388.0
KFHB 171855Z AUTO 28012KT 10SM CLR 14/M01 A3000 RMK AO2 T01431009,KFHB,2021-01-17T18:55:00Z,30.62,-81.47,14.3,-0.9,280,12,,10.0,30.0,,,TRUE,TRUE,,,,,,,CLR,,,,,,,,VFR,,,,,,,,,,,,METAR,4.0
KFGX 171855Z AUTO 26008G14KT 5SM -RA SCT010 BKN014 OVC039 01/01 A2976 RMK AO2 T00100005,KFGX,2021-01-17T18:55:00Z,38.55,-83.75,1.0,0.5,260,8,14,5.0,29.760826,,,TRUE,TRUE,,,,,,-RA,SCT,1000,BKN,1400,OVC,3900,,,MVFR,,,,,,,,,,,,METAR,279.0
KFGN 171855Z AUTO 30008KT M08/M09 A2978 RMK AO2 PWINO,KFGN,2021-01-17T18:55:00Z,49.32,-94.9,-8.0,-9.0,300,8,,,29.778543,,,TRUE,TRUE,,,,,TRUE,,,,,,,,,,,,,,,,,,,,,,METAR,327.0
KFET 171855Z AUTO 29014G18KT 10SM BKN050 03/M02 A2990 RMK AO2 T00261024,KFET,2021-01-17T18:55:00Z,41.45,-96.52,2.6,-2.4,290,14,18,10.0,29.899607,,,TRUE,TRUE,,,,,,,BKN,5000,,,,,,,VFR,,,,,,,,,,,,METAR,366.0
KFEP 171855Z AUTO 35006KT 7SM SCT014 OVC021 M02/M04 A2972 RMK AO2 T10181037,KFEP,2021-01-17T18:55:00Z,42.25,-89.58,-1.8,-3.7,350,6,,7.0,29.719488,,,TRUE,TRUE,,,,,,,SCT,1400,OVC,2100,,,,,MVFR,,,,,,,,,,,,METAR,255.0
KF46 171855Z AUTO 34008KT 10SM OVC095 12/M03 A3013 RMK AO2 T01211032,KF46,2021-01-17T18:55:00Z,32.93,-96.43,12.1,-3.2,340,8,,10.0,30.129921,,,TRUE,TRUE,,,,,,,OVC,9500,,,,,,,VFR,,,,,,,,,,,,METAR,175.0
KF44 171855Z AUTO 36006KT 10SM CLR 15/M04 A3009 RMK AO2,KF44,2021-01-17T18:55:00Z,32.17,-95.83,15.0,-4.0,360,6,,10.0,30.088583,,,TRUE,TRUE,,,,,,,CLR,,,,,,,,VFR,,,,,,,,,,,,METAR,137.0
KF17 171855Z AUTO 36008G14KT 10SM CLR 16/M05 A3008 RMK AO2,KF17,2021-01-17T18:55:00Z,31.83,-94.15,16.0,-5.0,360,8,14,10.0,30.079725,,,TRUE,TRUE,,,,,,,CLR,,,,,,,,VFR,,,,,,,,,,,,METAR,93.0
KF05 171855Z AUTO 33009KT 10SM CLR 13/M04 A3015 RMK AO2 T01271038,KF05,2021-01-17T18:55:00Z,34.23,-99.28,12.7,-3.8,330,9,,10.0,30.15059,,,TRUE,TRUE,,,,,,,CLR,,,,,,,,VFR,,,,,,,,,,,,METAR,384.0
KF00 171855Z AUTO 28009KT 10SM SCT075 OVC090 11/M04 A3010 RMK AO2 T01091037,KF00,2021-01-17T18:55:00Z,33.62,-96.18,10.9,-3.7,280,9,,10.0,30.100393,,,TRUE,TRUE,,,,,,,SCT,7500,OVC,9000,,,,,VFR,,,,,,,,,,,,METAR,189.0
KEZZ 171855Z AUTO 33013G20KT 10SM BKN024 OVC028 02/M03 A2986 RMK AO2 T00201027,KEZZ,2021-01-17T18:55:00Z,39.72,-94.28,2.0,-2.7,330,13,20,10.0,29.861221,,,TRUE,TRUE,,,,,,,BKN,2400,OVC,2800,,,,,MVFR,,,,,,,,,,,,METAR,317.0
KEXX 171855Z AUTO 24006KT 10SM OVC050 07/M03 A2985 RMK AO2 T00691035,KEXX,2021-01-17T18:55:00Z,35.78,-80.3,6.9,-3.5,240,6,,10.0,29.84941,,,TRUE,TRUE,,,,,,,OVC,5000,,,,,,,VFR,,,,,,,,,,,,METAR,221.0
KEVM 171855Z AUTO 29004KT 7SM -SN OVC008 M07/M08 A2974 RMK AO2 T10701085,KEVM,2021-01-17T18:55:00Z,47.42,-92.5,-7.0,-8.5,290,4,,7.0,29.740158,,,TRUE,TRUE,,,,,,-SN,OVC,800,,,,,,,IFR,,,,,,,,,,,,METAR,419.0
KETN 171855Z AUTO 04008KT 10SM CLR 12/M06 A3015 RMK AO2 T01251059,KETN,2021-01-17T18:55:00Z,32.42,-98.82,12.5,-5.9,40,8,,10.0,30.15059,,,TRUE,TRUE,,,,,,,CLR,,,,,,,,VFR,,,,,,,,,,,,METAR,445.0
KETC 171855Z AUTO 23009KT 210V280 10SM CLR 10/M03 A2985 RMK AO2 T00961031,KETC,2021-01-17T18:55:00Z,35.93,-77.55,9.6,-3.1,230,9,,10.0,29.84941,,,TRUE,TRUE,,,,,,,CLR,,,,,,,,VFR,,,,,,,,,,,,METAR,15.0
KETB 171855Z AUTO 35004KT 10SM OVC015 M01/M03 A2967 RMK AO2,KETB,2021-01-17T18:55:00Z,43.42,-88.13,-1.0,-3.0,350,4,,10.0,29.66929,,,TRUE,TRUE,,,,,,,OVC,1500,,,,,,,MVFR,,,,,,,,,,,,METAR,269.0
KERV 171855Z AUTO 00000KT 10SM CLR 18/M04 A3011 RMK AO2 T01831040,KERV,2021-01-17T18:55:00Z,29.98,-99.08,18.3,-4.0,0,0,,10.0,30.109253,,,TRUE,TRUE,,,,,,,CLR,,,,,,,,VFR,,,,,,,,,,,,METAR,483.0
KEQA 171855Z AUTO 32015G26KT 10SM CLR 09/M05 A2998 RMK AO2,KEQA,2021-01-17T18:55:00Z,37.78,-96.82,9.0,-5.0,320,15,26,10.0,29.97933,,,TRUE,TRUE,,,,,,,CLR,,,,,,,,VFR,,,,,,,,,,,,METAR,422.0
KENL 171855Z AUTO 29011KT 10SM OVC023 01/M02 A2980 RMK AO2 T00101023,KENL,2021-01-17T18:55:00Z,38.52,-89.1,1.0,-2.3,290,11,,10.0,29.799213,,,TRUE,TRUE,,,,,,,OVC,2300,,,,,,,MVFR,,,,,,,,,,,,METAR,161.0
KEMM 171855Z AUTO 27009KT 10SM OVC016 00/M05 A3020 RMK AO2,KEMM,2021-01-17T18:55:00Z,41.82,-110.55,0.0,-5.0,270,9,,10.0,30.200787,,,TRUE,TRUE,,,,,,,OVC,1600,,,,,,,MVFR,,,,,,,,,,,,METAR,2219.0
KELA 171855Z AUTO 10SM CLR 20/M03 A3010 RMK AO2 T01961030,KELA,2021-01-17T18:55:00Z,29.6,-96.32,19.6,-3.0,,,,10.0,30.100393,,,TRUE,TRUE,,,,,,,CLR,,,,,,,,VFR,,,,,,,,,,,,METAR,56.0
KEKS 171855Z AUTO 16019KT 10SM OVC049 01/M07 A3004 RMK AO2,KEKS,2021-01-17T18:55:00Z,45.27,-111.65,1.0,-7.0,160,19,,10.0,30.041338,,,TRUE,TRUE,,,,,,,OVC,4900,,,,,,,VFR,,,,,,,,,,,,METAR,1636.0
KEIR 171855Z AUTO 30007KT 6SM HZ CLR 14/04 A3011 RMK A01,KEIR,2021-01-17T18:55:00Z,28.63,-91.48,14.0,4.0,300,7,,6.0,30.109253,,,TRUE,TRUE,,,,,,HZ,CLR,,,,,,,,VFR,,,,,,,,,,,,METAR,28.0
KEIK 171855Z AUTO 09003KT 10SM CLR 08/M10 A2998 RMK AO2 T00771096,KEIK,2021-01-17T18:55:00Z,40.02,-105.05,7.7,-9.6,90,3,,10.0,29.97933,,,TRUE,TRUE,,,,,,,CLR,,,,,,,,VFR,,,,,,,,,,,,METAR,1551.0
KEHY 171855Z AUTO 10SM CLR M01/M09 A2998 RMK AO2 PWINO,KEHY,2021-01-17T18:55:00Z,41.73,-106.47,-1.0,-9.0,,,,10.0,29.97933,,,TRUE,TRUE,,,,,TRUE,,CLR,,,,,,,,VFR,,,,,,,,,,,,METAR,2239.0
KEHA 171855Z AUTO 33008G14KT 10SM CLR 09/M06 A3010 RMK AO2 T00921064,KEHA,2021-01-17T18:55:00Z,37.0,-101.87,9.2,-6.4,330,8,14,10.0,30.100393,,,TRUE,TRUE,,,,,,,CLR,,,,,,,,VFR,,,,,,,,,,,,METAR,1103.0
KEDU 171855Z AUTO 02009KT 10SM CLR 18/05 A3016 RMK AO1,KEDU,2021-01-17T18:55:00Z,38.53,-121.78,18.0,5.0,20,9,,10.0,30.159449,,,TRUE,TRUE,,,,,,,CLR,,,,,,,,VFR,,,,,,,,,,,,METAR,20.0
KEDN 171855Z AUTO 27004KT 10SM CLR 12/M01 A3000 RMK AO2 T01231009,KEDN,2021-01-17T18:55:00Z,31.3,-85.9,12.3,-0.9,270,4,,10.0,30.0,,,TRUE,TRUE,,,,,,,CLR,,,,,,,,VFR,,,,,,,,,,,,METAR,103.0
KEDJ 171855Z AUTO 24008KT 1 1/2SM BKN006 BKN011 00/00 A2969 RMK AO1,KEDJ,2021-01-17T18:55:00Z,40.37,-83.82,0.0,0.0,240,8,,1.5,29.68996,,,TRUE,TRUE,,,,,,,BKN,600,BKN,1100,,,,,IFR,,,,,,,,,,,,SPECI,341.0
KEDC 171855Z AUTO 35009KT 10SM CLR 17/M05 A3012 RMK AO2,KEDC,2021-01-17T18:55:00Z,30.4,-97.57,17.0,-5.0,350,9,,10.0,30.121063,,,TRUE,TRUE,,,,,,,CLR,,,,,,,,VFR,,,,,,,,,,,,METAR,184.0
KECU 171855Z AUTO 24008KT 10SM CLR 15/M02 A3016 RMK AO2,KECU,2021-01-17T18:55:00Z,29.95,-100.17,15.0,-2.0,240,8,,10.0,30.159449,,,TRUE,TRUE,,,,,,,CLR,,,,,,,,VFR,,,,,,,,,,,,METAR,725.0
KECS 171855Z AUTO 00000KT 10SM CLR 00/M09 A2995 RMK AO2,KECS,2021-01-17T18:55:00Z,43.88,-104.32,0.0,-9.0,0,0,,10.0,29.949802,,,TRUE,TRUE,,,,,,,CLR,,,,,,,,VFR,,,,,,,,,,,,METAR,1273.0
KEBS 171855Z AUTO 32018KT 10SM OVC013 M02/M04 A2978 RMK AO2,KEBS,2021-01-17T18:55:00Z,42.43,-93.87,-2.0,-4.0,320,18,,10.0,29.778543,,,TRUE,TRUE,,,,,,,OVC,1300,,,,,,,MVFR,,,,,,,,,,,,METAR,340.0
KEBG 171855Z AUTO 08007KT 10SM BKN035 OVC044 22/13 A3008 RMK AO2 T02210128 TSNO,KEBG,2021-01-17T18:55:00Z,26.45,-98.13,22.1,12.8,80,7,,10.0,30.079725,,,TRUE,TRUE,,,TRUE,,,,BKN,3500,OVC,4400,,,,,VFR,,,,,,,,,,,,METAR,21.0
KEAT 171855Z AUTO 00000KT 10SM CLR 01/M01 A3034 RMK AO2 SLP288 T00111011,KEAT,2021-01-17T18:55:00Z,47.4,-120.2,1.1,-1.1,0,0,,10.0,30.339567,1028.8,,TRUE,TRUE,,,,,,,CLR,,,,,,,,VFR,,,,,,,,,,,,METAR,375.0
KEAN 171855Z AUTO 28017G25KT 10SM OVC075 04/M07 A2996 RMK AO2 T00421075,KEAN,2021-01-17T18:55:00Z,42.05,-104.93,4.2,-7.5,280,17,25,10.0,29.958662,,,TRUE,TRUE,,,,,,,OVC,7500,,,,,,,VFR,,,,,,,,,,,,METAR,1452.0
KE41 171855Z AUTO 34006KT 10SM CLR 12/M04 A3013 RMK AO2 T01231044,KE41,2021-01-17T18:55:00Z,31.2,-101.47,12.3,-4.4,340,6,,10.0,30.129921,,,TRUE,TRUE,,,,,,,CLR,,,,,,,,VFR,,,,,,,,,,,,METAR,825.0
KE38 171855Z AUTO 27012G18KT 10SM CLR 18/M12 A3018 RMK AO2 T01781119,KE38,2021-01-17T18:55:00Z,30.38,-103.68,17.8,-11.9,270,12,18,10.0,30.180119,,,TRUE,TRUE,,,,,,,CLR,,,,,,,,VFR,,,,,,,,,,,,METAR,1372.0
KE16 171855Z AUTO 33008KT 10SM CLR 18/05 A3016 RMK AO2 PWINO PNO,KE16,2021-01-17T18:55:00Z,37.08,-121.6,18.0,5.0,330,8,,10.0,30.159449,,,TRUE,TRUE,,,,,TRUE,,CLR,,,,,,,,VFR,,,,,,,,,,,,METAR,84.0
KE11 171855Z AUTO 00000KT 10SM CLR 11/M07 A3015 RMK AO2 T01121068,KE11,2021-01-17T18:55:00Z,32.33,-102.53,11.2,-6.8,0,0,,10.0,30.15059,,,TRUE,TRUE,,,,,,,CLR,,,,,,,,VFR,,,,,,,,,,,,METAR,966.0
KDZJ 171855Z AUTO 27006KT 10SM OVC036 04/M03 A2986 RMK AO2 T00441028,KDZJ,2021-01-17T18:55:00Z,34.85,-84.0,4.4,-2.8,270,6,,10.0,29.861221,,,TRUE,TRUE,,,,,,,OVC,3600,,,,,,,VFR,,,,,,,,,,,,METAR,578.0
KDWX 171855Z AUTO 09004G14KT 10SM SCT095 SCT110 M01/M08 A3018 RMK AO2 T10101078,KDWX,2021-01-17T18:55:00Z,41.03,-107.5,-1.0,-7.8,90,4,14,10.0,30.180119,,,TRUE,TRUE,,,,,,,SCT,9500,SCT,11000,,,,,VFR,,,,,,,,,,,,METAR,1974.0
KDWA 171855Z AUTO 01008KT 8SM 18/05 A3016 RMK AO2,KDWA,2021-01-17T18:55:00Z,38.58,-121.85,18.0,5.0,10,8,,8.0,30.159449,,,TRUE,TRUE,,,,,,,,,,,,,,,,,,,,,,,,,,,METAR,28.0
KDVO 171855Z AUTO 18004KT 10SM CLR 17/08 A3015 RMK AO2,KDVO,2021-01-17T18:55:00Z,38.15,-122.55,17.0,8.0,180,4,,10.0,30.15059,,,TRUE,TRUE,,,,,,,CLR,,,,,,,,VFR,,,,,,,,,,,,METAR,1.0
KDVK 171855Z AUTO 26006KT 10SM SCT018 BKN030 OVC036 02/00 A2978 RMK AO2,KDVK,2021-01-17T18:55:00Z,37.58,-84.77,2.0,0.0,260,6,,10.0,29.778543,,,TRUE,TRUE,,,,,,,SCT,1800,BKN,3000,OVC,3600,,,MVFR,,,,,,,,,,,,METAR,309.0
KDUX 171855Z AUTO 00000KT 10SM CLR 07/M09 A3013 RMK AO2 T00721091,KDUX,2021-01-17T18:55:00Z,35.85,-102.02,7.2,-9.1,0,0,,10.0,30.129921,,,TRUE,TRUE,,,,,,,CLR,,,,,,,,VFR,,,,,,,,,,,,METAR,1129.0
KDUC 171855Z AUTO 30010KT 10SM OVC100 09/M04 A3014 RMK AO2 T00921039,KDUC,2021-01-17T18:55:00Z,34.47,-97.97,9.2,-3.9,300,10,,10.0,30.138779,,,TRUE,TRUE,,,,,,,OVC,10000,,,,,,,VFR,,,,,,,,,,,,METAR,339.0
KDUB 171855Z AUTO 31027G35KT 10SM CLR 03/M08 A2998 RMK AO2,KDUB,2021-01-17T18:55:00Z,43.55,-109.68,3.0,-8.0,310,27,35,10.0,29.97933,,,TRUE,TRUE,,,,,,,CLR,,,,,,,,VFR,,,,,,,,,,,,METAR,2205.0
KDUA 171855Z AUTO 30007KT 10SM SCT095 11/M01 A3011 RMK AO2,KDUA,2021-01-17T18:55:00Z,33.95,-96.4,11.0,-1.0,300,7,,10.0,30.109253,,,TRUE,TRUE,,,,,,,SCT,9500,,,,,,,VFR,,,,,,,,,,,,METAR,209.0
KDSF 171855Z AUTO VRB04G10KT 10SM CLR 17/03 A3006 RMK A01,KDSF,2021-01-17T18:55:00Z,28.35,-88.27,17.0,3.0,0,4,10,10.0,30.059055,,,TRUE,TRUE,,,,,,,CLR,,,,,,,,VFR,,,,,,,,,,,,METAR,40.0
KDRI 171855Z AUTO 32014G21KT 290V350 10SM CLR 18/M03 A3008 RMK AO2 T01751028,KDRI,2021-01-17T18:55:00Z,30.83,-93.33,17.5,-2.8,320,14,21,10.0,30.079725,,,TRUE,TRUE,,,,,,,CLR,,,,,,,,VFR,,,,,,,,,,,,METAR,59.0
KDQH 171855Z AUTO 23012KT 10SM CLR 12/M02 A3000 RMK AO2 T01201022,KDQH,2021-01-17T18:55:00Z,31.48,-82.87,12.0,-2.2,230,12,,10.0,30.0,,,TRUE,TRUE,,,,,,,CLR,,,,,,,,VFR,,,,,,,,,,,,METAR,76.0
KDNV 171855Z AUTO 27012KT 10SM OVC016 00/M03 A2974 RMK AO2 T10051035,KDNV,2021-01-17T18:55:00Z,40.2,-87.6,-0.5,-3.5,270,12,,10.0,29.740158,,,TRUE,TRUE,,,,,,,OVC,1600,,,,,,,MVFR,,,,,,,,,,,,METAR,208.0
KDNN 171855Z AUTO 19008KT 10SM SCT043 BKN050 BKN060 10/M02 A2989 RMK AO2,KDNN,2021-01-17T18:55:00Z,34.72,-84.87,10.0,-2.0,190,8,,10.0,29.890747,,,TRUE,TRUE,,,,,,,SCT,4300,BKN,5000,BKN,6000,,,VFR,,,,,,,,,,,,METAR,216.0
KDMW 171855Z AUTO 28011G21KT 250V320 10SM BKN044 OVC049 07/M02 A2971 RMK AO2,KDMW,2021-01-17T18:55:00Z,39.6,-77.0,7.0,-2.0,280,11,21,10.0,29.71063,,,TRUE,TRUE,,,,,,,BKN,4400,OVC,4900,,,,,VFR,,,,,,,,,,,,METAR,239.0
KDLZ 171855Z AUTO 22005KT 3/4SM -SN OVC007 00/00 A2970 RMK AO2,KDLZ,2021-01-17T18:55:00Z,40.28,-83.12,0.0,0.0,220,5,,0.75,29.698818,,,TRUE,TRUE,,,,,,-SN,OVC,700,,,,,,,LIFR,,,,,,,,,,,,METAR,287.0
KDLO 171855Z AUTO 00000KT 7SM CLR 13/04 A3016 RMK AO2 T01310041,KDLO,2021-01-17T18:55:00Z,35.75,-119.23,13.1,4.1,0,0,,7.0,30.159449,,,TRUE,TRUE,,,,,,,CLR,,,,,,,,VFR,,,,,,,,,,,,METAR,97.0
KDLH 171855Z 32004KT 10SM OVC013 M05/M08 A2971 RMK AO2 SLP085 T10501083,KDLH,2021-01-17T18:55:00Z,46.85,-92.2,-5.0,-8.3,320,4,,10.0,29.71063,1008.5,,,TRUE,,,,,,,OVC,1300,,,,,,,MVFR,,,,,,,,,,,,METAR,434.0
KDKX 171855Z AUTO 25010KT 10SM BKN043 OVC050 07/M01 A2984 RMK A01,KDKX,2021-01-17T18:55:00Z,35.97,-83.87,7.0,-1.0,250,10,,10.0,29.840551,,,TRUE,TRUE,,,,,,,BKN,4300,OVC,5000,,,,,VFR,,,,,,,,,,,,METAR,253.0
KDKB 171855Z AUTO 00000KT 10SM BKN009 OVC014 00/M02 A2968 RMK AO2 T10051020,KDKB,2021-01-17T18:55:00Z,41.93,-88.7,-0.5,-2.0,0,0,,10.0,29.681103,,,TRUE,TRUE,,,,,,,BKN,900,OVC,1400,,,,,IFR,,,,,,,,,,,,METAR,277.0
KDED 171855Z AUTO 22004KT 10SM SCT042 SCT055 15/05 A3003 RMK AO2 T01520054,KDED,2021-01-17T18:55:00Z,29.07,-81.28,15.2,5.4,220,4,,10.0,30.029528,,,TRUE,TRUE,,,,,,,SCT,4200,SCT,5500,,,,,VFR,,,,,,,,,,,,METAR,21.0
KDCY 171855Z AUTO 26011KT 10SM -SN SCT015 BKN020 OVC050 01/00 A2977 RMK AO2 T00081005,KDCY,2021-01-17T18:55:00Z,38.7,-87.13,0.8,-0.5,260,11,,10.0,29.769686,,,TRUE,TRUE,,,,,,-SN,SCT,1500,BKN,2000,OVC,5000,,,MVFR,,,,,,,,,,,,METAR,143.0
KDBN 171855Z AUTO 28009G14KT 10SM CLR 13/M03 A2998 RMK AO2,KDBN,2021-01-17T18:55:00Z,32.57,-82.98,13.0,-3.0,280,9,14,10.0,29.97933,,,TRUE,TRUE,,,,,,,CLR,,,,,,,,VFR,,,,,,,,,,,,METAR,90.0
KD95 171855Z AUTO 28004KT 10SM -SN BKN015 OVC022 01/M01 A2963 RMK AO2 T00101006,KD95,2021-01-17T18:55:00Z,43.07,-83.27,1.0,-0.6,280,4,,10.0,29.630905,,,TRUE,TRUE,,,,,,-SN,BKN,1500,OVC,2200,,,,,MVFR,,,,,,,,,,,,METAR,253.0
KD73 171855Z AUTO 28006KT 10SM BKN049 09/M02 A2992 RMK AO2 T00891021,KD73,2021-01-17T18:55:00Z,33.78,-83.7,8.9,-2.1,280,6,,10.0,29.920275,,,TRUE,TRUE,,,,,,,BKN,4900,,,,,,,VFR,,,,,,,,,,,,METAR,254.0
KCZT 171855Z AUTO 00000KT 10SM CLR 17/04 A3013 RMK AO2,KCZT,2021-01-17T18:55:00Z,28.52,-99.82,17.0,4.0,0,0,,10.0,30.129921,,,TRUE,TRUE,,,,,,,CLR,,,,,,,,VFR,,,,,,,,,,,,METAR,176.0
KCZL 171855Z AUTO 22010G15KT 10SM SCT045 SCT080 10/00 A2991 RMK AO2,KCZL,2021-01-17T18:55:00Z,34.47,-84.93,10.0,0.0,220,10,15,10.0,29.911417,,,TRUE,TRUE,,,,,,,SCT,4500,SCT,8000,,,,,VFR,,,,,,,,,,,,METAR,197.0
KCYD 171855Z AUTO 00000KT 10SM CLR 15/05 A3009 RMK A02 TSNO T01540050,KCYD,2021-01-17T18:55:00Z,28.17,-89.22,15.4,5.0,0,0,,10.0,30.088583,,,TRUE,TRUE,,,TRUE,,,,CLR,,,,,,,,VFR,,,,,,,,,,,,METAR,30.0
KCXW 171855Z AUTO 30010G18KT 10SM CLR 11/M05 A2995 RMK A01,KCXW,2021-01-17T18:55:00Z,35.02,-92.55,11.0,-5.0,300,10,18,10.0,29.949802,,,TRUE,TRUE,,,,,,,CLR,,,,,,,,VFR,,,,,,,,,,,,METAR,84.0
KCXU 171855Z AUTO 25006KT 10SM CLR 13/M01 A3001 RMK AO1 T01251010,KCXU,2021-01-17T18:55:00Z,31.22,-84.23,12.5,-1.0,250,6,,10.0,30.008858,,,TRUE,TRUE,,,,,,,CLR,,,,,,,,VFR,,,,,,,,,,,,METAR,48.0
KCXP 171855Z AUTO 30003KT 10SM FEW013 07/M01 A3039 RMK AO2,KCXP,2021-01-17T18:55:00Z,39.18,-119.73,7.0,-1.0,300,3,,10.0,30.389763,,,TRUE,TRUE,,,,,,,FEW,1300,,,,,,,VFR,,,,,,,,,,,,METAR,1431.0
KCWV 171855Z AUTO 00000KT 10SM CLR 13/M02 A2997 RMK AO2 T01281016,KCWV,2021-01-17T18:55:00Z,32.2,-81.87,12.8,-1.6,0,0,,10.0,29.970472,,,TRUE,TRUE,,,,,,,CLR,,,,,,,,VFR,,,,,,,,,,,,METAR,32.0
KCWF 171855Z 29009G16KT 10SM SKC 18/M04 A3007,KCWF,2021-01-17T18:55:00Z,30.22,-93.15,18.0,-4.0,290,9,16,10.0,30.070866,,,,,,,,,,,SKC,,,,,,,,VFR,,,,,,,,,,,,METAR,4.0
KCWC 171855Z AUTO 34011G18KT 310V010 10SM CLR 12/M04 A3015 RMK AO2 T01191038,KCWC,2021-01-17T18:55:00Z,33.85,-98.48,11.9,-3.8,340,11,18,10.0,30.15059,,,TRUE,TRUE,,,,,,,CLR,,,,,,,,VFR,,,,,,,,,,,,METAR,304.0
KCVC 171855Z AUTO 25006KT 220V290 10SM SCT048 09/M01 A2992 RMK AO2,KCVC,2021-01-17T18:55:00Z,33.63,-83.85,9.0,-1.0,250,6,,10.0,29.920275,,,TRUE,TRUE,,,,,,,SCT,4800,,,,,,,VFR,,,,,,,,,,,,METAR,240.0
KCVB 171855Z AUTO 24009G14KT 10SM CLR 20/04 A3013 RMK AO2 T02010041,KCVB,2021-01-17T18:55:00Z,29.35,-98.85,20.1,4.1,240,9,14,10.0,30.129921,,,TRUE,TRUE,,,,,,,CLR,,,,,,,,VFR,,,,,,,,,,,,METAR,234.0
KCUL 171855Z AUTO 27009KT 10SM BKN017 BKN024 OVC055 02/M01 A2980 RMK AO2,KCUL,2021-01-17T18:55:00Z,38.08,-88.12,2.0,-1.0,270,9,,10.0,29.799213,,,TRUE,TRUE,,,,,,,BKN,1700,BKN,2400,OVC,5500,,,MVFR,,,,,,,,,,,,METAR,116.0
KCUH 171855Z AUTO 32014G24KT 10SM CLR 11/M06 A3003 RMK AO2 T01071059,KCUH,2021-01-17T18:55:00Z,35.95,-96.77,10.7,-5.9,320,14,24,10.0,30.029528,,,TRUE,TRUE,,,,,,,CLR,,,,,,,,VFR,,,,,,,,,,,,METAR,274.0
KCTY 171855Z AUTO 25005KT 10SM CLR 15/03 A3002 RMK AO2 T01520027,KCTY,2021-01-17T18:55:00Z,29.63,-83.1,15.2,2.7,250,5,,10.0,30.02067,,,TRUE,TRUE,,,,,,,CLR,,,,,,,,VFR,,,,,,,,,,,,METAR,12.0
KCTJ 171855Z AUTO 22006G15KT 10SM SCT044 SCT070 08/M03 A2993 RMK AO2 T00821026,KCTJ,2021-01-17T18:55:00Z,33.63,-85.15,8.2,-2.6,220,6,15,10.0,29.929134,,,TRUE,TRUE,,,,,,,SCT,4400,SCT,7000,,,,,VFR,,,,,,,,,,,,METAR,351.0
KCRX 171855Z AUTO 26014G26KT 10SM CLR 11/M06 A2987 RMK AO2,KCRX,2021-01-17T18:55:00Z,34.92,-88.6,11.0,-6.0,260,14,26,10.0,29.870079,,,TRUE,TRUE,,,,,,,CLR,,,,,,,,VFR,,,,,,,,,,,,METAR,128.0
KCQF 171855Z AUTO 23005KT 10SM CLR 11/00 A3004 RMK AO2,KCQF,2021-01-17T18:55:00Z,30.47,-87.88,11.0,0.0,230,5,,10.0,30.041338,,,TRUE,TRUE,,,,,,,CLR,,,,,,,,VFR,,,,,,,,,,,,METAR,21.0
KCQB 171855Z AUTO 31018G27KT 10SM CLR 11/M07 A3004 RMK AO2 T01151070,KCQB,2021-01-17T18:55:00Z,35.72,-96.82,11.5,-7.0,310,18,27,10.0,30.041338,,,TRUE,TRUE,,,,,,,CLR,,,,,,,,VFR,,,,,,,,,,,,METAR,298.0
KCPW 171855Z AUTO 19003KT 10SM CLR 00/M12 A3024 RMK AO2,KCPW,2021-01-17T18:55:00Z,37.45,-106.8,0.0,-12.0,190,3,,10.0,30.239174,,,TRUE,TRUE,,,,,,,CLR,,,,,,,,VFR,,,,,,,,,,,,METAR,3570.0
KCPU 171855Z AUTO 34003KT 10SM CLR 14/08 A3017 RMK AO2 T01410076,KCPU,2021-01-17T18:55:00Z,38.15,-120.65,14.1,7.6,340,3,,10.0,30.171259,,,TRUE,TRUE,,,,,,,CLR,,,,,,,,VFR,,,,,,,,,,,,METAR,400.0
KCOM 171855Z AUTO 06006KT 10SM CLR 14/M04 A3014 RMK AO2 T01431041,KCOM,2021-01-17T18:55:00Z,31.83,-99.4,14.3,-4.1,60,6,,10.0,30.138779,,,TRUE,TRUE,,,,,,,CLR,,,,,,,,VFR,,,,,,,,,,,,METAR,516.0
KCNW 171855Z 02008KT 10SM SKC 16/M04 A3013,KCNW,2021-01-17T18:55:00Z,31.63,-97.07,16.0,-4.0,20,8,,10.0,30.129921,,,,,,,,,,,SKC,,,,,,,,VFR,,,,,,,,,,,,METAR,139.0
KCNK 171855Z AUTO 32017G24KT 10SM CLR 08/M06 A2996 RMK AO2 SLP154 T00781056,KCNK,2021-01-17T18:55:00Z,39.55,-97.65,7.8,-5.6,320,17,24,10.0,29.958662,1015.4,,TRUE,TRUE,,,,,,,CLR,,,,,,,,VFR,,,,,,,,,,,,METAR,445.0
KCNI 171855Z AUTO 24009G14KT 10SM SCT042 SCT048 BKN070 08/M02 A2988 RMK AO2,KCNI,2021-01-17T18:55:00Z,34.32,-84.42,8.0,-2.0,240,9,14,10.0,29.878937,,,TRUE,TRUE,,,,,,,SCT,4200,SCT,4800,BKN,7000,,,VFR,,,,,,,,,,,,METAR,371.0
KCMD 171855Z AUTO 24008KT 10SM CLR 10/M05 A2990 RMK AO2 T01021046,KCMD,2021-01-17T18:55:00Z,34.27,-86.85,10.2,-4.6,240,8,,10.0,29.899607,,,TRUE,TRUE,,,,,,,CLR,,,,,,,,VFR,,,,,,,,,,,,METAR,294.0
KCMA 171855Z 08022G27KT 10SM CLR 31/M05 A3002 RMK AO2 PK WND 08028/1813 SLP174 T03061050,KCMA,2021-01-17T18:55:00Z,34.22,-119.1,30.6,-5.0,80,22,27,10.0,30.02067,1017.4,,,TRUE,,,,,,,CLR,,,,,,,,VFR,,,,,,,,,,,,METAR,20.0
KCLW 171855Z AUTO 00000KT 10SM 15/08 A3004 RMK AO2,KCLW,2021-01-17T18:55:00Z,27.98,-82.75,15.0,8.0,0,0,,10.0,30.041338,,,TRUE,TRUE,,,,,,,,,,,,,,,,,,,,,,,,,,,METAR,21.0
KCLK 171855Z AUTO 34012G21KT 10SM CLR 11/M07 A3011 RMK AO2 PNO TSNO,KCLK,2021-01-17T18:55:00Z,35.53,-98.93,11.0,-7.0,340,12,21,10.0,30.109253,,,TRUE,TRUE,,,TRUE,,,,CLR,,,,,,,,VFR,,,,,,,,,,,,METAR,489.0
KCKN 171855Z AUTO 35009KT 10SM SCT009 M06/M07 A2986 RMK AO2,KCKN,2021-01-17T18:55:00Z,47.85,-96.62,-6.0,-7.0,350,9,,10.0,29.861221,,,TRUE,TRUE,,,,,,,SCT,900,,,,,,,VFR,,,,,,,,,,,,METAR,272.0
KCKF 171855Z AUTO 28012G17KT 10SM CLR 12/M03 A2999 RMK AO2 T01221031,KCKF,2021-01-17T18:55:00Z,31.98,-83.77,12.2,-3.1,280,12,17,10.0,29.991142,,,TRUE,TRUE,,,,,,,CLR,,,,,,,,VFR,,,,,,,,,,,,METAR,92.0
KCIR 171855Z 10SM BKN036 BKN043 04/M03 A2985 RMK AO2 T00411034,KCIR,2021-01-17T18:55:00Z,37.07,-89.22,4.1,-3.4,,,,10.0,29.84941,,,,TRUE,,,,,,,BKN,3600,BKN,4300,,,,,VFR,,,,,,,,,,,,METAR,96.0
KCHK 171855Z AUTO 32014KT 10SM CLR 12/M06 A3007 RMK AO2 T01231063,KCHK,2021-01-17T18:55:00Z,35.1,-97.97,12.3,-6.3,320,14,,10.0,30.070866,,,TRUE,TRUE,,,,,,,CLR,,,,,,,,VFR,,,,,,,,,,,,METAR,346.0
KCGC 171855Z AUTO 28004KT 10SM CLR 14/05 A3003 RMK AO2,KCGC,2021-01-17T18:55:00Z,28.87,-82.57,14.0,5.0,280,4,,10.0,30.029528,,,TRUE,TRUE,,,,,,,CLR,,,,,,,,VFR,,,,,,,,,,,,METAR,3.0
KCFE 171855Z 7SM OVC005 M06/M07 A2979 RMK AO2 T10591075,KCFE,2021-01-17T18:55:00Z,45.17,-93.85,-5.9,-7.5,,,,7.0,29.790354,,,,TRUE,,,,,,,OVC,500,,,,,,,IFR,,,,,,,,,,,,METAR,292.0
KCFD 171855Z AUTO 34008KT 10SM CLR 17/00 A3012 RMK AO2 T01711005,KCFD,2021-01-17T18:55:00Z,30.72,-96.33,17.1,-0.5,340,8,,10.0,30.121063,,,TRUE,TRUE,,,,,,,CLR,,,,,,,,VFR,,,,,,,,,,,,METAR,106.0
KCCU 171855Z AUTO 28019G29KT 5SM HZ SCT110 M04/M15 RMK AO2,KCCU,2021-01-17T18:55:00Z,39.48,-106.15,-4.0,-15.0,280,19,29,5.0,,,,TRUE,TRUE,,,,,,HZ,SCT,11000,,,,,,,MVFR,,,,,,,,,,,,METAR,3672.0
KCCO 171855Z AUTO 24008G15KT 10SM SCT044 10/M03 A2993 RMK AO2 T01031026,KCCO,2021-01-17T18:55:00Z,33.32,-84.77,10.3,-2.6,240,8,15,10.0,29.929134,,,TRUE,TRUE,,,,,,,SCT,4400,,,,,,,VFR,,,,,,,,,,,,METAR,290.0
KCCB 171855Z AUTO 26005KT 10SM CLR 24/M09 A3006 RMK AO2,KCCB,2021-01-17T18:55:00Z,34.12,-117.68,24.0,-9.0,260,5,,10.0,30.059055,,,TRUE,TRUE,,,,,,,CLR,,,,,,,,VFR,,,,,,,,,,,,METAR,440.0
KCBK 171855Z AUTO 33013G19KT 10SM CLR 06/M13 A3003 RMK AO2 PWINO,KCBK,2021-01-17T18:55:00Z,39.43,-101.05,6.0,-13.0,330,13,19,10.0,30.029528,,,TRUE,TRUE,,,,,TRUE,,CLR,,,,,,,,VFR,,,,,,,,,,,,METAR,970.0
KCBE 171855Z AUTO 21007KT 10SM SCT029 BKN038 OVC044 04/M02 A2977 RMK AO2 T00401020,KCBE,2021-01-17T18:55:00Z,39.62,-78.77,4.0,-2.0,210,7,,10.0,29.769686,,,TRUE,TRUE,,,,,,,SCT,2900,BKN,3800,OVC,4400,,,VFR,,,,,,,,,,,,METAR,226.0
KCAO 171855Z AUTO VRB03KT 10SM CLR 05/M09 A3010 RMK AO2 SLP202 T00501089,KCAO,2021-01-17T18:55:00Z,36.45,-103.15,5.0,-8.9,0,3,,10.0,30.100393,1020.2,,TRUE,TRUE,,,,,,,CLR,,,,,,,,VFR,,,,,,,,,,,,METAR,1517.0
KC99 171855Z AUTO 30034G50KT 10SM BKN110 M07/M17 A2990 RMK AO2,KC99,2021-01-17T18:55:00Z,39.87,-105.55,-7.0,-17.0,300,34,50,10.0,29.899607,,,TRUE,TRUE,,,,,,,BKN,11000,,,,,,,VFR,,,,,,,,,,,,METAR,3334.0
KC83 171855Z AUTO 07003KT 10SM CLR 17/09 A3016 RMK AO2,KC83,2021-01-17T18:55:00Z,37.83,-121.62,17.0,9.0,70,3,,10.0,30.159449,,,TRUE,TRUE,,,,,,,CLR,,,,,,,,VFR,,,,,,,,,,,,METAR,16.0
KC75 171855Z AUTO 28007KT 10SM OVC010 M03/M04 A2973 RMK AO2 T10271045,KC75,2021-01-17T18:55:00Z,41.02,-89.38,-2.7,-4.5,280,7,,10.0,29.731298,,,TRUE,TRUE,,,,,,,OVC,1000,,,,,,,MVFR,,,,,,,,,,,,METAR,166.0
KC65 171855Z AUTO 24009KT 8SM OVC012 M01/M03 A2967 RMK A01,KC65,2021-01-17T18:55:00Z,41.37,-86.3,-1.0,-3.0,240,9,,8.0,29.66929,,,TRUE,TRUE,,,,,,,OVC,1200,,,,,,,MVFR,,,,,,,,,,,,METAR,241.0
KC35 171855Z AUTO 33006KT 10SM OVC023 M02/M05 A2971 RMK AO2 T10171050 PWINO,KC35,2021-01-17T18:55:00Z,43.53,-89.98,-1.7,-5.0,330,6,,10.0,29.71063,,,TRUE,TRUE,,,,,TRUE,,OVC,2300,,,,,,,MVFR,,,,,,,,,,,,METAR,272.0
KC09 171855Z AUTO 28009KT 7SM -SN OVC011 M01/M03 A2970 RMK AO2 T10151030,KC09,2021-01-17T18:55:00Z,41.43,-88.42,-1.5,-3.0,280,9,,7.0,29.698818,,,TRUE,TRUE,,,,,,-SN,OVC,1100,,,,,,,MVFR,,,,,,,,,,,,METAR,179.0
KC07 171855Z AUTO 29009G19KT 250V330 10SM SCT065 M08/M08 A3013 RMK AO2,KC07,2021-01-17T18:55:00Z,40.35,-106.7,-8.0,-8.0,290,9,19,10.0,30.129921,,,TRUE,TRUE,,,,,,,SCT,6500,,,,,,,VFR,,,,,,,,,,,,METAR,3224.0
KBYY 171855Z AUTO 30003KT 10SM CLR 18/M04 A3010 RMK AO2 T01881032,KBYY,2021-01-17T18:55:00Z,28.97,-95.87,18.8,-3.2,300,3,,10.0,30.100393,,,TRUE,TRUE,,,,,,,CLR,,,,,,,,VFR,,,,,,,,,,,,METAR,12.0
KBYL 171855Z AUTO 22012G15KT 10SM BKN037 OVC046 04/M03 A2979 RMK AO1,KBYL,2021-01-17T18:55:00Z,36.8,-84.2,4.0,-3.0,220,12,15,10.0,29.790354,,,TRUE,TRUE,,,,,,,BKN,3700,OVC,4600,,,,,VFR,,,,,,,,,,,,METAR,355.0
KBXA 171855Z AUTO 26009KT 10SM CLR 16/M03 A3004 RMK AO2 T01631033,KBXA,2021-01-17T18:55:00Z,30.82,-89.87,16.3,-3.3,260,9,,10.0,30.041338,,,TRUE,TRUE,,,,,,,CLR,,,,,,,,VFR,,,,,,,,,,,,METAR,35.0
KBWW 171855Z AUTO 28010KT 10SM CLR 02/M09 A2986 RMK AO2,KBWW,2021-01-17T18:55:00Z,46.17,-103.3,2.0,-9.0,280,10,,10.0,29.861221,,,TRUE,TRUE,,,,,,,CLR,,,,,,,,VFR,,,,,,,,,,,,METAR,911.0
KBWD 171855Z AUTO 01007KT 10SM CLR 14/M05 A3014 RMK AO1,KBWD,2021-01-17T18:55:00Z,31.8,-98.95,14.0,-5.0,10,7,,10.0,30.138779,,,TRUE,TRUE,,,,,,,CLR,,,,,,,,VFR,,,,,,,,,,,,METAR,420.0
KBVS 171855Z AUTO 06003KT 10SM OVC015 07/06 A3047 RMK A01,KBVS,2021-01-17T18:55:00Z,48.47,-122.42,7.0,6.0,60,3,,10.0,30.469488,,,TRUE,TRUE,,,,,,,OVC,1500,,,,,,,MVFR,,,,,,,,,,,,METAR,31.0
KBVN 171855Z AUTO 31015G21KT 10SM CLR 05/M04 A2991 RMK AO2 T00471044,KBVN,2021-01-17T18:55:00Z,41.73,-98.05,4.7,-4.4,310,15,21,10.0,29.911417,,,TRUE,TRUE,,,,,,,CLR,,,,,,,,VFR,,,,,,,,,,,,METAR,547.0
KBTA 171855Z AUTO 31013G19KT 10SM SCT019 01/M03 A2987 RMK AO2 T00131029,KBTA,2021-01-17T18:55:00Z,41.42,-96.12,1.3,-2.9,310,13,19,10.0,29.870079,,,TRUE,TRUE,,,,,,,SCT,1900,,,,,,,VFR,,,,,,,,,,,,METAR,400.0
KBQX 171855Z AUTO VRB04KT 10SM CLR 17/02 A3011 RMK A01,KBQX,2021-01-17T18:55:00Z,28.5,-95.72,17.0,2.0,0,4,,10.0,30.109253,,,TRUE,TRUE,,,,,,,CLR,,,,,,,,VFR,,,,,,,,,,,,METAR,34.0
KBQP 171855Z AUTO 32011G16KT 10SM BKN100 BKN120 12/M06 A3002 RMK AO2 T01231060,KBQP,2021-01-17T18:55:00Z,32.75,-91.88,12.3,-6.0,320,11,16,10.0,30.02067,,,TRUE,TRUE,,,,,,,BKN,10000,BKN,12000,,,,,VFR,,,,,,,,,,,,METAR,50.0
KBQK 171855Z AUTO 25008KT 220V280 10SM CLR 12/M02 A2999 RMK AO2 T01241024,KBQK,2021-01-17T18:55:00Z,31.25,-81.47,12.4,-2.4,250,8,,10.0,29.991142,,,TRUE,TRUE,,,,,,,CLR,,,,,,,,VFR,,,,,,,,,,,,METAR,7.0
KBPG 171855Z AUTO 08010KT 10SM CLR 12/M04 A3014 RMK AO2 T01161038,KBPG,2021-01-17T18:55:00Z,32.22,-101.52,11.6,-3.8,80,10,,10.0,30.138779,,,TRUE,TRUE,,,,,,,CLR,,,,,,,,VFR,,,,,,,,,,,,METAR,782.0
KBPC 171855Z AUTO 35010KT 10SM CLR 10/M09 A3013 RMK AO2,KBPC,2021-01-17T18:55:00Z,35.88,-101.03,10.0,-9.0,350,10,,10.0,30.129921,,,TRUE,TRUE,,,,,,,CLR,,,,,,,,VFR,,,,,,,,,,,,METAR,844.0
KBMT 171855Z AUTO 30009KT 10SM CLR 20/M03 A3008 RMK AO2 T01971026,KBMT,2021-01-17T18:55:00Z,30.07,-94.22,19.7,-2.6,300,9,,10.0,30.079725,,,TRUE,TRUE,,,,,,,CLR,,,,,,,,VFR,,,,,,,,,,,,METAR,8.0
KBMC 171855Z AUTO 00000KT 10SM BKN075 02/M02 A3032 RMK AO1 T00171024,KBMC,2021-01-17T18:55:00Z,41.55,-112.07,1.7,-2.4,0,0,,10.0,30.318897,,,TRUE,TRUE,,,,,,,BKN,7500,,,,,,,VFR,,,,,,,,,,,,METAR,1289.0
KBKD 171855Z AUTO 35005KT 10SM CLR 12/M03 A3016 RMK AO2 T01231030,KBKD,2021-01-17T18:55:00Z,32.72,-98.88,12.3,-3.0,350,5,,10.0,30.159449,,,TRUE,TRUE,,,,,,,CLR,,,,,,,,VFR,,,,,,,,,,,,METAR,383.0
KBIJ 171855Z AUTO 24011G16KT 10SM CLR 12/M02 A3000 RMK AO2,KBIJ,2021-01-17T18:55:00Z,31.4,-84.9,12.0,-2.0,240,11,16,10.0,30.0,,,TRUE,TRUE,,,,,,,CLR,,,,,,,,VFR,,,,,,,,,,,,METAR,63.0
KBIE 171855Z AUTO 33019G24KT 10SM CLR 05/M03 A2992 RMK AO2 T00541031,KBIE,2021-01-17T18:55:00Z,40.28,-96.75,5.4,-3.1,330,19,24,10.0,29.920275,,,TRUE,TRUE,,,,,,,CLR,,,,,,,,VFR,,,,,,,,,,,,METAR,398.0
KBHC 171855Z AUTO 28008KT 10SM CLR 11/M01 A2998 RMK AO2,KBHC,2021-01-17T18:55:00Z,31.72,-82.4,11.0,-1.0,280,8,,10.0,29.97933,,,TRUE,TRUE,,,,,,,CLR,,,,,,,,VFR,,,,,,,,,,,,METAR,61.0
KBGR 171855Z 24011G18KT 10SM FEW032 BKN050 OVC060 04/M02 A2918,KBGR,2021-01-17T18:55:00Z,44.8,-68.82,4.0,-2.0,240,11,18,10.0,29.179134,,,,,,,,,,,FEW,3200,BKN,5000,OVC,6000,,,VFR,,,,,,,,,,,,METAR,45.0
KBGF 171855Z AUTO 25015G22KT 220V280 10SM FEW048 08/M04 A2984 RMK A01,KBGF,2021-01-17T18:55:00Z,35.18,-86.07,8.0,-4.0,250,15,22,10.0,29.840551,,,TRUE,TRUE,,,,,,,FEW,4800,,,,,,,VFR,,,,,,,,,,,,METAR,295.0
KBGE 171855Z AUTO 25012G15KT 10SM CLR 13/M02 A3002 RMK AO2 T01341019,KBGE,2021-01-17T18:55:00Z,30.97,-84.63,13.4,-1.9,250,12,15,10.0,30.02067,,,TRUE,TRUE,,,,,,,CLR,,,,,,,,VFR,,,,,,,,,,,,METAR,40.0
KBEC 171855Z AUTO 31014G18KT 10SM CLR 08/M05 A3000 RMK AO2 T00751055,KBEC,2021-01-17T18:55:00Z,37.7,-97.22,7.5,-5.5,310,14,18,10.0,30.0,,,TRUE,TRUE,,,,,,,CLR,,,,,,,,VFR,,,,,,,,,,,,METAR,421.0
KBDU 171855Z AUTO 04005KT 10SM CLR 07/M08 A2997 RMK AO2,KBDU,2021-01-17T18:55:00Z,40.03,-105.23,7.0,-8.0,40,5,,10.0,29.970472,,,TRUE,TRUE,,,,,,,CLR,,,,,,,,VFR,,,,,,,,,,,,METAR,1614.0
KBBD 171855Z AUTO 35009G14KT 10SM CLR 14/M07 A3013 RMK AO2,KBBD,2021-01-17T18:55:00Z,31.18,-99.32,14.0,-7.0,350,9,14,10.0,30.129921,,,TRUE,TRUE,,,,,,,CLR,,,,,,,,VFR,,,,,,,,,,,,METAR,554.0
KBAM 171855Z AUTO 00000KT 10SM CLR 06/00 A3038 RMK AO1,KBAM,2021-01-17T18:55:00Z,,,6.0,0.0,0,0,,10.0,30.380905,,,TRUE,TRUE,,,,,,,CLR,,,,,,,,VFR,,,,,,,,,,,,METAR,
KAZC 171855Z AUTO 00000KT 10SM CLR 10/M11 A3026 RMK AO2,KAZC,2021-01-17T18:55:00Z,36.97,-113.02,10.0,-11.0,0,0,,10.0,30.259842,,,TRUE,TRUE,,,,,,,CLR,,,,,,,,VFR,,,,,,,,,,,,METAR,1476.0
KAYS 171855Z AUTO 27008KT 10SM CLR 13/M09 A3000 RMK AO2 T01271095,KAYS,2021-01-17T18:55:00Z,31.25,-82.4,12.7,-9.5,270,8,,10.0,30.0,,,TRUE,TRUE,,,,,,,CLR,,,,,,,,VFR,,,,,,,,,,,,METAR,42.0
KAXX 171855Z AUTO 26013G18KT 10SM CLR 02/M13 A3010 RMK AO2 T00181131,KAXX,2021-01-17T18:55:00Z,36.42,-105.28,1.8,-13.1,260,13,18,10.0,30.100393,,,TRUE,TRUE,,,,,,,CLR,,,,,,,,VFR,,,,,,,,,,,,METAR,2543.0
KAXS 171855Z AUTO 34010G14KT 10SM CLR 13/M07 A3016 RMK AO2 T01261073,KAXS,2021-01-17T18:55:00Z,34.7,-99.33,12.6,-7.3,340,10,14,10.0,30.159449,,,TRUE,TRUE,,,,,,,CLR,,,,,,,,VFR,,,,,,,,,,,,METAR,433.0
KAXH 171855Z AUTO 26004KT 7SM CLR 19/M03 A3011 RMK AO2 T01881027,KAXH,2021-01-17T18:55:00Z,29.52,-95.48,18.8,-2.7,260,4,,7.0,30.109253,,,TRUE,TRUE,,,,,,,CLR,,,,,,,,VFR,,,,,,,,,,,,METAR,18.0
KAVQ 171855Z AUTO 10010KT 10SM CLR 20/M12 A3007 RMK AO2 T02041122,KAVQ,2021-01-17T18:55:00Z,32.4,-111.22,20.4,-12.2,100,10,,10.0,30.070866,,,TRUE,TRUE,,,,,,,CLR,,,,,,,,VFR,,,,,,,,,,,,METAR,618.0
KAVK 171855Z AUTO 32016G27KT 10SM CLR 11/M08 A3007 RMK AO2 PWINO TSNO,KAVK,2021-01-17T18:55:00Z,36.77,-98.67,11.0,-8.0,320,16,27,10.0,30.070866,,,TRUE,TRUE,,,TRUE,,TRUE,,CLR,,,,,,,,VFR,,,,,,,,,,,,METAR,450.0
KAUN 171855Z AUTO 17004KT 10SM CLR 19/04 A3016 RMK A01,KAUN,2021-01-17T18:55:00Z,38.95,-121.08,19.0,4.0,170,4,,10.0,30.159449,,,TRUE,TRUE,,,,,,,CLR,,,,,,,,VFR,,,,,,,,,,,,METAR,453.0
KAUH 171855Z AUTO 31021G24KT 10SM CLR 06/M04 A2993 RMK AO2 T00641038,KAUH,2021-01-17T18:55:00Z,40.88,-98.0,6.4,-3.8,310,21,24,10.0,29.929134,,,TRUE,TRUE,,,,,,,CLR,,,,,,,,VFR,,,,,,,,,,,,METAR,549.0
KATP 171855Z AUTO 32009KT 9SM CLR 17/06 A3007 RMK A01,KATP,2021-01-17T18:55:00Z,27.2,-90.03,17.0,6.0,320,9,,9.0,30.070866,,,TRUE,TRUE,,,,,,,CLR,,,,,,,,VFR,,,,,,,,,,,,METAR,50.0
KASW 171855Z AUTO 26009KT 5SM -SN OVC013 00/M02 A2967 RMK AO2,KASW,2021-01-17T18:55:00Z,41.27,-85.83,0.0,-2.0,260,9,,5.0,29.66929,,,TRUE,TRUE,,,,,,-SN,OVC,1300,,,,,,,MVFR,,,,,,,,,,,,METAR,253.0
KAST 171855Z AUTO 31005KT 6SM BR FEW012 SCT019 OVC031 11/08 A3051 RMK AO2 CIG 021 RWY 08 SLP331 T01060083,KAST,2021-01-17T18:55:00Z,46.15,-123.88,10.6,8.3,310,5,,6.0,30.510826,1033.1,,TRUE,TRUE,,,,,,BR,FEW,1200,SCT,1900,OVC,3100,,,VFR,,,,,,,,,,,,METAR,3.0
KASN 171855Z AUTO 23008G16KT 10SM CLR 10/M01 A2994 RMK AO2 T01041009,KASN,2021-01-17T18:55:00Z,33.57,-86.05,10.4,-0.9,230,8,16,10.0,29.940945,,,TRUE,TRUE,,,,,,,CLR,,,,,,,,VFR,,,,,,,,,,,,METAR,159.0
KASL 171855Z AUTO 34009G15KT 10SM SCT120 12/M04 A3010 RMK AO1 T01151045,KASL,2021-01-17T18:55:00Z,32.52,-94.3,11.5,-4.5,340,9,15,10.0,30.100393,,,TRUE,TRUE,,,,,,,SCT,12000,,,,,,,VFR,,,,,,,,,,,,METAR,104.0
KARM 171855Z AUTO 29005KT 10SM CLR 18/00 A3012 RMK AO2 T01751003,KARM,2021-01-17T18:55:00Z,29.25,-96.15,17.5,-0.3,290,5,,10.0,30.121063,,,TRUE,TRUE,,,,,,,CLR,,,,,,,,VFR,,,,,,,,,,,,METAR,29.0
KAQO 171855Z AUTO 30007KT 10SM CLR 17/M05 A3011 RMK AO2,KAQO,2021-01-17T18:55:00Z,30.78,-98.67,17.0,-5.0,300,7,,10.0,30.109253,,,TRUE,TRUE,,,,,,,CLR,,,,,,,,VFR,,,,,,,,,,,,METAR,334.0
KAPY 171855Z AUTO 00000KT 10SM CLR 21/10 A3010 RMK AO2 T02120097 TSNO,KAPY,2021-01-17T18:55:00Z,26.97,-99.25,21.2,9.7,0,0,,10.0,30.100393,,,TRUE,TRUE,,,TRUE,,,,CLR,,,,,,,,VFR,,,,,,,,,,,,METAR,129.0
KAPS 171855Z AUTO 30008KT 10SM CLR 17/M02 A3006 RMK AO2 T01691025,KAPS,2021-01-17T18:55:00Z,30.08,-90.58,16.9,-2.5,300,8,,10.0,30.059055,,,TRUE,TRUE,,,,,,,CLR,,,,,,,,VFR,,,,,,,,,,,,METAR,1.0
KANW 171855Z AUTO 31011G19KT 10SM CLR 04/M06 A2992 RMK AO2 T00361065,KANW,2021-01-17T18:55:00Z,42.57,-100.0,3.6,-6.5,310,11,19,10.0,29.920275,,,TRUE,TRUE,,,,,,,CLR,,,,,,,,VFR,,,,,,,,,,,,METAR,788.0
KANK 171855Z AUTO 23007KT 10SM CLR 09/M12 A3011 RMK AO1 T00851121,KANK,2021-01-17T18:55:00Z,38.53,-106.05,8.5,-12.1,230,7,,10.0,30.109253,,,TRUE,TRUE,,,,,,,CLR,,,,,,,,VFR,,,,,,,,,,,,METAR,2293.0
KANJ 171855Z AUTO 00000KT 10SM OVC090 M02/M09 A2963 RMK AO2 SLP040 T10171094,KANJ,2021-01-17T18:55:00Z,46.47,-84.37,-1.7,-9.4,0,0,,10.0,29.630905,1004.0,,TRUE,TRUE,,,,,,,OVC,9000,,,,,,,VFR,,,,,,,,,,,,METAR,220.0
KALX 171855Z AUTO 22008KT 190V250 10SM CLR 10/M01 A2994 RMK AO2 T01001013,KALX,2021-01-17T18:55:00Z,32.92,-85.97,10.0,-1.3,220,8,,10.0,29.940945,,,TRUE,TRUE,,,,,,,CLR,,,,,,,,VFR,,,,,,,,,,,,METAR,198.0
KAJZ 171855Z AUTO 00000KT 10SM CLR 05/M07 A3022 RMK AO2 T00501071,KAJZ,2021-01-17T18:55:00Z,38.78,-108.07,5.0,-7.1,0,0,,10.0,30.221457,,,TRUE,TRUE,,,,,,,CLR,,,,,,,,VFR,,,,,,,,,,,,METAR,1583.0
KAJR 171855Z AUTO 27009G18KT 10SM BKN040 OVC047 08/M03 A2987 RMK AO2 T00771029,KAJR,2021-01-17T18:55:00Z,34.5,-83.55,7.7,-2.9,270,9,18,10.0,29.870079,,,TRUE,TRUE,,,,,,,BKN,4000,OVC,4700,,,,,VFR,,,,,,,,,,,,METAR,441.0
KAJG 171855Z AUTO 30013KT 7SM -SN BKN016 OVC027 01/M02 A2978 RMK AO2 T00081017,KAJG,2021-01-17T18:55:00Z,38.62,-87.73,0.8,-1.7,300,13,,7.0,29.778543,,,TRUE,TRUE,,,,,,-SN,BKN,1600,OVC,2700,,,,,MVFR,,,,,,,,,,,,METAR,130.0
KAHQ 171855Z AUTO 32015G20KT 10SM BKN050 03/M03 A2990 RMK AO2 T00311026,KAHQ,2021-01-17T18:55:00Z,41.23,-96.6,3.1,-2.6,320,15,20,10.0,29.899607,,,TRUE,TRUE,,,,,,,BKN,5000,,,,,,,VFR,,,,,,,,,,,,METAR,372.0
KAFK 171855Z AUTO 31014KT 10SM SCT025 03/M03 A2989 RMK AO2 T00301030,KAFK,2021-01-17T18:55:00Z,40.6,-95.85,3.0,-3.0,310,14,,10.0,29.890747,,,TRUE,TRUE,,,,,,,SCT,2500,,,,,,,VFR,,,,,,,,,,,,METAR,353.0
KAEJ 171855Z AUTO 33016G22KT 10SM CLR 06/M13 A3003 RMK AO2 T00551129,KAEJ,2021-01-17T18:55:00Z,38.82,-106.12,5.5,-12.9,330,16,22,10.0,30.029528,,,TRUE,TRUE,,,,,,,CLR,,,,,,,,VFR,,,,,,,,,,,,METAR,2420.0
KADT 171855Z AUTO 10SM CLR 07/M12 A3006 RMK AO2 T00721121,KADT,2021-01-17T18:55:00Z,39.83,-101.05,7.2,-12.1,,,,10.0,30.059055,,,TRUE,TRUE,,,,,,,CLR,,,,,,,,VFR,,,,,,,,,,,,METAR,899.0
KADH 171855Z AUTO 31011G16KT 10SM CLR 11/M04 A3008 RMK AO2,KADH,2021-01-17T18:55:00Z,34.8,-96.67,11.0,-4.0,310,11,16,10.0,30.079725,,,TRUE,TRUE,,,,,,,CLR,,,,,,,,VFR,,,,,,,,,,,,METAR,301.0
KACP 171855Z AUTO 27005KT 10SM CLR 18/M04 A3005 RMK AO2,KACP,2021-01-17T18:55:00Z,30.75,-92.68,18.0,-4.0,270,5,,10.0,30.050198,,,TRUE,TRUE,,,,,,,CLR,,,,,,,,VFR,,,,,,,,,,,,METAR,31.0
KAAT 171855Z AUTO 00000KT 10SM CLR 04/01 A3039 RMK AO2 SLP305 T00440006 $,KAAT,2021-01-17T18:55:00Z,41.48,-120.57,4.4,0.6,0,0,,10.0,30.389763,1030.5,,TRUE,TRUE,TRUE,,,,,,CLR,,,,,,,,VFR,,,,,,,,,,,,METAR,1336.0
KAAS 171855Z AUTO 23009G16KT 210V280 10SM BKN018 OVC023 03/00 A2983 RMK AO1,KAAS,2021-01-17T18:55:00Z,37.35,-85.32,3.0,0.0,230,9,16,10.0,29.828741,,,TRUE,TRUE,,,,,,,BKN,1800,OVC,2300,,,,,MVFR,,,,,,,,,,,,METAR,270.0
KAAA 171855Z AUTO 29007KT 260V330 10SM BKN018 OVC026 00/M05 A2975 RMK AO2 T00001046,KAAA,2021-01-17T18:55:00Z,40.17,-89.33,0.0,-4.6,290,7,,10.0,29.749016,,,TRUE,TRUE,,,,,,,BKN,1800,OVC,2600,,,,,MVFR,,,,,,,,,,,,METAR,179.0
KA39 171855Z AUTO 35005KT 10SM CLR 18/M06 A3013 RMK AO2,KA39,2021-01-17T18:55:00Z,32.98,-111.92,18.0,-6.0,350,5,,10.0,30.129921,,,TRUE,TRUE,,,,,,,CLR,,,,,,,,VFR,,,,,,,,,,,,METAR,391.0
K9V9 171855Z AUTO 31014G18KT 10SM CLR 04/M05 A2991 RMK AO2 T00351052,K9V9,2021-01-17T18:55:00Z,43.77,-99.32,3.5,-5.2,310,14,18,10.0,29.911417,,,TRUE,TRUE,,,,,,,CLR,,,,,,,,VFR,,,,,,,,,,,,METAR,511.0
K9MN 171855Z AUTO 26007KT 7SM OVC005 M05/M06 A2975 RMK AO1 T10471058,K9MN,2021-01-17T18:55:00Z,44.02,-92.48,-4.7,-5.8,260,7,,7.0,29.749016,,,TRUE,TRUE,,,,,,,OVC,500,,,,,,,IFR,,,,,,,,,,,,METAR,308.0
K9A5 171855Z AUTO 23011KT 10SM SCT050 09/M03 A2987 RMK AO2 T00891026,K9A5,2021-01-17T18:55:00Z,34.68,-85.28,8.9,-2.6,230,11,,10.0,29.870079,,,TRUE,TRUE,,,,,,,SCT,5000,,,,,,,VFR,,,,,,,,,,,,METAR,234.0
K8A3 171855Z AUTO 23008G17KT 10SM BKN033 OVC040 04/M02 A2978 RMK A01,K8A3,2021-01-17T18:55:00Z,36.42,-85.32,4.0,-2.0,230,8,17,10.0,29.778543,,,TRUE,TRUE,,,,,,,BKN,3300,OVC,4000,,,,,VFR,,,,,,,,,,,,METAR,413.0
K8A0 171855Z AUTO 26012G20KT 10SM CLR 09/M03 A2987 RMK AO2,K8A0,2021-01-17T18:55:00Z,34.23,-86.25,9.0,-3.0,260,12,20,10.0,29.870079,,,TRUE,TRUE,,,,,,,CLR,,,,,,,,VFR,,,,,,,,,,,,METAR,313.0
K82V 171855Z AUTO 31014KT 10SM OVC080 05/M08 A2998 RMK AO2,K82V,2021-01-17T18:55:00Z,41.15,-104.13,5.0,-8.0,310,14,,10.0,29.97933,,,TRUE,TRUE,,,,,,,OVC,8000,,,,,,,VFR,,,,,,,,,,,,METAR,1563.0
K81R 171855Z AUTO 31004KT 10SM CLR 15/M05 A3014 RMK AO2 T01521046,K81R,2021-01-17T18:55:00Z,,,15.2,-4.6,310,4,,10.0,30.138779,,,TRUE,TRUE,,,,,,,CLR,,,,,,,,VFR,,,,,,,,,,,,METAR,
K7W6 171855Z AUTO 24011G16KT 10SM CLR 10/M01 A2988 RMK AO2 T00971015,K7W6,2021-01-17T18:55:00Z,35.55,-75.95,9.7,-1.5,240,11,16,10.0,29.878937,,,TRUE,TRUE,,,,,,,CLR,,,,,,,,VFR,,,,,,,,,,,,METAR,1.0
K7BM 171855Z AUTO 24016G33KT 190V280 10SM CLR 02/M18 A3005 RMK AO2,K7BM,2021-01-17T18:55:00Z,38.78,-106.22,2.0,-18.0,240,16,33,10.0,30.050198,,,TRUE,TRUE,,,,,,,CLR,,,,,,,,VFR,,,,,,,,,,,,METAR,2996.0
K6R3 171855Z AUTO 32006KT 5SM HZ CLR 19/M08 A3010 RMK AO2 T01851083,K6R3,2021-01-17T18:55:00Z,30.35,-95.0,18.5,-8.3,320,6,,5.0,30.100393,,,TRUE,TRUE,,,,,,HZ,CLR,,,,,,,,MVFR,,,,,,,,,,,,METAR,44.0
K6P9 171855Z AUTO 02006KT 10SM CLR 13/M05 A3015 RMK AO2 T01271051,K6P9,2021-01-17T18:55:00Z,32.43,-98.6,12.7,-5.1,20,6,,10.0,30.15059,,,TRUE,TRUE,,,,,,,CLR,,,,,,,,VFR,,,,,,,,,,,,METAR,451.0
K6I2 171855Z AUTO 23006KT 10SM FEW015 SCT023 BKN029 02/02 A2978 RMK AO2,K6I2,2021-01-17T18:55:00Z,37.63,-85.25,2.0,2.0,230,6,,10.0,29.778543,,,TRUE,TRUE,,,,,,,FEW,1500,SCT,2300,BKN,2900,,,MVFR,,,,,,,,,,,,METAR,258.0
K6A2 171855Z AUTO 26009G15KT 10SM CLR 08/M03 A2993 RMK AO2,K6A2,2021-01-17T18:55:00Z,33.23,-84.27,8.0,-3.0,260,9,15,10.0,29.929134,,,TRUE,TRUE,,,,,,,CLR,,,,,,,,VFR,,,,,,,,,,,,METAR,290.0
K6A1 171855Z AUTO 27012G16KT 10SM CLR 10/M03 A2997 RMK AO2 T01001029,K6A1,2021-01-17T18:55:00Z,32.57,-84.25,10.0,-2.9,270,12,16,10.0,29.970472,,,TRUE,TRUE,,,,,,,CLR,,,,,,,,VFR,,,,,,,,,,,,METAR,198.0
K66R 171855Z AUTO 31006KT 10SM CLR 19/M02 A3011 RMK AO2 T01941020,K66R,2021-01-17T18:55:00Z,29.65,-96.52,19.4,-2.0,310,6,,10.0,30.109253,,,TRUE,TRUE,,,,,,,CLR,,,,,,,,VFR,,,,,,,,,,,,METAR,70.0
K63S 171855Z AUTO 00000KT 10SM FEW006 OVC013 M00/M02 A3029 RMK A01,K63S,2021-01-17T18:55:00Z,,,0.0,-2.0,0,0,,10.0,30.28937,,,TRUE,TRUE,,,,,,,FEW,600,OVC,1300,,,,,MVFR,,,,,,,,,,,,METAR,
K5SM 171855Z AUTO 27008G19KT 210V290 10SM CLR M03/M17 A3023 RMK AO2,K5SM,2021-01-17T18:55:00Z,39.43,-107.38,-3.0,-17.0,270,8,19,10.0,30.230314,,,TRUE,TRUE,,,,,,,CLR,,,,,,,,VFR,,,,,,,,,,,,METAR,3229.0
K5R8 171855Z AUTO 30008KT 10SM CLR 18/M04 A3008 RMK AO2 T01781038,K5R8,2021-01-17T18:55:00Z,30.43,-93.47,17.8,-3.8,300,8,,10.0,30.079725,,,TRUE,TRUE,,,,,,,CLR,,,,,,,,VFR,,,,,,,,,,,,METAR,26.0
K5M9 171855Z AUTO 28009G15KT 10SM OVC031 03/M04 A2982 RMK AO2 T00261043,K5M9,2021-01-17T18:55:00Z,37.33,-88.12,2.6,-4.3,280,9,15,10.0,29.819881,,,TRUE,TRUE,,,,,,,OVC,3100,,,,,,,VFR,,,,,,,,,,,,METAR,199.0
K5C1 171855Z AUTO 24008KT 10SM CLR 17/00 RMK AO1,K5C1,2021-01-17T18:55:00Z,29.72,-98.7,17.0,0.0,240,8,,10.0,,,,TRUE,TRUE,,,,,,,CLR,,,,,,,,VFR,,,,,,,,,,,,METAR,422.0
K54A 171855Z AUTO 19010KT 10SM OVC034 16/10 A3004 RMK AO2,K54A,2021-01-17T18:55:00Z,26.85,-82.25,16.0,10.0,190,10,,10.0,30.041338,,,TRUE,TRUE,,,,,,,OVC,3400,,,,,,,VFR,,,,,,,,,,,,METAR,2.0
K4V0 171855Z AUTO 00000KT 10SM CLR 00/M05 A3020 RMK AO2 T10051055,K4V0,2021-01-17T18:55:00Z,40.1,-108.77,-0.5,-5.5,0,0,,10.0,30.200787,,,TRUE,TRUE,,,,,,,CLR,,,,,,,,VFR,,,,,,,,,,,,METAR,1602.0
K4S1 171855Z AUTO 01008KT 7SM CLR 15/08 A3036 RMK AO2,K4S1,2021-01-17T18:55:00Z,42.42,-124.42,15.0,8.0,10,8,,7.0,30.360237,,,TRUE,TRUE,,,,,,,CLR,,,,,,,,VFR,,,,,,,,,,,,METAR,7.0
K4R5 171855Z AUTO 00000KT 10SM OVC022 M03/M07 A2975 RMK AO2 T10321071,K4R5,2021-01-17T18:55:00Z,46.78,-90.77,-3.2,-7.1,0,0,,10.0,29.749016,,,TRUE,TRUE,,,,,,,OVC,2200,,,,,,,MVFR,,,,,,,,,,,,METAR,195.0
K4O4 171855Z AUTO 25014KT 10SM FEW070 13/M04 A3005 RMK AO2,K4O4,2021-01-17T18:55:00Z,33.92,-94.87,13.0,-4.0,250,14,,10.0,30.050198,,,TRUE,TRUE,,,,,,,FEW,7000,,,,,,,VFR,,,,,,,,,,,,METAR,148.0
K4I3 171855Z AUTO 21008KT 180V240 1 1/2SM -SN OVC009 01/M00 A2970 RMK AO2,K4I3,2021-01-17T18:55:00Z,40.33,-82.53,1.0,0.0,210,8,,1.5,29.698818,,,TRUE,TRUE,,,,,,-SN,OVC,900,,,,,,,IFR,,,,,,,,,,,,METAR,361.0
K4F2 171855Z AUTO 34013G18KT 10SM CLR 15/M04 A3007 RMK AO2 T01481036,K4F2,2021-01-17T18:55:00Z,32.18,-94.3,14.8,-3.6,340,13,18,10.0,30.070866,,,TRUE,TRUE,,,,,,,CLR,,,,,,,,VFR,,,,,,,,,,,,METAR,76.0
K4BM 171855Z AUTO 25004KT 10SM CLR M03/M15 A3008 RMK AO2,K4BM,2021-01-17T18:55:00Z,39.05,-105.52,-3.0,-15.0,250,4,,10.0,30.079725,,,TRUE,TRUE,,,,,,,CLR,,,,,,,,VFR,,,,,,,,,,,,METAR,3432.0
K4A9 171855Z AUTO 25014KT 10SM SCT048 10/M02 A2986 RMK AO2 T00951023,K4A9,2021-01-17T18:55:00Z,34.47,-85.72,9.5,-2.3,250,14,,10.0,29.861221,,,TRUE,TRUE,,,,,,,SCT,4800,,,,,,,VFR,,,,,,,,,,,,METAR,273.0
K49A 171855Z AUTO 23007KT 10SM BKN039 BKN070 07/M01 A2989 RMK AO2 T00661015,K49A,2021-01-17T18:55:00Z,34.63,-84.53,6.6,-1.5,230,7,,10.0,29.890747,,,TRUE,TRUE,,,,,,,BKN,3900,BKN,7000,,,,,VFR,,,,,,,,,,,,METAR,449.0
K48A 171855Z AUTO 28010G17KT 240V300 10SM CLR 11/M02 A2996 RMK AO2 T01121021,K48A,2021-01-17T18:55:00Z,32.4,-83.27,11.2,-2.1,280,10,17,10.0,29.958662,,,TRUE,TRUE,,,,,,,CLR,,,,,,,,VFR,,,,,,,,,,,,METAR,115.0
K46U 171855Z AUTO VRB04KT 10SM BKN025 OVC029 01/M04 A3023 RMK A01,K46U,2021-01-17T18:55:00Z,43.18,-111.05,1.0,-4.0,0,4,,10.0,30.230314,,,TRUE,TRUE,,,,,,,BKN,2500,OVC,2900,,,,,MVFR,,,,,,,,,,,,METAR,1718.0
K41U 171855Z AUTO 00000KT 10SM CLR M07/M07 A3032 RMK AO1 T10701075,K41U,2021-01-17T18:55:00Z,39.33,-111.6,-7.0,-7.5,0,0,,10.0,30.318897,,,TRUE,TRUE,,,,,,,CLR,,,,,,,,VFR,,,,,,,,,,,,METAR,1676.0
K3S8 171855Z AUTO 00000KT 10SM OVC004 07/06 A3048 RMK AO2,K3S8,2021-01-17T18:55:00Z,42.5,-123.4,7.0,6.0,0,0,,10.0,30.481298,,,TRUE,TRUE,,,,,,,OVC,400,,,,,,,LIFR,,,,,,,,,,,,METAR,339.0
K3R7 171855Z AUTO 29006KT 10SM CLR 17/M04 A3007 RMK AO2 T01701041,K3R7,2021-01-17T18:55:00Z,30.25,-92.67,17.0,-4.1,290,6,,10.0,30.070866,,,TRUE,TRUE,,,,,,,CLR,,,,,,,,VFR,,,,,,,,,,,,METAR,5.0
K3N8 171855Z AUTO 34012KT 10SM OVC008 M06/M07 A2980 RMK AO2 T10651070,K3N8,2021-01-17T18:55:00Z,47.25,-95.92,-6.5,-7.0,340,12,,10.0,29.799213,,,TRUE,TRUE,,,,,,,OVC,800,,,,,,,IFR,,,,,,,,,,,,METAR,379.0
K3LF 171855Z AUTO 26009KT 10SM BKN011 BKN018 OVC026 M01/M04 A2980 RMK AO2 T10151039,K3LF,2021-01-17T18:55:00Z,39.17,-89.67,-1.5,-3.9,260,9,,10.0,29.799213,,,TRUE,TRUE,,,,,,,BKN,1100,BKN,1800,OVC,2600,,,MVFR,,,,,,,,,,,,METAR,207.0
K3K3 171855Z AUTO 31010G15KT 10SM CLR 08/M11 A3008 RMK AO2,K3K3,2021-01-17T18:55:00Z,38.0,-101.75,8.0,-11.0,310,10,15,10.0,30.079725,,,TRUE,TRUE,,,,,,,CLR,,,,,,,,VFR,,,,,,,,,,,,METAR,1010.0
K3J7 171855Z AUTO 24005KT 10SM CLR 11/M01 A2992 RMK AO2,K3J7,2021-01-17T18:55:00Z,33.6,-83.13,11.0,-1.0,240,5,,10.0,29.920275,,,TRUE,TRUE,,,,,,,CLR,,,,,,,,VFR,,,,,,,,,,,,METAR,207.0
K3I2 171855Z AUTO 18005KT 10SM SCT001 SCT006 BKN024 04/01 A2977 RMK AO2 T00390014,K3I2,2021-01-17T18:55:00Z,38.92,-82.1,3.9,1.4,180,5,,10.0,29.769686,,,TRUE,TRUE,,,,,,,SCT,100,SCT,600,BKN,2400,,,MVFR,,,,,,,,,,,,METAR,195.0
K3F3 171855Z AUTO 28007KT 240V310 10SM SCT120 15/M04 A3010 RMK AO2 T01501044,K3F3,2021-01-17T18:55:00Z,32.07,-93.77,15.0,-4.4,280,7,,10.0,30.100393,,,TRUE,TRUE,,,,,,,SCT,12000,,,,,,,VFR,,,,,,,,,,,,METAR,96.0
K3AU 171855Z AUTO 31014G22KT 10SM CLR 08/M04 A3000 RMK AO2,K3AU,2021-01-17T18:55:00Z,37.67,-97.08,8.0,-4.0,310,14,22,10.0,30.0,,,TRUE,TRUE,,,,,,,CLR,,,,,,,,VFR,,,,,,,,,,,,METAR,403.0
K33V 171855Z AUTO 25010KT 10SM BKN065 00/M11 A3012 RMK AO2 T00001114,K33V,2021-01-17T18:55:00Z,40.75,-106.28,0.0,-11.4,250,10,,10.0,30.121063,,,TRUE,TRUE,,,,,,,BKN,6500,,,,,,,VFR,,,,,,,,,,,,METAR,2486.0
K33N 171855Z AUTO 26012G19KT 10SM FEW050 08/M01 A2973 RMK A01,K33N,2021-01-17T18:55:00Z,39.22,-75.6,8.0,-1.0,260,12,19,10.0,29.731298,,,TRUE,TRUE,,,,,,,FEW,5000,,,,,,,VFR,,,,,,,,,,,,METAR,17.0
K2V5 171855Z AUTO 33011G23KT 10SM CLR 07/M12 A3002 RMK AO2,K2V5,2021-01-17T18:55:00Z,40.1,-102.25,7.0,-12.0,330,11,23,10.0,30.02067,,,TRUE,TRUE,,,,,,,CLR,,,,,,,,VFR,,,,,,,,,,,,METAR,1117.0
K2R9 171855Z AUTO 24003KT 10SM CLR 20/05 A3012 RMK AO2 T02030049,K2R9,2021-01-17T18:55:00Z,28.82,-97.87,20.3,4.9,240,3,,10.0,30.121063,,,TRUE,TRUE,,,,,,,CLR,,,,,,,,VFR,,,,,,,,,,,,METAR,88.0
K2P2 171855Z AUTO 03007KT 10SM BKN014 BKN021 OVC027 M01/M04 A2967 RMK AO2 T10131041,K2P2,2021-01-17T18:55:00Z,45.38,-86.92,-1.3,-4.1,30,7,,10.0,29.66929,,,TRUE,TRUE,,,,,,,BKN,1400,BKN,2100,OVC,2700,,,MVFR,,,,,,,,,,,,METAR,182.0
K2M2 171855Z AUTO 25014G22KT 10SM SCT050 SCT055 09/M05 A2983 RMK A01,K2M2,2021-01-17T18:55:00Z,35.23,-87.25,9.0,-5.0,250,14,22,10.0,29.828741,,,TRUE,TRUE,,,,,,,SCT,5000,SCT,5500,,,,,VFR,,,,,,,,,,,,METAR,286.0
K2LS 171855Z AUTO 26009KT 10SM CLR 14/03 A3008 RMK AO2 TSNO,K2LS,2021-01-17T18:55:00Z,29.42,-90.3,14.0,3.0,260,9,,10.0,30.079725,,,TRUE,TRUE,,,TRUE,,,,CLR,,,,,,,,VFR,,,,,,,,,,,,METAR,0.0
K2J3 171855Z AUTO 25010G14KT 10SM CLR 11/M02 A2995 RMK AO2 T01121021,K2J3,2021-01-17T18:55:00Z,32.98,-82.38,11.2,-2.1,250,10,14,10.0,29.949802,,,TRUE,TRUE,,,,,,,CLR,,,,,,,,VFR,,,,,,,,,,,,METAR,97.0
K2IS 171855Z AUTO 20007KT 10SM OVC046 17/09 A3006 RMK AO2 T01650087,K2IS,2021-01-17T18:55:00Z,26.73,-81.05,16.5,8.7,200,7,,10.0,30.059055,,,TRUE,TRUE,,,,,,,OVC,4600,,,,,,,VFR,,,,,,,,,,,,METAR,5.0
K2I0 171855Z AUTO 26015G20KT 10SM SCT030 SCT037 OVC046 04/M04 A2982 RMK AO2 T00391038,K2I0,2021-01-17T18:55:00Z,37.35,-87.4,3.9,-3.8,260,15,20,10.0,29.819881,,,TRUE,TRUE,,,,,,,SCT,3000,SCT,3700,OVC,4600,,,VFR,,,,,,,,,,,,METAR,127.0
K2G9 171855Z AUTO 24008KT 7SM -SN OVC012 M01/M02 A2966 RMK AO2,K2G9,2021-01-17T18:55:00Z,40.03,-79.02,-1.0,-2.0,240,8,,7.0,29.660433,,,TRUE,TRUE,,,,,,-SN,OVC,1200,,,,,,,MVFR,,,,,,,,,,,,METAR,677.0
K2A0 171855Z AUTO 21008G16KT 180V240 10SM BKN046 BKN055 OVC065 08/M01 A2983 RMK A01,K2A0,2021-01-17T18:55:00Z,35.48,-84.93,8.0,-1.0,210,8,16,10.0,29.828741,,,TRUE,TRUE,,,,,,,BKN,4600,BKN,5500,OVC,6500,,,VFR,,,,,,,,,,,,METAR,219.0
K20V 171855Z AUTO 00000KT 10SM SCT080 02/M09 A3016 RMK AO2,K20V,2021-01-17T18:55:00Z,40.05,-106.37,2.0,-9.0,0,0,,10.0,30.159449,,,TRUE,TRUE,,,,,,,SCT,8000,,,,,,,VFR,,,,,,,,,,,,METAR,2259.0
K1V6 171855Z AUTO 09006KT 10SM CLR 04/M06 A3003 RMK AO2,K1V6,2021-01-17T18:55:00Z,38.43,-105.1,4.0,-6.0,90,6,,10.0,30.029528,,,TRUE,TRUE,,,,,,,CLR,,,,,,,,VFR,,,,,,,,,,,,METAR,1658.0
K1U7 171855Z AUTO 12004KT 10SM CLR M02/M02 A3022 RMK A01,K1U7,2021-01-17T18:55:00Z,42.25,-111.33,-2.0,-2.0,120,4,,10.0,30.221457,,,TRUE,TRUE,,,,,,,CLR,,,,,,,,VFR,,,,,,,,,,,,METAR,1808.0
K1M5 171855Z AUTO 25008G15KT 10SM OVC041 06/M02 A2980 RMK A01,K1M5,2021-01-17T18:55:00Z,36.6,-86.48,6.0,-2.0,250,8,15,10.0,29.799213,,,TRUE,TRUE,,,,,,,OVC,4100,,,,,,,VFR,,,,,,,,,,,,METAR,239.0
K1K1 171855Z AUTO 31011G22KT 10SM CLR 08/M05 A3000 RMK AO2 T00751048,K1K1,2021-01-17T18:55:00Z,37.77,-97.12,7.5,-4.8,310,11,22,10.0,30.0,,,TRUE,TRUE,,,,,,,CLR,,,,,,,,VFR,,,,,,,,,,,,METAR,411.0
K1H2 171855Z AUTO 26012KT 10SM OVC019 00/M03 A2979 RMK AO2 T00001029,K1H2,2021-01-17T18:55:00Z,39.07,-88.53,0.0,-2.9,260,12,,10.0,29.790354,,,TRUE,TRUE,,,,,,,OVC,1900,,,,,,,MVFR,,,,,,,,,,,,METAR,174.0
K1F0 171855Z AUTO 28008KT 240V300 10SM SCT075 BKN095 10/M03 A3010 RMK AO2 T01041032,K1F0,2021-01-17T18:55:00Z,34.15,-97.12,10.4,-3.2,280,8,,10.0,30.100393,,,TRUE,TRUE,,,,,,,SCT,7500,BKN,9500,,,,,VFR,,,,,,,,,,,,METAR,256.0
K1A9 171855Z AUTO 23004KT 10SM CLR 12/M01 A2997 RMK AO2 T01151011,K1A9,2021-01-17T18:55:00Z,32.43,-86.52,11.5,-1.1,230,4,,10.0,29.970472,,,TRUE,TRUE,,,,,,,CLR,,,,,,,,VFR,,,,,,,,,,,,METAR,65.0
K1A6 171855Z AUTO 19006KT 10SM SCT036 BKN042 OVC048 04/M02 A2981 RMK AO2 T00431021,K1A6,2021-01-17T18:55:00Z,36.62,-83.73,4.3,-2.1,190,6,,10.0,29.811024,,,TRUE,TRUE,,,,,,,SCT,3600,BKN,4200,OVC,4800,,,VFR,,,,,,,,,,,,METAR,348.0
K19S 171855Z AUTO 33014KT 10SM CLR 09/M12 A3009 RMK AO2 T00861118,K19S,2021-01-17T18:55:00Z,37.48,-100.83,8.6,-11.8,330,14,,10.0,30.088583,,,TRUE,TRUE,,,,,,,CLR,,,,,,,,VFR,,,,,,,,,,,,METAR,886.0
K18H 171855Z AUTO 35005KT 9SM CLR 18/07 A3007 RMK A01,K18H,2021-01-17T18:55:00Z,26.13,-92.03,18.0,7.0,350,5,,9.0,30.070866,,,TRUE,TRUE,,,,,,,CLR,,,,,,,,VFR,,,,,,,,,,,,METAR,30.0
K18A 171855Z AUTO 29007G14KT 10SM SCT050 09/M03 A2990 RMK AO2 T00871031,K18A,2021-01-17T18:55:00Z,34.35,-83.13,8.7,-3.1,290,7,14,10.0,29.899607,,,TRUE,TRUE,,,,,,,SCT,5000,,,,,,,VFR,,,,,,,,,,,,METAR,260.0
K17J 171855Z AUTO 27008KT 10SM CLR 13/M03 A3001 RMK AO2 T01321030,K17J,2021-01-17T18:55:00Z,31.0,-84.87,13.2,-3.0,270,8,,10.0,30.008858,,,TRUE,TRUE,,,,,,,CLR,,,,,,,,VFR,,,,,,,,,,,,METAR,42.0
K13K 171855Z AUTO 31019KT 10SM CLR 08/M04 A2997 RMK AO2 T00851042,K13K,2021-01-17T18:55:00Z,37.85,-96.3,8.5,-4.2,310,19,,10.0,29.970472,,,TRUE,TRUE,,,,,,,CLR,,,,,,,,VFR,,,,,,,,,,,,METAR,367.0
K11R 171855Z AUTO 29007KT 10SM CLR 19/M03 A3011 RMK AO2 T01891027,K11R,2021-01-17T18:55:00Z,30.22,-96.37,18.9,-2.7,290,7,,10.0,30.109253,,,TRUE,TRUE,,,,,,,CLR,,,,,,,,VFR,,,,,,,,,,,,METAR,87.0
K0R4 171855Z AUTO 24007G14KT 10SM CLR 16/00 A3002 RMK AO2 T01570003,K0R4,2021-01-17T18:55:00Z,31.57,-91.5,15.7,0.3,240,7,14,10.0,30.02067,,,TRUE,TRUE,,,,,,,CLR,,,,,,,,VFR,,,,,,,,,,,,METAR,16.0
K0R0 171855Z AUTO 26011KT 230V310 10SM CLR 17/M06 A3004 RMK AO2,K0R0,2021-01-17T18:55:00Z,31.3,-89.82,17.0,-6.0,260,11,,10.0,30.041338,,,TRUE,TRUE,,,,,,,CLR,,,,,,,,VFR,,,,,,,,,,,,METAR,76.0
K0F2 171855Z AUTO 32016KT 10SM OVC080 12/M03 A3012 RMK AO2 T01221034,K0F2,2021-01-17T18:55:00Z,33.6,-97.78,12.2,-3.4,320,16,,10.0,30.121063,,,TRUE,TRUE,,,,,,,OVC,8000,,,,,,,VFR,,,,,,,,,,,,METAR,330.0
K0CO 171855Z AUTO 30045G54KT 10SM SCT031 SCT100 BKN120 M10/M19 A3000 RMK AO2,K0CO,2021-01-17T18:55:00Z,39.8,-105.77,-10.0,-19.0,300,45,54,10.0,30.0,,,TRUE,TRUE,,,,,,,SCT,3100,SCT,10000,BKN,12000,,,VFR,,,,,,,,,,,,METAR,3804.0
K0A0 171855Z AUTO 00000KT 10SM CLR 13/M16 A3015 RMK AO2,K0A0,2021-01-17T18:55:00Z,32.98,-106.97,13.0,-16.0,0,0,,10.0,30.15059,,,TRUE,TRUE,,,,,,,CLR,,,,,,,,VFR,,,,,,,,,,,,METAR,1401.0
K06C 171855Z AUTO 24003KT 5SM OVC006 M01/M02 A2967 RMK AO2 T10101025,K06C,2021-01-17T18:55:00Z,41.98,-88.1,-1.0,-2.5,240,3,,5.0,29.66929,,,TRUE,TRUE,,,,,,,OVC,600,,,,,,,IFR,,,,,,,,,,,,METAR,243.0
K05U 171855Z AUTO 00000KT 10SM CLR 05/M03 A3036 RMK A01,K05U,2021-01-17T18:55:00Z,39.6,-116.0,5.0,-3.0,0,0,,10.0,30.360237,,,TRUE,TRUE,,,,,,,CLR,,,,,,,,VFR,,,,,,,,,,,,METAR,1813.0
K04W 171855Z AUTO 00000KT 10SM OVC015 M03/M07 A2976 RMK AO2,K04W,2021-01-17T18:55:00Z,46.02,-92.9,-3.0,-7.0,0,0,,10.0,29.760826,,,TRUE,TRUE,,,,,,,OVC,1500,,,,,,,MVFR,,,,,,,,,,,,METAR,310.0
K04V 171855Z AUTO 33025G36KT 10SM CLR 07/M13 A3007 RMK AO2,K04V,2021-01-17T18:55:00Z,38.1,-106.17,7.0,-13.0,330,25,36,10.0,30.070866,,,TRUE,TRUE,,,,,,,CLR,,,,,,,,VFR,,,,,,,,,,,,METAR,2389.0
FJDG 171855Z 27006KT 9999 FEW020 SCT080 BKN220 27/25 A2980 RMK SLP088 T02680248,FJDG,2021-01-17T18:55:00Z,-7.32,72.42,26.8,24.8,270,6,,6.21,29.799213,1008.8,,,,,,,,,,FEW,2000,SCT,8000,BKN,22000,,,VFR,,,,,,,,,,,,METAR,3.0
EHVL 171855Z AUTO 30013KT 8000 BR FEW013 OVC170 06/04 Q1021 BLU,EHVL,2021-01-17T18:55:00Z,53.28,5.08,6.0,4.0,300,13,,4.97,30.147638,,,TRUE,,,,,,,BR,FEW,1300,OVC,17000,,,,,MVFR,,,,,,,,,,,,METAR,2.0
EHSC 171855Z AUTO 30022KT 9999 ///////// 07/03 Q1023 W07/H14,EHSC,2021-01-17T18:55:00Z,51.93,3.67,7.0,3.0,300,22,,6.21,30.206694,,,TRUE,,,,,,,,,,,,,,,,,,,,,,,,,,,,METAR,19.0
EHSA 171855Z AUTO 29018KT 9999 ///////// 07/02 Q1023 W06/H14,EHSA,2021-01-17T18:55:00Z,52.0,3.28,7.0,2.0,290,18,,6.21,30.206694,,,TRUE,,,,,,,,,,,,,,,,,,,,,,,,,,,,METAR,18.0
EHRD 171855Z AUTO 26006KT 230V290 9999 SCT016 SCT033 05/03 Q1023 NOSIG,EHRD,2021-01-17T18:55:00Z,51.95,4.45,5.0,3.0,260,6,,6.21,30.206694,,,TRUE,,,TRUE,,,,,SCT,1600,SCT,3300,,,,,VFR,,,,,,,,,,,,METAR,-4.0
EHQE 171855Z AUTO 27018KT 9999 FEW014 SCT027 BKN043 07/03 Q1021,EHQE,2021-01-17T18:55:00Z,52.92,4.15,7.0,3.0,270,18,,6.21,30.147638,,,TRUE,,,,,,,,FEW,1400,SCT,2700,BKN,4300,,,VFR,,,,,,,,,,,,METAR,41.0
EHPG 171855Z AUTO 28015KT 220V340 9999 FEW015 BKN018 BKN023 07/03 Q1022,EHPG,2021-01-17T18:55:00Z,52.37,3.35,7.0,3.0,280,15,,6.21,30.177166,,,TRUE,,,,,,,,FEW,1500,BKN,1800,BKN,2300,,,MVFR,,,,,,,,,,,,METAR,24.0
EHMG 171855Z AUTO 29019KT 9999 FEW010 SCT016 BKN021 07/04 Q1020,EHMG,2021-01-17T18:55:00Z,53.62,4.97,7.0,4.0,290,19,,6.21,30.11811,,,TRUE,,,,,,,,FEW,1000,SCT,1600,BKN,2100,,,MVFR,,,,,,,,,,,,METAR,30.0
EHMA 171855Z AUTO 29017KT 9999 FEW015 06/05 Q1019,EHMA,2021-01-17T18:55:00Z,53.5,5.95,6.0,5.0,290,17,,6.21,30.088583,,,TRUE,,,,,,,,FEW,1500,,,,,,,VFR,,,,,,,,,,,,METAR,27.0
EHLW 171855Z AUTO 27006KT 6000 BR OVC200 03/03 Q1020 WHT,EHLW,2021-01-17T18:55:00Z,53.22,5.75,3.0,3.0,270,6,,3.73,30.11811,,,TRUE,,,,,,,BR,OVC,20000,,,,,,,MVFR,,,,,,,,,,,,METAR,1.0
EHLE 171855Z AUTO 26007KT 8000 NSC 03/02 Q1021,EHLE,2021-01-17T18:55:00Z,52.45,5.52,3.0,2.0,260,7,,4.97,30.147638,,,TRUE,,,,,,,,CLR,,,,,,,,MVFR,,,,,,,,,,,,METAR,-3.0
EHKV 171855Z AUTO VRB18KT 9999 FEW013 07/04 Q1021,EHKV,2021-01-17T18:55:00Z,53.27,3.63,7.0,4.0,0,18,,6.21,30.147638,,,TRUE,,,,,,,,FEW,1300,,,,,,,VFR,,,,,,,,,,,,METAR,28.0
EHJR 171855Z AUTO ///19KT //// // ///////// 07/04 Q1022 RE// W08/H16,EHJR,2021-01-17T18:55:00Z,53.22,3.22,7.0,4.0,,,,,30.177166,,,TRUE,,,,,,,,,,,,,,,,,,,,,,,,,,,,METAR,31.0
EHJA 171855Z AUTO 29017KT 9999 FEW016/// 07/03 Q1020,EHJA,2021-01-17T18:55:00Z,53.82,2.95,7.0,3.0,290,17,,6.21,30.11811,,,TRUE,,,,,,,,FEW,1600,,,,,,,VFR,,,,,,,,,,,,METAR,34.0
EHHW 171855Z AUTO 32013KT 290V350 9999 FEW016/// SCT021/// BKN037/// 07/03 Q1018,EHHW,2021-01-17T18:55:00Z,54.03,6.03,7.0,3.0,320,13,,6.21,30.059055,,,TRUE,,,,,,,,FEW,1600,SCT,2100,BKN,3700,,,VFR,,,,,,,,,,,,METAR,10.0
EHGG 171855Z AUTO 27005KT 240V300 7000 NSC 04/03 Q1019 NOSIG,EHGG,2021-01-17T18:55:00Z,53.12,6.57,4.0,3.0,270,5,,4.35,30.088583,,,TRUE,,,TRUE,,,,,CLR,,,,,,,,MVFR,,,,,,,,,,,,METAR,2.0
EHFS 171855Z AUTO 29006KT 260V320 9999 SCT031/// OVC036/// 06/03 Q1024,EHFS,2021-01-17T18:55:00Z,51.45,3.6,6.0,3.0,290,6,,6.21,30.236221,,,TRUE,,,,,,,,SCT,3100,OVC,3600,,,,,VFR,,,,,,,,,,,,METAR,1.0
EHFD 171855Z AUTO /////KT 9999 // FEW021/// 07/04 Q1018 RE//,EHFD,2021-01-17T18:55:00Z,54.85,4.7,7.0,4.0,,,,6.21,30.059055,,,TRUE,,,,,,,,FEW,2100,,,,,,,VFR,,,,,,,,,,,,METAR,24.0
EHDV 171855Z AUTO 27018KT 9999 FEW017/// 07/04 Q1020,EHDV,2021-01-17T18:55:00Z,54.32,2.93,7.0,4.0,270,18,,6.21,30.11811,,,TRUE,,,,,,,,FEW,1700,,,,,,,VFR,,,,,,,,,,,,METAR,36.0
EHDL 171855Z AUTO 27004KT 240V310 9999 BKN015 OVC210 03/03 Q1021 WHT,EHDL,2021-01-17T18:55:00Z,52.07,5.88,3.0,3.0,270,4,,6.21,30.147638,,,TRUE,,,,,,,,BKN,1500,OVC,21000,,,,,MVFR,,,,,,,,,,,,METAR,49.0
EHBK 171855Z AUTO 26006KT 220V300 9999 FEW006 BKN007 OVC008 04/04 Q1023 BECMG BKN018,EHBK,2021-01-17T18:55:00Z,50.92,5.77,4.0,4.0,260,6,,6.21,30.206694,,,TRUE,,,,,,,,FEW,600,BKN,700,OVC,800,,,IFR,,,,,,,,,,,,METAR,112.0
EHAM 171855Z 28007KT 9999 -SHRA FEW017TCU 04/02 Q1022 TEMPO 7000 -SHRA,EHAM,2021-01-17T18:55:00Z,52.32,4.78,4.0,2.0,280,7,,6.21,30.177166,,,,,,,,,,-SHRA,FEW,1700,,,,,,,VFR,,,,,,,,,,,,METAR,-2.0
EHAK 171855Z AUTO 30008KT 9999 FEW017/// SCT021/// BKN030/// 07/04 Q1018,EHAK,2021-01-17T18:55:00Z,55.38,3.82,7.0,4.0,300,8,,6.21,30.059055,,,TRUE,,,,,,,,FEW,1700,SCT,2100,BKN,3000,,,MVFR,,,,,,,,,,,,METAR,33.0
EBLB 171855Z AUTO 30007KT 5000 -RA OVC004/// 01/01 Q1021 YLO,EBLB,2021-01-17T18:55:00Z,50.47,6.17,1.0,1.0,300,7,,3.11,30.147638,,,TRUE,,,,,,,-RA,OVC,400,,,,,,,LIFR,,,,,,,,,,,,METAR,563.0
EBFS 171855Z AUTO 29008KT 9999 BKN027/// 02/01 Q1024 BLU,EBFS,2021-01-17T18:55:00Z,50.23,4.65,2.0,1.0,290,8,,6.21,30.236221,,,TRUE,,,,,,,,BKN,2700,,,,,,,MVFR,,,,,,,,,,,,METAR,276.0
EBCV 171855Z AUTO 26006KT 9999 OVC027/// 05/02 Q1025 BLU,EBCV,2021-01-17T18:55:00Z,50.57,3.82,5.0,2.0,260,6,,6.21,30.265747,,,TRUE,,,,,,,,OVC,2700,,,,,,,MVFR,,,,,,,,,,,,METAR,56.0
EBBL 171855Z AUTO 26007KT 9999 BKN021/// 05/04 Q1023 WHT,EBBL,2021-01-17T18:55:00Z,51.17,5.47,5.0,4.0,260,7,,6.21,30.206694,,,TRUE,,,,,,,,BKN,2100,,,,,,,MVFR,,,,,,,,,,,,METAR,50.0
EBBE 171855Z AUTO 26008KT 9999 FEW015/// BKN041/// 04/02 Q1024 BLU,EBBE,2021-01-17T18:55:00Z,50.75,4.77,4.0,2.0,260,8,,6.21,30.236221,,,TRUE,,,,,,,,FEW,1500,BKN,4100,,,,,VFR,,,,,,,,,,,,METAR,127.0
PHOG 171854Z 21003KT 10SM SCT040 25/20 A3002 RMK AO2 SLP171 T02500200 $,PHOG,2021-01-17T18:54:00Z,20.9,-156.43,25.0,20.0,210,3,,10.0,30.02067,1017.1,,,TRUE,TRUE,,,,,,SCT,4000,,,,,,,VFR,,,,,,,,,,,,METAR,14.0
PHMK 171854Z 15005KT 10SM CLR 24/18 A3004 RMK AO2 SLP174 T02390183,PHMK,2021-01-17T18:54:00Z,21.15,-157.1,23.9,18.3,150,5,,10.0,30.041338,1017.4,,,TRUE,,,,,,,CLR,,,,,,,,VFR,,,,,,,,,,,,SPECI,135.0
PGUM 171854Z 08007KT 10SM FEW028 26/21 A2986 RMK AO2 SLP104 T02560206 $,PGUM,2021-01-17T18:54:00Z,13.48,144.8,25.6,20.6,80,7,,10.0,29.861221,1010.4,,,TRUE,TRUE,,,,,,FEW,2800,,,,,,,VFR,,,,,,,,,,,,SPECI,74.0
PGSN 171854Z 10011KT 10SM FEW036 27/23 A2986 RMK AO2 SLP134 T02670233 $,PGSN,2021-01-17T18:54:00Z,15.12,145.72,26.7,23.3,100,11,,10.0,29.861221,1013.4,,,TRUE,TRUE,,,,,,FEW,3600,,,,,,,VFR,,,,,,,,,,,,SPECI,65.0
PAKN 171854Z 17007KT 10SM OVC041 02/M01 A2931 RMK AO2 SLP926 T00171006,PAKN,2021-01-17T18:54:00Z,58.68,-156.65,1.7,-0.6,170,7,,10.0,29.309055,992.6,,,TRUE,,,,,,,OVC,4100,,,,,,,VFR,,,,,,,,,,,,METAR,20.0
PAHN 171854Z AUTO 09013G21KT 9SM -RA BKN012 OVC027 06/04 A2988 RMK AO2 PK WND 06027/1807 SLP120 P0001 T00560039 TSNO,PAHN,2021-01-17T18:54:00Z,59.25,-135.52,5.6,3.9,90,13,21,9.0,29.878937,1012.0,,TRUE,TRUE,,,TRUE,,,-RA,BKN,1200,OVC,2700,,,,,MVFR,,,,,,0.01,,,,,,METAR,15.0
KWLD 171854Z AUTO 30018G25KT 10SM CLR 10/M03 A3002 RMK AO2 SLP170 T01001033,KWLD,2021-01-17T18:54:00Z,37.17,-97.03,10.0,-3.3,300,18,25,10.0,30.02067,1017.0,,TRUE,TRUE,,,,,,,CLR,,,,,,,,VFR,,,,,,,,,,,,METAR,351.0
KWAL 171854Z AUTO 27011KT 240V300 CLR 09/M01 A2979 RMK AO2 SLP086 T00891011 $,KWAL,2021-01-17T18:54:00Z,37.93,-75.47,8.9,-1.1,270,11,,,29.790354,1008.6,,TRUE,TRUE,TRUE,,,,,,CLR,,,,,,,,,,,,,,,,,,,,METAR,10.0
KVTA 171854Z AUTO 23007KT 5SM -SN BR OVC014 02/M01 A2970 RMK AO2 SLP063 P0001 T00171006,KVTA,2021-01-17T18:54:00Z,40.02,-82.47,1.7,-0.6,230,7,,5.0,29.698818,1006.3,,TRUE,TRUE,,,,,,-SN BR,OVC,1400,,,,,,,MVFR,,,,,,0.01,,,,,,METAR,268.0
KVSF 171854Z AUTO 26008G15KT 10SM FEW038 OVC060 03/M04 A2939 RMK AO2 SLP958 T00281044,KVSF,2021-01-17T18:54:00Z,43.35,-72.52,2.8,-4.4,260,8,15,10.0,29.388779,995.8,,TRUE,TRUE,,,,,,,FEW,3800,OVC,6000,,,,,VFR,,,,,,,,,,,,METAR,176.0
KVAY 171854Z AUTO 25015G21KT 10SM SCT048 07/M03 A2969 RMK AO2 SLP053 T00721033,KVAY,2021-01-17T18:54:00Z,39.93,-74.83,7.2,-3.3,250,15,21,10.0,29.68996,1005.3,,TRUE,TRUE,,,,,,,SCT,4800,,,,,,,VFR,,,,,,,,,,,,METAR,15.0
KUZA 171854Z AUTO 25009KT 10SM BKN046 07/M03 A2989 RMK AO2 SLP127 T00721033,KUZA,2021-01-17T18:54:00Z,34.98,-81.05,7.2,-3.3,250,9,,10.0,29.890747,1012.7,,TRUE,TRUE,,,,,,,BKN,4600,,,,,,,VFR,,,,,,,,,,,,METAR,198.0
KUIN 171854Z AUTO 31011KT 10SM OVC017 M01/M04 A2979 RMK AO2 SLP094 T10111044,KUIN,2021-01-17T18:54:00Z,39.95,-91.2,-1.1,-4.4,310,11,,10.0,29.790354,1009.4,,TRUE,TRUE,,,,,,,OVC,1700,,,,,,,MVFR,,,,,,,,,,,,METAR,233.0
KTQE 171854Z AUTO 31011KT 10SM SCT050 02/M03 A2988 RMK AO2 SLP126 T00221028 $,KTQE,2021-01-17T18:54:00Z,41.77,-96.18,2.2,-2.8,310,11,,10.0,29.878937,1012.6,,TRUE,TRUE,TRUE,,,,,,SCT,5000,,,,,,,VFR,,,,,,,,,,,,METAR,312.0
KTAD 171854Z AUTO 15006KT 10SM CLR 02/M07 A3005 RMK AO2 SLP190 T00171067,KTAD,2021-01-17T18:54:00Z,37.27,-104.33,1.7,-6.7,150,6,,10.0,30.050198,1019.0,,TRUE,TRUE,,,,,,,CLR,,,,,,,,VFR,,,,,,,,,,,,METAR,1751.0
KSYR 171854Z 26011KT 9SM -SN BKN022 OVC028 03/M02 A2954 RMK AO2 PK WND 25028/1822 SNE04B21 SLP004 PCPN VRY LGT P0000 T00281017 $,KSYR,2021-01-17T18:54:00Z,43.12,-76.1,2.8,-1.7,260,11,,9.0,29.53937,1000.4,,,TRUE,TRUE,,,,,-SN,BKN,2200,OVC,2800,,,,,MVFR,,,,,,0.005,,,,,,METAR,125.0
KSUS 171854Z 27012KT 10SM SCT025 BKN075 OVC085 03/M04 A2981 RMK AO2 SLP099 T00281039,KSUS,2021-01-17T18:54:00Z,38.65,-90.65,2.8,-3.9,270,12,,10.0,29.811024,1009.9,,,TRUE,,,,,,,SCT,2500,BKN,7500,OVC,8500,,,VFR,,,,,,,,,,,,METAR,140.0
KSLC 171854Z 15004KT 8SM FEW200 SCT250 05/M03 A3030 RMK AO2 SLP268 T00501028,KSLC,2021-01-17T18:54:00Z,40.77,-111.97,5.0,-2.8,150,4,,8.0,30.301182,1026.8,,,TRUE,,,,,,,FEW,20000,SCT,25000,,,,,VFR,,,,,,,,,,,,METAR,1286.0
KSJN 171854Z AUTO 33004KT 10SM CLR 07/M09 A3024 RMK AO2 SLP236 T00721094,KSJN,2021-01-17T18:54:00Z,34.52,-109.38,7.2,-9.4,330,4,,10.0,30.239174,1023.6,,TRUE,TRUE,,,,,,,CLR,,,,,,,,VFR,,,,,,,,,,,,METAR,1747.0
KSET 171854Z AUTO 29013KT 10SM BKN029 BKN075 03/M04 A2980 RMK AO2 SLP093 T00281039 $,KSET,2021-01-17T18:54:00Z,38.93,-90.43,2.8,-3.9,290,13,,10.0,29.799213,1009.3,,TRUE,TRUE,TRUE,,,,,,BKN,2900,BKN,7500,,,,,MVFR,,,,,,,,,,,,METAR,133.0
KSBY 171854Z 24013KT 10SM SCT046 08/M02 A2977 RMK AO2 SLP082 T00781022 $,KSBY,2021-01-17T18:54:00Z,38.33,-75.5,7.8,-2.2,240,13,,10.0,29.769686,1008.2,,,TRUE,TRUE,,,,,,SCT,4600,,,,,,,VFR,,,,,,,,,,,,METAR,14.0
KRST 171854Z 29010KT 6SM BR OVC004 M06/M08 A2974 RMK AO2 SLP093 T10611078,KRST,2021-01-17T18:54:00Z,43.9,-92.5,-6.1,-7.8,290,10,,6.0,29.740158,1009.3,,,TRUE,,,,,,BR,OVC,400,,,,,,,LIFR,,,,,,,,,,,,METAR,398.0
KRSP 171854Z AUTO 27010G23KT 240V320 10SM BKN029 BKN035 03/M03 A2972 RMK AO2 PK WND 29028/1755 SLP084 T00331033 TSNO PNO $,KRSP,2021-01-17T18:54:00Z,39.65,-77.47,3.3,-3.3,270,10,23,10.0,29.719488,1008.4,,TRUE,TRUE,TRUE,,TRUE,,,,BKN,2900,BKN,3500,,,,,MVFR,,,,,,,,,,,,METAR,555.0
KROC 171854Z 29011KT 10SM FEW026 BKN032 OVC044 04/M02 A2956 RMK AO2 SLP017 T00391017,KROC,2021-01-17T18:54:00Z,43.12,-77.68,3.9,-1.7,290,11,,10.0,29.56004,1001.7,,,TRUE,,,,,,,FEW,2600,BKN,3200,OVC,4400,,,VFR,,,,,,,,,,,,METAR,166.0
KROA 171854Z 27011KT 10SM SCT035 OVC060 05/M03 A2981 RMK AO2 SLP100 T00501028,KROA,2021-01-17T18:54:00Z,37.32,-79.97,5.0,-2.8,270,11,,10.0,29.811024,1010.0,,,TRUE,,,,,,,SCT,3500,OVC,6000,,,,,VFR,,,,,,,,,,,,METAR,349.0
KRKS 171854Z AUTO 26021G29KT 10SM CLR 03/M07 A3013 RMK AO2 PK WND 24037/1830 SLP219 T00281072 $,KRKS,2021-01-17T18:54:00Z,41.6,-109.07,2.8,-7.2,260,21,29,10.0,30.129921,1021.9,,TRUE,TRUE,TRUE,,,,,,CLR,,,,,,,,VFR,,,,,,,,,,,,METAR,2062.0
KRIC 171854Z 24012KT 10SM FEW050 FEW180 09/M03 A2981 RMK AO2 SLP099 T00941033,KRIC,2021-01-17T18:54:00Z,37.52,-77.32,9.4,-3.3,240,12,,10.0,29.811024,1009.9,,,TRUE,,,,,,,FEW,5000,FEW,18000,,,,,VFR,,,,,,,,,,,,METAR,51.0
KRDG 171854Z 28014G22KT 10SM OVC044 07/M02 A2966 RMK AO2 SLP051 T00671022,KRDG,2021-01-17T18:54:00Z,40.37,-75.97,6.7,-2.2,280,14,22,10.0,29.660433,1005.1,,,TRUE,,,,,,,OVC,4400,,,,,,,VFR,,,,,,,,,,,,METAR,101.0
KRBL 171854Z AUTO 35013KT 10SM CLR 22/02 A3018 RMK AO2 SLP215 T02220017,KRBL,2021-01-17T18:54:00Z,40.15,-122.25,22.2,1.7,350,13,,10.0,30.180119,1021.5,,TRUE,TRUE,,,,,,,CLR,,,,,,,,VFR,,,,,,,,,,,,METAR,107.0
KPTW 171854Z AUTO 26008G20KT 230V300 10SM BKN044 06/M03 A2968 RMK AO2 SLP050 T00561028,KPTW,2021-01-17T18:54:00Z,40.23,-75.55,5.6,-2.8,260,8,20,10.0,29.681103,1005.0,,TRUE,TRUE,,,,,,,BKN,4400,,,,,,,VFR,,,,,,,,,,,,METAR,88.0
KPSF 171854Z AUTO 27015G24KT 10SM OVC028 01/M03 A2944 RMK AO2 SNE36 SLP978 P0000 T00111033,KPSF,2021-01-17T18:54:00Z,42.43,-73.28,1.1,-3.3,270,15,24,10.0,29.438976,997.8,,TRUE,TRUE,,,,,,,OVC,2800,,,,,,,MVFR,,,,,,0.005,,,,,,METAR,352.0
KPNE 171854Z 29017G30KT 10SM BKN047 08/M03 A2969 RMK AO2 PK WND 27030/1845 SLP053 T00831028 $,KPNE,2021-01-17T18:54:00Z,40.08,-75.02,8.3,-2.8,290,17,30,10.0,29.68996,1005.3,,,TRUE,TRUE,,,,,,BKN,4700,,,,,,,VFR,,,,,,,,,,,,METAR,32.0
KPLN 171854Z AUTO 34004KT 10SM BKN023 OVC085 M01/M05 A2964 RMK AO2 SLP044 T10061050,KPLN,2021-01-17T18:54:00Z,45.57,-84.8,-0.6,-5.0,340,4,,10.0,29.639763,1004.4,,TRUE,TRUE,,,,,,,BKN,2300,OVC,8500,,,,,MVFR,,,,,,,,,,,,METAR,215.0
KPIA 171854Z 30010KT 2 1/2SM -SN OVC011 M02/M05 A2975 RMK AO2 SLP082 P0000 T10221050 $,KPIA,2021-01-17T18:54:00Z,40.67,-89.68,-2.2,-5.0,300,10,,2.5,29.749016,1008.2,,,TRUE,TRUE,,,,,-SN,OVC,1100,,,,,,,IFR,,,,,,0.005,,,,,,METAR,200.0
KPHL 171854Z 27019G22KT 10SM BKN047 BKN220 08/M03 A2970 RMK AO2 PK WND 28028/1807 SLP057 T00781028,KPHL,2021-01-17T18:54:00Z,39.87,-75.23,7.8,-2.8,270,19,22,10.0,29.698818,1005.7,,,TRUE,,,,,,,BKN,4700,BKN,22000,,,,,VFR,,,,,,,,,,,,METAR,2.0
KPHF 171854Z 23011G16KT 10SM CLR 09/M01 A2982 RMK AO2 SLP097 T00891006,KPHF,2021-01-17T18:54:00Z,37.13,-76.5,8.9,-0.6,230,11,16,10.0,29.819881,1009.7,,,TRUE,,,,,,,CLR,,,,,,,,VFR,,,,,,,,,,,,METAR,12.0
KORH 171854Z 27025G35KT 10SM OVC046 03/M06 A2940 RMK AO2 PK WND 25039/1821 SLP964 T00331056,KORH,2021-01-17T18:54:00Z,42.27,-71.87,3.3,-5.6,270,25,35,10.0,29.40059,996.4,,,TRUE,,,,,,,OVC,4600,,,,,,,VFR,,,,,,,,,,,,METAR,306.0
KOLS 171854Z AUTO VRB05KT 10SM CLR 22/M11 A3012 RMK AO2 SLP155 T02221106,KOLS,2021-01-17T18:54:00Z,31.42,-110.85,22.2,-10.6,0,5,,10.0,30.121063,1015.5,,TRUE,TRUE,,,,,,,CLR,,,,,,,,VFR,,,,,,,,,,,,METAR,1194.0
KOLM 171854Z 24004KT 10SM BKN018 10/07 A3047 RMK AO2 SLP319 T01000072,KOLM,2021-01-17T18:54:00Z,46.97,-122.9,10.0,7.2,240,4,,10.0,30.469488,1031.9,,,TRUE,,,,,,,BKN,1800,,,,,,,MVFR,,,,,,,,,,,,METAR,58.0
KOFP 171854Z AUTO 23011KT 10SM CLR 09/M03 A2981 RMK AO2 SLP095 T00941028,KOFP,2021-01-17T18:54:00Z,37.7,-77.43,9.4,-2.8,230,11,,10.0,29.811024,1009.5,,TRUE,TRUE,,,,,,,CLR,,,,,,,,VFR,,,,,,,,,,,,METAR,63.0
KNY0 171854Z AUTO 30012G26KT 7SM OVC014 01/00 A2947 RMK AO2,KNY0,2021-01-17T18:54:00Z,42.98,-74.33,1.0,0.0,300,12,26,7.0,29.471457,,,TRUE,TRUE,,,,,,,OVC,1400,,,,,,,MVFR,,,,,,,,,,,,METAR,266.0
KNKT 171854Z 19009G15KT 10SM CLR 10/M01 A2990 RMK AO2 SLP123 T01001011,KNKT,2021-01-17T18:54:00Z,34.9,-76.88,10.0,-1.1,190,9,15,10.0,29.899607,1012.3,,,TRUE,,,,,,,CLR,,,,,,,,VFR,,,,,,,,,,,,METAR,8.0
KNAK 171854Z AUTO 28006KT 10SM BKN050 08/M03 A2975 RMK AO2 SLP076 T00831028,KNAK,2021-01-17T18:54:00Z,38.98,-76.48,8.3,-2.8,280,6,,10.0,29.749016,1007.6,,TRUE,TRUE,,,,,,,BKN,5000,,,,,,,VFR,,,,,,,,,,,,METAR,2.0
KMVL 171854Z AUTO 28007G16KT 230V310 5SM -SN OVC039 01/M03 A2933 RMK AO2 SLP942 P0001 T00061033,KMVL,2021-01-17T18:54:00Z,44.53,-72.62,0.6,-3.3,280,7,16,5.0,29.329725,994.2,,TRUE,TRUE,,,,,,-SN,OVC,3900,,,,,,,MVFR,,,,,,0.01,,,,,,METAR,226.0
KMTP 171854Z AUTO 26016G30KT 06/M03 A2957 RMK AO1 PK WND 28031/1819 SLP012 T00611033 $,KMTP,2021-01-17T18:54:00Z,41.07,-71.92,6.1,-3.3,260,16,30,,29.568897,1001.2,,TRUE,TRUE,TRUE,,,,,,,,,,,,,,,,,,,,,,,,,,METAR,2.0
KMTN 171854Z 27009G16KT 10SM BKN050 08/M01 A2975,KMTN,2021-01-17T18:54:00Z,39.32,-76.42,8.0,-1.0,270,9,16,10.0,29.749016,,,,,,,,,,,BKN,5000,,,,,,,VFR,,,,,,,,,,,,METAR,2.0
KMRY 171854Z 05007KT 10SM CLR 21/07 A3012 RMK AO2 SLP210 T02110067,KMRY,2021-01-17T18:54:00Z,36.58,-121.85,21.1,6.7,50,7,,10.0,30.121063,1021.0,,,TRUE,,,,,,,CLR,,,,,,,,VFR,,,,,,,,,,,,METAR,51.0
KMOT 171854Z 29008KT 10SM FEW013 M02/M07 A2986 RMK AO2 SLP136 T10221072,KMOT,2021-01-17T18:54:00Z,48.25,-101.27,-2.2,-7.2,290,8,,10.0,29.861221,1013.6,,,TRUE,,,,,,,FEW,1300,,,,,,,VFR,,,,,,,,,,,,METAR,507.0
KMMH 171854Z AUTO 27011KT 10SM CLR 13/M18 A3038 RMK AO2,KMMH,2021-01-17T18:54:00Z,37.62,-118.83,13.0,-18.0,270,11,,10.0,30.380905,,,TRUE,TRUE,,,,,,,CLR,,,,,,,,VFR,,,,,,,,,,,,METAR,2167.0
KMKC 171854Z 30012G24KT 10SM BKN035 OVC080 04/M02 A2988 RMK AO2 SLP124 T00441022,KMKC,2021-01-17T18:54:00Z,39.12,-94.6,4.4,-2.2,300,12,24,10.0,29.878937,1012.4,,,TRUE,,,,,,,BKN,3500,OVC,8000,,,,,VFR,,,,,,,,,,,,METAR,228.0
KMIV 171854Z AUTO 27015G25KT 10SM SCT047 SCT055 08/M03 A2972 RMK AO2 SLP063 T00831033,KMIV,2021-01-17T18:54:00Z,39.37,-75.08,8.3,-3.3,270,15,25,10.0,29.719488,1006.3,,TRUE,TRUE,,,,,,,SCT,4700,SCT,5500,,,,,VFR,,,,,,,,,,,,METAR,18.0
KMGJ 171854Z AUTO 27014G20KT 10SM OVC044 04/M04 A2956 RMK AO2 SLP012 T00441039,KMGJ,2021-01-17T18:54:00Z,41.52,-74.27,4.4,-3.9,270,14,20,10.0,29.56004,1001.2,,TRUE,TRUE,,,,,,,OVC,4400,,,,,,,VFR,,,,,,,,,,,,METAR,106.0
KMFI 171854Z AUTO 34007KT 10SM OVC023 M02/M07 A2969 RMK AO2 SLP070 T10171072,KMFI,2021-01-17T18:54:00Z,44.63,-90.18,-1.7,-7.2,340,7,,10.0,29.68996,1007.0,,TRUE,TRUE,,,,,,,OVC,2300,,,,,,,MVFR,,,,,,,,,,,,METAR,383.0
KMEM 171854Z 27014KT 10SM SCT200 09/M04 A2991 RMK AO2 SLP130 T00941044 $,KMEM,2021-01-17T18:54:00Z,35.07,-89.98,9.4,-4.4,270,14,,10.0,29.911417,1013.0,,,TRUE,TRUE,,,,,,SCT,20000,,,,,,,VFR,,,,,,,,,,,,METAR,78.0
KLYH 171854Z 28009KT 10SM SCT039 08/M02 A2979 RMK AO2 SLP091 T00781022,KLYH,2021-01-17T18:54:00Z,37.32,-79.2,7.8,-2.2,280,9,,10.0,29.790354,1009.1,,,TRUE,,,,,,,SCT,3900,,,,,,,VFR,,,,,,,,,,,,METAR,282.0
KLWT 171854Z AUTO 26009KT 10SM OVC042 05/M02 A2983 RMK AO2 SLP129 T00501022,KLWT,2021-01-17T18:54:00Z,47.05,-109.47,5.0,-2.2,260,9,,10.0,29.828741,1012.9,,TRUE,TRUE,,,,,,,OVC,4200,,,,,,,VFR,,,,,,,,,,,,METAR,1254.0
KLWM 171854Z 26015G30KT 10SM BKN047 OVC060 06/M04 A2940 RMK AO2 PK WND 24034/1819 SLPNO T00561039,KLWM,2021-01-17T18:54:00Z,42.72,-71.13,5.6,-3.9,260,15,30,10.0,29.40059,,,,TRUE,,,,,,,BKN,4700,OVC,6000,,,,,VFR,,,,,,,,,,,,METAR,42.0
KLNK 171854Z 32017G24KT 10SM CLR 06/M04 A2993 RMK AO2 SLP143 T00561044,KLNK,2021-01-17T18:54:00Z,40.85,-96.77,5.6,-4.4,320,17,24,10.0,29.929134,1014.3,,,TRUE,,,,,,,CLR,,,,,,,,VFR,,,,,,,,,,,,METAR,357.0
KLAF 171854Z 28010KT 7SM -SN BKN014 OVC021 00/M03 A2972 RMK AO2 SNB51 SLP067 P0000 T00001028 $,KLAF,2021-01-17T18:54:00Z,40.42,-86.93,0.0,-2.8,280,10,,7.0,29.719488,1006.7,,,TRUE,TRUE,,,,,-SN,BKN,1400,OVC,2100,,,,,MVFR,,,,,,0.005,,,,,,METAR,182.0
KJAN 171854Z 24015G26KT 10SM FEW040 FEW070 16/M04 A2998 RMK AO2 PK WND 24026/1853 SLP151 T01561044,KJAN,2021-01-17T18:54:00Z,32.32,-90.08,15.6,-4.4,240,15,26,10.0,29.97933,1015.1,,,TRUE,,,,,,,FEW,4000,FEW,7000,,,,,VFR,,,,,,,,,,,,METAR,92.0
KIZG 171854Z AUTO 21007KT 180V260 10SM BKN042 BKN050 OVC060 03/M03 A2928 RMK AO2 SNE1758 SLP918 P0000 T00331033,KIZG,2021-01-17T18:54:00Z,43.98,-70.95,3.3,-3.3,210,7,,10.0,29.279528,991.8,,TRUE,TRUE,,,,,,,BKN,4200,BKN,5000,OVC,6000,,,VFR,,,,,,0.005,,,,,,METAR,138.0
KISW 171854Z AUTO 32007KT 10SM OVC024 M02/M07 A2971 RMK AO2 SLP073 T10221067,KISW,2021-01-17T18:54:00Z,44.37,-89.83,-2.2,-6.7,320,7,,10.0,29.71063,1007.3,,TRUE,TRUE,,,,,,,OVC,2400,,,,,,,MVFR,,,,,,,,,,,,METAR,311.0
KIPT 171854Z 26012KT 10SM OVC042 04/M02 A2964 RMK AO2 SLP039 T00441022,KIPT,2021-01-17T18:54:00Z,41.25,-76.92,4.4,-2.2,260,12,,10.0,29.639763,1003.9,,,TRUE,,,,,,,OVC,4200,,,,,,,VFR,,,,,,,,,,,,METAR,160.0
KINT 171854Z VRB04KT 10SM FEW048 08/M03 A2983 RMK AO2 SLP105 T00781033 $,KINT,2021-01-17T18:54:00Z,36.13,-80.22,7.8,-3.3,0,4,,10.0,29.828741,1010.5,,,TRUE,TRUE,,,,,,FEW,4800,,,,,,,VFR,,,,,,,,,,,,METAR,292.0
KINL 171854Z AUTO 27004KT 10SM OVC007 M08/M09 A2975 RMK AO2 SLP097 I1000 T10781094,KINL,2021-01-17T18:54:00Z,48.57,-93.4,-7.8,-9.4,270,4,,10.0,29.749016,1009.7,,TRUE,TRUE,,,,,,,OVC,700,,,,,,,IFR,,,,,,,,,,,,METAR,353.0
KIND 171854Z 28009KT 10SM SCT014 OVC019 M01/M03 A2972 RMK AO2 SNE38 SLP071 P0001 T10061028 $,KIND,2021-01-17T18:54:00Z,39.72,-86.27,-0.6,-2.8,280,9,,10.0,29.719488,1007.1,,,TRUE,TRUE,,,,,,SCT,1400,OVC,1900,,,,,MVFR,,,,,,0.01,,,,,,METAR,242.0
KIMT 171854Z AUTO 34006KT 10SM OVC023 M02/M07 A2966 RMK AO2 SLP060 T10221072,KIMT,2021-01-17T18:54:00Z,45.82,-88.12,-2.2,-7.2,340,6,,10.0,29.660433,1006.0,,TRUE,TRUE,,,,,,,OVC,2300,,,,,,,MVFR,,,,,,,,,,,,METAR,343.0
KHWD 171854Z 18005KT 10SM CLR 18/06 A3014 RMK AO2 SLP216 T01780061,KHWD,2021-01-17T18:54:00Z,37.67,-122.12,17.8,6.1,180,5,,10.0,30.138779,1021.6,,,TRUE,,,,,,,CLR,,,,,,,,VFR,,,,,,,,,,,,METAR,9.0
KGSO 171854Z 24010G14KT 10SM SCT048 BKN140 BKN250 08/M03 A2982 RMK AO2 SLP101 T00831028 $,KGSO,2021-01-17T18:54:00Z,36.1,-79.95,8.3,-2.8,240,10,14,10.0,29.819881,1010.1,,,TRUE,TRUE,,,,,,SCT,4800,BKN,14000,BKN,25000,,,VFR,,,,,,,,,,,,METAR,275.0
KGED 171854Z AUTO 28013G19KT 10SM FEW047 08/M03 A2975 RMK AO2 SLP074 T00831033,KGED,2021-01-17T18:54:00Z,38.68,-75.37,8.3,-3.3,280,13,19,10.0,29.749016,1007.4,,TRUE,TRUE,,,,,,,FEW,4700,,,,,,,VFR,,,,,,,,,,,,METAR,15.0
KGCN 171854Z VRB04KT 10SM CLR 13/M14 A3026 RMK AO2 SLP231 T01281139,KGCN,2021-01-17T18:54:00Z,35.95,-112.15,12.8,-13.9,0,4,,10.0,30.259842,1023.1,,,TRUE,,,,,,,CLR,,,,,,,,VFR,,,,,,,,,,,,METAR,1993.0
KGCK 171854Z 32012KT 10SM CLR 08/M12 A3006 RMK AO2 SLP183 T00781122,KGCK,2021-01-17T18:54:00Z,37.92,-100.72,7.8,-12.2,320,12,,10.0,30.059055,1018.3,,,TRUE,,,,,,,CLR,,,,,,,,VFR,,,,,,,,,,,,METAR,877.0
KFZY 171854Z AUTO 28014G25KT 10SM OVC022 02/M02 A2954 RMK AO2 PK WND 27029/1806 SLP006 P0003 T00221017,KFZY,2021-01-17T18:54:00Z,43.35,-76.38,2.2,-1.7,280,14,25,10.0,29.53937,1000.6,,TRUE,TRUE,,,,,,,OVC,2200,,,,,,,MVFR,,,,,,0.03,,,,,,METAR,143.0
KFWA 171854Z 25009KT 2SM -SN BR SCT010 BKN014 OVC029 01/M01 A2968 RMK AO2 SLP056 P0001 T00061011 $,KFWA,2021-01-17T18:54:00Z,40.98,-85.2,0.6,-1.1,250,9,,2.0,29.681103,1005.6,,,TRUE,TRUE,,,,,-SN BR,SCT,1000,BKN,1400,OVC,2900,,,IFR,,,,,,0.01,,,,,,METAR,243.0
KFIG 171854Z AUTO 24007KT 10SM BKN017 OVC025 01/M03 A2964 RMK AO2 SLP050 T00111028,KFIG,2021-01-17T18:54:00Z,41.05,-78.42,1.1,-2.8,240,7,,10.0,29.639763,1005.0,,TRUE,TRUE,,,,,,,BKN,1700,OVC,2500,,,,,MVFR,,,,,,,,,,,,METAR,461.0
KFFZ 171854Z 03012KT 10SM CLR 22/M11 A3008 RMK AO2 SLP169 T02221111,KFFZ,2021-01-17T18:54:00Z,33.47,-111.72,22.2,-11.1,30,12,,10.0,30.079725,1016.9,,,TRUE,,,,,,,CLR,,,,,,,,VFR,,,,,,,,,,,,METAR,420.0
KEWN 171854Z VRB05KT 10SM CLR 11/M02 A2989 RMK AO2 SLP122 T01061022,KEWN,2021-01-17T18:54:00Z,35.07,-77.05,10.6,-2.2,0,5,,10.0,29.890747,1012.2,,,TRUE,,,,,,,CLR,,,,,,,,VFR,,,,,,,,,,,,METAR,3.0
KEUG 171854Z 00000KT 10SM BKN006 BKN035 10/07 A3049 RMK AO2 SLP326 T01000067 $,KEUG,2021-01-17T18:54:00Z,44.13,-123.22,10.0,6.7,0,0,,10.0,30.490158,1032.6,,,TRUE,TRUE,,,,,,BKN,600,BKN,3500,,,,,IFR,,,,,,,,,,,,METAR,109.0
KECG 171854Z 25010KT 10SM CLR 10/00 A2985 RMK AO2 SLP108 T01000000,KECG,2021-01-17T18:54:00Z,36.27,-76.18,10.0,0.0,250,10,,10.0,29.84941,1010.8,,,TRUE,,,,,,,CLR,,,,,,,,VFR,,,,,,,,,,,,METAR,2.0
KDYL 171854Z AUTO 29014G25KT 10SM SCT044 07/M04 A2965 RMK AO2 PK WND 28027/1811 SLP044 T00671039,KDYL,2021-01-17T18:54:00Z,40.33,-75.12,6.7,-3.9,290,14,25,10.0,29.648623,1004.4,,TRUE,TRUE,,,,,,,SCT,4400,,,,,,,VFR,,,,,,,,,,,,METAR,121.0
KDSV 171854Z AUTO VRB05KT 10SM OVC041 04/M03 A2958 RMK AO2 SLP030 T00441028,KDSV,2021-01-17T18:54:00Z,42.57,-77.72,4.4,-2.8,0,5,,10.0,29.58071,1003.0,,TRUE,TRUE,,,,,,,OVC,4100,,,,,,,VFR,,,,,,,,,,,,METAR,195.0
KDSM 171854Z 31016KT 10SM SCT016 BKN070 M01/M05 A2982 RMK AO2 SLP107 T10111050,KDSM,2021-01-17T18:54:00Z,41.53,-93.67,-1.1,-5.0,310,16,,10.0,29.819881,1010.7,,,TRUE,,,,,,,SCT,1600,BKN,7000,,,,,VFR,,,,,,,,,,,,METAR,286.0
KDEC 171854Z 26009G17KT 10SM SCT019 BKN031 OVC035 M01/M03 A2975 RMK A02 SNB01E04,KDEC,2021-01-17T18:54:00Z,39.83,-88.87,-1.0,-3.0,260,9,17,10.0,29.749016,,,,TRUE,,,,,,,SCT,1900,BKN,3100,OVC,3500,,,VFR,,,,,,,,,,,,METAR,205.0
KDDH 171854Z AUTO VRB06KT 9SM SCT018 OVC025 01/M03 A2947 RMK AO2 SNE52 SLP986 P0000 T00111028,KDDH,2021-01-17T18:54:00Z,42.9,-73.25,1.1,-2.8,0,6,,9.0,29.471457,998.6,,TRUE,TRUE,,,,,,,SCT,1800,OVC,2500,,,,,MVFR,,,,,,0.005,,,,,,METAR,241.0
KCRW 171854Z 20009KT 9SM -SNDZ OVC015 03/01 A2975 RMK AO2 DZB36 SLP081 P0000 T00280006 $,KCRW,2021-01-17T18:54:00Z,38.38,-81.58,2.8,0.6,200,9,,9.0,29.749016,1008.1,,,TRUE,TRUE,,,,,-SN -DZ,OVC,1500,,,,,,,MVFR,,,,,,0.005,,,,,,METAR,278.0
KCOU 171854Z 28010KT 8SM BKN013 OVC029 01/M02 A2984 RMK AO2 SNE49 SLP111 P0001 T00061022,KCOU,2021-01-17T18:54:00Z,38.82,-92.22,0.6,-2.2,280,10,,8.0,29.840551,1011.1,,,TRUE,,,,,,,BKN,1300,OVC,2900,,,,,MVFR,,,,,,0.01,,,,,,METAR,272.0
KCOS 171854Z 20005KT 10SM SCT100 BKN200 02/M08 A3003 RMK AO2 SLP196 T00171083,KCOS,2021-01-17T18:54:00Z,38.82,-104.68,1.7,-8.3,200,5,,10.0,30.029528,1019.6,,,TRUE,,,,,,,SCT,10000,BKN,20000,,,,,VFR,,,,,,,,,,,,METAR,1886.0
KCEU 171854Z AUTO 26015G22KT 10SM BKN050 08/M04 A2988 RMK AO2 SLP119 T00781044,KCEU,2021-01-17T18:54:00Z,34.67,-82.88,7.8,-4.4,260,15,22,10.0,29.878937,1011.9,,TRUE,TRUE,,,,,,,BKN,5000,,,,,,,VFR,,,,,,,,,,,,METAR,270.0
KCDD 171854Z AUTO 00000KT 10SM OVC007 M08/M08 A2977 RMK AO2,KCDD,2021-01-17T18:54:00Z,48.27,-92.48,-8.0,-8.0,0,0,,10.0,29.769686,,,TRUE,TRUE,,,,,,,OVC,700,,,,,,,IFR,,,,,,,,,,,,METAR,344.0
KBWI 171854Z 26012G20KT 10SM BKN050 08/M03 A2974 RMK AO2 SLP070 T00781028,KBWI,2021-01-17T18:54:00Z,39.17,-76.68,7.8,-2.8,260,12,20,10.0,29.740158,1007.0,,,TRUE,,,,,,,BKN,5000,,,,,,,VFR,,,,,,,,,,,,METAR,42.0
KBUY 171854Z AUTO 20004KT 10SM CLR 10/M05 A2982 RMK AO2 SLP101 T01001050,KBUY,2021-01-17T18:54:00Z,36.05,-79.47,10.0,-5.0,200,4,,10.0,29.819881,1010.1,,TRUE,TRUE,,,,,,,CLR,,,,,,,,VFR,,,,,,,,,,,,METAR,185.0
KBUF 171854Z 25014G25KT 10SM FEW020 BKN043 BKN060 03/M02 A2958 RMK AO2 SLP022 T00331017 $,KBUF,2021-01-17T18:54:00Z,42.93,-78.73,3.3,-1.7,250,14,25,10.0,29.58071,1002.2,,,TRUE,TRUE,,,,,,FEW,2000,BKN,4300,BKN,6000,,,VFR,,,,,,,,,,,,METAR,217.0
KBTV 171854Z 27016G22KT 10SM FEW027 BKN055 OVC075 02/M04 A2938 RMK AO2 SLP952 T00171039,KBTV,2021-01-17T18:54:00Z,44.47,-73.15,1.7,-3.9,270,16,22,10.0,29.379921,995.2,,,TRUE,,,,,,,FEW,2700,BKN,5500,OVC,7500,,,VFR,,,,,,,,,,,,METAR,101.0
KBOS 171854Z 26018G36KT 10SM OVC055 06/M05 A2942 RMK AO2 PK WND 24036/1851 SLP962 T00561050,KBOS,2021-01-17T18:54:00Z,42.37,-71.02,5.6,-5.0,260,18,36,10.0,29.421259,996.2,,,TRUE,,,,,,,OVC,5500,,,,,,,VFR,,,,,,,,,,,,METAR,4.0
KBKB 171854Z AUTO VRB03KT 10SM CLR 17/M02 A3002 RMK AO2 RAB40E42 SLP197 T01671022 PNO,KBKB,2021-01-17T18:54:00Z,31.02,-92.92,16.7,-2.2,0,3,,10.0,30.02067,1019.7,,TRUE,TRUE,,,,,,,CLR,,,,,,,,VFR,,,,,,,,,,,,METAR,74.0
KBFL 171854Z 29007KT 5SM HZ CLR 17/04 A3014 RMK AO2 SLP204 T01720044,KBFL,2021-01-17T18:54:00Z,35.43,-119.05,17.2,4.4,290,7,,5.0,30.138779,1020.4,,,TRUE,,,,,,HZ,CLR,,,,,,,,MVFR,,,,,,,,,,,,METAR,146.0
KAVP 171854Z AUTO 25017G22KT 10SM OVC034 04/M03 A2960 RMK AO2 SLP028 T00391033,KAVP,2021-01-17T18:54:00Z,41.33,-75.72,3.9,-3.3,250,17,22,10.0,29.601377,1002.8,,TRUE,TRUE,,,,,,,OVC,3400,,,,,,,VFR,,,,,,,,,,,,METAR,290.0
KAVL 171854Z 10SM CLR 06/M05 A2980 RMK AO2 SLP099 T00561050,KAVL,2021-01-17T18:54:00Z,35.43,-82.53,5.6,-5.0,,,,10.0,29.799213,1009.9,,,TRUE,,,,,,,CLR,,,,,,,,VFR,,,,,,,,,,,,METAR,646.0
KAUW 171854Z AUTO 33006KT 10SM OVC020 M03/M08 A2968 RMK AO2 SLP070 T10331083,KAUW,2021-01-17T18:54:00Z,44.93,-89.62,-3.3,-8.3,330,6,,10.0,29.681103,1007.0,,TRUE,TRUE,,,,,,,OVC,2000,,,,,,,MVFR,,,,,,,,,,,,METAR,367.0
KAPN 171854Z AUTO 32007KT 10SM OVC018 M01/M05 A2962 RMK AO2 SLP039 T10061050,KAPN,2021-01-17T18:54:00Z,45.07,-83.57,-0.6,-5.0,320,7,,10.0,29.619095,1003.9,,TRUE,TRUE,,,,,,,OVC,1800,,,,,,,MVFR,,,,,,,,,,,,METAR,208.0
KAPC 171854Z 27003KT 10SM CLR 16/08 A3015 RMK AO2 SLP200 T01610083,KAPC,2021-01-17T18:54:00Z,38.2,-122.28,16.1,8.3,270,3,,10.0,30.15059,1020.0,,,TRUE,,,,,,,CLR,,,,,,,,VFR,,,,,,,,,,,,METAR,5.0
KALO 171854Z 35007KT 10SM SCT012 M04/M07 A2977 RMK AO2 SLP094 T10441072,KALO,2021-01-17T18:54:00Z,42.55,-92.4,-4.4,-7.2,350,7,,10.0,29.769686,1009.4,,,TRUE,,,,,,,SCT,1200,,,,,,,VFR,,,,,,,,,,,,METAR,264.0
KAKR 171854Z AUTO 24008KT 8SM SCT018 OVC027 03/M02 A2966 RMK AO2 SLP050 T00331017,KAKR,2021-01-17T18:54:00Z,41.03,-81.47,3.3,-1.7,240,8,,8.0,29.660433,1005.0,,TRUE,TRUE,,,,,,,SCT,1800,OVC,2700,,,,,MVFR,,,,,,,,,,,,METAR,319.0
KAKQ 171854Z AUTO 27009KT 10SM CLR 09/M02 A2983 RMK AO2 SLP101 T00941017 $,KAKQ,2021-01-17T18:54:00Z,36.98,-77.0,9.4,-1.7,270,9,,10.0,29.828741,1010.1,,TRUE,TRUE,TRUE,,,,,,CLR,,,,,,,,VFR,,,,,,,,,,,,METAR,34.0
KAKH 171854Z AUTO VRB06KT 10SM BKN046 08/M04 A2987 RMK AO2 SLP118 T00831044,KAKH,2021-01-17T18:54:00Z,35.2,-81.15,8.3,-4.4,0,6,,10.0,29.870079,1011.8,,TRUE,TRUE,,,,,,,BKN,4600,,,,,,,VFR,,,,,,,,,,,,METAR,242.0
KACY 171854Z 27012G21KT 10SM OVC050 08/M03 A2971 RMK AO2 SLP059 T00781033,KACY,2021-01-17T18:54:00Z,39.45,-74.57,7.8,-3.3,270,12,21,10.0,29.71063,1005.9,,,TRUE,,,,,,,OVC,5000,,,,,,,VFR,,,,,,,,,,,,METAR,18.0
KAAO 171854Z AUTO 33018G27KT 10SM CLR 09/M06 A3000 RMK AO2 PK WND 32027/1838 SLP166 T00891056,KAAO,2021-01-17T18:54:00Z,37.75,-97.22,8.9,-5.6,330,18,27,10.0,30.0,1016.6,,TRUE,TRUE,,,,,,,CLR,,,,,,,,VFR,,,,,,,,,,,,METAR,429.0
K1V4 171854Z AUTO 01/M02 A2929 RMK AO1 SLP928 P0001 T00111022,K1V4,2021-01-17T18:54:00Z,44.42,-72.02,1.1,-2.2,,,,,29.291338,992.8,,TRUE,TRUE,,,,,,,,,,,,,,,,,,,,,0.01,,,,,,METAR,213.0
K12N 171854Z AUTO 25007KT 170V300 05/M04 A2961 RMK AO1 SLP033 T00501039,K12N,2021-01-17T18:54:00Z,41.02,-74.73,5.0,-3.9,250,7,,,29.610237,1003.3,,TRUE,TRUE,,,,,,,,,,,,,,,,,,,,,,,,,,,METAR,178.0
TJNR 171853Z AUTO 05008KT 10SM BKN070 28/22 A2998 RMK AO2 SLP151 T02780217,TJNR,2021-01-17T18:53:00Z,18.25,-65.63,27.8,21.7,50,8,,10.0,29.97933,1015.1,,TRUE,TRUE,,,,,,,BKN,7000,,,,,,,VFR,,,,,,,,,,,,METAR,7.0
TISX 171853Z AUTO 11009KT 10SM FEW022 SCT027 SCT050 28/22 A2996 RMK AO2 SLP144 T02830217,TISX,2021-01-17T18:53:00Z,17.7,-64.8,28.3,21.7,110,9,,10.0,29.958662,1014.4,,TRUE,TRUE,,,,,,,FEW,2200,SCT,2700,SCT,5000,,,VFR,,,,,,,,,,,,METAR,16.0
TIST 171853Z 07010KT 10SM SCT025 BKN036 OVC060 27/21 A2995 RMK AO2 SLP143 T02720211,TIST,2021-01-17T18:53:00Z,18.33,-64.98,27.2,21.1,70,10,,10.0,29.949802,1014.3,,,TRUE,,,,,,,SCT,2500,BKN,3600,OVC,6000,,,VFR,,,,,,,,,,,,METAR,5.0
PHTO 171853Z 20004KT 10SM OVC060 23/16 A3004 RMK AO2 SLP171 T02330161,PHTO,2021-01-17T18:53:00Z,19.72,-155.05,23.3,16.1,200,4,,10.0,30.041338,1017.1,,,TRUE,,,,,,,OVC,6000,,,,,,,VFR,,,,,,,,,,,,METAR,9.0
PHNL 171853Z VRB04KT 10SM FEW019 SCT028 BKN033 23/20 A3003 RMK AO2 RAE16 SLP167 P0008 T02280200 $,PHNL,2021-01-17T18:53:00Z,21.33,-157.93,22.8,20.0,0,4,,10.0,30.029528,1016.7,,,TRUE,TRUE,,,,,,FEW,1900,SCT,2800,BKN,3300,,,VFR,,,,,,0.08,,,,,,METAR,2.0
PHLI 171853Z 23012KT 10SM FEW090 24/22 A3000 RMK AO2 SLP155 T02440217,PHLI,2021-01-17T18:53:00Z,21.97,-159.33,24.4,21.7,230,12,,10.0,30.0,1015.5,,,TRUE,,,,,,,FEW,9000,,,,,,,VFR,,,,,,,,,,,,METAR,32.0
PHKO 171853Z 13008KT 10SM FEW030 FEW060 26/19 A3002 RMK AO2 SLP163 T02610189,PHKO,2021-01-17T18:53:00Z,19.73,-156.05,26.1,18.9,130,8,,10.0,30.02067,1016.3,,,TRUE,,,,,,,FEW,3000,FEW,6000,,,,,VFR,,,,,,,,,,,,METAR,11.0
PHJR 171853Z 21015G21KT 10SM -RA OVC055 23/21 A3004 RMK AO2 RAB1758 SLP178 P0000 T02280206,PHJR,2021-01-17T18:53:00Z,21.32,-158.07,22.8,20.6,210,15,21,10.0,30.041338,1017.8,,,TRUE,,,,,,-RA,OVC,5500,,,,,,,VFR,,,,,,0.005,,,,,,SPECI,9.0
PAWD 171853Z AUTO 31003KT 6SM -RA BR FEW009 BKN019 OVC024 02/01 A2952 RMK AO2 SLP995 P0020 T00170006 TSNO,PAWD,2021-01-17T18:53:00Z,60.12,-149.42,1.7,0.6,310,3,,6.0,29.518702,999.5,,TRUE,TRUE,,,TRUE,,,-RA BR,FEW,900,BKN,1900,OVC,2400,,,MVFR,,,,,,0.2,,,,,,METAR,3.0
PAVL 171853Z AUTO 03016KT 8SM OVC046 M12/M16 A2959 RMK AO2 SLP022 T11221156 TSNO,PAVL,2021-01-17T18:53:00Z,67.73,-164.55,-12.2,-15.6,30,16,,8.0,29.589567,1002.2,,TRUE,TRUE,,,TRUE,,,,OVC,4600,,,,,,,VFR,,,,,,,,,,,,METAR,6.0
PATK 171853Z VRB05KT 10SM SCT050 BKN090 01/M02 A2951 RMK AO2 SLP997 T00061017,PATK,2021-01-17T18:53:00Z,62.32,-150.1,0.6,-1.7,0,5,,10.0,29.509842,999.7,,,TRUE,,,,,,,SCT,5000,BKN,9000,,,,,VFR,,,,,,,,,,,,METAR,107.0
PASO 171853Z AUTO VRB04KT 10SM -RA OVC038 04/03 A2944 RMK AO2 SLP970 P0002 T00390028 TSNO,PASO,2021-01-17T18:53:00Z,59.45,-151.7,3.9,2.8,0,4,,10.0,29.438976,997.0,,TRUE,TRUE,,,TRUE,,,-RA,OVC,3800,,,,,,,VFR,,,,,,0.02,,,,,,METAR,20.0
PASI 171853Z 20008KT 8SM FEW022 BKN038 BKN085 07/03 A3007 RMK AO2 RAB20E29 SLP184 P0000 T00670033,PASI,2021-01-17T18:53:00Z,57.03,-135.35,6.7,3.3,200,8,,8.0,30.070866,1018.4,,,TRUE,,,,,,,FEW,2200,BKN,3800,BKN,8500,,,VFR,,,,,,0.005,,,,,,METAR,2.0
PASC 171853Z 05006KT 4SM BR BKN016 M23/M26 A2985 RMK AO2 SLP112 T12281256 $,PASC,2021-01-17T18:53:00Z,70.2,-148.47,-22.8,-25.6,50,6,,4.0,29.84941,1011.2,,,TRUE,TRUE,,,,,BR,BKN,1600,,,,,,,MVFR,,,,,,,,,,,,METAR,17.0
PAQT 171853Z 05006KT 4SM BR FEW004 OVC010 M24/M26 A2989 RMK (SCC FSS),PAQT,2021-01-17T18:53:00Z,70.22,-151.0,-24.0,-26.0,50,6,,4.0,29.890747,,,,,,,,,,BR,FEW,400,OVC,1000,,,,,MVFR,,,,,,,,,,,,METAR,11.0
PAPB 171853Z AUTO 35015KT 9SM -SN SCT033 OVC042 M04/M09 A2982 RMK AO2 PK WND 34030/1758 SNB49 SLP085 P0000 T10391094 TSNO,PAPB,2021-01-17T18:53:00Z,56.58,-169.67,-3.9,-9.4,350,15,,9.0,29.819881,1008.5,,TRUE,TRUE,,,TRUE,,,-SN,SCT,3300,OVC,4200,,,,,VFR,,,,,,0.005,,,,,,METAR,33.0
PAOT 171853Z 00000KT 4SM -SN BR SCT042 OVC060 M12/M13 A2956 RMK AO2 SLP010 P0001 T11171128,PAOT,2021-01-17T18:53:00Z,66.88,-162.6,-11.7,-12.8,0,0,,4.0,29.56004,1001.0,,,TRUE,,,,,,-SN BR,SCT,4200,OVC,6000,,,,,MVFR,,,,,,0.01,,,,,,METAR,3.0
PAOR 171853Z 00000KT 10SM FEW120 BKN140 BKN160 M19/M22 A2960 RMK AO2 SLP091 T11891222,PAOR,2021-01-17T18:53:00Z,62.97,-141.93,-18.9,-22.2,0,0,,10.0,29.601377,1009.1,,,TRUE,,,,,,,FEW,12000,BKN,14000,BKN,16000,,,VFR,,,,,,,,,,,,METAR,524.0
PAOM 171853Z VRB03KT 10SM CLR M15/M19 A2955 RMK AO2 SLP006 T11501189 $,PAOM,2021-01-17T18:53:00Z,64.5,-165.43,-15.0,-18.9,0,3,,10.0,29.551182,1000.6,,,TRUE,TRUE,,,,,,CLR,,,,,,,,VFR,,,,,,,,,,,,METAR,6.0
PANN 171853Z AUTO 00000KT 10SM BKN080 M16/M18 A2949 RMK AO2 SLP999 T11561183 TSNO,PANN,2021-01-17T18:53:00Z,64.55,-149.08,-15.6,-18.3,0,0,,10.0,29.489174,999.9,,TRUE,TRUE,,,TRUE,,,,BKN,8000,,,,,,,VFR,,,,,,,,,,,,METAR,110.0
PANC 171853Z 00000KT 10SM FEW055 BKN065 BKN100 M01/M04 A2948 RMK AO2 SLP985 P0000 T10061044,PANC,2021-01-17T18:53:00Z,61.17,-150.02,-0.6,-4.4,0,0,,10.0,29.480314,998.5,,,TRUE,,,,,,,FEW,5500,BKN,6500,BKN,10000,,,VFR,,,,,,0.005,,,,,,METAR,39.0
PAMR 171853Z 00000KT 10SM OVC095 M01/M06 A2948 RMK AO2 SLP985 T10111056 $,PAMR,2021-01-17T18:53:00Z,61.22,-149.85,-1.1,-5.6,0,0,,10.0,29.480314,998.5,,,TRUE,TRUE,,,,,,OVC,9500,,,,,,,VFR,,,,,,,,,,,,METAR,43.0
PALH 171853Z 00000KT 10SM FEW070 BKN095 OVC110 M01/M04 A2950 RMK AO2 UPB15E29 SLP989 P0000 T10111039,PALH,2021-01-17T18:53:00Z,61.18,-149.97,-1.1,-3.9,0,0,,10.0,29.500984,998.9,,,TRUE,,,,,,,FEW,7000,BKN,9500,OVC,11000,,,VFR,,,,,,0.005,,,,,,METAR,26.0
PAKT 171853Z 15005KT 10SM -RA FEW025 SCT046 BKN065 06/05 A3024 RMK AO2 RAB49 PRESRR SLP241 HARBOR WIND 08005KT P0000 T00610050,PAKT,2021-01-17T18:53:00Z,55.35,-131.72,6.1,5.0,150,5,,10.0,30.239174,1024.1,,,TRUE,,,,,,-RA,FEW,2500,SCT,4600,BKN,6500,,,VFR,,,,,,0.005,,,,,,METAR,27.0
PAJN 171853Z 10006KT 10SM FEW007 BKN035 BKN070 BKN180 06/04 A3001 RMK AO2 RAE1758 SLP162 P0000 T00610039,PAJN,2021-01-17T18:53:00Z,58.35,-134.55,6.1,3.9,100,6,,10.0,30.008858,1016.2,,,TRUE,,,,,,,FEW,700,BKN,3500,BKN,7000,BKN,18000,VFR,,,,,,0.005,,,,,,METAR,6.0
PAHO 171853Z 00000KT 10SM OVC041 02/01 A2945 RMK AO2 SLP973 T00220011,PAHO,2021-01-17T18:53:00Z,59.63,-151.48,2.2,1.1,0,0,,10.0,29.450787,997.3,,,TRUE,,,,,,,OVC,4100,,,,,,,VFR,,,,,,,,,,,,METAR,6.0
PAGK 171853Z AUTO 00000KT 10SM SCT080 M18/M20 A2960 RMK AO2 SLP080 T11781200 TSNO,PAGK,2021-01-17T18:53:00Z,62.15,-145.45,-17.8,-20.0,0,0,,10.0,29.601377,1008.0,,TRUE,TRUE,,,TRUE,,,,SCT,8000,,,,,,,VFR,,,,,,,,,,,,METAR,481.0
PAFA 171853Z 00000KT 10SM FEW050 SCT110 BKN190 M14/M17 A2950 RMK AO2 SLP003 T11391167,PAFA,2021-01-17T18:53:00Z,64.8,-147.87,-13.9,-16.7,0,0,,10.0,29.500984,1000.3,,,TRUE,,,,,,,FEW,5000,SCT,11000,BKN,19000,,,VFR,,,,,,,,,,,,METAR,130.0
PAEN 171853Z 02007KT 10SM SCT075 OVC100 02/M01 A2947 RMK AO2 SLP981 T00171011,PAEN,2021-01-17T18:53:00Z,60.57,-151.25,1.7,-1.1,20,7,,10.0,29.471457,998.1,,,TRUE,,,,,,,SCT,7500,OVC,10000,,,,,VFR,,,,,,,,,,,,METAR,30.0
PAEG 171853Z AUTO 00000KT 10SM OVC090 M12/M15 A2958 RMK AO2 SLP041 T11221150 TSNO,PAEG,2021-01-17T18:53:00Z,64.78,-141.15,-12.2,-15.0,0,0,,10.0,29.58071,1004.1,,TRUE,TRUE,,,TRUE,,,,OVC,9000,,,,,,,VFR,,,,,,,,,,,,METAR,273.0
PADQ 171853Z 17010KT 10SM BKN027 BKN033 02/M01 A2944 RMK AO2 RAB18E27 SLP971 P0000 T00221006 $,PADQ,2021-01-17T18:53:00Z,57.75,-152.5,2.2,-0.6,170,10,,10.0,29.438976,997.1,,,TRUE,TRUE,,,,,,BKN,2700,BKN,3300,,,,,MVFR,,,,,,0.005,,,,,,METAR,5.0
PACV 171853Z 08006KT 10SM -RA SCT024 OVC030 04/02 A2965 RMK AO2 RAB23E33B48 SLP039 P0000 T00440017,PACV,2021-01-17T18:53:00Z,60.5,-145.47,4.4,1.7,80,6,,10.0,29.648623,1003.9,,,TRUE,,,,,,-RA,SCT,2400,OVC,3000,,,,,MVFR,,,,,,0.005,,,,,,METAR,15.0
PABT 171853Z 00000KT 10SM SCT110 BKN160 M13/M17 A2954 RMK AO2 SLP026 T11281167 PNO,PABT,2021-01-17T18:53:00Z,66.92,-151.52,-12.8,-16.7,0,0,,10.0,29.53937,1002.6,,,TRUE,,,,,,,SCT,11000,BKN,16000,,,,,VFR,,,,,,,,,,,,METAR,195.0
PABR 171853Z 08015KT 5SM HZ OVC030 M19/M22 A2992 RMK AO2 SLP133 T11891222,PABR,2021-01-17T18:53:00Z,71.28,-156.78,-18.9,-22.2,80,15,,5.0,29.920275,1013.3,,,TRUE,,,,,,HZ,OVC,3000,,,,,,,MVFR,,,,,,,,,,,,METAR,6.0
PABI 171853Z 11019KT 10SM SCT120 OVC140 M06/M11 A2948 RMK AO2 SLP012 T10561106 $,PABI,2021-01-17T18:53:00Z,64.0,-145.72,-5.6,-10.6,110,19,,10.0,29.480314,1001.2,,,TRUE,TRUE,,,,,,SCT,12000,OVC,14000,,,,,VFR,,,,,,,,,,,,METAR,388.0
PABE 171853Z 33014KT 9SM -SN OVC031 M10/M11 A2946 RMK AO2 SLP978 P0001 T11001111,PABE,2021-01-17T18:53:00Z,60.78,-161.83,-10.0,-11.1,330,14,,9.0,29.459646,997.8,,,TRUE,,,,,,-SN,OVC,3100,,,,,,,VFR,,,,,,0.01,,,,,,METAR,28.0
PAAQ 171853Z 36009KT 10SM BKN080 BKN110 01/M05 A2948 RMK AO2 SLP987 T00111050,PAAQ,2021-01-17T18:53:00Z,61.6,-149.08,1.1,-5.0,360,9,,10.0,29.480314,998.7,,,TRUE,,,,,,,BKN,8000,BKN,11000,,,,,VFR,,,,,,,,,,,,METAR,68.0
KZZV 171853Z AUTO 23004KT 10SM SCT011 OVC024 02/00 A2971 RMK AO2 SNB1755E46 SLP067 P0000 T00170000,KZZV,2021-01-17T18:53:00Z,39.95,-81.9,1.7,0.0,230,4,,10.0,29.71063,1006.7,,TRUE,TRUE,,,,,,,SCT,1100,OVC,2400,,,,,MVFR,,,,,,0.005,,,,,,METAR,268.0
KYIP 171853Z 24008KT 10SM FEW010 BKN019 OVC042 04/M01 A2964 RMK AO2 RAB1755E14SNB14E45 SLP041 P0000 T00391006,KYIP,2021-01-17T18:53:00Z,42.23,-83.53,3.9,-0.6,240,8,,10.0,29.639763,1004.1,,,TRUE,,,,,,,FEW,1000,BKN,1900,OVC,4200,,,MVFR,,,,,,0.005,,,,,,METAR,215.0
KXNA 171853Z 27012G21KT 10SM CLR 08/M04 A2995 RMK AO2 SLP145 T00781039,KXNA,2021-01-17T18:53:00Z,36.28,-94.3,7.8,-3.9,270,12,21,10.0,29.949802,1014.5,,,TRUE,,,,,,,CLR,,,,,,,,VFR,,,,,,,,,,,,METAR,390.0
KWVI 171853Z AUTO 00000KT 10SM CLR 19/09 A3013 RMK AO2 SLP203 T01940089,KWVI,2021-01-17T18:53:00Z,36.93,-121.78,19.4,8.9,0,0,,10.0,30.129921,1020.3,,TRUE,TRUE,,,,,,,CLR,,,,,,,,VFR,,,,,,,,,,,,METAR,47.0
KWST 171853Z AUTO 24014G27KT 10SM SCT050 05/M03 A2952 RMK AO2 PK WND 23030/1833 SLP998 T00501028,KWST,2021-01-17T18:53:00Z,41.35,-71.8,5.0,-2.8,240,14,27,10.0,29.518702,999.8,,TRUE,TRUE,,,,,,,SCT,5000,,,,,,,VFR,,,,,,,,,,,,METAR,20.0
KWRL 171853Z AUTO 00000KT 10SM CLR 03/M06 A2996 RMK AO2 SLP179 T00281056,KWRL,2021-01-17T18:53:00Z,43.97,-107.95,2.8,-5.6,0,0,,10.0,29.958662,1017.9,,TRUE,TRUE,,,,,,,CLR,,,,,,,,VFR,,,,,,,,,,,,METAR,1281.0
KVRB 171853Z 08006KT 10SM OVC049 17/08 A3002 RMK AO2 SLP166 T01670078,KVRB,2021-01-17T18:53:00Z,27.65,-80.42,16.7,7.8,80,6,,10.0,30.02067,1016.6,,,TRUE,,,,,,,OVC,4900,,,,,,,VFR,,,,,,,,,,,,METAR,7.0
KVPC 171853Z AUTO VRB03KT 10SM SCT048 BKN080 11/M02 A2990 RMK AO2 SLP121 T01061017 $,KVPC,2021-01-17T18:53:00Z,34.1,-84.85,10.6,-1.7,0,3,,10.0,29.899607,1012.1,,TRUE,TRUE,TRUE,,,,,,SCT,4800,BKN,8000,,,,,VFR,,,,,,,,,,,,METAR,234.0
KVLD 171853Z VRB03KT 10SM CLR 13/M01 A3001 RMK AO2 SLP170 T01331011,KVLD,2021-01-17T18:53:00Z,30.78,-83.27,13.3,-1.1,0,3,,10.0,30.008858,1017.0,,,TRUE,,,,,,,CLR,,,,,,,,VFR,,,,,,,,,,,,METAR,59.0
KVIH 171853Z AUTO 29008KT 10SM SCT029 BKN036 OVC043 02/M04 A2984 RMK AO2 SLP113 T00171044,KVIH,2021-01-17T18:53:00Z,38.13,-91.77,1.7,-4.4,290,8,,10.0,29.840551,1011.3,,TRUE,TRUE,,,,,,,SCT,2900,BKN,3600,OVC,4300,,,VFR,,,,,,,,,,,,METAR,342.0
KVGT 171853Z 00000KT 10SM CLR 17/M06 A3016 RMK AO2 SLP227 T01671056,KVGT,2021-01-17T18:53:00Z,36.22,-115.2,16.7,-5.6,0,0,,10.0,30.159449,1022.7,,,TRUE,,,,,,,CLR,,,,,,,,VFR,,,,,,,,,,,,METAR,664.0
KVEL 171853Z AUTO 00000KT 10SM CLR M01/M07 A3019 RMK AO2 SLP257 T10061067,KVEL,2021-01-17T18:53:00Z,40.45,-109.52,-0.6,-6.7,0,0,,10.0,30.188976,1025.7,,TRUE,TRUE,,,,,,,CLR,,,,,,,,VFR,,,,,,,,,,,,METAR,1604.0
KVCB 171853Z AUTO 01008KT 10SM CLR 20/04 A3015 RMK AO2 SLP210 T02000039,KVCB,2021-01-17T18:53:00Z,38.38,-121.95,20.0,3.9,10,8,,10.0,30.15059,1021.0,,TRUE,TRUE,,,,,,,CLR,,,,,,,,VFR,,,,,,,,,,,,METAR,30.0
KUUU 171853Z AUTO 26011G21KT 10SM SCT050 07/M04 A2949 RMK AO2 SLP988 T00671039,KUUU,2021-01-17T18:53:00Z,41.53,-71.28,6.7,-3.9,260,11,21,10.0,29.489174,998.8,,TRUE,TRUE,,,,,,,SCT,5000,,,,,,,VFR,,,,,,,,,,,,METAR,45.0
KUTS 171853Z AUTO 34006KT 10SM CLR 17/00 A3009 RMK AO2 SLP189 T01720000,KUTS,2021-01-17T18:53:00Z,30.75,-95.58,17.2,0.0,340,6,,10.0,30.088583,1018.9,,TRUE,TRUE,,,,,,,CLR,,,,,,,,VFR,,,,,,,,,,,,METAR,103.0
KUNV 171853Z 26012KT 10SM BKN025 OVC031 02/M02 A2966,KUNV,2021-01-17T18:53:00Z,40.85,-77.83,2.0,-2.0,260,12,,10.0,29.660433,,,,,,,,,,,BKN,2500,OVC,3100,,,,,MVFR,,,,,,,,,,,,METAR,365.0
KUNO 171853Z AUTO 28011G18KT 10SM SCT065 BKN120 07/M04 A2986 RMK AO2 SLP117 T00721044,KUNO,2021-01-17T18:53:00Z,36.88,-91.9,7.2,-4.4,280,11,18,10.0,29.861221,1011.7,,TRUE,TRUE,,,,,,,SCT,6500,BKN,12000,,,,,VFR,,,,,,,,,,,,METAR,376.0
KUIL 171853Z AUTO 33005KT 6SM BR SCT013 OVC027 09/07 A3049 RMK AO2 RAB02E12 SLP327 P0000 T00940072,KUIL,2021-01-17T18:53:00Z,47.93,-124.55,9.4,7.2,330,5,,6.0,30.490158,1032.7,,TRUE,TRUE,,,,,,BR,SCT,1300,OVC,2700,,,,,MVFR,,,,,,0.005,,,,,,METAR,58.0
KUAO 171853Z 00000KT 9SM OVC005 08/07 A3051 RMK AO2 SLP333 T00830072,KUAO,2021-01-17T18:53:00Z,45.25,-122.77,8.3,7.2,0,0,,9.0,30.510826,1033.3,,,TRUE,,,,,,,OVC,500,,,,,,,IFR,,,,,,,,,,,,METAR,60.0
KTYS 171853Z 23012KT 10SM SCT043 BKN050 OVC060 07/M01 A2982 RMK AO2 SLP101 T00671011,KTYS,2021-01-17T18:53:00Z,35.82,-83.98,6.7,-1.1,230,12,,10.0,29.819881,1010.1,,,TRUE,,,,,,,SCT,4300,BKN,5000,OVC,6000,,,VFR,,,,,,,,,,,,METAR,300.0
KTYR 171853Z 36011G18KT 10SM FEW120 14/M05 A3010 RMK AO2 SLP190 T01391050,KTYR,2021-01-17T18:53:00Z,32.37,-95.4,13.9,-5.0,360,11,18,10.0,30.100393,1019.0,,,TRUE,,,,,,,FEW,12000,,,,,,,VFR,,,,,,,,,,,,METAR,161.0
KTXK 171853Z 30010KT 10SM CLR 13/M05 A3004 RMK AO2 SLP172 T01281050,KTXK,2021-01-17T18:53:00Z,33.45,-93.98,12.8,-5.0,300,10,,10.0,30.041338,1017.2,,,TRUE,,,,,,,CLR,,,,,,,,VFR,,,,,,,,,,,,METAR,118.0
KTWF 171853Z 27012KT 10SM CLR 08/00 A3026 RMK AO2 SLP245 T00780000,KTWF,2021-01-17T18:53:00Z,42.48,-114.48,7.8,0.0,270,12,,10.0,30.259842,1024.5,,,TRUE,,,,,,,CLR,,,,,,,,VFR,,,,,,,,,,,,METAR,1269.0
KTVR 171853Z AUTO 26008G16KT 10SM CLR 17/M02 A3000 RMK AO2 SLP165 T01721017,KTVR,2021-01-17T18:53:00Z,32.35,-91.03,17.2,-1.7,260,8,16,10.0,30.0,1016.5,,TRUE,TRUE,,,,,,,CLR,,,,,,,,VFR,,,,,,,,,,,,METAR,25.0
KTVL 171853Z AUTO 00000KT 10SM CLR 08/M01 A3037 RMK AO2 SLP274 T00831011,KTVL,2021-01-17T18:53:00Z,38.9,-120.0,8.3,-1.1,0,0,,10.0,30.369095,1027.4,,TRUE,TRUE,,,,,,,CLR,,,,,,,,VFR,,,,,,,,,,,,METAR,1907.0
KTVC 171853Z 36005KT 10SM SCT012 OVC022 01/M03 A2962 RMK AO2 SNE49 SLP039 P0000 T00061033,KTVC,2021-01-17T18:53:00Z,44.73,-85.58,0.6,-3.3,360,5,,10.0,29.619095,1003.9,,,TRUE,,,,,,,SCT,1200,OVC,2200,,,,,MVFR,,,,,,0.005,,,,,,METAR,188.0
KTUS 171853Z 17004KT 10SM CLR 22/M14 A3011 RMK AO2 SLP170 T02171139,KTUS,2021-01-17T18:53:00Z,32.13,-110.95,21.7,-13.9,170,4,,10.0,30.109253,1017.0,,,TRUE,,,,,,,CLR,,,,,,,,VFR,,,,,,,,,,,,METAR,776.0
KTUP 171853Z 24013G19KT 10SM CLR 13/M05 A2990 RMK AO2 SLP124 T01281050 $,KTUP,2021-01-17T18:53:00Z,34.27,-88.77,12.8,-5.0,240,13,19,10.0,29.899607,1012.4,,,TRUE,TRUE,,,,,,CLR,,,,,,,,VFR,,,,,,,,,,,,METAR,107.0
KTUL 171853Z 30018G24KT 10SM FEW060 11/M04 A3000 RMK AO2 SLP160 T01111039,KTUL,2021-01-17T18:53:00Z,36.2,-95.88,11.1,-3.9,300,18,24,10.0,30.0,1016.0,,,TRUE,,,,,,,FEW,6000,,,,,,,VFR,,,,,,,,,,,,METAR,196.0
KTTN 171853Z 27014G21KT 10SM OVC045 06/M03 A2965 RMK AO2 SLP036 T00611033,KTTN,2021-01-17T18:53:00Z,40.28,-74.82,6.1,-3.3,270,14,21,10.0,29.648623,1003.6,,,TRUE,,,,,,,OVC,4500,,,,,,,VFR,,,,,,,,,,,,METAR,58.0
KTTD 171853Z 00000KT 10SM OVC008 09/08 A3051 RMK AO2 CIG 003V008 SLP330 T00890078,KTTD,2021-01-17T18:53:00Z,45.55,-122.42,8.9,7.8,0,0,,10.0,30.510826,1033.0,,,TRUE,,,,,,,OVC,800,,,,,,,IFR,,,,,,,,,,,,METAR,8.0
KTRL 171853Z AUTO 32010G18KT 10SM OVC090 12/M04 A3013 RMK AO2 SLP202 T01221044,KTRL,2021-01-17T18:53:00Z,32.72,-96.27,12.2,-4.4,320,10,18,10.0,30.129921,1020.2,,TRUE,TRUE,,,,,,,OVC,9000,,,,,,,VFR,,,,,,,,,,,,METAR,144.0
KTRI 171853Z 21009KT 10SM BKN035 OVC044 04/M02 A2981 RMK AO2 SLP090 T00441017,KTRI,2021-01-17T18:53:00Z,36.48,-82.4,4.4,-1.7,210,9,,10.0,29.811024,1009.0,,,TRUE,,,,,,,BKN,3500,OVC,4400,,,,,VFR,,,,,,,,,,,,METAR,456.0
KTPA 171853Z 19005KT 10SM SCT060 BKN140 OVC260 16/08 A3003 RMK AO2 SLP170 T01560083,KTPA,2021-01-17T18:53:00Z,27.97,-82.53,15.6,8.3,190,5,,10.0,30.029528,1017.0,,,TRUE,,,,,,,SCT,6000,BKN,14000,OVC,26000,,,VFR,,,,,,,,,,,,METAR,2.0
KTOR 171853Z AUTO 28009KT FEW085 FEW110 06/M08 A2995 RMK AO2 SLP164 T00561078,KTOR,2021-01-17T18:53:00Z,42.07,-104.15,5.6,-7.8,280,9,,,29.949802,1016.4,,TRUE,TRUE,,,,,,,FEW,8500,FEW,11000,,,,,,,,,,,,,,,,,METAR,1285.0
KTOP 171853Z 31013G24KT 10SM FEW100 07/M03 A2992 RMK AO2 PK WND 27028/1758 SLP137 T00671033,KTOP,2021-01-17T18:53:00Z,39.07,-95.63,6.7,-3.3,310,13,24,10.0,29.920275,1013.7,,,TRUE,,,,,,,FEW,10000,,,,,,,VFR,,,,,,,,,,,,METAR,268.0
KTOI 171853Z AUTO 19007KT 10SM CLR 13/M02 A2999 RMK AO2 SLP155 T01281022,KTOI,2021-01-17T18:53:00Z,31.85,-86.02,12.8,-2.2,190,7,,10.0,29.991142,1015.5,,TRUE,TRUE,,,,,,,CLR,,,,,,,,VFR,,,,,,,,,,,,METAR,120.0
KTMB 171853Z 28006KT 10SM CLR 20/08 A3004 RMK AO2 SLP171 T02000083,KTMB,2021-01-17T18:53:00Z,25.65,-80.43,20.0,8.3,280,6,,10.0,30.041338,1017.1,,,TRUE,,,,,,,CLR,,,,,,,,VFR,,,,,,,,,,,,METAR,2.0
KTLH 171853Z 27009KT 10SM BKN250 13/M02 A3002 RMK AO2 SLP165 T01281022,KTLH,2021-01-17T18:53:00Z,30.4,-84.35,12.8,-2.2,270,9,,10.0,30.02067,1016.5,,,TRUE,,,,,,,BKN,25000,,,,,,,VFR,,,,,,,,,,,,METAR,17.0
KTKI 171853Z 29008KT 10SM OVC100 12/M04 A3012 RMK AO2 SLP210 T01171039,KTKI,2021-01-17T18:53:00Z,33.18,-96.58,11.7,-3.9,290,8,,10.0,30.121063,1021.0,,,TRUE,,,,,,,OVC,10000,,,,,,,VFR,,,,,,,,,,,,METAR,173.0
KTIW 171853Z 20004KT 10SM BKN004 BKN008 OVC012 07/06 A3047 RMK AO2 SLP321 T00720061,KTIW,2021-01-17T18:53:00Z,47.27,-122.58,7.2,6.1,200,4,,10.0,30.469488,1032.1,,,TRUE,,,,,,,BKN,400,BKN,800,OVC,1200,,,LIFR,,,,,,,,,,,,METAR,89.0
KTHV 171853Z AUTO 29009G15KT 10SM BKN044 06/M03 A2970 RMK AO2 SLP061 T00561028,KTHV,2021-01-17T18:53:00Z,39.92,-76.88,5.6,-2.8,290,9,15,10.0,29.698818,1006.1,,TRUE,TRUE,,,,,,,BKN,4400,,,,,,,VFR,,,,,,,,,,,,METAR,141.0
KTDZ 171853Z AUTO 25009KT 10SM SCT017 SCT022 OVC041 03/M01 A2968 RMK AO2 SLP053 T00281011 $,KTDZ,2021-01-17T18:53:00Z,41.57,-83.48,2.8,-1.1,250,9,,10.0,29.681103,1005.3,,TRUE,TRUE,TRUE,,,,,,SCT,1700,SCT,2200,OVC,4100,,,VFR,,,,,,,,,,,,METAR,189.0
KTCS 171853Z AUTO 00000KT 10SM CLR 13/M12 A3015 RMK AO2 SLP180 T01281117,KTCS,2021-01-17T18:53:00Z,33.23,-107.27,12.8,-11.7,0,0,,10.0,30.15059,1018.0,,TRUE,TRUE,,,,,,,CLR,,,,,,,,VFR,,,,,,,,,,,,METAR,1471.0
KTCL 171853Z 24011G16KT 10SM CLR 13/M02 A2994 RMK AO2 SLP138 T01331022,KTCL,2021-01-17T18:53:00Z,33.22,-87.62,13.3,-2.2,240,11,16,10.0,29.940945,1013.8,,,TRUE,,,,,,,CLR,,,,,,,,VFR,,,,,,,,,,,,METAR,48.0
KTCC 171853Z AUTO 17003KT 10SM CLR 06/M06 A3011 RMK AO2 SLP204 T00561056,KTCC,2021-01-17T18:53:00Z,35.18,-103.6,5.6,-5.6,170,3,,10.0,30.109253,1020.4,,TRUE,TRUE,,,,,,,CLR,,,,,,,,VFR,,,,,,,,,,,,METAR,1233.0
KSWO 171853Z 32018G23KT 10SM CLR 12/M06 A3003 RMK AO2 PK WND 32029/1815 SLP169 T01171056,KSWO,2021-01-17T18:53:00Z,36.17,-97.08,11.7,-5.6,320,18,23,10.0,30.029528,1016.9,,,TRUE,,,,,,,CLR,,,,,,,,VFR,,,,,,,,,,,,METAR,293.0
KSTS 171853Z 00000KT 10SM CLR 16/10 A3014 RMK AO2 SLP201 T01610100,KSTS,2021-01-17T18:53:00Z,38.5,-122.82,16.1,10.0,0,0,,10.0,30.138779,1020.1,,,TRUE,,,,,,,CLR,,,,,,,,VFR,,,,,,,,,,,,METAR,35.0
KSTP 171853Z 29004KT 10SM OVC008 M06/M08 A2980 RMK AO2 SLP100 T10561078,KSTP,2021-01-17T18:53:00Z,44.93,-93.05,-5.6,-7.8,290,4,,10.0,29.799213,1010.0,,,TRUE,,,,,,,OVC,800,,,,,,,IFR,,,,,,,,,,,,METAR,213.0
KSTJ 171853Z 32015G25KT 10SM BKN070 04/M03 A2989 RMK AO2 SLP127 T00441028,KSTJ,2021-01-17T18:53:00Z,39.77,-94.92,4.4,-2.8,320,15,25,10.0,29.890747,1012.7,,,TRUE,,,,,,,BKN,7000,,,,,,,VFR,,,,,,,,,,,,METAR,247.0
KSTC 171853Z 04004KT 8SM OVC006 M06/M08 A2977 RMK AO2 SLP107 T10561078 $,KSTC,2021-01-17T18:53:00Z,45.55,-94.05,-5.6,-7.8,40,4,,8.0,29.769686,1010.7,,,TRUE,TRUE,,,,,,OVC,600,,,,,,,IFR,,,,,,,,,,,,METAR,302.0
KSSI 171853Z AUTO 26007KT 10SM CLR 13/M01 A2999 RMK AO2 SLP157 T01331011,KSSI,2021-01-17T18:53:00Z,31.15,-81.38,13.3,-1.1,260,7,,10.0,29.991142,1015.7,,TRUE,TRUE,,,,,,,CLR,,,,,,,,VFR,,,,,,,,,,,,METAR,6.0
KSSF 171853Z VRB04KT 10SM CLR 19/03 A3008 RMK AO2 SLP187 T01890033,KSSF,2021-01-17T18:53:00Z,29.33,-98.47,18.9,3.3,0,4,,10.0,30.079725,1018.7,,,TRUE,,,,,,,CLR,,,,,,,,VFR,,,,,,,,,,,,METAR,175.0
KSRQ 171853Z 21008KT 10SM OVC048 18/11 A3002 RMK AO2 SLP164 T01780106,KSRQ,2021-01-17T18:53:00Z,27.4,-82.57,17.8,10.6,210,8,,10.0,30.02067,1016.4,,,TRUE,,,,,,,OVC,4800,,,,,,,VFR,,,,,,,,,,,,METAR,5.0
KSPG 171853Z 10003KT 10SM OVC065 15/11 A3002 RMK AO2 SLP165 T01500106,KSPG,2021-01-17T18:53:00Z,27.77,-82.63,15.0,10.6,100,3,,10.0,30.02067,1016.5,,,TRUE,,,,,,,OVC,6500,,,,,,,VFR,,,,,,,,,,,,METAR,1.0
KSPB 171853Z AUTO 01003KT 3SM BR OVC003 08/07 A3051 RMK AO2 SLP330 T00780067,KSPB,2021-01-17T18:53:00Z,45.77,-122.87,7.8,6.7,10,3,,3.0,30.510826,1033.0,,TRUE,TRUE,,,,,,BR,OVC,300,,,,,,,LIFR,,,,,,,,,,,,METAR,15.0
KSNY 171853Z AUTO 30014KT 10SM BKN100 06/M08 A2997 RMK AO2 SLP168 T00611083 $,KSNY,2021-01-17T18:53:00Z,41.1,-102.98,6.1,-8.3,300,14,,10.0,29.970472,1016.8,,TRUE,TRUE,TRUE,,,,,,BKN,10000,,,,,,,VFR,,,,,,,,,,,,METAR,1307.0
KSNS 171853Z 00000KT 10SM CLR 17/07 A3012 RMK AO2 SLP207 T01720072,KSNS,2021-01-17T18:53:00Z,36.67,-121.6,17.2,7.2,0,0,,10.0,30.121063,1020.7,,,TRUE,,,,,,,CLR,,,,,,,,VFR,,,,,,,,,,,,METAR,20.0
KSNA 171853Z 22003KT 10SM CLR 26/03 A3001 RMK AO2 SLP160 T02560033,KSNA,2021-01-17T18:53:00Z,33.67,-117.87,25.6,3.3,220,3,,10.0,30.008858,1016.0,,,TRUE,,,,,,,CLR,,,,,,,,VFR,,,,,,,,,,,,METAR,14.0
KSMQ 171853Z AUTO 28012G20KT 240V310 10SM OVC047 07/M03 A2962 RMK AO2 SLP033 T00671028,KSMQ,2021-01-17T18:53:00Z,40.62,-74.67,6.7,-2.8,280,12,20,10.0,29.619095,1003.3,,TRUE,TRUE,,,,,,,OVC,4700,,,,,,,VFR,,,,,,,,,,,,METAR,30.0
KSMF 171853Z 00000KT 10SM CLR 17/08 A3015 RMK AO2 SLP209 T01670078,KSMF,2021-01-17T18:53:00Z,38.7,-121.6,16.7,7.8,0,0,,10.0,30.15059,1020.9,,,TRUE,,,,,,,CLR,,,,,,,,VFR,,,,,,,,,,,,METAR,7.0
KSLN 171853Z 33018G27KT 10SM CLR 09/M05 A2999 RMK AO2 PK WND 31027/1848 SLP163 T00891050 $,KSLN,2021-01-17T18:53:00Z,38.8,-97.65,8.9,-5.0,330,18,27,10.0,29.991142,1016.3,,,TRUE,TRUE,,,,,,CLR,,,,,,,,VFR,,,,,,,,,,,,METAR,377.0
KSJC 171853Z COR 09003KT 10SM CLR 17/06 A3015 RMK AO2 SLP208 T01720061,KSJC,2021-01-17T18:53:00Z,37.37,-121.92,17.2,6.1,90,3,,10.0,30.15059,1020.8,TRUE,,TRUE,,,,,,,CLR,,,,,,,,VFR,,,,,,,,,,,,METAR,13.0
KSIY 171853Z AUTO 00000KT 10SM OVC003 03/02 A3044 RMK AO2 SLP333 T00280017,KSIY,2021-01-17T18:53:00Z,41.77,-122.47,2.8,1.7,0,0,,10.0,30.43996,1033.3,,TRUE,TRUE,,,,,,,OVC,300,,,,,,,LIFR,,,,,,,,,,,,METAR,807.0
KSHR 171853Z AUTO 16006KT 10SM OVC075 05/M05 A2987 RMK AO2 SLP140 T00501050,KSHR,2021-01-17T18:53:00Z,44.77,-106.97,5.0,-5.0,160,6,,10.0,29.870079,1014.0,,TRUE,TRUE,,,,,,,OVC,7500,,,,,,,VFR,,,,,,,,,,,,METAR,1212.0
KSHN 171853Z AUTO 01005KT 10SM OVC006 08/07 A3045 RMK AO2 SLP314 T00780072,KSHN,2021-01-17T18:53:00Z,47.23,-123.13,7.8,7.2,10,5,,10.0,30.448818,1031.4,,TRUE,TRUE,,,,,,,OVC,600,,,,,,,IFR,,,,,,,,,,,,METAR,84.0
KSGR 171853Z 30007KT 10SM CLR 19/M03 A3010 RMK AO2 SLP195 T01941028,KSGR,2021-01-17T18:53:00Z,29.62,-95.65,19.4,-2.8,300,7,,10.0,30.100393,1019.5,,,TRUE,,,,,,,CLR,,,,,,,,VFR,,,,,,,,,,,,METAR,22.0
KSFF 171853Z 26005KT 7SM OVC009 02/01 A3030 RMK AO2 SLP273 T00220006,KSFF,2021-01-17T18:53:00Z,47.68,-117.32,2.2,0.6,260,5,,7.0,30.301182,1027.3,,,TRUE,,,,,,,OVC,900,,,,,,,IFR,,,,,,,,,,,,METAR,593.0
KSFB 171853Z VRB03KT 10SM CLR 16/06 A3002 RMK AO2 SLP164 T01610056,KSFB,2021-01-17T18:53:00Z,28.77,-81.23,16.1,5.6,0,3,,10.0,30.02067,1016.4,,,TRUE,,,,,,,CLR,,,,,,,,VFR,,,,,,,,,,,,METAR,16.0
KSEG 171853Z AUTO VRB05KT 10SM OVC039 05/M02 A2968 RMK AO2 SLP052 T00501022,KSEG,2021-01-17T18:53:00Z,40.82,-76.87,5.0,-2.2,0,5,,10.0,29.681103,1005.2,,TRUE,TRUE,,,,,,,OVC,3900,,,,,,,VFR,,,,,,,,,,,,METAR,136.0
KSEA 171853Z 13003KT 10SM BKN004 OVC013 08/08 A3047 RMK AO2 SLP328 T00830078,KSEA,2021-01-17T18:53:00Z,47.45,-122.32,8.3,7.8,130,3,,10.0,30.469488,1032.8,,,TRUE,,,,,,,BKN,400,OVC,1300,,,,,LIFR,,,,,,,,,,,,METAR,115.0
KSDM 171853Z 30004KT 10SM CLR 27/M01 A3001 RMK AO2 SLP159 T02721006,KSDM,2021-01-17T18:53:00Z,32.58,-117.0,27.2,-0.6,300,4,,10.0,30.008858,1015.9,,,TRUE,,,,,,,CLR,,,,,,,,VFR,,,,,,,,,,,,METAR,161.0
KSDL 171853Z 21004KT 10SM CLR 20/M07 A3010 RMK AO2 SLP179 T02001067 $,KSDL,2021-01-17T18:53:00Z,33.62,-111.92,20.0,-6.7,210,4,,10.0,30.100393,1017.9,,,TRUE,TRUE,,,,,,CLR,,,,,,,,VFR,,,,,,,,,,,,METAR,438.0
KSDB 171853Z AUTO 07017G25KT 10SM CLR 17/M06 A3024 RMK AO2 PK WND 07026/1810 SLP201 T01721061 $,KSDB,2021-01-17T18:53:00Z,34.75,-118.72,17.2,-6.1,70,17,25,10.0,30.239174,1020.1,,TRUE,TRUE,TRUE,,,,,,CLR,,,,,,,,VFR,,,,,,,,,,,,METAR,1377.0
KSBM 171853Z AUTO 32007KT 10SM OVC035 00/M06 A2968 RMK AO2 SLP058 T00001056,KSBM,2021-01-17T18:53:00Z,43.78,-87.85,0.0,-5.6,320,7,,10.0,29.681103,1005.8,,TRUE,TRUE,,,,,,,OVC,3500,,,,,,,VFR,,,,,,,,,,,,METAR,225.0
KSBA 171853Z 26005KT 10SM CLR 23/04 A3004 RMK AO2 SLP171 T02330044,KSBA,2021-01-17T18:53:00Z,34.43,-119.85,23.3,4.4,260,5,,10.0,30.041338,1017.1,,,TRUE,,,,,,,CLR,,,,,,,,VFR,,,,,,,,,,,,METAR,2.0
KSAV 171853Z 26011KT 10SM SCT250 13/M02 A2997 RMK AO2 SLP149 T01331022,KSAV,2021-01-17T18:53:00Z,32.12,-81.2,13.3,-2.2,260,11,,10.0,29.970472,1014.9,,,TRUE,,,,,,,SCT,25000,,,,,,,VFR,,,,,,,,,,,,METAR,10.0
KSAF 171853Z 35008KT 10SM CLR 09/M12 A3012 RMK AO2 SLP182 T00891122,KSAF,2021-01-17T18:53:00Z,35.62,-106.1,8.9,-12.2,350,8,,10.0,30.121063,1018.2,,,TRUE,,,,,,,CLR,,,,,,,,VFR,,,,,,,,,,,,METAR,1918.0
KSAC 171853Z 00000KT 7SM CLR 16/09 A3016 RMK AO2 SLP211 T01560094,KSAC,2021-01-17T18:53:00Z,38.5,-121.5,15.6,9.4,0,0,,7.0,30.159449,1021.1,,,TRUE,,,,,,,CLR,,,,,,,,VFR,,,,,,,,,,,,METAR,5.0
KRXE 171853Z AUTO 00000KT 1 1/2SM BR OVC003 M04/M04 A3024 RMK AO2 SLP282 I1000 T10441044,KRXE,2021-01-17T18:53:00Z,43.83,-111.8,-4.4,-4.4,0,0,,1.5,30.239174,1028.2,,TRUE,TRUE,,,,,,BR,OVC,300,,,,,,,LIFR,,,,,,,,,,,,METAR,1483.0
KRWL 171853Z AUTO 26026G34KT 10SM CLR 01/M07 A3005 RMK AO2 PK WND 25035/1818 SLP197 T00111072,KRWL,2021-01-17T18:53:00Z,41.8,-107.2,1.1,-7.2,260,26,34,10.0,30.050198,1019.7,,TRUE,TRUE,,,,,,,CLR,,,,,,,,VFR,,,,,,,,,,,,METAR,2066.0
KRWI 171853Z AUTO 21006KT 10SM CLR 10/M02 A2986 RMK AO2 SLP110 T01001017,KRWI,2021-01-17T18:53:00Z,35.85,-77.9,10.0,-1.7,210,6,,10.0,29.861221,1011.0,,TRUE,TRUE,,,,,,,CLR,,,,,,,,VFR,,,,,,,,,,,,METAR,46.0
KRWF 171853Z AUTO 32009KT 10SM FEW014 OVC050 M03/M07 A2979 RMK AO2 SLP104 T10281067,KRWF,2021-01-17T18:53:00Z,44.55,-95.08,-2.8,-6.7,320,9,,10.0,29.790354,1010.4,,TRUE,TRUE,,,,,,,FEW,1400,OVC,5000,,,,,VFR,,,,,,,,,,,,METAR,312.0
KRVS 171853Z 29009G21KT 250V330 10SM CLR 11/M04 A3001 RMK AO2 SLP167 T01111044,KRVS,2021-01-17T18:53:00Z,36.05,-95.98,11.1,-4.4,290,9,21,10.0,30.008858,1016.7,,,TRUE,,,,,,,CLR,,,,,,,,VFR,,,,,,,,,,,,METAR,191.0
KRUE 171853Z AUTO 28016G25KT 10SM CLR 10/M04 A2995 RMK AO2 SLP141 T01001039,KRUE,2021-01-17T18:53:00Z,35.25,-93.1,10.0,-3.9,280,16,25,10.0,29.949802,1014.1,,TRUE,TRUE,,,,,,,CLR,,,,,,,,VFR,,,,,,,,,,,,METAR,119.0
KRTN 171853Z AUTO 18007KT 10SM CLR 02/M09 A3007 RMK AO2 SLP200 T00221089,KRTN,2021-01-17T18:53:00Z,36.73,-104.5,2.2,-8.9,180,7,,10.0,30.070866,1020.0,,TRUE,TRUE,,,,,,,CLR,,,,,,,,VFR,,,,,,,,,,,,METAR,1939.0
KRSW 171853Z 14005KT 10SM SCT044 BKN070 17/08 A3004 RMK AO2 SLP168 T01720083,KRSW,2021-01-17T18:53:00Z,26.53,-81.75,17.2,8.3,140,5,,10.0,30.041338,1016.8,,,TRUE,,,,,,,SCT,4400,BKN,7000,,,,,VFR,,,,,,,,,,,,METAR,8.0
KRSL 171853Z AUTO 31012G18KT 10SM CLR 08/M07 A3001 RMK AO2 SLP171 T00831067 $,KRSL,2021-01-17T18:53:00Z,38.87,-98.82,8.3,-6.7,310,12,18,10.0,30.008858,1017.1,,TRUE,TRUE,TRUE,,,,,,CLR,,,,,,,,VFR,,,,,,,,,,,,METAR,569.0
KRQE 171853Z AUTO 00000KT 10SM CLR 12/M16 A3022 RMK AO2 SLP210 T01221156 TSNO,KRQE,2021-01-17T18:53:00Z,35.65,-109.07,12.2,-15.6,0,0,,10.0,30.221457,1021.0,,TRUE,TRUE,,,TRUE,,,,CLR,,,,,,,,VFR,,,,,,,,,,,,METAR,2056.0
KRNT 171853Z 00000KT 10SM OVC018 09/07 A3048 RMK AO2 SLP327 T00890072,KRNT,2021-01-17T18:53:00Z,47.5,-122.22,8.9,7.2,0,0,,10.0,30.481298,1032.7,,,TRUE,,,,,,,OVC,1800,,,,,,,MVFR,,,,,,,,,,,,METAR,7.0
KRNM 171853Z 07009KT 10SM CLR 28/M06 A3005 RMK AO2 SLP159 T02781056,KRNM,2021-01-17T18:53:00Z,33.03,-116.92,27.8,-5.6,70,9,,10.0,30.050198,1015.9,,,TRUE,,,,,,,CLR,,,,,,,,VFR,,,,,,,,,,,,METAR,423.0
KRMG 171853Z AUTO 24011G19KT 10SM SCT047 11/M02 A2988 RMK AO2 SLP115 T01061017,KRMG,2021-01-17T18:53:00Z,34.35,-85.17,10.6,-1.7,240,11,19,10.0,29.878937,1011.5,,TRUE,TRUE,,,,,,,SCT,4700,,,,,,,VFR,,,,,,,,,,,,METAR,196.0
KRKP 171853Z AUTO 12006KT 7SM CLR 19/06 A3010 RMK AO2 SLP194 T01940056,KRKP,2021-01-17T18:53:00Z,28.08,-97.05,19.4,5.6,120,6,,7.0,30.100393,1019.4,,TRUE,TRUE,,,,,,,CLR,,,,,,,,VFR,,,,,,,,,,,,METAR,8.0
KRIW 171853Z AUTO 00000KT 10SM CLR M02/M07 A2997 RMK AO2 SLP192 T10221072,KRIW,2021-01-17T18:53:00Z,43.07,-108.43,-2.2,-7.2,0,0,,10.0,29.970472,1019.2,,TRUE,TRUE,,,,,,,CLR,,,,,,,,VFR,,,,,,,,,,,,METAR,1662.0
KRIL 171853Z AUTO 16003KT 10SM SCT090 02/M06 A3020 RMK AO2 SLP246 T00221056,KRIL,2021-01-17T18:53:00Z,39.53,-107.73,2.2,-5.6,160,3,,10.0,30.200787,1024.6,,TRUE,TRUE,,,,,,,SCT,9000,,,,,,,VFR,,,,,,,,,,,,METAR,1683.0
KRHI 171853Z AUTO 32004KT 10SM OVC014 M05/M08 A2967 RMK AO2 SLP072 T10501083,KRHI,2021-01-17T18:53:00Z,45.63,-89.48,-5.0,-8.3,320,4,,10.0,29.66929,1007.2,,TRUE,TRUE,,,,,,,OVC,1400,,,,,,,MVFR,,,,,,,,,,,,METAR,493.0
KRDD 171853Z 34009G20KT 10SM CLR 22/02 A3018 RMK AO2 SLP216 T02170017,KRDD,2021-01-17T18:53:00Z,40.52,-122.3,21.7,1.7,340,9,20,10.0,30.180119,1021.6,,,TRUE,,,,,,,CLR,,,,,,,,VFR,,,,,,,,,,,,METAR,152.0
KRBG 171853Z AUTO 27003KT 10SM CLR 08/06 A3046 RMK AO2 SLP318 T00830061,KRBG,2021-01-17T18:53:00Z,43.23,-123.35,8.3,6.1,270,3,,10.0,30.46063,1031.8,,TRUE,TRUE,,,,,,,CLR,,,,,,,,VFR,,,,,,,,,,,,METAR,152.0
KRBD 171853Z 33013G17KT 10SM CLR 14/M05 A3011 RMK AO2 SLP194 T01441050 $,KRBD,2021-01-17T18:53:00Z,32.68,-96.87,14.4,-5.0,330,13,17,10.0,30.109253,1019.4,,,TRUE,TRUE,,,,,,CLR,,,,,,,,VFR,,,,,,,,,,,,METAR,200.0
KRAL 171853Z 05009G18KT 020V090 10SM CLR 27/M07 A3006 RMK AO2 SLP162 T02721067 $,KRAL,2021-01-17T18:53:00Z,33.95,-117.45,27.2,-6.7,50,9,18,10.0,30.059055,1016.2,,,TRUE,TRUE,,,,,,CLR,,,,,,,,VFR,,,,,,,,,,,,METAR,254.0
KPWA 171853Z 32020G25KT 10SM CLR 12/M06 A3005 RMK AO2 PK WND 30028/1829 SLP177 T01221061,KPWA,2021-01-17T18:53:00Z,35.53,-97.65,12.2,-6.1,320,20,25,10.0,30.050198,1017.7,,,TRUE,,,,,,,CLR,,,,,,,,VFR,,,,,,,,,,,,METAR,390.0
KPUW 171853Z AUTO 25013KT 8SM OVC007 04/02 A3028 RMK AO2 SLP272 T00390022,KPUW,2021-01-17T18:53:00Z,46.75,-117.12,3.9,2.2,250,13,,8.0,30.280512,1027.2,,TRUE,TRUE,,,,,,,OVC,700,,,,,,,IFR,,,,,,,,,,,,METAR,774.0
KPUC 171853Z AUTO 17005KT 10SM CLR 04/M06 A3018 RMK AO2 SLP241 T00441061,KPUC,2021-01-17T18:53:00Z,39.62,-110.75,4.4,-6.1,170,5,,10.0,30.180119,1024.1,,TRUE,TRUE,,,,,,,CLR,,,,,,,,VFR,,,,,,,,,,,,METAR,1777.0
KPUB 171853Z 13010KT 10SM CLR 05/M09 A3004 RMK AO2 SLP186 T00501089,KPUB,2021-01-17T18:53:00Z,38.28,-104.5,5.0,-8.9,130,10,,10.0,30.041338,1018.6,,,TRUE,,,,,,,CLR,,,,,,,,VFR,,,,,,,,,,,,METAR,1441.0
KPSP 171853Z 00000KT 10SM CLR 28/M04 A3010 RMK AO2 SLP188 T02781044,KPSP,2021-01-17T18:53:00Z,33.82,-116.5,27.8,-4.4,0,0,,10.0,30.100393,1018.8,,,TRUE,,,,,,,CLR,,,,,,,,VFR,,,,,,,,,,,,METAR,123.0
KPSC 171853Z 00000KT 10SM HZ CLR 07/03 A3036 RMK AO2 SLP284 T00720028,KPSC,2021-01-17T18:53:00Z,46.27,-119.12,7.2,2.8,0,0,,10.0,30.360237,1028.4,,,TRUE,,,,,,HZ,CLR,,,,,,,,VFR,,,,,,,,,,,,METAR,121.0
KPRC 171853Z 02003KT 10SM CLR 13/M18 A3022 RMK AO2 SLP207 T01281183,KPRC,2021-01-17T18:53:00Z,34.65,-112.42,12.8,-18.3,20,3,,10.0,30.221457,1020.7,,,TRUE,,,,,,,CLR,,,,,,,,VFR,,,,,,,,,,,,METAR,1528.0
KPRB 171853Z AUTO 00000KT 10SM CLR 18/05 A3012 RMK AO2 SLP198 T01780050,KPRB,2021-01-17T18:53:00Z,35.67,-120.63,17.8,5.0,0,0,,10.0,30.121063,1019.8,,TRUE,TRUE,,,,,,,CLR,,,,,,,,VFR,,,,,,,,,,,,METAR,249.0
KPQL 171853Z AUTO 26005KT 10SM CLR 13/00 A3004 RMK AO2 SLP173 T01330000,KPQL,2021-01-17T18:53:00Z,30.47,-88.53,13.3,0.0,260,5,,10.0,30.041338,1017.3,,TRUE,TRUE,,,,,,,CLR,,,,,,,,VFR,,,,,,,,,,,,METAR,4.0
KPOU 171853Z 26014G18KT 10SM OVC044 05/M04 A2957 RMK AO2 SLP011 T00501039,KPOU,2021-01-17T18:53:00Z,41.63,-73.88,5.0,-3.9,260,14,18,10.0,29.568897,1001.1,,,TRUE,,,,,,,OVC,4400,,,,,,,VFR,,,,,,,,,,,,METAR,45.0
KPOF 171853Z AUTO 24010KT 10SM CLR 07/M05 A2987 RMK AO2 SLP117 T00721050,KPOF,2021-01-17T18:53:00Z,36.77,-90.32,7.2,-5.0,240,10,,10.0,29.870079,1011.7,,TRUE,TRUE,,,,,,,CLR,,,,,,,,VFR,,,,,,,,,,,,METAR,99.0
KPNS 171853Z 28010KT 10SM CLR 16/M01 A3002 RMK AO2 SLP169 T01561006,KPNS,2021-01-17T18:53:00Z,30.48,-87.18,15.6,-0.6,280,10,,10.0,30.02067,1016.9,,,TRUE,,,,,,,CLR,,,,,,,,VFR,,,,,,,,,,,,METAR,34.0
KPNC 171853Z AUTO 32014G22KT 10SM CLR 10/M05 A3003 RMK AO2 PK WND 32028/1818 SLP170 T01001050,KPNC,2021-01-17T18:53:00Z,36.73,-97.1,10.0,-5.0,320,14,22,10.0,30.029528,1017.0,,TRUE,TRUE,,,,,,,CLR,,,,,,,,VFR,,,,,,,,,,,,METAR,304.0
KPMP 171853Z 29007G15KT 10SM OVC060 20/06 A3003 RMK AO2 SLP170 T02000061,KPMP,2021-01-17T18:53:00Z,26.25,-80.12,20.0,6.1,290,7,15,10.0,30.029528,1017.0,,,TRUE,,,,,,,OVC,6000,,,,,,,VFR,,,,,,,,,,,,METAR,4.0
KPMD 171853Z 34003KT 10SM CLR 15/M04 A3022 RMK AO2 SLP225 T01501039,KPMD,2021-01-17T18:53:00Z,34.63,-118.08,15.0,-3.9,340,3,,10.0,30.221457,1022.5,,,TRUE,,,,,,,CLR,,,,,,,,VFR,,,,,,,,,,,,METAR,764.0
KPKB 171853Z 22007KT 10SM -RA BKN012 BKN023 OVC042 02/M01 A2974 RMK AO2 UPB09E16RAB16E19B49 SLP077 P0000 T00221006,KPKB,2021-01-17T18:53:00Z,39.35,-81.43,2.2,-0.6,220,7,,10.0,29.740158,1007.7,,,TRUE,,,,,,-RA,BKN,1200,BKN,2300,OVC,4200,,,MVFR,,,,,,0.005,,,,,,METAR,245.0
KPIR 171853Z AUTO 28012KT 10SM CLR 03/M06 A2991 RMK AO2 SLP141 T00281061,KPIR,2021-01-17T18:53:00Z,44.38,-100.28,2.8,-6.1,280,12,,10.0,29.911417,1014.1,,TRUE,TRUE,,,,,,,CLR,,,,,,,,VFR,,,,,,,,,,,,METAR,524.0
KPIL 171853Z AUTO 11011KT 10SM OVC040 22/13 A3006 RMK AO2 SLP180 T02170128 TSNO,KPIL,2021-01-17T18:53:00Z,26.17,-97.33,21.7,12.8,110,11,,10.0,30.059055,1018.0,,TRUE,TRUE,,,TRUE,,,,OVC,4000,,,,,,,VFR,,,,,,,,,,,,METAR,5.0
KPIH 171853Z 27012KT 10SM SCT027 03/M02 A3026 RMK AO2 SLP263 T00331017,KPIH,2021-01-17T18:53:00Z,42.92,-112.57,3.3,-1.7,270,12,,10.0,30.259842,1026.3,,,TRUE,,,,,,,SCT,2700,,,,,,,VFR,,,,,,,,,,,,METAR,1357.0
KPIE 171853Z 10004KT 10SM BKN065 16/10 A3003 RMK AO2 SLP168 T01560100,KPIE,2021-01-17T18:53:00Z,27.92,-82.68,15.6,10.0,100,4,,10.0,30.029528,1016.8,,,TRUE,,,,,,,BKN,6500,,,,,,,VFR,,,,,,,,,,,,METAR,1.0
KPHD 171853Z AUTO 22005KT 4SM -SN BR BKN013 OVC033 02/00 A2970 RMK AO2 SNB23 SLP066 P0000 T00170000,KPHD,2021-01-17T18:53:00Z,40.47,-81.42,1.7,0.0,220,5,,4.0,29.698818,1006.6,,TRUE,TRUE,,,,,,-SN BR,BKN,1300,OVC,3300,,,,,MVFR,,,,,,0.005,,,,,,METAR,272.0
KPGD 171853Z 17008KT 10SM FEW044 SCT070 17/09 A3005 RMK AO2 SLP175 T01720089,KPGD,2021-01-17T18:53:00Z,26.92,-82.0,17.2,8.9,170,8,,10.0,30.050198,1017.5,,,TRUE,,,,,,,FEW,4400,SCT,7000,,,,,VFR,,,,,,,,,,,,METAR,7.0
KPGA 171853Z AUTO 00000KT 10SM CLR 07/M08 A3022 RMK AO2 SLP226 T00671083 TSNO,KPGA,2021-01-17T18:53:00Z,36.92,-111.45,6.7,-8.3,0,0,,10.0,30.221457,1022.6,,TRUE,TRUE,,,TRUE,,,,CLR,,,,,,,,VFR,,,,,,,,,,,,METAR,1310.0
KPEO 171853Z AUTO 26012G19KT 10SM OVC037 03/M04 A2956 RMK AO2 SLP016 T00331039,KPEO,2021-01-17T18:53:00Z,42.65,-77.05,3.3,-3.9,260,12,19,10.0,29.56004,1001.6,,TRUE,TRUE,,,,,,,OVC,3700,,,,,,,VFR,,,,,,,,,,,,METAR,268.0
KPDX 171853Z 00000KT 10SM OVC009 08/07 A3051 RMK AO2 SLP332 T00830072,KPDX,2021-01-17T18:53:00Z,45.6,-122.62,8.3,7.2,0,0,,10.0,30.510826,1033.2,,,TRUE,,,,,,,OVC,900,,,,,,,IFR,,,,,,,,,,,,METAR,7.0
KPDT 171853Z 28019G28KT 10SM CLR 10/05 A3034 RMK AO2 PK WND 28028/1844 SLP277 T01000050,KPDT,2021-01-17T18:53:00Z,45.7,-118.83,10.0,5.0,280,19,28,10.0,30.339567,1027.7,,,TRUE,,,,,,,CLR,,,,,,,,VFR,,,,,,,,,,,,METAR,453.0
KPDK 171853Z AUTO 23008G19KT 10SM BKN047 08/M02 A2990 RMK AO2 SLP136 T00831017,KPDK,2021-01-17T18:53:00Z,33.88,-84.3,8.3,-1.7,230,8,19,10.0,29.899607,1013.6,,TRUE,TRUE,,,,,,,BKN,4700,,,,,,,VFR,,,,,,,,,,,,METAR,299.0
KPBI 171853Z 23005KT 10SM FEW041 BKN060 BKN250 19/07 A3003 RMK AO2 SLP168 T01890072 $,KPBI,2021-01-17T18:53:00Z,26.68,-80.1,18.9,7.2,230,5,,10.0,30.029528,1016.8,,,TRUE,TRUE,,,,,,FEW,4100,BKN,6000,BKN,25000,,,VFR,,,,,,,,,,,,METAR,4.0
KPBG 171853Z AUTO 26009G18KT 230V290 10SM SCT048 BKN060 OVC075 02/M04 A2937 RMK AO2 SLP948 T00171039,KPBG,2021-01-17T18:53:00Z,44.65,-73.47,1.7,-3.9,260,9,18,10.0,29.371063,994.8,,TRUE,TRUE,,,,,,,SCT,4800,BKN,6000,OVC,7500,,,VFR,,,,,,,,,,,,METAR,61.0
KPBF 171853Z AUTO 30010KT 10SM CLR 11/M07 A2998 RMK AO2 SLP152 T01061067,KPBF,2021-01-17T18:53:00Z,34.18,-91.93,10.6,-6.7,300,10,,10.0,29.97933,1015.2,,TRUE,TRUE,,,,,,,CLR,,,,,,,,VFR,,,,,,,,,,,,METAR,63.0
KPAH 171853Z 27011KT 10SM BKN036 06/M03 A2984 RMK AO2 SLP107 T00611033,KPAH,2021-01-17T18:53:00Z,37.07,-88.77,6.1,-3.3,270,11,,10.0,29.840551,1010.7,,,TRUE,,,,,,,BKN,3600,,,,,,,VFR,,,,,,,,,,,,METAR,125.0
KP68 171853Z AUTO 23004KT 04/M02 A3034 RMK AO1 SLP277 T00441022,KP68,2021-01-17T18:53:00Z,39.6,-116.0,4.4,-2.2,230,4,,,30.339567,1027.7,,TRUE,TRUE,,,,,,,,,,,,,,,,,,,,,,,,,,,METAR,1813.0
KOXB 171853Z AUTO 26011G19KT 10SM FEW049 09/M03 A2977 RMK AO2 SLP080 T00891028,KOXB,2021-01-17T18:53:00Z,38.32,-75.12,8.9,-2.8,260,11,19,10.0,29.769686,1008.0,,TRUE,TRUE,,,,,,,FEW,4900,,,,,,,VFR,,,,,,,,,,,,METAR,2.0
KOWD 171853Z 26016G25KT 10SM OVC055 07/M05 A2944 RMK AO2 PK WND 23026/1832 SLP969 T00721050,KOWD,2021-01-17T18:53:00Z,42.18,-71.17,7.2,-5.0,260,16,25,10.0,29.438976,996.9,,,TRUE,,,,,,,OVC,5500,,,,,,,VFR,,,,,,,,,,,,METAR,14.0
KOVE 171853Z AUTO 15003KT 10SM CLR 19/07 A3015 RMK AO2 SLP211 T01940072,KOVE,2021-01-17T18:53:00Z,39.5,-121.62,19.4,7.2,150,3,,10.0,30.15059,1021.1,,TRUE,TRUE,,,,,,,CLR,,,,,,,,VFR,,,,,,,,,,,,METAR,56.0
KOTM 171853Z AUTO 32014KT 10SM BKN033 OVC050 M01/M05 A2978 RMK AO2 PRESFR SLP092 T10111050 $,KOTM,2021-01-17T18:53:00Z,41.1,-92.45,-1.1,-5.0,320,14,,10.0,29.778543,1009.2,,TRUE,TRUE,TRUE,,,,,,BKN,3300,OVC,5000,,,,,VFR,,,,,,,,,,,,METAR,254.0
KOSU 171853Z 22006KT 1/2SM SN FG OVC006 01/00 A2970 RMK AO2 SLP065 P0003 T00110000,KOSU,2021-01-17T18:53:00Z,40.08,-83.08,1.1,0.0,220,6,,0.5,29.698818,1006.5,,,TRUE,,,,,,SN FG,OVC,600,,,,,,,LIFR,,,,,,0.03,,,,,,METAR,276.0
KORL 171853Z 26005KT 10SM CLR 16/07 A3001 RMK AO2 SLP169 T01610067,KORL,2021-01-17T18:53:00Z,28.55,-81.33,16.1,6.7,260,5,,10.0,30.008858,1016.9,,,TRUE,,,,,,,CLR,,,,,,,,VFR,,,,,,,,,,,,METAR,32.0
KOQT 171853Z AUTO 10SM FEW037 BKN047 OVC055 06/M02 A2984 RMK AO2 SLP114 T00611017,KOQT,2021-01-17T18:53:00Z,36.02,-84.23,6.1,-1.7,,,,10.0,29.840551,1011.4,,TRUE,TRUE,,,,,,,FEW,3700,BKN,4700,OVC,5500,,,VFR,,,,,,,,,,,,METAR,276.0
KOPF 171853Z 26007KT 10SM CLR 19/07 A3004 RMK AO2 SLP174 T01940067,KOPF,2021-01-17T18:53:00Z,25.92,-80.28,19.4,6.7,260,7,,10.0,30.041338,1017.4,,,TRUE,,,,,,,CLR,,,,,,,,VFR,,,,,,,,,,,,METAR,1.0
KONT 171853Z 28005KT 10SM CLR 26/M03 A3004 RMK AO2 SLP164 T02561033,KONT,2021-01-17T18:53:00Z,34.05,-117.58,25.6,-3.3,280,5,,10.0,30.041338,1016.4,,,TRUE,,,,,,,CLR,,,,,,,,VFR,,,,,,,,,,,,METAR,279.0
KONO 171853Z AUTO 35004KT 10SM OVC019 04/M01 A3039 RMK AO2 SLP310 T00391006,KONO,2021-01-17T18:53:00Z,44.02,-117.02,3.9,-0.6,350,4,,10.0,30.389763,1031.0,,TRUE,TRUE,,,,,,,OVC,1900,,,,,,,MVFR,,,,,,,,,,,,METAR,668.0
KOMK 171853Z AUTO 00000KT 10SM OVC020 02/M02 A3034 RMK AO2 SLP288 T00221017,KOMK,2021-01-17T18:53:00Z,48.47,-119.52,2.2,-1.7,0,0,,10.0,30.339567,1028.8,,TRUE,TRUE,,,,,,,OVC,2000,,,,,,,MVFR,,,,,,,,,,,,METAR,395.0
KOLF 171853Z AUTO 00000KT 10SM OVC100 M01/M06 A2985 RMK AO2 SLP136 T10061056,KOLF,2021-01-17T18:53:00Z,48.1,-105.58,-0.6,-5.6,0,0,,10.0,29.84941,1013.6,,TRUE,TRUE,,,,,,,OVC,10000,,,,,,,VFR,,,,,,,,,,,,METAR,605.0
KOJC 171853Z 33011G19KT 10SM SCT035 SCT070 OVC090 04/M02 A2989 RMK AO2 SLP129 T00441022 $,KOJC,2021-01-17T18:53:00Z,38.85,-94.73,4.4,-2.2,330,11,19,10.0,29.890747,1012.9,,,TRUE,TRUE,,,,,,SCT,3500,SCT,7000,OVC,9000,,,VFR,,,,,,,,,,,,METAR,328.0
KOGD 171853Z 06003KT 10SM CLR 07/M04 A3029 RMK AO2 SLP261 T00671039 $,KOGD,2021-01-17T18:53:00Z,41.2,-112.02,6.7,-3.9,60,3,,10.0,30.28937,1026.1,,,TRUE,TRUE,,,,,,CLR,,,,,,,,VFR,,,,,,,,,,,,METAR,1356.0
KOGB 171853Z AUTO 25012KT 10SM CLR 11/M03 A2993 RMK AO2 SLP134 T01061028,KOGB,2021-01-17T18:53:00Z,33.47,-80.85,10.6,-2.8,250,12,,10.0,29.929134,1013.4,,TRUE,TRUE,,,,,,,CLR,,,,,,,,VFR,,,,,,,,,,,,METAR,59.0
KODX 171853Z AUTO 32016G22KT 10SM CLR 06/M06 A2993 RMK AO2 SLP149 T00561056,KODX,2021-01-17T18:53:00Z,41.62,-98.95,5.6,-5.6,320,16,22,10.0,29.929134,1014.9,,TRUE,TRUE,,,,,,,CLR,,,,,,,,VFR,,,,,,,,,,,,METAR,628.0
KODO 171853Z AUTO 00000KT 10SM CLR 12/M08 A3014 RMK AO2 SLP194 T01221078,KODO,2021-01-17T18:53:00Z,31.92,-102.4,12.2,-7.8,0,0,,10.0,30.138779,1019.4,,TRUE,TRUE,,,,,,,CLR,,,,,,,,VFR,,,,,,,,,,,,METAR,912.0
KOAK 171853Z 24008KT 10SM FEW300 17/09 A3015 RMK AO2 SLP208 T01670094,KOAK,2021-01-17T18:53:00Z,37.72,-122.23,16.7,9.4,240,8,,10.0,30.15059,1020.8,,,TRUE,,,,,,,FEW,30000,,,,,,,VFR,,,,,,,,,,,,METAR,3.0
KNUI 171853Z AUTO 23008KT 10SM CLR 10/01 A2978 RMK AO2 SLP083 T01000011 $,KNUI,2021-01-17T18:53:00Z,38.15,-76.43,10.0,1.1,230,8,,10.0,29.778543,1008.3,,TRUE,TRUE,TRUE,,,,,,CLR,,,,,,,,VFR,,,,,,,,,,,,METAR,4.0
KNSI 171853Z 08005KT 10SM FEW280 23/00 A3004 RMK AO2 SLP166 T02330000,KNSI,2021-01-17T18:53:00Z,33.23,-119.45,23.3,0.0,80,5,,10.0,30.041338,1016.6,,,TRUE,,,,,,,FEW,28000,,,,,,,VFR,,,,,,,,,,,,METAR,161.0
KNQX 171853Z 09004KT 10SM FEW035 SCT060 OVC250 21/14 A3004 RMK AO2 SLP170 T02060139,KNQX,2021-01-17T18:53:00Z,24.57,-81.67,20.6,13.9,90,4,,10.0,30.041338,1017.0,,,TRUE,,,,,,,FEW,3500,SCT,6000,OVC,25000,,,VFR,,,,,,,,,,,,METAR,2.0
KNIP 171853Z 26012KT 10SM BKN250 13/00 A3001 RMK AO2 SLP159 T01330000,KNIP,2021-01-17T18:53:00Z,30.23,-81.67,13.3,0.0,260,12,,10.0,30.008858,1015.9,,,TRUE,,,,,,,BKN,25000,,,,,,,VFR,,,,,,,,,,,,METAR,3.0
KNEW 171853Z 32005KT 10SM CLR 13/04 A3006 RMK AO2 SLP173 T01330039,KNEW,2021-01-17T18:53:00Z,30.05,-90.03,13.3,3.9,320,5,,10.0,30.059055,1017.3,,,TRUE,,,,,,,CLR,,,,,,,,VFR,,,,,,,,,,,,METAR,1.0
KMYV 171853Z AUTO 00000KT 10SM CLR 17/05 A3015 RMK AO2 SLP214 T01670050,KMYV,2021-01-17T18:53:00Z,39.1,-121.57,16.7,5.0,0,0,,10.0,30.15059,1021.4,,TRUE,TRUE,,,,,,,CLR,,,,,,,,VFR,,,,,,,,,,,,METAR,18.0
KMYF 171853Z 00000KT 10SM CLR 28/M04 A3002 RMK AO2 SLP162 T02781044,KMYF,2021-01-17T18:53:00Z,32.82,-117.13,27.8,-4.4,0,0,,10.0,30.02067,1016.2,,,TRUE,,,,,,,CLR,,,,,,,,VFR,,,,,,,,,,,,METAR,128.0
KMWT 171853Z AUTO VRB06G20KT 10SM CLR 12/M06 A2995 RMK AO2 SLP148 T01221056,KMWT,2021-01-17T18:53:00Z,34.55,-93.58,12.2,-5.6,0,6,20,10.0,29.949802,1014.8,,TRUE,TRUE,,,,,,,CLR,,,,,,,,VFR,,,,,,,,,,,,METAR,220.0
KMWL 171853Z AUTO 36009G19KT 10SM CLR 15/M06 A3012 RMK AO2 SLP198 T01501056,KMWL,2021-01-17T18:53:00Z,32.78,-98.07,15.0,-5.6,360,9,19,10.0,30.121063,1019.8,,TRUE,TRUE,,,,,,,CLR,,,,,,,,VFR,,,,,,,,,,,,METAR,288.0
KMVY 171853Z 25017G30KT 10SM CLR 06/M02 A2950 RMK AO2 PK WND 24034/1759 SLP990 T00611022,KMVY,2021-01-17T18:53:00Z,41.4,-70.62,6.1,-2.2,250,17,30,10.0,29.500984,999.0,,,TRUE,,,,,,,CLR,,,,,,,,VFR,,,,,,,,,,,,METAR,18.0
KMTO 171853Z AUTO 28013KT 5SM -SN FEW012 BKN017 OVC025 M01/M03 A2975 RMK AO2 SLP080 P0000 T10061033,KMTO,2021-01-17T18:53:00Z,39.47,-88.27,-0.6,-3.3,280,13,,5.0,29.749016,1008.0,,TRUE,TRUE,,,,,,-SN,FEW,1200,BKN,1700,OVC,2500,,,MVFR,,,,,,0.005,,,,,,METAR,216.0
KMTJ 171853Z AUTO 00000KT 10SM CLR 03/M07 A3022 RMK AO2 SLP233 T00331067,KMTJ,2021-01-17T18:53:00Z,38.5,-107.9,3.3,-6.7,0,0,,10.0,30.221457,1023.3,,TRUE,TRUE,,,,,,,CLR,,,,,,,,VFR,,,,,,,,,,,,METAR,1755.0
KMTH 171853Z AUTO 05006KT 10SM CLR 18/11 A3004 RMK AO2 SLP171 T01830106 $,KMTH,2021-01-17T18:53:00Z,24.73,-81.05,18.3,10.6,50,6,,10.0,30.041338,1017.1,,TRUE,TRUE,TRUE,,,,,,CLR,,,,,,,,VFR,,,,,,,,,,,,METAR,1.0
KMSY 171853Z 27004KT 10SM FEW110 FEW250 16/01 A3006 RMK AO2 SLP180 T01610006,KMSY,2021-01-17T18:53:00Z,30.0,-90.25,16.1,0.6,270,4,,10.0,30.059055,1018.0,,,TRUE,,,,,,,FEW,11000,FEW,25000,,,,,VFR,,,,,,,,,,,,METAR,0.0
KMSS 171853Z AUTO 27014G22KT 10SM OVC022 M01/M05 A2944 RMK AO2 SLP975 T10061050,KMSS,2021-01-17T18:53:00Z,44.93,-74.85,-0.6,-5.0,270,14,22,10.0,29.438976,997.5,,TRUE,TRUE,,,,,,,OVC,2200,,,,,,,MVFR,,,,,,,,,,,,METAR,60.0
KMSP 171853Z 33006KT 8SM OVC008 M07/M08 A2979 RMK AO2 SLP102 T10671083,KMSP,2021-01-17T18:53:00Z,44.88,-93.23,-6.7,-8.3,330,6,,8.0,29.790354,1010.2,,,TRUE,,,,,,,OVC,800,,,,,,,IFR,,,,,,,,,,,,METAR,255.0
KMSN 171853Z 35004KT 10SM -SN BKN021 OVC150 M01/M06 A2969 RMK AO2 SNE20B52 SLP064 CIG 016V025 P0000 T10111056,KMSN,2021-01-17T18:53:00Z,43.13,-89.35,-1.1,-5.6,350,4,,10.0,29.68996,1006.4,,,TRUE,,,,,,-SN,BKN,2100,OVC,15000,,,,,MVFR,,,,,,0.005,,,,,,METAR,262.0
KMSL 171853Z AUTO 28019G26KT 10SM CLR 12/M05 A2987 RMK AO2 PK WND 27026/1853 SLP113 T01171050,KMSL,2021-01-17T18:53:00Z,34.75,-87.6,11.7,-5.0,280,19,26,10.0,29.870079,1011.3,,TRUE,TRUE,,,,,,,CLR,,,,,,,,VFR,,,,,,,,,,,,METAR,170.0
KMRB 171853Z 27013KT 10SM OVC070 06/M03 A2972 RMK AO2 SLP067 T00611033,KMRB,2021-01-17T18:53:00Z,39.4,-77.98,6.1,-3.3,270,13,,10.0,29.719488,1006.7,,,TRUE,,,,,,,OVC,7000,,,,,,,VFR,,,,,,,,,,,,METAR,165.0
KMPO 171853Z AUTO 27017G25KT 10SM OVC024 00/M04 A2955 RMK AO2 PK WND 27027/1842 SLP027 T00001044,KMPO,2021-01-17T18:53:00Z,41.13,-75.38,0.0,-4.4,270,17,25,10.0,29.551182,1002.7,,TRUE,TRUE,,,,,,,OVC,2400,,,,,,,MVFR,,,,,,,,,,,,METAR,576.0
KMOD 171853Z 00000KT 3SM HZ CLR 14/10 A3016 RMK AO2 SLP213 T01440100 $,KMOD,2021-01-17T18:53:00Z,37.62,-120.95,14.4,10.0,0,0,,3.0,30.159449,1021.3,,,TRUE,TRUE,,,,,HZ,CLR,,,,,,,,MVFR,,,,,,,,,,,,METAR,25.0
KMMV 171853Z AUTO 00000KT 10SM OVC004 08/08 A3050 RMK AO2 SLP328 T00830078,KMMV,2021-01-17T18:53:00Z,45.2,-123.13,8.3,7.8,0,0,,10.0,30.499016,1032.8,,TRUE,TRUE,,,,,,,OVC,400,,,,,,,LIFR,,,,,,,,,,,,METAR,48.0
KMMK 171853Z AUTO 27017G26KT 10SM BKN050 06/M06 A2955 RMK AO2 PK WND 29026/1853 SLP006 T00561056,KMMK,2021-01-17T18:53:00Z,41.52,-72.83,5.6,-5.6,270,17,26,10.0,29.551182,1000.6,,TRUE,TRUE,,,,,,,BKN,5000,,,,,,,VFR,,,,,,,,,,,,METAR,30.0
KMLU 171853Z 30012KT 10SM BKN110 14/M04 A3003 RMK AO2 SLP167 T01391044,KMLU,2021-01-17T18:53:00Z,32.52,-92.03,13.9,-4.4,300,12,,10.0,30.029528,1016.7,,,TRUE,,,,,,,BKN,11000,,,,,,,VFR,,,,,,,,,,,,METAR,22.0
KMLT 171853Z AUTO 26008G16KT 230V300 9SM -SN FEW022 FEW029 OVC065 02/M03 A2913 RMK AO2 SNB36 SLP871 P0000 T00171028,KMLT,2021-01-17T18:53:00Z,45.65,-68.7,1.7,-2.8,260,8,16,9.0,29.128937,987.1,,TRUE,TRUE,,,,,,-SN,FEW,2200,FEW,2900,OVC,6500,,,VFR,,,,,,0.005,,,,,,METAR,121.0
KMLS 171853Z AUTO 17006KT 10SM OVC085 01/M07 A2986 RMK AO2 SLP138 T00061067,KMLS,2021-01-17T18:53:00Z,46.43,-105.88,0.6,-6.7,170,6,,10.0,29.861221,1013.8,,TRUE,TRUE,,,,,,,OVC,8500,,,,,,,VFR,,,,,,,,,,,,METAR,800.0
KMLP 171853Z AUTO 33007KT 270V010 1/4SM FZFG VV001 M02/M04 A3009 RMK AO2 SNE43 SLP223 P0001 T10221044 $,KMLP,2021-01-17T18:53:00Z,47.45,-115.67,-2.2,-4.4,330,7,,0.25,30.088583,1022.3,,TRUE,TRUE,TRUE,,,,,FZFG,OVX,0,,,,,,,LIFR,,,,,,0.01,,,,,100,METAR,1837.0
KMLC 171853Z AUTO 30015G25KT 10SM CLR 13/M06 A3004 RMK AO2 PK WND 32026/1814 SLP175 T01281061,KMLC,2021-01-17T18:53:00Z,34.88,-95.78,12.8,-6.1,300,15,25,10.0,30.041338,1017.5,,TRUE,TRUE,,,,,,,CLR,,,,,,,,VFR,,,,,,,,,,,,METAR,231.0
KMLB 171853Z 06004KT 10SM SCT048 BKN060 16/09 A3002 RMK AO2 SLP163 T01560094,KMLB,2021-01-17T18:53:00Z,28.1,-80.65,15.6,9.4,60,4,,10.0,30.02067,1016.3,,,TRUE,,,,,,,SCT,4800,BKN,6000,,,,,VFR,,,,,,,,,,,,METAR,7.0
KMKO 171853Z AUTO 30012KT 10SM CLR 12/M04 A3002 RMK AO2 SLP168 T01171039,KMKO,2021-01-17T18:53:00Z,35.65,-95.37,11.7,-3.9,300,12,,10.0,30.02067,1016.8,,TRUE,TRUE,,,,,,,CLR,,,,,,,,VFR,,,,,,,,,,,,METAR,184.0
KMKL 171853Z 28017G24KT 10SM CLR 09/M06 A2988 RMK AO2 SLP118 T00941056,KMKL,2021-01-17T18:53:00Z,35.6,-88.92,9.4,-5.6,280,17,24,10.0,29.878937,1011.8,,,TRUE,,,,,,,CLR,,,,,,,,VFR,,,,,,,,,,,,METAR,130.0
KMIW 171853Z AUTO 30007KT 10SM OVC013 M02/M04 A2978 RMK AO2 SLP095 T10221039 $,KMIW,2021-01-17T18:53:00Z,42.12,-92.92,-2.2,-3.9,300,7,,10.0,29.778543,1009.5,,TRUE,TRUE,TRUE,,,,,,OVC,1300,,,,,,,MVFR,,,,,,,,,,,,METAR,296.0
KMIC 171853Z 27005KT 7SM OVC004 M07/M09 A2978 RMK AO2 SLP100 T10721089,KMIC,2021-01-17T18:53:00Z,45.07,-93.35,-7.2,-8.9,270,5,,7.0,29.778543,1010.0,,,TRUE,,,,,,,OVC,400,,,,,,,LIFR,,,,,,,,,,,,METAR,263.0
KMIA 171853Z 24006KT 10SM FEW055 BKN230 20/08 A3004 RMK AO2 SLP172 T02000078 $,KMIA,2021-01-17T18:53:00Z,25.8,-80.32,20.0,7.8,240,6,,10.0,30.041338,1017.2,,,TRUE,TRUE,,,,,,FEW,5500,BKN,23000,,,,,VFR,,,,,,,,,,,,METAR,1.0
KMHT 171853Z 25007G20KT 10SM BKN043 05/M04 A2937 RMK AO2 SLP963 T00501039,KMHT,2021-01-17T18:53:00Z,42.93,-71.43,5.0,-3.9,250,7,20,10.0,29.371063,996.3,,,TRUE,,,,,,,BKN,4300,,,,,,,VFR,,,,,,,,,,,,METAR,68.0
KMHE 171853Z AUTO 33018G25KT 10SM OVC050 03/M04 A2988 RMK AO2 SLP131 T00331044 TSNO,KMHE,2021-01-17T18:53:00Z,43.77,-98.03,3.3,-4.4,330,18,25,10.0,29.878937,1013.1,,TRUE,TRUE,,,TRUE,,,,OVC,5000,,,,,,,VFR,,,,,,,,,,,,METAR,397.0
KMGW 171853Z VRB05KT 7SM -SN SCT013 BKN017 OVC023 02/M01 A2973 RMK AO2 SLP077 P0000 T00171011,KMGW,2021-01-17T18:53:00Z,39.65,-79.92,1.7,-1.1,0,5,,7.0,29.731298,1007.7,,,TRUE,,,,,,-SN,SCT,1300,BKN,1700,OVC,2300,,,MVFR,,,,,,0.005,,,,,,METAR,375.0
KMGM 171853Z 22009KT 10SM CLR 12/M01 A2998 RMK AO2 SLP153 T01171011,KMGM,2021-01-17T18:53:00Z,32.3,-86.4,11.7,-1.1,220,9,,10.0,29.97933,1015.3,,,TRUE,,,,,,,CLR,,,,,,,,VFR,,,,,,,,,,,,METAR,64.0
KMFR 171853Z 00000KT 1 1/2SM BR OVC003 05/03 A3046 RMK AO2 CIG 002V006 SLP321 T00500033,KMFR,2021-01-17T18:53:00Z,42.38,-122.87,5.0,3.3,0,0,,1.5,30.46063,1032.1,,,TRUE,,,,,,BR,OVC,300,,,,,,,LIFR,,,,,,,,,,,,METAR,397.0
KMFE 171853Z 26003KT 10SM BKN036 BKN044 OVC055 21/11 A3007 RMK AO2 SLP183 T02110111,KMFE,2021-01-17T18:53:00Z,26.18,-98.25,21.1,11.1,260,3,,10.0,30.070866,1018.3,,,TRUE,,,,,,,BKN,3600,BKN,4400,OVC,5500,,,VFR,,,,,,,,,,,,METAR,29.0
KMDW 171853Z 25007KT 7SM -SN BR OVC010 M01/M04 A2969 RMK AO2 SLP063 P0000 T10111039,KMDW,2021-01-17T18:53:00Z,41.78,-87.75,-1.1,-3.9,250,7,,7.0,29.68996,1006.3,,,TRUE,,,,,,-SN BR,OVC,1000,,,,,,,MVFR,,,,,,0.005,,,,,,METAR,186.0
KMCW 171853Z AUTO 34008KT 10SM OVC008 M04/M06 A2978 RMK AO2 SLP097 T10391061,KMCW,2021-01-17T18:53:00Z,43.15,-93.33,-3.9,-6.1,340,8,,10.0,29.778543,1009.7,,TRUE,TRUE,,,,,,,OVC,800,,,,,,,IFR,,,,,,,,,,,,METAR,363.0
KMCO 171853Z 17007KT 10SM FEW040 BKN180 BKN250 14/07 A3002 RMK AO2 SLP164 T01440072,KMCO,2021-01-17T18:53:00Z,28.42,-81.33,14.4,7.2,170,7,,10.0,30.02067,1016.4,,,TRUE,,,,,,,FEW,4000,BKN,18000,BKN,25000,,,VFR,,,,,,,,,,,,METAR,27.0
KMCN 171853Z 27011G18KT 10SM CLR 12/M02 A2995 RMK AO2 SLP142 T01221022,KMCN,2021-01-17T18:53:00Z,32.68,-83.65,12.2,-2.2,270,11,18,10.0,29.949802,1014.2,,,TRUE,,,,,,,CLR,,,,,,,,VFR,,,,,,,,,,,,METAR,104.0
KMCK 171853Z AUTO 33016KT 10SM CLR 07/M10 A3000 RMK AO2 SLP175 T00721100,KMCK,2021-01-17T18:53:00Z,40.2,-100.58,7.2,-10.0,330,16,,10.0,30.0,1017.5,,TRUE,TRUE,,,,,,,CLR,,,,,,,,VFR,,,,,,,,,,,,METAR,780.0
KMCI 171853Z 31013G20KT 10SM BKN031 BKN075 04/M02 A2988 RMK AO2 SLP127 T00441022,KMCI,2021-01-17T18:53:00Z,39.3,-94.73,4.4,-2.2,310,13,20,10.0,29.878937,1012.7,,,TRUE,,,,,,,BKN,3100,BKN,7500,,,,,VFR,,,,,,,,,,,,METAR,308.0
KMCB 171853Z AUTO 25011G16KT 10SM CLR 16/M03 A3001 RMK AO2 SLP163 T01611033,KMCB,2021-01-17T18:53:00Z,31.18,-90.47,16.1,-3.3,250,11,16,10.0,30.008858,1016.3,,TRUE,TRUE,,,,,,,CLR,,,,,,,,VFR,,,,,,,,,,,,METAR,124.0
KMBS 171853Z 27006KT 10SM FEW018 BKN048 OVC075 02/M02 A2964 RMK AO2 SLP042 T00171022 $,KMBS,2021-01-17T18:53:00Z,43.53,-84.08,1.7,-2.2,270,6,,10.0,29.639763,1004.2,,,TRUE,TRUE,,,,,,FEW,1800,BKN,4800,OVC,7500,,,VFR,,,,,,,,,,,,METAR,201.0
KMAI 171853Z AUTO 26009KT 10SM CLR 14/M02 A3000 RMK AO2 SLP160 T01391022,KMAI,2021-01-17T18:53:00Z,30.83,-85.18,13.9,-2.2,260,9,,10.0,30.0,1016.0,,TRUE,TRUE,,,,,,,CLR,,,,,,,,VFR,,,,,,,,,,,,METAR,33.0
KMAF 171853Z 00000KT 10SM CLR 11/M07 A3014 RMK AO2 SLP198 T01111072,KMAF,2021-01-17T18:53:00Z,31.95,-102.2,11.1,-7.2,0,0,,10.0,30.138779,1019.8,,,TRUE,,,,,,,CLR,,,,,,,,VFR,,,,,,,,,,,,METAR,874.0
KMAE 171853Z AUTO 00000KT 3SM HZ CLR 22/09 A3017 RMK AO2 SLP214 T02220094 $,KMAE,2021-01-17T18:53:00Z,36.98,-120.12,22.2,9.4,0,0,,3.0,30.171259,1021.4,,TRUE,TRUE,TRUE,,,,,HZ,CLR,,,,,,,,MVFR,,,,,,,,,,,,METAR,77.0
KLXV 171853Z AUTO 31016G24KT 10SM CLR M01/M16 A3013 RMK AO2 PK WND 32028/1839 SLP168 T10111161,KLXV,2021-01-17T18:53:00Z,39.23,-106.32,-1.1,-16.1,310,16,24,10.0,30.129921,1016.8,,TRUE,TRUE,,,,,,,CLR,,,,,,,,VFR,,,,,,,,,,,,METAR,3027.0
KLXT 171853Z AUTO 30013G22KT 10SM BKN032 04/M02 A2988 RMK AO2 SLP125 T00391017,KLXT,2021-01-17T18:53:00Z,38.97,-94.37,3.9,-1.7,300,13,22,10.0,29.878937,1012.5,,TRUE,TRUE,,,,,,,BKN,3200,,,,,,,VFR,,,,,,,,,,,,METAR,306.0
KLWV 171853Z AUTO 26009KT 8SM -SN SCT011 OVC032 01/ A2978 RMK AO2 SNB05 SLP087 P0001 T0011 $,KLWV,2021-01-17T18:53:00Z,38.77,-87.6,1.1,,260,9,,8.0,29.778543,1008.7,,TRUE,TRUE,TRUE,,,,,-SN,SCT,1100,OVC,3200,,,,,VFR,,,,,,0.01,,,,,,METAR,128.0
KLWD 171853Z AUTO 33013KT 10SM SCT019 OVC060 00/M04 A2981 RMK AO2 SLP108 T00001044,KLWD,2021-01-17T18:53:00Z,40.63,-93.9,0.0,-4.4,330,13,,10.0,29.811024,1010.8,,TRUE,TRUE,,,,,,,SCT,1900,OVC,6000,,,,,VFR,,,,,,,,,,,,METAR,345.0
KLVS 171853Z AUTO 20012KT 10SM CLR 05/M11 A3007 RMK AO2 SLP164 T00501106,KLVS,2021-01-17T18:53:00Z,35.65,-105.13,5.0,-10.6,200,12,,10.0,30.070866,1016.4,,TRUE,TRUE,,,,,,,CLR,,,,,,,,VFR,,,,,,,,,,,,METAR,2095.0
KLVM 171853Z AUTO 22020G34KT 10SM BKN050 OVC065 05/M05 A2992 RMK AO2 PK WND 21038/1836 SLP140 T00501050,KLVM,2021-01-17T18:53:00Z,45.7,-110.43,5.0,-5.0,220,20,34,10.0,29.920275,1014.0,,TRUE,TRUE,,,,,,,BKN,5000,OVC,6500,,,,,VFR,,,,,,,,,,,,METAR,1418.0
KLVK 171853Z 07009KT 10SM CLR 21/03 A3015 RMK AO2 SLP205 T02110028,KLVK,2021-01-17T18:53:00Z,37.7,-121.82,21.1,2.8,70,9,,10.0,30.15059,1020.5,,,TRUE,,,,,,,CLR,,,,,,,,VFR,,,,,,,,,,,,METAR,120.0
KLVJ 171853Z AUTO 28007KT 250V310 8SM OVC026 18/M04 A3011 RMK AO2 SLP195 T01831039,KLVJ,2021-01-17T18:53:00Z,29.52,-95.25,18.3,-3.9,280,7,,8.0,30.109253,1019.5,,TRUE,TRUE,,,,,,,OVC,2600,,,,,,,MVFR,,,,,,,,,,,,METAR,11.0
KLSE 171853Z 32008KT 10SM OVC018 M01/M04 A2974 RMK AO2 SLP084 T10061044,KLSE,2021-01-17T18:53:00Z,43.88,-91.25,-0.6,-4.4,320,8,,10.0,29.740158,1008.4,,,TRUE,,,,,,,OVC,1800,,,,,,,MVFR,,,,,,,,,,,,METAR,198.0
KLOZ 171853Z AUTO 24007KT 10SM OVC037 04/M03 A2978 RMK AO2 SLP089 T00391033,KLOZ,2021-01-17T18:53:00Z,37.08,-84.07,3.9,-3.3,240,7,,10.0,29.778543,1008.9,,TRUE,TRUE,,,,,,,OVC,3700,,,,,,,VFR,,,,,,,,,,,,METAR,361.0
KLOU 171853Z 24009KT 10SM FEW014 OVC026 02/M01 A2977 RMK AO2 RAB12E29 SLP084 P0000 T00221006,KLOU,2021-01-17T18:53:00Z,38.22,-85.67,2.2,-0.6,240,9,,10.0,29.769686,1008.4,,,TRUE,,,,,,,FEW,1400,OVC,2600,,,,,MVFR,,,,,,0.005,,,,,,METAR,165.0
KLOL 171853Z AUTO 33003KT 10SM CLR 07/00 A3038 RMK AO2 SLP301 T00720000,KLOL,2021-01-17T18:53:00Z,40.07,-118.57,7.2,0.0,330,3,,10.0,30.380905,1030.1,,TRUE,TRUE,,,,,,,CLR,,,,,,,,VFR,,,,,,,,,,,,METAR,1191.0
KLNS 171853Z 27022G29KT 10SM OVC043 08/M03 A2967 RMK AO2 PK WND 27029/1850 SLP050 T00781028,KLNS,2021-01-17T18:53:00Z,40.12,-76.3,7.8,-2.8,270,22,29,10.0,29.66929,1005.0,,,TRUE,,,,,,,OVC,4300,,,,,,,VFR,,,,,,,,,,,,METAR,122.0
KLND 171853Z AUTO 11005KT 10SM CLR 03/M07 A2996 RMK AO2 SLP164 T00281072,KLND,2021-01-17T18:53:00Z,42.82,-108.73,2.8,-7.2,110,5,,10.0,29.958662,1016.4,,TRUE,TRUE,,,,,,,CLR,,,,,,,,VFR,,,,,,,,,,,,METAR,1700.0
KLMT 171853Z 34003KT 1/4SM R32/1200V2000FT FG VV002 00/M01 A3042 RMK AO2 SLP316 I1002 T00001011,KLMT,2021-01-17T18:53:00Z,42.15,-121.72,0.0,-1.1,340,3,,0.25,30.41929,1031.6,,,TRUE,,,,,,FG,OVX,0,,,,,,,LIFR,,,,,,,,,,,200,METAR,1246.0
KLLQ 171853Z AUTO 31009G15KT 270V330 10SM CLR 12/M05 A2999 RMK AO2 SLP154 T01221050,KLLQ,2021-01-17T18:53:00Z,33.63,-91.75,12.2,-5.0,310,9,15,10.0,29.991142,1015.4,,TRUE,TRUE,,,,,,,CLR,,,,,,,,VFR,,,,,,,,,,,,METAR,86.0
KLKV 171853Z AUTO 00000KT 10SM CLR 04/00 A3040 RMK AO2 SLP322 T00390000 $,KLKV,2021-01-17T18:53:00Z,42.17,-120.4,3.9,0.0,0,0,,10.0,30.398623,1032.2,,TRUE,TRUE,TRUE,,,,,,CLR,,,,,,,,VFR,,,,,,,,,,,,METAR,1440.0
KLIT 171853Z 31011KT 10SM FEW080 FEW250 12/M05 A2997 RMK AO2 SLP151 T01171050,KLIT,2021-01-17T18:53:00Z,34.73,-92.23,11.7,-5.0,310,11,,10.0,29.970472,1015.1,,,TRUE,,,,,,,FEW,8000,FEW,25000,,,,,VFR,,,,,,,,,,,,METAR,77.0
KLHX 171853Z AUTO 18005KT 10SM CLR 06/M09 A3008 RMK AO2 SLP190 T00561089,KLHX,2021-01-17T18:53:00Z,38.05,-103.52,5.6,-8.9,180,5,,10.0,30.079725,1019.0,,TRUE,TRUE,,,,,,,CLR,,,,,,,,VFR,,,,,,,,,,,,METAR,1289.0
KLGB 171853Z 00000KT 10SM CLR 28/M02 A3002 RMK AO2 SLP164 T02781017 $,KLGB,2021-01-17T18:53:00Z,33.82,-118.15,27.8,-1.7,0,0,,10.0,30.02067,1016.4,,,TRUE,TRUE,,,,,,CLR,,,,,,,,VFR,,,,,,,,,,,,METAR,10.0
KLFT 171853Z 25007KT 10SM CLR 16/M06 A3006 RMK AO2 SLP179 T01611056,KLFT,2021-01-17T18:53:00Z,30.2,-91.97,16.1,-5.6,250,7,,10.0,30.059055,1017.9,,,TRUE,,,,,,,CLR,,,,,,,,VFR,,,,,,,,,,,,METAR,9.0
KLFK 171853Z AUTO 34005KT 10SM CLR 17/M03 A3008 RMK AO2 SLP184 T01671033 $,KLFK,2021-01-17T18:53:00Z,31.23,-94.75,16.7,-3.3,340,5,,10.0,30.079725,1018.4,,TRUE,TRUE,TRUE,,,,,,CLR,,,,,,,,VFR,,,,,,,,,,,,METAR,87.0
KLEE 171853Z 27004KT 10SM CLR 14/07 A3004 RMK AO2 SLP171 T01440067,KLEE,2021-01-17T18:53:00Z,28.82,-81.82,14.4,6.7,270,4,,10.0,30.041338,1017.1,,,TRUE,,,,,,,CLR,,,,,,,,VFR,,,,,,,,,,,,METAR,21.0
KLEB 171853Z 24010KT 9SM SCT030 OVC037 03/M03 A2936 RMK AO2 SLP949 T00281033,KLEB,2021-01-17T18:53:00Z,43.63,-72.3,2.8,-3.3,240,10,,9.0,29.359253,994.9,,,TRUE,,,,,,,SCT,3000,OVC,3700,,,,,VFR,,,,,,,,,,,,METAR,169.0
KLCH 171853Z 27008KT 10SM CLR 17/M05 A3007 RMK AO2 SLP191 T01721050,KLCH,2021-01-17T18:53:00Z,30.13,-93.22,17.2,-5.0,270,8,,10.0,30.070866,1019.1,,,TRUE,,,,,,,CLR,,,,,,,,VFR,,,,,,,,,,,,METAR,2.0
KLBF 171853Z AUTO 30016G24KT 10SM CLR 06/M09 A2998 RMK AO2 SLP170 T00611089,KLBF,2021-01-17T18:53:00Z,41.12,-100.67,6.1,-8.9,300,16,24,10.0,29.97933,1017.0,,TRUE,TRUE,,,,,,,CLR,,,,,,,,VFR,,,,,,,,,,,,METAR,843.0
KLBB 171853Z 12007KT 070V140 10SM SCT250 09/M05 A3014 RMK AO2 SLP203 T00891050,KLBB,2021-01-17T18:53:00Z,33.67,-101.82,8.9,-5.0,120,7,,10.0,30.138779,1020.3,,,TRUE,,,,,,,SCT,25000,,,,,,,VFR,,,,,,,,,,,,METAR,996.0
KLAX 171853Z 00000KT 10SM FEW300 27/M04 A3003 RMK AO2 SLP166 T02721039,KLAX,2021-01-17T18:53:00Z,33.93,-118.38,27.2,-3.9,0,0,,10.0,30.029528,1016.6,,,TRUE,,,,,,,FEW,30000,,,,,,,VFR,,,,,,,,,,,,METAR,30.0
KLAW 171853Z 30009KT 10SM OVC090 13/M06 A3012 RMK AO2 SLP203 T01281061,KLAW,2021-01-17T18:53:00Z,34.55,-98.42,12.8,-6.1,300,9,,10.0,30.121063,1020.3,,,TRUE,,,,,,,OVC,9000,,,,,,,VFR,,,,,,,,,,,,METAR,328.0
KLAR 171853Z AUTO 28017G24KT 10SM OVC075 03/M12 A2996 RMK AO2 SLP151 T00331122 $,KLAR,2021-01-17T18:53:00Z,41.32,-105.67,3.3,-12.2,280,17,24,10.0,29.958662,1015.1,,TRUE,TRUE,TRUE,,,,,,OVC,7500,,,,,,,VFR,,,,,,,,,,,,METAR,2217.0
KLAA 171853Z AUTO 30007KT 10SM CLR 07/M08 A3007 RMK AO2 SLP181 T00671078,KLAA,2021-01-17T18:53:00Z,38.07,-102.68,6.7,-7.8,300,7,,10.0,30.070866,1018.1,,TRUE,TRUE,,,,,,,CLR,,,,,,,,VFR,,,,,,,,,,,,METAR,1129.0
KJLN 171853Z 30014G21KT 10SM CLR 08/M03 A2994 RMK AO2 SLP140 T00781028,KJLN,2021-01-17T18:53:00Z,37.15,-94.5,7.8,-2.8,300,14,21,10.0,29.940945,1014.0,,,TRUE,,,,,,,CLR,,,,,,,,VFR,,,,,,,,,,,,METAR,297.0
KJKL 171853Z AUTO 22006G17KT 10SM 03/M03 A2976 RMK AO2 SLP083 T00281028 $,KJKL,2021-01-17T18:53:00Z,37.6,-83.32,2.8,-2.8,220,6,17,10.0,29.760826,1008.3,,TRUE,TRUE,TRUE,,,,,,,,,,,,,,,,,,,,,,,,,,METAR,414.0
KJER 171853Z AUTO 29006KT 1/4SM FZFG VV002 M01/M01 A3028 RMK AO2 SLP282 T10061011,KJER,2021-01-17T18:53:00Z,42.72,-114.45,-0.6,-1.1,290,6,,0.25,30.280512,1028.2,,TRUE,TRUE,,,,,,FZFG,OVX,0,,,,,,,LIFR,,,,,,,,,,,200,METAR,1226.0
KJBR 171853Z AUTO 30010G19KT 10SM CLR 07/M04 A2991 RMK AO2 SLP130 T00721044 TSNO $,KJBR,2021-01-17T18:53:00Z,35.83,-90.65,7.2,-4.4,300,10,19,10.0,29.911417,1013.0,,TRUE,TRUE,TRUE,,TRUE,,,,CLR,,,,,,,,VFR,,,,,,,,,,,,METAR,79.0
KIXD 171853Z 30016G22KT 10SM OVC035 05/M03 A2990 RMK AO2 SLP133 T00501028,KIXD,2021-01-17T18:53:00Z,38.82,-94.88,5.0,-2.8,300,16,22,10.0,29.899607,1013.3,,,TRUE,,,,,,,OVC,3500,,,,,,,VFR,,,,,,,,,,,,METAR,322.0
KIWI 171853Z AUTO 25012G24KT 220V280 10SM BKN043 OVC060 05/M03 A2927 RMK AO2 SLP911 T00501033,KIWI,2021-01-17T18:53:00Z,43.97,-69.72,5.0,-3.3,250,12,24,10.0,29.27067,991.1,,TRUE,TRUE,,,,,,,BKN,4300,OVC,6000,,,,,VFR,,,,,,,,,,,,METAR,16.0
KITR 171853Z AUTO 35011KT 10SM CLR 07/M11 A3003 RMK AO2 SLP172 T00671111 $,KITR,2021-01-17T18:53:00Z,39.23,-102.28,6.7,-11.1,350,11,,10.0,30.029528,1017.2,,TRUE,TRUE,TRUE,,,,,,CLR,,,,,,,,VFR,,,,,,,,,,,,METAR,1285.0
KIPL 171853Z AUTO VRB03KT 10SM CLR 24/M03 A3007 RMK AO2 SLP182 T02391033 $,KIPL,2021-01-17T18:53:00Z,32.83,-115.58,23.9,-3.3,0,3,,10.0,30.070866,1018.2,,TRUE,TRUE,TRUE,,,,,,CLR,,,,,,,,VFR,,,,,,,,,,,,METAR,-16.0
KINK 171853Z AUTO VRB03KT 10SM CLR 13/M06 A3012 RMK AO2 SLP188 T01281061,KINK,2021-01-17T18:53:00Z,31.78,-103.2,12.8,-6.1,0,3,,10.0,30.121063,1018.8,,TRUE,TRUE,,,,,,,CLR,,,,,,,,VFR,,,,,,,,,,,,METAR,857.0
KIML 171853Z AUTO 33014KT 10SM CLR 07/M13 A2999 RMK AO2 SLP175 T00721128,KIML,2021-01-17T18:53:00Z,40.52,-101.62,7.2,-12.8,330,14,,10.0,29.991142,1017.5,,TRUE,TRUE,,,,,,,CLR,,,,,,,,VFR,,,,,,,,,,,,METAR,997.0
KILM 171853Z 25013KT 10SM CLR 12/M02 A2990 RMK AO2 SLP123 T01171022,KILM,2021-01-17T18:53:00Z,34.27,-77.9,11.7,-2.2,250,13,,10.0,29.899607,1012.3,,,TRUE,,,,,,,CLR,,,,,,,,VFR,,,,,,,,,,,,METAR,9.0
KICT 171853Z 33017G28KT 10SM CLR 09/M04 A3000 RMK AO2 PK WND 31028/1845 SLP166 T00891044,KICT,2021-01-17T18:53:00Z,37.65,-97.43,8.9,-4.4,330,17,28,10.0,30.0,1016.6,,,TRUE,,,,,,,CLR,,,,,,,,VFR,,,,,,,,,,,,METAR,428.0
KICR 171853Z AUTO 30011KT 10SM CLR 04/M07 A2992 RMK AO2 SLP147 T00391067,KICR,2021-01-17T18:53:00Z,43.38,-99.85,3.9,-6.7,300,11,,10.0,29.920275,1014.7,,TRUE,TRUE,,,,,,,CLR,,,,,,,,VFR,,,,,,,,,,,,METAR,618.0
KIAH 171853Z 33010KT 10SM CLR 19/M03 A3010 RMK AO2 SLP193 T01941028 $,KIAH,2021-01-17T18:53:00Z,30.0,-95.37,19.4,-2.8,330,10,,10.0,30.100393,1019.3,,,TRUE,TRUE,,,,,,CLR,,,,,,,,VFR,,,,,,,,,,,,METAR,27.0
KIAG 171853Z 26018KT 10SM BKN028 OVC032 03/M01 A2957 RMK AO2 PK WND 25026/1811 SLP028 T00281011 $,KIAG,2021-01-17T18:53:00Z,43.12,-78.93,2.8,-1.1,260,18,,10.0,29.568897,1002.8,,,TRUE,TRUE,,,,,,BKN,2800,OVC,3200,,,,,MVFR,,,,,,,,,,,,METAR,179.0
KHZY 171853Z AUTO 26007KT 10SM BKN014 OVC020 02/00 A2965 RMK AO2 SLP049 T00170000,KHZY,2021-01-17T18:53:00Z,41.78,-80.7,1.7,0.0,260,7,,10.0,29.648623,1004.9,,TRUE,TRUE,,,,,,,BKN,1400,OVC,2000,,,,,MVFR,,,,,,,,,,,,METAR,279.0
KHYR 171853Z AUTO 28004KT 10SM BKN015 BKN020 OVC027 M03/M07 A2972 RMK AO2 SLP083 T10281067 $,KHYR,2021-01-17T18:53:00Z,46.02,-91.45,-2.8,-6.7,280,4,,10.0,29.719488,1008.3,,TRUE,TRUE,TRUE,,,,,,BKN,1500,BKN,2000,OVC,2700,,,MVFR,,,,,,,,,,,,METAR,369.0
KHWO 171853Z 10SM SCT060 21/07 A3005 RMK AO2 SLP176 T02060072,KHWO,2021-01-17T18:53:00Z,26.0,-80.23,20.6,7.2,,,,10.0,30.050198,1017.6,,,TRUE,,,,,,,SCT,6000,,,,,,,VFR,,,,,,,,,,,,METAR,2.0
KHVR 171853Z AUTO 23014KT 10SM OVC060 04/M03 A2980 RMK AO2 SLP118 T00441028,KHVR,2021-01-17T18:53:00Z,48.55,-109.77,4.4,-2.8,230,14,,10.0,29.799213,1011.8,,TRUE,TRUE,,,,,,,OVC,6000,,,,,,,VFR,,,,,,,,,,,,METAR,789.0
KHVN 171853Z 30015G27KT 10SM OVC050 07/M04 A2957 RMK AO2 PK WND 32027/1852 SLP012 T00721039,KHVN,2021-01-17T18:53:00Z,41.27,-72.88,7.2,-3.9,300,15,27,10.0,29.568897,1001.2,,,TRUE,,,,,,,OVC,5000,,,,,,,VFR,,,,,,,,,,,,METAR,4.0
KHUF 171853Z 27008KT 10SM FEW011 BKN027 OVC035 01/M03 A2975 RMK AO2 SNE46 SLP079 P0000 T00061028,KHUF,2021-01-17T18:53:00Z,39.45,-87.32,0.6,-2.8,270,8,,10.0,29.749016,1007.9,,,TRUE,,,,,,,FEW,1100,BKN,2700,OVC,3500,,,MVFR,,,,,,0.005,,,,,,METAR,174.0
KHTL 171853Z AUTO 35005KT 5SM -SN FEW010 OVC018 M01/M03 A2960 RMK AO2 SNB50 SLP038 P0000 T10061033,KHTL,2021-01-17T18:53:00Z,44.35,-84.67,-0.6,-3.3,350,5,,5.0,29.601377,1003.8,,TRUE,TRUE,,,,,,-SN,FEW,1000,OVC,1800,,,,,MVFR,,,,,,0.005,,,,,,METAR,350.0
KHSV 171853Z 24018G22KT 10SM FEW055 11/M04 A2987 RMK AO2 SLP115 T01061039,KHSV,2021-01-17T18:53:00Z,34.65,-86.78,10.6,-3.9,240,18,22,10.0,29.870079,1011.5,,,TRUE,,,,,,,FEW,5500,,,,,,,VFR,,,,,,,,,,,,METAR,190.0
KHSI 171853Z AUTO 31019G25KT 10SM CLR 06/M05 A2995 RMK AO2 PK WND 30027/1835 SLP153 T00611050,KHSI,2021-01-17T18:53:00Z,40.6,-98.43,6.1,-5.0,310,19,25,10.0,29.949802,1015.3,,TRUE,TRUE,,,,,,,CLR,,,,,,,,VFR,,,,,,,,,,,,METAR,592.0
KHRO 171853Z AUTO 29012G20KT 10SM BKN080 08/M06 A2990 RMK AO2 PK WND 28026/1812 SLP127 T00831056,KHRO,2021-01-17T18:53:00Z,36.27,-93.15,8.3,-5.6,290,12,20,10.0,29.899607,1012.7,,TRUE,TRUE,,,,,,,BKN,8000,,,,,,,VFR,,,,,,,,,,,,METAR,417.0
KHRI 171853Z AUTO 26004KT 10SM CLR 09/04 A3035 RMK AO2 SLP281 T00940044,KHRI,2021-01-17T18:53:00Z,45.83,-119.27,9.4,4.4,260,4,,10.0,30.351377,1028.1,,TRUE,TRUE,,,,,,,CLR,,,,,,,,VFR,,,,,,,,,,,,METAR,194.0
KHQM 171853Z AUTO 24007KT 5SM BR BKN010 BKN019 09/08 A3049 RMK AO2 SLP328 T00940078,KHQM,2021-01-17T18:53:00Z,46.97,-123.93,9.4,7.8,240,7,,5.0,30.490158,1032.8,,TRUE,TRUE,,,,,,BR,BKN,1000,BKN,1900,,,,,MVFR,,,,,,,,,,,,METAR,4.0
KHOU 171853Z 30007KT 9SM CLR 19/M06 A3009 RMK AO2 SLP195 T01941056,KHOU,2021-01-17T18:53:00Z,29.63,-95.28,19.4,-5.6,300,7,,9.0,30.088583,1019.5,,,TRUE,,,,,,,CLR,,,,,,,,VFR,,,,,,,,,,,,METAR,13.0
KHOT 171853Z AUTO 31009G17KT 280V340 10SM CLR 12/M06 A2998 RMK AO2 SLP150 T01221056,KHOT,2021-01-17T18:53:00Z,34.48,-93.1,12.2,-5.6,310,9,17,10.0,29.97933,1015.0,,TRUE,TRUE,,,,,,,CLR,,,,,,,,VFR,,,,,,,,,,,,METAR,153.0
KHLN 171853Z 24010G15KT 10SM OVC048 05/M02 A2999 RMK AO2 SLP187 T00501022,KHLN,2021-01-17T18:53:00Z,46.6,-111.98,5.0,-2.2,240,10,15,10.0,29.991142,1018.7,,,TRUE,,,,,,,OVC,4800,,,,,,,VFR,,,,,,,,,,,,METAR,1178.0
KHLC 171853Z AUTO 33013G20KT 10SM CLR 08/M07 A3003 RMK AO2 SLP179 T00781067 $,KHLC,2021-01-17T18:53:00Z,39.37,-99.83,7.8,-6.7,330,13,20,10.0,30.029528,1017.9,,TRUE,TRUE,TRUE,,,,,,CLR,,,,,,,,VFR,,,,,,,,,,,,METAR,667.0
KHKY 171853Z 19008KT 10SM OVC050 07/M04 A2981 RMK AO2 SLP090 T00721044,KHKY,2021-01-17T18:53:00Z,35.75,-81.38,7.2,-4.4,190,8,,10.0,29.811024,1009.0,,,TRUE,,,,,,,OVC,5000,,,,,,,VFR,,,,,,,,,,,,METAR,357.0
KHKS 171853Z 24011G22KT 10SM CLR 15/M06 A2997 RMK AO2 SLP145 T01501056,KHKS,2021-01-17T18:53:00Z,32.33,-90.22,15.0,-5.6,240,11,22,10.0,29.970472,1014.5,,,TRUE,,,,,,,CLR,,,,,,,,VFR,,,,,,,,,,,,METAR,103.0
KHKA 171853Z AUTO 29013G19KT 10SM CLR 10/M03 A2989 RMK AO2 SLP123 T01001028 $,KHKA,2021-01-17T18:53:00Z,35.93,-89.83,10.0,-2.8,290,13,19,10.0,29.890747,1012.3,,TRUE,TRUE,TRUE,,,,,,CLR,,,,,,,,VFR,,,,,,,,,,,,METAR,78.0
KHJO 171853Z AUTO 00000KT 3SM HZ CLR 14/08 A3017 RMK AO2 SLP219 T01440083,KHJO,2021-01-17T18:53:00Z,36.32,-119.62,14.4,8.3,0,0,,3.0,30.171259,1021.9,,TRUE,TRUE,,,,,,HZ,CLR,,,,,,,,MVFR,,,,,,,,,,,,METAR,73.0
KHIO 171853Z 29003KT 2SM BR OVC004 07/07 A3050 RMK AO2 SLP331 T00720067,KHIO,2021-01-17T18:53:00Z,45.55,-122.95,7.2,6.7,290,3,,2.0,30.499016,1033.1,,,TRUE,,,,,,BR,OVC,400,,,,,,,LIFR,,,,,,,,,,,,METAR,62.0
KHIB 171853Z AUTO 00000KT 10SM OVC007 M08/M09 A2973 RMK AO2 SLP093 T10781094,KHIB,2021-01-17T18:53:00Z,47.38,-92.83,-7.8,-9.4,0,0,,10.0,29.731298,1009.3,,TRUE,TRUE,,,,,,,OVC,700,,,,,,,IFR,,,,,,,,,,,,METAR,409.0
KHHR 171853Z 00000KT 10SM CLR 27/M02 A3003 RMK AO2 SLP167 T02721017 $,KHHR,2021-01-17T18:53:00Z,33.92,-118.33,27.2,-1.7,0,0,,10.0,30.029528,1016.7,,,TRUE,TRUE,,,,,,CLR,,,,,,,,VFR,,,,,,,,,,,,METAR,21.0
KHGR 171853Z 27013KT 10SM SCT039 BKN049 BKN060 06/M03 A2971 RMK AO2 SLP075 T00611028,KHGR,2021-01-17T18:53:00Z,39.7,-77.73,6.1,-2.8,270,13,,10.0,29.71063,1007.5,,,TRUE,,,,,,,SCT,3900,BKN,4900,BKN,6000,,,VFR,,,,,,,,,,,,METAR,206.0
KHFD 171853Z 24013G25KT 10SM FEW048 BKN060 07/M05 A2953 RMK AO2 PK WND 27027/1842 SLP999 T00671050,KHFD,2021-01-17T18:53:00Z,41.73,-72.65,6.7,-5.0,240,13,25,10.0,29.530512,999.9,,,TRUE,,,,,,,FEW,4800,BKN,6000,,,,,VFR,,,,,,,,,,,,METAR,3.0
KHEI 171853Z AUTO 29008KT 10SM CLR 01/M08 A2988 RMK AO2 SLP144 T00111078,KHEI,2021-01-17T18:53:00Z,46.02,-102.65,1.1,-7.8,290,8,,10.0,29.878937,1014.4,,TRUE,TRUE,,,,,,,CLR,,,,,,,,VFR,,,,,,,,,,,,METAR,824.0
KHBR 171853Z AUTO 32011KT 10SM SCT090 12/M08 A3012 RMK AO2 SLP198 T01221078,KHBR,2021-01-17T18:53:00Z,34.98,-99.05,12.2,-7.8,320,11,,10.0,30.121063,1019.8,,TRUE,TRUE,,,,,,,SCT,9000,,,,,,,VFR,,,,,,,,,,,,METAR,475.0
KHBG 171853Z AUTO 27011G18KT 10SM CLR 15/M04 A3002 RMK AO2 SLP164 T01501039,KHBG,2021-01-17T18:53:00Z,31.27,-89.25,15.0,-3.9,270,11,18,10.0,30.02067,1016.4,,TRUE,TRUE,,,,,,,CLR,,,,,,,,VFR,,,,,,,,,,,,METAR,45.0
KHAO 171853Z AUTO VRB05KT 7SM -RA FEW008 BKN013 OVC035 02/01 A2973 RMK AO2 RAB11E31B48UPB31E35SNE11B35E48 SLP073 P0001 T00220011 $,KHAO,2021-01-17T18:53:00Z,39.37,-84.52,2.2,1.1,0,5,,7.0,29.731298,1007.3,,TRUE,TRUE,TRUE,,,,,-RA,FEW,800,BKN,1300,OVC,3500,,,MVFR,,,,,,0.01,,,,,,METAR,185.0
KGZH 171853Z AUTO VRB06KT 10SM CLR 13/M01 A3000 RMK AO2 SLP159 T01331011,KGZH,2021-01-17T18:53:00Z,31.42,-87.05,13.3,-1.1,0,6,,10.0,30.0,1015.9,,TRUE,TRUE,,,,,,,CLR,,,,,,,,VFR,,,,,,,,,,,,METAR,77.0
KGWO 171853Z AUTO 27007KT 10SM CLR 11/00 A2997 RMK AO2 SLP147 T01110000,KGWO,2021-01-17T18:53:00Z,33.5,-90.08,11.1,0.0,270,7,,10.0,29.970472,1014.7,,TRUE,TRUE,,,,,,,CLR,,,,,,,,VFR,,,,,,,,,,,,METAR,42.0
KGVL 171853Z AUTO 23012G20KT 10SM BKN042 07/M03 A2990 RMK AO2 SLP127 T00721033,KGVL,2021-01-17T18:53:00Z,34.27,-83.83,7.2,-3.3,230,12,20,10.0,29.899607,1012.7,,TRUE,TRUE,,,,,,,BKN,4200,,,,,,,VFR,,,,,,,,,,,,METAR,387.0
KGUY 171853Z AUTO 34011KT 10SM CLR 10/M09 A3009 RMK AO2 SLP183 T01001089,KGUY,2021-01-17T18:53:00Z,36.68,-101.5,10.0,-8.9,340,11,,10.0,30.088583,1018.3,,TRUE,TRUE,,,,,,,CLR,,,,,,,,VFR,,,,,,,,,,,,METAR,950.0
KGTF 171853Z 23024G31KT 10SM OVC110 06/M04 A2985 RMK AO2 PK WND 23031/1852 SLP131 T00611044 $,KGTF,2021-01-17T18:53:00Z,47.47,-111.38,6.1,-4.4,230,24,31,10.0,29.84941,1013.1,,,TRUE,TRUE,,,,,,OVC,11000,,,,,,,VFR,,,,,,,,,,,,METAR,1117.0
KGSP 171853Z 25012G18KT 10SM BKN049 08/M05 A2987 RMK AO2 SLP117 T00831050,KGSP,2021-01-17T18:53:00Z,34.9,-82.22,8.3,-5.0,250,12,18,10.0,29.870079,1011.7,,,TRUE,,,,,,,BKN,4900,,,,,,,VFR,,,,,,,,,,,,METAR,285.0
KGRR 171853Z 26005KT 2SM -SN BR BKN011 BKN018 OVC042 02/00 A2964 RMK AO2 SLP044 P0001 T00220000 $,KGRR,2021-01-17T18:53:00Z,42.88,-85.52,2.2,0.0,260,5,,2.0,29.639763,1004.4,,,TRUE,TRUE,,,,,-SN BR,BKN,1100,BKN,1800,OVC,4200,,,IFR,,,,,,0.01,,,,,,METAR,239.0
KGRI 171853Z 30016G26KT 10SM CLR 07/M06 A2994 RMK AO2 PK WND 30027/1834 SLP155 T00671056 $,KGRI,2021-01-17T18:53:00Z,40.97,-98.32,6.7,-5.6,300,16,26,10.0,29.940945,1015.5,,,TRUE,TRUE,,,,,,CLR,,,,,,,,VFR,,,,,,,,,,,,METAR,562.0
KGRB 171853Z 32005KT 10SM OVC035 M01/M06 A2969 RMK AO2 SLP063 T10061061,KGRB,2021-01-17T18:53:00Z,44.48,-88.13,-0.6,-6.1,320,5,,10.0,29.68996,1006.3,,,TRUE,,,,,,,OVC,3500,,,,,,,VFR,,,,,,,,,,,,METAR,209.0
KGPT 171853Z 19007KT 10SM CLR 14/03 A3004 RMK AO2 SLP171 T01390033 $,KGPT,2021-01-17T18:53:00Z,30.42,-89.08,13.9,3.3,190,7,,10.0,30.041338,1017.1,,,TRUE,TRUE,,,,,,CLR,,,,,,,,VFR,,,,,,,,,,,,METAR,5.0
KGOK 171853Z AUTO 30017G26KT 10SM CLR 11/M06 A3006 RMK AO2 PK WND 31026/1822 SLP185 T01111056,KGOK,2021-01-17T18:53:00Z,35.85,-97.4,11.1,-5.6,300,17,26,10.0,30.059055,1018.5,,TRUE,TRUE,,,,,,,CLR,,,,,,,,VFR,,,,,,,,,,,,METAR,326.0
KGNV 171853Z 28011KT 10SM CLR 13/01 A3003 RMK AO2 SLP171 T01330011,KGNV,2021-01-17T18:53:00Z,29.7,-82.28,13.3,1.1,280,11,,10.0,30.029528,1017.1,,,TRUE,,,,,,,CLR,,,,,,,,VFR,,,,,,,,,,,,METAR,41.0
KGMU 171853Z 24015G20KT 10SM BKN049 09/M04 A2987 RMK AO2 SLP118 T00891039,KGMU,2021-01-17T18:53:00Z,34.85,-82.35,8.9,-3.9,240,15,20,10.0,29.870079,1011.8,,,TRUE,,,,,,,BKN,4900,,,,,,,VFR,,,,,,,,,,,,METAR,309.0
KGLR 171853Z AUTO 28006KT 10SM OVC011 M01/M05 A2959 RMK AO2 CIG 009V013 SLP034 T10111050,KGLR,2021-01-17T18:53:00Z,45.02,-84.68,-1.1,-5.0,280,6,,10.0,29.589567,1003.4,,TRUE,TRUE,,,,,,,OVC,1100,,,,,,,MVFR,,,,,,,,,,,,METAR,403.0
KGLH 171853Z 32014G23KT 10SM CLR 11/M03 A2997 RMK AO2 SLP158 T01111028,KGLH,2021-01-17T18:53:00Z,33.47,-90.98,11.1,-2.8,320,14,23,10.0,29.970472,1015.8,,,TRUE,,,,,,,CLR,,,,,,,,VFR,,,,,,,,,,,,METAR,40.0
KGLD 171853Z AUTO 34013G22KT 10SM CLR 07/M14 A3002 RMK AO2 SLP176 T00671144 $,KGLD,2021-01-17T18:53:00Z,39.37,-101.7,6.7,-14.4,340,13,22,10.0,30.02067,1017.6,,TRUE,TRUE,TRUE,,,,,,CLR,,,,,,,,VFR,,,,,,,,,,,,METAR,1111.0
KGKY 171853Z 33011G17KT 10SM CLR 17/M06 A3012 RMK AO2 SLP197 T01671056,KGKY,2021-01-17T18:53:00Z,32.67,-97.1,16.7,-5.6,330,11,17,10.0,30.121063,1019.7,,,TRUE,,,,,,,CLR,,,,,,,,VFR,,,,,,,,,,,,METAR,189.0
KGJT 171853Z 00000KT 10SM CLR 05/M07 A3022 RMK AO2 SLP240 T00501072,KGJT,2021-01-17T18:53:00Z,39.13,-108.53,5.0,-7.2,0,0,,10.0,30.221457,1024.0,,,TRUE,,,,,,,CLR,,,,,,,,VFR,,,,,,,,,,,,METAR,1475.0
KGIF 171853Z AUTO 23003KT 10SM CLR 14/08 A3004 RMK AO2 SLP171 T01440078,KGIF,2021-01-17T18:53:00Z,28.07,-81.75,14.4,7.8,230,3,,10.0,30.041338,1017.1,,TRUE,TRUE,,,,,,,CLR,,,,,,,,VFR,,,,,,,,,,,,METAR,44.0
KGGW 171853Z AUTO 10006KT 10SM OVC080 00/M05 A2981 RMK AO2 SLP125 T00001050,KGGW,2021-01-17T18:53:00Z,48.22,-106.62,0.0,-5.0,100,6,,10.0,29.811024,1012.5,,TRUE,TRUE,,,,,,,OVC,8000,,,,,,,VFR,,,,,,,,,,,,METAR,698.0
KGGG 171853Z 33015G18KT SCT120 13/M06 A3008 RMK AO2 SLP187 T01281056 RVRNO,KGGG,2021-01-17T18:53:00Z,32.38,-94.72,12.8,-5.6,330,15,18,,30.079725,1018.7,,,TRUE,,,,,,,SCT,12000,,,,,,,,,,,,,,,,,,,METAR,107.0
KGFL 171853Z AUTO 24010KT 10SM OVC039 02/M04 A2945 RMK AO2 SLP979 T00221039,KGFL,2021-01-17T18:53:00Z,43.33,-73.62,2.2,-3.9,240,10,,10.0,29.450787,997.9,,TRUE,TRUE,,,,,,,OVC,3900,,,,,,,VFR,,,,,,,,,,,,METAR,99.0
KGFK 171853Z 35014KT 9SM OVC008 M06/M08 A2987 RMK AO2 SLP132 T10561078,KGFK,2021-01-17T18:53:00Z,47.95,-97.18,-5.6,-7.8,350,14,,9.0,29.870079,1013.2,,,TRUE,,,,,,,OVC,800,,,,,,,IFR,,,,,,,,,,,,METAR,256.0
KGEY 171853Z AUTO 14003KT 10SM FEW060 OVC080 01/M07 A2997 RMK AO2 SLP183 T00061072,KGEY,2021-01-17T18:53:00Z,44.52,-108.08,0.6,-7.2,140,3,,10.0,29.970472,1018.3,,TRUE,TRUE,,,,,,,FEW,6000,OVC,8000,,,,,VFR,,,,,,,,,,,,METAR,1191.0
KGEG 171853Z 26009KT 1SM R21/P6000FT BR SCT003 OVC005 01/M01 A3028 RMK AO2 SFC VIS 2 RAB43E49 SLP272 VIS SE-SW 1 1/2 P0000 T00061006 $,KGEG,2021-01-17T18:53:00Z,47.62,-117.53,0.6,-0.6,260,9,,1.0,30.280512,1027.2,,,TRUE,TRUE,,,,,BR,SCT,300,OVC,500,,,,,IFR,,,,,,0.005,,,,,,METAR,718.0
KGCC 171853Z AUTO 23013KT 10SM FEW065 04/M07 A2989 RMK AO2 SLP150 T00391067 $,KGCC,2021-01-17T18:53:00Z,44.33,-105.55,3.9,-6.7,230,13,,10.0,29.890747,1015.0,,TRUE,TRUE,TRUE,,,,,,FEW,6500,,,,,,,VFR,,,,,,,,,,,,METAR,1328.0
KFYV 171853Z 27010G21KT 10SM FEW080 08/M03 A2996 RMK AO2 SLP150 T00831033,KFYV,2021-01-17T18:53:00Z,36.02,-94.17,8.3,-3.3,270,10,21,10.0,29.958662,1015.0,,,TRUE,,,,,,,FEW,8000,,,,,,,VFR,,,,,,,,,,,,METAR,377.0
KFXE 171853Z 26006KT 10SM SCT030 20/06 A3003 RMK AO2 SLP171 T02000061 $,KFXE,2021-01-17T18:53:00Z,26.2,-80.18,20.0,6.1,260,6,,10.0,30.029528,1017.1,,,TRUE,TRUE,,,,,,SCT,3000,,,,,,,VFR,,,,,,,,,,,,METAR,3.0
KFWN 171853Z AUTO 26009G20KT 10SM FEW046 06/M04 A2959 RMK AO2 SLP021 T00561039 $,KFWN,2021-01-17T18:53:00Z,41.2,-74.63,5.6,-3.9,260,9,20,10.0,29.589567,1002.1,,TRUE,TRUE,TRUE,,,,,,FEW,4600,,,,,,,VFR,,,,,,,,,,,,METAR,129.0
KFUL 171853Z 07008KT 10SM CLR 30/M06 A3001 RMK AO2 SLP160 T03001061,KFUL,2021-01-17T18:53:00Z,33.87,-117.98,30.0,-6.1,70,8,,10.0,30.008858,1016.0,,,TRUE,,,,,,,CLR,,,,,,,,VFR,,,,,,,,,,,,METAR,23.0
KFTY 171853Z 22010KT 10SM BKN048 09/M02 A2991 RMK AO2 SLP129 T00941022,KFTY,2021-01-17T18:53:00Z,33.78,-84.52,9.4,-2.2,220,10,,10.0,29.911417,1012.9,,,TRUE,,,,,,,BKN,4800,,,,,,,VFR,,,,,,,,,,,,METAR,245.0
KFTW 171853Z 34012G19KT 10SM CLR 14/M06 A3011 RMK AO2 SLP196 T01391061 $,KFTW,2021-01-17T18:53:00Z,32.83,-97.37,13.9,-6.1,340,12,19,10.0,30.109253,1019.6,,,TRUE,TRUE,,,,,,CLR,,,,,,,,VFR,,,,,,,,,,,,METAR,213.0
KFST 171853Z AUTO 11003KT 10SM CLR 14/M06 A3012 RMK AO2 SLP179 T01391056,KFST,2021-01-17T18:53:00Z,30.92,-102.92,13.9,-5.6,110,3,,10.0,30.121063,1017.9,,TRUE,TRUE,,,,,,,CLR,,,,,,,,VFR,,,,,,,,,,,,METAR,917.0
KFSM 171853Z 27016G21KT 10SM CLR 11/M03 A2999 RMK AO2 SLP157 T01111028,KFSM,2021-01-17T18:53:00Z,35.33,-94.37,11.1,-2.8,270,16,21,10.0,29.991142,1015.7,,,TRUE,,,,,,,CLR,,,,,,,,VFR,,,,,,,,,,,,METAR,136.0
KFRG 171853Z AUTO 29016G23KT 10SM BKN045 06/M04 A2961 RMK AO2 PK WND 27028/1834 SLP028 T00611044,KFRG,2021-01-17T18:53:00Z,40.73,-73.42,6.1,-4.4,290,16,23,10.0,29.610237,1002.8,,TRUE,TRUE,,,,,,,BKN,4500,,,,,,,VFR,,,,,,,,,,,,METAR,23.0
KFPR 171853Z VRB05KT 10SM OVC050 17/07 A3002 RMK AO2 SLP165 T01670072,KFPR,2021-01-17T18:53:00Z,27.5,-80.38,16.7,7.2,0,5,,10.0,30.02067,1016.5,,,TRUE,,,,,,,OVC,5000,,,,,,,VFR,,,,,,,,,,,,METAR,7.0
KFOK 171853Z 27020G27KT 10SM BKN050 07/M05 A2960 RMK AO2 PK WND 29031/1817 SLP023 T00671050,KFOK,2021-01-17T18:53:00Z,40.85,-72.62,6.7,-5.0,270,20,27,10.0,29.601377,1002.3,,,TRUE,,,,,,,BKN,5000,,,,,,,VFR,,,,,,,,,,,,METAR,13.0
KFOE 171853Z 31020G28KT 10SM SCT100 07/M03 A2991 RMK AO2 PK WND 30028/1852 SLP134 T00671028,KFOE,2021-01-17T18:53:00Z,38.93,-95.65,6.7,-2.8,310,20,28,10.0,29.911417,1013.4,,,TRUE,,,,,,,SCT,10000,,,,,,,VFR,,,,,,,,,,,,METAR,315.0
KFNT 171853Z 30007KT 5SM -SN BKN010 OVC016 03/M01 A2963 RMK AO2 SLP041 P0000 T00281006 $,KFNT,2021-01-17T18:53:00Z,42.97,-83.75,2.8,-0.6,300,7,,5.0,29.630905,1004.1,,,TRUE,TRUE,,,,,-SN,BKN,1000,OVC,1600,,,,,MVFR,,,,,,0.005,,,,,,METAR,235.0
KFNB 171853Z AUTO 32014KT 10SM FEW028 04/M03 A2989 RMK AO2 SLP130 T00391028,KFNB,2021-01-17T18:53:00Z,40.07,-95.58,3.9,-2.8,320,14,,10.0,29.890747,1013.0,,TRUE,TRUE,,,,,,,FEW,2800,,,,,,,VFR,,,,,,,,,,,,METAR,301.0
KFMY 171853Z 20006KT 10SM BKN070 17/09 A3003 RMK AO2 SLP172 T01720094,KFMY,2021-01-17T18:53:00Z,26.58,-81.87,17.2,9.4,200,6,,10.0,30.029528,1017.2,,,TRUE,,,,,,,BKN,7000,,,,,,,VFR,,,,,,,,,,,,METAR,4.0
KFMN 171853Z 28026G33KT 10SM CLR 08/M09 A3013 RMK AO2 PK WND 28033/1850 PRESFR SLP204 T00781089,KFMN,2021-01-17T18:53:00Z,36.75,-108.23,7.8,-8.9,280,26,33,10.0,30.129921,1020.4,,,TRUE,,,,,,,CLR,,,,,,,,VFR,,,,,,,,,,,,METAR,1677.0
KFLO 171853Z 27014G18KT 10SM CLR 10/M02 A2991 RMK AO2 SLP127 T01001022,KFLO,2021-01-17T18:53:00Z,34.18,-79.73,10.0,-2.2,270,14,18,10.0,29.911417,1012.7,,,TRUE,,,,,,,CLR,,,,,,,,VFR,,,,,,,,,,,,METAR,43.0
KFLL 171853Z VRB04KT 10SM SCT060 BKN250 21/08 A3003 RMK AO2 SLP167 T02060083,KFLL,2021-01-17T18:53:00Z,26.07,-80.15,20.6,8.3,0,4,,10.0,30.029528,1016.7,,,TRUE,,,,,,,SCT,6000,BKN,25000,,,,,VFR,,,,,,,,,,,,METAR,1.0
KFLD 171853Z AUTO 34004KT 10SM OVC017 M01/M04 A2969 RMK AO2 SLP062 T10061044,KFLD,2021-01-17T18:53:00Z,43.77,-88.48,-0.6,-4.4,340,4,,10.0,29.68996,1006.2,,TRUE,TRUE,,,,,,,OVC,1700,,,,,,,MVFR,,,,,,,,,,,,METAR,242.0
KFHR 171853Z AUTO 27004KT 10SM CLR 09/07 A3046 RMK AO2 SLP313 T00940072 TSNO,KFHR,2021-01-17T18:53:00Z,48.52,-123.03,9.4,7.2,270,4,,10.0,30.46063,1031.3,,TRUE,TRUE,,,TRUE,,,,CLR,,,,,,,,VFR,,,,,,,,,,,,METAR,34.0
KFFT 171853Z AUTO 25007KT 3SM -SN BR FEW008 BKN033 OVC050 02/M01 A2976 RMK AO2 SLP081 P0002 T00171006,KFFT,2021-01-17T18:53:00Z,38.18,-84.9,1.7,-0.6,250,7,,3.0,29.760826,1008.1,,TRUE,TRUE,,,,,,-SN BR,FEW,800,BKN,3300,OVC,5000,,,MVFR,,,,,,0.02,,,,,,METAR,235.0
KFFC 171853Z AUTO 27010G22KT 10SM FEW046 09/M02 A2993 RMK AO2 SLP143 T00891022,KFFC,2021-01-17T18:53:00Z,33.35,-84.57,8.9,-2.2,270,10,22,10.0,29.929134,1014.3,,TRUE,TRUE,,,,,,,FEW,4600,,,,,,,VFR,,,,,,,,,,,,METAR,242.0
KFDR 171853Z AUTO 30011KT 10SM CLR 12/M05 A3011 RMK AO2 SLP193 T01171050 $,KFDR,2021-01-17T18:53:00Z,34.35,-98.98,11.7,-5.0,300,11,,10.0,30.109253,1019.3,,TRUE,TRUE,TRUE,,,,,,CLR,,,,,,,,VFR,,,,,,,,,,,,METAR,378.0
KFCM 171853Z 32010KT 6SM BR OVC005 M07/M08 A2978 RMK AO2 SLP100 T10671083,KFCM,2021-01-17T18:53:00Z,44.83,-93.47,-6.7,-8.3,320,10,,6.0,29.778543,1010.0,,,TRUE,,,,,,BR,OVC,500,,,,,,,IFR,,,,,,,,,,,,METAR,276.0
KFAY 171853Z 20013KT 10SM CLR 09/M03 A2987 RMK AO2 SLP110 T00941033,KFAY,2021-01-17T18:53:00Z,34.98,-78.88,9.4,-3.3,200,13,,10.0,29.870079,1011.0,,,TRUE,,,,,,,CLR,,,,,,,,VFR,,,,,,,,,,,,METAR,57.0
KFAT 171853Z 00000KT 3SM HZ CLR 16/08 A3016 RMK AO2 SFC VIS 3 SLP211 T01560078 $,KFAT,2021-01-17T18:53:00Z,36.78,-119.72,15.6,7.8,0,0,,3.0,30.159449,1021.1,,,TRUE,TRUE,,,,,HZ,CLR,,,,,,,,MVFR,,,,,,,,,,,,METAR,102.0
KFAR 171853Z 34012KT 10SM FEW012 OVC041 M04/M07 A2985 RMK AO2 SNE44 SLP126 P0000 T10441067,KFAR,2021-01-17T18:53:00Z,46.9,-96.82,-4.4,-6.7,340,12,,10.0,29.84941,1012.6,,,TRUE,,,,,,,FEW,1200,OVC,4100,,,,,VFR,,,,,,0.005,,,,,,METAR,276.0
KEYW 171853Z 12006KT 10SM BKN060 19/13 A3004 RMK AO2 SLP171 T01890128,KEYW,2021-01-17T18:53:00Z,24.55,-81.75,18.9,12.8,120,6,,10.0,30.041338,1017.1,,,TRUE,,,,,,,BKN,6000,,,,,,,VFR,,,,,,,,,,,,METAR,1.0
KEYE 171853Z AUTO 29008KT 10SM FEW011 BKN016 OVC037 00/M03 A2971 RMK AO2 SNB05E37 SLP069 P0000 T00001033,KEYE,2021-01-17T18:53:00Z,39.83,-86.3,0.0,-3.3,290,8,,10.0,29.71063,1006.9,,TRUE,TRUE,,,,,,,FEW,1100,BKN,1600,OVC,3700,,,MVFR,,,,,,0.005,,,,,,METAR,248.0
KEWB 171853Z 27015G24KT 10SM BKN055 07/M04 A2947 RMK AO2 PK WND 28029/1817 SLP981 T00721039,KEWB,2021-01-17T18:53:00Z,41.68,-70.95,7.2,-3.9,270,15,24,10.0,29.471457,998.1,,,TRUE,,,,,,,BKN,5500,,,,,,,VFR,,,,,,,,,,,,METAR,22.0
KEVW 171853Z AUTO 23016G22KT 10SM FEW100 02/M06 A3023 RMK AO2 SLP247 T00221061,KEVW,2021-01-17T18:53:00Z,41.27,-111.03,2.2,-6.1,230,16,22,10.0,30.230314,1024.7,,TRUE,TRUE,,,,,,,FEW,10000,,,,,,,VFR,,,,,,,,,,,,METAR,2178.0
KESF 171853Z AUTO VRB05G17KT 10SM CLR 17/M03 A3004 RMK AO2 SLP171 T01721028,KESF,2021-01-17T18:53:00Z,31.4,-92.28,17.2,-2.8,0,5,17,10.0,30.041338,1017.1,,TRUE,TRUE,,,,,,,CLR,,,,,,,,VFR,,,,,,,,,,,,METAR,27.0
KEQY 171853Z AUTO 24014KT 10SM SCT043 07/M03 A2988 RMK AO2 SLP136 T00671028 $,KEQY,2021-01-17T18:53:00Z,35.02,-80.62,6.7,-2.8,240,14,,10.0,29.878937,1013.6,,TRUE,TRUE,TRUE,,,,,,SCT,4300,,,,,,,VFR,,,,,,,,,,,,METAR,205.0
KEPH 171853Z AUTO 35009KT 10SM SCT011 03/00 A3034 RMK AO2 SLP284 T00330000,KEPH,2021-01-17T18:53:00Z,47.3,-119.52,3.3,0.0,350,9,,10.0,30.339567,1028.4,,TRUE,TRUE,,,,,,,SCT,1100,,,,,,,VFR,,,,,,,,,,,,METAR,382.0
KENW 171853Z 30007KT 10SM BKN048 BKN060 OVC080 01/M03 A2967 RMK AO2 SLP055 T00111033 $,KENW,2021-01-17T18:53:00Z,42.6,-87.93,1.1,-3.3,300,7,,10.0,29.66929,1005.5,,,TRUE,TRUE,,,,,,BKN,4800,BKN,6000,OVC,8000,,,VFR,,,,,,,,,,,,METAR,222.0
KEMP 171853Z AUTO 32015G27KT 10SM CLR 08/M04 A2994 RMK AO2 PK WND 31027/1851 SLP148 T00781044,KEMP,2021-01-17T18:53:00Z,38.33,-96.2,7.8,-4.4,320,15,27,10.0,29.940945,1014.8,,TRUE,TRUE,,,,,,,CLR,,,,,,,,VFR,,,,,,,,,,,,METAR,366.0
KELY 171853Z AUTO 00000KT 10SM CLR 07/M09 A3031 RMK AO2 SLP262 T00721094 $,KELY,2021-01-17T18:53:00Z,39.3,-114.85,7.2,-9.4,0,0,,10.0,30.31004,1026.2,,TRUE,TRUE,TRUE,,,,,,CLR,,,,,,,,VFR,,,,,,,,,,,,METAR,1906.0
KELN 171853Z AUTO 28021G33KT 10SM FEW046 11/02 A3030 RMK AO2 PK WND 29036/1834 RAE1759 SLP271 P0000 T01060017,KELN,2021-01-17T18:53:00Z,47.03,-120.53,10.6,1.7,280,21,33,10.0,30.301182,1027.1,,TRUE,TRUE,,,,,,,FEW,4600,,,,,,,VFR,,,,,,0.005,,,,,,METAR,532.0
KELM 171853Z 27012G20KT 10SM OVC039 04/M04 A2957 RMK AO2 SLP020 T00441044,KELM,2021-01-17T18:53:00Z,42.15,-76.9,4.4,-4.4,270,12,20,10.0,29.568897,1002.0,,,TRUE,,,,,,,OVC,3900,,,,,,,VFR,,,,,,,,,,,,METAR,287.0
KELD 171853Z AUTO 28007KT 10SM CLR 12/M06 A3003 RMK AO2 SLP167 T01171056,KELD,2021-01-17T18:53:00Z,33.22,-92.82,11.7,-5.6,280,7,,10.0,30.029528,1016.7,,TRUE,TRUE,,,,,,,CLR,,,,,,,,VFR,,,,,,,,,,,,METAR,76.0
KEET 171853Z AUTO 22008G15KT 120V250 10SM CLR 11/M01 A2993 RMK AO2 SLP138 T01061011,KEET,2021-01-17T18:53:00Z,33.18,-86.78,10.6,-1.1,220,8,15,10.0,29.929134,1013.8,,TRUE,TRUE,,,,,,,CLR,,,,,,,,VFR,,,,,,,,,,,,METAR,172.0
KEEO 171853Z AUTO 00000KT 10SM BKN080 BKN090 00/M07 A3017 RMK AO2 SLP242 T00001067,KEEO,2021-01-17T18:53:00Z,40.05,-107.88,0.0,-6.7,0,0,,10.0,30.171259,1024.2,,TRUE,TRUE,,,,,,,BKN,8000,BKN,9000,,,,,VFR,,,,,,,,,,,,METAR,1957.0
KECP 171853Z 22014G18KT 10SM CLR 13/M01 A3001 RMK AO2 SLP174 T01331006,KECP,2021-01-17T18:53:00Z,30.35,-85.8,13.3,-0.6,220,14,18,10.0,30.008858,1017.4,,,TRUE,,,,,,,CLR,,,,,,,,VFR,,,,,,,,,,,,METAR,17.0
KDXR 171853Z 27011G25KT 10SM OVC045 04/M04 A2957 RMK AO2 SLP014 T00441044,KDXR,2021-01-17T18:53:00Z,41.37,-73.48,4.4,-4.4,270,11,25,10.0,29.568897,1001.4,,,TRUE,,,,,,,OVC,4500,,,,,,,VFR,,,,,,,,,,,,METAR,138.0
KDWH 171853Z 28008KT 9SM CLR 18/M03 A3010 RMK AO2 SLP192 T01831033,KDWH,2021-01-17T18:53:00Z,30.07,-95.55,18.3,-3.3,280,8,,9.0,30.100393,1019.2,,,TRUE,,,,,,,CLR,,,,,,,,VFR,,,,,,,,,,,,METAR,46.0
KDVT 171853Z 00000KT 10SM CLR 20/M09 A3009 RMK AO2 SLP177 T02001094,KDVT,2021-01-17T18:53:00Z,33.68,-112.07,20.0,-9.4,0,0,,10.0,30.088583,1017.7,,,TRUE,,,,,,,CLR,,,,,,,,VFR,,,,,,,,,,,,METAR,454.0
KDTW 171853Z 25007KT 7SM -SN SCT010 BKN015 OVC040 02/00 A2965 RMK AO2 SLP044 P0000 T00220000 $,KDTW,2021-01-17T18:53:00Z,42.23,-83.33,2.2,0.0,250,7,,7.0,29.648623,1004.4,,,TRUE,TRUE,,,,,-SN,SCT,1000,BKN,1500,OVC,4000,,,MVFR,,,,,,0.005,,,,,,METAR,192.0
KDTS 171853Z VRB05KT 10SM CLR 13/01 A3002 RMK AO2 SLP165 T01330006,KDTS,2021-01-17T18:53:00Z,30.4,-86.47,13.3,0.6,0,5,,10.0,30.02067,1016.5,,,TRUE,,,,,,,CLR,,,,,,,,VFR,,,,,,,,,,,,METAR,5.0
KDTO 171853Z 34010KT 10SM BKN085 13/M04 A3013 RMK AO2 SLP202 T01331044,KDTO,2021-01-17T18:53:00Z,33.2,-97.2,13.3,-4.4,340,10,,10.0,30.129921,1020.2,,,TRUE,,,,,,,BKN,8500,,,,,,,VFR,,,,,,,,,,,,METAR,199.0
KDTN 171853Z 31008KT 10SM BKN110 12/M04 A3006 RMK AO2 SLP180 T01171039,KDTN,2021-01-17T18:53:00Z,32.55,-93.75,11.7,-3.9,310,8,,10.0,30.059055,1018.0,,,TRUE,,,,,,,BKN,11000,,,,,,,VFR,,,,,,,,,,,,METAR,53.0
KDRT 171853Z AUTO 31005KT 10SM CLR 17/M02 A3013 RMK AO2 SLP196 T01721017,KDRT,2021-01-17T18:53:00Z,29.37,-100.92,17.2,-1.7,310,5,,10.0,30.129921,1019.6,,TRUE,TRUE,,,,,,,CLR,,,,,,,,VFR,,,,,,,,,,,,METAR,303.0
KDRO 171853Z AUTO 10008KT 10SM CLR 02/M09 A3015 RMK AO2 SLP231 T00171094 $,KDRO,2021-01-17T18:53:00Z,37.15,-107.77,1.7,-9.4,100,8,,10.0,30.15059,1023.1,,TRUE,TRUE,TRUE,,,,,,CLR,,,,,,,,VFR,,,,,,,,,,,,METAR,2021.0
KDRA 171853Z AUTO 02013KT 10SM CLR 17/M09 A3021 RMK AO2 SLP206 T01721094,KDRA,2021-01-17T18:53:00Z,36.62,-116.03,17.2,-9.4,20,13,,10.0,30.209646,1020.6,,TRUE,TRUE,,,,,,,CLR,,,,,,,,VFR,,,,,,,,,,,,METAR,988.0
KDNL 171853Z AUTO 23006G16KT 10SM CLR 11/M03 A2993 RMK AO2 SLP134 T01061028,KDNL,2021-01-17T18:53:00Z,33.47,-82.03,10.6,-2.8,230,6,16,10.0,29.929134,1013.4,,TRUE,TRUE,,,,,,,CLR,,,,,,,,VFR,,,,,,,,,,,,METAR,126.0
KDMO 171853Z AUTO 27010KT 10SM FEW060 03/M04 A2986 RMK AO2 SLP120 T00281039,KDMO,2021-01-17T18:53:00Z,38.72,-93.17,2.8,-3.9,270,10,,10.0,29.861221,1012.0,,TRUE,TRUE,,,,,,,FEW,6000,,,,,,,VFR,,,,,,,,,,,,METAR,271.0
KDMN 171853Z AUTO 21007KT 10SM CLR 16/M11 A3017 RMK AO2 SLP184 T01561106 $,KDMN,2021-01-17T18:53:00Z,32.27,-107.72,15.6,-10.6,210,7,,10.0,30.171259,1018.4,,TRUE,TRUE,TRUE,,,,,,CLR,,,,,,,,VFR,,,,,,,,,,,,METAR,1310.0
KDLS 171853Z AUTO 29017KT 10SM CLR 13/04 A3039 RMK AO2 SLP292 T01280044,KDLS,2021-01-17T18:53:00Z,45.62,-121.17,12.8,4.4,290,17,,10.0,30.389763,1029.2,,TRUE,TRUE,,,,,,,CLR,,,,,,,,VFR,,,,,,,,,,,,METAR,71.0
KDLN 171853Z AUTO 19015KT 10SM BKN060 04/M06 A3001 RMK AO2 SLP173 T00391056,KDLN,2021-01-17T18:53:00Z,45.25,-112.55,3.9,-5.6,190,15,,10.0,30.008858,1017.3,,TRUE,TRUE,,,,,,,BKN,6000,,,,,,,VFR,,,,,,,,,,,,METAR,1586.0
KDKK 171853Z AUTO 24012G19KT 10SM BKN008 BKN014 OVC035 02/01 A2961 RMK AO2 UPB17E51SNB16E17 CIG 007V010 SLP033 P0000 T00220006,KDKK,2021-01-17T18:53:00Z,42.5,-79.28,2.2,0.6,240,12,19,10.0,29.610237,1003.3,,TRUE,TRUE,,,,,,,BKN,800,BKN,1400,OVC,3500,,,IFR,,,,,,0.005,,,,,,METAR,205.0
KDHT 171853Z AUTO 00000KT 10SM CLR 07/M08 A3013 RMK AO2 SLP207 T00671083,KDHT,2021-01-17T18:53:00Z,36.02,-102.55,6.7,-8.3,0,0,,10.0,30.129921,1020.7,,TRUE,TRUE,,,,,,,CLR,,,,,,,,VFR,,,,,,,,,,,,METAR,1217.0
KDHN 171853Z 25009KT 10SM CLR 13/M01 A3002 RMK AO2 SLP166 T01331011 $,KDHN,2021-01-17T18:53:00Z,31.32,-85.45,13.3,-1.1,250,9,,10.0,30.02067,1016.6,,,TRUE,TRUE,,,,,,CLR,,,,,,,,VFR,,,,,,,,,,,,METAR,113.0
KDGW 171853Z AUTO 00000KT 10SM OVC080 M02/M08 A2996 RMK AO2 SLP193 T10221083,KDGW,2021-01-17T18:53:00Z,42.8,-105.38,-2.2,-8.3,0,0,,10.0,29.958662,1019.3,,TRUE,TRUE,,,,,,,OVC,8000,,,,,,,VFR,,,,,,,,,,,,METAR,1503.0
KDFW 171853Z 32008KT 10SM SCT085 BKN210 BKN300 14/M04 A3011 RMK AO2 SLP195 T01391044,KDFW,2021-01-17T18:53:00Z,32.9,-97.02,13.9,-4.4,320,8,,10.0,30.109253,1019.5,,,TRUE,,,,,,,SCT,8500,BKN,21000,BKN,30000,,,VFR,,,,,,,,,,,,METAR,168.0
KDET 171853Z 25008KT 9SM SCT025 OVC036 02/M01 A2964 RMK AO2 UPB30E32SNB19E30B32E48 SLP041 P0000 T00221006,KDET,2021-01-17T18:53:00Z,42.4,-83.02,2.2,-0.6,250,8,,9.0,29.639763,1004.1,,,TRUE,,,,,,,SCT,2500,OVC,3600,,,,,VFR,,,,,,0.005,,,,,,METAR,190.0
KDEQ 171853Z AUTO 28011KT 10SM CLR 13/M03 A3002 RMK AO2 SLP164 T01281033,KDEQ,2021-01-17T18:53:00Z,34.05,-94.4,12.8,-3.3,280,11,,10.0,30.02067,1016.4,,TRUE,TRUE,,,,,,,CLR,,,,,,,,VFR,,,,,,,,,,,,METAR,107.0
KDEN 171853Z 07004KT 10SM FEW070 BKN120 BKN200 07/M09 A2998 RMK AO2 SLP152 T00721094 $,KDEN,2021-01-17T18:53:00Z,39.85,-104.65,7.2,-9.4,70,4,,10.0,29.97933,1015.2,,,TRUE,TRUE,,,,,,FEW,7000,BKN,12000,BKN,20000,,,VFR,,,,,,,,,,,,METAR,1656.0
KDCU 171853Z AUTO 25011KT 10SM FEW060 10/M04 A2988 RMK AO2 SLP119 T01001039 $,KDCU,2021-01-17T18:53:00Z,34.65,-86.95,10.0,-3.9,250,11,,10.0,29.878937,1011.9,,TRUE,TRUE,TRUE,,,,,,FEW,6000,,,,,,,VFR,,,,,,,,,,,,METAR,180.0
KDBQ 171853Z 32007KT 10SM FEW015 OVC029 M01/M05 A2972 RMK AO2 SLP076 T10111050,KDBQ,2021-01-17T18:53:00Z,42.4,-90.7,-1.1,-5.0,320,7,,10.0,29.719488,1007.6,,,TRUE,,,,,,,FEW,1500,OVC,2900,,,,,MVFR,,,,,,,,,,,,METAR,317.0
KDAN 171853Z AUTO 27008KT 10SM CLR 09/M03 A2982 RMK AO2 SLP095 T00891033,KDAN,2021-01-17T18:53:00Z,36.57,-79.33,8.9,-3.3,270,8,,10.0,29.819881,1009.5,,TRUE,TRUE,,,,,,,CLR,,,,,,,,VFR,,,,,,,,,,,,METAR,170.0
KDAL 171853Z 34011G17KT 10SM SCT090 BKN220 BKN300 14/M04 A3013 RMK AO2 SLP200 T01441044 $,KDAL,2021-01-17T18:53:00Z,32.85,-96.85,14.4,-4.4,340,11,17,10.0,30.129921,1020.0,,,TRUE,TRUE,,,,,,SCT,9000,BKN,22000,BKN,30000,,,VFR,,,,,,,,,,,,METAR,148.0
KDAB 171853Z 27006KT 10SM BKN039 BKN180 OVC250 14/05 A3002 RMK AO2 SLP164 T01390050,KDAB,2021-01-17T18:53:00Z,29.18,-81.07,13.9,5.0,270,6,,10.0,30.02067,1016.4,,,TRUE,,,,,,,BKN,3900,BKN,18000,OVC,25000,,,VFR,,,,,,,,,,,,METAR,8.0
KCYS 171853Z 29010KT 10SM OVC070 04/M11 A2996 RMK AO2 PK WND 31028/1817 SLP163 T00441106 $,KCYS,2021-01-17T18:53:00Z,41.15,-104.8,4.4,-10.6,290,10,,10.0,29.958662,1016.3,,,TRUE,TRUE,,,,,,OVC,7000,,,,,,,VFR,,,,,,,,,,,,METAR,1868.0
KCXO 171853Z 30007KT 10SM CLR 18/M03 A3010 RMK AO2 SLP191 T01831028,KCXO,2021-01-17T18:53:00Z,30.35,-95.42,18.3,-2.8,300,7,,10.0,30.100393,1019.1,,,TRUE,,,,,,,CLR,,,,,,,,VFR,,,,,,,,,,,,METAR,69.0
KCUT 171853Z AUTO 29008KT 10SM OVC065 M01/M12 A2987 RMK AO2 SLP146 T10061117,KCUT,2021-01-17T18:53:00Z,43.73,-103.62,-0.6,-11.7,290,8,,10.0,29.870079,1014.6,,TRUE,TRUE,,,,,,,OVC,6500,,,,,,,VFR,,,,,,,,,,,,METAR,1700.0
KCUB 171853Z AUTO 25012G19KT 10SM CLR 10/M03 A2993 RMK AO2 SLP135 T01001033,KCUB,2021-01-17T18:53:00Z,33.97,-81.0,10.0,-3.3,250,12,19,10.0,29.929134,1013.5,,TRUE,TRUE,,,,,,,CLR,,,,,,,,VFR,,,,,,,,,,,,METAR,55.0
KCSV 171853Z AUTO 25010G19KT 10SM FEW028 BKN033 OVC075 03/M03 A2980 RMK AO2 SLP101 T00331028,KCSV,2021-01-17T18:53:00Z,35.95,-85.08,3.3,-2.8,250,10,19,10.0,29.799213,1010.1,,TRUE,TRUE,,,,,,,FEW,2800,BKN,3300,OVC,7500,,,VFR,,,,,,,,,,,,METAR,569.0
KCSM 171853Z AUTO 30012KT 10SM CLR 11/M07 A3010 RMK AO2 SLP194 T01061067,KCSM,2021-01-17T18:53:00Z,35.35,-99.2,10.6,-6.7,300,12,,10.0,30.100393,1019.4,,TRUE,TRUE,,,,,,,CLR,,,,,,,,VFR,,,,,,,,,,,,METAR,586.0
KCRS 171853Z AUTO 35007KT 10SM CLR 15/M03 A3013 RMK AO2 SLP201 T01501028,KCRS,2021-01-17T18:53:00Z,32.03,-96.4,15.0,-2.8,350,7,,10.0,30.129921,1020.1,,TRUE,TRUE,,,,,,,CLR,,,,,,,,VFR,,,,,,,,,,,,METAR,136.0
KCRQ 171853Z 00000KT 10SM CLR 28/M04 A3001 RMK AO2 SLP160 T02781039,KCRQ,2021-01-17T18:53:00Z,33.13,-117.28,27.8,-3.9,0,0,,10.0,30.008858,1016.0,,,TRUE,,,,,,,CLR,,,,,,,,VFR,,,,,,,,,,,,METAR,96.0
KCRG 171853Z 26009G16KT 10SM CLR 14/00 A3001 RMK AO2 SLP160 T01440000,KCRG,2021-01-17T18:53:00Z,30.33,-81.52,14.4,0.0,260,9,16,10.0,30.008858,1016.0,,,TRUE,,,,,,,CLR,,,,,,,,VFR,,,,,,,,,,,,METAR,12.0
KCRE 171853Z 24014G18KT 10SM CLR 10/M01 A2991 RMK AO1 SLP128 T01001011,KCRE,2021-01-17T18:53:00Z,33.82,-78.72,10.0,-1.1,240,14,18,10.0,29.911417,1012.8,,,TRUE,,,,,,,CLR,,,,,,,,VFR,,,,,,,,,,,,METAR,9.0
KCQC 171853Z AUTO 31019G32KT 10SM CLR 07/M13 A3011 RMK AO2 PK WND 29036/1827 SLP192 T00721133,KCQC,2021-01-17T18:53:00Z,35.0,-105.67,7.2,-13.3,310,19,32,10.0,30.109253,1019.2,,TRUE,TRUE,,,,,,,CLR,,,,,,,,VFR,,,,,,,,,,,,METAR,2163.0
KCPR 171853Z 22019G26KT 10SM CLR 00/M08 A2995 RMK AO2 PK WND 22028/1823 SLP176 T00001078,KCPR,2021-01-17T18:53:00Z,42.9,-106.47,0.0,-7.8,220,19,26,10.0,29.949802,1017.6,,,TRUE,,,,,,,CLR,,,,,,,,VFR,,,,,,,,,,,,METAR,1623.0
KCOT 171853Z AUTO 31006KT 10SM CLR 21/07 A3012 RMK AO2 SLP196 T02060067,KCOT,2021-01-17T18:53:00Z,28.45,-99.22,20.6,6.7,310,6,,10.0,30.121063,1019.6,,TRUE,TRUE,,,,,,,CLR,,,,,,,,VFR,,,,,,,,,,,,METAR,144.0
KCNY 171853Z AUTO 00000KT 10SM CLR 03/M06 A3021 RMK AO2 SLP255 T00281056,KCNY,2021-01-17T18:53:00Z,38.77,-109.75,2.8,-5.6,0,0,,10.0,30.209646,1025.5,,TRUE,TRUE,,,,,,,CLR,,,,,,,,VFR,,,,,,,,,,,,METAR,1392.0
KCNO 171853Z 03004KT 10SM CLR 28/M01 A3004 RMK AO2 SLP169 T02781011,KCNO,2021-01-17T18:53:00Z,33.98,-117.62,27.8,-1.1,30,4,,10.0,30.041338,1016.9,,,TRUE,,,,,,,CLR,,,,,,,,VFR,,,,,,,,,,,,METAR,191.0
KCNM 171853Z AUTO 21003KT 10SM CLR 09/M08 A3012 RMK AO2 SLP188 T00941083,KCNM,2021-01-17T18:53:00Z,32.33,-104.25,9.4,-8.3,210,3,,10.0,30.121063,1018.8,,TRUE,TRUE,,,,,,,CLR,,,,,,,,VFR,,,,,,,,,,,,METAR,993.0
KCMX 171853Z AUTO 02010KT 10SM OVC012 M04/M08 A2969 RMK AO2 SLP069 T10391078,KCMX,2021-01-17T18:53:00Z,47.17,-88.48,-3.9,-7.8,20,10,,10.0,29.68996,1006.9,,TRUE,TRUE,,,,,,,OVC,1200,,,,,,,MVFR,,,,,,,,,,,,METAR,326.0
KCMI 171853Z 26016KT 10SM -SN OVC017 M01/M03 A2973 RMK AO2 SNB22E31B53 SLP074 P0000 T10111033,KCMI,2021-01-17T18:53:00Z,40.03,-88.27,-1.1,-3.3,260,16,,10.0,29.731298,1007.4,,,TRUE,,,,,,-SN,OVC,1700,,,,,,,MVFR,,,,,,0.005,,,,,,METAR,227.0
KCLM 171853Z AUTO 25009KT 10SM CLR 10/06 A3047 RMK AO2 SLP318 T01000061,KCLM,2021-01-17T18:53:00Z,48.12,-123.5,10.0,6.1,250,9,,10.0,30.469488,1031.8,,TRUE,TRUE,,,,,,,CLR,,,,,,,,VFR,,,,,,,,,,,,METAR,81.0
KCLL 171853Z 29007KT 250V320 10SM CLR 17/M01 A3011 RMK AO2 SLP193 T01721006,KCLL,2021-01-17T18:53:00Z,30.58,-96.37,17.2,-0.6,290,7,,10.0,30.109253,1019.3,,,TRUE,,,,,,,CLR,,,,,,,,VFR,,,,,,,,,,,,METAR,96.0
KCKB 171853Z 21010KT 6SM -SN BKN016 OVC021 02/M01 A2973 RMK AO2 SNE10B28 SLP073 P0000 T00221006,KCKB,2021-01-17T18:53:00Z,39.3,-80.22,2.2,-0.6,210,10,,6.0,29.731298,1007.3,,,TRUE,,,,,,-SN,BKN,1600,OVC,2100,,,,,MVFR,,,,,,0.005,,,,,,METAR,368.0
KCHO 171853Z VRB05KT 10SM OVC050 08/M03 A2977 RMK AO2 SLP082 T00781033,KCHO,2021-01-17T18:53:00Z,38.13,-78.45,7.8,-3.3,0,5,,10.0,29.769686,1008.2,,,TRUE,,,,,,,OVC,5000,,,,,,,VFR,,,,,,,,,,,,METAR,193.0
KCHA 171853Z 23015G22KT 10SM BKN050 BKN060 BKN090 10/M03 A2986 RMK AO2 SLP111 T01001028,KCHA,2021-01-17T18:53:00Z,35.03,-85.2,10.0,-2.8,230,15,22,10.0,29.861221,1011.1,,,TRUE,,,,,,,BKN,5000,BKN,6000,BKN,9000,,,VFR,,,,,,,,,,,,METAR,203.0
KCGI 171853Z 27010KT 10SM SCT040 06/M04 A2985 RMK AO2 SLP108 T00611039,KCGI,2021-01-17T18:53:00Z,37.23,-89.58,6.1,-3.9,270,10,,10.0,29.84941,1010.8,,,TRUE,,,,,,,SCT,4000,,,,,,,VFR,,,,,,,,,,,,METAR,103.0
KCEZ 171853Z AUTO 28010G19KT 10SM CLR 09/M09 A3015 RMK AO2 SLP207 T00941094,KCEZ,2021-01-17T18:53:00Z,37.3,-108.63,9.4,-9.4,280,10,19,10.0,30.15059,1020.7,,TRUE,TRUE,,,,,,,CLR,,,,,,,,VFR,,,,,,,,,,,,METAR,1801.0
KCEW 171853Z AUTO 26009KT 10SM CLR 14/M02 A3003 RMK AO2 SLP167 T01441017,KCEW,2021-01-17T18:53:00Z,30.78,-86.52,14.4,-1.7,260,9,,10.0,30.029528,1016.7,,TRUE,TRUE,,,,,,,CLR,,,,,,,,VFR,,,,,,,,,,,,METAR,47.0
KCDW 171853Z 29013G25KT 10SM OVC045 07/M04 A2963 RMK AO2 SLP038 T00671044,KCDW,2021-01-17T18:53:00Z,40.88,-74.28,6.7,-4.4,290,13,25,10.0,29.630905,1003.8,,,TRUE,,,,,,,OVC,4500,,,,,,,VFR,,,,,,,,,,,,METAR,52.0
KCDS 171853Z AUTO VRB05KT 10SM CLR 10/M05 A3014 RMK AO2 SLP209 T01001050,KCDS,2021-01-17T18:53:00Z,34.43,-100.28,10.0,-5.0,0,5,,10.0,30.138779,1020.9,,TRUE,TRUE,,,,,,,CLR,,,,,,,,VFR,,,,,,,,,,,,METAR,595.0
KCDR 171853Z AUTO 29013KT 10SM OVC085 06/M09 A2994 RMK AO2 SLP171 T00611094,KCDR,2021-01-17T18:53:00Z,42.83,-103.1,6.1,-9.4,290,13,,10.0,29.940945,1017.1,,TRUE,TRUE,,,,,,,OVC,8500,,,,,,,VFR,,,,,,,,,,,,METAR,1002.0
KCDC 171853Z AUTO 04007KT 10SM CLR 06/M12 A3028 RMK AO2 SLP261 T00561122,KCDC,2021-01-17T18:53:00Z,37.7,-113.1,5.6,-12.2,40,7,,10.0,30.280512,1026.1,,TRUE,TRUE,,,,,,,CLR,,,,,,,,VFR,,,,,,,,,,,,METAR,1703.0
KCCR 171853Z VRB06KT 10SM CLR 21/04 A3015 RMK AO2 SLP195 T02060044,KCCR,2021-01-17T18:53:00Z,38.0,-122.05,20.6,4.4,0,6,,10.0,30.15059,1019.5,,,TRUE,,,,,,,CLR,,,,,,,,VFR,,,,,,,,,,,,METAR,6.0
KCAG 171853Z AUTO 00000KT 10SM BKN080 OVC095 M02/M07 A3017 RMK AO2 SLP265 T10171072 $,KCAG,2021-01-17T18:53:00Z,40.5,-107.52,-1.7,-7.2,0,0,,10.0,30.171259,1026.5,,TRUE,TRUE,TRUE,,,,,,BKN,8000,OVC,9500,,,,,VFR,,,,,,,,,,,,METAR,1888.0
KBYI 171853Z AUTO 26009KT 10SM -RA FEW070 05/00 A3025 RMK AO2 RAB48 SLP256 P0000 T00500000,KBYI,2021-01-17T18:53:00Z,42.55,-113.77,5.0,0.0,260,9,,10.0,30.250984,1025.6,,TRUE,TRUE,,,,,,-RA,FEW,7000,,,,,,,VFR,,,,,,0.005,,,,,,METAR,1263.0
KBYG 171853Z AUTO 33004KT 10SM OVC075 03/M08 A2987 RMK AO2 SLP133 T00281078,KBYG,2021-01-17T18:53:00Z,44.38,-106.72,2.8,-7.8,330,4,,10.0,29.870079,1013.3,,TRUE,TRUE,,,,,,,OVC,7500,,,,,,,VFR,,,,,,,,,,,,METAR,1503.0
KBWG 171853Z AUTO 26007KT 10SM FEW026 BKN039 OVC047 05/M01 A2981 RMK AO2 SLP098 T00501011,KBWG,2021-01-17T18:53:00Z,36.97,-86.42,5.0,-1.1,260,7,,10.0,29.811024,1009.8,,TRUE,TRUE,,,,,,,FEW,2600,BKN,3900,OVC,4700,,,VFR,,,,,,,,,,,,METAR,159.0
KBVY 171853Z 27018G26KT 10SM OVC055 06/M04 A2938 RMK AO2 PK WND 28032/1833 SLP945 T00611044 $,KBVY,2021-01-17T18:53:00Z,42.58,-70.92,6.1,-4.4,270,18,26,10.0,29.379921,994.5,,,TRUE,TRUE,,,,,,OVC,5500,,,,,,,VFR,,,,,,,,,,,,METAR,28.0
KBVO 171853Z 28008G19KT 250V310 10SM CLR 10/M04 A3001 RMK AO2 SLP161 T01001039,KBVO,2021-01-17T18:53:00Z,36.77,-96.02,10.0,-3.9,280,8,19,10.0,30.008858,1016.1,,,TRUE,,,,,,,CLR,,,,,,,,VFR,,,,,,,,,,,,METAR,210.0
KBUR 171853Z 11003KT 10SM CLR 25/M03 A3004 RMK AO2 SLP161 T02501033 $,KBUR,2021-01-17T18:53:00Z,34.2,-118.37,25.0,-3.3,110,3,,10.0,30.041338,1016.1,,,TRUE,TRUE,,,,,,CLR,,,,,,,,VFR,,,,,,,,,,,,METAR,221.0
KBTR 171853Z VRB05G16KT 10SM CLR 17/M04 A3005 RMK AO2 SLP175 T01671044,KBTR,2021-01-17T18:53:00Z,30.53,-91.15,16.7,-4.4,0,5,16,10.0,30.050198,1017.5,,,TRUE,,,,,,,CLR,,,,,,,,VFR,,,,,,,,,,,,METAR,20.0
KBTM 171853Z AUTO 02009KT 10SM BKN042 OVC050 03/M04 A3003 RMK AO2 SLP193 T00281044,KBTM,2021-01-17T18:53:00Z,45.97,-112.5,2.8,-4.4,20,9,,10.0,30.029528,1019.3,,TRUE,TRUE,,,,,,,BKN,4200,OVC,5000,,,,,VFR,,,,,,,,,,,,METAR,1680.0
KBRL 171853Z AUTO 28008KT 4SM -SN SCT011 BKN039 OVC047 M03/M06 A2978 RMK AO2 SLP093 P0000 T10281056,KBRL,2021-01-17T18:53:00Z,40.77,-91.13,-2.8,-5.6,280,8,,4.0,29.778543,1009.3,,TRUE,TRUE,,,,,,-SN,SCT,1100,BKN,3900,OVC,4700,,,MVFR,,,,,,0.005,,,,,,METAR,208.0
KBRD 171853Z AUTO 05004KT 8SM OVC006 M07/M09 A2976 RMK AO2 SLP101 T10671089,KBRD,2021-01-17T18:53:00Z,46.4,-94.13,-6.7,-8.9,50,4,,8.0,29.760826,1010.1,,TRUE,TRUE,,,,,,,OVC,600,,,,,,,IFR,,,,,,,,,,,,METAR,372.0
KBPT 171853Z 26010KT 10SM CLR 18/M02 A3008 RMK AO2 SLP186 T01781017,KBPT,2021-01-17T18:53:00Z,29.95,-94.03,17.8,-1.7,260,10,,10.0,30.079725,1018.6,,,TRUE,,,,,,,CLR,,,,,,,,VFR,,,,,,,,,,,,METAR,6.0
KBPK 171853Z AUTO 34008KT 310V030 10SM SCT075 08/M06 A2988 RMK AO2 SLP121 T00831061,KBPK,2021-01-17T18:53:00Z,36.37,-92.47,8.3,-6.1,340,8,,10.0,29.878937,1012.1,,TRUE,TRUE,,,,,,,SCT,7500,,,,,,,VFR,,,,,,,,,,,,METAR,279.0
KBPI 171853Z AUTO 21006KT 10SM CLR 00/M08 A3011 RMK AO2 SLP212 T00001078,KBPI,2021-01-17T18:53:00Z,42.58,-110.1,0.0,-7.8,210,6,,10.0,30.109253,1021.2,,TRUE,TRUE,,,,,,,CLR,,,,,,,,VFR,,,,,,,,,,,,METAR,2120.0
KBOI 171853Z 29003KT 10SM BKN100 04/00 A3032 RMK AO2 SLP283 T00390000,KBOI,2021-01-17T18:53:00Z,43.57,-116.23,3.9,0.0,290,3,,10.0,30.318897,1028.3,,,TRUE,,,,,,,BKN,10000,,,,,,,VFR,,,,,,,,,,,,METAR,860.0
KBNO 171853Z AUTO 00000KT 10SM 01/00 A3036 RMK AO2 SLP304 T00060000 $,KBNO,2021-01-17T18:53:00Z,43.6,-118.95,0.6,0.0,0,0,,10.0,30.360237,1030.4,,TRUE,TRUE,TRUE,,,,,,,,,,,,,,,,,,,,,,,,,,METAR,1263.0
KBNA 171853Z 26008G21KT 220V290 10SM BKN043 BKN055 09/M04 A2983 RMK AO2 SLP104 T00891039,KBNA,2021-01-17T18:53:00Z,36.12,-86.68,8.9,-3.9,260,8,21,10.0,29.828741,1010.4,,,TRUE,,,,,,,BKN,4300,BKN,5500,,,,,VFR,,,,,,,,,,,,METAR,168.0
KBMQ 171853Z AUTO 31011KT 10SM CLR 16/M04 A3014 RMK AO2 SLP200 T01611039,KBMQ,2021-01-17T18:53:00Z,30.73,-98.23,16.1,-3.9,310,11,,10.0,30.138779,1020.0,,TRUE,TRUE,,,,,,,CLR,,,,,,,,VFR,,,,,,,,,,,,METAR,387.0
KBLI 171853Z 19007KT 10SM SCT012 BKN020 BKN060 09/07 A3045 RMK AO2 SLP321 T00890067,KBLI,2021-01-17T18:53:00Z,48.8,-122.53,8.9,6.7,190,7,,10.0,30.448818,1032.1,,,TRUE,,,,,,,SCT,1200,BKN,2000,BKN,6000,,,MVFR,,,,,,,,,,,,METAR,46.0
KBKV 171853Z 00000KT 10SM FEW060 14/06 A3005 RMK AO2 SLP173 T01390061,KBKV,2021-01-17T18:53:00Z,28.47,-82.45,13.9,6.1,0,0,,10.0,30.050198,1017.3,,,TRUE,,,,,,,FEW,6000,,,,,,,VFR,,,,,,,,,,,,METAR,21.0
KBKL 171853Z 24009KT 10SM BKN016 BKN031 OVC070 03/00 A2967 RMK AO2 SLP050 T00330000,KBKL,2021-01-17T18:53:00Z,41.53,-81.67,3.3,0.0,240,9,,10.0,29.66929,1005.0,,,TRUE,,,,,,,BKN,1600,BKN,3100,OVC,7000,,,MVFR,,,,,,,,,,,,METAR,177.0
KBKE 171853Z AUTO 14004KT 10SM FEW022 03/M01 A3033 RMK AO2 SLP293 T00331011,KBKE,2021-01-17T18:53:00Z,44.85,-117.82,3.3,-1.1,140,4,,10.0,30.33071,1029.3,,TRUE,TRUE,,,,,,,FEW,2200,,,,,,,VFR,,,,,,,,,,,,METAR,1025.0
KBIL 171853Z 24015KT 10SM SCT065 BKN090 04/M08 A2986 RMK AO2 SLP134 SHRA DSNT W T00441078,KBIL,2021-01-17T18:53:00Z,45.8,-108.55,4.4,-7.8,240,15,,10.0,29.861221,1013.4,,,TRUE,,,,,,,SCT,6500,BKN,9000,,,,,VFR,,,,,,,,,,,,METAR,1089.0
KBHM 171853Z 23009G23KT 10SM FEW250 12/M04 A2993 RMK AO2 SLP134 T01171044,KBHM,2021-01-17T18:53:00Z,33.57,-86.75,11.7,-4.4,230,9,23,10.0,29.929134,1013.4,,,TRUE,,,,,,,FEW,25000,,,,,,,VFR,,,,,,,,,,,,METAR,191.0
KBFM 171853Z AUTO 26006KT 10SM CLR 14/M02 A3005 RMK AO2 SLP174 T01391022,KBFM,2021-01-17T18:53:00Z,30.62,-88.07,13.9,-2.2,260,6,,10.0,30.050198,1017.4,,TRUE,TRUE,,,,,,,CLR,,,,,,,,VFR,,,,,,,,,,,,METAR,7.0
KBFI 171853Z 14005KT 10SM SCT006 BKN015 OVC019 09/07 A3048 RMK AO2 SLP322 T00890072,KBFI,2021-01-17T18:53:00Z,47.55,-122.32,8.9,7.2,140,5,,10.0,30.481298,1032.2,,,TRUE,,,,,,,SCT,600,BKN,1500,OVC,1900,,,MVFR,,,,,,,,,,,,METAR,7.0
KBFF 171853Z AUTO 28007KT 10SM SCT075 06/M08 A2997 RMK AO2 SLP171 T00561078,KBFF,2021-01-17T18:53:00Z,41.87,-103.6,5.6,-7.8,280,7,,10.0,29.970472,1017.1,,TRUE,TRUE,,,,,,,SCT,7500,,,,,,,VFR,,,,,,,,,,,,METAR,1204.0
KBDE 171853Z AUTO 32008KT 10SM OVC010 M08/M09 A2977 RMK AO2 SNE1759 SLP104 P0000 T10781094,KBDE,2021-01-17T18:53:00Z,48.73,-94.62,-7.8,-9.4,320,8,,10.0,29.769686,1010.4,,TRUE,TRUE,,,,,,,OVC,1000,,,,,,,MVFR,,,,,,0.005,,,,,,METAR,330.0
KBCT 171853Z 29007KT 280V060 9SM SCT060 20/06 A3003,KBCT,2021-01-17T18:53:00Z,26.38,-80.1,20.0,6.0,290,7,,9.0,30.029528,,,,,,,,,,,SCT,6000,,,,,,,VFR,,,,,,,,,,,,METAR,3.0
KBCE 171853Z AUTO 32003KT 10SM CLR 07/M16 A3028 RMK AO2 SLP223 T00671161 $,KBCE,2021-01-17T18:53:00Z,37.7,-112.15,6.7,-16.1,320,3,,10.0,30.280512,1022.3,,TRUE,TRUE,TRUE,,,,,,CLR,,,,,,,,VFR,,,,,,,,,,,,METAR,2311.0
KBBW 171853Z AUTO 31019G25KT 10SM CLR 06/M07 A2994 RMK AO2 SLP153 T00561067,KBBW,2021-01-17T18:53:00Z,41.43,-99.63,5.6,-6.7,310,19,25,10.0,29.940945,1015.3,,TRUE,TRUE,,,,,,,CLR,,,,,,,,VFR,,,,,,,,,,,,METAR,771.0
KBAF 171853Z 26014G19KT 10SM OVC042 04/M04 A2948 RMK AO2 SLP988 T00441039,KBAF,2021-01-17T18:53:00Z,42.17,-72.72,4.4,-3.9,260,14,19,10.0,29.480314,998.8,,,TRUE,,,,,,,OVC,4200,,,,,,,VFR,,,,,,,,,,,,METAR,80.0
KAXN 171853Z AUTO 32007KT 9SM BKN008 BKN043 OVC050 M06/M07 A2976 RMK AO2 SLP102 T10561072 $,KAXN,2021-01-17T18:53:00Z,45.87,-95.4,-5.6,-7.2,320,7,,9.0,29.760826,1010.2,,TRUE,TRUE,TRUE,,,,,,BKN,800,BKN,4300,OVC,5000,,,IFR,,,,,,,,,,,,METAR,433.0
KAWM 171853Z AUTO 30007KT 270V340 10SM CLR 10/M03 A2991 RMK AO2 SLP131 T01001028,KAWM,2021-01-17T18:53:00Z,35.13,-90.23,10.0,-2.8,300,7,,10.0,29.911417,1013.1,,TRUE,TRUE,,,,,,,CLR,,,,,,,,VFR,,,,,,,,,,,,METAR,64.0
KAUS 171853Z 35004KT 10SM BKN250 19/M03 A3011 RMK AO2 SLP193 T01891033,KAUS,2021-01-17T18:53:00Z,30.18,-97.68,18.9,-3.3,350,4,,10.0,30.109253,1019.3,,,TRUE,,,,,,,BKN,25000,,,,,,,VFR,,,,,,,,,,,,METAR,148.0
KAUG 171853Z AUTO 24011G18KT 10SM BKN048 OVC055 03/M02 A2924 RMK AO2 SLP904 T00331022,KAUG,2021-01-17T18:53:00Z,44.32,-69.8,3.3,-2.2,240,11,18,10.0,29.241142,990.4,,TRUE,TRUE,,,,,,,BKN,4800,OVC,5500,,,,,VFR,,,,,,,,,,,,METAR,107.0
KATY 171853Z AUTO 32014KT 10SM BKN016 BKN025 OVC042 M01/M04 A2980 RMK AO2 SLP115 T10111039,KATY,2021-01-17T18:53:00Z,44.9,-97.15,-1.1,-3.9,320,14,,10.0,29.799213,1011.5,,TRUE,TRUE,,,,,,,BKN,1600,BKN,2500,OVC,4200,,,MVFR,,,,,,,,,,,,METAR,531.0
KASX 171853Z AUTO 02004KT 10SM OVC019 M04/M07 A2976 RMK AO2 SLP089 T10391072,KASX,2021-01-17T18:53:00Z,46.55,-90.92,-3.9,-7.2,20,4,,10.0,29.760826,1008.9,,TRUE,TRUE,,,,,,,OVC,1900,,,,,,,MVFR,,,,,,,,,,,,METAR,249.0
KASE 171853Z 35008KT 10SM OVC070 04/M14 A3016 RMK AO2 SLP191 T00441144,KASE,2021-01-17T18:53:00Z,39.23,-106.87,4.4,-14.4,350,8,,10.0,30.159449,1019.1,,,TRUE,,,,,,,OVC,7000,,,,,,,VFR,,,,,,,,,,,,METAR,2384.0
KASD 171853Z AUTO 23006KT 10SM CLR 14/M01 A3004 RMK AO2 SLP173 T01441006,KASD,2021-01-17T18:53:00Z,30.35,-89.82,14.4,-0.6,230,6,,10.0,30.041338,1017.3,,TRUE,TRUE,,,,,,,CLR,,,,,,,,VFR,,,,,,,,,,,,METAR,8.0
KARB 171853Z 26008KT 5SM -SN BR FEW013 BKN023 OVC031 02/M01 A2964 RMK AO2 SLP042 P0000 T00171006 $,KARB,2021-01-17T18:53:00Z,42.22,-83.73,1.7,-0.6,260,8,,5.0,29.639763,1004.2,,,TRUE,TRUE,,,,,-SN BR,FEW,1300,BKN,2300,OVC,3100,,,MVFR,,,,,,0.005,,,,,,METAR,251.0
KARA 171853Z 28008G17KT 10SM CLR 16/M03 A3007 RMK AO2 SLP182 T01611033,KARA,2021-01-17T18:53:00Z,30.03,-91.88,16.1,-3.3,280,8,17,10.0,30.070866,1018.2,,,TRUE,,,,,,,CLR,,,,,,,,VFR,,,,,,,,,,,,METAR,5.0
KAPF 171853Z VRB06KT 10SM FEW049 BKN065 18/09 A3004 RMK AO2 SLP169 T01780089 $,KAPF,2021-01-17T18:53:00Z,26.15,-81.77,17.8,8.9,0,6,,10.0,30.041338,1016.9,,,TRUE,TRUE,,,,,,FEW,4900,BKN,6500,,,,,VFR,,,,,,,,,,,,METAR,2.0
KAPA 171853Z 04004KT 10SM FEW070 SCT130 BKN200 08/M11 A2997 RMK AO2 SLP162 T00831106,KAPA,2021-01-17T18:53:00Z,39.57,-104.85,8.3,-10.6,40,4,,10.0,29.970472,1016.2,,,TRUE,,,,,,,FEW,7000,SCT,13000,BKN,20000,,,VFR,,,,,,,,,,,,METAR,1791.0
KANB 171853Z AUTO 23012KT 10SM CLR 11/M02 A2992 RMK AO2 SLP136 T01111017,KANB,2021-01-17T18:53:00Z,33.58,-85.85,11.1,-1.7,230,12,,10.0,29.920275,1013.6,,TRUE,TRUE,,,,,,,CLR,,,,,,,,VFR,,,,,,,,,,,,METAR,187.0
KAMW 171853Z AUTO 32012KT 10SM BKN015 OVC065 M01/M05 A2981 RMK AO2 SLP101 T10111050,KAMW,2021-01-17T18:53:00Z,41.98,-93.62,-1.1,-5.0,320,12,,10.0,29.811024,1010.1,,TRUE,TRUE,,,,,,,BKN,1500,OVC,6500,,,,,MVFR,,,,,,,,,,,,METAR,282.0
KAMG 171853Z AUTO 22008G16KT 10SM CLR 12/M03 A2998 RMK AO2 SLP151 T01171028,KAMG,2021-01-17T18:53:00Z,31.53,-82.5,11.7,-2.8,220,8,16,10.0,29.97933,1015.1,,TRUE,TRUE,,,,,,,CLR,,,,,,,,VFR,,,,,,,,,,,,METAR,61.0
KAMA 171853Z 36010KT 10SM CLR 08/M08 A3012 RMK AO2 SLP198 T00831083,KAMA,2021-01-17T18:53:00Z,35.22,-101.72,8.3,-8.3,360,10,,10.0,30.121063,1019.8,,,TRUE,,,,,,,CLR,,,,,,,,VFR,,,,,,,,,,,,METAR,1102.0
KALW 171853Z 23010KT 10SM SCT065 09/04 A3035 RMK AO2 SLP286 T00890044,KALW,2021-01-17T18:53:00Z,46.1,-118.28,8.9,4.4,230,10,,10.0,30.351377,1028.6,,,TRUE,,,,,,,SCT,6500,,,,,,,VFR,,,,,,,,,,,,METAR,355.0
KAKO 171853Z AUTO 32010KT 10SM CLR 04/M07 A3000 RMK AO2 SLP176 T00391072,KAKO,2021-01-17T18:53:00Z,40.17,-103.22,3.9,-7.2,320,10,,10.0,30.0,1017.6,,TRUE,TRUE,,,,,,,CLR,,,,,,,,VFR,,,,,,,,,,,,METAR,1431.0
KAIA 171853Z AUTO 30017G23KT 10SM BKN075 06/M09 A2994 RMK AO2 SLP164 T00561094 PNO,KAIA,2021-01-17T18:53:00Z,42.05,-102.8,5.6,-9.4,300,17,23,10.0,29.940945,1016.4,,TRUE,TRUE,,,,,,,BKN,7500,,,,,,,VFR,,,,,,,,,,,,METAR,1198.0
KAGS 171853Z 28009G16KT 10SM CLR 12/M03 A2993 RMK AO2 SLP134 T01221028,KAGS,2021-01-17T18:53:00Z,33.37,-81.97,12.2,-2.8,280,9,16,10.0,29.929134,1013.4,,,TRUE,,,,,,,CLR,,,,,,,,VFR,,,,,,,,,,,,METAR,40.0
KAFW 171853Z 32013G19KT 10SM FEW080 BKN220 16/M05 A3012 RMK AO2 SLP201 T01561050,KAFW,2021-01-17T18:53:00Z,32.97,-97.32,15.6,-5.0,320,13,19,10.0,30.121063,1020.1,,,TRUE,,,,,,,FEW,8000,BKN,22000,,,,,VFR,,,,,,,,,,,,METAR,208.0
KAEX 171853Z 29011KT 10SM CLR 15/M01 A3004 RMK AO2 SLP176 T01501011,KAEX,2021-01-17T18:53:00Z,31.33,-92.57,15.0,-1.1,290,11,,10.0,30.041338,1017.6,,,TRUE,,,,,,,CLR,,,,,,,,VFR,,,,,,,,,,,,METAR,25.0
KADG 171853Z AUTO 26006KT 10SM SCT018 OVC055 02/M02 A2966 RMK AO2 SLP052 T00171022 $,KADG,2021-01-17T18:53:00Z,41.87,-84.08,1.7,-2.2,260,6,,10.0,29.660433,1005.2,,TRUE,TRUE,TRUE,,,,,,SCT,1800,OVC,5500,,,,,VFR,,,,,,,,,,,,METAR,244.0
KACV 171853Z AUTO 35003KT 8SM CLR 12/09 A3027 RMK AO2 SLP255 T01170094,KACV,2021-01-17T18:53:00Z,40.98,-124.1,11.7,9.4,350,3,,8.0,30.268702,1025.5,,TRUE,TRUE,,,,,,,CLR,,,,,,,,VFR,,,,,,,,,,,,METAR,63.0
KACK 171853Z 25023G35KT 10SM FEW032 06/M01 A2951 RMK AO2 PK WND 26037/1754 SLP992 T00611011,KACK,2021-01-17T18:53:00Z,41.25,-70.07,6.1,-1.1,250,23,35,10.0,29.509842,999.2,,,TRUE,,,,,,,FEW,3200,,,,,,,VFR,,,,,,,,,,,,METAR,12.0
KABY 171853Z 25010KT 10SM CLR 13/M02 A3001 RMK AO2 SLP162 T01331017,KABY,2021-01-17T18:53:00Z,31.53,-84.2,13.3,-1.7,250,10,,10.0,30.008858,1016.2,,,TRUE,,,,,,,CLR,,,,,,,,VFR,,,,,,,,,,,,METAR,60.0
KABR 171853Z AUTO 33017KT 10SM FEW028 02/M06 A2986 RMK AO2 PK WND 34026/1809 SLP125 T00221061,KABR,2021-01-17T18:53:00Z,45.45,-98.42,2.2,-6.1,330,17,,10.0,29.861221,1012.5,,TRUE,TRUE,,,,,,,FEW,2800,,,,,,,VFR,,,,,,,,,,,,METAR,397.0
KAAF 171853Z AUTO 29009G17KT 10SM CLR 14/03 A3004 RMK AO2 SLP172 T01440028,KAAF,2021-01-17T18:53:00Z,29.73,-85.03,14.4,2.8,290,9,17,10.0,30.041338,1017.2,,TRUE,TRUE,,,,,,,CLR,,,,,,,,VFR,,,,,,,,,,,,METAR,5.0
PTKK 171852Z 06008G18KT 14SM -SHRA SCT013CB OVC110 27/25 A2973 RMK SHRAB30 CB ALQDS MOV SW SLP071 T02670252,PTKK,2021-01-17T18:52:00Z,7.47,151.85,26.7,25.2,60,8,18,14.0,29.731298,1007.1,,,,,,,,,-SHRA,SCT,1300,OVC,11000,,,,,VFR,,,,,,,,,,,,SPECI,3.0
PKMR 171852Z 15013KT 15SM SCT014 BKN050 BKN110 OVC300 27/24 A2984 RMK SLP105 T02680236,PKMR,2021-01-17T18:52:00Z,7.08,171.38,26.8,23.6,150,13,,15.0,29.840551,1010.5,,,,,,,,,,SCT,1400,BKN,5000,BKN,11000,OVC,30000,VFR,,,,,,,,,,,,SPECI,7.0
PFKW 171852Z AUTO 33010KT 9SM -SN SCT014 OVC038 M08/M10 A2944 RMK AO2 P0000 FZRANO,PFKW,2021-01-17T18:52:00Z,60.8,-161.43,-8.0,-10.0,330,10,,9.0,29.438976,,,TRUE,TRUE,,,,TRUE,,-SN,SCT,1400,OVC,3800,,,,,VFR,,,,,,0.005,,,,,,SPECI,4.0
PATA 171852Z 07011KT 10SM BKN070 OVC090 M12/M16 A2954 RMK AO2 SLP012 T11171161,PATA,2021-01-17T18:52:00Z,65.17,-152.1,-11.7,-16.1,70,11,,10.0,29.53937,1001.2,,,TRUE,,,,,,,BKN,7000,OVC,9000,,,,,VFR,,,,,,,,,,,,METAR,62.0
PABA 171852Z AUTO 07017KT 9SM OVC016 M20/M22 A2987 RMK AO2 SLP122 T12001222 FZRANO,PABA,2021-01-17T18:52:00Z,70.13,-143.58,-20.0,-22.2,70,17,,9.0,29.870079,1012.2,,TRUE,TRUE,,,,TRUE,,,OVC,1600,,,,,,,MVFR,,,,,,,,,,,,METAR,1.0
MUCM 171852Z 03008KT 350V050 9000 SCT020 BKN300 25/19 Q1015,MUCM,2021-01-17T18:52:00Z,21.42,-77.85,25.0,19.0,30,8,,5.59,29.970472,,,,,,,,,,,SCT,2000,BKN,30000,,,,,VFR,,,,,,,,,,,,METAR,125.0
MMZO 171852Z 21006KT 10SM FEW020 SCT120 28/22 A2991 RMK 8/130,MMZO,2021-01-17T18:52:00Z,19.13,-104.57,28.0,22.0,210,6,,10.0,29.911417,,,,,,,,,,,FEW,2000,SCT,12000,,,,,VFR,,,,,,,,,,,,METAR,11.0
MMML 171852Z 27003KT 10SM SKC 24/M08 A3008,MMML,2021-01-17T18:52:00Z,32.62,-115.23,24.0,-8.0,270,3,,10.0,30.079725,,,,,,,,,,,SKC,,,,,,,,VFR,,,,,,,,,,,,METAR,21.0
MMCB 171852Z 19002KT 15SM SCT020 BKN080 BKN250 26/12 A3010 RMK 8/138,MMCB,2021-01-17T18:52:00Z,18.83,-99.27,26.0,12.0,190,2,,15.0,30.100393,,,,,,,,,,,SCT,2000,BKN,8000,BKN,25000,,,VFR,,,,,,,,,,,,METAR,1281.0
KVTN 171852Z AUTO 30012G20KT 10SM CLR 06/M07 A2993 RMK AO2 SLP151 T00561072,KVTN,2021-01-17T18:52:00Z,42.87,-100.55,5.6,-7.2,300,12,20,10.0,29.929134,1015.1,,TRUE,TRUE,,,,,,,CLR,,,,,,,,VFR,,,,,,,,,,,,METAR,790.0
KTRM 171852Z AUTO 09004KT 10SM CLR 25/00 A3007 RMK AO2 SLP184 T02500000,KTRM,2021-01-17T18:52:00Z,33.63,-116.17,25.0,0.0,90,4,,10.0,30.070866,1018.4,,TRUE,TRUE,,,,,,,CLR,,,,,,,,VFR,,,,,,,,,,,,METAR,-39.0
KTOL 171852Z 24009KT 5SM -SN BKN018 BKN030 OVC060 03/M01 A2966 RMK AO2 SNB04 SLP051 P0000 T00281011 $,KTOL,2021-01-17T18:52:00Z,41.58,-83.8,2.8,-1.1,240,9,,5.0,29.660433,1005.1,,,TRUE,TRUE,,,,,-SN,BKN,1800,BKN,3000,OVC,6000,,,MVFR,,,,,,0.005,,,,,,METAR,206.0
KTAN 171852Z AUTO 26012G19KT 10SM BKN055 07/M05 A2946 RMK AO2 PK WND 28028/1826 SLP977 T00721050,KTAN,2021-01-17T18:52:00Z,41.88,-71.02,7.2,-5.0,260,12,19,10.0,29.459646,997.7,,TRUE,TRUE,,,,,,,BKN,5500,,,,,,,VFR,,,,,,,,,,,,METAR,8.0
KSUX 171852Z 32015KT 10SM OVC050 01/M04 A2986 RMK AO2 SLP126 T00111039,KSUX,2021-01-17T18:52:00Z,42.38,-96.38,1.1,-3.9,320,15,,10.0,29.861221,1012.6,,,TRUE,,,,,,,OVC,5000,,,,,,,VFR,,,,,,,,,,,,METAR,332.0
KSPS 171852Z 31010KT 10SM FEW080 BKN230 13/M03 A3013 RMK AO2 SLP201 T01281028,KSPS,2021-01-17T18:52:00Z,33.98,-98.5,12.8,-2.8,310,10,,10.0,30.129921,1020.1,,,TRUE,,,,,,,FEW,8000,BKN,23000,,,,,VFR,,,,,,,,,,,,METAR,310.0
KSPI 171852Z 27012KT 10SM OVC017 M01/M04 A2977 RMK AO2 SNE06 SLP085 P0001 T10061039,KSPI,2021-01-17T18:52:00Z,39.85,-89.68,-0.6,-3.9,270,12,,10.0,29.769686,1008.5,,,TRUE,,,,,,,OVC,1700,,,,,,,MVFR,,,,,,0.01,,,,,,METAR,179.0
KSGF 171852Z 29011G21KT 10SM SCT060 BKN110 05/M02 A2988 RMK AO2 SLP125 T00501022,KSGF,2021-01-17T18:52:00Z,37.23,-93.38,5.0,-2.2,290,11,21,10.0,29.878937,1012.5,,,TRUE,,,,,,,SCT,6000,BKN,11000,,,,,VFR,,,,,,,,,,,,METAR,387.0
KREO 171852Z AUTO VRB04KT 09/01 A3030 RMK AO1 SLP273 T00940006,KREO,2021-01-17T18:52:00Z,42.58,-117.87,9.4,0.6,0,4,,,30.301182,1027.3,,TRUE,TRUE,,,,,,,,,,,,,,,,,,,,,,,,,,,METAR,1237.0
KRAP 171852Z 32005KT 10SM CLR 05/M12 A2991 RMK AO2 SLP153 T00501117,KRAP,2021-01-17T18:52:00Z,44.05,-103.05,5.0,-11.7,320,5,,10.0,29.911417,1015.3,,,TRUE,,,,,,,CLR,,,,,,,,VFR,,,,,,,,,,,,METAR,965.0
KQN3 171852Z 03003KT 9000 HZ SCT350 31/00 A2986 RMK AO2A SLP103 WND DATA ESTMD T03051004,KQN3,2021-01-17T18:52:00Z,,,30.5,-0.4,30,3,,5.59,29.861221,1010.3,,,TRUE,,,,,,HZ,SCT,35000,,,,,,,VFR,,,,,,,,,,,,METAR,
KPYM 171852Z AUTO 25014G27KT 10SM OVC055 07/M04 A2944 RMK AO2 PK WND 25029/1811 SLP971 T00671044,KPYM,2021-01-17T18:52:00Z,41.92,-70.73,6.7,-4.4,250,14,27,10.0,29.438976,997.1,,TRUE,TRUE,,,,,,,OVC,5500,,,,,,,VFR,,,,,,,,,,,,METAR,42.0
KPPF 171852Z AUTO A2997 RMK AO2 SLPNO PWINO FZRANO TSNO $,KPPF,2021-01-17T18:52:00Z,37.33,-95.5,,,,,,,29.970472,,,TRUE,TRUE,TRUE,,TRUE,TRUE,TRUE,,,,,,,,,,,,,,,,,,,,,,METAR,265.0
KP69 171852Z AUTO 00000KT 02/01 A3031 RMK AO1 SLP285 P0009 T00170011,KP69,2021-01-17T18:52:00Z,46.15,-115.6,1.7,1.1,0,0,,,30.31004,1028.5,,TRUE,TRUE,,,,,,,,,,,,,,,,,,,,,0.09,,,,,,METAR,447.0
KORE 171852Z AUTO 25008G19KT 10SM BKN039 OVC049 04/M04 A2945 RMK AO2 SLP977 T00391039,KORE,2021-01-17T18:52:00Z,42.57,-72.28,3.9,-3.9,250,8,19,10.0,29.450787,997.7,,TRUE,TRUE,,,,,,,BKN,3900,OVC,4900,,,,,VFR,,,,,,,,,,,,METAR,165.0
KOMA 171852Z 33014KT 10SM SCT025 02/M03 A2988 RMK AO2 SLP127 T00171033,KOMA,2021-01-17T18:52:00Z,41.32,-95.9,1.7,-3.3,330,14,,10.0,29.878937,1012.7,,,TRUE,,,,,,,SCT,2500,,,,,,,VFR,,,,,,,,,,,,METAR,299.0
KOKC 171852Z 32023G29KT 10SM FEW055 FEW140 FEW200 11/M08 A3006 RMK AO2 PK WND 33029/1848 SLP182 T01111078,KOKC,2021-01-17T18:52:00Z,35.38,-97.6,11.1,-7.8,320,23,29,10.0,30.059055,1018.2,,,TRUE,,,,,,,FEW,5500,FEW,14000,FEW,20000,,,VFR,,,,,,,,,,,,METAR,391.0
KOKB 171852Z AUTO 00000KT 10SM CLR 28/00 A3000 RMK AO2 SLP158 T02780000,KOKB,2021-01-17T18:52:00Z,33.22,-117.35,27.8,0.0,0,0,,10.0,30.0,1015.8,,TRUE,TRUE,,,,,,,CLR,,,,,,,,VFR,,,,,,,,,,,,METAR,7.0
KNZY 171852Z 00000KT 10SM FEW250 22/07 A3001 RMK AO2 SLP161 T02170072,KNZY,2021-01-17T18:52:00Z,32.7,-117.22,21.7,7.2,0,0,,10.0,30.008858,1016.1,,,TRUE,,,,,,,FEW,25000,,,,,,,VFR,,,,,,,,,,,,METAR,4.0
KNTD 171852Z 06014G19KT 10SM FEW250 29/M03 A3003 RMK AO2 SLP169 T02891033 VISNO N $,KNTD,2021-01-17T18:52:00Z,34.12,-119.12,28.9,-3.3,60,14,19,10.0,30.029528,1016.9,,,TRUE,TRUE,,,,,,FEW,25000,,,,,,,VFR,,,,,,,,,,,,METAR,1.0
KNRB 171852Z AUTO 26011KT 10SM CLR 15/01 A3000 RMK AO2 SLP157 T01500006,KNRB,2021-01-17T18:52:00Z,30.38,-81.42,15.0,0.6,260,11,,10.0,30.0,1015.7,,TRUE,TRUE,,,,,,,CLR,,,,,,,,VFR,,,,,,,,,,,,METAR,4.0
KNHK 171852Z 22010KT 10SM FEW030 SCT280 09/M02 A2978 RMK AO2 SLP083 T00891017 $,KNHK,2021-01-17T18:52:00Z,38.28,-76.4,8.9,-1.7,220,10,,10.0,29.778543,1008.3,,,TRUE,TRUE,,,,,,FEW,3000,SCT,28000,,,,,VFR,,,,,,,,,,,,SPECI,5.0
KNFW 171852Z 34009KT 10SM BKN250 15/M06 A3013 RMK AO2 SLP185 T01501056 $,KNFW,2021-01-17T18:52:00Z,32.78,-97.43,15.0,-5.6,340,9,,10.0,30.129921,1018.5,,,TRUE,TRUE,,,,,,BKN,25000,,,,,,,VFR,,,,,,,,,,,,METAR,188.0
KN60 171852Z AUTO 32008KT M02/M07 A2987 RMK AO1 SLP142 T10221067,KN60,2021-01-17T18:52:00Z,47.65,-101.43,-2.2,-6.7,320,8,,,29.870079,1014.2,,TRUE,TRUE,,,,,,,,,,,,,,,,,,,,,,,,,,,METAR,582.0
KMLI 171852Z 28010KT 10SM BKN011 OVC029 M02/M05 A2975 RMK AO2 UPB03E13SNE03 SLP080 P0000 T10171050,KMLI,2021-01-17T18:52:00Z,41.45,-90.52,-1.7,-5.0,280,10,,10.0,29.749016,1008.0,,,TRUE,,,,,,,BKN,1100,OVC,2900,,,,,MVFR,,,,,,0.005,,,,,,METAR,174.0
KMLF 171852Z AUTO 04007KT 10SM CLR 03/M04 A3031 RMK AO2 SLP279 T00281039,KMLF,2021-01-17T18:52:00Z,38.42,-113.02,2.8,-3.9,40,7,,10.0,30.31004,1027.9,,TRUE,TRUE,,,,,,,CLR,,,,,,,,VFR,,,,,,,,,,,,METAR,1537.0
KMKE 171852Z 33005KT 6SM -SN OVC023 01/M03 A2967 RMK AO2 SLP056 P0000 T00061033,KMKE,2021-01-17T18:52:00Z,42.95,-87.9,0.6,-3.3,330,5,,6.0,29.66929,1005.6,,,TRUE,,,,,,-SN,OVC,2300,,,,,,,MVFR,,,,,,0.005,,,,,,METAR,203.0
KMHK 171852Z 30008G19KT 10SM CLR 09/M05 A2995 RMK AO2 SLP149 T00891050,KMHK,2021-01-17T18:52:00Z,39.13,-96.68,8.9,-5.0,300,8,19,10.0,29.949802,1014.9,,,TRUE,,,,,,,CLR,,,,,,,,VFR,,,,,,,,,,,,METAR,320.0
KMEB 171852Z AUTO 22016G21KT 10SM CLR 09/M02 A2990 RMK AO2 SLP124 T00891022,KMEB,2021-01-17T18:52:00Z,34.78,-79.37,8.9,-2.2,220,16,21,10.0,29.899607,1012.4,,TRUE,TRUE,,,,,,,CLR,,,,,,,,VFR,,,,,,,,,,,,METAR,65.0
KMDH 171852Z 26010G18KT 10SM OVC035 04/M04 A2983 RMK AO2 SLP104 T00391044,KMDH,2021-01-17T18:52:00Z,37.78,-89.25,3.9,-4.4,260,10,18,10.0,29.828741,1010.4,,,TRUE,,,,,,,OVC,3500,,,,,,,VFR,,,,,,,,,,,,METAR,122.0
KMBG 171852Z AUTO 31011KT 10SM CLR 03/M06 A2986 RMK AO2 SLP127 T00331056,KMBG,2021-01-17T18:52:00Z,45.55,-100.42,3.3,-5.6,310,11,,10.0,29.861221,1012.7,,TRUE,TRUE,,,,,,,CLR,,,,,,,,VFR,,,,,,,,,,,,METAR,515.0
KLWC 171852Z AUTO 30017G24KT 10SM FEW036 OVC100 06/M01 A2992 RMK AO1 SLP138 T00561011,KLWC,2021-01-17T18:52:00Z,39.02,-95.22,5.6,-1.1,300,17,24,10.0,29.920275,1013.8,,TRUE,TRUE,,,,,,,FEW,3600,OVC,10000,,,,,VFR,,,,,,,,,,,,METAR,252.0
KIOW 171852Z AUTO 32009KT 10SM OVC029 M03/M06 A2979 RMK AO2 SLP097 T10281061,KIOW,2021-01-17T18:52:00Z,41.63,-91.55,-2.8,-6.1,320,9,,10.0,29.790354,1009.7,,TRUE,TRUE,,,,,,,OVC,2900,,,,,,,MVFR,,,,,,,,,,,,METAR,199.0
KIJD 171852Z AUTO 26009G19KT 10SM FEW047 SCT060 06/M04 A2951 RMK AO2 PK WND 27027/1802 SLP995 T00561044,KIJD,2021-01-17T18:52:00Z,41.75,-72.18,5.6,-4.4,260,9,19,10.0,29.509842,999.5,,TRUE,TRUE,,,,,,,FEW,4700,SCT,6000,,,,,VFR,,,,,,,,,,,,METAR,73.0
KIEN 171852Z AUTO 28010KT 10SM CLR 06/M11 A2994 RMK AO2 SLP164 T00561111,KIEN,2021-01-17T18:52:00Z,43.03,-102.52,5.6,-11.1,280,10,,10.0,29.940945,1016.4,,TRUE,TRUE,,,,,,,CLR,,,,,,,,VFR,,,,,,,,,,,,METAR,1002.0
KIAD 171852Z 24006KT 10SM BKN048 BKN250 08/M02 A2974 RMK AO2 SLP074 T00781022,KIAD,2021-01-17T18:52:00Z,38.93,-77.45,7.8,-2.2,240,6,,10.0,29.740158,1007.4,,,TRUE,,,,,,,BKN,4800,BKN,25000,,,,,VFR,,,,,,,,,,,,METAR,90.0
KHUT 171852Z 33016G23KT 10SM CLR 09/M06 A3001 RMK AO2 PK WND 33026/1806 SLP162 T00941056,KHUT,2021-01-17T18:52:00Z,38.07,-97.87,9.4,-5.6,330,16,23,10.0,30.008858,1016.2,,,TRUE,,,,,,,CLR,,,,,,,,VFR,,,,,,,,,,,,METAR,464.0
KHRL 171852Z 14009KT 10SM OVC036 23/14 A3006 RMK AO2 RAB21E31 SLP179 P0000 T02280139,KHRL,2021-01-17T18:52:00Z,26.23,-97.65,22.8,13.9,140,9,,10.0,30.059055,1017.9,,,TRUE,,,,,,,OVC,3600,,,,,,,VFR,,,,,,0.005,,,,,,METAR,9.0
KGLS 171852Z 25005KT 10SM CLR 18/M02 A3011 RMK AO2 SLP195 T01831022,KGLS,2021-01-17T18:52:00Z,29.27,-94.87,18.3,-2.2,250,5,,10.0,30.109253,1019.5,,,TRUE,,,,,,,CLR,,,,,,,,VFR,,,,,,,,,,,,METAR,2.0
KFIT 171852Z AUTO 28016G25KT 10SM OVC049 06/M03 A2942 RMK AO2 SLP966 T00561033,KFIT,2021-01-17T18:52:00Z,42.55,-71.75,5.6,-3.3,280,16,25,10.0,29.421259,996.6,,TRUE,TRUE,,,,,,,OVC,4900,,,,,,,VFR,,,,,,,,,,,,METAR,102.0
KEKM 171852Z 23007KT 1 1/2SM -SN OVC007 00/M01 A2967 RMK AO2,KEKM,2021-01-17T18:52:00Z,41.72,-86.0,0.0,-1.0,230,7,,1.5,29.66929,,,,TRUE,,,,,,-SN,OVC,700,,,,,,,IFR,,,,,,,,,,,,METAR,236.0
KDPA 171852Z 23005KT 4SM -SN BR OVC006 M02/M04 A2967 RMK AO2 SNB49 SLP057 P0000 T10221039,KDPA,2021-01-17T18:52:00Z,41.88,-88.25,-2.2,-3.9,230,5,,4.0,29.66929,1005.7,,,TRUE,,,,,,-SN BR,OVC,600,,,,,,,IFR,,,,,,0.005,,,,,,METAR,228.0
KDDC 171852Z AUTO 32019G27KT 10SM CLR 08/M11 A3006 RMK AO2 PK WND 32027/1818 SLP182 T00831106 $,KDDC,2021-01-17T18:52:00Z,37.77,-99.97,8.3,-10.6,320,19,27,10.0,30.059055,1018.2,,TRUE,TRUE,TRUE,,,,,,CLR,,,,,,,,VFR,,,,,,,,,,,,METAR,786.0
KDCA 171852Z 24012KT 10SM BKN049 09/M03 A2976 RMK AO2 SLP078 T00941028,KDCA,2021-01-17T18:52:00Z,38.85,-77.03,9.4,-2.8,240,12,,10.0,29.760826,1007.8,,,TRUE,,,,,,,BKN,4900,,,,,,,VFR,,,,,,,,,,,,METAR,4.0
KCQX 171852Z AUTO 23016G27KT 10SM CLR 06/M02 A2949 RMK AO2 PK WND 26032/1802 SLP987 T00561017,KCQX,2021-01-17T18:52:00Z,41.68,-70.0,5.6,-1.7,230,16,27,10.0,29.489174,998.7,,TRUE,TRUE,,,,,,,CLR,,,,,,,,VFR,,,,,,,,,,,,METAR,17.0
KCQT 171852Z AUTO 00000KT 10SM CLR 27/M03 A3002 RMK AO2 SLP162 T02671028,KCQT,2021-01-17T18:52:00Z,34.02,-118.28,26.7,-2.8,0,0,,10.0,30.02067,1016.2,,TRUE,TRUE,,,,,,,CLR,,,,,,,,VFR,,,,,,,,,,,,METAR,51.0
KCNU 171852Z AUTO 32015G23KT 10SM CLR 10/M04 A2995 RMK AO2 PK WND 32026/1753 SLP145 T01001039,KCNU,2021-01-17T18:52:00Z,37.67,-95.48,10.0,-3.9,320,15,23,10.0,29.949802,1014.5,,TRUE,TRUE,,,,,,,CLR,,,,,,,,VFR,,,,,,,,,,,,METAR,301.0
KCLT 171852Z 27008KT 10SM SCT043 SCT140 BKN210 08/M04 A2988 RMK AO2 SLP121 T00781039,KCLT,2021-01-17T18:52:00Z,35.22,-80.95,7.8,-3.9,270,8,,10.0,29.878937,1012.1,,,TRUE,,,,,,,SCT,4300,SCT,14000,BKN,21000,,,VFR,,,,,,,,,,,,METAR,223.0
KCKV 171852Z AUTO 27013G18KT 10SM FEW042 BKN050 06/M02 A2982 RMK AO2 SLP098 T00611022,KCKV,2021-01-17T18:52:00Z,36.62,-87.42,6.1,-2.2,270,13,18,10.0,29.819881,1009.8,,TRUE,TRUE,,,,,,,FEW,4200,BKN,5000,,,,,VFR,,,,,,,,,,,,METAR,166.0
KCFV 171852Z AUTO 31017G25KT 10SM CLR 10/M04 A2996 RMK AO2 SLP151 T01001044,KCFV,2021-01-17T18:52:00Z,37.08,-95.57,10.0,-4.4,310,17,25,10.0,29.958662,1015.1,,TRUE,TRUE,,,,,,,CLR,,,,,,,,VFR,,,,,,,,,,,,METAR,228.0
KCDJ 171852Z AUTO 30005KT 02/M04 A2986 RMK AO1 SLP124 T00171039,KCDJ,2021-01-17T18:52:00Z,39.77,-93.48,1.7,-3.9,300,5,,,29.861221,1012.4,,TRUE,TRUE,,,,,,,,,,,,,,,,,,,,,,,,,,,METAR,236.0
KBML 171852Z AUTO VRB06KT 9SM -SN FEW025 SCT030 OVC045 01/M03 A2923 RMK AO2 SNB46 SLP908 P0000 T00111033 $,KBML,2021-01-17T18:52:00Z,44.58,-71.18,1.1,-3.3,0,6,,9.0,29.22933,990.8,,TRUE,TRUE,TRUE,,,,,-SN,FEW,2500,SCT,3000,OVC,4500,,,VFR,,,,,,0.005,,,,,,METAR,344.0
KBLU 171852Z AUTO 00000KT 10SM CLR 18/M02 A3029 RMK AO2 SLP194 T01781017,KBLU,2021-01-17T18:52:00Z,39.28,-120.7,17.8,-1.7,0,0,,10.0,30.28937,1019.4,,TRUE,TRUE,,,,,,,CLR,,,,,,,,VFR,,,,,,,,,,,,METAR,1605.0
KBLH 171852Z AUTO 00000KT 10SM CLR 22/M06 A3011 RMK AO2 SLP192 T02171056,KBLH,2021-01-17T18:52:00Z,33.62,-114.72,21.7,-5.6,0,0,,10.0,30.109253,1019.2,,TRUE,TRUE,,,,,,,CLR,,,,,,,,VFR,,,,,,,,,,,,METAR,119.0
KBIS 171852Z 32009KT 10SM CLR M01/M06 A2989 RMK AO2 SLP143 T10061056,KBIS,2021-01-17T18:52:00Z,46.77,-100.75,-0.6,-5.6,320,9,,10.0,29.890747,1014.3,,,TRUE,,,,,,,CLR,,,,,,,,VFR,,,,,,,,,,,,METAR,506.0
KBDR 171852Z 27015G28KT 10SM OVC050 07/M04 A2957 RMK AO2 PK WND 27029/1841 SLP014 T00671044,KBDR,2021-01-17T18:52:00Z,41.17,-73.13,6.7,-4.4,270,15,28,10.0,29.568897,1001.4,,,TRUE,,,,,,,OVC,5000,,,,,,,VFR,,,,,,,,,,,,METAR,5.0
KBAN 171852Z AUTO 00000KT 10SM CLR 07/M06 A3035 RMK AO2 SLP270 T00721061 $,KBAN,2021-01-17T18:52:00Z,38.35,-119.52,7.2,-6.1,0,0,,10.0,30.351377,1027.0,,TRUE,TRUE,TRUE,,,,,,CLR,,,,,,,,VFR,,,,,,,,,,,,METAR,2067.0
KATL 171852Z 24008G21KT 10SM SCT048 BKN200 BKN250 09/M03 A2992 RMK AO2 SLP134 T00891028,KATL,2021-01-17T18:52:00Z,33.63,-84.45,8.9,-2.8,240,8,21,10.0,29.920275,1013.4,,,TRUE,,,,,,,SCT,4800,BKN,20000,BKN,25000,,,VFR,,,,,,,,,,,,METAR,309.0
KARR 171852Z 23005KT 9SM OVC007 M02/M04 A2968 RMK AO2 SNB15E24 SLP059 P0002 I1000 T10221039,KARR,2021-01-17T18:52:00Z,41.77,-88.48,-2.2,-3.9,230,5,,9.0,29.681103,1005.9,,,TRUE,,,,,,,OVC,700,,,,,,,IFR,,,,,,0.02,,,,,,METAR,213.0
KALS 171852Z AUTO 19004KT 10SM CLR 04/M14 A3011 RMK AO2 SLP203 T00441139,KALS,2021-01-17T18:52:00Z,37.43,-105.87,4.4,-13.9,190,4,,10.0,30.109253,1020.3,,TRUE,TRUE,,,,,,,CLR,,,,,,,,VFR,,,,,,,,,,,,METAR,2299.0
KAFN 171852Z AUTO 25012G20KT 10SM BKN034 OVC043 02/M04 A2938 RMK AO2 SLP961 T00221039,KAFN,2021-01-17T18:52:00Z,42.8,-72.0,2.2,-3.9,250,12,20,10.0,29.379921,996.1,,TRUE,TRUE,,,,,,,BKN,3400,OVC,4300,,,,,VFR,,,,,,,,,,,,METAR,308.0
KABQ 171852Z 00000KT 10SM BKN250 08/M11 A3016 RMK AO2 SLP199 T00831106,KABQ,2021-01-17T18:52:00Z,35.05,-106.62,8.3,-10.6,0,0,,10.0,30.159449,1019.9,,,TRUE,,,,,,,BKN,25000,,,,,,,VFR,,,,,,,,,,,,METAR,1620.0
KABI 171852Z 05005KT 10SM CLR 13/M02 A3015 RMK AO2 SLP206 T01281022,KABI,2021-01-17T18:52:00Z,32.42,-99.68,12.8,-2.2,50,5,,10.0,30.15059,1020.6,,,TRUE,,,,,,,CLR,,,,,,,,VFR,,,,,,,,,,,,METAR,543.0
ETHC 171852Z 12003KT 9000 -SN BKN019 BKN056 M01/M03 Q1020 WHT,ETHC,2021-01-17T18:52:00Z,52.6,10.02,-1.0,-3.0,120,3,,5.59,30.11811,,,,,,,,,,-SN,BKN,1900,BKN,5600,,,,,MVFR,,,,,,,,,,,,SPECI,35.0
MUGM 171851Z 14010KT 10SM FEW030 BKN250 29/21 A2995 RMK AO2 SLP142 T02890211 $,MUGM,2021-01-17T18:51:00Z,19.9,-75.2,28.9,21.1,140,10,,10.0,29.949802,1014.2,,,TRUE,TRUE,,,,,,FEW,3000,BKN,25000,,,,,VFR,,,,,,,,,,,,METAR,21.0
MMSP 171851Z 34004G14KT 15SM FEW210 21/M08 A3021 RMK 8/001,MMSP,2021-01-17T18:51:00Z,22.25,-100.93,21.0,-8.0,340,4,14,15.0,30.209646,,,,,,,,,,,FEW,21000,,,,,,,VFR,,,,,,,,,,,,SPECI,1841.0
MMPR 171851Z 22009KT 15SM FEW110 23/16 A2994 RMK 8/030,MMPR,2021-01-17T18:51:00Z,20.67,-105.25,23.0,16.0,220,9,,15.0,29.940945,,,,,,,,,,,FEW,11000,,,,,,,VFR,,,,,,,,,,,,SPECI,6.0
MMPQ 171851Z 09005KT 6SM BKN030 23/21 A2987 RMK 8/500 HZY,MMPQ,2021-01-17T18:51:00Z,17.53,-92.02,23.0,21.0,90,5,,6.0,29.870079,,,,,,,,,,,BKN,3000,,,,,,,MVFR,,,,,,,,,,,,METAR,48.0
MMMX 171851Z 13003KT 12SM SCT020 BKN100 19/04 A3027 NOSIG RMK 8/230 CI,MMMX,2021-01-17T18:51:00Z,19.43,-99.08,19.0,4.0,130,3,,12.0,30.268702,,,,,,TRUE,,,,,SCT,2000,BKN,10000,,,,,VFR,,,,,,,,,,,,METAR,2224.0
KYNG 171851Z 24011KT 10SM BKN017 OVC025 02/M02 A2965 RMK AO2 SNB1757E40 SLP049 P0000 T00221022,KYNG,2021-01-17T18:51:00Z,41.25,-80.67,2.2,-2.2,240,11,,10.0,29.648623,1004.9,,,TRUE,,,,,,,BKN,1700,OVC,2500,,,,,MVFR,,,,,,0.005,,,,,,METAR,356.0
KXWA 171851Z AUTO 20005KT 10SM OVC100 M03/M06 A2985 RMK AO2 SLP152 T10281061,KXWA,2021-01-17T18:51:00Z,48.27,-103.75,-2.8,-6.1,200,5,,10.0,29.84941,1015.2,,TRUE,TRUE,,,,,,,OVC,10000,,,,,,,VFR,,,,,,,,,,,,METAR,717.0
KVNY 171851Z 34008KT 10SM CLR 28/M07 A3003 RMK AO2 SLP160 T02781072,KVNY,2021-01-17T18:51:00Z,34.22,-118.48,27.8,-7.2,340,8,,10.0,30.029528,1016.0,,,TRUE,,,,,,,CLR,,,,,,,,VFR,,,,,,,,,,,,METAR,241.0
KTPL 171851Z AUTO VRB06G15KT 10SM CLR 16/M02 A3014 RMK AO2 SLP202 T01561017,KTPL,2021-01-17T18:51:00Z,31.15,-97.4,15.6,-1.7,0,6,15,10.0,30.138779,1020.2,,TRUE,TRUE,,,,,,,CLR,,,,,,,,VFR,,,,,,,,,,,,METAR,206.0
KTEB 171851Z 27013KT 10SM OVC047 06/M03 A2961 RMK AO2 PK WND 27026/1826 SLP027 T00611033,KTEB,2021-01-17T18:51:00Z,40.87,-74.05,6.1,-3.3,270,13,,10.0,29.610237,1002.7,,,TRUE,,,,,,,OVC,4700,,,,,,,VFR,,,,,,,,,,,,METAR,3.0
KSTL 171851Z 28012G21KT 10SM BKN028 BKN075 BKN250 04/M04 A2981 RMK AO2 SLP100 T00391039,KSTL,2021-01-17T18:51:00Z,38.75,-90.37,3.9,-3.9,280,12,21,10.0,29.811024,1010.0,,,TRUE,,,,,,,BKN,2800,BKN,7500,BKN,25000,,,MVFR,,,,,,,,,,,,SPECI,163.0
KSNT 171851Z AUTO 34005KT M04/M08 A3022 RMK AO1 SLP250 T10391078,KSNT,2021-01-17T18:51:00Z,44.17,-114.93,-3.9,-7.8,340,5,,,30.221457,1025.0,,TRUE,TRUE,,,,,,,,,,,,,,,,,,,,,,,,,,,METAR,1980.0
KSMX 171851Z 00000KT 10SM CLR 22/06 A3006 RMK AO2 SLP178 T02220056,KSMX,2021-01-17T18:51:00Z,34.9,-120.45,22.2,5.6,0,0,,10.0,30.059055,1017.8,,,TRUE,,,,,,,CLR,,,,,,,,VFR,,,,,,,,,,,,METAR,73.0
KSMO 171851Z 00000KT 10SM CLR 27/M03 A3003 RMK AO2 SLP167 T02721028 $,KSMO,2021-01-17T18:51:00Z,34.02,-118.45,27.2,-2.8,0,0,,10.0,30.029528,1016.7,,,TRUE,TRUE,,,,,,CLR,,,,,,,,VFR,,,,,,,,,,,,METAR,56.0
KSJT 171851Z VRB06KT 10SM CLR 14/M04 A3014 RMK AO2 SLP205 T01441039,KSJT,2021-01-17T18:51:00Z,31.37,-100.5,14.4,-3.9,0,6,,10.0,30.138779,1020.5,,,TRUE,,,,,,,CLR,,,,,,,,VFR,,,,,,,,,,,,METAR,582.0
KSBD 171851Z 00000KT 7SM CLR 25/M05 A3008,KSBD,2021-01-17T18:51:00Z,34.08,-117.25,25.0,-5.0,0,0,,7.0,30.079725,,,,,,,,,,,CLR,,,,,,,,VFR,,,,,,,,,,,,METAR,353.0
KSAT 171851Z 23009G15KT 10SM FEW250 19/04 A3010 RMK AO2 SLP183 T01940044,KSAT,2021-01-17T18:51:00Z,29.53,-98.48,19.4,4.4,230,9,15,10.0,30.100393,1018.3,,,TRUE,,,,,,,FEW,25000,,,,,,,VFR,,,,,,,,,,,,METAR,246.0
KSAN 171851Z 21003KT 10SM FEW250 23/04 A3003 RMK AO2 SLP168 T02330039,KSAN,2021-01-17T18:51:00Z,32.73,-117.18,23.3,3.9,210,3,,10.0,30.029528,1016.8,,,TRUE,,,,,,,FEW,25000,,,,,,,VFR,,,,,,,,,,,,METAR,3.0
KSAD 171851Z AUTO 00000KT 10SM CLR 15/M10 A3016 RMK AO2 SLP194 T01501100,KSAD,2021-01-17T18:51:00Z,32.85,-109.63,15.0,-10.0,0,0,,10.0,30.159449,1019.4,,TRUE,TRUE,,,,,,,CLR,,,,,,,,VFR,,,,,,,,,,,,METAR,937.0
KROW 171851Z 06005KT 10SM CLR 10/M07 A3010 RMK AO2 SLP181 T01001072,KROW,2021-01-17T18:51:00Z,33.3,-104.5,10.0,-7.2,60,5,,10.0,30.100393,1018.1,,,TRUE,,,,,,,CLR,,,,,,,,VFR,,,,,,,,,,,,METAR,1105.0
KRDU 171851Z 22006KT 10SM FEW045 BKN150 BKN250 09/M01 A2984 RMK AO2 SLP106 T00941011,KRDU,2021-01-17T18:51:00Z,35.9,-78.78,9.4,-1.1,220,6,,10.0,29.840551,1010.6,,,TRUE,,,,,,,FEW,4500,BKN,15000,BKN,25000,,,VFR,,,,,,,,,,,,SPECI,121.0
KPWM 171851Z 26015G22KT 10SM BKN046 BKN055 04/M03 A2930 RMK AO2 PK WND 27033/1809 SLP922 T00441033,KPWM,2021-01-17T18:51:00Z,43.65,-70.3,4.4,-3.3,260,15,22,10.0,29.300198,992.2,,,TRUE,,,,,,,BKN,4600,BKN,5500,,,,,VFR,,,,,,,,,,,,METAR,15.0
KPVD 171851Z 26019G29KT 10SM BKN050 07/M04 A2949 RMK AO2 PK WND 26032/1836 SLP986 T00671044,KPVD,2021-01-17T18:51:00Z,41.72,-71.43,6.7,-4.4,260,19,29,10.0,29.489174,998.6,,,TRUE,,,,,,,BKN,5000,,,,,,,VFR,,,,,,,,,,,,METAR,15.0
KPIT 171851Z 24008KT 5SM -SN BR FEW008 BKN012 OVC028 01/M01 A2969 RMK AO2 SLP071 P0001 T00111011,KPIT,2021-01-17T18:51:00Z,40.47,-80.2,1.1,-1.1,240,8,,5.0,29.68996,1007.1,,,TRUE,,,,,,-SN BR,FEW,800,BKN,1200,OVC,2800,,,MVFR,,,,,,0.01,,,,,,METAR,339.0
KPHX 171851Z 29003KT 10SM SCT250 19/M08 A3008 RMK AO2 SLP177 T01891083 $,KPHX,2021-01-17T18:51:00Z,33.43,-112.02,18.9,-8.3,290,3,,10.0,30.079725,1017.7,,,TRUE,TRUE,,,,,,SCT,25000,,,,,,,VFR,,,,,,,,,,,,METAR,338.0
KP59 171851Z AUTO 04010G16KT M03/M07 A2971 RMK AO1 SLP074 T10331067,KP59,2021-01-17T18:51:00Z,47.47,-87.88,-3.3,-6.7,40,10,16,,29.71063,1007.4,,TRUE,TRUE,,,,,,,,,,,,,,,,,,,,,,,,,,,METAR,185.0
KOXR 171851Z 08014G25KT 10SM CLR 29/M04 A3002 RMK AO2 PK WND 08026/1823 SLP164 T02891039,KOXR,2021-01-17T18:51:00Z,34.2,-119.2,28.9,-3.9,80,14,25,10.0,30.02067,1016.4,,,TRUE,,,,,,,CLR,,,,,,,,VFR,,,,,,,,,,,,METAR,12.0
KOXC 171851Z 27011G15KT 10SM BKN040 04/M04 A2954 RMK AO2 SLP020 T00391039,KOXC,2021-01-17T18:51:00Z,41.47,-73.13,3.9,-3.9,270,11,15,10.0,29.53937,1002.0,,,TRUE,,,,,,,BKN,4000,,,,,,,VFR,,,,,,,,,,,,METAR,211.0
KORF 171851Z 24010KT 10SM CLR 10/M02 A2981 RMK AO2 SLP095 T01001022,KORF,2021-01-17T18:51:00Z,36.9,-76.2,10.0,-2.2,240,10,,10.0,29.811024,1009.5,,,TRUE,,,,,,,CLR,,,,,,,,VFR,,,,,,,,,,,,SPECI,5.0
KORD 171851Z 24006KT 6SM -SN BR OVC009 M01/M03 A2967 RMK AO2 SLP054 P0000 T10111033,KORD,2021-01-17T18:51:00Z,41.95,-87.93,-1.1,-3.3,240,6,,6.0,29.66929,1005.4,,,TRUE,,,,,,-SN BR,OVC,900,,,,,,,IFR,,,,,,0.005,,,,,,METAR,202.0
KOCF 171851Z 32007KT 280V340 10SM BKN040 14/04 A3003 RMK AO2 SLP171 T01440039 $,KOCF,2021-01-17T18:51:00Z,29.17,-82.22,14.4,3.9,320,7,,10.0,30.029528,1017.1,,,TRUE,TRUE,,,,,,BKN,4000,,,,,,,VFR,,,,,,,,,,,,SPECI,24.0
KNYC 171851Z AUTO 27007G19KT 10SM OVC047 06/M04 A2964 RMK AO2 SLP028 T00611044 $,KNYC,2021-01-17T18:51:00Z,40.78,-73.97,6.1,-4.4,270,7,19,10.0,29.639763,1002.8,,TRUE,TRUE,TRUE,,,,,,OVC,4700,,,,,,,VFR,,,,,,,,,,,,METAR,33.0
KMWN 171851Z 28079G82KT 1/16SM -SN FZFG BLSN VV001 M11/M11 RMK PK WND 28092/37 VRY LGT ICG,KMWN,2021-01-17T18:51:00Z,44.27,-71.3,-11.0,-11.0,280,79,82,0.06,,,,,,,,,,,-SN FZFG BLSN,OVX,0,,,,,,,LIFR,,,,,,,,,,,100,METAR,1911.0
KMQE 171851Z AUTO 26021G35KT 04/M05 A2939 RMK AO1 PK WND 23038/1822 SLP968 T00391050,KMQE,2021-01-17T18:51:00Z,42.22,-71.12,3.9,-5.0,260,21,35,,29.388779,996.8,,TRUE,TRUE,,,,,,,,,,,,,,,,,,,,,,,,,,,METAR,192.0
KLWB 171851Z 24009KT 5SM -SN BKN017 OVC023 00/M02 A2976,KLWB,2021-01-17T18:51:00Z,37.87,-80.4,0.0,-2.0,240,9,,5.0,29.760826,,,,,,,,,,-SN,BKN,1700,OVC,2300,,,,,MVFR,,,,,,,,,,,,METAR,702.0
KLGU 171851Z AUTO 28003KT 4SM BR CLR M03/M04 A3030 RMK AO2 SLP294 T10331044,KLGU,2021-01-17T18:51:00Z,41.78,-111.85,-3.3,-4.4,280,3,,4.0,30.301182,1029.4,,TRUE,TRUE,,,,,,BR,CLR,,,,,,,,MVFR,,,,,,,,,,,,METAR,1359.0
KLGA 171851Z 29021G28KT 10SM BKN046 BKN250 07/M04 A2962 RMK AO2 PK WND 30028/1850 SLP029 T00721044,KLGA,2021-01-17T18:51:00Z,40.78,-73.88,7.2,-4.4,290,21,28,10.0,29.619095,1002.9,,,TRUE,,,,,,,BKN,4600,BKN,25000,,,,,VFR,,,,,,,,,,,,METAR,9.0
KJFK 171851Z 28016G24KT 10SM BKN045 BKN250 07/M04 A2963 RMK AO2 PK WND 27027/1829 SLP035 T00671039,KJFK,2021-01-17T18:51:00Z,40.63,-73.77,6.7,-3.9,280,16,24,10.0,29.630905,1003.5,,,TRUE,,,,,,,BKN,4500,BKN,25000,,,,,VFR,,,,,,,,,,,,METAR,3.0
KJCT 171851Z AUTO 26005KT 10SM CLR 17/M04 A3012 RMK AO2 SLP179 T01721039,KJCT,2021-01-17T18:51:00Z,30.5,-99.77,17.2,-3.9,260,5,,10.0,30.121063,1017.9,,TRUE,TRUE,,,,,,,CLR,,,,,,,,VFR,,,,,,,,,,,,METAR,522.0
KILG 171851Z 27018G25KT 10SM BKN049 08/M04 A2971 RMK AO2 PK WND 29026/1806 SLP061 T00831039 $,KILG,2021-01-17T18:51:00Z,39.67,-75.6,8.3,-3.9,270,18,25,10.0,29.71063,1006.1,,,TRUE,TRUE,,,,,,BKN,4900,,,,,,,VFR,,,,,,,,,,,,METAR,22.0
KIGM 171851Z AUTO 04005KT 10SM CLR 14/M07 A3020 RMK AO2 SLP193 T01441067,KIGM,2021-01-17T18:51:00Z,35.25,-113.93,14.4,-6.7,40,5,,10.0,30.200787,1019.3,,TRUE,TRUE,,,,,,,CLR,,,,,,,,VFR,,,,,,,,,,,,METAR,1045.0
KHSE 171851Z AUTO 27008G15KT 10SM CLR 10/M01 A2989 RMK AO2 SLP122 T01001011,KHSE,2021-01-17T18:51:00Z,35.23,-75.62,10.0,-1.1,270,8,15,10.0,29.890747,1012.2,,TRUE,TRUE,,,,,,,CLR,,,,,,,,VFR,,,,,,,,,,,,SPECI,4.0
KHDO 171851Z AUTO 22008KT 10SM CLR 19/02 A3011 RMK AO2 SLP189 T01890022,KHDO,2021-01-17T18:51:00Z,29.37,-99.17,18.9,2.2,220,8,,10.0,30.109253,1018.9,,TRUE,TRUE,,,,,,,CLR,,,,,,,,VFR,,,,,,,,,,,,METAR,280.0
KGDP 171851Z AUTO 23019KT 10SM CLR 12/ A3015 RMK AO2 SLP179 T0117,KGDP,2021-01-17T18:51:00Z,31.83,-104.82,11.7,,230,19,,10.0,30.15059,1017.9,,TRUE,TRUE,,,,,,,CLR,,,,,,,,VFR,,,,,,,,,,,,METAR,1664.0
KEWR 171851Z 28017G20KT 10SM BKN047 BKN250 07/M04 A2963 RMK AO2 PK WND 28029/1801 SLP034 T00671039,KEWR,2021-01-17T18:51:00Z,40.68,-74.17,6.7,-3.9,280,17,20,10.0,29.630905,1003.4,,,TRUE,,,,,,,BKN,4700,BKN,25000,,,,,VFR,,,,,,,,,,,,METAR,2.0
KERI 171851Z 24009G17KT 10SM BKN011 OVC018 02/M01 A2964 RMK AO2 SNE1752 SLP042 P0000 T00221006,KERI,2021-01-17T18:51:00Z,42.08,-80.18,2.2,-0.6,240,9,17,10.0,29.639763,1004.2,,,TRUE,,,,,,,BKN,1100,OVC,1800,,,,,MVFR,,,,,,0.005,,,,,,METAR,222.0
KELP 171851Z 00000KT 10SM SCT250 14/M10 A3014 RMK AO2 SLP176 T01391100,KELP,2021-01-17T18:51:00Z,31.82,-106.35,13.9,-10.0,0,0,,10.0,30.138779,1017.6,,,TRUE,,,,,,,SCT,25000,,,,,,,VFR,,,,,,,,,,,,METAR,1205.0
KDAW 171851Z AUTO VRB06G21KT 10SM SCT043 OVC050 04/M04 A2933 RMK AO2 SLP932 T00441039 $,KDAW,2021-01-17T18:51:00Z,43.28,-70.92,4.4,-3.9,0,6,21,10.0,29.329725,993.2,,TRUE,TRUE,TRUE,,,,,,SCT,4300,OVC,5000,,,,,VFR,,,,,,,,,,,,METAR,100.0
KCSG 171851Z 27011KT 10SM CLR 11/M02 A2997 RMK AO2 SLP149 T01061022,KCSG,2021-01-17T18:51:00Z,32.52,-84.95,10.6,-2.2,270,11,,10.0,29.970472,1014.9,,,TRUE,,,,,,,CLR,,,,,,,,VFR,,,,,,,,,,,,SPECI,120.0
KCRP 171851Z 12009KT 10SM FEW040 20/09 A3010 RMK AO2 SLP191 T02000089,KCRP,2021-01-17T18:51:00Z,27.77,-97.5,20.0,8.9,120,9,,10.0,30.100393,1019.1,,,TRUE,,,,,,,FEW,4000,,,,,,,VFR,,,,,,,,,,,,METAR,11.0
KCON 171851Z AUTO 26016G23KT 10SM BKN044 OVC055 04/M04 A2936 RMK AO2 PK WND 25027/1834 SLP945 T00391039,KCON,2021-01-17T18:51:00Z,43.2,-71.5,3.9,-3.9,260,16,23,10.0,29.359253,994.5,,TRUE,TRUE,,,,,,,BKN,4400,OVC,5500,,,,,VFR,,,,,,,,,,,,METAR,102.0
KCMH 171851Z 23008KT 6SM -SN BR BKN012 OVC024 02/00 A2970 RMK AO2 SLP064 P0000 T00170000,KCMH,2021-01-17T18:51:00Z,40.0,-82.88,1.7,0.0,230,8,,6.0,29.698818,1006.4,,,TRUE,,,,,,-SN BR,BKN,1200,OVC,2400,,,,,MVFR,,,,,,0.005,,,,,,METAR,257.0
KCLE 171851Z 22008KT 9SM SCT022 BKN030 OVC035 02/00 A2965 RMK AO2 SNB39E48 SLP065 P0000 T00220000,KCLE,2021-01-17T18:51:00Z,41.42,-81.85,2.2,0.0,220,8,,9.0,29.648623,1006.5,,,TRUE,,,,,,,SCT,2200,BKN,3000,OVC,3500,,,MVFR,,,,,,0.005,,,,,,METAR,237.0
KCAK 171851Z 24008KT 3SM -SN OVC015 02/M01 A2967 RMK AO2 SLP057 P0000 T00171011 $,KCAK,2021-01-17T18:51:00Z,40.92,-81.45,1.7,-1.1,240,8,,3.0,29.66929,1005.7,,,TRUE,TRUE,,,,,-SN,OVC,1500,,,,,,,MVFR,,,,,,0.005,,,,,,METAR,369.0
KBHK 171851Z AUTO 23007KT 10SM BKN080 OVC095 02/M10 A2986 RMK AO2 SLP138 T00171100 $,KBHK,2021-01-17T18:51:00Z,46.35,-104.25,1.7,-10.0,230,7,,10.0,29.861221,1013.8,,TRUE,TRUE,TRUE,,,,,,BKN,8000,OVC,9500,,,,,VFR,,,,,,,,,,,,METAR,904.0
KBGD 171851Z AUTO VRB06G15KT 10SM CLR 10/M09 A3013 RMK AO2 SLP200 T01001094,KBGD,2021-01-17T18:51:00Z,35.7,-101.4,10.0,-9.4,0,6,15,10.0,30.129921,1020.0,,TRUE,TRUE,,,,,,,CLR,,,,,,,,VFR,,,,,,,,,,,,METAR,928.0
KBED 171851Z 25013G23KT 220V280 10SM OVC050 06/M04 A2941 RMK AO2 PK WND 27028/1758 SLP973 T00561044,KBED,2021-01-17T18:51:00Z,42.47,-71.3,5.6,-4.4,250,13,23,10.0,29.409449,997.3,,,TRUE,,,,,,,OVC,5000,,,,,,,VFR,,,,,,,,,,,,METAR,39.0
KBDL 171851Z 26019G27KT 10SM FEW044 BKN060 BKN200 BKN250 05/M04 A2950 RMK AO2 PK WND 25027/1849 SLP991 T00501044,KBDL,2021-01-17T18:51:00Z,41.93,-72.68,5.0,-4.4,260,19,27,10.0,29.500984,999.1,,,TRUE,,,,,,,FEW,4400,BKN,6000,BKN,20000,BKN,25000,VFR,,,,,,,,,,,,METAR,52.0
KBAZ 171851Z 25007KT 10SM CLR 21/01 A3009 RMK AO2 SLP185 T02110006,KBAZ,2021-01-17T18:51:00Z,29.72,-98.05,21.1,0.6,250,7,,10.0,30.088583,1018.5,,,TRUE,,,,,,,CLR,,,,,,,,VFR,,,,,,,,,,,,METAR,199.0
KAVX 171851Z AUTO VRB04KT 10SM CLR 26/M06 A3009 RMK AO2 SLP158 T02561061,KAVX,2021-01-17T18:51:00Z,33.4,-118.42,25.6,-6.1,0,4,,10.0,30.088583,1015.8,,TRUE,TRUE,,,,,,,CLR,,,,,,,,VFR,,,,,,,,,,,,METAR,482.0
KATT 171851Z AUTO 00000KT 10SM CLR 18/M03 A3012 RMK AO2 SLP197 T01831028,KATT,2021-01-17T18:51:00Z,30.32,-97.77,18.3,-2.8,0,0,,10.0,30.121063,1019.7,,TRUE,TRUE,,,,,,,CLR,,,,,,,,VFR,,,,,,,,,,,,METAR,203.0
KALB 171851Z 19003KT 9SM -SN OVC031 01/M02 A2950 RMK AO2 SLP994 P0001 T00111017,KALB,2021-01-17T18:51:00Z,42.75,-73.8,1.1,-1.7,190,3,,9.0,29.500984,999.4,,,TRUE,,,,,,-SN,OVC,3100,,,,,,,VFR,,,,,,0.01,,,,,,METAR,82.0
KAHN 171851Z 10SM BKN050 11/M03 A2991 RMK AO2 SLP131 T01061033,KAHN,2021-01-17T18:51:00Z,33.95,-83.33,10.6,-3.3,,,,10.0,29.911417,1013.1,,,TRUE,,,,,,,BKN,5000,,,,,,,VFR,,,,,,,,,,,,SPECI,241.0
KACT 171851Z 36009KT 10SM CLR 16/M03 A3013 RMK AO2 SLP200 T01611033,KACT,2021-01-17T18:51:00Z,31.62,-97.23,16.1,-3.3,360,9,,10.0,30.129921,1020.0,,,TRUE,,,,,,,CLR,,,,,,,,VFR,,,,,,,,,,,,METAR,150.0
KABE 171851Z 26013G20KT 10SM OVC041 06/M03 A2964 RMK AO2 PK WND 26028/1758 SLP041 T00561033,KABE,2021-01-17T18:51:00Z,40.65,-75.45,5.6,-3.3,260,13,20,10.0,29.639763,1004.1,,,TRUE,,,,,,,OVC,4100,,,,,,,VFR,,,,,,,,,,,,METAR,117.0
K6R6 171851Z AUTO 17004KT 15/M03 A3012 RMK AO1 SLP187 T01501033,K6R6,2021-01-17T18:51:00Z,30.05,-102.22,15.0,-3.3,170,4,,,30.121063,1018.7,,TRUE,TRUE,,,,,,,,,,,,,,,,,,,,,,,,,,,METAR,702.0
TJBQ 171850Z 07016G19KT 10SM CLR 28/21 A2997,TJBQ,2021-01-17T18:50:00Z,18.5,-67.13,28.0,21.0,70,16,19,10.0,29.970472,,,,,,,,,,,CLR,,,,,,,,VFR,,,,,,,,,,,,METAR,69.0
SFAL 171850Z 15006KT 9999 SCT030 10/06 Q1002 BECMG BKN020,SFAL,2021-01-17T18:50:00Z,-51.68,-57.77,10.0,6.0,150,6,,6.21,29.586615,,,,,,,,,,,SCT,3000,,,,,,,VFR,,,,,,,,,,,,METAR,23.0
PTYA 171850Z VRB06KT 12SM FEW016 SCT130 BKN300 27/25 A2975 RMK SLP076 T02720248,PTYA,2021-01-17T18:50:00Z,9.48,138.08,27.2,24.8,0,6,,12.0,29.749016,1007.6,,,,,,,,,,FEW,1600,SCT,13000,BKN,30000,,,VFR,,,,,,,,,,,,SPECI,4.0
PTRO 171850Z 13005KT 12SM BKN015CB BKN110 OVC280 24/24 A2976 RMK CB ALQDS,PTRO,2021-01-17T18:50:00Z,7.37,134.55,24.0,24.0,130,5,,12.0,29.760826,,,,,,,,,,,BKN,1500,BKN,11000,OVC,28000,,,MVFR,,,,,,,,,,,,SPECI,30.0
PADG 171850Z 03011KT 7SM -SN BR SCT024 OVC033 M11/M16 A2950,PADG,2021-01-17T18:50:00Z,68.03,-162.9,-11.0,-16.0,30,11,,7.0,29.500984,,,,,,,,,,-SN BR,SCT,2400,OVC,3300,,,,,VFR,,,,,,,,,,,,SPECI,297.0
OOSH 171850Z AUTO 19001KT //// ////// 20/12 Q1012 RMK 1008,OOSH,2021-01-17T18:50:00Z,24.38,56.62,20.0,12.0,190,1,,,29.88189,,,TRUE,,,,,,,,,,,,,,,,,,,,,,,,,,,,METAR,35.0
OOSA 171850Z 35005KT CAVOK 21/12 Q1014 NOSIG,OOSA,2021-01-17T18:50:00Z,17.03,54.1,21.0,12.0,350,5,,6.21,29.940945,,,,,,TRUE,,,,,CAVOK,,,,,,,,VFR,,,,,,,,,,,,METAR,20.0
OOMS 171850Z 21004KT CAVOK 19/17 Q1013 NOSIG,OOMS,2021-01-17T18:50:00Z,23.58,58.28,19.0,17.0,210,4,,6.21,29.911417,,,,,,TRUE,,,,,CAVOK,,,,,,,,VFR,,,,,,,,,,,,METAR,8.0
OODQ 171850Z AUTO 20007KT CAVOK ////// 18/14 Q1014 NOSIG RMK RH78? 0,OODQ,2021-01-17T18:50:00Z,19.52,57.65,18.0,14.0,200,7,,6.21,29.940945,,,TRUE,,,TRUE,,,,,CAVOK,,,,,,,,VFR,,,,,,,,,,,,METAR,116.0
OAMS 171850Z 10004KT 9999 BKN250 07/03 Q1009 BLU+BLU+,OAMS,2021-01-17T18:50:00Z,36.7,67.2,7.0,3.0,100,4,,6.21,29.793306,,,,,,,,,,,BKN,25000,,,,,,,VFR,,,,,,,,,,,,METAR,382.0
OAKB 171850Z 31003KT 1400 FU NSC 03/M07 Q1019 RMK A3011 AMB AMB,OAKB,2021-01-17T18:50:00Z,34.55,69.22,3.0,-7.0,310,3,,0.87,30.088583,,,,,,,,,,FU,CLR,,,,,,,,LIFR,,,,,,,,,,,,METAR,1786.0
MUVR 171850Z 01008KT 9000 BKN025 24/16 Q1016,MUVR,2021-01-17T18:50:00Z,23.03,-81.43,24.0,16.0,10,8,,5.59,30.0,,,,,,,,,,,BKN,2500,,,,,,,MVFR,,,,,,,,,,,,METAR,65.0
MUSC 171850Z 09008KT 040V140 8000 BKN018 24/18 Q1016,MUSC,2021-01-17T18:50:00Z,22.5,-79.92,24.0,18.0,90,8,,4.97,30.0,,,,,,,,,,,BKN,1800,,,,,,,MVFR,,,,,,,,,,,,METAR,97.0
MUHG 171850Z 34007KT 9000 FEW024 SCT033 BKN060 27/21 Q1015,MUHG,2021-01-17T18:50:00Z,20.78,-76.32,27.0,21.0,340,7,,5.59,29.970472,,,,,,,,,,,FEW,2400,SCT,3300,BKN,6000,,,VFR,,,,,,,,,,,,METAR,100.0
MUCU 171850Z 17005KT 120V200 9000 FEW020 SCT070 28/20 Q1014,MUCU,2021-01-17T18:50:00Z,19.97,-75.83,28.0,20.0,170,5,,5.59,29.940945,,,,,,,,,,,FEW,2000,SCT,7000,,,,,VFR,,,,,,,,,,,,METAR,70.0
MUCF 171850Z 08003KT 020V170 8000 OVC120 25/19 Q1016,MUCF,2021-01-17T18:50:00Z,22.15,-80.4,25.0,19.0,80,3,,4.97,30.0,,,,,,,,,,,OVC,12000,,,,,,,MVFR,,,,,,,,,,,,METAR,35.0
MUCC 171850Z 06009KT 030V090 9000 SCT020 25/18 Q1015,MUCC,2021-01-17T18:50:00Z,22.47,-78.33,25.0,18.0,60,9,,5.59,29.970472,,,,,,,,,,,SCT,2000,,,,,,,VFR,,,,,,,,,,,,METAR,7.0
MSLP 171850Z VRB05KT 9999 FEW060 33/19 Q1010 A2984 NOSIG,MSLP,2021-01-17T18:50:00Z,13.43,-89.05,33.0,19.0,0,5,,6.21,29.822834,,,,,,TRUE,,,,,FEW,6000,,,,,,,VFR,,,,,,,,,,,,METAR,25.0
MMUN 171850Z 33005KT 7SM SCT100 OVC250 23/16 A3004 RMK 8/037 BINOVC,MMUN,2021-01-17T18:50:00Z,21.03,-86.85,23.0,16.0,330,5,,7.0,30.041338,,,,,,,,,,,SCT,10000,OVC,25000,,,,,VFR,,,,,,,,,,,,METAR,13.0
LXGB 171850Z AUTO 18003KT 9999 NCD 13/09 Q1027,LXGB,2021-01-17T18:50:00Z,36.15,-5.33,13.0,9.0,180,3,,6.21,30.324802,,,TRUE,,,,,,,,CLR,,,,,,,,VFR,,,,,,,,,,,,METAR,5.0
LTFM 171850Z 34010KT 9999 -SHSN BKN025 M01/M05 Q1017 BECMG TL1920 26012KT RMK RWY17L 35009KT RWY34L 34008KT RWY16R 33007KT RWY36 34011KT RWY18 34011KT,LTFM,2021-01-17T18:50:00Z,41.27,28.75,-1.0,-5.0,340,10,,6.21,30.029528,,,,,,,,,,-SHSN,BKN,2500,,,,,,,MVFR,,,,,,,,,,,,METAR,99.0
LTFJ 171850Z 36004KT 310V040 6000 -SHSN BKN013 BKN025 M02/M03 Q1017 R062///95 NOSIG,LTFJ,2021-01-17T18:50:00Z,40.9,29.3,-2.0,-3.0,360,4,,3.73,30.029528,,,,,,TRUE,,,,-SHSN,BKN,1300,BKN,2500,,,,,MVFR,,,,,,,,,,,,METAR,83.0
LTFH 171850Z 31020KT 9999 -SHRA FEW015 BKN028 BKN080 05/01 Q1010 NOSIG,LTFH,2021-01-17T18:50:00Z,41.27,36.57,5.0,1.0,310,20,,6.21,29.822834,,,,,,TRUE,,,,-SHRA,FEW,1500,BKN,2800,BKN,8000,,,MVFR,,,,,,,,,,,,METAR,7.0
LTFG 171850Z 32010KT 280V350 9999 SCT030 SCT100 12/M01 Q1007,LTFG,2021-01-17T18:50:00Z,36.3,32.3,12.0,-1.0,320,10,,6.21,29.734253,,,,,,,,,,,SCT,3000,SCT,10000,,,,,VFR,,,,,,,,,,,,METAR,26.0
LTFE 171850Z 15004KT CAVOK 04/02 Q1013 NOSIG RMK RWY10 13003KT 110V170,LTFE,2021-01-17T18:50:00Z,37.25,27.67,4.0,2.0,150,4,,6.21,29.911417,,,,,,TRUE,,,,,CAVOK,,,,,,,,VFR,,,,,,,,,,,,METAR,6.0
LTFD 171850Z 08010KT 9999 SCT035 BKN100 00/M04 Q1017,LTFD,2021-01-17T18:50:00Z,39.55,27.02,0.0,-4.0,80,10,,6.21,30.029528,,,,,,,,,,,SCT,3500,BKN,10000,,,,,VFR,,,,,,,,,,,,METAR,15.0
LTFC 171850Z 34008KT 9999 FEW015 SCT030 M02/M05 Q1009 RMK RWY23 34011KT,LTFC,2021-01-17T18:50:00Z,37.87,30.38,-2.0,-5.0,340,8,,6.21,29.793306,,,,,,,,,,,FEW,1500,SCT,3000,,,,,VFR,,,,,,,,,,,,METAR,862.0
LTDA 171850Z VRB02KT 9999 FEW020CB BKN030 10/10 Q1006 NOSIG,LTDA,2021-01-17T18:50:00Z,36.37,36.28,10.0,10.0,0,2,,6.21,29.704725,,,,,,TRUE,,,,,FEW,2000,BKN,3000,,,,,MVFR,,,,,,,,,,,,METAR,80.0
LTCS 171850Z 15010KT 0500 R04/0600N R22/P1500D BCFG SCT002 BKN020 04/04 Q1007 RMK RWY22 17012KT 4ST002 7SC020,LTCS,2021-01-17T18:50:00Z,37.45,38.9,4.0,4.0,150,10,,0.31,29.734253,,,,,,,,,,BCFG,SCT,200,BKN,2000,,,,,LIFR,,,,,,,,,,,,METAR,825.0
LTCN 171850Z 09008KT 060V120 9999 SCT030 BKN080 08/05 Q1004 NOSIG,LTCN,2021-01-17T18:50:00Z,37.53,36.95,8.0,5.0,90,8,,6.21,29.64567,,,,,,TRUE,,,,,SCT,3000,BKN,8000,,,,,VFR,,,,,,,,,,,,METAR,505.0
LTCJ 171850Z 35004KT 9999 -RA SCT035 BKN080 07/07 Q1006 RMK RWY20 34005KT 4SC035 7AC080,LTCJ,2021-01-17T18:50:00Z,37.93,41.12,7.0,7.0,350,4,,6.21,29.704725,,,,,,,,,,-RA,SCT,3500,BKN,8000,,,,,VFR,,,,,,,,,,,,METAR,559.0
LTCI 171850Z 19018G28KT 130V240 9999 SCT035 BKN060 06/M04 Q1007 BECMG TL1950 13015G25KT TEMPO 4000 BR,LTCI,2021-01-17T18:50:00Z,38.47,43.33,6.0,-4.0,190,18,28,6.21,29.734253,,,,,,,,,,,SCT,3500,BKN,6000,,,,,VFR,,,,,,,,,,,,METAR,1654.0
LTCG 171850Z 30018KT 8000 -SHRA BKN014 BKN028 07/04 Q1008 TEMPO 3500 SHRA BR BKN008 BKN025,LTCG,2021-01-17T18:50:00Z,41.0,39.77,7.0,4.0,300,18,,4.97,29.763779,,,,,,,,,,-SHRA,BKN,1400,BKN,2800,,,,,MVFR,,,,,,,,,,,,METAR,28.0
LTCF 171850Z 03004KT 9999 SCT035 BKN070 M01/M03 Q1004,LTCF,2021-01-17T18:50:00Z,40.57,43.12,-1.0,-3.0,30,4,,6.21,29.64567,,,,,,,,,,,SCT,3500,BKN,7000,,,,,VFR,,,,,,,,,,,,METAR,1794.0
LTCE 171850Z 08003KT 060V120 6000 -SN BKN025 BKN070 M00/M01 Q1003 NOSIG RMK RWY08R 11003KT 070V170 RWY26R 08003KT RWY08L 12003KT 090V170,LTCE,2021-01-17T18:50:00Z,39.95,41.17,0.0,-1.0,80,3,,3.73,29.616142,,,,,,TRUE,,,,-SN,BKN,2500,BKN,7000,,,,,MVFR,,-0.3,,,,,,,,,,METAR,1758.0
LTCD 171850Z 12009KT 9999 BKN033 BKN070 04/M00 Q1002 NOSIG,LTCD,2021-01-17T18:50:00Z,39.72,39.52,4.0,0.0,120,9,,6.21,29.586615,,,,,,TRUE,,,,,BKN,3300,BKN,7000,,,,,VFR,,,,,,,,,,,,METAR,1146.0
LTCC 171850Z 01003KT 9999 -RA BKN025 BKN080 06/05 Q1006 NOSIG RMK RWY16 01002KT,LTCC,2021-01-17T18:50:00Z,37.88,40.2,6.0,5.0,10,3,,6.21,29.704725,,,,,,TRUE,,,,-RA,BKN,2500,BKN,8000,,,,,MVFR,,,,,,,,,,,,METAR,676.0
LTCB 171850Z 25006KT 8000 -SHRA BKN014 BKN025 05/05 Q1010 RESHRA,LTCB,2021-01-17T18:50:00Z,40.97,38.07,5.0,5.0,250,6,,4.97,29.822834,,,,,,,,,,-SHRA,BKN,1400,BKN,2500,,,,,MVFR,,,,,,,,,,,,METAR,5.0
LTCA 171850Z 07010KT 9999 BKN035 OVC100 05/02 Q1004 NOSIG,LTCA,2021-01-17T18:50:00Z,38.6,39.28,5.0,2.0,70,10,,6.21,29.64567,,,,,,TRUE,,,,,BKN,3500,OVC,10000,,,,,VFR,,,,,,,,,,,,METAR,887.0
LTBY 171850Z 31008KT 9999 FEW025 SCT100 M05/M09 Q1011,LTBY,2021-01-17T18:50:00Z,39.82,30.52,-5.0,-9.0,310,8,,6.21,29.852362,,,,,,,,,,,FEW,2500,SCT,10000,,,,,VFR,,,,,,,,,,,,METAR,788.0
LTBU 171850Z 35006KT CAVOK M05/M10 Q1017 RMK RWY22 33004KT,LTBU,2021-01-17T18:50:00Z,41.13,27.92,-5.0,-10.0,350,6,,6.21,30.029528,,,,,,,,,,,CAVOK,,,,,,,,VFR,,,,,,,,,,,,METAR,165.0
LTBS 171850Z 07004KT 9999 FEW035 06/01 Q1012 NOSIG RMK RWY19 35006KT 2CU035,LTBS,2021-01-17T18:50:00Z,36.7,28.78,6.0,1.0,70,4,,6.21,29.88189,,,,,,TRUE,,,,,FEW,3500,,,,,,,VFR,,,,,,,,,,,,METAR,2.0
LTBR 171850Z VRB02KT 6000 -SHSN FEW015 BKN023 BKN080 M02/M04 Q1015 NOSIG RMK RWY07 00000KT,LTBR,2021-01-17T18:50:00Z,40.25,29.57,-2.0,-4.0,0,2,,3.73,29.970472,,,,,,TRUE,,,,-SHSN,FEW,1500,BKN,2300,BKN,8000,,,MVFR,,,,,,,,,,,,METAR,233.0
LTBQ 171850Z 25003KT 210V270 2200 -SHSN SCT007 BKN019 M02/M02 Q1017 TEMPO TL2000 SHSN,LTBQ,2021-01-17T18:50:00Z,40.73,30.07,-2.0,-2.0,250,3,,1.37,30.029528,,,,,,,,,,-SHSN,SCT,700,BKN,1900,,,,,IFR,,,,,,,,,,,,METAR,51.0
LTBJ 171850Z 01004KT CAVOK 00/M03 Q1013 NOSIG RMK RWY16 35007KT,LTBJ,2021-01-17T18:50:00Z,38.28,27.15,0.0,-3.0,10,4,,6.21,29.911417,,,,,,TRUE,,,,,CAVOK,,,,,,,,VFR,,,,,,,,,,,,METAR,123.0
LTBH 171850Z 05010KT 9999 SCT035 BKN100 M00/M05 Q1017,LTBH,2021-01-17T18:50:00Z,40.13,26.42,0.0,-5.0,50,10,,6.21,30.029528,,,,,,,,,,,SCT,3500,BKN,10000,,,,,VFR,,,,,,,,,,,,METAR,8.0
LTBF 171850Z 36007KT 9999 SCT015 BKN035 M01/M03 Q1017 NOSIG,LTBF,2021-01-17T18:50:00Z,39.62,27.92,-1.0,-3.0,360,7,,6.21,30.029528,,,,,,TRUE,,,,,SCT,1500,BKN,3500,,,,,VFR,,,,,,,,,,,,METAR,95.0
LTBA 171850Z 34007KT 9999 BKN025 BKN080 M01/M05 Q1017 NOSIG RMK RWY23 33007KT,LTBA,2021-01-17T18:50:00Z,40.97,28.82,-1.0,-5.0,340,7,,6.21,30.029528,,,,,,TRUE,,,,,BKN,2500,BKN,8000,,,,,MVFR,,,,,,,,,,,,METAR,33.0
LTAZ 171850Z 27005KT 7000 FEW010 BKN025 BKN070 M01/M02 Q1007 RMK RWY29 00000KT,LTAZ,2021-01-17T18:50:00Z,38.77,34.52,-1.0,-2.0,270,5,,4.35,29.734253,,,,,,,,,,,FEW,1000,BKN,2500,BKN,7000,,,MVFR,,,,,,,,,,,,METAR,944.0
LTAY 171850Z 28007KT 9999 FEW012 BKN030 M02/M04 Q1010,LTAY,2021-01-17T18:50:00Z,37.78,29.7,-2.0,-4.0,280,7,,6.21,29.822834,,,,,,,,,,,FEW,1200,BKN,3000,,,,,MVFR,,,,,,,,,,,,METAR,851.0
LTAT 171850Z 20005KT 120V250 9999 FEW020 SCT035 BKN090 06/01 Q1003 NOSIG RMK RWY03 24004KT 170V300,LTAT,2021-01-17T18:50:00Z,38.43,38.08,6.0,1.0,200,5,,6.21,29.616142,,,,,,TRUE,,,,,FEW,2000,SCT,3500,BKN,9000,,,VFR,,,,,,,,,,,,METAR,850.0
LTAR 171850Z 29008KT 9999 SCT040 BKN090 M05/M07 Q1003,LTAR,2021-01-17T18:50:00Z,39.8,36.9,-5.0,-7.0,290,8,,6.21,29.616142,,,,,,,,,,,SCT,4000,BKN,9000,,,,,VFR,,,,,,,,,,,,METAR,1601.0
LTAP 171850Z 25005KT 9999 SCT018 BKN036 OVC080 M01/M02 Q1007 RESN NOSIG RMK RWY23 28004KT 260V320,LTAP,2021-01-17T18:50:00Z,40.83,35.52,-1.0,-2.0,250,5,,6.21,29.734253,,,,,,TRUE,,,,,SCT,1800,BKN,3600,OVC,8000,,,VFR,,,,,,,,,,,,METAR,536.0
LTAN 171850Z 35015KT 9999 FEW016 SCT030 BKN090 M03/M06 Q1007 NOSIG,LTAN,2021-01-17T18:50:00Z,37.97,32.55,-3.0,-6.0,350,15,,6.21,29.734253,,,,,,TRUE,,,,,FEW,1600,SCT,3000,BKN,9000,,,VFR,,,,,,,,,,,,METAR,1029.0
LTAJ 171850Z 20013KT 9999 SCT005 BKN020 07/06 Q1005 NOSIG RMK RWY10 19010G20KT 160V220 4ST005 7SC020,LTAJ,2021-01-17T18:50:00Z,36.95,37.48,7.0,6.0,200,13,,6.21,29.675198,,,,,,TRUE,,,,,SCT,500,BKN,2000,,,,,MVFR,,,,,,,,,,,,METAR,684.0
LTAI 171850Z 31017KT 9999 SCT030 07/M05 Q1010 NOSIG RMK RWY18C 31014KT RWY36R 30018KT RWY18L 31017KT,LTAI,2021-01-17T18:50:00Z,36.9,30.8,7.0,-5.0,310,17,,6.21,29.822834,,,,,,TRUE,,,,,SCT,3000,,,,,,,VFR,,,,,,,,,,,,METAR,50.0
LTAG 171850Z 00000KT 9999 SCT030 SCT200 08/08 Q1003 NOSIG RMK 4CU030 4CI200,LTAG,2021-01-17T18:50:00Z,37.0,35.42,8.0,8.0,0,0,,6.21,29.616142,,,,,,TRUE,,,,,SCT,3000,SCT,20000,,,,,VFR,,,,,,,,,,,,SPECI,62.0
LTAF 171850Z VRB02KT 3700 1600S BR FEW030 BKN100 08/08 Q1003 TEMPO 1200,LTAF,2021-01-17T18:50:00Z,36.98,35.28,8.0,8.0,0,2,,2.3,29.616142,,,,,,,,,,BR,FEW,3000,BKN,10000,,,,,IFR,,,,,,,,,,,,METAR,19.0
LTAE 171850Z 29008KT 260V320 9999 SCT040 BKN100 M03/M06 Q1008 NOSIG RMK RWY21 27005KT,LTAE,2021-01-17T18:50:00Z,40.07,32.57,-3.0,-6.0,290,8,,6.21,29.763779,,,,,,TRUE,,,,,SCT,4000,BKN,10000,,,,,VFR,,,,,,,,,,,,METAR,836.0
LTAC 171850Z VRB02KT 9999 -SN BKN025 BKN090 M03/M06 Q1007 NOSIG RMK RWY21L 16004KT RWY03L VRB02KT RWY21R 18004KT 140V200,LTAC,2021-01-17T18:50:00Z,40.12,32.98,-3.0,-6.0,0,2,,6.21,29.734253,,,,,,TRUE,,,,-SN,BKN,2500,BKN,9000,,,,,MVFR,,,,,,,,,,,,SPECI,952.0
LSZS 171850Z AUTO VRB02KT 9999 -SN BKN036 M06/M07 Q1014,LSZS,2021-01-17T18:50:00Z,46.53,9.88,-6.0,-7.0,0,2,,6.21,29.940945,,,TRUE,,,,,,,-SN,BKN,3600,,,,,,,VFR,,,,,,,,,,,,METAR,1708.0
LSZR 171850Z AUTO VRB03KT 9999 FEW020 OVC025 02/02 Q1023 RESN,LSZR,2021-01-17T18:50:00Z,47.48,9.57,2.0,2.0,0,3,,6.21,30.206694,,,TRUE,,,,,,,,FEW,2000,OVC,2500,,,,,MVFR,,,,,,,,,,,,METAR,396.0
LSZL 171850Z AUTO VRB02KT 9999NDV NCD 01/M02 Q1017 RMK,LSZL,2021-01-17T18:50:00Z,46.17,8.88,1.0,-2.0,0,2,,,30.029528,,,TRUE,,,,,,,,CLR,,,,,,,,,,,,,,,,,,,,METAR,198.0
LSZH 171850Z 27005KT 9999 BKN014 BKN040 02/M00 Q1023 R88/29//// NOSIG,LSZH,2021-01-17T18:50:00Z,47.48,8.53,2.0,0.0,270,5,,6.21,30.206694,,,,,,TRUE,,,,,BKN,1400,BKN,4000,,,,,MVFR,,,,,,,,,,,,METAR,424.0
LSZG 171850Z AUTO 22006KT 9999 -DZ BKN025 02/01 Q1024 RERASN,LSZG,2021-01-17T18:50:00Z,47.17,7.42,2.0,1.0,220,6,,6.21,30.236221,,,TRUE,,,,,,,-DZ,BKN,2500,,,,,,,MVFR,,,,,,,,,,,,METAR,428.0
LSZC 171850Z AUTO VRB03KT 2700 -SN BKN003 BKN006 BKN036 00/M00 Q1024,LSZC,2021-01-17T18:50:00Z,46.97,8.38,0.0,0.0,0,3,,1.68,30.236221,,,TRUE,,,,,,,-SN,BKN,300,BKN,600,BKN,3600,,,LIFR,,,,,,,,,,,,METAR,445.0
LSZB 171850Z AUTO 28006KT 240V330 9999 -RASN SCT025 BKN033 BKN037 02/01 Q1024 RESN,LSZB,2021-01-17T18:50:00Z,46.92,7.5,2.0,1.0,280,6,,6.21,30.236221,,,TRUE,,,,,,,-RA -SN,SCT,2500,BKN,3300,BKN,3700,,,VFR,,,,,,,,,,,,METAR,510.0
LSZA 171850Z AUTO VRB01KT 9999 FEW100 01/M02 Q1017,LSZA,2021-01-17T18:50:00Z,46.0,8.92,1.0,-2.0,0,1,,6.21,30.029528,,,TRUE,,,,,,,,FEW,10000,,,,,,,VFR,,,,,,,,,,,,METAR,276.0
LSMP 171850Z AUTO 20006KT 9999NDV FEW029 BKN053 OVC063 02/00 Q1025 RMK,LSMP,2021-01-17T18:50:00Z,46.83,6.92,2.0,0.0,200,6,,,30.265747,,,TRUE,,,,,,,,FEW,2900,BKN,5300,OVC,6300,,,,,,,,,,,,,,,METAR,490.0
LSMM 171850Z AUTO 29012KT 240V330 9999NDV -RA SCT015 BKN027 OVC034 02/M00 Q1023 RMK,LSMM,2021-01-17T18:50:00Z,46.75,8.12,2.0,0.0,290,12,,,30.206694,,,TRUE,,,,,,,-RA,SCT,1500,BKN,2700,OVC,3400,,,,,,,,,,,,,,,METAR,570.0
LSME 171850Z AUTO VRB01KT 4200NDV -SHRA BR SCT025 BKN033 OVC044 01/01 Q1024 RMK,LSME,2021-01-17T18:50:00Z,47.1,8.3,1.0,1.0,0,1,,,30.236221,,,TRUE,,,,,,,-SHRA BR,SCT,2500,BKN,3300,OVC,4400,,,,,,,,,,,,,,,METAR,427.0
LSMD 171850Z AUTO 31003KT 270V350 9999NDV -SHRA FEW010 BKN013 OVC016 02/00 Q1023 RMK,LSMD,2021-01-17T18:50:00Z,47.4,8.65,2.0,0.0,310,3,,,30.206694,,,TRUE,,,,,,,-SHRA,FEW,1000,BKN,1300,OVC,1600,,,,,,,,,,,,,,,METAR,436.0
LSMA 171850Z AUTO 00000KT 2500NDV -SN BR FEW003 BKN006 BKN009 00/M00 Q1024 RMK,LSMA,2021-01-17T18:50:00Z,46.95,8.28,0.0,0.0,0,0,,,30.236221,,,TRUE,,,,,,,-SN BR,FEW,300,BKN,600,BKN,900,,,,,,,,,,,,,,,METAR,441.0
LSGS 171850Z AUTO VRB04KT 9999 BKN090 02/M00 Q1024,LSGS,2021-01-17T18:50:00Z,46.22,7.32,2.0,0.0,0,4,,6.21,30.236221,,,TRUE,,,,,,,,BKN,9000,,,,,,,VFR,,,,,,,,,,,,METAR,482.0
LSGG 171850Z 31003KT 9999 FEW015 SCT040 BKN065 01/01 Q1025 R04/29//// NOSIG,LSGG,2021-01-17T18:50:00Z,46.25,6.12,1.0,1.0,310,3,,6.21,30.265747,,,,,,TRUE,,,,,FEW,1500,SCT,4000,BKN,6500,,,VFR,,,,,,,,,,,,METAR,411.0
LSGC 171850Z AUTO 28004KT 230V330 2700 -SN OVC004 M01/M02 Q1022,LSGC,2021-01-17T18:50:00Z,47.08,6.8,-1.0,-2.0,280,4,,1.68,30.177166,,,TRUE,,,,,,,-SN,OVC,400,,,,,,,LIFR,,,,,,,,,,,,METAR,1018.0
LOXZ 171850Z 22003KT 10KM FEW035SC BKN050SC M05/M09 Q1016,LOXZ,2021-01-17T18:50:00Z,47.2,14.75,-5.0,-9.0,220,3,,6.21,30.0,,,,,,,,,,,,,,,,,,,,,,,,,,,,,,,METAR,678.0
LOWW 171850Z 02006KT 9999 -SHSN FEW022 SCT026 BKN032 M04/M07 Q1021 R88/29//95 NOSIG,LOWW,2021-01-17T18:50:00Z,48.12,16.57,-4.0,-7.0,20,6,,6.21,30.147638,,,,,,TRUE,,,,-SHSN,FEW,2200,SCT,2600,BKN,3200,,,VFR,,,,,,,,,,,,METAR,179.0
LOWS 171850Z VRB01KT 8000 -SN FEW008 SCT012 BKN022 M03/M04 Q1021 R15/490195 TEMPO 2500 BKN014,LOWS,2021-01-17T18:50:00Z,47.78,13.02,-3.0,-4.0,0,1,,4.97,30.147638,,,,,,,,,,-SN,FEW,800,SCT,1200,BKN,2200,,,MVFR,,,,,,,,,,,,METAR,427.0
LOWL 171850Z AUTO VRB02KT 9999 BKN026 M03/M06 Q1021 R08/19//95 NOSIG,LOWL,2021-01-17T18:50:00Z,48.22,14.18,-3.0,-6.0,0,2,,6.21,30.147638,,,TRUE,,,TRUE,,,,,BKN,2600,,,,,,,MVFR,,,,,,,,,,,,METAR,290.0
LOWK 171850Z AUTO 29002KT 9999 NCD M10/M11 Q1019 NOSIG,LOWK,2021-01-17T18:50:00Z,46.65,14.32,-10.0,-11.0,290,2,,6.21,30.088583,,,TRUE,,,TRUE,,,,,CLR,,,,,,,,VFR,,,,,,,,,,,,METAR,450.0
LOWI 171850Z VRB01KT 1800 R08/P1500N R26/P1500U SN SCT006 OVC012 M04/M05 Q1021 R08/19//95 TEMPO 1000 VV010,LOWI,2021-01-17T18:50:00Z,47.27,11.33,-4.0,-5.0,0,1,,1.12,30.147638,,,,,,,,,,SN,SCT,600,OVC,1200,,,,,IFR,,,,,,,,,,,,METAR,570.0
LOWG 171850Z 16002KT 8000 -SN FEW005 BKN025 M03/M05 Q1019 R17/19//95 NOSIG,LOWG,2021-01-17T18:50:00Z,47.0,15.43,-3.0,-5.0,160,2,,4.97,30.088583,,,,,,TRUE,,,,-SN,FEW,500,BKN,2500,,,,,MVFR,,,,,,,,,,,,METAR,337.0
LLHA 171850Z 24014G25KT 9999 FEW020 15/09 Q1011 RMK BKN060,LLHA,2021-01-17T18:50:00Z,32.8,35.03,15.0,9.0,240,14,25,6.21,29.852362,,,,,,,,,,,FEW,2000,,,,,,,VFR,,,,,,,,,,,,METAR,3.0
LLBG 171850Z 23011KT 9999 -RA SCT030 SCT050 13/10 Q1013 RERA TEMPO 7000 RA FEW025TCU BKN030,LLBG,2021-01-17T18:50:00Z,32.0,34.88,13.0,10.0,230,11,,6.21,29.911417,,,,,,,,,,-RA,SCT,3000,SCT,5000,,,,,VFR,,,,,,,,,,,,METAR,35.0
LIRZ 171850Z AUTO 02008KT //// // FEW046 02/01 Q1015,LIRZ,2021-01-17T18:50:00Z,43.1,12.5,2.0,1.0,20,8,,,29.970472,,,TRUE,,,,,,,,FEW,4600,,,,,,,,,,,,,,,,,,,METAR,206.0
LIRQ 171850Z VRB02KT 9999 FEW070 04/01 Q1016,LIRQ,2021-01-17T18:50:00Z,43.8,11.2,4.0,1.0,0,2,,6.21,30.0,,,,,,,,,,,FEW,7000,,,,,,,VFR,,,,,,,,,,,,METAR,33.0
LIRN 171850Z 04005KT 8000 FEW030 BKN060 05/02 Q1012 NOSIG,LIRN,2021-01-17T18:50:00Z,40.88,14.3,5.0,2.0,40,5,,4.97,29.88189,,,,,,TRUE,,,,,FEW,3000,BKN,6000,,,,,MVFR,,,,,,,,,,,,METAR,76.0
LIRF 171850Z 01003KT CAVOK 01/01 Q1013 NOSIG,LIRF,2021-01-17T18:50:00Z,41.78,12.23,1.0,1.0,10,3,,6.21,29.911417,,,,,,TRUE,,,,,CAVOK,,,,,,,,VFR,,,,,,,,,,,,METAR,2.0
LIRA 171850Z 08005KT CAVOK 03/00 Q1013,LIRA,2021-01-17T18:50:00Z,41.8,12.58,3.0,0.0,80,5,,6.21,29.911417,,,,,,,,,,,CAVOK,,,,,,,,VFR,,,,,,,,,,,,METAR,101.0
LIPZ 171850Z 36004KT CAVOK 02/M04 Q1018 NOSIG,LIPZ,2021-01-17T18:50:00Z,45.5,12.35,2.0,-4.0,360,4,,6.21,30.059055,,,,,,TRUE,,,,,CAVOK,,,,,,,,VFR,,,,,,,,,,,,METAR,3.0
LIPY 171850Z AUTO 23003KT 180V280 9999 SCT017/// BKN049/// 04/04 Q1017,LIPY,2021-01-17T18:50:00Z,43.62,13.37,4.0,4.0,230,3,,6.21,30.029528,,,TRUE,,,,,,,,SCT,1700,BKN,4900,,,,,VFR,,,,,,,,,,,,METAR,11.0
LIPX 171850Z 32003KT CAVOK M01/M05 Q1018,LIPX,2021-01-17T18:50:00Z,45.38,10.87,-1.0,-5.0,320,3,,6.21,30.059055,,,,,,,,,,,CAVOK,,,,,,,,VFR,,,,,,,,,,,,METAR,67.0
LIPR 171850Z 29005KT 9999 BKN050 02/01 Q1017,LIPR,2021-01-17T18:50:00Z,44.02,12.62,2.0,1.0,290,5,,6.21,30.029528,,,,,,,,,,,BKN,5000,,,,,,,VFR,,,,,,,,,,,,METAR,10.0
LIPQ 171850Z AUTO 06004KT 020V090 9999 NCD 02/M05 Q1018,LIPQ,2021-01-17T18:50:00Z,45.82,13.47,2.0,-5.0,60,4,,6.21,30.059055,,,TRUE,,,,,,,,CLR,,,,,,,,VFR,,,,,,,,,,,,METAR,6.0
LIPO 171850Z AUTO 32001KT 8000 BKN160/// 00/M02 Q1018,LIPO,2021-01-17T18:50:00Z,45.42,10.33,0.0,-2.0,320,1,,4.97,30.059055,,,TRUE,,,,,,,,BKN,16000,,,,,,,MVFR,,,,,,,,,,,,METAR,104.0
LIPH 171850Z AUTO VRB02KT 9999 BKN220/// 01/M04 Q1018,LIPH,2021-01-17T18:50:00Z,45.63,12.18,1.0,-4.0,0,2,,6.21,30.059055,,,TRUE,,,,,,,,BKN,22000,,,,,,,VFR,,,,,,,,,,,,METAR,10.0
LIPE 171850Z 28002KT 8000 SCT044 02/00 Q1018,LIPE,2021-01-17T18:50:00Z,44.52,11.3,2.0,0.0,280,2,,4.97,30.059055,,,,,,,,,,,SCT,4400,,,,,,,MVFR,,,,,,,,,,,,METAR,37.0
LIPB 171850Z VRB02KT 9999 FEW085 SCT100 M01/M06 Q1017 RMK MON INVIS,LIPB,2021-01-17T18:50:00Z,46.47,11.32,-1.0,-6.0,0,2,,6.21,30.029528,,,,,,,,,,,FEW,8500,SCT,10000,,,,,VFR,,,,,,,,,,,,METAR,239.0
LIMZ 171850Z AUTO VRB02KT 6000 NCD M01/M02 Q1016,LIMZ,2021-01-17T18:50:00Z,44.53,7.62,-1.0,-2.0,0,2,,3.73,30.0,,,TRUE,,,,,,,,CLR,,,,,,,,MVFR,,,,,,,,,,,,METAR,377.0
LIMP 171850Z 09002KT 3000 BR SCT060 03/01 Q1018,LIMP,2021-01-17T18:50:00Z,44.82,10.3,3.0,1.0,90,2,,1.86,30.059055,,,,,,,,,,BR,SCT,6000,,,,,,,IFR,,,,,,,,,,,,METAR,41.0
LIML 171850Z 08002KT 7000 NSC 01/M01 Q1018 NOSIG,LIML,2021-01-17T18:50:00Z,45.47,9.27,1.0,-1.0,80,2,,4.35,30.059055,,,,,,TRUE,,,,,CLR,,,,,,,,MVFR,,,,,,,,,,,,METAR,109.0
LIMJ 171850Z 04015KT 9000 NSC 06/01 Q1015,LIMJ,2021-01-17T18:50:00Z,44.42,8.83,6.0,1.0,40,15,,5.59,29.970472,,,,,,,,,,,CLR,,,,,,,,VFR,,,,,,,,,,,,METAR,3.0
LIMG 171850Z 30005KT 9999 SCT035 04/04 Q1015,LIMG,2021-01-17T18:50:00Z,44.03,8.12,4.0,4.0,300,5,,6.21,29.970472,,,,,,,,,,,SCT,3500,,,,,,,VFR,,,,,,,,,,,,METAR,41.0
LIMF 171850Z 31003KT 280V360 5000 BR NSC M01/M03 Q1017,LIMF,2021-01-17T18:50:00Z,45.22,7.65,-1.0,-3.0,310,3,,3.11,30.029528,,,,,,,,,,BR,CLR,,,,,,,,MVFR,,,,,,,,,,,,METAR,295.0
LIME 171850Z 04003KT 8000 NSC M01/M02 Q1017 NOSIG,LIME,2021-01-17T18:50:00Z,45.67,9.7,-1.0,-2.0,40,3,,4.97,30.029528,,,,,,TRUE,,,,,CLR,,,,,,,,MVFR,,,,,,,,,,,,METAR,239.0
LIMC 171850Z 15001KT 8000 NSC 01/M00 Q1017 NOSIG,LIMC,2021-01-17T18:50:00Z,45.62,8.72,1.0,0.0,150,1,,4.97,30.029528,,,,,,TRUE,,,,,CLR,,,,,,,,MVFR,,,,,,,,,,,,METAR,221.0
LIEO 171850Z 27014KT 250V310 9999 SCT040 12/04 Q1013,LIEO,2021-01-17T18:50:00Z,40.88,9.52,12.0,4.0,270,14,,6.21,29.911417,,,,,,,,,,,SCT,4000,,,,,,,VFR,,,,,,,,,,,,METAR,8.0
LIEE 171850Z 34019G30KT 9999 SCT035 14/07 Q1014,LIEE,2021-01-17T18:50:00Z,39.25,9.07,14.0,7.0,340,19,30,6.21,29.940945,,,,,,,,,,,SCT,3500,,,,,,,VFR,,,,,,,,,,,,METAR,1.0
LIEA 171850Z 31012G22KT 270V360 9999 FEW025 13/04 Q1016,LIEA,2021-01-17T18:50:00Z,40.62,8.28,13.0,4.0,310,12,22,6.21,30.0,,,,,,,,,,,FEW,2500,,,,,,,VFR,,,,,,,,,,,,METAR,22.0
LICR 171850Z AUTO 13007G19KT 060V190 9000 RA OVC038/// 09/07 Q1011 RESN,LICR,2021-01-17T18:50:00Z,38.07,15.65,9.0,7.0,130,7,19,5.59,29.852362,,,TRUE,,,,,,,RA,OVC,3800,,,,,,,VFR,,,,,,,,,,,,METAR,16.0
LICJ 171850Z AUTO 27023KT 8000 3200W FEW021 SCT055 BKN087 15/11 Q1013,LICJ,2021-01-17T18:50:00Z,38.17,13.08,15.0,11.0,270,23,,4.97,29.911417,,,TRUE,,,,,,,,FEW,2100,SCT,5500,BKN,8700,,,MVFR,,,,,,,,,,,,METAR,20.0
LICG 171850Z 24026G37KT 9999 SCT018 SCT026 13/09 Q1018,LICG,2021-01-17T18:50:00Z,36.82,11.97,13.0,9.0,240,26,37,6.21,30.059055,,,,,,,,,,,SCT,1800,SCT,2600,,,,,VFR,,,,,,,,,,,,METAR,192.0
LICD 171850Z AUTO 28012KT 250V310 9999 FEW035/// BKN047/// 15/10 Q1020,LICD,2021-01-17T18:50:00Z,35.5,12.62,15.0,10.0,280,12,,6.21,30.11811,,,TRUE,,,,,,,,FEW,3500,BKN,4700,,,,,VFR,,,,,,,,,,,,METAR,20.0
LICC 171850Z 26009KT 9999 SCT050 09/06 Q1012,LICC,2021-01-17T18:50:00Z,37.47,15.05,9.0,6.0,260,9,,6.21,29.88189,,,,,,,,,,,SCT,5000,,,,,,,VFR,,,,,,,,,,,,METAR,6.0
LICB 171850Z AUTO 27008KT 240V300 9999 BKN021/// 11/10 Q1014,LICB,2021-01-17T18:50:00Z,37.0,14.62,11.0,10.0,270,8,,6.21,29.940945,,,TRUE,,,,,,,,BKN,2100,,,,,,,MVFR,,,,,,,,,,,,METAR,212.0
LICA 171850Z AUTO 05008KT 9999 RA OVC029 06/06 Q1011 REDZ,LICA,2021-01-17T18:50:00Z,38.9,16.25,6.0,6.0,50,8,,6.21,29.852362,,,TRUE,,,,,,,RA,OVC,2900,,,,,,,MVFR,,,,,,,,,,,,METAR,7.0
LIBR 171850Z 18006KT 150V210 9999 SCT040 04/M01 Q1015,LIBR,2021-01-17T18:50:00Z,40.65,17.95,4.0,-1.0,180,6,,6.21,29.970472,,,,,,,,,,,SCT,4000,,,,,,,VFR,,,,,,,,,,,,METAR,5.0
LIBP 171850Z AUTO 25002KT 9999 BKN041/// 05/M01 Q1016,LIBP,2021-01-17T18:50:00Z,42.42,14.18,5.0,-1.0,250,2,,6.21,30.0,,,TRUE,,,,,,,,BKN,4100,,,,,,,VFR,,,,,,,,,,,,METAR,10.0
LIBG 171850Z /////KT 9999 FEW045 04/00 Q1015,LIBG,2021-01-17T18:50:00Z,40.52,17.4,4.0,0.0,,,,6.21,29.970472,,,,,,,,,,,FEW,4500,,,,,,,VFR,,,,,,,,,,,,METAR,64.0
LIBD 171850Z 17002KT 9999 FEW040 05/00 Q1014,LIBD,2021-01-17T18:50:00Z,41.13,16.77,5.0,0.0,170,2,,6.21,29.940945,,,,,,,,,,,FEW,4000,,,,,,,VFR,,,,,,,,,,,,METAR,42.0
LIBC 171850Z 36003KT 9999 SCT040 SCT050 06/05 Q1012,LIBC,2021-01-17T18:50:00Z,39.0,17.07,6.0,5.0,360,3,,6.21,29.88189,,,,,,,,,,,SCT,4000,SCT,5000,,,,,VFR,,,,,,,,,,,,METAR,158.0
LGTS 171850Z 36006KT CAVOK 00/M07 Q1017 NOSIG,LGTS,2021-01-17T18:50:00Z,40.52,22.97,0.0,-7.0,360,6,,6.21,30.029528,,,,,,TRUE,,,,,CAVOK,,,,,,,,VFR,,,,,,,,,,,,METAR,4.0
LGSO 171850Z AUTO 30009KT 280V350 //// // ////// 06/M03 Q1016 RE//,LGSO,2021-01-17T18:50:00Z,37.42,24.95,6.0,-3.0,300,9,,,30.0,,,TRUE,,,,,,,,,,,,,,,,,,,,,,,,,,,,METAR,71.0
LGSM 171850Z 35006KT 9999 SCT020 06/04 Q1013,LGSM,2021-01-17T18:50:00Z,37.68,26.92,6.0,4.0,350,6,,6.21,29.911417,,,,,,,,,,,SCT,2000,,,,,,,VFR,,,,,,,,,,,,METAR,5.0
LGSA 171850Z 00000KT 9999 FEW020 SCT025 06/04 Q1014,LGSA,2021-01-17T18:50:00Z,35.53,24.13,6.0,4.0,0,0,,6.21,29.940945,,,,,,,,,,,FEW,2000,SCT,2500,,,,,VFR,,,,,,,,,,,,METAR,122.0
LGRX 171850Z 00000KT 9999 FEW025 04/01 Q1016 RMK FEW070 FEW180 BLU,LGRX,2021-01-17T18:50:00Z,38.17,21.42,4.0,1.0,0,0,,6.21,30.0,,,,,,,,,,,FEW,2500,,,,,,,VFR,,,,,,,,,,,,METAR,16.0
LGRP 171850Z 28013KT 9999 FEW018 BKN025 09/05 Q1012 NOSIG,LGRP,2021-01-17T18:50:00Z,36.4,28.08,9.0,5.0,280,13,,6.21,29.88189,,,,,,TRUE,,,,,FEW,1800,BKN,2500,,,,,MVFR,,,,,,,,,,,,METAR,3.0
LGPZ 171850Z 00000KT 9999 SCT025 04/M02 Q1016 RMK SCT100 BKN200 BLU,LGPZ,2021-01-17T18:50:00Z,38.92,20.77,4.0,-2.0,0,0,,6.21,30.0,,,,,,,,,,,SCT,2500,,,,,,,VFR,,,,,,,,,,,,METAR,3.0
LGPA 171850Z AUTO 35012KT //// // ////// 06/M04 Q1015 RE//,LGPA,2021-01-17T18:50:00Z,37.02,25.1,6.0,-4.0,350,12,,,29.970472,,,TRUE,,,,,,,,,,,,,,,,,,,,,,,,,,,,METAR,42.0
LGMT 171850Z 28004KT 9999 FEW016 BKN025 03/02 Q1015,LGMT,2021-01-17T18:50:00Z,39.05,26.6,3.0,2.0,280,4,,6.21,29.970472,,,,,,,,,,,FEW,1600,BKN,2500,,,,,MVFR,,,,,,,,,,,,METAR,4.0
LGLM 171850Z 00000KT 8000 -SN BKN006 OVC016 00/M02 Q1016,LGLM,2021-01-17T18:50:00Z,39.92,25.23,0.0,-2.0,0,0,,4.97,30.0,,,,,,,,,,-SN,BKN,600,OVC,1600,,,,,IFR,,,,,,,,,,,,METAR,4.0
LGKZ 171850Z AUTO 34004KT //// // ////// M07/M13 Q1014 RE//,LGKZ,2021-01-17T18:50:00Z,40.28,21.83,-7.0,-13.0,340,4,,,29.940945,,,TRUE,,,,,,,,,,,,,,,,,,,,,,,,,,,,METAR,615.0
LGKR 171850Z 00000KT 9999 FEW030 BKN070 05/M04 Q1015 NOSIG,LGKR,2021-01-17T18:50:00Z,39.62,19.92,5.0,-4.0,0,0,,6.21,29.970472,,,,,,TRUE,,,,,FEW,3000,BKN,7000,,,,,VFR,,,,,,,,,,,,METAR,2.0
LGKO 171850Z 30012KT 9999 -RA FEW016 BKN020 05/03 Q1012,LGKO,2021-01-17T18:50:00Z,36.8,27.08,5.0,3.0,300,12,,6.21,29.88189,,,,,,,,,,-RA,FEW,1600,BKN,2000,,,,,MVFR,,,,,,,,,,,,METAR,130.0
LGKL 171850Z AUTO VRB01KT //// // ////// 03/M00 Q1016 RE//,LGKL,2021-01-17T18:50:00Z,37.07,22.02,3.0,0.0,0,1,,,30.0,,,TRUE,,,,,,,,,,,,,,,,,,,,,,,,,,,,METAR,4.0
LGIR 171850Z 16007KT 9999 FEW018 SCT025 07/04 Q1015 NOSIG,LGIR,2021-01-17T18:50:00Z,35.33,25.17,7.0,4.0,160,7,,6.21,29.970472,,,,,,TRUE,,,,,FEW,1800,SCT,2500,,,,,VFR,,,,,,,,,,,,METAR,37.0
LGIO 171850Z AUTO VRB01KT //// // ////// M01/M06 Q1014 RE//,LGIO,2021-01-17T18:50:00Z,39.7,20.82,-1.0,-6.0,0,1,,,29.940945,,,TRUE,,,,,,,,,,,,,,,,,,,,,,,,,,,,METAR,476.0
LGHI 171850Z 32005KT 9999 FEW020 SCT030 03/02 Q1014,LGHI,2021-01-17T18:50:00Z,38.33,26.13,3.0,2.0,320,5,,6.21,29.940945,,,,,,,,,,,FEW,2000,SCT,3000,,,,,VFR,,,,,,,,,,,,METAR,6.0
LGEL 171850Z 00000KT 9999 FEW030 01/M07 Q1016,LGEL,2021-01-17T18:50:00Z,38.07,23.55,1.0,-7.0,0,0,,6.21,30.0,,,,,,,,,,,FEW,3000,,,,,,,VFR,,,,,,,,,,,,METAR,21.0
LGBL 171850Z 25004KT 9999 FEW030 BKN080 M00/M04 Q1017,LGBL,2021-01-17T18:50:00Z,39.22,22.8,0.0,-4.0,250,4,,6.21,30.029528,,,,,,,,,,,FEW,3000,BKN,8000,,,,,VFR,,,,,,,,,,,,METAR,13.0
LGAV 171850Z VRB01KT 9999 FEW025 01/M08 Q1016 NOSIG,LGAV,2021-01-17T18:50:00Z,37.93,23.95,1.0,-8.0,0,1,,6.21,30.0,,,,,,TRUE,,,,,FEW,2500,,,,,,,VFR,,,,,,,,,,,,METAR,83.0
LGAL 171850Z 05003KT 9999 FEW025 M02/M05 Q1018,LGAL,2021-01-17T18:50:00Z,40.85,25.95,-2.0,-5.0,50,3,,6.21,30.059055,,,,,,,,,,,FEW,2500,,,,,,,VFR,,,,,,,,,,,,METAR,5.0
LGAD 171850Z 07004KT 9999 SCT025 04/M00 Q1016,LGAD,2021-01-17T18:50:00Z,37.92,21.28,4.0,0.0,70,4,,6.21,30.0,,,,,,,,,,,SCT,2500,,,,,,,VFR,,,,,,,,,,,,METAR,8.0
LCRA 171850Z 28020G31KT 9999 FEW030 BKN045 13/05 Q1009 NOSIG,LCRA,2021-01-17T18:50:00Z,34.58,32.98,13.0,5.0,280,20,31,6.21,29.793306,,,,,,TRUE,,,,,FEW,3000,BKN,4500,,,,,VFR,,,,,,,,,,,,METAR,23.0
LCEN 171850Z 26013KT 9999 FEW020 SCT025 10/03 Q1007 NOSIG RMK RWY11 28013KT,LCEN,2021-01-17T18:50:00Z,35.15,33.5,10.0,3.0,260,13,,6.21,29.734253,,,,,,TRUE,,,,,FEW,2000,SCT,2500,,,,,VFR,,,,,,,,,,,,METAR,91.0
LATI 171850Z VRB02KT 8000 SCT070 BKN098 M01/M06 Q1016 NOSIG,LATI,2021-01-17T18:50:00Z,41.42,19.72,-1.0,-6.0,0,2,,4.97,30.0,,,,,,TRUE,,,,,SCT,7000,BKN,9800,,,,,MVFR,,,,,,,,,,,,METAR,32.0
KWHP 171850Z 11003KT 10SM SKC 25/M05 A3008,KWHP,2021-01-17T18:50:00Z,34.25,-118.42,25.0,-5.0,110,3,,10.0,30.079725,,,,,,,,,,,SKC,,,,,,,,VFR,,,,,,,,,,,,METAR,302.0
KWBF 171850Z AUTO 00000KT 10SM CLR 18/06 A3008 RMK A01,KWBF,2021-01-17T18:50:00Z,26.93,-90.5,18.0,6.0,0,0,,10.0,30.079725,,,TRUE,TRUE,,,,,,,CLR,,,,,,,,VFR,,,,,,,,,,,,METAR,40.0
KVQQ 171850Z 24009KT 10SM CLR 15/00 A3001,KVQQ,2021-01-17T18:50:00Z,30.22,-81.88,15.0,0.0,240,9,,10.0,30.008858,,,,,,,,,,,CLR,,,,,,,,VFR,,,,,,,,,,,,METAR,21.0
KVOA 171850Z AUTO 29013KT 10SM 13/02 A3005 RMK A01,KVOA,2021-01-17T18:50:00Z,29.23,-87.78,13.0,2.0,290,13,,10.0,30.050198,,,TRUE,TRUE,,,,,,,,,,,,,,,,,,,,,,,,,,,METAR,53.0
KVAF 171850Z AUTO 04007KT 10SM CLR 20/01 A3009 RMK A01,KVAF,2021-01-17T18:50:00Z,27.35,-94.63,20.0,1.0,40,7,,10.0,30.088583,,,TRUE,TRUE,,,,,,,CLR,,,,,,,,VFR,,,,,,,,,,,,METAR,38.0
KU55 171850Z AUTO 00000KT 10SM CLR 01/M09 A3031 RMK A01,KU55,2021-01-17T18:50:00Z,37.85,-112.38,1.0,-9.0,0,0,,10.0,30.31004,,,TRUE,TRUE,,,,,,,CLR,,,,,,,,VFR,,,,,,,,,,,,METAR,2060.0
KTRK 171850Z 00000KT 10SM SKC 04/00 A3039,KTRK,2021-01-17T18:50:00Z,39.32,-120.13,4.0,0.0,0,0,,10.0,30.389763,,,,,,,,,,,SKC,,,,,,,,VFR,,,,,,,,,,,,METAR,1800.0
KTIX 171850Z VRB03KT 7SM SCT050 17/07 A3002,KTIX,2021-01-17T18:50:00Z,28.5,-80.8,17.0,7.0,0,3,,7.0,30.02067,,,,,,,,,,,SCT,5000,,,,,,,VFR,,,,,,,,,,,,METAR,10.0
KRYY 171850Z 27011KT 10SM SCT048 09/M03 A2989 RMK AO2 SLP847 T00941028 $,KRYY,2021-01-17T18:50:00Z,34.02,-84.6,9.4,-2.8,270,11,,10.0,29.890747,984.7,,,TRUE,TRUE,,,,,,SCT,4800,,,,,,,VFR,,,,,,,,,,,,METAR,306.0
KRPH 171850Z AUTO 30009KT 10SM CLR 13/M02 A3013 RMK AO2 T01331019,KRPH,2021-01-17T18:50:00Z,33.12,-98.55,13.3,-1.9,300,9,,10.0,30.129921,,,TRUE,TRUE,,,,,,,CLR,,,,,,,,VFR,,,,,,,,,,,,METAR,341.0
KPNA 171850Z AUTO 31013KT 10SM CLR 01/M07 A3011 RMK AO2,KPNA,2021-01-17T18:50:00Z,42.8,-109.8,1.0,-7.0,310,13,,10.0,30.109253,,,TRUE,TRUE,,,,,,,CLR,,,,,,,,VFR,,,,,,,,,,,,METAR,2158.0
KORK 171850Z AUTO 29011G17KT 10SM CLR 09/M07 A2995 RMK AO2,KORK,2021-01-17T18:50:00Z,34.83,-92.25,9.0,-7.0,290,11,17,10.0,29.949802,,,TRUE,TRUE,,,,,,,CLR,,,,,,,,VFR,,,,,,,,,,,,METAR,166.0
KOQU 171850Z 29021G31KT 10SM BKN050 07/M05 A2949,KOQU,2021-01-17T18:50:00Z,41.6,-71.42,7.0,-5.0,290,21,31,10.0,29.489174,,,,,,,,,,,BKN,5000,,,,,,,VFR,,,,,,,,,,,,METAR,6.0
KOMN 171850Z 26006KT 10SM BKN042 14/04 A3002,KOMN,2021-01-17T18:50:00Z,29.3,-81.12,14.0,4.0,260,6,,10.0,30.02067,,,,,,,,,,,BKN,4200,,,,,,,VFR,,,,,,,,,,,,METAR,7.0
KOLV 171850Z 29015KT 10SM SCT200 10/M06 A2990,KOLV,2021-01-17T18:50:00Z,34.98,-89.78,10.0,-6.0,290,15,,10.0,29.899607,,,,,,,,,,,SCT,20000,,,,,,,VFR,,,,,,,,,,,,METAR,124.0
KO32 171850Z AUTO 29004KT 7SM CLR 17/12 A3017 RMK AO2,KO32,2021-01-17T18:50:00Z,36.67,-119.45,17.0,12.0,290,4,,7.0,30.171259,,,TRUE,TRUE,,,,,,,CLR,,,,,,,,VFR,,,,,,,,,,,,METAR,117.0
KNQA 171850Z 29014G20KT 10SM CLR 10/M05 A2990,KNQA,2021-01-17T18:50:00Z,35.35,-89.87,10.0,-5.0,290,14,20,10.0,29.899607,,,,,,,,,,,CLR,,,,,,,,VFR,,,,,,,,,,,,METAR,90.0
KMHP 171850Z AUTO 24006G15KT 10SM CLR 12/M02 A2996 RMK AO2 T01181018,KMHP,2021-01-17T18:50:00Z,32.37,-82.08,11.8,-1.8,240,6,15,10.0,29.958662,,,TRUE,TRUE,,,,,,,CLR,,,,,,,,VFR,,,,,,,,,,,,METAR,60.0
KMGR 171850Z AUTO 29007KT 247V317 10SM CLR 11/M01 A3001 RMK AO2,KMGR,2021-01-17T18:50:00Z,31.08,-83.8,11.0,-1.0,290,7,,10.0,30.008858,,,TRUE,TRUE,,,,,,,CLR,,,,,,,,VFR,,,,,,,,,,,,METAR,86.0
KLCQ 171850Z AUTO 28014G19KT 10SM CLR 13/01 A3001 RMK AO2,KLCQ,2021-01-17T18:50:00Z,30.18,-82.58,13.0,1.0,280,14,19,10.0,30.008858,,,TRUE,TRUE,,,,,,,CLR,,,,,,,,VFR,,,,,,,,,,,,METAR,59.0
KHXD 171850Z 29008KT 10SM CLR 12/M02 A2998,KHXD,2021-01-17T18:50:00Z,32.22,-80.7,12.0,-2.0,290,8,,10.0,29.97933,,,,,,,,,,,CLR,,,,,,,,VFR,,,,,,,,,,,,METAR,5.0
KHSA 171850Z 25007KT 10SM CLR 15/01 A3004,KHSA,2021-01-17T18:50:00Z,30.37,-89.45,15.0,1.0,250,7,,10.0,30.041338,,,,,,,,,,,CLR,,,,,,,,VFR,,,,,,,,,,,,METAR,6.0
KHQZ 171850Z 35008KT 10SM BKN090 13/M04 A3013,KHQZ,2021-01-17T18:50:00Z,32.75,-96.53,13.0,-4.0,350,8,,10.0,30.129921,,,,,,,,,,,BKN,9000,,,,,,,VFR,,,,,,,,,,,,METAR,136.0
KHOE 171850Z AUTO 22008KT 10SM CLR 12/M01 A3001 RMK AO2,KHOE,2021-01-17T18:50:00Z,31.05,-82.78,12.0,-1.0,220,8,,10.0,30.008858,,,TRUE,TRUE,,,,,,,CLR,,,,,,,,VFR,,,,,,,,,,,,METAR,56.0
KHOB 171850Z VRB04KT 10SM SKC 10/M05 A3013,KHOB,2021-01-17T18:50:00Z,32.67,-103.22,10.0,-5.0,0,4,,10.0,30.129921,,,,,,,,,,,SKC,,,,,,,,VFR,,,,,,,,,,,,METAR,1112.0
KGRY 171850Z AUTO VRB05G13KT 10SM CLR 15/03 A3009 RMK A01,KGRY,2021-01-17T18:50:00Z,27.63,-90.45,15.0,3.0,0,5,13,10.0,30.088583,,,TRUE,TRUE,,,,,,,CLR,,,,,,,,VFR,,,,,,,,,,,,METAR,58.0
KGPM 171850Z 32008KT 10SM SKC 14/M05 A3014,KGPM,2021-01-17T18:50:00Z,32.7,-97.05,14.0,-5.0,320,8,,10.0,30.138779,,,,,,,,,,,SKC,,,,,,,,VFR,,,,,,,,,,,,METAR,178.0
KGHB 171850Z AUTO 34008KT 300V010 10SM CLR 16/03 A3010 RMK A01,KGHB,2021-01-17T18:50:00Z,27.83,-91.98,16.0,3.0,340,8,,10.0,30.100393,,,TRUE,TRUE,,,,,,,CLR,,,,,,,,VFR,,,,,,,,,,,,METAR,30.0
KFIN 171850Z 28008G15KT 10SM OVC039 13/02 A3002,KFIN,2021-01-17T18:50:00Z,29.47,-81.2,13.0,2.0,280,8,15,10.0,30.02067,,,,,,,,,,,OVC,3900,,,,,,,VFR,,,,,,,,,,,,METAR,10.0
KEZM 171850Z AUTO 25004KT 10SM CLR 12/M02 A2999 RMK AO2 T01161024,KEZM,2021-01-17T18:50:00Z,32.22,-83.13,11.6,-2.4,250,4,,10.0,29.991142,,,TRUE,TRUE,,,,,,,CLR,,,,,,,,VFR,,,,,,,,,,,,METAR,86.0
KESN 171850Z 23012G18KT 10SM BKN046 09/M02 A2980,KESN,2021-01-17T18:50:00Z,38.8,-76.07,9.0,-2.0,230,12,18,10.0,29.799213,,,,,,,,,,,BKN,4600,,,,,,,VFR,,,,,,,,,,,,METAR,14.0
KEFD 171850Z 28011KT 9SM CLR 19/M05 A3009,KEFD,2021-01-17T18:50:00Z,29.6,-95.17,19.0,-5.0,280,11,,9.0,30.088583,,,,,,,,,,,CLR,,,,,,,,VFR,,,,,,,,,,,,METAR,9.0
KDAG 171850Z AUTO 31004KT 10SM CLR 18/M05 A3019 RMK AO2 SLP215 T01781050,KDAG,2021-01-17T18:50:00Z,34.85,-116.78,17.8,-5.0,310,4,,10.0,30.188976,1021.5,,TRUE,TRUE,,,,,,,CLR,,,,,,,,VFR,,,,,,,,,,,,METAR,584.0
KBOW 171850Z VRB04KT 10SM BKN050 15/08 A3004,KBOW,2021-01-17T18:50:00Z,27.93,-81.77,15.0,8.0,0,4,,10.0,30.041338,,,,,,,,,,,BKN,5000,,,,,,,VFR,,,,,,,,,,,,METAR,38.0
KBAK 171850Z 24011KT 3SM SN SCT009 BKN013 OVC034 00/M01 A2974,KBAK,2021-01-17T18:50:00Z,39.27,-85.9,0.0,-1.0,240,11,,3.0,29.740158,,,,,,,,,,SN,SCT,900,BKN,1300,OVC,3400,,,MVFR,,,,,,,,,,,,METAR,199.0
KAZE 171850Z AUTO 28005G08KT 10SM CLR 12/M02 A2997 RMK AO2 T01241022,KAZE,2021-01-17T18:50:00Z,31.88,-82.65,12.4,-2.2,280,5,8,10.0,29.970472,,,TRUE,TRUE,,,,,,,CLR,,,,,,,,VFR,,,,,,,,,,,,METAR,78.0
KALN 171850Z 28010KT 10SM BKN023 BKN029 01/M02 A2980,KALN,2021-01-17T18:50:00Z,38.88,-90.03,1.0,-2.0,280,10,,10.0,29.799213,,,,,,,,,,,BKN,2300,BKN,2900,,,,,MVFR,,,,,,,,,,,,METAR,159.0
KAFO 171850Z AUTO 00000KT 10SM OVC031 00/M12 A3022 RMK AO2,KAFO,2021-01-17T18:50:00Z,42.72,-110.95,0.0,-12.0,0,0,,10.0,30.221457,,,TRUE,TRUE,,,,,,,OVC,3100,,,,,,,VFR,,,,,,,,,,,,METAR,1881.0
KADM 171850Z 31010KT 10SM CLR 11/M04 A3010,KADM,2021-01-17T18:50:00Z,34.3,-97.02,11.0,-4.0,310,10,,10.0,30.100393,,,,,,,,,,,CLR,,,,,,,,VFR,,,,,,,,,,,,METAR,223.0
KACJ 171850Z AUTO 24010G16KT 10SM CLR 13/M02 A2998 RMK AO2,KACJ,2021-01-17T18:50:00Z,32.12,-84.18,13.0,-2.0,240,10,16,10.0,29.97933,,,TRUE,TRUE,,,,,,,CLR,,,,,,,,VFR,,,,,,,,,,,,METAR,140.0
K65S 171850Z AUTO 26004KT 10SM OVC006 01/00 A3018 RMK AO2 P0004,K65S,2021-01-17T18:50:00Z,48.73,-116.3,1.0,0.0,260,4,,10.0,30.180119,,,TRUE,TRUE,,,,,,,OVC,600,,,,,,,IFR,,,,,,0.04,,,,,,METAR,708.0
K2J5 171850Z AUTO 27011G14KT 10SM CLR 11/M02 A2995 RMK AO2 T01141020,K2J5,2021-01-17T18:50:00Z,32.9,-81.97,11.4,-2.0,270,11,14,10.0,29.949802,,,TRUE,TRUE,,,,,,,CLR,,,,,,,,VFR,,,,,,,,,,,,METAR,72.0
EYVI 171850Z 35004KT 8000 SCT003 M20/M22 Q1019 R01/0///95 NOSIG,EYVI,2021-01-17T18:50:00Z,54.63,25.28,-20.0,-22.0,350,4,,4.97,30.088583,,,,,,TRUE,,,,,SCT,300,,,,,,,MVFR,,,,,,,,,,,,METAR,180.0
EYSA 171850Z 18001KT 2600 BR NSC M23/M25 Q1021 R14L/29//95 R14R/29//95 YLO NOSIG,EYSA,2021-01-17T18:50:00Z,55.9,23.4,-23.0,-25.0,180,1,,1.62,30.147638,,,,,,TRUE,,,,BR,CLR,,,,,,,,IFR,,,,,,,,,,,,METAR,135.0
EYPA 171850Z AUTO 12005KT 0700 R19/1100VP2000U -SN BKN002/// M14/M16 Q1023,EYPA,2021-01-17T18:50:00Z,55.97,21.08,-14.0,-16.0,120,5,,0.43,30.206694,,,TRUE,,,,,,,-SN,BKN,200,,,,,,,LIFR,,,,,,,,,,,,METAR,15.0
EYKA 171850Z 32001KT 2200 FU NSC M21/M24 Q1022 R08/410095,EYKA,2021-01-17T18:50:00Z,54.97,24.08,-21.0,-24.0,320,1,,1.37,30.177166,,,,,,,,,,FU,CLR,,,,,,,,IFR,,,,,,,,,,,,METAR,68.0
EVVA 171850Z AUTO VRB02KT 9999 OVC004 M11/M12 Q1021,EVVA,2021-01-17T18:50:00Z,57.35,21.55,-11.0,-12.0,0,2,,6.21,30.147638,,,TRUE,,,,,,,,OVC,400,,,,,,,LIFR,,,,,,,,,,,,METAR,1.0
EVRA 171850Z 18004KT CAVOK M17/M18 Q1021 R18/490395 NOSIG,EVRA,2021-01-17T18:50:00Z,56.92,23.97,-17.0,-18.0,180,4,,6.21,30.147638,,,,,,TRUE,,,,,CAVOK,,,,,,,,VFR,,,,,,,,,,,,METAR,7.0
EVLA 171850Z AUTO VRB01KT 9999 FEW016/// M12/M13 Q1022,EVLA,2021-01-17T18:50:00Z,56.52,21.1,-12.0,-13.0,0,1,,6.21,30.177166,,,TRUE,,,,,,,,FEW,1600,,,,,,,VFR,,,,,,,,,,,,METAR,5.0
ESUT 171850Z AUTO VRB01KT 9999 FEW003/// BKN004/// OVC006/// M24/M26 Q1009,ESUT,2021-01-17T18:50:00Z,65.8,15.08,-24.0,-26.0,0,1,,6.21,29.793306,,,TRUE,,,,,,,,FEW,300,BKN,400,OVC,600,,,LIFR,,,,,,,,,,,,METAR,457.0
ESUP 171850Z AUTO 20003KT 9999 BR NCD M17/M19 Q1009,ESUP,2021-01-17T18:50:00Z,67.25,23.07,-17.0,-19.0,200,3,,6.21,29.793306,,,TRUE,,,,,,,BR,CLR,,,,,,,,VFR,,,,,,,,,,,,METAR,164.0
ESTL 171850Z AUTO VRB02KT 0150 R29L/0450N FZFG BKN050/// M04/M04 Q1020,ESTL,2021-01-17T18:50:00Z,56.07,13.2,-4.0,-4.0,0,2,,0.09,30.11811,,,TRUE,,,,,,,FZFG,BKN,5000,,,,,,,LIFR,,,,,,,,,,,,METAR,39.0
ESTA 171850Z AUTO 12003KT 0100 R14/0450N R32/0375N FZFG VV000 M07/M07 Q1020,ESTA,2021-01-17T18:50:00Z,56.28,12.83,-7.0,-7.0,120,3,,0.06,30.11811,,,TRUE,,,,,,,FZFG,OVX,0,,,,,,,LIFR,,,,,,,,,,,0,METAR,19.0
ESSV 171850Z AUTO 25007KT 9999 BKN034/// OVC045/// M00/M08 Q1019,ESSV,2021-01-17T18:50:00Z,57.67,18.35,0.0,-8.0,250,7,,6.21,30.088583,,,TRUE,,,,,,,,BKN,3400,OVC,4500,,,,,VFR,,,,,,,,,,,,METAR,38.0
ESST 171850Z AUTO 00000KT 9999 OVC028/// M06/M07 Q1016,ESST,2021-01-17T18:50:00Z,60.15,12.98,-6.0,-7.0,0,0,,6.21,30.0,,,TRUE,,,,,,,,OVC,2800,,,,,,,MVFR,,,,,,,,,,,,METAR,110.0
ESSP 171850Z AUTO 23006KT 9999 FEW018/// OVC030/// M02/M04 Q1019,ESSP,2021-01-17T18:50:00Z,58.58,16.25,-2.0,-4.0,230,6,,6.21,30.088583,,,TRUE,,,,,,,,FEW,1800,OVC,3000,,,,,MVFR,,,,,,,,,,,,METAR,3.0
ESSL 171850Z AUTO 22005KT 200V260 9999 OVC034/// M02/M05 Q1019,ESSL,2021-01-17T18:50:00Z,58.4,15.67,-2.0,-5.0,220,5,,6.21,30.088583,,,TRUE,,,,,,,,OVC,3400,,,,,,,VFR,,,,,,,,,,,,METAR,51.0
ESSD 171850Z AUTO 22008KT 9999 BKN027/// M03/M06 Q1015,ESSD,2021-01-17T18:50:00Z,60.42,15.5,-3.0,-6.0,220,8,,6.21,29.970472,,,TRUE,,,,,,,,BKN,2700,,,,,,,MVFR,,,,,,,,,,,,METAR,151.0
ESSB 171850Z 21005KT 9999 BKN024 M02/M03 Q1018 R12/29//57,ESSB,2021-01-17T18:50:00Z,59.35,17.93,-2.0,-3.0,210,5,,6.21,30.059055,,,,,,,,,,,BKN,2400,,,,,,,MVFR,,,,,,,,,,,,METAR,14.0
ESSA 171850Z 23004KT 9999 BKN024 M03/M05 Q1017 R19L/510170 R08/510174 NOSIG,ESSA,2021-01-17T18:50:00Z,59.65,17.93,-3.0,-5.0,230,4,,6.21,30.029528,,,,,,TRUE,,,,,BKN,2400,,,,,,,MVFR,,,,,,,,,,,,METAR,36.0
ESPE 171850Z AUTO 00000KT 9999 NCD M23/M25 Q1011,ESPE,2021-01-17T18:50:00Z,65.88,20.15,-23.0,-25.0,0,0,,6.21,29.852362,,,TRUE,,,,,,,,CLR,,,,,,,,VFR,,,,,,,,,,,,METAR,182.0
ESPA 171850Z 00000KT CAVOK M17/M19 Q1012,ESPA,2021-01-17T18:50:00Z,65.53,22.12,-17.0,-19.0,0,0,,6.21,29.88189,,,,,,,,,,,CAVOK,,,,,,,,VFR,,,,,,,,,,,,METAR,12.0
ESOW 171850Z AUTO 22006KT 190V270 9999 OVC030/// M02/M04 Q1018,ESOW,2021-01-17T18:50:00Z,59.58,16.63,-2.0,-4.0,220,6,,6.21,30.059055,,,TRUE,,,,,,,,OVC,3000,,,,,,,MVFR,,,,,,,,,,,,METAR,7.0
ESOK 171850Z AUTO 21004KT 9999 OVC036/// M04/M04 Q1017,ESOK,2021-01-17T18:50:00Z,59.45,13.33,-4.0,-4.0,210,4,,6.21,30.029528,,,TRUE,,,,,,,,OVC,3600,,,,,,,VFR,,,,,,,,,,,,METAR,101.0
ESOH 171850Z AUTO VRB03KT 9999 OVC030/// M05/M05 Q1016,ESOH,2021-01-17T18:50:00Z,60.02,13.58,-5.0,-5.0,0,3,,6.21,30.0,,,TRUE,,,,,,,,OVC,3000,,,,,,,MVFR,,,,,,,,,,,,METAR,145.0
ESOE 171850Z AUTO 19008KT 9999 -FZDZ OVC023/// M02/M02 Q1018,ESOE,2021-01-17T18:50:00Z,59.22,15.05,-2.0,-2.0,190,8,,6.21,30.059055,,,TRUE,,,,,,,-FZDZ,OVC,2300,,,,,,,MVFR,,,,,,,,,,,,METAR,57.0
ESNZ 171850Z AUTO 00000KT 0250 R12/P1500N R30/0900N FZFG OVC001/// M18/M20 Q1009,ESNZ,2021-01-17T18:50:00Z,63.18,14.5,-18.0,-20.0,0,0,,0.16,29.793306,,,TRUE,,,,,,,FZFG,OVC,100,,,,,,,LIFR,,,,,,,,,,,,METAR,360.0
ESNV 171850Z AUTO 00000KT 8000 OVC003/// M18/M21 Q1010,ESNV,2021-01-17T18:50:00Z,64.58,16.83,-18.0,-21.0,0,0,,4.97,29.822834,,,TRUE,,,,,,,,OVC,300,,,,,,,LIFR,,,,,,,,,,,,METAR,348.0
ESNU 171850Z 31003KT 9999 OVC019 M10/M11 Q1012,ESNU,2021-01-17T18:50:00Z,63.78,20.28,-10.0,-11.0,310,3,,6.21,29.88189,,,,,,,,,,,OVC,1900,,,,,,,MVFR,,,,,,,,,,,,METAR,8.0
ESNS 171850Z VRB03KT 9999 BKN021 M16/M18 Q1012,ESNS,2021-01-17T18:50:00Z,64.62,21.07,-16.0,-18.0,0,3,,6.21,29.88189,,,,,,,,,,,BKN,2100,,,,,,,MVFR,,,,,,,,,,,,METAR,41.0
ESNQ 171850Z 22008KT CAVOK M15/M17 Q1007,ESNQ,2021-01-17T18:50:00Z,67.82,20.33,-15.0,-17.0,220,8,,6.21,29.734253,,,,,,,,,,,CAVOK,,,,,,,,VFR,,,,,,,,,,,,METAR,447.0
ESNO 171850Z AUTO 31005KT 9999 NCD M19/M20 Q1011,ESNO,2021-01-17T18:50:00Z,63.4,18.97,-19.0,-20.0,310,5,,6.21,29.852362,,,TRUE,,,,,,,,CLR,,,,,,,,VFR,,,,,,,,,,,,METAR,100.0
ESNN 171850Z AUTO 31003KT 9999 NCD M14/M15 Q1013,ESNN,2021-01-17T18:50:00Z,62.52,17.43,-14.0,-15.0,310,3,,6.21,29.911417,,,TRUE,,,,,,,,CLR,,,,,,,,VFR,,,,,,,,,,,,METAR,4.0
ESNK 171850Z AUTO 33007KT 9999 OVC005/// M19/M21 Q1014,ESNK,2021-01-17T18:50:00Z,63.03,17.77,-19.0,-21.0,330,7,,6.21,29.940945,,,TRUE,,,,,,,,OVC,500,,,,,,,IFR,,,,,,,,,,,,METAR,4.0
ESNG 171850Z 30004KT CAVOK M18/M20 Q1008,ESNG,2021-01-17T18:50:00Z,67.13,20.82,-18.0,-20.0,300,4,,6.21,29.763779,,,,,,,,,,,CAVOK,,,,,,,,VFR,,,,,,,,,,,,METAR,300.0
ESND 171850Z AUTO 29002KT 9999 NCD M22/M24 Q1011,ESND,2021-01-17T18:50:00Z,62.05,14.42,-22.0,-24.0,290,2,,6.21,29.852362,,,TRUE,,,,,,,,CLR,,,,,,,,VFR,,,,,,,,,,,,METAR,352.0
ESMX 171850Z AUTO 14003KT 9999 OVC042/// M03/M06 Q1019,ESMX,2021-01-17T18:50:00Z,56.92,14.72,-3.0,-6.0,140,3,,6.21,30.088583,,,TRUE,,,,,,,,OVC,4200,,,,,,,VFR,,,,,,,,,,,,METAR,176.0
ESMT 171850Z AUTO 13005KT 9999 BKN019/// M01/M03 Q1020,ESMT,2021-01-17T18:50:00Z,56.68,12.82,-1.0,-3.0,130,5,,6.21,30.11811,,,TRUE,,,,,,,,BKN,1900,,,,,,,MVFR,,,,,,,,,,,,METAR,24.0
ESMS 171850Z 18003KT 9000 OVC043 M02/M02 Q1020 R17/590293,ESMS,2021-01-17T18:50:00Z,55.53,13.37,-2.0,-2.0,180,3,,5.59,30.11811,,,,,,,,,,,OVC,4300,,,,,,,VFR,,,,,,,,,,,,METAR,68.0
ESMQ 171850Z VRB01KT 9999 BKN037 M08/M09 Q1021,ESMQ,2021-01-17T18:50:00Z,56.68,16.3,-8.0,-9.0,0,1,,6.21,30.147638,,,,,,,,,,,BKN,3700,,,,,,,VFR,,,,,,,,,,,,METAR,3.0
ESMK 171850Z AUTO 17002KT 2300 BR SCT030/// OVC048/// M03/M03 Q1020,ESMK,2021-01-17T18:50:00Z,55.92,14.08,-3.0,-3.0,170,2,,1.43,30.11811,,,TRUE,,,,,,,BR,SCT,3000,OVC,4800,,,,,IFR,,,,,,,,,,,,METAR,20.0
ESKS 171850Z AUTO 19004KT 4300 BR OVC002/// M09/M09 Q1012,ESKS,2021-01-17T18:50:00Z,61.17,12.83,-9.0,-9.0,190,4,,2.67,29.88189,,,TRUE,,,,,,,BR,OVC,200,,,,,,,LIFR,,,,,,,,,,,,METAR,503.0
ESKN 171850Z 22005KT 9999 BKN029 M03/M04 Q1018 R26/910195,ESKN,2021-01-17T18:50:00Z,58.78,16.92,-3.0,-4.0,220,5,,6.21,30.059055,,,,,,,,,,,BKN,2900,,,,,,,MVFR,,,,,,,,,,,,METAR,41.0
ESKM 171850Z AUTO 23004KT 200V260 9999 OVC017/// M05/M05 Q1014,ESKM,2021-01-17T18:50:00Z,60.97,14.52,-5.0,-5.0,230,4,,6.21,29.940945,,,TRUE,,,,,,,,OVC,1700,,,,,,,MVFR,,,,,,,,,,,,METAR,184.0
ESIB 171850Z AUTO 17006KT 9999 OVC040/// M02/M02 Q1018,ESIB,2021-01-17T18:50:00Z,58.42,12.7,-2.0,-2.0,170,6,,6.21,30.059055,,,TRUE,,,,,,,,OVC,4000,,,,,,,VFR,,,,,,,,,,,,METAR,51.0
ESIA 171850Z AUTO 25006KT 9999 OVC033/// M02/M04 Q1018,ESIA,2021-01-17T18:50:00Z,58.52,14.5,-2.0,-4.0,250,6,,6.21,30.059055,,,TRUE,,,,,,,,OVC,3300,,,,,,,VFR,,,,,,,,,,,,METAR,94.0
ESGT 171850Z AUTO 17006KT 9999 OVC042/// M03/M04 Q1019,ESGT,2021-01-17T18:50:00Z,58.32,12.33,-3.0,-4.0,170,6,,6.21,30.088583,,,TRUE,,,,,,,,OVC,4200,,,,,,,VFR,,,,,,,,,,,,METAR,40.0
ESGR 171850Z AUTO 20005KT 9999 OVC036/// M03/M04 Q1018,ESGR,2021-01-17T18:50:00Z,58.45,13.97,-3.0,-4.0,200,5,,6.21,30.059055,,,TRUE,,,,,,,,OVC,3600,,,,,,,VFR,,,,,,,,,,,,METAR,95.0
ESGJ 171850Z AUTO 20005KT 9999 OVC039/// M04/M05 Q1018,ESGJ,2021-01-17T18:50:00Z,57.77,14.07,-4.0,-5.0,200,5,,6.21,30.059055,,,TRUE,,,,,,,,OVC,3900,,,,,,,VFR,,,,,,,,,,,,METAR,224.0
ESGG 171850Z 16005KT 9999 SCT019 M04/M05 Q1018 R21/490195,ESGG,2021-01-17T18:50:00Z,57.67,12.3,-4.0,-5.0,160,5,,6.21,30.059055,,,,,,,,,,,SCT,1900,,,,,,,VFR,,,,,,,,,,,,METAR,152.0
ESDF 171850Z 08002KT CAVOK M03/M05 Q1021,ESDF,2021-01-17T18:50:00Z,56.27,15.27,-3.0,-5.0,80,2,,6.21,30.147638,,,,,,,,,,,CAVOK,,,,,,,,VFR,,,,,,,,,,,,METAR,52.0
ESCM 171850Z AUTO 22005KT 190V250 9999 OVC026/// M03/M04 Q1017,ESCM,2021-01-17T18:50:00Z,59.88,17.6,-3.0,-4.0,220,5,,6.21,30.029528,,,TRUE,,,,,,,,OVC,2600,,,,,,,MVFR,,,,,,,,,,,,METAR,21.0
ESCF 171850Z AUTO 21007KT 9999 OVC033/// M03/M05 Q1019,ESCF,2021-01-17T18:50:00Z,58.38,15.52,-3.0,-5.0,210,7,,6.21,30.088583,,,TRUE,,,,,,,,OVC,3300,,,,,,,VFR,,,,,,,,,,,,METAR,86.0
ENZV 171850Z 14015KT 9999 FEW023 BKN031 OVC051 02/00 Q1014 NOSIG,ENZV,2021-01-17T18:50:00Z,58.88,5.63,2.0,0.0,140,15,,6.21,29.940945,,,,,,TRUE,,,,,FEW,2300,BKN,3100,OVC,5100,,,VFR,,,,,,,,,,,,METAR,7.0
ENWV 171850Z AUTO 28017KT 9999NDV SCT023/// 07/02 Q1016 W///S4,ENWV,2021-01-17T18:50:00Z,56.28,3.4,7.0,2.0,280,17,,,30.0,,,TRUE,,,,,,,,SCT,2300,,,,,,,,,,,,,,,,,,,METAR,30.0
ENVA 171850Z 09007KT 9999 FEW064 M12/M14 Q1010 RMK WIND 670FT 15006KT,ENVA,2021-01-17T18:50:00Z,63.47,10.92,-12.0,-14.0,90,7,,6.21,29.822834,,,,,,,,,,,FEW,6400,,,,,,,VFR,,,,,,,,,,,,METAR,12.0
ENUN 171850Z AUTO 11014KT 090V150 9999NDV BKN025/// 03/M02 Q1006 W07/S/,ENUN,2021-01-17T18:50:00Z,,,3.0,-2.0,110,14,,,29.704725,,,TRUE,,,,,,,,BKN,2500,,,,,,,,,,,,,,,,,,,METAR,
ENUG 171850Z AUTO 31023KT 9999NDV FEW020/// SCT022/// BKN046/// 03/00 Q1003 W///S4,ENUG,2021-01-17T18:50:00Z,71.3,22.25,3.0,0.0,310,23,,,29.616142,,,TRUE,,,,,,,,FEW,2000,SCT,2200,BKN,4600,,,,,,,,,,,,,,,METAR,30.0
ENTO 171850Z 00000KT 9999 -SN OVC005 M04/M05 Q1017 NOSIG,ENTO,2021-01-17T18:50:00Z,59.2,10.27,-4.0,-5.0,0,0,,6.21,30.029528,,,,,,TRUE,,,,-SN,OVC,500,,,,,,,IFR,,,,,,,,,,,,METAR,84.0
ENTC 171850Z 23009KT 200V270 9999 VCSH FEW011 BKN020 01/M01 Q1008 TEMPO BKN012 RMK WIND 2600FT 27009KT,ENTC,2021-01-17T18:50:00Z,69.68,18.92,1.0,-1.0,230,9,,6.21,29.763779,,,,,,,,,,VCSH,FEW,1100,BKN,2000,,,,,MVFR,,,,,,,,,,,,METAR,9.0
ENST 171850Z 07012KT CAVOK M04/M08 Q1009 RMK WIND 300FT 06014KT,ENST,2021-01-17T18:50:00Z,65.97,12.47,-4.0,-8.0,70,12,,6.21,29.793306,,,,,,,,,,,CAVOK,,,,,,,,VFR,,,,,,,,,,,,METAR,17.0
ENSO 171850Z 16011KT 9999 SCT010 BKN015 02/01 Q1013,ENSO,2021-01-17T18:50:00Z,59.78,5.33,2.0,1.0,160,11,,6.21,29.911417,,,,,,,,,,,SCT,1000,BKN,1500,,,,,MVFR,,,,,,,,,,,,METAR,48.0
ENSL 171850Z AUTO 25023KT 9999NDV SCT021/// SCT064/// 07/03 Q1013 W05/S5,ENSL,2021-01-17T18:50:00Z,58.37,1.9,7.0,3.0,250,23,,,29.911417,,,TRUE,,,,,,,,SCT,2100,SCT,6400,,,,,,,,,,,,,,,,,METAR,50.0
ENSK 171850Z 36004KT CAVOK M05/M05 Q1009,ENSK,2021-01-17T18:50:00Z,68.57,15.02,-5.0,-5.0,360,4,,6.21,29.793306,,,,,,,,,,,CAVOK,,,,,,,,VFR,,,,,,,,,,,,METAR,3.0
ENSH 171850Z 35004KT CAVOK M02/M03 Q1009 RMK WIND 150FT 35003KT,ENSH,2021-01-17T18:50:00Z,68.25,14.67,-2.0,-3.0,350,4,,6.21,29.793306,,,,,,,,,,,CAVOK,,,,,,,,VFR,,,,,,,,,,,,METAR,9.0
ENSG 171850Z 06005KT 9999 -SHSN FEW012 SCT035 BKN040 M05/M08 Q1010 RMK WIND 3806FT 18016KT,ENSG,2021-01-17T18:50:00Z,61.15,7.13,-5.0,-8.0,60,5,,6.21,29.822834,,,,,,,,,,-SHSN,FEW,1200,SCT,3500,BKN,4000,,,VFR,,,,,,,,,,,,METAR,493.0
ENSF 171850Z AUTO 25022KT 9999NDV SCT047/// SCT082/// 07/02 Q1007 W///S6,ENSF,2021-01-17T18:50:00Z,61.25,1.85,7.0,2.0,250,22,,,29.734253,,,TRUE,,,,,,,,SCT,4700,SCT,8200,,,,,,,,,,,,,,,,,METAR,15.0
ENSE 171850Z AUTO 23024KT 9999NDV FEW063/// 07/02 Q1006 W///S6,ENSE,2021-01-17T18:50:00Z,61.45,2.15,7.0,2.0,230,24,,,29.704725,,,TRUE,,,,,,,,FEW,6300,,,,,,,,,,,,,,,,,,,METAR,10.0
ENSD 171850Z VRB11KT 9999 -SHRA FEW010 SCT028 BKN040 03/00 Q1010 RMK WIND 1138FT 20005KT,ENSD,2021-01-17T18:50:00Z,61.82,6.12,3.0,0.0,0,11,,6.21,29.822834,,,,,,,,,,-SHRA,FEW,1000,SCT,2800,BKN,4000,,,VFR,,,0.5,,,,,,,,,METAR,61.0
ENSB 171850Z 13027G37KT 9999 BLSN BKN032 M06/M10 Q1007 RMK WIND 1400FT 10037G49KT,ENSB,2021-01-17T18:50:00Z,78.25,15.47,-6.0,-10.0,130,27,37,6.21,29.734253,,,,,,,,,,BLSN,BKN,3200,,,,,,,VFR,,3.7,,,,,,,,,,METAR,30.0
ENRY 171850Z AUTO 10002KT 6000NDV SG FEW006/// SCT018/// M05/M06 Q1017,ENRY,2021-01-17T18:50:00Z,59.37,10.77,-5.0,-6.0,100,2,,,30.029528,,,TRUE,,,,,,,SG,FEW,600,SCT,1800,,,,,,,,,,,,,,,,,METAR,45.0
ENRS 171850Z 09006KT 9999 SCT018 01/M02 Q1009,ENRS,2021-01-17T18:50:00Z,67.52,12.1,1.0,-2.0,90,6,,6.21,29.793306,,,,,,,,,,,SCT,1800,,,,,,,VFR,,,,,,,,,,,,METAR,4.0
ENRO 171850Z 00000KT 9999 FEW015 M24/M27 Q1009,ENRO,2021-01-17T18:50:00Z,62.57,11.33,-24.0,-27.0,0,0,,6.21,29.793306,,,,,,,,,,,FEW,1500,,,,,,,VFR,,,,,,,,,,,,METAR,624.0
ENRM 171850Z 08005KT CAVOK M05/M09 Q1009,ENRM,2021-01-17T18:50:00Z,64.83,11.13,-5.0,-9.0,80,5,,6.21,29.793306,,,,,,,,,,,CAVOK,,,,,,,,VFR,,,,,,,,,,,,METAR,4.0
ENRA 171850Z 24002KT CAVOK M16/M18 Q1011,ENRA,2021-01-17T18:50:00Z,66.37,14.3,-16.0,-18.0,240,2,,6.21,29.852362,,,,,,,,,,,CAVOK,,,,,,,,VFR,,,,,,,,,,,,METAR,66.0
ENQR 171850Z AUTO 23023KT 9999NDV FEW062/// 07/01 Q1006 W///S5,ENQR,2021-01-17T18:50:00Z,61.52,2.22,7.0,1.0,230,23,,,29.704725,,,TRUE,,,,,,,,FEW,6200,,,,,,,,,,,,,,,,,,,METAR,10.0
ENQC 171850Z AUTO 22019KT 9999NDV FEW020/// 07/02 Q1008 RESHRA W///S6,ENQC,2021-01-17T18:50:00Z,60.88,3.62,7.0,2.0,220,19,,,29.763779,,,TRUE,,,,,,,,FEW,2000,,,,,,,,,,,,,,,,,,,METAR,20.0
ENQA 171850Z AUTO 23020KT 9999NDV FEW067/// 07/02 Q1009 W04/S6,ENQA,2021-01-17T18:50:00Z,60.65,3.72,7.0,2.0,230,20,,,29.793306,,,TRUE,,,,,,,,FEW,6700,,,,,,,,,,,,,,,,,,,METAR,90.0
ENOV 171850Z VRB06KT 9999 SCT038 BKN044 05/M02 Q1008 RMK WIND 2175FT 16027KT,ENOV,2021-01-17T18:50:00Z,62.17,6.07,5.0,-2.0,0,6,,6.21,29.763779,,,,,,,,,,,SCT,3800,BKN,4400,,,,,VFR,,,,,,,,,,,,METAR,72.0
ENOL 171850Z 12017KT CAVOK M02/M05 Q1008 NOSIG,ENOL,2021-01-17T18:50:00Z,63.7,9.6,-2.0,-5.0,120,17,,6.21,29.763779,,,,,,TRUE,,,,,CAVOK,,,,,,,,VFR,,,,,,,,,,,,METAR,9.0
ENOA 171850Z 23020KT 9999 FEW020 SCT180 07/02 Q1009 W///S5,ENOA,2021-01-17T18:50:00Z,60.5,2.83,7.0,2.0,230,20,,6.21,29.793306,,,,,,,,,,,FEW,2000,SCT,18000,,,,,VFR,,,,,,,,,,,,METAR,5.0
ENNM 171850Z 05018KT CAVOK M12/M14 Q1010,ENNM,2021-01-17T18:50:00Z,64.47,11.57,-12.0,-14.0,50,18,,6.21,29.822834,,,,,,,,,,,CAVOK,,,,,,,,VFR,,,,,,,,,,,,METAR,2.0
ENNE 171850Z AUTO 15014KT 9999NDV SCT021/// 04/M01 Q1006 W///S4,ENNE,2021-01-17T18:50:00Z,66.03,8.08,4.0,-1.0,150,14,,,29.704725,,,TRUE,,,,,,,,SCT,2100,,,,,,,,,,,,,,,,,,,METAR,10.0
ENNA 171850Z 26012KT 9999 FEW047 BKN061 03/M01 Q1006 RMK WIND 1800FT 28026KT,ENNA,2021-01-17T18:50:00Z,70.07,24.97,3.0,-1.0,260,12,,6.21,29.704725,,,,,,,,,,,FEW,4700,BKN,6100,,,,,VFR,,,,,,,,,,,,METAR,12.0
ENMS 171850Z 18003KT CAVOK M15/M17 Q1011 RMK WIND 412FT 16003KT,ENMS,2021-01-17T18:50:00Z,65.78,13.22,-15.0,-17.0,180,3,,6.21,29.852362,,,,,,,,,,,CAVOK,,,,,,,,VFR,,,,,,,,,,,,METAR,44.0
ENML 171850Z 04008KT 9999 SCT062 BKN140 M02/M05 Q1008,ENML,2021-01-17T18:50:00Z,62.75,7.27,-2.0,-5.0,40,8,,6.21,29.763779,,,,,,,,,,,SCT,6200,BKN,14000,,,,,VFR,,,,,,,,,,,,METAR,3.0
ENMH 171850Z 26016KT 9999 SCT023 BKN025 03/M00 Q1003,ENMH,2021-01-17T18:50:00Z,71.02,27.82,3.0,0.0,260,16,,6.21,29.616142,,,,,,,,,,,SCT,2300,BKN,2500,,,,,MVFR,,,,,,,,,,,,METAR,10.0
ENLK 171850Z 09003KT 9999 FEW002 BKN003 M01/M02 Q1009,ENLK,2021-01-17T18:50:00Z,68.15,13.62,-1.0,-2.0,90,3,,6.21,29.793306,,,,,,,,,,,FEW,200,BKN,300,,,,,LIFR,,,,,,,,,,,,METAR,26.0
ENLA 171850Z AUTO 34018KT 9999NDV FEW023/// 07/03 Q1015 W///S4,ENLA,2021-01-17T18:50:00Z,57.1,2.83,7.0,3.0,340,18,,,29.970472,,,TRUE,,,,,,,,FEW,2300,,,,,,,,,,,,,,,,,,,METAR,10.0
ENKR 171850Z 25012KT 9999 SCT049 BKN072 M02/M03 Q1004 RMK WIND 731FT 26022KT,ENKR,2021-01-17T18:50:00Z,69.72,29.88,-2.0,-3.0,250,12,,6.21,29.64567,,,,,,,,,,,SCT,4900,BKN,7200,,,,,VFR,,,,,,,,,,,,METAR,86.0
ENKB 171850Z 09005KT 040V140 9999 SCT045 BKN064 03/M04 Q1007 RMK WIND 745FT 15011KT,ENKB,2021-01-17T18:50:00Z,63.12,7.82,3.0,-4.0,90,5,,6.21,29.734253,,,,,,,,,,,SCT,4500,BKN,6400,,,,,VFR,,,,,,,,,,,,METAR,62.0
ENHM 171850Z AUTO 24023G35KT 9999NDV -RA FEW022/// SCT029/// BKN049/// 05/00 Q1011 W08/S5,ENHM,2021-01-17T18:50:00Z,59.57,2.23,5.0,0.0,240,23,35,,29.852362,,,TRUE,,,,,,,-RA,FEW,2200,SCT,2900,BKN,4900,,,,,,,,,,,,,,,METAR,10.0
ENHK 171850Z 30012KT 9999 -SHRA VV008 02/01 Q1006,ENHK,2021-01-17T18:50:00Z,70.48,22.13,2.0,1.0,300,12,,6.21,29.704725,,,,,,,,,,-SHRA,OVX,0,,,,,,,LIFR,,,,,,,,,,,800,METAR,6.0
ENHF 171850Z 22003KT 180V280 9999 VCSH FEW009 SCT015 BKN027 02/00 Q1005 RMK WIND 1254FT 29014KT,ENHF,2021-01-17T18:50:00Z,70.67,23.67,2.0,0.0,220,3,,6.21,29.675198,,,,,,,,,,VCSH,FEW,900,SCT,1500,BKN,2700,,,MVFR,,,,,,,,,,,,METAR,79.0
ENHE 171850Z 15015KT 9999 BKN040 06/00 Q1006 W///S5,ENHE,2021-01-17T18:50:00Z,65.33,2.33,6.0,0.0,150,15,,6.21,29.704725,,,,,,,,,,,BKN,4000,,,,,,,VFR,,,,,,,,,,,,METAR,10.0
ENHD 171850Z 14012KT 9000 -DZ OVC010 02/01 Q1013,ENHD,2021-01-17T18:50:00Z,59.35,5.22,2.0,1.0,140,12,,5.59,29.911417,,,,,,,,,,-DZ,OVC,1000,,,,,,,MVFR,,,,,,,,,,,,METAR,22.0
ENGM 171850Z 21003KT 7000 -SN SCT012 BKN050 M08/M09 Q1015 TEMPO 4000 -SN BR BKN012,ENGM,2021-01-17T18:50:00Z,60.2,11.07,-8.0,-9.0,210,3,,4.35,29.970472,,,,,,,,,,-SN,SCT,1200,BKN,5000,,,,,MVFR,,,,,,,,,,,,METAR,204.0
ENGC 171850Z 25020KT 9999 FEW020 06/02 Q1007 W06/S6,ENGC,2021-01-17T18:50:00Z,61.02,2.02,6.0,2.0,250,20,,6.21,29.734253,,,,,,,,,,,FEW,2000,,,,,,,VFR,,,,,,,,,,,,METAR,10.0
ENFL 171850Z AUTO 11009KT 080V150 9999NDV -RA FEW009/// OVC016/// 02/00 Q1010,ENFL,2021-01-17T18:50:00Z,61.57,5.02,2.0,0.0,110,9,,,29.822834,,,TRUE,,,,,,,-RA,FEW,900,OVC,1600,,,,,,,,,,,,,,,,,METAR,1.0
ENFB 171850Z AUTO 24018KT 9999NDV SCT020/// ///// Q//// W///S6,ENFB,2021-01-17T18:50:00Z,61.2,1.83,,,240,18,,,,,,TRUE,,,,,,,,SCT,2000,,,,,,,,,,,,,,,,,,,METAR,10.0
ENEV 171850Z VRB02KT CAVOK M09/M11 Q1009 RMK WIND 1400FT 13005KT,ENEV,2021-01-17T18:50:00Z,68.48,16.67,-9.0,-11.0,0,2,,6.21,29.793306,,,,,,,,,,,CAVOK,,,,,,,,VFR,,,,,,,,,,,,METAR,26.0
ENDU 171850Z VRB02KT 9999 FEW010 M10/M11 Q1009 RMK WIND 1100FT 18005KT WIND 2200FT 23004KT,ENDU,2021-01-17T18:50:00Z,69.05,18.55,-10.0,-11.0,0,2,,6.21,29.793306,,,,,,,,,,,FEW,1000,,,,,,,VFR,,,,,,,,,,,,METAR,65.0
ENCN 171850Z VRB03KT 9999 -SN FEW016 BKN026 M02/M04 Q1017,ENCN,2021-01-17T18:50:00Z,58.2,8.07,-2.0,-4.0,0,3,,6.21,30.029528,,,,,,,,,,-SN,FEW,1600,BKN,2600,,,,,MVFR,,,,,,,,,,,,METAR,17.0
ENBV 171850Z 28016KT 9999 -SHRA FEW008 BKN019 02/01 Q1002,ENBV,2021-01-17T18:50:00Z,70.87,29.02,2.0,1.0,280,16,,6.21,29.586615,,,,,,,,,,-SHRA,FEW,800,BKN,1900,,,,,MVFR,,,,,,,,,,,,METAR,13.0
ENBS 171850Z 29020KT 9999 VCSH FEW015 SCT029 BKN059 01/M01 Q1001,ENBS,2021-01-17T18:50:00Z,70.62,29.68,1.0,-1.0,290,20,,6.21,29.557087,,,,,,,,,,VCSH,FEW,1500,SCT,2900,BKN,5900,,,VFR,,,,,,,,,,,,METAR,144.0
ENBR 171850Z 17017KT 9999 FEW006 BKN009 02/01 Q1012 TEMPO 4000 SHRA BKN006 SCT018CB RMK WIND 1200FT 16016KT,ENBR,2021-01-17T18:50:00Z,60.28,5.22,2.0,1.0,170,17,,6.21,29.88189,,,,,,,,,,,FEW,600,BKN,900,,,,,IFR,,,,,,,,,,,,METAR,49.0
ENBO 171850Z 10010KT CAVOK M04/M08 Q1009 NOSIG,ENBO,2021-01-17T18:50:00Z,67.27,14.37,-4.0,-8.0,100,10,,6.21,29.793306,,,,,,TRUE,,,,,CAVOK,,,,,,,,VFR,,,,,,,,,,,,METAR,13.0
ENBN 171850Z VRB02KT CAVOK M04/M07 Q1009,ENBN,2021-01-17T18:50:00Z,65.47,12.22,-4.0,-7.0,0,2,,6.21,29.793306,,,,,,,,,,,CAVOK,,,,,,,,VFR,,,,,,,,,,,,METAR,3.0
ENBL 171850Z 22005KT 3500 -SHSN FEW008 SCT012 BKN016 00/M01 Q1009,ENBL,2021-01-17T18:50:00Z,61.4,5.77,0.0,-1.0,220,5,,2.17,29.793306,,,,,,,,,,-SHSN,FEW,800,SCT,1200,BKN,1600,,,IFR,,,,,,,,,,,,METAR,313.0
ENAT 171850Z 13004KT 9999 OVC033 M01/M03 Q1007 RMK WIND 700FT VRB03KT,ENAT,2021-01-17T18:50:00Z,69.97,23.37,-1.0,-3.0,130,4,,6.21,29.734253,,,,,,,,,,,OVC,3300,,,,,,,VFR,,,,,,,,,,,,METAR,3.0
ENAN 171850Z AUTO 24004KT 210V290 9999 BKN024/// M01/M01 Q1008,ENAN,2021-01-17T18:50:00Z,69.3,16.13,-1.0,-1.0,240,4,,6.21,29.763779,,,TRUE,,,,,,,,BKN,2400,,,,,,,MVFR,,,,,,,,,,,,METAR,13.0
ENAL 171850Z 20013KT 9999 SCT038 05/M00 Q1007,ENAL,2021-01-17T18:50:00Z,62.57,6.12,5.0,0.0,200,13,,6.21,29.734253,,,,,,,,,,,SCT,3800,,,,,,,VFR,,,,,,,,,,,,METAR,21.0
ELLX 171850Z 27007KT 9999 BKN015 BKN048 02/01 Q1023 TEMPO BKN012,ELLX,2021-01-17T18:50:00Z,49.63,6.2,2.0,1.0,270,7,,6.21,30.206694,,,,,,,,,,,BKN,1500,BKN,4800,,,,,MVFR,,,,,,,,,,,,METAR,374.0
EKYT 171850Z AUTO 17004KT 9999 FEW100/// BKN130/// BKN160/// M03/M04 Q1019,EKYT,2021-01-17T18:50:00Z,57.1,9.87,-3.0,-4.0,170,4,,6.21,30.088583,,,TRUE,,,,,,,,FEW,10000,BKN,13000,BKN,16000,,,VFR,,,,,,,,,,,,METAR,2.0
EKVG 171850Z AUTO 27016G26KT 9999 SCT010/// BKN018/// 04/02 Q0998,EKVG,2021-01-17T18:50:00Z,62.07,-7.27,4.0,2.0,270,16,26,6.21,29.468504,,,TRUE,,,,,,,,SCT,1000,BKN,1800,,,,,MVFR,,,,,,,,,,,,METAR,89.0
EKVD 171850Z AUTO 18005KT //// ///////// M00/M03 Q1019,EKVD,2021-01-17T18:50:00Z,55.43,9.32,0.0,-3.0,180,5,,,30.088583,,,TRUE,,,,,,,,,,,,,,,,,,,,,,,,,,,,METAR,41.0
EKSP 171850Z 16005KT 9999 FEW020 BKN055 M01/M04 Q1019,EKSP,2021-01-17T18:50:00Z,55.22,9.27,-1.0,-4.0,160,5,,6.21,30.088583,,,,,,,,,,,FEW,2000,BKN,5500,,,,,VFR,,,,,,,,,,,,METAR,40.0
EKSB 171850Z AUTO 17006KT 9999NDV OVC077/// 00/M03 Q1019,EKSB,2021-01-17T18:50:00Z,54.97,9.8,0.0,-3.0,170,6,,,30.088583,,,TRUE,,,,,,,,OVC,7700,,,,,,,,,,,,,,,,,,,METAR,23.0
EKRS 171850Z AUTO 09000KT 9999 NCD M05/M05 Q1020,EKRS,2021-01-17T18:50:00Z,55.42,11.8,-5.0,-5.0,90,0,,6.21,30.11811,,,TRUE,,,,,,,,CLR,,,,,,,,VFR,,,,,,,,,,,,METAR,34.0
EKRN 171850Z AUTO 19008KT 9999 OVC056/// M01/M06 Q1021 R99/410195,EKRN,2021-01-17T18:50:00Z,55.07,14.75,-1.0,-6.0,190,8,,6.21,30.147638,,,TRUE,,,,,,,,OVC,5600,,,,,,,VFR,,,,,,,,,,,,METAR,14.0
EKRK 171850Z AUTO 17003KT 9000 SCT160/// M04/M05 Q1020 R99/////// R99/710166,EKRK,2021-01-17T18:50:00Z,55.58,12.13,-4.0,-5.0,170,3,,5.59,30.11811,,,TRUE,,,,,,,,SCT,16000,,,,,,,VFR,,,,,,,,,,,,METAR,40.0
EKKA 171850Z AUTO 14005KT 9999 BKN041/// OVC075/// M01/M03 Q1018,EKKA,2021-01-17T18:50:00Z,56.3,9.12,-1.0,-3.0,140,5,,6.21,30.059055,,,TRUE,,,,,,,,BKN,4100,OVC,7500,,,,,VFR,,,,,,,,,,,,METAR,50.0
EKEB 171850Z AUTO 15005KT 9999 OVC014/// M00/M03 Q1018,EKEB,2021-01-17T18:50:00Z,55.52,8.55,0.0,-3.0,150,5,,6.21,30.059055,,,TRUE,,,,,,,,OVC,1400,,,,,,,MVFR,,,,,,,,,,,,METAR,29.0
EKCH 171850Z 22004KT CAVOK M03/M04 Q1021 NOSIG,EKCH,2021-01-17T18:50:00Z,55.62,12.67,-3.0,-4.0,220,4,,6.21,30.147638,,,,,,TRUE,,,,,CAVOK,,,,,,,,VFR,,,,,,,,,,,,METAR,4.0
EKBI 171850Z AUTO 16006KT 9999 OVC036/// M01/M03 Q1018,EKBI,2021-01-17T18:50:00Z,55.73,9.15,-1.0,-3.0,160,6,,6.21,30.059055,,,TRUE,,,,,,,,OVC,3600,,,,,,,VFR,,,,,,,,,,,,METAR,67.0
EKAH 171850Z AUTO 16001KT 9999 SCT022/// BKN120/// M01/M03 Q1020 R99/720295,EKAH,2021-01-17T18:50:00Z,56.28,10.62,-1.0,-3.0,160,1,,6.21,30.11811,,,TRUE,,,,,,,,SCT,2200,BKN,12000,,,,,VFR,,,,,,,,,,,,METAR,25.0
EGYP 171850Z 22016KT 9999 FEW016 BKN019 13/07 Q1000,EGYP,2021-01-17T18:50:00Z,-51.82,-58.45,13.0,7.0,220,16,,6.21,29.52756,,,,,,,,,,,FEW,1600,BKN,1900,,,,,MVFR,,,,,,,,,,,,METAR,70.0
EGYM 171850Z 24007KT CAVOK 03/02 Q1024 BLU,EGYM,2021-01-17T18:50:00Z,52.63,0.57,3.0,2.0,240,7,,6.21,30.236221,,,,,,,,,,,CAVOK,,,,,,,,VFR,,,,,,,,,,,,METAR,25.0
EGYD 171850Z AUTO 26014KT 9999 // NCD 03/02 Q1024,EGYD,2021-01-17T18:50:00Z,53.03,-0.5,3.0,2.0,260,14,,6.21,30.236221,,,TRUE,,,,,,,,CLR,,,,,,,,VFR,,,,,,,,,,,,METAR,65.0
EGXZ 171850Z AUTO 24007KT 9999 FEW024/// 05/03 Q1021,EGXZ,2021-01-17T18:50:00Z,54.2,-1.38,5.0,3.0,240,7,,6.21,30.147638,,,TRUE,,,,,,,,FEW,2400,,,,,,,VFR,,,,,,,,,,,,METAR,24.0
EGXW 171850Z AUTO 25009KT 9999 NCD 05/02 Q1023,EGXW,2021-01-17T18:50:00Z,53.18,-0.52,5.0,2.0,250,9,,6.21,30.206694,,,TRUE,,,,,,,,CLR,,,,,,,,VFR,,,,,,,,,,,,METAR,70.0
EGXV 171850Z AUTO 24007KT 9999 FEW022/// 04/02 Q1022,EGXV,2021-01-17T18:50:00Z,53.87,-0.45,4.0,2.0,240,7,,6.21,30.177166,,,TRUE,,,,,,,,FEW,2200,,,,,,,VFR,,,,,,,,,,,,METAR,6.0
EGXU 171850Z AUTO 25008KT 9999 BKN220/// 04/03 Q1022,EGXU,2021-01-17T18:50:00Z,54.05,-1.25,4.0,3.0,250,8,,6.21,30.177166,,,TRUE,,,,,,,,BKN,22000,,,,,,,VFR,,,,,,,,,,,,METAR,14.0
EGXT 171850Z AUTO 27014KT 9999 BKN190/// 04/02 Q1023,EGXT,2021-01-17T18:50:00Z,52.62,-0.47,4.0,2.0,270,14,,6.21,30.206694,,,TRUE,,,,,,,,BKN,19000,,,,,,,VFR,,,,,,,,,,,,METAR,74.0
EGXS 171850Z AUTO 24008KT 9999 // FEW240/// 04/02 Q1022,EGXS,2021-01-17T18:50:00Z,53.48,0.15,4.0,2.0,240,8,,6.21,30.177166,,,TRUE,,,,,,,,FEW,24000,,,,,,,VFR,,,,,,,,,,,,METAR,6.0
EGXP 171850Z AUTO 25011KT 9999 // FEW240/// 03/02 Q1023,EGXP,2021-01-17T18:50:00Z,53.3,-0.55,3.0,2.0,250,11,,6.21,30.206694,,,TRUE,,,,,,,,FEW,24000,,,,,,,VFR,,,,,,,,,,,,METAR,58.0
EGXE 171850Z AUTO 19007KT 9999 SCT022/// BKN120/// 04/02 Q1021,EGXE,2021-01-17T18:50:00Z,54.28,-1.52,4.0,2.0,190,7,,6.21,30.147638,,,TRUE,,,,,,,,SCT,2200,BKN,12000,,,,,VFR,,,,,,,,,,,,METAR,30.0
EGXC 171850Z 26008KT CAVOK 04/03 Q1024 RMK BLU,EGXC,2021-01-17T18:50:00Z,53.1,-0.17,4.0,3.0,260,8,,6.21,30.236221,,,,,,,,,,,CAVOK,,,,,,,,VFR,,,,,,,,,,,,METAR,9.0
EGWU 171850Z AUTO 22003KT 9999 // OVC200/// 04/01 Q1026,EGWU,2021-01-17T18:50:00Z,51.55,-0.42,4.0,1.0,220,3,,6.21,30.295275,,,TRUE,,,,,,,,OVC,20000,,,,,,,VFR,,,,,,,,,,,,METAR,33.0
EGVP 171850Z AUTO 27005KT 9999 OVC130/// 05/03 Q1027,EGVP,2021-01-17T18:50:00Z,51.13,-1.57,5.0,3.0,270,5,,6.21,30.324802,,,TRUE,,,,,,,,OVC,13000,,,,,,,VFR,,,,,,,,,,,,METAR,80.0
EGVO 171850Z AUTO 24008KT 9999 SCT100/// 05/02 Q1026,EGVO,2021-01-17T18:50:00Z,51.23,-0.95,5.0,2.0,240,8,,6.21,30.295275,,,TRUE,,,,,,,,SCT,10000,,,,,,,VFR,,,,,,,,,,,,METAR,118.0
EGVN 171850Z 23004KT CAVOK 05/03 Q1026 NOSIG RMK BLU BLU,EGVN,2021-01-17T18:50:00Z,51.77,-1.58,5.0,3.0,230,4,,6.21,30.295275,,,,,,TRUE,,,,,CAVOK,,,,,,,,VFR,,,,,,,,,,,,METAR,83.0
EGUW 171850Z AUTO 28009KT 9999 BKN140/// 04/03 Q1024,EGUW,2021-01-17T18:50:00Z,52.12,0.97,4.0,3.0,280,9,,6.21,30.236221,,,TRUE,,,,,,,,BKN,14000,,,,,,,VFR,,,,,,,,,,,,METAR,86.0
EGUB 171850Z AUTO 17004KT 9999 // BKN120/// 03/02 Q1026,EGUB,2021-01-17T18:50:00Z,51.62,-1.08,3.0,2.0,170,4,,6.21,30.295275,,,TRUE,,,,,,,,BKN,12000,,,,,,,VFR,,,,,,,,,,,,METAR,56.0
EGTK 171850Z 25006KT CAVOK 04/02 Q1026,EGTK,2021-01-17T18:50:00Z,51.83,-1.32,4.0,2.0,250,6,,6.21,30.295275,,,,,,,,,,,CAVOK,,,,,,,,VFR,,,,,,,,,,,,METAR,78.0
EGSS 171850Z AUTO 24005KT 9999 NCD 04/02 Q1026,EGSS,2021-01-17T18:50:00Z,51.88,0.22,4.0,2.0,240,5,,6.21,30.295275,,,TRUE,,,,,,,,CLR,,,,,,,,VFR,,,,,,,,,,,,METAR,101.0
EGSH 171850Z 24007KT CAVOK 04/03 Q1024 NOSIG,EGSH,2021-01-17T18:50:00Z,52.68,1.28,4.0,3.0,240,7,,6.21,30.236221,,,,,,TRUE,,,,,CAVOK,,,,,,,,VFR,,,,,,,,,,,,METAR,21.0
EGQS 171850Z 23009KT 9999 FEW042 SCT080 BKN210 04/02 Q1011 RMK BLU,EGQS,2021-01-17T18:50:00Z,57.72,-3.32,4.0,2.0,230,9,,6.21,29.852362,,,,,,,,,,,FEW,4200,SCT,8000,BKN,21000,,,VFR,,,,,,,,,,,,METAR,6.0
EGQM 171850Z AUTO /////KT 9999 OVC120/// 06/03 Q1017,EGQM,2021-01-17T18:50:00Z,55.42,-1.6,6.0,3.0,,,,6.21,30.029528,,,TRUE,,,,,,,,OVC,12000,,,,,,,VFR,,,,,,,,,,,,METAR,24.0
EGQL 171850Z 26011KT CAVOK 05/04 Q1015 BLU,EGQL,2021-01-17T18:50:00Z,56.38,-2.87,5.0,4.0,260,11,,6.21,29.970472,,,,,,,,,,,CAVOK,,,,,,,,VFR,,,,,,,,,,,,METAR,11.0
EGQK 171850Z AUTO 22011KT 9999 FEW120/// 06/03 Q1011,EGQK,2021-01-17T18:50:00Z,57.65,-3.57,6.0,3.0,220,11,,6.21,29.852362,,,TRUE,,,,,,,,FEW,12000,,,,,,,VFR,,,,,,,,,,,,METAR,5.0
EGPU 171850Z AUTO 26017KT 8000 SCT021/// 08/06 Q1016 RERA,EGPU,2021-01-17T18:50:00Z,56.5,-6.88,8.0,6.0,260,17,,4.97,30.0,,,TRUE,,,,,,,,SCT,2100,,,,,,,MVFR,,,,,,,,,,,,METAR,12.0
EGPO 171850Z AUTO 25013KT 9999 FEW019/// SCT030/// BKN048/// 06/04 Q1010,EGPO,2021-01-17T18:50:00Z,58.22,-6.32,6.0,4.0,250,13,,6.21,29.822834,,,TRUE,,,,,,,,FEW,1900,SCT,3000,BKN,4800,,,VFR,,,,,,,,,,,,METAR,10.0
EGPL 171850Z AUTO 27021KT 9999 SCT005/// SCT017/// BKN033/// 07/05 Q1013 RERA,EGPL,2021-01-17T18:50:00Z,57.47,-7.37,7.0,5.0,270,21,,6.21,29.911417,,,TRUE,,,,,,,,SCT,500,SCT,1700,BKN,3300,,,VFR,,,,,,,,,,,,METAR,3.0
EGPK 171850Z 24019KT 9999 -RA BKN019 OVC025 08/05 Q1019,EGPK,2021-01-17T18:50:00Z,55.5,-4.58,8.0,5.0,240,19,,6.21,30.088583,,,,,,,,,,-RA,BKN,1900,OVC,2500,,,,,MVFR,,,,,,,,,,,,METAR,14.0
EGPI 171850Z AUTO 26021KT //// -RA SCT012/// BKN021/// 08/07 Q1019,EGPI,2021-01-17T18:50:00Z,55.68,-6.25,8.0,7.0,260,21,,,30.088583,,,TRUE,,,,,,,-RA,SCT,1200,BKN,2100,,,,,,,,,,,,,,,,,METAR,17.0
EGPH 171850Z 24015KT 9999 -RA BKN015 BKN044 07/05 Q1016,EGPH,2021-01-17T18:50:00Z,55.95,-3.35,7.0,5.0,240,15,,6.21,30.0,,,,,,,,,,-RA,BKN,1500,BKN,4400,,,,,MVFR,,,,,,,,,,,,METAR,29.0
EGPF 171850Z AUTO 24016KT 7000 -RA BKN014/// BKN020/// OVC033/// //////CB 07/06 Q1018,EGPF,2021-01-17T18:50:00Z,55.87,-4.42,7.0,6.0,240,16,,4.35,30.059055,,,TRUE,,,,,,,-RA,BKN,1400,BKN,2000,OVC,3300,,,MVFR,,,,,,,,,,,,METAR,8.0
EGPE 171850Z 21012KT 9999 FEW030 BKN040 05/03 Q1012,EGPE,2021-01-17T18:50:00Z,57.53,-4.05,5.0,3.0,210,12,,6.21,29.88189,,,,,,,,,,,FEW,3000,BKN,4000,,,,,VFR,,,,,,,,,,,,METAR,7.0
EGPD 171850Z AUTO 23010KT 9999 NCD 05/02 Q1013 NOSIG,EGPD,2021-01-17T18:50:00Z,57.2,-2.22,5.0,2.0,230,10,,6.21,29.911417,,,TRUE,,,TRUE,,,,,CLR,,,,,,,,VFR,,,,,,,,,,,,METAR,65.0
EGPC 171850Z AUTO 20008KT 160V230 9999 NCD 04/03 Q1010,EGPC,2021-01-17T18:50:00Z,58.45,-3.08,4.0,3.0,200,8,,6.21,29.822834,,,TRUE,,,,,,,,CLR,,,,,,,,VFR,,,,,,,,,,,,METAR,38.0
EGPB 171850Z 27014KT 5000 -RA FEW010 SCT013CB BKN017 04/03 Q1008 TEMPO 4000 SHRA BKN012,EGPB,2021-01-17T18:50:00Z,59.87,-1.3,4.0,3.0,270,14,,3.11,29.763779,,,,,,,,,,-RA,FEW,1000,SCT,1300,BKN,1700,,,MVFR,,,,,,,,,,,,METAR,2.0
EGPA 171850Z AUTO 21016KT 9999 BKN021/// BKN029/// 05/03 Q1008,EGPA,2021-01-17T18:50:00Z,58.95,-2.9,5.0,3.0,210,16,,6.21,29.763779,,,TRUE,,,,,,,,BKN,2100,BKN,2900,,,,,MVFR,,,,,,,,,,,,METAR,15.0
EGOV 171850Z AUTO 24013KT 9999 FEW021/// SCT026/// BKN080/// 07/05 Q1025,EGOV,2021-01-17T18:50:00Z,53.25,-4.53,7.0,5.0,240,13,,6.21,30.265747,,,TRUE,,,,,,,,FEW,2100,SCT,2600,BKN,8000,,,VFR,,,,,,,,,,,,SPECI,11.0
EGOS 171850Z AUTO 25008KT 9999 NCD 05/02 Q1025,EGOS,2021-01-17T18:50:00Z,52.8,-2.67,5.0,2.0,250,8,,6.21,30.265747,,,TRUE,,,,,,,,CLR,,,,,,,,VFR,,,,,,,,,,,,METAR,76.0
EGOM 171850Z AUTO 25018KT 8000 -RADZ OVC003/// 04/04 Q1019,EGOM,2021-01-17T18:50:00Z,55.05,-2.55,4.0,4.0,250,18,,4.97,30.088583,,,TRUE,,,,,,,-RA -DZ,OVC,300,,,,,,,LIFR,,,,,,,,,,,,METAR,286.0
EGNX 171850Z 24008KT CAVOK 05/02 Q1024,EGNX,2021-01-17T18:50:00Z,52.82,-1.32,5.0,2.0,240,8,,6.21,30.236221,,,,,,,,,,,CAVOK,,,,,,,,VFR,,,,,,,,,,,,METAR,91.0
EGNT 171850Z 26015KT CAVOK 06/03 Q1019,EGNT,2021-01-17T18:50:00Z,55.03,-1.7,6.0,3.0,260,15,,6.21,30.088583,,,,,,,,,,,CAVOK,,,,,,,,VFR,,,,,,,,,,,,METAR,77.0
EGNS 171850Z 26014KT 9999 -RA FEW012 07/05 Q1023 TEMPO 7000 RADZ BKN009,EGNS,2021-01-17T18:50:00Z,54.08,-4.63,7.0,5.0,260,14,,6.21,30.206694,,,,,,,,,,-RA,FEW,1200,,,,,,,VFR,,,,,,,,,,,,METAR,18.0
EGNM 171850Z 25015KT 9999 BKN013 05/03 Q1022,EGNM,2021-01-17T18:50:00Z,53.87,-1.65,5.0,3.0,250,15,,6.21,30.177166,,,,,,,,,,,BKN,1300,,,,,,,MVFR,,,,,,,,,,,,METAR,221.0
EGNJ 171850Z AUTO 22005KT 9999 NCD 05/03 Q1023,EGNJ,2021-01-17T18:50:00Z,53.57,-0.35,5.0,3.0,220,5,,6.21,30.206694,,,TRUE,,,,,,,,CLR,,,,,,,,VFR,,,,,,,,,,,,METAR,23.0
EGNH 171850Z 26012KT 9999 FEW017 SCT039 06/05 Q1024,EGNH,2021-01-17T18:50:00Z,53.77,-3.03,6.0,5.0,260,12,,6.21,30.236221,,,,,,,,,,,FEW,1700,SCT,3900,,,,,VFR,,,,,,,,,,,,METAR,10.0
EGMD 171850Z AUTO 24005KT 9999 NCD 05/03 Q1026,EGMD,2021-01-17T18:50:00Z,50.95,0.93,5.0,3.0,240,5,,6.21,30.295275,,,TRUE,,,,,,,,CLR,,,,,,,,VFR,,,,,,,,,,,,METAR,4.0
EGLL 171850Z AUTO 27005KT 9999 NCD 05/02 Q1027 NOSIG,EGLL,2021-01-17T18:50:00Z,51.48,-0.45,5.0,2.0,270,5,,6.21,30.324802,,,TRUE,,,TRUE,,,,,CLR,,,,,,,,VFR,,,,,,,,,,,,METAR,26.0
EGLF 171850Z AUTO 23007KT 9999 NCD 02/01 Q1027,EGLF,2021-01-17T18:50:00Z,51.28,-0.77,2.0,1.0,230,7,,6.21,30.324802,,,TRUE,,,,,,,,CLR,,,,,,,,VFR,,,,,,,,,,,,METAR,65.0
EGLC 171850Z AUTO 26009KT 9999 NCD 06/02 Q1027,EGLC,2021-01-17T18:50:00Z,51.5,0.05,6.0,2.0,260,9,,6.21,30.324802,,,TRUE,,,,,,,,CLR,,,,,,,,VFR,,,,,,,,,,,,METAR,10.0
EGKK 171850Z 22005KT CAVOK 04/01 Q1027,EGKK,2021-01-17T18:50:00Z,51.13,-0.18,4.0,1.0,220,5,,6.21,30.324802,,,,,,,,,,,CAVOK,,,,,,,,VFR,,,,,,,,,,,,METAR,58.0
EGKB 171850Z 26005KT 9999 FEW025 04/01 Q1026,EGKB,2021-01-17T18:50:00Z,51.32,0.02,4.0,1.0,260,5,,6.21,30.295275,,,,,,,,,,,FEW,2500,,,,,,,VFR,,,,,,,,,,,,METAR,183.0
EGJJ 171850Z 30005KT 9999 FEW025 06/03 Q1029,EGJJ,2021-01-17T18:50:00Z,49.22,-2.2,6.0,3.0,300,5,,6.21,30.383858,,,,,,,,,,,FEW,2500,,,,,,,VFR,,,,,,,,,,,,METAR,84.0
EGJB 171850Z 31004KT 9999 FEW022 06/03 Q1029,EGJB,2021-01-17T18:50:00Z,49.42,-2.6,6.0,3.0,310,4,,6.21,30.383858,,,,,,,,,,,FEW,2200,,,,,,,VFR,,,,,,,,,,,,METAR,102.0
EGHQ 171850Z AUTO 27005KT 9999 FEW023/// SCT031/// 06/03 Q1029,EGHQ,2021-01-17T18:50:00Z,50.43,-5.0,6.0,3.0,270,5,,6.21,30.383858,,,TRUE,,,,,,,,FEW,2300,SCT,3100,,,,,VFR,,,,,,,,,,,,METAR,101.0
EGGW 171850Z AUTO 27010KT 9999 NCD 04/02 Q1025,EGGW,2021-01-17T18:50:00Z,51.87,-0.37,4.0,2.0,270,10,,6.21,30.265747,,,TRUE,,,,,,,,CLR,,,,,,,,VFR,,,,,,,,,,,,METAR,159.0
EGGP 171850Z 26007KT CAVOK 04/03 Q1024,EGGP,2021-01-17T18:50:00Z,53.33,-2.85,4.0,3.0,260,7,,6.21,30.236221,,,,,,,,,,,CAVOK,,,,,,,,VFR,,,,,,,,,,,,METAR,23.0
EGGD 171850Z AUTO 26010KT 9999 NCD 05/04 Q1027,EGGD,2021-01-17T18:50:00Z,51.37,-2.72,5.0,4.0,260,10,,6.21,30.324802,,,TRUE,,,,,,,,CLR,,,,,,,,VFR,,,,,,,,,,,,METAR,182.0
EGFF 171850Z AUTO 29006KT 9999 NCD 06/05 Q1028,EGFF,2021-01-17T18:50:00Z,51.38,-3.35,6.0,5.0,290,6,,6.21,30.35433,,,TRUE,,,,,,,,CLR,,,,,,,,VFR,,,,,,,,,,,,METAR,65.0
EGDY 171850Z AUTO 24004KT 9999 BKN110/// 06/03 Q1028,EGDY,2021-01-17T18:50:00Z,51.0,-2.63,6.0,3.0,240,4,,6.21,30.35433,,,TRUE,,,,,,,,BKN,11000,,,,,,,VFR,,,,,,,,,,,,SPECI,21.0
EGDR 171850Z AUTO 28006KT 9999 // BKN180/// 06/03 Q1029,EGDR,2021-01-17T18:50:00Z,50.08,-5.25,6.0,3.0,280,6,,6.21,30.383858,,,TRUE,,,,,,,,BKN,18000,,,,,,,VFR,,,,,,,,,,,,METAR,74.0
EGDM 171850Z AUTO 27005KT 9999 OVC110/// 04/03 Q1027,EGDM,2021-01-17T18:50:00Z,51.17,-1.75,4.0,3.0,270,5,,6.21,30.324802,,,TRUE,,,,,,,,OVC,11000,,,,,,,VFR,,,,,,,,,,,,SPECI,122.0
EGCN 171850Z 24007KT CAVOK 05/02 Q1024,EGCN,2021-01-17T18:50:00Z,53.48,-1.0,5.0,2.0,240,7,,6.21,30.236221,,,,,,,,,,,CAVOK,,,,,,,,VFR,,,,,,,,,,,,METAR,9.0
EGCK 171850Z AUTO 24010KT 9999 FEW030/// 07/05 Q1025,EGCK,2021-01-17T18:50:00Z,53.1,-4.33,7.0,5.0,240,10,,6.21,30.265747,,,TRUE,,,,,,,,FEW,3000,,,,,,,VFR,,,,,,,,,,,,METAR,6.0
EGCC 171850Z AUTO 23005KT 180V240 9999 SCT044 04/03 Q1024,EGCC,2021-01-17T18:50:00Z,53.35,-2.27,4.0,3.0,230,5,,6.21,30.236221,,,TRUE,,,,,,,,SCT,4400,,,,,,,VFR,,,,,,,,,,,,METAR,78.0
EGBB 171850Z 25005KT 210V290 CAVOK 06/02 Q1025,EGBB,2021-01-17T18:50:00Z,52.47,-1.75,6.0,2.0,250,5,,6.21,30.265747,,,,,,,,,,,CAVOK,,,,,,,,VFR,,,,,,,,,,,,METAR,91.0
EGAC 171850Z AUTO 23010KT 9999 -RA BKN020/// BKN027/// 06/04 Q1022,EGAC,2021-01-17T18:50:00Z,54.62,-5.87,6.0,4.0,230,10,,6.21,30.177166,,,TRUE,,,,,,,-RA,BKN,2000,BKN,2700,,,,,MVFR,,,,,,,,,,,,METAR,2.0
EGAA 171850Z 23012KT 9999 SCT017 BKN023 05/04 Q1022,EGAA,2021-01-17T18:50:00Z,54.65,-6.22,5.0,4.0,230,12,,6.21,30.177166,,,,,,,,,,,SCT,1700,BKN,2300,,,,,MVFR,,,,,,,,,,,,METAR,65.0
EFVA 171850Z AUTO 18007KT 9999 OVC030 M02/M03 Q1013,EFVA,2021-01-17T18:50:00Z,63.05,21.77,-2.0,-3.0,180,7,,6.21,29.911417,,,TRUE,,,,,,,,OVC,3000,,,,,,,MVFR,,,,,,,,,,,,METAR,4.0
EFUT 171850Z AUTO 32005KT 290V350 9999 -SHSN OVC002 M06/M07 Q1015 REFZDZ,EFUT,2021-01-17T18:50:00Z,60.88,26.93,-6.0,-7.0,320,5,,6.21,29.970472,,,TRUE,,,,,,,-SHSN,OVC,200,,,,,,,LIFR,,,,,,,,,,,,METAR,104.0
EFTU 171850Z AUTO 08003KT 0550 R26/0650 FZFG VV001 M10/M11 Q1017,EFTU,2021-01-17T18:50:00Z,60.52,22.27,-10.0,-11.0,80,3,,0.34,30.029528,,,TRUE,,,,,,,FZFG,OVX,0,,,,,,,LIFR,,,,,,,,,,,100,METAR,47.0
EFTP 171850Z AUTO VRB02KT CAVOK M08/M09 Q1016,EFTP,2021-01-17T18:50:00Z,61.42,23.62,-8.0,-9.0,0,2,,6.21,30.0,,,TRUE,,,,,,,,CAVOK,,,,,,,,VFR,,,,,,,,,,,,METAR,111.0
EFSI 171850Z AUTO 19003KT 9999 FEW006 BKN042 M03/M03 Q1014,EFSI,2021-01-17T18:50:00Z,62.7,22.83,-3.0,-3.0,190,3,,6.21,29.940945,,,TRUE,,,,,,,,FEW,600,BKN,4200,,,,,VFR,,,,,,,,,,,,METAR,90.0
EFSA 171850Z AUTO 29005KT 250V320 9999 OVC004 M05/M06 Q1014,EFSA,2021-01-17T18:50:00Z,61.95,28.93,-5.0,-6.0,290,5,,6.21,29.940945,,,TRUE,,,,,,,,OVC,400,,,,,,,LIFR,,,,,,,,,,,,METAR,90.0
EFRO 171850Z AUTO 24006KT 9999 FEW001 M11/M12 Q1009 REFZDZ,EFRO,2021-01-17T18:50:00Z,66.57,25.82,-11.0,-12.0,240,6,,6.21,29.793306,,,TRUE,,,,,,,,FEW,100,,,,,,,VFR,,,,,,,,,,,,METAR,201.0
EFPO 171850Z AUTO 14007KT 5000 FZUP OVC002 M07/M07 Q1016,EFPO,2021-01-17T18:50:00Z,61.47,21.8,-7.0,-7.0,140,7,,3.11,30.0,,,TRUE,,,,,,,UP,OVC,200,,,,,,,LIFR,,,,,,,,,,,,METAR,10.0
EFOU 171850Z AUTO 28006KT 250V310 CAVOK M03/M04 Q1012,EFOU,2021-01-17T18:50:00Z,64.92,25.37,-3.0,-4.0,280,6,,6.21,29.88189,,,TRUE,,,,,,,,CAVOK,,,,,,,,VFR,,,,,,,,,,,,METAR,15.0
EFMA 171850Z AUTO 30005KT 9999 OVC024 M01/M04 Q1017,EFMA,2021-01-17T18:50:00Z,60.12,19.9,-1.0,-4.0,300,5,,6.21,30.029528,,,TRUE,,,,,,,,OVC,2400,,,,,,,MVFR,,,,,,,,,,,,METAR,6.0
EFKU 171850Z AUTO 26004KT 9999 -SHSN BKN006 OVC044 M04/M04 Q1013,EFKU,2021-01-17T18:50:00Z,63.02,27.8,-4.0,-4.0,260,4,,6.21,29.911417,,,TRUE,,,,,,,-SHSN,BKN,600,OVC,4400,,,,,IFR,,,,,,,,,,,,METAR,92.0
EFKT 171850Z AUTO VRB01KT CAVOK M15/M17 Q1008,EFKT,2021-01-17T18:50:00Z,67.7,24.85,-15.0,-17.0,0,1,,6.21,29.763779,,,TRUE,,,,,,,,CAVOK,,,,,,,,VFR,,,,,,,,,,,,METAR,190.0
EFKS 171850Z 31002KT 9999 OVC005 M09/M10 Q1008,EFKS,2021-01-17T18:50:00Z,66.0,29.23,-9.0,-10.0,310,2,,6.21,29.763779,,,,,,,,,,,OVC,500,,,,,,,IFR,,,,,,,,,,,,METAR,270.0
EFKK 171850Z AUTO 17005KT 9999 BKN003 M03/M03 Q1013,EFKK,2021-01-17T18:50:00Z,63.72,23.13,-3.0,-3.0,170,5,,6.21,29.911417,,,TRUE,,,,,,,,BKN,300,,,,,,,LIFR,,,,,,,,,,,,METAR,25.0
EFKI 171850Z AUTO 25008KT 6000 -SN OVC007 M03/M04 Q1011,EFKI,2021-01-17T18:50:00Z,64.27,27.67,-3.0,-4.0,250,8,,3.73,29.852362,,,TRUE,,,,,,,-SN,OVC,700,,,,,,,IFR,,,,,,,,,,,,METAR,132.0
EFKE 171850Z AUTO 20003KT CAVOK M15/M16 Q1011,EFKE,2021-01-17T18:50:00Z,65.78,24.57,-15.0,-16.0,200,3,,6.21,29.852362,,,TRUE,,,,,,,,CAVOK,,,,,,,,VFR,,,,,,,,,,,,METAR,15.0
EFJY 171850Z AUTO VRB01KT 9999 SCT005 OVC050 M05/M06 Q1014,EFJY,2021-01-17T18:50:00Z,62.4,25.68,-5.0,-6.0,0,1,,6.21,29.940945,,,TRUE,,,,,,,,SCT,500,OVC,5000,,,,,VFR,,,,,,,,,,,,METAR,139.0
EFJO 171850Z AUTO 29008KT 9999 OVC006 M04/M04 Q1012,EFJO,2021-01-17T18:50:00Z,62.67,29.62,-4.0,-4.0,290,8,,6.21,29.88189,,,TRUE,,,,,,,,OVC,600,,,,,,,IFR,,,,,,,,,,,,METAR,118.0
EFIV 171850Z AUTO 25007KT CAVOK M08/M10 Q1006,EFIV,2021-01-17T18:50:00Z,68.62,27.42,-8.0,-10.0,250,7,,6.21,29.704725,,,TRUE,,,,,,,,CAVOK,,,,,,,,VFR,,,,,,,,,,,,METAR,145.0
EFHK 171850Z 27002KT 9999 SCT010 BKN025 M10/M11 Q1017 NOSIG,EFHK,2021-01-17T18:50:00Z,60.32,24.97,-10.0,-11.0,270,2,,6.21,30.029528,,,,,,TRUE,,,,,SCT,1000,BKN,2500,,,,,MVFR,,,,,,,,,,,,METAR,56.0
EFHA 171850Z AUTO 21003KT 9999 BKN004 BKN050 M06/M06 Q1015,EFHA,2021-01-17T18:50:00Z,61.85,24.8,-6.0,-6.0,210,3,,6.21,29.970472,,,TRUE,,,,,,,,BKN,400,BKN,5000,,,,,LIFR,,,,,,,,,,,,METAR,144.0
EFET 171850Z AUTO 24003KT 6000 OVC001 M19/M22 Q1007,EFET,2021-01-17T18:50:00Z,68.37,23.43,-19.0,-22.0,240,3,,3.73,29.734253,,,TRUE,,,,,,,,OVC,100,,,,,,,LIFR,,,,,,,,,,,,METAR,300.0
EETU 171850Z AUTO 26009KT 9999 BKN008/// OVC070/// M09/M10 Q1018 RESN,EETU,2021-01-17T18:50:00Z,58.32,26.68,-9.0,-10.0,260,9,,6.21,30.059055,,,TRUE,,,,,,,,BKN,800,OVC,7000,,,,,IFR,,,,,,,,,,,,METAR,67.0
EETN 171850Z VRB02KT 9999 BKN021 M07/M08 Q1018 R08/81//95 TEMPO SCT013CB,EETN,2021-01-17T18:50:00Z,59.4,24.82,-7.0,-8.0,0,2,,6.21,30.059055,,,,,,,,,,,BKN,2100,,,,,,,MVFR,,,,,,,,,,,,METAR,41.0
EEKE 171850Z AUTO 21009KT 9999NDV -SN OVC021 M03/M04 Q1019,EEKE,2021-01-17T18:50:00Z,58.23,22.52,-3.0,-4.0,210,9,,,30.088583,,,TRUE,,,,,,,-SN,OVC,2100,,,,,,,,,,,,,,,,,,,METAR,4.0
EEEI 171850Z 16003KT 130V190 9999 -SN OVC018 M06/M07 Q1018 R24/190095 NOSIG,EEEI,2021-01-17T18:50:00Z,59.27,24.2,-6.0,-7.0,160,3,,6.21,30.059055,,,,,,TRUE,,,,-SN,OVC,1800,,,,,,,MVFR,,,,,,,,,,,,METAR,19.0
EDXW 171850Z AUTO 16011KT 9999 // OVC011/// 01/M01 Q1018,EDXW,2021-01-17T18:50:00Z,54.92,8.33,1.0,-1.0,160,11,,6.21,30.059055,,,TRUE,,,,,,,,OVC,1100,,,,,,,MVFR,,,,,,,,,,,,METAR,8.0
EDVE 171850Z AUTO 11003KT 090V150 9999 // OVC027/// M01/M05 Q1020,EDVE,2021-01-17T18:50:00Z,52.32,10.55,-1.0,-5.0,110,3,,6.21,30.11811,,,TRUE,,,,,,,,OVC,2700,,,,,,,MVFR,,,,,,,,,,,,METAR,83.0
EDTY 171850Z AUTO 24006KT 2300 // OVC002/// M01/M01 Q1021,EDTY,2021-01-17T18:50:00Z,49.12,9.78,-1.0,-1.0,240,6,,1.43,30.147638,,,TRUE,,,,,,,,OVC,200,,,,,,,LIFR,,,,,,,,,,,,METAR,398.0
EDSB 171850Z 20008KT 9999 OVC011 01/00 Q1024,EDSB,2021-01-17T18:50:00Z,48.78,8.08,1.0,0.0,200,8,,6.21,30.236221,,,,,,,,,,,OVC,1100,,,,,,,MVFR,,,,,,,,,,,,METAR,122.0
EDNY 171850Z AUTO 24003KT 9999 // BKN011/// OVC033/// 01/00 Q1022,EDNY,2021-01-17T18:50:00Z,47.67,9.52,1.0,0.0,240,3,,6.21,30.177166,,,TRUE,,,,,,,,BKN,1100,OVC,3300,,,,,MVFR,,,,,,,,,,,,METAR,411.0
EDMO 171850Z AUTO 25004KT 3800 // BKN009/// BKN020/// OVC024/// M02/M02 Q1020,EDMO,2021-01-17T18:50:00Z,48.07,11.27,-2.0,-2.0,250,4,,2.36,30.11811,,,TRUE,,,,,,,,BKN,900,BKN,2000,OVC,2400,,,IFR,,,,,,,,,,,,METAR,587.0
EDMA 171850Z 00000KT 4300 -SN FEW006 BKN022 OVC041 M02/M02 Q1020,EDMA,2021-01-17T18:50:00Z,48.42,10.92,-2.0,-2.0,0,0,,2.67,30.11811,,,,,,,,,,-SN,FEW,600,BKN,2200,OVC,4100,,,IFR,,,,,,,,,,,,METAR,462.0
EDLW 171850Z 27003KT 230V330 4500 -RA BR FEW005 SCT012 BKN014 04/03 Q1020,EDLW,2021-01-17T18:50:00Z,51.52,7.62,4.0,3.0,270,3,,2.8,30.11811,,,,,,,,,,-RA BR,FEW,500,SCT,1200,BKN,1400,,,IFR,,,,,,,,,,,,METAR,122.0
EDLV 171850Z 28005KT 9999 BKN013 05/04 Q1022,EDLV,2021-01-17T18:50:00Z,51.6,6.15,5.0,4.0,280,5,,6.21,30.177166,,,,,,,,,,,BKN,1300,,,,,,,MVFR,,,,,,,,,,,,METAR,27.0
EDLN 171850Z 28005KT 240V310 9999 -RA SCT007 BKN023 OVC032 05/04 Q1022,EDLN,2021-01-17T18:50:00Z,51.23,6.5,5.0,4.0,280,5,,6.21,30.177166,,,,,,,,,,-RA,SCT,700,BKN,2300,OVC,3200,,,MVFR,,,,,,,,,,,,METAR,38.0
EDJA 171850Z 24008KT 8000 -SN SCT012 OVC017 M00/M00 Q1020,EDJA,2021-01-17T18:50:00Z,47.98,10.23,0.0,0.0,240,8,,4.97,30.11811,,,,,,,,,,-SN,SCT,1200,OVC,1700,,,,,MVFR,,,,,,,,,,,,METAR,625.0
EDHL 171850Z 15004KT 110V200 CAVOK M02/M05 Q1020,EDHL,2021-01-17T18:50:00Z,53.8,10.72,-2.0,-5.0,150,4,,6.21,30.11811,,,,,,,,,,,CAVOK,,,,,,,,VFR,,,,,,,,,,,,METAR,13.0
EDHK 171850Z AUTO 17007KT 150V220 9999 // FEW029/// OVC073/// M01/M05 Q1020,EDHK,2021-01-17T18:50:00Z,54.38,10.15,-1.0,-5.0,170,7,,6.21,30.11811,,,TRUE,,,,,,,,FEW,2900,OVC,7300,,,,,VFR,,,,,,,,,,,,METAR,24.0
EDFM 171850Z VRB02KT 4800 BR OVC019 01/01 Q1023,EDFM,2021-01-17T18:50:00Z,49.47,8.52,1.0,1.0,0,2,,2.98,30.206694,,,,,,,,,,BR,OVC,1900,,,,,,,IFR,,,,,,,,,,,,METAR,94.0
EDFH 171850Z 28010KT 2500 BR BKN002 01/01 Q1021,EDFH,2021-01-17T18:50:00Z,49.95,7.27,1.0,1.0,280,10,,1.55,30.147638,,,,,,,,,,BR,BKN,200,,,,,,,LIFR,,,,,,,,,,,,METAR,494.0
EDDW 171850Z 16004KT 8000 BKN007 00/M01 Q1019 R88/190095 TEMPO 4500,EDDW,2021-01-17T18:50:00Z,53.03,8.8,0.0,-1.0,160,4,,4.97,30.088583,,,,,,,,,,,BKN,700,,,,,,,IFR,,,,,,,,,,,,METAR,5.0
EDDV 171850Z 14003KT 110V170 4500 -SN SCT012 BKN022 M00/M02 Q1020 TEMPO 6000 BKN012,EDDV,2021-01-17T18:50:00Z,52.47,9.68,0.0,-2.0,140,3,,2.8,30.11811,,,,,,,,,,-SN,SCT,1200,BKN,2200,,,,,IFR,,,,,,,,,,,,METAR,53.0
EDDS 171850Z VRB02KT 7000 -SN FEW007 OVC010 01/00 Q1021 R25/29//94 TEMPO 4000 BR,EDDS,2021-01-17T18:50:00Z,48.68,9.22,1.0,0.0,0,2,,4.35,30.147638,,,,,,,,,,-SN,FEW,700,OVC,1000,,,,,MVFR,,,,,,,,,,,,SPECI,374.0
EDDR 171850Z 26007KT 6000 BKN005 BKN013 01/01 Q1023 NOSIG,EDDR,2021-01-17T18:50:00Z,49.22,7.1,1.0,1.0,260,7,,3.73,30.206694,,,,,,TRUE,,,,,BKN,500,BKN,1300,,,,,IFR,,,,,,,,,,,,METAR,317.0
EDDP 171850Z 16005KT CAVOK M05/M08 Q1020 NOSIG,EDDP,2021-01-17T18:50:00Z,51.43,12.23,-5.0,-8.0,160,5,,6.21,30.11811,,,,,,TRUE,,,,,CAVOK,,,,,,,,VFR,,,,,,,,,,,,METAR,129.0
EDDN 171850Z VRB01KT 5000 -SN SCT006 BKN012 M02/M03 Q1021 R28/290094 TEMPO 3500 BKN006,EDDN,2021-01-17T18:50:00Z,49.5,11.05,-2.0,-3.0,0,1,,3.11,30.147638,,,,,,,,,,-SN,SCT,600,BKN,1200,,,,,MVFR,,,,,,,,,,,,METAR,312.0
EDDM 171850Z 22001KT 2500 1100N R08L/0500N R26L/P2000N -SN BCFG FEW006 SCT010 M05/M05 Q1021 R26L/290195 TEMPO 0800 FZFG,EDDM,2021-01-17T18:50:00Z,48.35,11.82,-5.0,-5.0,220,1,,1.55,30.147638,,,,,,,,,,BCFG -SN,FEW,600,SCT,1000,,,,,IFR,,,,,,,,,,,,METAR,445.0
EDDL 171850Z 25004KT 9999 FEW012 SCT016 BKN020 04/03 Q1021 NOSIG,EDDL,2021-01-17T18:50:00Z,51.3,6.77,4.0,3.0,250,4,,6.21,30.147638,,,,,,TRUE,,,,,FEW,1200,SCT,1600,BKN,2000,,,MVFR,,,,,,,,,,,,METAR,37.0
EDDK 171850Z VRB01KT 8000 -RA SCT017 BKN022 01/01 Q1022 R14L/190195 R06/190195 BECMG 27005KT,EDDK,2021-01-17T18:50:00Z,50.87,7.15,1.0,1.0,0,1,,4.97,30.177166,,,,,,,,,,-RA,SCT,1700,BKN,2200,,,,,MVFR,,,,,,,,,,,,METAR,92.0
EDDH 171850Z 15009KT 9999 -SN BKN019 M00/M04 Q1020 NOSIG,EDDH,2021-01-17T18:50:00Z,53.63,10.0,0.0,-4.0,150,9,,6.21,30.11811,,,,,,TRUE,,,,-SN,BKN,1900,,,,,,,MVFR,,,,,,,,,,,,METAR,8.0
EDDG 171850Z 28003KT 240V330 1600 -RA BR FEW008 BKN030 01/01 Q1020 BECMG 3500,EDDG,2021-01-17T18:50:00Z,52.13,7.7,1.0,1.0,280,3,,0.99,30.11811,,,,,,,,,,-RA BR,FEW,800,BKN,3000,,,,,LIFR,,,,,,,,,,,,METAR,46.0
EDDF 171850Z 22005KT 5000 BR FEW003 BKN004 BKN012 00/M00 Q1022 R25C/290095 R25L/290095 R18/290095 TEMPO SCT004,EDDF,2021-01-17T18:50:00Z,50.05,8.6,0.0,0.0,220,5,,3.11,30.177166,,,,,,,,,,BR,FEW,300,BKN,400,BKN,1200,,,LIFR,,,,,,,,,,,,METAR,113.0
EDDE 171850Z 19004KT 9999 -SN FEW014 OVC022 M03/M05 Q1019 R88/920095 TEMPO 4000 -SN BKN014,EDDE,2021-01-17T18:50:00Z,50.98,10.97,-3.0,-5.0,190,4,,6.21,30.088583,,,,,,,,,,-SN,FEW,1400,OVC,2200,,,,,MVFR,,,,,,,,,,,,METAR,314.0
EDDC 171850Z 20002KT CAVOK M04/M07 Q1021 NOSIG,EDDC,2021-01-17T18:50:00Z,51.13,13.75,-4.0,-7.0,200,2,,6.21,30.147638,,,,,,TRUE,,,,,CAVOK,,,,,,,,VFR,,,,,,,,,,,,METAR,227.0
EDDB 171850Z 12004KT 9999 BKN022 M03/M05 Q1022 R88/D NOSIG,EDDB,2021-01-17T18:50:00Z,52.38,13.53,-3.0,-5.0,120,4,,6.21,30.177166,,,,,,TRUE,,,,,BKN,2200,,,,,,,MVFR,,,,,,,,,,,,METAR,48.0
EDAC 171850Z AUTO 14004KT 9999 // NCD M07/M09 Q1020,EDAC,2021-01-17T18:50:00Z,50.98,12.5,-7.0,-9.0,140,4,,6.21,30.11811,,,TRUE,,,,,,,,CLR,,,,,,,,VFR,,,,,,,,,,,,METAR,193.0
EBOS 171850Z 30012KT 9999 FEW020 BKN037 06/03 Q1025 NOSIG,EBOS,2021-01-17T18:50:00Z,51.2,2.87,6.0,3.0,300,12,,6.21,30.265747,,,,,,TRUE,,,,,FEW,2000,BKN,3700,,,,,VFR,,,,,,,,,,,,METAR,5.0
EBLG 171850Z 27007KT 9999 FEW008 BKN010 03/03 Q1023 TEMPO 4000 SHRA BKN008,EBLG,2021-01-17T18:50:00Z,50.63,5.45,3.0,3.0,270,7,,6.21,30.206694,,,,,,,,,,,FEW,800,BKN,1000,,,,,MVFR,,,,,,,,,,,,METAR,187.0
EBCI 171850Z 26006KT 9999 FEW014 BKN030 03/02 Q1024 NOSIG,EBCI,2021-01-17T18:50:00Z,50.47,4.45,3.0,2.0,260,6,,6.21,30.236221,,,,,,TRUE,,,,,FEW,1400,BKN,3000,,,,,MVFR,,,,,,,,,,,,METAR,176.0
EBBR 171850Z 27007KT 9999 FEW018 BKN043 05/03 Q1024 NOSIG,EBBR,2021-01-17T18:50:00Z,50.9,4.52,5.0,3.0,270,7,,6.21,30.236221,,,,,,TRUE,,,,,FEW,1800,BKN,4300,,,,,VFR,,,,,,,,,,,,METAR,49.0
EBAW 171850Z 28007KT 9999 FEW020 BKN032 06/03 Q1024 NOSIG,EBAW,2021-01-17T18:50:00Z,51.2,4.47,6.0,3.0,280,7,,6.21,30.236221,,,,,,TRUE,,,,,FEW,2000,BKN,3200,,,,,VFR,,,,,,,,,,,,METAR,7.0
BGSF 171850Z AUTO 19012KT 9999NDV BKN070/// BKN085/// M06/M13 Q1014,BGSF,2021-01-17T18:50:00Z,67.0,-50.72,-6.0,-13.0,190,12,,,29.940945,,,TRUE,,,,,,,,BKN,7000,BKN,8500,,,,,,,,,,,,,,,,,SPECI,75.0
BGKK 171850Z AUTO 25003KT 9999NDV NCD M06/M08 Q1011,BGKK,2021-01-17T18:50:00Z,65.57,-37.13,-6.0,-8.0,250,3,,,29.852362,,,TRUE,,,,,,,,CLR,,,,,,,,,,,,,,,,,,,,SPECI,37.0
BGJN 171850Z AUTO 15010KT 5000NDV -SN FEW014/// SCT022/// BKN046/// BKN060/// M06/M09 Q1012,BGJN,2021-01-17T18:50:00Z,69.25,-51.07,-6.0,-9.0,150,10,,,29.88189,,,TRUE,,,,,,,-SN,FEW,1400,SCT,2200,BKN,4600,BKN,6000,,,,,,,,,,,,,SPECI,22.0
BGGH 171850Z 21011KT 9999 DRSN VCSH SCT025 BKN030 M04/M09 Q1017,BGGH,2021-01-17T18:50:00Z,64.2,-51.68,-4.0,-9.0,210,11,,6.21,30.029528,,,,,,,,,,DRSN VCSH,SCT,2500,BKN,3000,,,,,MVFR,,,,,,,,,,,,METAR,76.0
BGBW 171850Z AUTO 00000KT 9999NDV NCD M05/M10 Q1019,BGBW,2021-01-17T18:50:00Z,61.17,-45.42,-5.0,-10.0,0,0,,,30.088583,,,TRUE,,,,,,,,CLR,,,,,,,,,,,,,,,,,,,,SPECI,49.0
MMVR 171848Z 16006KT 7SM FEW020 SCT040 BKN070 24/16 A2999 RMK 8/850 HZY VC FU S,MMVR,2021-01-17T18:48:00Z,19.15,-96.18,24.0,16.0,160,6,,7.0,29.991142,,,,,,,,,,,FEW,2000,SCT,4000,BKN,7000,,,VFR,,,,,,,,,,,,METAR,26.0
MMTO 171848Z 28004KT 7SM SCT015 OVC070 17/04 A3033 RMK 8/23/ HZY BINOVC,MMTO,2021-01-17T18:48:00Z,19.35,-99.57,17.0,4.0,280,4,,7.0,30.33071,,,,,,,,,,,SCT,1500,OVC,7000,,,,,VFR,,,,,,,,,,,,METAR,2582.0
MMCP 171848Z 10007KT 7SM FEW150 FEW300 25/14 A3003 RMK 8/081,MMCP,2021-01-17T18:48:00Z,19.82,-90.5,25.0,14.0,100,7,,7.0,30.029528,,,,,,,,,,,FEW,15000,FEW,30000,,,,,VFR,,,,,,,,,,,,METAR,9.0
KTOA 171848Z 00000KT 10SM SKC 26/M04 A3003,KTOA,2021-01-17T18:48:00Z,33.8,-118.33,26.0,-4.0,0,0,,10.0,30.029528,,,,,,,,,,,SKC,,,,,,,,VFR,,,,,,,,,,,,METAR,30.0
KRME 171848Z 27007KT 3SM -SN BR BKN007 OVC013 01/M01 A2953 RMK AO2 CIG 004V011 SLP002 P0001 T00111006,KRME,2021-01-17T18:48:00Z,43.22,-75.4,1.1,-0.6,270,7,,3.0,29.530512,1000.2,,,TRUE,,,,,,-SN BR,BKN,700,OVC,1300,,,,,IFR,,,,,,0.01,,,,,,SPECI,146.0
KJDN 171848Z AUTO 00000KT 03/M07 A2982 RMK AO1 SLP127 T00281067,KJDN,2021-01-17T18:48:00Z,47.33,-106.95,2.8,-6.7,0,0,,,29.819881,1012.7,,TRUE,TRUE,,,,,,,,,,,,,,,,,,,,,,,,,,,METAR,802.0
KGEU 171848Z 00000KT 10SM CLR 19/M11 A3011,KGEU,2021-01-17T18:48:00Z,33.53,-112.3,19.0,-11.0,0,0,,10.0,30.109253,,,,,,,,,,,CLR,,,,,,,,VFR,,,,,,,,,,,,METAR,319.0
KFWS 171848Z 33006KT 10SM CLR 14/M03 A3014,KFWS,2021-01-17T18:48:00Z,32.57,-97.3,14.0,-3.0,330,6,,10.0,30.138779,,,,,,,,,,,CLR,,,,,,,,VFR,,,,,,,,,,,,METAR,211.0
KBBG 171848Z 25013G20KT 10SM SCT065 07/M04 A2991,KBBG,2021-01-17T18:48:00Z,36.53,-93.2,7.0,-4.0,250,13,20,10.0,29.911417,,,,,,,,,,,SCT,6500,,,,,,,VFR,,,,,,,,,,,,METAR,403.0
KASG 171848Z 28012G18KT 10SM FEW090 07/M03 A2995,KASG,2021-01-17T18:48:00Z,36.17,-94.12,7.0,-3.0,280,12,18,10.0,29.949802,,,,,,,,,,,FEW,9000,,,,,,,VFR,,,,,,,,,,,,METAR,410.0
MMMD 171847Z 31004KT 7SM BKN020 BKN070 BKN300 23/13 A3005 RMK 8/538 HZY,MMMD,2021-01-17T18:47:00Z,20.95,-89.65,23.0,13.0,310,4,,7.0,30.050198,,,,,,,,,,,BKN,2000,BKN,7000,BKN,30000,,,MVFR,,,,,,,,,,,,METAR,10.0
MMMA 171847Z 31004KT 8SM BKN030 22/16 A3007 RMK 8/500 ISOL AC,MMMA,2021-01-17T18:47:00Z,25.77,-97.52,22.0,16.0,310,4,,8.0,30.070866,,,,,,,,,,,BKN,3000,,,,,,,MVFR,,,,,,,,,,,,METAR,7.0
MMGM 171847Z 24006KT 10SM SKC 24/08 A2994,MMGM,2021-01-17T18:47:00Z,27.95,-110.92,24.0,8.0,240,6,,10.0,29.940945,,,,,,,,,,,SKC,,,,,,,,VFR,,,,,,,,,,,,METAR,13.0
KSUA 171847Z VRB04KT 10SM OVC055 17/06 A3004,KSUA,2021-01-17T18:47:00Z,27.18,-80.22,17.0,6.0,0,4,,10.0,30.041338,,,,,,,,,,,OVC,5500,,,,,,,VFR,,,,,,,,,,,,METAR,4.0
KSQL 171847Z 00000KT 10SM SKC 19/05 A3016,KSQL,2021-01-17T18:47:00Z,37.52,-122.25,19.0,5.0,0,0,,10.0,30.159449,,,,,,,,,,,SKC,,,,,,,,VFR,,,,,,,,,,,,METAR,1.0
KRHV 171847Z 00000KT 10SM SKC 17/07 A3017,KRHV,2021-01-17T18:47:00Z,37.33,-121.82,17.0,7.0,0,0,,10.0,30.171259,,,,,,,,,,,SKC,,,,,,,,VFR,,,,,,,,,,,,METAR,37.0
KPOC 171847Z 00000KT 10SM CLR 25/M02 A3006,KPOC,2021-01-17T18:47:00Z,34.1,-117.77,25.0,-2.0,0,0,,10.0,30.059055,,,,,,,,,,,CLR,,,,,,,,VFR,,,,,,,,,,,,METAR,304.0
KPAO 171847Z 00000KT 10SM SKC 20/06 A3015,KPAO,2021-01-17T18:47:00Z,37.47,-122.12,20.0,6.0,0,0,,10.0,30.15059,,,,,,,,,,,SKC,,,,,,,,VFR,,,,,,,,,,,,METAR,2.0
KLBE 171847Z 21008KT 5SM -SN OVC011 00/00 A2970,KLBE,2021-01-17T18:47:00Z,40.27,-79.4,0.0,0.0,210,8,,5.0,29.698818,,,,,,,,,,-SN,OVC,1100,,,,,,,MVFR,,,,,,,,,,,,METAR,345.0
KIFP 171847Z 36020KT 20SM FEW120 19/M05 A3012,KIFP,2021-01-17T18:47:00Z,35.15,-114.57,19.0,-5.0,360,20,,20.0,30.121063,,,,,,,,,,,FEW,12000,,,,,,,VFR,,,,,,,,,,,,METAR,210.0
KHUM 171847Z 27009KT 7SM CLR 15/M01 A3007,KHUM,2021-01-17T18:47:00Z,29.57,-90.67,15.0,-1.0,270,9,,7.0,30.070866,,,,,,,,,,,CLR,,,,,,,,VFR,,,,,,,,,,,,METAR,1.0
KGYR 171847Z 06005KT 10SM SCT250 21/M08 A3009,KGYR,2021-01-17T18:47:00Z,33.42,-112.37,21.0,-8.0,60,5,,10.0,30.088583,,,,,,,,,,,SCT,25000,,,,,,,VFR,,,,,,,,,,,,METAR,292.0
KGYH 171847Z 25008G16KT 10SM BKN045 07/M03 A2987,KGYH,2021-01-17T18:47:00Z,34.75,-82.38,7.0,-3.0,250,8,16,10.0,29.870079,,,,,,,,,,,BKN,4500,,,,,,,VFR,,,,,,,,,,,,METAR,283.0
KFDK 171847Z 2801322KT 10SM BKN048 08/M03 A2974,KFDK,2021-01-17T18:47:00Z,39.42,-77.37,8.0,-3.0,280,13,,10.0,29.740158,,,,,,,,,,,BKN,4800,,,,,,,VFR,,,,,,,,,,,,METAR,82.0
KEVB 171847Z 23007KT 10SM FEW035 SCT070 15/06 A3000,KEVB,2021-01-17T18:47:00Z,29.05,-80.95,15.0,6.0,230,7,,10.0,30.0,,,,,,,,,,,FEW,3500,SCT,7000,,,,,VFR,,,,,,,,,,,,METAR,2.0
KCWA 171847Z 30007KT 10SM OVC021 M03/M07 A2969,KCWA,2021-01-17T18:47:00Z,44.78,-89.67,-3.0,-7.0,300,7,,10.0,29.68996,,,,,,,,,,,OVC,2100,,,,,,,MVFR,,,,,,,,,,,,METAR,387.0
KCHD 171847Z VRB05KT 10SM CLR 19/M07 A3009,KCHD,2021-01-17T18:47:00Z,33.27,-111.82,19.0,-7.0,0,5,,10.0,30.088583,,,,,,,,,,,CLR,,,,,,,,VFR,,,,,,,,,,,,METAR,378.0
KCFO 171847Z 11005KT 10SM SCT100 08/M09 A3000,KCFO,2021-01-17T18:47:00Z,39.78,-104.55,8.0,-9.0,110,5,,10.0,30.0,,,,,,,,,,,SCT,10000,,,,,,,VFR,,,,,,,,,,,,METAR,1672.0
KAEG 171847Z 00000KT 10SM CLR 10/M12 A3016,KAEG,2021-01-17T18:47:00Z,35.13,-106.8,10.0,-12.0,0,0,,10.0,30.159449,,,,,,,,,,,CLR,,,,,,,,VFR,,,,,,,,,,,,METAR,1771.0
KADS 171847Z 32009KT 10SM BKN090 13/M04 A3013,KADS,2021-01-17T18:47:00Z,32.97,-96.83,13.0,-4.0,320,9,,10.0,30.129921,,,,,,,,,,,BKN,9000,,,,,,,VFR,,,,,,,,,,,,METAR,198.0
RKSF 171846Z 16002KT 9999 -SN BKN040 M02/M06 A3014 RMK CIG040,RKSF,2021-01-17T18:46:00Z,37.5,126.92,-2.0,-6.0,160,2,,6.21,30.138779,,,,,,,,,,-SN,BKN,4000,,,,,,,VFR,,,,,,,,,,,,METAR,49.0
MMTG 171846Z 04003KT 7SM BKN080 26/16 A2997 RMK 8/030 HZY,MMTG,2021-01-17T18:46:00Z,16.57,-93.03,26.0,16.0,40,3,,7.0,29.970472,,,,,,,,,,,BKN,8000,,,,,,,VFR,,,,,,,,,,,,METAR,463.0
MMQT 171846Z 21007KT 7SM SCT020 BKN100 BKN250 20/06 A3027 RMK 8/558,MMQT,2021-01-17T18:46:00Z,20.62,-100.18,20.0,6.0,210,7,,7.0,30.268702,,,,,,,,,,,SCT,2000,BKN,10000,BKN,25000,,,VFR,,,,,,,,,,,,SPECI,1909.0
MMCS 171846Z 00000KT 10SM BKN250 13/M11 A3018 RMK 8/008,MMCS,2021-01-17T18:46:00Z,31.63,-106.42,13.0,-11.0,0,0,,10.0,30.180119,,,,,,,,,,,BKN,25000,,,,,,,VFR,,,,,,,,,,,,METAR,1194.0
MMAA 171846Z 23007KT 7SM FEW300 29/24 A2988 RMK 8/002 HZY DSNT TCU NE,MMAA,2021-01-17T18:46:00Z,16.75,-99.75,29.0,24.0,230,7,,7.0,29.878937,,,,,,,,,,,FEW,30000,,,,,,,VFR,,,,,,,,,,,,METAR,5.0
KLAL 171846Z 20003KT 10SM SCT060 14/08 A3003,KLAL,2021-01-17T18:46:00Z,27.98,-82.02,14.0,8.0,200,3,,10.0,30.029528,,,,,,,,,,,SCT,6000,,,,,,,VFR,,,,,,,,,,,,METAR,39.0
TJIG 171845Z 10005KT 7SM VCSH SCT030 BKN060 26/23 A2997 RMK VCSH S,TJIG,2021-01-17T18:45:00Z,18.45,-66.1,26.0,23.0,100,5,,7.0,29.970472,,,,,,,,,,VCSH,SCT,3000,BKN,6000,,,,,VFR,,,,,,,,,,,,METAR,3.0
PALP 171845Z 10006KT 10SM OVC012 M24/M27 A2988,PALP,2021-01-17T18:45:00Z,70.33,-150.93,-24.0,-27.0,100,6,,10.0,29.878937,,,,,,,,,,,OVC,1200,,,,,,,MVFR,,,,,,,,,,,,METAR,4.0
PAKU 171845Z 09004KT 10SM R06/P6000FT BKN014 BKN170 M26/M31 A2987,PAKU,2021-01-17T18:45:00Z,70.32,-149.6,-26.0,-31.0,90,4,,10.0,29.870079,,,,,,,,,,,BKN,1400,BKN,17000,,,,,MVFR,,,,,,,,,,,,METAR,23.0
MMSD 171845Z 14011KT 12SM SKC 27/00 A2999,MMSD,2021-01-17T18:45:00Z,23.15,-109.72,27.0,0.0,140,11,,12.0,29.991142,,,,,,,,,,,SKC,,,,,,,,VFR,,,,,,,,,,,,METAR,107.0
MMMM 171845Z 33008KT 8SM BKN030 BKN200 21/06 A3021 RMK 8/502 HZY AC,MMMM,2021-01-17T18:45:00Z,19.85,-101.03,21.0,6.0,330,8,,8.0,30.209646,,,,,,,,,,,BKN,3000,BKN,20000,,,,,MVFR,,,,,,,,,,,,SPECI,1840.0
MMLM 171845Z 27003KT 10SM SKC 24/10 A2998 RMK HZY,MMLM,2021-01-17T18:45:00Z,25.68,-109.08,24.0,10.0,270,3,,10.0,29.97933,,,,,,,,,,,SKC,,,,,,,,VFR,,,,,,,,,,,,SPECI,6.0
MMCZ 171845Z 34006KT 8SM FEW015 OVC080 22/16 A3002 RMK 8/57/,MMCZ,2021-01-17T18:45:00Z,20.52,-86.92,22.0,16.0,340,6,,8.0,30.02067,,,,,,,,,,,FEW,1500,OVC,8000,,,,,VFR,,,,,,,,,,,,METAR,7.0
MMCL 171845Z 00000KT 10SM SKC 25/09 A2994 RMK HZY,MMCL,2021-01-17T18:45:00Z,24.77,-107.47,25.0,9.0,0,0,,10.0,29.940945,,,,,,,,,,,SKC,,,,,,,,VFR,,,,,,,,,,,,METAR,35.0
LIRP 171845Z 11009KT 9999 FEW030 05/03 Q1015 NOSIG,LIRP,2021-01-17T18:45:00Z,43.68,10.38,5.0,3.0,110,9,,6.21,29.970472,,,,,,TRUE,,,,,FEW,3000,,,,,,,VFR,,,,,,,,,,,,METAR,1.0
LHSN 171845Z 03004KT 8000 SCT008 BKN020 M03/M05 Q1020 NOSIG RMK WHT,LHSN,2021-01-17T18:45:00Z,47.12,20.23,-3.0,-5.0,30,4,,4.97,30.11811,,,,,,TRUE,,,,,SCT,800,BKN,2000,,,,,MVFR,,,,,,,,,,,,METAR,89.0
LHSM 171845Z AUTO 35004KT 7000 NSC M05/M07 Q1021,LHSM,2021-01-17T18:45:00Z,46.68,17.17,-5.0,-7.0,350,4,,4.35,30.147638,,,TRUE,,,,,,,,CLR,,,,,,,,MVFR,,,,,,,,,,,,METAR,119.0
LHPR 171845Z AUTO 30005KT CAVOK M07/M11 Q1021 NOSIG,LHPR,2021-01-17T18:45:00Z,47.63,17.82,-7.0,-11.0,300,5,,6.21,30.147638,,,TRUE,,,TRUE,,,,,CAVOK,,,,,,,,VFR,,,,,,,,,,,,METAR,127.0
LHPA 171845Z 15004KT 7000 BKN047 M10/M11 Q1021 NOSIG RMK WHT,LHPA,2021-01-17T18:45:00Z,47.35,17.5,-10.0,-11.0,150,4,,4.35,30.147638,,,,,,TRUE,,,,,BKN,4700,,,,,,,MVFR,,,,,,,,,,,,METAR,143.0
LHKE 171845Z VRB02KT 8000 NSC M09/M09 Q1020 R12/01//95 NOSIG RMK BLU,LHKE,2021-01-17T18:45:00Z,46.92,19.75,-9.0,-9.0,0,2,,4.97,30.11811,,,,,,TRUE,,,,,CLR,,,,,,,,MVFR,,,,,,,,,,,,METAR,113.0
LHDC 171845Z AUTO VRB01KT 5000 -SHSN BKN013 OVC036 M04/M06 Q1020 NOSIG,LHDC,2021-01-17T18:45:00Z,47.48,21.62,-4.0,-6.0,0,1,,3.11,30.11811,,,TRUE,,,TRUE,,,,-SHSN,BKN,1300,OVC,3600,,,,,MVFR,,,,,,,,,,,,METAR,105.0
KWDG 171845Z 31014G25KT 10SM FEW120 11/M05 A3005,KWDG,2021-01-17T18:45:00Z,36.37,-97.78,11.0,-5.0,310,14,25,10.0,30.050198,,,,,,,,,,,FEW,12000,,,,,,,VFR,,,,,,,,,,,,METAR,352.0
KVCV 171845Z 00000KT 10SM SKC A3021,KVCV,2021-01-17T18:45:00Z,34.58,-117.38,,,0,0,,10.0,30.209646,,,,,,,,,,,SKC,,,,,,,,VFR,,,,,,,,,,,,METAR,871.0
KUES 171845Z 30004KT 3SM -SN BKN009 OVC029 M02/M04 A2968,KUES,2021-01-17T18:45:00Z,43.05,-88.25,-2.0,-4.0,300,4,,3.0,29.681103,,,,,,,,,,-SN,BKN,900,OVC,2900,,,,,IFR,,,,,,,,,,,,METAR,273.0
KSWF 171845Z 28018G28KT 10SM OVC040 04/M02 A2957,KSWF,2021-01-17T18:45:00Z,41.5,-74.08,4.0,-2.0,280,18,28,10.0,29.568897,,,,,,,,,,,OVC,4000,,,,,,,VFR,,,,,,,,,,,,METAR,139.0
KSCH 171845Z 00000KT 4SM -SN OVC021 02/M01 A2950,KSCH,2021-01-17T18:45:00Z,42.85,-73.92,2.0,-1.0,0,0,,4.0,29.500984,,,,,,,,,,-SN,OVC,2100,,,,,,,MVFR,,,,,,,,,,,,METAR,100.0
KRYN 171845Z 09003KT 10SM CLR 22/M12 A3011,KRYN,2021-01-17T18:45:00Z,32.15,-111.17,22.0,-12.0,90,3,,10.0,30.109253,,,,,,,,,,,CLR,,,,,,,,VFR,,,,,,,,,,,,METAR,731.0
KOWI 171845Z AUTO 30018G25KT 10SM FEW042 OVC095 08/M03 A2991 RMK AO2,KOWI,2021-01-17T18:45:00Z,38.53,-95.25,8.0,-3.0,300,18,25,10.0,29.911417,,,TRUE,TRUE,,,,,,,FEW,4200,OVC,9500,,,,,VFR,,,,,,,,,,,,METAR,292.0
KOUN 171845Z 29011G19KT 10SM CLR 12/M06 A3006,KOUN,2021-01-17T18:45:00Z,35.25,-97.47,12.0,-6.0,290,11,19,10.0,30.059055,,,,,,,,,,,CLR,,,,,,,,VFR,,,,,,,,,,,,METAR,359.0
KMWC 171845Z 30005KT 10SM SCT012 BKN033 OVC041 M01/M05 A2969,KMWC,2021-01-17T18:45:00Z,43.12,-88.03,-1.0,-5.0,300,5,,10.0,29.68996,,,,,,,,,,,SCT,1200,BKN,3300,OVC,4100,,,VFR,,,,,,,,,,,,METAR,225.0
KMWA 171845Z 28010G18KT 10SM BKN039 BKN048 03/M04 A2984,KMWA,2021-01-17T18:45:00Z,37.77,-89.02,3.0,-4.0,280,10,18,10.0,29.840551,,,,,,,,,,,BKN,3900,BKN,4800,,,,,VFR,,,,,,,,,,,,METAR,142.0
KMMU 171845Z 31015G27KT 10SM OVC043 06/M02 A2963,KMMU,2021-01-17T18:45:00Z,40.78,-74.42,6.0,-2.0,310,15,27,10.0,29.630905,,,,,,,,,,,OVC,4300,,,,,,,VFR,,,,,,,,,,,,METAR,55.0
KMHR 171845Z 26003KT 10SM SKC 14/09 A3015,KMHR,2021-01-17T18:45:00Z,38.55,-121.28,14.0,9.0,260,3,,10.0,30.15059,,,,,,,,,,,SKC,,,,,,,,VFR,,,,,,,,,,,,METAR,30.0
KMER 171845Z 00000KT 2SM BR CLR 16/16 A3016,KMER,2021-01-17T18:45:00Z,37.38,-120.57,16.0,16.0,0,0,,2.0,30.159449,,,,,,,,,,BR,CLR,,,,,,,,IFR,,,,,,,,,,,,METAR,58.0
KJVL 171845Z 31008KT 5SM -SN OVC015 M01/M02 A2970,KJVL,2021-01-17T18:45:00Z,42.62,-89.05,-1.0,-2.0,310,8,,5.0,29.698818,,,,,,,,,,-SN,OVC,1500,,,,,,,MVFR,,,,,,,,,,,,METAR,244.0
KGYY 171845Z 22006KT 3SM -SN OVC014 M00/M03 A2970,KGYY,2021-01-17T18:45:00Z,41.62,-87.42,0.0,-3.0,220,6,,3.0,29.698818,,,,,,,,,,-SN,OVC,1400,,,,,,,MVFR,,,,,,,,,,,,METAR,179.0
KFMH 171845Z 24025G32KT 10SM CLR 06/M02 A2946,KFMH,2021-01-17T18:45:00Z,41.65,-70.52,6.0,-2.0,240,25,32,10.0,29.459646,,,,,,,,,,,CLR,,,,,,,,VFR,,,,,,,,,,,,METAR,35.0
KEMT 171845Z 00000KT 10SM CLR 25/M02 A3005,KEMT,2021-01-17T18:45:00Z,34.08,-118.03,25.0,-2.0,0,0,,10.0,30.050198,,,,,,,,,,,CLR,,,,,,,,VFR,,,,,,,,,,,,METAR,84.0
KCGF 171845Z 26008G15KT 7SM -SN BKN011 OVC030 02/00 A2966,KCGF,2021-01-17T18:45:00Z,41.57,-81.47,2.0,0.0,260,8,15,7.0,29.660433,,,,,,,,,,-SN,BKN,1100,OVC,3000,,,,,MVFR,,,,,,,,,,,,METAR,265.0
KBJC 171845Z 12007KT 10SM BKN090 BKN120 07/M11 A2998,KBJC,2021-01-17T18:45:00Z,39.9,-105.1,7.0,-11.0,120,7,,10.0,29.97933,,,,,,,,,,,BKN,9000,BKN,12000,,,,,VFR,,,,,,,,,,,,METAR,1694.0
KATW 171845Z 34005KT 10SM BKN020 BKN040 M02/M09 A2967,KATW,2021-01-17T18:45:00Z,44.27,-88.52,-2.0,-9.0,340,5,,10.0,29.66929,,,,,,,,,,,BKN,2000,BKN,4000,,,,,MVFR,,,,,,,,,,,,METAR,266.0
KANE 171845Z 32005KT 6SM BR OVC004 M06/M06 A2978,KANE,2021-01-17T18:45:00Z,45.15,-93.22,-6.0,-6.0,320,5,,6.0,29.778543,,,,,,,,,,BR,OVC,400,,,,,,,LIFR,,,,,,,,,,,,METAR,276.0
MMHO 171844Z 00000KT 10SM SKC 28/M08 A3001 RMK HZY,MMHO,2021-01-17T18:44:00Z,29.08,-111.05,28.0,-8.0,0,0,,10.0,30.008858,,,,,,,,,,,SKC,,,,,,,,VFR,,,,,,,,,,,,SPECI,186.0
MMGL 171844Z 00000KT 8SM FEW100 24/01 A3018 RMK 8/030 FU W CU/CI,MMGL,2021-01-17T18:44:00Z,20.52,-103.32,24.0,1.0,0,0,,8.0,30.180119,,,,,,,,,,,FEW,10000,,,,,,,VFR,,,,,,,,,,,,SPECI,1531.0
MMCN 171844Z 29003KT 10SM SKC 24/00 A2995 RMK HZY,MMCN,2021-01-17T18:44:00Z,27.4,-109.83,24.0,0.0,290,3,,10.0,29.949802,,,,,,,,,,,SKC,,,,,,,,VFR,,,,,,,,,,,,METAR,57.0
MMZH 171843Z E22005KT 7SM FEW020 BKN250 31/23 A2994 RMK 8/108 HZY,MMZH,2021-01-17T18:43:00Z,17.6,-101.47,31.0,23.0,220,5,,7.0,29.940945,,,,,,,,,,,FEW,2000,BKN,25000,,,,,VFR,,,,,,,,,,,,SPECI,9.0
MMSL 171843Z 14003KT 10SM SKC 24/11 A3001,MMSL,2021-01-17T18:43:00Z,22.95,-109.93,24.0,11.0,140,3,,10.0,30.008858,,,,,,,,,,,SKC,,,,,,,,VFR,,,,,,,,,,,,METAR,205.0
MMPB 171843Z 20005KT 8SM SCT020 BKN090 18/06 A3028 RMK 8/130 HZY,MMPB,2021-01-17T18:43:00Z,19.17,-98.37,18.0,6.0,200,5,,8.0,30.280512,,,,,,,,,,,SCT,2000,BKN,9000,,,,,VFR,,,,,,,,,,,,METAR,2250.0
MMPA 171843Z 33006KT 3SM -DZ OVC018 19/18 A3005 RMK 60005 8/7//,MMPA,2021-01-17T18:43:00Z,20.6,-97.47,19.0,18.0,330,6,,3.0,30.050198,,,,,,,,,,-DZ,OVC,1800,,,,,,,MVFR,,,,,,,,0.05,,,,SPECI,153.0
MMMT 171843Z 01006KT 10SM SCT030 BKN080 OVC100 24/17 A2997 RMK 8/13/ BINOVC HZY,MMMT,2021-01-17T18:43:00Z,18.1,-94.57,24.0,17.0,10,6,,10.0,29.970472,,,,,,,,,,,SCT,3000,BKN,8000,OVC,10000,,,VFR,,,,,,,,,,,,METAR,15.0
MMTJ 171842Z 07009KT 9SM SKC 29/M08 A3004 RMK HZY,MMTJ,2021-01-17T18:42:00Z,32.53,-116.97,29.0,-8.0,70,9,,9.0,30.041338,,,,,,,,,,,SKC,,,,,,,,VFR,,,,,,,,,,,,SPECI,150.0
MMTC 171842Z 00000KT 10SM SKC 22/M08 A3017,MMTC,2021-01-17T18:42:00Z,25.57,-103.4,22.0,-8.0,0,0,,10.0,30.171259,,,,,,,,,,,SKC,,,,,,,,VFR,,,,,,,,,,,,METAR,1128.0
MMRX 171842Z 00000KT 8SM SCT035 20/10 A3008 RMK 8/700 HZY,MMRX,2021-01-17T18:42:00Z,26.02,-98.22,20.0,10.0,0,0,,8.0,30.079725,,,,,,,,,,,SCT,3500,,,,,,,VFR,,,,,,,,,,,,SPECI,45.0
MMPS 171842Z 18007KT 12SM FEW030 28/22 A2989 RMK 8/100 HZY,MMPS,2021-01-17T18:42:00Z,15.87,-97.08,28.0,22.0,180,7,,12.0,29.890747,,,,,,,,,,,FEW,3000,,,,,,,VFR,,,,,,,,,,,,METAR,65.0
MMLO 171842Z 27010KT 10SM FEW220 22/M06 A3026 RMK 8/002,MMLO,2021-01-17T18:42:00Z,21.0,-101.47,22.0,-6.0,270,10,,10.0,30.259842,,,,,,,,,,,FEW,22000,,,,,,,VFR,,,,,,,,,,,,SPECI,1805.0
MMCV 171842Z 30010KT 10SM SKC 22/06 A3007 //,MMCV,2021-01-17T18:42:00Z,23.72,-98.97,22.0,6.0,300,10,,10.0,30.070866,,,,,,,,,,,SKC,,,,,,,,VFR,,,,,,,,,,,,SPECI,230.0
MMZC 171841Z 35010KT 10SM SKC 16/M06 A3027,MMZC,2021-01-17T18:41:00Z,22.9,-102.68,16.0,-6.0,350,10,,10.0,30.268702,,,,,,,,,,,SKC,,,,,,,,VFR,,,,,,,,,,,,METAR,2175.0
MMTM 171841Z 01004KT 7SM OVC040 21/16 A3006 RMK 8/5//,MMTM,2021-01-17T18:41:00Z,22.28,-97.87,21.0,16.0,10,4,,7.0,30.059055,,,,,,,,,,,OVC,4000,,,,,,,VFR,,,,,,,,,,,,SPECI,21.0
MMOX 171841Z 20006KT 10SM BKN040 OVC100 24/07 A3016 RMK 8/77/ TCU FMRG ARND,MMOX,2021-01-17T18:41:00Z,17.0,-96.72,24.0,7.0,200,6,,10.0,30.159449,,,,,,,,,,,BKN,4000,OVC,10000,,,,,VFR,,,,,,,,,,,,METAR,1528.0
MMMZ 171841Z 20005KT 12SM SKC 25/13 A2995,MMMZ,2021-01-17T18:41:00Z,23.17,-106.27,25.0,13.0,200,5,,12.0,29.949802,,,,,,,,,,,SKC,,,,,,,,VFR,,,,,,,,,,,,METAR,7.0
MMLP 171841Z 35011KT 10SM SKC 24/M04 A3000 RMK HZ,MMLP,2021-01-17T18:41:00Z,24.07,-110.37,24.0,-4.0,350,11,,10.0,30.0,,,,,,,,,,,SKC,,,,,,,,VFR,,,,,,,,,,,,METAR,16.0
MMAS 171841Z 03012KT 10SM FEW100 21/M08 A3023 RMK 8/030 CI PRESFR,MMAS,2021-01-17T18:41:00Z,21.7,-102.32,21.0,-8.0,30,12,,10.0,30.230314,,,,,,,,,,,FEW,10000,,,,,,,VFR,,,,,,,,,,,,SPECI,1866.0
MMVA 171840Z 05012KT 7SM BKN015 24/20 A3000 RMK 8/800 AC HZY,MMVA,2021-01-17T18:40:00Z,18.0,-92.82,24.0,20.0,50,12,,7.0,30.0,,,,,,,,,,,BKN,1500,,,,,,,MVFR,,,,,,,,,,,,METAR,13.0
MMTP 171840Z 24006KT 10SM FEW030 SCT120 SCT200 31/24 A2987 RMK 8/131 HZY,MMTP,2021-01-17T18:40:00Z,14.78,-92.37,31.0,24.0,240,6,,10.0,29.870079,,,,,,,,,,,FEW,3000,SCT,12000,SCT,20000,,,VFR,,,,,,,,,,,,METAR,27.0
MMPN 171840Z 00000KT 8SM SCT035CB OVC280 21/14 A3016 RMK 8/302 HZY AC,MMPN,2021-01-17T18:40:00Z,19.38,-102.03,21.0,14.0,0,0,,8.0,30.159449,,,,,,,,,,,SCT,3500,OVC,28000,,,,,VFR,,,,,,,,,,,,SPECI,1602.0
MMPG 171840Z 00000KT 10SM SKC 16/05 A3017,MMPG,2021-01-17T18:40:00Z,28.62,-100.53,16.0,5.0,0,0,,10.0,30.171259,,,,,,,,,,,SKC,,,,,,,,VFR,,,,,,,,,,,,METAR,224.0
MMNL 171840Z 00000KT 10SM SKC 18/07 A3012,MMNL,2021-01-17T18:40:00Z,27.43,-99.57,18.0,7.0,0,0,,10.0,30.121063,,,,,,,,,,,SKC,,,,,,,,VFR,,,,,,,,,,,,METAR,146.0
MMMY 171840Z 36006KT 12SM SKC 23/M01 A3006,MMMY,2021-01-17T18:40:00Z,25.77,-100.1,23.0,-1.0,360,6,,12.0,30.059055,,,,,,,,,,,SKC,,,,,,,,VFR,,,,,,,,,,,,METAR,382.0
MMMV 171840Z 00000KT 10SM SKC 17/00 A3010,MMMV,2021-01-17T18:40:00Z,26.95,-101.47,17.0,0.0,0,0,,10.0,30.100393,,,,,,,,,,,SKC,,,,,,,,VFR,,,,,,,,,,,,METAR,567.0
MMLT 171840Z 16008KT 10SM SKC 24/01 A2998,MMLT,2021-01-17T18:40:00Z,25.98,-111.33,24.0,1.0,160,8,,10.0,29.97933,,,,,,,,,,,SKC,,,,,,,,VFR,,,,,,,,,,,,METAR,4.0
MMIO 171840Z 36005KT 10SM SKC 19/02 A3026,MMIO,2021-01-17T18:40:00Z,25.55,-100.93,19.0,2.0,360,5,,10.0,30.259842,,,,,,,,,,,SKC,,,,,,,,VFR,,,,,,,,,,,,METAR,1790.0
MMEP 171840Z 00000KT 12SM SKC 28/13 A3007,MMEP,2021-01-17T18:40:00Z,21.42,-104.85,28.0,13.0,0,0,,12.0,30.070866,,,,,,,,,,,SKC,,,,,,,,VFR,,,,,,,,,,,,METAR,921.0
MMCU 171840Z 00000KT 10SM SKC 17/M10 A3022 RMK CI N,MMCU,2021-01-17T18:40:00Z,28.7,-105.97,17.0,-10.0,0,0,,10.0,30.221457,,,,,,,,,,,SKC,,,,,,,,VFR,,,,,,,,,,,,SPECI,1349.0
MMCM 171840Z 01009KT 7SM OVC120 23/17 A3002 RMK 8/02/,MMCM,2021-01-17T18:40:00Z,18.5,-88.33,23.0,17.0,10,9,,7.0,30.02067,,,,,,,,,,,OVC,12000,,,,,,,VFR,,,,,,,,,,,,METAR,10.0
MMCE 171840Z 14004KT 7SM BKN100 24/17 A3000 RMK 8/080,MMCE,2021-01-17T18:40:00Z,18.65,-91.8,24.0,17.0,140,4,,7.0,30.0,,,,,,,,,,,BKN,10000,,,,,,,VFR,,,,,,,,,,,,METAR,5.0
MMAN 171840Z 35008KT 15SM SKC 22/M04 A3011,MMAN,2021-01-17T18:40:00Z,25.87,-100.23,22.0,-4.0,350,8,,15.0,30.109253,,,,,,,,,,,SKC,,,,,,,,VFR,,,,,,,,,,,,METAR,447.0
KMHV 171840Z AUTO 08007KT 10SM CLR 18/M04 A3023 RMK A01,KMHV,2021-01-17T18:40:00Z,35.07,-118.15,18.0,-4.0,80,7,,10.0,30.230314,,,TRUE,TRUE,,,,,,,CLR,,,,,,,,VFR,,,,,,,,,,,,METAR,841.0
KJSL 171840Z AUTO VRB05KT 10SM CLR 20/07 A3008 RMK A01,KJSL,2021-01-17T18:40:00Z,26.23,-95.22,20.0,7.0,0,5,,10.0,30.079725,,,TRUE,TRUE,,,,,,,CLR,,,,,,,,VFR,,,,,,,,,,,,METAR,45.0
KGZN 171840Z AUTO 03007KT 10SM 13/M04 A3014 RMK AO2,KGZN,2021-01-17T18:40:00Z,32.37,-99.02,13.0,-4.0,30,7,,10.0,30.138779,,,TRUE,TRUE,,,,,,,,,,,,,,,,,,,,,,,,,,,METAR,522.0
KW31 171835Z AUTO 20008KT 10SM CLR 08/M02 A2981 RMK AO1 T00791017,KW31,2021-01-17T18:35:00Z,36.95,-78.18,7.9,-1.7,200,8,,10.0,29.811024,,,TRUE,TRUE,,,,,,,CLR,,,,,,,,VFR,,,,,,,,,,,,SPECI,159.0
KSCF 171835Z AUTO 27009KT 10SM CLR 13/07 A3009 RMK A01,KSCF,2021-01-17T18:35:00Z,29.12,-91.87,13.0,7.0,270,9,,10.0,30.088583,,,TRUE,TRUE,,,,,,,CLR,,,,,,,,VFR,,,,,,,,,,,,METAR,22.0
KFYG 171835Z AUTO 29014G19KT 10SM SCT026 02/M03 A2982 RMK AO2,KFYG,2021-01-17T18:35:00Z,38.58,-91.0,2.0,-3.0,290,14,19,10.0,29.819881,,,TRUE,TRUE,,,,,,,SCT,2600,,,,,,,VFR,,,,,,,,,,,,METAR,147.0
RKNW 171833Z 26001KT 6000 -SN BR FEW015 BKN025 M06/M07 A3016 RMK CIG025,RKNW,2021-01-17T18:33:00Z,37.33,127.95,-6.0,-7.0,260,1,,3.73,30.159449,,,,,,,,,,-SN BR,FEW,1500,BKN,2500,,,,,MVFR,,,,,,,,,,,,SPECI,152.0
RJOF 171831Z 34003KT 9999 FEW040 BKN060 M03/M05 Q1023 RMK 1CU040 5SC060 A3021,RJOF,2021-01-17T18:31:00Z,34.03,131.55,-3.0,-5.0,340,3,,6.21,30.206694,,,,,,,,,,,FEW,4000,BKN,6000,,,,,VFR,,,,,,,,,,,,SPECI,2.0
WIBB 171830Z 00000KT 6000 -RA BKN010 22/21 Q1010 NOSIG,WIBB,2021-01-17T18:30:00Z,0.47,101.45,22.0,21.0,0,0,,3.73,29.822834,,,,,,TRUE,,,,-RA,BKN,1000,,,,,,,MVFR,,,,,,,,,,,,METAR,41.0
VOTV 171830Z 00000KT 3000 BR FEW015 26/25 Q1010 NOSIG,VOTV,2021-01-17T18:30:00Z,8.48,76.92,26.0,25.0,0,0,,1.86,29.822834,,,,,,TRUE,,,,BR,FEW,1500,,,,,,,IFR,,,,,,,,,,,,METAR,9.0
VOGO 171830Z 02003KT 5000 BR FEW018 FEW090 27/22 Q1010 NOSIG,VOGO,2021-01-17T18:30:00Z,15.38,73.83,27.0,22.0,20,3,,3.11,29.822834,,,,,,TRUE,,,,BR,FEW,1800,FEW,9000,,,,,MVFR,,,,,,,,,,,,METAR,56.0
VILK 171830Z 00000KT 0300 R27/0500 FG NSC 10/08 Q1017 NOSIG,VILK,2021-01-17T18:30:00Z,26.75,80.88,10.0,8.0,0,0,,0.19,30.029528,,,,,,TRUE,,,,FG,CLR,,,,,,,,LIFR,,,,,,,,,,,,METAR,121.0
VIJP 171830Z 09010KT 1200 R27/2000 RMID/2000 R09/2000 BR FEW030 SCT100 13/10 Q1014 NOSIG,VIJP,2021-01-17T18:30:00Z,26.82,75.8,13.0,10.0,90,10,,0.75,29.940945,,,,,,TRUE,,,,BR,FEW,3000,SCT,10000,,,,,LIFR,,,,,,,,,,,,METAR,383.0
UGTB 171830Z 33004KT CAVOK 02/01 Q1004 NOSIG,UGTB,2021-01-17T18:30:00Z,41.67,44.95,2.0,1.0,330,4,,6.21,29.64567,,,,,,TRUE,,,,,CAVOK,,,,,,,,VFR,,,,,,,,,,,,METAR,468.0
UGSB 171830Z 26019KT 8000 -SHRA SCT009 BKN019CB 09/07 Q1007 R13/29//55 NOSIG,UGSB,2021-01-17T18:30:00Z,41.62,41.6,9.0,7.0,260,19,,4.97,29.734253,,,,,,TRUE,,,,-SHRA,SCT,900,BKN,1900,,,,,MVFR,,,,,,,,,,,,METAR,32.0
UGKO 171830Z 25008KT 9999 SCT037 OVC083 11/09 Q1003 NOSIG,UGKO,2021-01-17T18:30:00Z,42.18,42.48,11.0,9.0,250,8,,6.21,29.616142,,,,,,TRUE,,,,,SCT,3700,OVC,8300,,,,,VFR,,,,,,,,,,,,METAR,44.0
GCFV 171830Z 05010KT 9999 FEW028 18/13 Q1025,GCFV,2021-01-17T18:30:00Z,28.43,-13.87,18.0,13.0,50,10,,6.21,30.265747,,,,,,,,,,,FEW,2800,,,,,,,VFR,,,,,,,,,,,,METAR,11.0
EISG 171830Z 24012KT 9999 OVC040 06/05 Q1023,EISG,2021-01-17T18:30:00Z,54.28,-8.6,6.0,5.0,240,12,,6.21,30.206694,,,,,,,,,,,OVC,4000,,,,,,,VFR,,,,,,,,,,,,METAR,1.0
ETWM 171820Z AUTO 27005KT //// // ////// 01/01 Q1019 ///,ETWM,2021-01-17T18:20:00Z,52.72,7.33,1.0,1.0,270,5,,,30.088583,,,TRUE,,,,,,,,,,,,,,,,,,,,,,,,,,,,SPECI,18.0
ETSL 171820Z AUTO 24002KT 1700 // ////// M01/M02 Q1020 ///,ETSL,2021-01-17T18:20:00Z,48.17,10.87,-1.0,-2.0,240,2,,1.06,30.11811,,,TRUE,,,,,,,,,,,,,,,,,,,,,,,,,,,,METAR,562.0
ETSI 171820Z AUTO 17001KT 1300 // ////// M05/M05 Q1021 ///,ETSI,2021-01-17T18:20:00Z,48.72,11.53,-5.0,-5.0,170,1,,0.81,30.147638,,,TRUE,,,,,,,,,,,,,,,,,,,,,,,,,,,,METAR,366.0
ETSH 171820Z 00000KT 9999 FEW020 M05/M07 Q1022 BLACKBLU+,ETSH,2021-01-17T18:20:00Z,51.77,13.17,-5.0,-7.0,0,0,,6.21,30.177166,,,,,,,,,,,FEW,2000,,,,,,,VFR,,,,,,,,,,,,SPECI,79.0
ETSB 171820Z AUTO 25006KT 4900 // ////// 01/01 Q1020 ///,ETSB,2021-01-17T18:20:00Z,50.17,7.07,1.0,1.0,250,6,,3.04,30.11811,,,TRUE,,,,,,,,,,,,,,,,,,,,,,,,,,,,SPECI,477.0
ETNW 171820Z AUTO 16003KT 2200 // ////// M00/M01 Q1019 ///,ETNW,2021-01-17T18:20:00Z,52.45,9.42,0.0,-1.0,160,3,,1.37,30.088583,,,TRUE,,,,,,,,,,,,,,,,,,,,,,,,,,,,SPECI,57.0
ETNT 171820Z AUTO 19004KT 0500 // ////// 00/M00 Q1019 ///,ETNT,2021-01-17T18:20:00Z,53.53,7.67,0.0,0.0,190,4,,0.31,30.088583,,,TRUE,,,,,,,,,,,,,,,,,,,,,,,,,,,,SPECI,5.0
ETNS 171820Z AUTO 15007KT 9999 // ////// M01/M04 Q1019 ///,ETNS,2021-01-17T18:20:00Z,54.47,9.52,-1.0,-4.0,150,7,,6.21,30.088583,,,TRUE,,,,,,,,,,,,,,,,,,,,,,,,,,,,METAR,22.0
ETNN 171820Z 23004KT 9999 FEW012 BKN045 04/03 Q1022 BLU,ETNN,2021-01-17T18:20:00Z,50.82,6.67,4.0,3.0,230,4,,6.21,30.177166,,,,,,,,,,,FEW,1200,BKN,4500,,,,,VFR,,,,,,,,,,,,METAR,108.0
ETNL 171820Z 14002KT 9999 SCT130 BKN160 M03/M05 Q1021 BLU,ETNL,2021-01-17T18:20:00Z,53.92,12.27,-3.0,-5.0,140,2,,6.21,30.147638,,,,,,,,,,,SCT,13000,BKN,16000,,,,,VFR,,,,,,,,,,,,METAR,40.0
ETNH 171820Z 15005KT 9999 BKN021 M01/M04 Q1019 WHT,ETNH,2021-01-17T18:20:00Z,54.32,9.55,-1.0,-4.0,150,5,,6.21,30.088583,,,,,,,,,,,BKN,2100,,,,,,,MVFR,,,,,,,,,,,,METAR,6.0
ETMN 171820Z 17006KT 8000 OVC005 M00/M02 Q1019 YLO,ETMN,2021-01-17T18:20:00Z,53.77,8.67,0.0,-2.0,170,6,,4.97,30.088583,,,,,,,,,,,OVC,500,,,,,,,IFR,,,,,,,,,,,,METAR,23.0
ETML 171820Z AUTO 16009KT //// // ////// M01/M04 Q1020 ///,ETML,2021-01-17T18:20:00Z,54.5,11.23,-1.0,-4.0,160,9,,,30.11811,,,TRUE,,,,,,,,,,,,,,,,,,,,,,,,,,,,METAR,9.0
ETHS 171820Z 17005KT 9999 BKN022 M01/M05 Q1019 WHT,ETHS,2021-01-17T18:20:00Z,52.92,10.18,-1.0,-5.0,170,5,,6.21,30.088583,,,,,,,,,,,BKN,2200,,,,,,,MVFR,,,,,,,,,,,,METAR,71.0
ETHL 171820Z 24005KT 3200 -SN BR FEW003 BKN015 M00/M01 Q1020 YLO,ETHL,2021-01-17T18:20:00Z,48.22,9.92,0.0,-1.0,240,5,,1.99,30.11811,,,,,,,,,,-SN BR,FEW,300,BKN,1500,,,,,IFR,,,,,,,,,,,,METAR,536.0
ETHF 171820Z AUTO 17006KT 5000 // ////// M01/M02 Q1020 ///,ETHF,2021-01-17T18:20:00Z,51.12,9.28,-1.0,-2.0,170,6,,3.11,30.11811,,,TRUE,,,,,,,,,,,,,,,,,,,,,,,,,,,,METAR,171.0
ETHB 171820Z AUTO 19007KT 4600 // ////// 00/M01 Q1019 ///,ETHB,2021-01-17T18:20:00Z,52.27,9.07,0.0,-1.0,190,7,,2.86,30.088583,,,TRUE,,,,,,,,,,,,,,,,,,,,,,,,,,,,METAR,69.0
ETHA 171820Z AUTO 28004KT //// // ////// M01/M02 Q1019 ///,ETHA,2021-01-17T18:20:00Z,47.83,10.87,-1.0,-2.0,280,4,,,30.088583,,,TRUE,,,,,,,,,,,,,,,,,,,,,,,,,,,,METAR,738.0
ETGG 171820Z AUTO 16007KT 9999 // ////// M00/M04 Q1019 ///,ETGG,2021-01-17T18:20:00Z,54.83,9.5,0.0,-4.0,160,7,,6.21,30.088583,,,TRUE,,,,,,,,,,,,,,,,,,,,,,,,,,,,SPECI,33.0
ESNL 171820Z AUTO 32001KT 0550 R14/P2000N R32/1700U FZFG OVC002/// M18/M20 Q1011,ESNL,2021-01-17T18:20:00Z,64.55,18.72,-18.0,-20.0,320,1,,0.34,29.852362,,,TRUE,,,,,,,FZFG,OVC,200,,,,,,,LIFR,,,,,,,,,,,,METAR,220.0
ENVD 171820Z 29014KT 9999 FEW009 01/M01 Q1003,ENVD,2021-01-17T18:20:00Z,70.07,29.85,1.0,-1.0,290,14,,6.21,29.616142,,,,,,,,,,,FEW,900,,,,,,,VFR,,,,,,,,,,,,METAR,39.0
ENSS 171820Z 25013KT 9999 -SHSN SCT025 01/M01 Q1002 RMK WIND 500FT 27021KT,ENSS,2021-01-17T18:20:00Z,70.35,31.05,1.0,-1.0,250,13,,6.21,29.586615,,,,,,,,,,-SHSN,SCT,2500,,,,,,,VFR,,,,,,,,,,,,METAR,13.0
ENSR 171820Z 00000KT 9999 BKN040 M04/M05 Q1008 RMK WIND 1119FT 24009KT,ENSR,2021-01-17T18:20:00Z,69.78,20.97,-4.0,-5.0,0,0,,6.21,29.763779,,,,,,,,,,,BKN,4000,,,,,,,VFR,,,,,,,,,,,,SPECI,5.0
EGJA 171820Z 31010KT 9999 FEW023 07/03 Q1029,EGJA,2021-01-17T18:20:00Z,49.72,-2.2,7.0,3.0,310,10,,6.21,30.383858,,,,,,,,,,,FEW,2300,,,,,,,VFR,,,,,,,,,,,,METAR,83.0
EGHH 171820Z 29007KT CAVOK 06/04 Q1028,EGHH,2021-01-17T18:20:00Z,50.78,-1.83,6.0,4.0,290,7,,6.21,30.35433,,,,,,,,,,,CAVOK,,,,,,,,VFR,,,,,,,,,,,,METAR,9.0
LTBG 171819Z 36011KT 6000 -SHSN SCT010 BKN030 BKN090 M01/M02 Q1017 RESHSN NOSIG RMK RWY18 01011KT,LTBG,2021-01-17T18:19:00Z,40.32,27.97,-1.0,-2.0,360,11,,3.73,30.029528,,,,,,TRUE,,,,-SHSN,SCT,1000,BKN,3000,BKN,9000,,,MVFR,,,,,,,,,,,,SPECI,49.0
KF45 171815Z AUTO 28008KT 10SM SCT055 20/06 A3005 RMK AO2,KF45,2021-01-17T18:15:00Z,26.85,-80.22,20.0,6.0,280,8,,10.0,30.050198,,,TRUE,TRUE,,,,,,,SCT,5500,,,,,,,VFR,,,,,,,,,,,,METAR,6.0
K4M9 171815Z AUTO 26012KT 10SM CLR 07/M02 A2991 RMK AO2 PWINO,K4M9,2021-01-17T18:15:00Z,36.4,-90.65,7.0,-2.0,260,12,,10.0,29.911417,,,TRUE,TRUE,,,,,TRUE,,CLR,,,,,,,,VFR,,,,,,,,,,,,SPECI,86.0
VCRI 171810Z VRB02KT 9000 NSC 24/24 Q1011 NOSIG,VCRI,2021-01-17T18:10:00Z,6.28,81.13,24.0,24.0,0,2,,5.59,29.852362,,,,,,TRUE,,,,,CLR,,,,,,,,VFR,,,,,,,,,,,,METAR,50.0
VCBI 171810Z 05005KT 9000 SKC 25/22 Q1011 NOSIG,VCBI,2021-01-17T18:10:00Z,7.17,79.88,25.0,22.0,50,5,,5.59,29.852362,,,,,,TRUE,,,,,SKC,,,,,,,,VFR,,,,,,,,,,,,METAR,10.0
