No errors
No warnings
352 ms
data source=metars
4744 results
raw_text,station_id,observation_time,latitude,longitude,temp_c,dewpoint_c,wind_dir_degrees,wind_speed_kt,wind_gust_kt,visibility_statute_mi,altim_in_hg,sea_level_pressure_mb,corrected,auto,auto_station,maintenance_indicator_on,no_signal,lightning_sensor_off,freezing_rain_sensor_off,present_weather_sensor_off,wx_string,sky_cover,cloud_base_ft_agl,sky_cover,cloud_base_ft_agl,sky_cover,cloud_base_ft_agl,sky_cover,cloud_base_ft_agl,flight_category,three_hr_pressure_tendency_mb,maxT_c,minT_c,maxT24hr_c,minT24hr_c,precip_in,pcp3hr_in,pcp6hr_in,pcp24hr_in,snow_in,vert_vis_ft,metar_type,elevation_m
PAPM 180322Z AUTO 34021KT 4SM -SN BR SCT015 BKN022 OVC050 M09/M11 A2955 RMK AO2 P0000 FZRANO,PAPM,2021-01-18T03:22:00Z,59.02,-161.82,-9.0,-11.0,340,21,,4.0,29.551182,,,TRUE,TRUE,,,,TRUE,,-SN BR,SCT,1500,BKN,2200,OVC,5000,,,MVFR,,,,,,0.005,,,,,,SPECI,4.0
KSAR 180322Z AUTO 25003KT 7SM SCT022 OVC028 00/00 A2991 RMK AO2,KSAR,2021-01-18T03:22:00Z,38.15,-89.7,0.0,0.0,250,3,,7.0,29.911417,,,TRUE,TRUE,,,,,,,SCT,2200,OVC,2800,,,,,MVFR,,,,,,,,,,,,METAR,162.0
KAWO 180322Z AUTO 29003KT 10SM BKN010 BKN022 OVC050 07/07 A3054 RMK AO2,KAWO,2021-01-18T03:22:00Z,48.17,-122.17,7.0,7.0,290,3,,10.0,30.540354,,,TRUE,TRUE,,,,,,,BKN,1000,BKN,2200,OVC,5000,,,MVFR,,,,,,,,,,,,SPECI,38.0
CYHE 180322Z AUTO 30005KT 180V320 5SM -RA BR BKN040 OVC047 07/06 A3050 RMK SLP329,CYHE,2021-01-18T03:22:00Z,49.37,-121.5,7.0,6.0,300,5,,5.0,30.499016,1032.9,,TRUE,,,,,,,-RA BR,BKN,4000,OVC,4700,,,,,MVFR,,,,,,,,,,,,SPECI,43.0
CYEN 180322Z AUTO 22005KT 9SM -SN BKN007 OVC014 M03/M04 A2977 RMK SLP117,CYEN,2021-01-18T03:22:00Z,49.22,-102.97,-3.0,-4.0,220,5,,9.0,29.769686,1011.7,,TRUE,,,,,,,-SN,BKN,700,OVC,1400,,,,,IFR,,,,,,,,,,,,SPECI,580.0
CWSA 180322Z AUTO 23019KT 3SM HZ OVC060 06/02 A2951 RMK SLP996,CWSA,2021-01-18T03:22:00Z,43.93,-60.0,6.0,2.0,230,19,,3.0,29.509842,999.6,,TRUE,,,,,,,HZ,OVC,6000,,,,,,,MVFR,,,,,,,,,,,,SPECI,4.0
KLBX 180321Z AUTO 00000KT 10SM SCT030 08/03 A3014 RMK AO2 T00780028,KLBX,2021-01-18T03:21:00Z,29.12,-95.47,7.8,2.8,0,0,,10.0,30.138779,,,TRUE,TRUE,,,,,,,SCT,3000,,,,,,,VFR,,,,,,,,,,,,SPECI,4.0
KFIG 180321Z AUTO 20005KT 2SM -SN BR OVC003 M01/M01 A2966 RMK AO2 P0000 T10061011,KFIG,2021-01-18T03:21:00Z,41.05,-78.42,-0.6,-1.1,200,5,,2.0,29.660433,,,TRUE,TRUE,,,,,,-SN BR,OVC,300,,,,,,,LIFR,,,,,,0.005,,,,,,SPECI,461.0
KERI 180321Z AUTO 22007KT 3SM -SN BR SCT008 OVC030 01/M02 A2967 RMK AO2 P0001 T00061017,KERI,2021-01-18T03:21:00Z,42.08,-80.18,0.6,-1.7,220,7,,3.0,29.66929,,,TRUE,TRUE,,,,,,-SN BR,SCT,800,OVC,3000,,,,,MVFR,,,,,,0.01,,,,,,SPECI,222.0
KDZB 180321Z AUTO 16004KT 10SM CLR 08/M01 A3012 RMK AO2,KDZB,2021-01-18T03:21:00Z,30.53,-98.37,8.0,-1.0,160,4,,10.0,30.121063,,,TRUE,TRUE,,,,,,,CLR,,,,,,,,VFR,,,,,,,,,,,,METAR,329.0
KDSM 180321Z 26004KT 10SM FEW019 SCT026 OVC050 M02/M04 A2985 RMK AO2 T10171044,KDSM,2021-01-18T03:21:00Z,41.53,-93.67,-1.7,-4.4,260,4,,10.0,29.84941,,,,TRUE,,,,,,,FEW,1900,SCT,2600,OVC,5000,,,VFR,,,,,,,,,,,,SPECI,286.0
CYYN 180321Z AUTO 28013G20KT 5SM -SN FEW014 SCT020 BKN029 OVC055 M02/M03 A2976 RMK ICG SLP112,CYYN,2021-01-18T03:21:00Z,50.28,-107.68,-2.0,-3.0,280,13,20,5.0,29.760826,1011.2,,TRUE,,,,,,,-SN,FEW,1400,SCT,2000,BKN,2900,OVC,5500,MVFR,,,,,,,,,,,,SPECI,814.0
CYQF 180321Z AUTO 32016G26KT 8SM -RA -UP SCT013 OVC033 01/M00 A2996 RMK SLP199,CYQF,2021-01-18T03:21:00Z,52.17,-113.9,1.0,0.0,320,16,26,8.0,29.958662,1019.9,,TRUE,,,,,,,-RA UP,SCT,1300,OVC,3300,,,,,VFR,,,,,,,,,,,,SPECI,912.0
CYPX 180321Z AUTO 06003KT 330V080 1SM -SN OVC004 M26/M28 A2991 RMK SLP133,CYPX,2021-01-18T03:21:00Z,60.03,-77.27,-26.0,-28.0,60,3,,1.0,29.911417,1013.3,,TRUE,,,,,,,-SN,OVC,400,,,,,,,LIFR,,,,,,,,,,,,SPECI,10.0
CYMH 180321Z AUTO 13016G23KT 5SM -UP BR OVC006 02/01 A2934 RMK SLP937,CYMH,2021-01-18T03:21:00Z,52.3,-55.82,2.0,1.0,130,16,23,5.0,29.338583,993.7,,TRUE,,,,,,,BR UP,OVC,600,,,,,,,IFR,,,,,,,,,,,,SPECI,18.0
CYKF 180321Z AUTO 32004KT 5SM -SN SCT010 BKN016 OVC031 M01/M02 A2961 RMK SLP039,CYKF,2021-01-18T03:21:00Z,43.47,-80.38,-1.0,-2.0,320,4,,5.0,29.610237,1003.9,,TRUE,,,,,,,-SN,SCT,1000,BKN,1600,OVC,3100,,,MVFR,,,,,,,,,,,,SPECI,312.0
YMLT 180320Z AUTO 30018G33KT 9999 // SCT050 SCT069 22/07 Q1005,YMLT,2021-01-18T03:20:00Z,-41.53,147.2,22.0,7.0,300,18,33,6.21,29.675198,,,TRUE,,,,,,,,SCT,5000,SCT,6900,,,,,VFR,,,,,,,,,,,,SPECI,167.0
YBWP 180320Z AUTO 30009KT 5000 RA SCT025 SCT029 BKN038 30/24 Q1006,YBWP,2021-01-18T03:20:00Z,-12.68,141.92,30.0,24.0,300,9,,3.11,29.704725,,,TRUE,,,,,,,RA,SCT,2500,SCT,2900,BKN,3800,,,MVFR,,,,,,,,,,,,SPECI,21.0
VNKT 180320Z 00000KT 2000 BR FEW010 10/07 Q1023 NOSIG,VNKT,2021-01-18T03:20:00Z,27.68,85.37,10.0,7.0,0,0,,1.24,30.206694,,,,,,TRUE,,,,BR,FEW,1000,,,,,,,IFR,,,,,,,,,,,,METAR,1334.0
PKWA 180320Z AUTO 08018G24KT 10SM SCT025 SCT032 SCT040 31/24 A2979 RMK AO2 T03070242,PKWA,2021-01-18T03:20:00Z,8.72,167.72,30.7,24.2,80,18,24,10.0,29.790354,,,TRUE,TRUE,,,,,,,SCT,2500,SCT,3200,SCT,4000,,,VFR,,,,,,,,,,,,METAR,6.0
PASL 180320Z AUTO 00000KT 3SM -SN BR OVC015 M07/M08 A2958 RMK AO2 P0001 FZRANO,PASL,2021-01-18T03:20:00Z,61.68,-157.15,-7.0,-8.0,0,0,,3.0,29.58071,,,TRUE,TRUE,,,,TRUE,,-SN BR,OVC,1500,,,,,,,MVFR,,,,,,0.01,,,,,,METAR,64.0
LSZS 180320Z AUTO VRB03KT 9999 -SN BKN041 M07/M08 Q1017,LSZS,2021-01-18T03:20:00Z,46.53,9.88,-7.0,-8.0,0,3,,6.21,30.029528,,,TRUE,,,,,,,-SN,BKN,4100,,,,,,,VFR,,,,,,,,,,,,METAR,1708.0
LSZR 180320Z AUTO VRB02KT 9999 FEW026 SCT049 BKN055 02/01 Q1025,LSZR,2021-01-18T03:20:00Z,47.48,9.57,2.0,1.0,0,2,,6.21,30.265747,,,TRUE,,,,,,,,FEW,2600,SCT,4900,BKN,5500,,,VFR,,,,,,,,,,,,METAR,396.0
LSZH 180320Z VRB01KT 9999 FEW013 BKN060 01/M01 Q1026 R88/29//// NOSIG,LSZH,2021-01-18T03:20:00Z,47.48,8.53,1.0,-1.0,0,1,,6.21,30.295275,,,,,,TRUE,,,,,FEW,1300,BKN,6000,,,,,VFR,,,,,,,,,,,,METAR,424.0
LSZG 180320Z AUTO VRB02KT 9999 BKN040 01/00 Q1026,LSZG,2021-01-18T03:20:00Z,47.17,7.42,1.0,0.0,0,2,,6.21,30.295275,,,TRUE,,,,,,,,BKN,4000,,,,,,,VFR,,,,,,,,,,,,METAR,428.0
LSZC 180320Z AUTO VRB02KT 9999 -SN BKN032 01/M00 Q1026,LSZC,2021-01-18T03:20:00Z,46.97,8.38,1.0,0.0,0,2,,6.21,30.295275,,,TRUE,,,,,,,-SN,BKN,3200,,,,,,,VFR,,,,,,,,,,,,METAR,445.0
LSZB 180320Z AUTO VRB01KT 2600 R14/0800U BR SCT025 BKN028 BKN040 M00/M00 Q1026 REFZDZ,LSZB,2021-01-18T03:20:00Z,46.92,7.5,0.0,0.0,0,1,,1.62,30.295275,,,TRUE,,,,,,,BR,SCT,2500,BKN,2800,BKN,4000,,,IFR,,,,,,,,,,,,METAR,510.0
LSZA 180320Z AUTO VRB02KT 2400 BR NCD M04/M04 Q1021,LSZA,2021-01-18T03:20:00Z,46.0,8.92,-4.0,-4.0,0,2,,1.49,30.147638,,,TRUE,,,,,,,BR,CLR,,,,,,,,IFR,,,,,,,,,,,,METAR,276.0
LSGS 180320Z AUTO 00000KT 9999 FZFG NCD M04/M04 Q1026,LSGS,2021-01-18T03:20:00Z,46.22,7.32,-4.0,-4.0,0,0,,6.21,30.295275,,,TRUE,,,,,,,FZFG,CLR,,,,,,,,VFR,,,,,,,,,,,,METAR,482.0
LSGG 180320Z AUTO 28002KT 5000 NCD M04/M05 Q1027 REFZDZ NOSIG,LSGG,2021-01-18T03:20:00Z,46.25,6.12,-4.0,-5.0,280,2,,3.11,30.324802,,,TRUE,,,TRUE,,,,,CLR,,,,,,,,MVFR,,,,,,,,,,,,METAR,411.0
LSGC 180320Z AUTO VRB02KT 9999 -SN FEW009 SCT011 BKN015 M02/M04 Q1024,LSGC,2021-01-18T03:20:00Z,47.08,6.8,-2.0,-4.0,0,2,,6.21,30.236221,,,TRUE,,,,,,,-SN,FEW,900,SCT,1100,BKN,1500,,,MVFR,,,,,,,,,,,,METAR,1018.0
LLBG 180320Z 15009KT 9999 FEW025 SCT040 12/10 Q1016 TEMPO 7000 RA FEW020TCU BKN030 RMK RERA,LLBG,2021-01-18T03:20:00Z,32.0,34.88,12.0,10.0,150,9,,6.21,30.0,,,,,,,,,,,FEW,2500,SCT,4000,,,,,VFR,,,,,,,,,,,,METAR,35.0
LGRP 180320Z 29009KT 9999 FEW018 SCT025 09/03 Q1014 NOSIG,LGRP,2021-01-18T03:20:00Z,36.4,28.08,9.0,3.0,290,9,,6.21,29.940945,,,,,,TRUE,,,,,FEW,1800,SCT,2500,,,,,VFR,,,,,,,,,,,,METAR,3.0
LGKR 180320Z 08005KT 9999 FEW030 SCT070 04/M04 Q1015 NOSIG,LGKR,2021-01-18T03:20:00Z,39.62,19.92,4.0,-4.0,80,5,,6.21,29.970472,,,,,,TRUE,,,,,FEW,3000,SCT,7000,,,,,VFR,,,,,,,,,,,,METAR,2.0
LGIR 180320Z 18010KT 9999 FEW018 SCT025 05/02 Q1015 NOSIG,LGIR,2021-01-18T03:20:00Z,35.33,25.17,5.0,2.0,180,10,,6.21,29.970472,,,,,,TRUE,,,,,FEW,1800,SCT,2500,,,,,VFR,,,,,,,,,,,,METAR,37.0
LGAV 180320Z 35009KT 320V020 9999 FEW025 BKN070 03/M04 Q1017 NOSIG,LGAV,2021-01-18T03:20:00Z,37.93,23.95,3.0,-4.0,350,9,,6.21,30.029528,,,,,,TRUE,,,,,FEW,2500,BKN,7000,,,,,VFR,,,,,,,,,,,,METAR,83.0
LATI 180320Z VRB03KT CAVOK M04/M06 Q1017 NOSIG,LATI,2021-01-18T03:20:00Z,41.42,19.72,-4.0,-6.0,0,3,,6.21,30.029528,,,,,,TRUE,,,,,CAVOK,,,,,,,,VFR,,,,,,,,,,,,METAR,32.0
KSXT 180320Z AUTO 01012G19KT 340V040 1 1/2SM BR BKN001 04/02 A3034 RMK AO2 T00390022,KSXT,2021-01-18T03:20:00Z,42.6,-123.37,3.9,2.2,10,12,19,1.5,30.339567,,,TRUE,TRUE,,,,,,BR,BKN,100,,,,,,,LIFR,,,,,,,,,,,,SPECI,1151.0
KQFX 180320Z AUTO 21001KT 0800 FZFG OVC014 M01/M03 A3002 RMK A02 TSNO,KQFX,2021-01-18T03:20:00Z,,,-1.0,-3.0,210,1,,0.5,30.02067,,,TRUE,TRUE,,,TRUE,,,FZFG,OVC,1400,,,,,,,LIFR,,,,,,,,,,,,METAR,
KQFW 180320Z AUTO 25005KT 4800 HZ BKN025 M02/M04 A3000 RMK A02 TSNO,KQFW,2021-01-18T03:20:00Z,,,-2.0,-4.0,250,5,,2.98,30.0,,,TRUE,TRUE,,,TRUE,,,HZ,BKN,2500,,,,,,,IFR,,,,,,,,,,,,METAR,
KQFV 180320Z AUTO 32002KT M0400 FZFG CLR M03/M05 A2997 RMK A02 TSNO,KQFV,2021-01-18T03:20:00Z,,,-3.0,-5.0,320,2,,0.25,29.970472,,,TRUE,TRUE,,,TRUE,,,FZFG,CLR,,,,,,,,LIFR,,,,,,,,,,,,METAR,
KQFU 180320Z AUTO 22005G11KT 1200 -SHRASN OVC013 M02/M04 A3006 RMK A02 TSNO,KQFU,2021-01-18T03:20:00Z,,,-2.0,-4.0,220,5,11,0.75,30.059055,,,TRUE,TRUE,,,TRUE,,,-SHRA -SHSN,OVC,1300,,,,,,,LIFR,,,,,,,,,,,,METAR,
KQFT 180320Z AUTO 18003KT / // OVC012 M02/M04 A3003 RMK A02 TSNO,KQFT,2021-01-18T03:20:00Z,,,-2.0,-4.0,180,3,,,30.029528,,,TRUE,TRUE,,,TRUE,,,,OVC,1200,,,,,,,,,,,,,,,,,,,METAR,
KQEY 180320Z AUTO 26007G12KT 6000 HZ BKN019 01/M03 A2977 RMK A02 TSNO,KQEY,2021-01-18T03:20:00Z,,,1.0,-3.0,260,7,12,3.73,29.769686,,,TRUE,TRUE,,,TRUE,,,HZ,BKN,1900,,,,,,,MVFR,,,,,,,,,,,,METAR,
KQEX 180320Z AUTO 19004KT 9999 FEW011 BKN019 M00/M04 A2999 RMK A02 TSNO,KQEX,2021-01-18T03:20:00Z,,,0.0,-4.0,190,4,,6.21,29.991142,,,TRUE,TRUE,,,TRUE,,,,FEW,1100,BKN,1900,,,,,MVFR,,,,,,,,,,,,METAR,
KQEW 180320Z AUTO 17001KT 0800 FZFG OVC014 M01/M02 A3005 RMK A02 TSNO,KQEW,2021-01-18T03:20:00Z,,,-1.0,-2.0,170,1,,0.5,30.050198,,,TRUE,TRUE,,,TRUE,,,FZFG,OVC,1400,,,,,,,LIFR,,,,,,,,,,,,METAR,
KQEV 180320Z AUTO 27003KT 6000 HZ FEW009 BKN034 01/M01 A3004 RMK A02 TSNO,KQEV,2021-01-18T03:20:00Z,,,1.0,-1.0,270,3,,3.73,30.041338,,,TRUE,TRUE,,,TRUE,,,HZ,FEW,900,BKN,3400,,,,,MVFR,,,,,,,,,,,,METAR,
KQER 180320Z AUTO 16007G11KT 0800 FZFG OVC007 M03/M05 A2994 RMK A02 TSNO,KQER,2021-01-18T03:20:00Z,,,-3.0,-5.0,160,7,11,0.5,29.940945,,,TRUE,TRUE,,,TRUE,,,FZFG,OVC,700,,,,,,,LIFR,,,,,,,,,,,,METAR,
KQEQ 180320Z AUTO 27004KT 2000 -SHSN OVC010 M02/M03 A3009 RMK A02 TSNO,KQEQ,2021-01-18T03:20:00Z,,,-2.0,-3.0,270,4,,1.24,30.088583,,,TRUE,TRUE,,,TRUE,,,-SHSN,OVC,1000,,,,,,,IFR,,,,,,,,,,,,METAR,
KQEP 180320Z AUTO 28002KT 1600 -SN OVC009 M01/M03 A3005 RMK A02 TSNO,KQEP,2021-01-18T03:20:00Z,,,-1.0,-3.0,280,2,,0.99,30.050198,,,TRUE,TRUE,,,TRUE,,,-SN,OVC,900,,,,,,,LIFR,,,,,,,,,,,,METAR,
KQEN 180320Z AUTO 26009G15KT 1200 -SN OVC014 M07/M07 A2978 RMK A02 TSNO,KQEN,2021-01-18T03:20:00Z,,,-7.0,-7.0,260,9,15,0.75,29.778543,,,TRUE,TRUE,,,TRUE,,,-SN,OVC,1400,,,,,,,LIFR,,,,,,,,,,,,METAR,
KQEJ 180320Z AUTO 22007G14KT 3200 HZ OVC022 M03/M06 A2993 RMK A02 TSNO,KQEJ,2021-01-18T03:20:00Z,,,-3.0,-6.0,220,7,14,1.99,29.929134,,,TRUE,TRUE,,,TRUE,,,HZ,OVC,2200,,,,,,,IFR,,,,,,,,,,,,METAR,
KQEI 180320Z AUTO 18004KT 6000 HZ OVC025 M02/M06 A2994 RMK A02 TSNO,KQEI,2021-01-18T03:20:00Z,,,-2.0,-6.0,180,4,,3.73,29.940945,,,TRUE,TRUE,,,TRUE,,,HZ,OVC,2500,,,,,,,MVFR,,,,,,,,,,,,METAR,
KMIE 180320Z AUTO 26007KT 10SM BKN031 OVC070 M01/M04 A2975 RMK AO2 T10061044,KMIE,2021-01-18T03:20:00Z,40.23,-85.4,-0.6,-4.4,260,7,,10.0,29.749016,,,TRUE,TRUE,,,,,,,BKN,3100,OVC,7000,,,,,VFR,,,,,,,,,,,,SPECI,286.0
KJST 180320Z AUTO 25008KT 1 3/4SM -SN BR BKN006 OVC011 M02/M03 A2964 RMK AO2 CIG 003V009 P0000 T10171033,KJST,2021-01-18T03:20:00Z,40.32,-78.83,-1.7,-3.3,250,8,,1.75,29.639763,,,TRUE,TRUE,,,,,,-SN BR,BKN,600,OVC,1100,,,,,IFR,,,,,,0.005,,,,,,SPECI,695.0
KILN 180320Z AUTO 27009KT 8SM -SN FEW004 BKN044 OVC075 M01/M03 A2976 RMK AO2 P0001 T10111028,KILN,2021-01-18T03:20:00Z,39.43,-83.8,-1.1,-2.8,270,9,,8.0,29.760826,,,TRUE,TRUE,,,,,,-SN,FEW,400,BKN,4400,OVC,7500,,,VFR,,,,,,0.01,,,,,,SPECI,325.0
KHZY 180320Z AUTO 24003KT 1 3/4SM -SN BR SCT006 BKN012 OVC022 00/M01 A2967 RMK AO2 P0000 T00001006,KHZY,2021-01-18T03:20:00Z,41.78,-80.7,0.0,-0.6,240,3,,1.75,29.66929,,,TRUE,TRUE,,,,,,-SN BR,SCT,600,BKN,1200,OVC,2200,,,IFR,,,,,,0.005,,,,,,SPECI,279.0
KHNB 180320Z AUTO 29003KT 3SM -SN BR BKN018 OVC024 M01/M01 A2987 RMK AO2 P0000 FZRANO,KHNB,2021-01-18T03:20:00Z,38.25,-86.95,-1.0,-1.0,290,3,,3.0,29.870079,,,TRUE,TRUE,,,,TRUE,,-SN BR,BKN,1800,OVC,2400,,,,,MVFR,,,,,,0.005,,,,,,METAR,159.0
KDTW 180320Z 25005KT 3SM -SN BR SCT006 BKN022 OVC055 00/M01 A2968 RMK AO2 TWR VIS 4 P0000 T00001011 $,KDTW,2021-01-18T03:20:00Z,42.23,-83.33,0.0,-1.1,250,5,,3.0,29.681103,,,,TRUE,TRUE,,,,,-SN BR,SCT,600,BKN,2200,OVC,5500,,,MVFR,,,,,,0.005,,,,,,SPECI,192.0
KBKW 180320Z AUTO 32003KT 3SM -SN BR FEW010 BKN023 OVC031 M01/M02 A2975 RMK AO2 VIS 1 1/2 RWY19 CIG 017 RWY19 P0000 T10111022 TSNO,KBKW,2021-01-18T03:20:00Z,37.8,-81.12,-1.1,-2.2,320,3,,3.0,29.749016,,,TRUE,TRUE,,,TRUE,,,-SN BR,FEW,1000,BKN,2300,OVC,3100,,,MVFR,,,,,,0.005,,,,,,SPECI,762.0
K0A9 180320Z AUTO 00000KT 10SM -UP SCT023 BKN037 OVC070 02/00 A2983 RMK AO2,K0A9,2021-01-18T03:20:00Z,36.37,-82.17,2.0,0.0,0,0,,10.0,29.828741,,,TRUE,TRUE,,,,,,UP,SCT,2300,BKN,3700,OVC,7000,,,VFR,,,,,,,,,,,,METAR,479.0
EYVI 180320Z 18002KT 2800 -SN BR OVC015 M21/M23 Q1020 R01/0///95 TEMPO 1500 SN BR,EYVI,2021-01-18T03:20:00Z,54.63,25.28,-21.0,-23.0,180,2,,1.74,30.11811,,,,,,,,,,-SN BR,OVC,1500,,,,,,,IFR,,,,,,,,,,,,METAR,180.0
EYSA 180320Z 19004KT CAVOK M16/M17 Q1020 R14L/29//95 R14R/29//95 BLU NOSIG,EYSA,2021-01-18T03:20:00Z,55.9,23.4,-16.0,-17.0,190,4,,6.21,30.11811,,,,,,TRUE,,,,,CAVOK,,,,,,,,VFR,,,,,,,,,,,,METAR,135.0
EYPA 180320Z AUTO 14006KT 9999 -UP BKN015/// BKN054/// M14/M16 Q1020,EYPA,2021-01-18T03:20:00Z,55.97,21.08,-14.0,-16.0,140,6,,6.21,30.11811,,,TRUE,,,,,,,UP,BKN,1500,BKN,5400,,,,,MVFR,,,,,,,,,,,,METAR,15.0
EYKA 180320Z VRB01KT 9000 NSC M18/M21 Q1021,EYKA,2021-01-18T03:20:00Z,54.97,24.08,-18.0,-21.0,0,1,,5.59,30.147638,,,,,,,,,,,CLR,,,,,,,,VFR,,,,,,,,,,,,METAR,68.0
EVVA 180320Z AUTO 19008KT 1900 SN OVC004 M05/M05 Q1018,EVVA,2021-01-18T03:20:00Z,57.35,21.55,-5.0,-5.0,190,8,,1.18,30.059055,,,TRUE,,,,,,,SN,OVC,400,,,,,,,LIFR,,,,,,,,,,,,METAR,1.0
EVRA 180320Z 19005KT CAVOK M14/M15 Q1020 R18/490395 NOSIG,EVRA,2021-01-18T03:20:00Z,56.92,23.97,-14.0,-15.0,190,5,,6.21,30.11811,,,,,,TRUE,,,,,CAVOK,,,,,,,,VFR,,,,,,,,,,,,METAR,7.0
EVLA 180320Z AUTO 16005KT 9999 OVC003/// M09/M10 Q1019,EVLA,2021-01-18T03:20:00Z,56.52,21.1,-9.0,-10.0,160,5,,6.21,30.088583,,,TRUE,,,,,,,,OVC,300,,,,,,,LIFR,,,,,,,,,,,,METAR,5.0
ESUT 180320Z AUTO VRB02KT 9999 NCD M27/M30 Q1007,ESUT,2021-01-18T03:20:00Z,65.8,15.08,-27.0,-30.0,0,2,,6.21,29.734253,,,TRUE,,,,,,,,CLR,,,,,,,,VFR,,,,,,,,,,,,METAR,457.0
ESTL 180320Z AUTO 00000KT 9999 NCD M07/M08 Q1018,ESTL,2021-01-18T03:20:00Z,56.07,13.2,-7.0,-8.0,0,0,,6.21,30.059055,,,TRUE,,,,,,,,CLR,,,,,,,,VFR,,,,,,,,,,,,METAR,39.0
ESTA 180320Z AUTO 12003KT 6000 BR OVC084/// M08/M09 Q1017,ESTA,2021-01-18T03:20:00Z,56.28,12.83,-8.0,-9.0,120,3,,3.73,30.029528,,,TRUE,,,,,,,BR,OVC,8400,,,,,,,MVFR,,,,,,,,,,,,METAR,19.0
ESNX 180320Z AUTO 00000KT 9999 OVC002/// M25/M28 Q1006,ESNX,2021-01-18T03:20:00Z,65.58,19.28,-25.0,-28.0,0,0,,6.21,29.704725,,,TRUE,,,,,,,,OVC,200,,,,,,,LIFR,,,,,,,,,,,,METAR,380.0
ESNL 180320Z AUTO 28001KT 9999 NCD M25/M28 Q1009,ESNL,2021-01-18T03:20:00Z,64.55,18.72,-25.0,-28.0,280,1,,6.21,29.793306,,,TRUE,,,,,,,,CLR,,,,,,,,VFR,,,,,,,,,,,,METAR,220.0
ESMX 180320Z AUTO 22004KT 9000 BR FEW041/// M07/M07 Q1017,ESMX,2021-01-18T03:20:00Z,56.92,14.72,-7.0,-7.0,220,4,,5.59,30.029528,,,TRUE,,,,,,,BR,FEW,4100,,,,,,,VFR,,,,,,,,,,,,METAR,176.0
ESMT 180320Z AUTO 14006KT 9999 FEW020/// BKN100/// M03/M05 Q1017,ESMT,2021-01-18T03:20:00Z,56.68,12.82,-3.0,-5.0,140,6,,6.21,30.029528,,,TRUE,,,,,,,,FEW,2000,BKN,10000,,,,,VFR,,,,,,,,,,,,METAR,24.0
ESMS 180320Z 11001KT 9999 SCT033 OVC130 M03/M03 Q1018 R17/910247,ESMS,2021-01-18T03:20:00Z,55.53,13.37,-3.0,-3.0,110,1,,6.21,30.059055,,,,,,,,,,,SCT,3300,OVC,13000,,,,,VFR,,,,,,,,,,,,METAR,68.0
ESMQ 180320Z AUTO 24002KT 9999 BKN011/// OVC052/// M03/M04 Q1018,ESMQ,2021-01-18T03:20:00Z,56.68,16.3,-3.0,-4.0,240,2,,6.21,30.059055,,,TRUE,,,,,,,,BKN,1100,OVC,5200,,,,,MVFR,,,,,,,,,,,,METAR,3.0
ESMK 180320Z AUTO 19001KT 5000 BCFG OVC051/// M07/M07 Q1018,ESMK,2021-01-18T03:20:00Z,55.92,14.08,-7.0,-7.0,190,1,,3.11,30.059055,,,TRUE,,,,,,,BCFG,OVC,5100,,,,,,,MVFR,,,,,,,,,,,,METAR,20.0
ESGT 180320Z AUTO 18006KT 5000 -SN FEW022/// SCT035/// OVC055/// M02/M03 Q1015 RERASN RESN REFZUP,ESGT,2021-01-18T03:20:00Z,58.32,12.33,-2.0,-3.0,180,6,,3.11,29.970472,,,TRUE,,,,,,,-SN SN UP,FEW,2200,SCT,3500,OVC,5500,,,MVFR,,,,,,,,,,,,METAR,40.0
ESGR 180320Z AUTO 17005KT 9999 OVC034/// M03/M04 Q1015,ESGR,2021-01-18T03:20:00Z,58.45,13.97,-3.0,-4.0,170,5,,6.21,29.970472,,,TRUE,,,,,,,,OVC,3400,,,,,,,VFR,,,,,,,,,,,,METAR,95.0
ESGJ 180320Z AUTO 22005KT 9999 OVC031/// M04/M04 Q1015,ESGJ,2021-01-18T03:20:00Z,57.77,14.07,-4.0,-4.0,220,5,,6.21,29.970472,,,TRUE,,,,,,,,OVC,3100,,,,,,,VFR,,,,,,,,,,,,METAR,224.0
ESGG 180320Z 17006KT 6000 -SN BKN012 BKN017 OVC021 M03/M04 Q1015 R21/590195,ESGG,2021-01-18T03:20:00Z,57.67,12.3,-3.0,-4.0,170,6,,3.73,29.970472,,,,,,,,,,-SN,BKN,1200,BKN,1700,OVC,2100,,,MVFR,,,,,,,,,,,,METAR,152.0
ENTO 180320Z AUTO 23006KT 9999 OVC010/// M02/M02 Q1013,ENTO,2021-01-18T03:20:00Z,59.2,10.27,-2.0,-2.0,230,6,,6.21,29.911417,,,TRUE,,,,,,,,OVC,1000,,,,,,,MVFR,,,,,,,,,,,,METAR,84.0
ENTC 180320Z 20013KT 9999 FEW006 SCT013 BKN036 M00/M01 Q1006 RMK WIND 2600FT 29014KT,ENTC,2021-01-18T03:20:00Z,69.68,18.92,0.0,-1.0,200,13,,6.21,29.704725,,,,,,,,,,,FEW,600,SCT,1300,BKN,3600,,,VFR,,,,,,,,,,,,METAR,9.0
ENSB 180320Z 13025KT 9999 FEW020 BKN120 M08/M14 Q1011 RMK WIND 1400FT 11032KT,ENSB,2021-01-18T03:20:00Z,78.25,15.47,-8.0,-14.0,130,25,,6.21,29.852362,,,,,,,,,,,FEW,2000,BKN,12000,,,,,VFR,,-3.2,,,,,,,,,,METAR,30.0
ENRY 180320Z AUTO 21005KT 9999NDV FEW006/// SCT022/// BKN057/// M01/M02 Q1013,ENRY,2021-01-18T03:20:00Z,59.37,10.77,-1.0,-2.0,210,5,,,29.911417,,,TRUE,,,,,,,,FEW,600,SCT,2200,BKN,5700,,,,,,,,,,,,,,,METAR,45.0
ENRO 180320Z AUTO 00000KT 9999NDV -SHSN OVC043/// M18/M21 Q1007,ENRO,2021-01-18T03:20:00Z,62.57,11.33,-18.0,-21.0,0,0,,,29.734253,,,TRUE,,,,,,,-SHSN,OVC,4300,,,,,,,,,,,,,,,,,,,METAR,624.0
ENHD 180320Z AUTO 13015KT 9999 FEW021/// 03/01 Q1008,ENHD,2021-01-18T03:20:00Z,59.35,5.22,3.0,1.0,130,15,,6.21,29.763779,,,TRUE,,,,,,,,FEW,2100,,,,,,,VFR,,,,,,,,,,,,METAR,22.0
ENCN 180320Z AUTO 06007KT 6000 FZUP OVC004/// M01/M02 Q1013,ENCN,2021-01-18T03:20:00Z,58.2,8.07,-1.0,-2.0,60,7,,3.73,29.911417,,,TRUE,,,,,,,UP,OVC,400,,,,,,,LIFR,,,,,,,,,,,,METAR,17.0
ENAL 180320Z AUTO 15008KT 9999 NCD 04/M02 Q1005,ENAL,2021-01-18T03:20:00Z,62.57,6.12,4.0,-2.0,150,8,,6.21,29.675198,,,TRUE,,,,,,,,CLR,,,,,,,,VFR,,,,,,,,,,,,METAR,21.0
EKYT 180320Z AUTO 17005KT 5000 OVC008/// M01/M02 Q1015,EKYT,2021-01-18T03:20:00Z,57.1,9.87,-1.0,-2.0,170,5,,3.11,29.970472,,,TRUE,,,,,,,,OVC,800,,,,,,,IFR,,,,,,,,,,,,METAR,2.0
EKVG 180320Z AUTO 03001KT 9999 -FZDZ FEW019/// BKN026/// 01/01 Q0996,EKVG,2021-01-18T03:20:00Z,62.07,-7.27,1.0,1.0,30,1,,6.21,29.409449,,,TRUE,,,,,,,-FZDZ,FEW,1900,BKN,2600,,,,,MVFR,,,,,,,,,,,,METAR,89.0
EKVD 180320Z AUTO 18005KT 150V220 //// ///////// M01/M01 Q1016,EKVD,2021-01-18T03:20:00Z,55.43,9.32,-1.0,-1.0,180,5,,,30.0,,,TRUE,,,,,,,,,,,,,,,,,,,,,,,,,,,,METAR,41.0
EKSP 180320Z 18006KT 0300 R10/1800D R28/1300D FZFG VV001 M01/M01 Q1016,EKSP,2021-01-18T03:20:00Z,55.22,9.27,-1.0,-1.0,180,6,,0.19,30.0,,,,,,,,,,FZFG,OVX,0,,,,,,,LIFR,,,,,,,,,,,100,METAR,40.0
EKSB 180320Z AUTO 20004KT 160V220 4100NDV BR OVC005/// 00/M01 Q1017,EKSB,2021-01-18T03:20:00Z,54.97,9.8,0.0,-1.0,200,4,,,30.029528,,,TRUE,,,,,,,BR,OVC,500,,,,,,,,,,,,,,,,,,,METAR,23.0
EKRS 180320Z AUTO 18005KT 150V220 9999 OVC042/// M01/M02 Q1017,EKRS,2021-01-18T03:20:00Z,55.42,11.8,-1.0,-2.0,180,5,,6.21,30.029528,,,TRUE,,,,,,,,OVC,4200,,,,,,,VFR,,,,,,,,,,,,METAR,34.0
EKRN 180320Z AUTO 20008KT 9999 FEW017/// OVC050/// M00/M04 Q1019 R11///////,EKRN,2021-01-18T03:20:00Z,55.07,14.75,0.0,-4.0,200,8,,6.21,30.088583,,,TRUE,,,,,,,,FEW,1700,OVC,5000,,,,,VFR,,,,,,,,,,,,METAR,14.0
EKRK 180320Z AUTO 17006KT 9999 -SN OVC048/// M02/M04 Q1017 R99/////// R99/710166,EKRK,2021-01-18T03:20:00Z,55.58,12.13,-2.0,-4.0,170,6,,6.21,30.029528,,,TRUE,,,,,,,-SN,OVC,4800,,,,,,,VFR,,,,,,,,,,,,METAR,40.0
EKKA 180320Z AUTO 18006KT 3500 BR OVC004/// M01/M02 Q1015,EKKA,2021-01-18T03:20:00Z,56.3,9.12,-1.0,-2.0,180,6,,2.17,29.970472,,,TRUE,,,,,,,BR,OVC,400,,,,,,,LIFR,,,,,,,,,,,,METAR,50.0
EKEB 180320Z AUTO 16006KT 0200 R08/0550N R26/0700N FG VV002 00/00 Q1015,EKEB,2021-01-18T03:20:00Z,55.52,8.55,0.0,0.0,160,6,,0.12,29.970472,,,TRUE,,,,,,,FG,OVX,0,,,,,,,LIFR,,,,,,,,,,,200,METAR,29.0
EKCH 180320Z AUTO 22006KT 210V280 9999 BKN061/// BKN140/// M01/M03 Q1018 NOSIG,EKCH,2021-01-18T03:20:00Z,55.62,12.67,-1.0,-3.0,220,6,,6.21,30.059055,,,TRUE,,,TRUE,,,,,BKN,6100,BKN,14000,,,,,VFR,,,,,,,,,,,,METAR,4.0
EKBI 180320Z AUTO 15004KT 1500 BR OVC003/// M01/M01 Q1016 R09/510195,EKBI,2021-01-18T03:20:00Z,55.73,9.15,-1.0,-1.0,150,4,,0.93,30.0,,,TRUE,,,,,,,BR,OVC,300,,,,,,,LIFR,,,,,,,,,,,,METAR,67.0
EKAH 180320Z AUTO 20004KT 140V240 7000 OVC011/// 00/M01 Q1016 R99/720295,EKAH,2021-01-18T03:20:00Z,56.28,10.62,0.0,-1.0,200,4,,4.35,30.0,,,TRUE,,,,,,,,OVC,1100,,,,,,,MVFR,,,,,,,,,,,,METAR,25.0
EFVA 180320Z AUTO 18010KT 9999 OVC020 M02/M04 Q1011,EFVA,2021-01-18T03:20:00Z,63.05,21.77,-2.0,-4.0,180,10,,6.21,29.852362,,,TRUE,,,,,,,,OVC,2000,,,,,,,MVFR,,,,,,,,,,,,METAR,4.0
EFUT 180320Z AUTO 23002KT 9999 BCFG SCT002 OVC020 M07/M08 Q1015,EFUT,2021-01-18T03:20:00Z,60.88,26.93,-7.0,-8.0,230,2,,6.21,29.970472,,,TRUE,,,,,,,BCFG,SCT,200,OVC,2000,,,,,MVFR,,,,,,,,,,,,METAR,104.0
EFTU 180320Z AUTO VRB02KT 9999 OVC022 M07/M08 Q1014,EFTU,2021-01-18T03:20:00Z,60.52,22.27,-7.0,-8.0,0,2,,6.21,29.940945,,,TRUE,,,,,,,,OVC,2200,,,,,,,MVFR,,,,,,,,,,,,METAR,47.0
EFTP 180320Z AUTO VRB02KT 6000 OVC002 M09/M10 Q1014,EFTP,2021-01-18T03:20:00Z,61.42,23.62,-9.0,-10.0,0,2,,3.73,29.940945,,,TRUE,,,,,,,,OVC,200,,,,,,,LIFR,,,,,,,,,,,,METAR,111.0
EFSI 180320Z AUTO 16004KT 130V190 9999 BKN026 OVC030 M05/M05 Q1012,EFSI,2021-01-18T03:20:00Z,62.7,22.83,-5.0,-5.0,160,4,,6.21,29.88189,,,TRUE,,,,,,,,BKN,2600,OVC,3000,,,,,MVFR,,,,,,,,,,,,METAR,90.0
EFSA 180320Z AUTO 25002KT 9999 -SHSN FEW005 M06/M06 Q1013,EFSA,2021-01-18T03:20:00Z,61.95,28.93,-6.0,-6.0,250,2,,6.21,29.911417,,,TRUE,,,,,,,-SHSN,FEW,500,,,,,,,VFR,,,,,,,,,,,,METAR,90.0
EFRO 180320Z AUTO 24006KT 9999 SCT001 M13/M15 Q1007 REFZDZ,EFRO,2021-01-18T03:20:00Z,66.57,25.82,-13.0,-15.0,240,6,,6.21,29.734253,,,TRUE,,,,,,,,SCT,100,,,,,,,VFR,,,,,,,,,,,,METAR,201.0
EFPO 180320Z AUTO 14006KT 9999 OVC026 M05/M05 Q1013,EFPO,2021-01-18T03:20:00Z,61.47,21.8,-5.0,-5.0,140,6,,6.21,29.911417,,,TRUE,,,,,,,,OVC,2600,,,,,,,MVFR,,,,,,,,,,,,METAR,10.0
EFOU 180320Z AUTO 16004KT 9999 OVC028 M06/M07 Q1010,EFOU,2021-01-18T03:20:00Z,64.92,25.37,-6.0,-7.0,160,4,,6.21,29.822834,,,TRUE,,,,,,,,OVC,2800,,,,,,,MVFR,,,,,,,,,,,,METAR,15.0
EFMA 180320Z AUTO 21005KT 9999 OVC028 M01/M05 Q1014,EFMA,2021-01-18T03:20:00Z,60.12,19.9,-1.0,-5.0,210,5,,6.21,29.940945,,,TRUE,,,,,,,,OVC,2800,,,,,,,MVFR,,,,,,,,,,,,METAR,6.0
EFKU 180320Z AUTO 25003KT 220V280 9999 OVC004 M04/M05 Q1012,EFKU,2021-01-18T03:20:00Z,63.02,27.8,-4.0,-5.0,250,3,,6.21,29.88189,,,TRUE,,,,,,,,OVC,400,,,,,,,LIFR,,,,,,,,,,,,METAR,92.0
EFKT 180320Z AUTO VRB02KT CAVOK M19/M21 Q1005,EFKT,2021-01-18T03:20:00Z,67.7,24.85,-19.0,-21.0,0,2,,6.21,29.675198,,,TRUE,,,,,,,,CAVOK,,,,,,,,VFR,,,,,,,,,,,,METAR,190.0
EFKS 180320Z AUTO 25004KT 230V290 9999 FZUP OVC003 M08/M10 Q1007,EFKS,2021-01-18T03:20:00Z,66.0,29.23,-8.0,-10.0,250,4,,6.21,29.734253,,,TRUE,,,,,,,UP,OVC,300,,,,,,,LIFR,,,,,,,,,,,,METAR,270.0
EFKK 180320Z AUTO 17010KT 9999 OVC025 M02/M04 Q1010,EFKK,2021-01-18T03:20:00Z,63.72,23.13,-2.0,-4.0,170,10,,6.21,29.822834,,,TRUE,,,,,,,,OVC,2500,,,,,,,MVFR,,,,,,,,,,,,METAR,25.0
EFKI 180320Z AUTO 22004KT 9999 -SHSN FEW008 OVC031 M05/M05 Q1010,EFKI,2021-01-18T03:20:00Z,64.27,27.67,-5.0,-5.0,220,4,,6.21,29.822834,,,TRUE,,,,,,,-SHSN,FEW,800,OVC,3100,,,,,VFR,,,,,,,,,,,,METAR,132.0
EFKE 180320Z AUTO 12003KT 060V200 9999 FEW017 OVC022 M12/M13 Q1009,EFKE,2021-01-18T03:20:00Z,65.78,24.57,-12.0,-13.0,120,3,,6.21,29.793306,,,TRUE,,,,,,,,FEW,1700,OVC,2200,,,,,MVFR,,,,,,,,,,,,METAR,15.0
EFJY 180320Z AUTO 20003KT 160V230 CAVOK M06/M07 Q1013,EFJY,2021-01-18T03:20:00Z,62.4,25.68,-6.0,-7.0,200,3,,6.21,29.911417,,,TRUE,,,,,,,,CAVOK,,,,,,,,VFR,,,,,,,,,,,,METAR,139.0
EFJO 180320Z AUTO 28006KT 9999 BKN004 BKN047 M05/M05 Q1012,EFJO,2021-01-18T03:20:00Z,62.67,29.62,-5.0,-5.0,280,6,,6.21,29.88189,,,TRUE,,,,,,,,BKN,400,BKN,4700,,,,,LIFR,,,,,,,,,,,,METAR,118.0
EFIV 180320Z AUTO 23007KT CAVOK M08/M10 Q1003,EFIV,2021-01-18T03:20:00Z,68.62,27.42,-8.0,-10.0,230,7,,6.21,29.616142,,,TRUE,,,,,,,,CAVOK,,,,,,,,VFR,,,,,,,,,,,,METAR,145.0
EFHK 180320Z 13002KT 0600 R04L/1900N R15/0900D R22L/1900U R22R/1200D FZFG VV003 M13/M14 Q1015 BECMG 9999 NSW FEW002,EFHK,2021-01-18T03:20:00Z,60.32,24.97,-13.0,-14.0,130,2,,0.37,29.970472,,,,,,,,,,FZFG,OVX,0,,,,,,,LIFR,,,,,,,,,,,300,METAR,56.0
EFHA 180320Z AUTO 16003KT 9999 BKN005 M08/M09 Q1013,EFHA,2021-01-18T03:20:00Z,61.85,24.8,-8.0,-9.0,160,3,,6.21,29.911417,,,TRUE,,,,,,,,BKN,500,,,,,,,IFR,,,,,,,,,,,,METAR,144.0
EFET 180320Z AUTO 24003KT 3600 BR BKN002 M21/M24 Q1004,EFET,2021-01-18T03:20:00Z,68.37,23.43,-21.0,-24.0,240,3,,2.24,29.64567,,,TRUE,,,,,,,BR,BKN,200,,,,,,,LIFR,,,,,,,,,,,,METAR,300.0
EETN 180320Z 19004KT 9999 OVC004 M05/M06 Q1016 R08/81//95,EETN,2021-01-18T03:20:00Z,59.4,24.82,-5.0,-6.0,190,4,,6.21,30.0,,,,,,,,,,,OVC,400,,,,,,,LIFR,,,,,,,,,,,,METAR,41.0
EDDW 180320Z 27008KT 8000 BKN005 03/02 Q1019 R88/190095,EDDW,2021-01-18T03:20:00Z,53.03,8.8,3.0,2.0,270,8,,4.97,30.088583,,,,,,,,,,,BKN,500,,,,,,,IFR,,,,,,,,,,,,METAR,5.0
EDDV 180320Z 27008KT 7000 OVC004 03/03 Q1019,EDDV,2021-01-18T03:20:00Z,52.47,9.68,3.0,3.0,270,8,,4.35,30.088583,,,,,,,,,,,OVC,400,,,,,,,LIFR,,,,,,,,,,,,METAR,53.0
EDDS 180320Z 25006KT 220V280 9999 FEW014 BKN036 01/M00 Q1024,EDDS,2021-01-18T03:20:00Z,48.68,9.22,1.0,0.0,250,6,,6.21,30.236221,,,,,,,,,,,FEW,1400,BKN,3600,,,,,VFR,,,,,,,,,,,,METAR,374.0
EDDR 180320Z 24005KT 9999 BKN006 01/00 Q1025,EDDR,2021-01-18T03:20:00Z,49.22,7.1,1.0,0.0,240,5,,6.21,30.265747,,,,,,,,,,,BKN,600,,,,,,,IFR,,,,,,,,,,,,METAR,317.0
EDDP 180320Z 21006KT 3500 BR SCT005 OVC022 M02/M02 Q1019 R26R/4502// R26L/190195 TEMPO 6000 BKN005,EDDP,2021-01-18T03:20:00Z,51.43,12.23,-2.0,-2.0,210,6,,2.17,30.088583,,,,,,,,,,BR,SCT,500,OVC,2200,,,,,IFR,,,,,,,,,,,,METAR,129.0
EDDN 180320Z 27006KT 4000 -SN BKN004 01/00 Q1021 R28/19//93,EDDN,2021-01-18T03:20:00Z,49.5,11.05,1.0,0.0,270,6,,2.49,30.147638,,,,,,,,,,-SN,BKN,400,,,,,,,LIFR,,,,,,,,,,,,METAR,312.0
EDDM 180320Z 27011KT 9999 SCT009 OVC012 01/M01 Q1022 R26L/290195 TEMPO BKN009,EDDM,2021-01-18T03:20:00Z,48.35,11.82,1.0,-1.0,270,11,,6.21,30.177166,,,,,,,,,,,SCT,900,OVC,1200,,,,,MVFR,,,,,,,,,,,,METAR,445.0
EDDL 180320Z 24007KT 9999 FEW007 BKN037 04/03 Q1023 NOSIG,EDDL,2021-01-18T03:20:00Z,51.3,6.77,4.0,3.0,240,7,,6.21,30.206694,,,,,,TRUE,,,,,FEW,700,BKN,3700,,,,,VFR,,,,,,,,,,,,METAR,37.0
EDDK 180320Z 27010KT 9999 FEW015 BKN045 04/02 Q1023 R14L/190195 R06/190195 NOSIG,EDDK,2021-01-18T03:20:00Z,50.87,7.15,4.0,2.0,270,10,,6.21,30.206694,,,,,,TRUE,,,,,FEW,1500,BKN,4500,,,,,VFR,,,,,,,,,,,,METAR,92.0
EDDH 180320Z 22005KT 4000 -FZRA FEW002 BKN003 00/M00 Q1018 BECMG NSW,EDDH,2021-01-18T03:20:00Z,53.63,10.0,0.0,0.0,220,5,,2.49,30.059055,,,,,,,,,,-FZRA,FEW,200,BKN,300,,,,,LIFR,,,,,,,,,,,,METAR,8.0
EDDG 180320Z 23005KT 9999 BKN009 03/03 Q1021 BECMG BKN015,EDDG,2021-01-18T03:20:00Z,52.13,7.7,3.0,3.0,230,5,,6.21,30.147638,,,,,,,,,,,BKN,900,,,,,,,IFR,,,,,,,,,,,,METAR,46.0
EDDF 180320Z 20004KT 180V240 9999 FEW015 BKN022 01/00 Q1023 R25C/290095 R25L/290095 R18/290095 NOSIG,EDDF,2021-01-18T03:20:00Z,50.05,8.6,1.0,0.0,200,4,,6.21,30.206694,,,,,,TRUE,,,,,FEW,1500,BKN,2200,,,,,MVFR,,,,,,,,,,,,METAR,113.0
EDDE 180320Z 27015KT 6000 FEW004 BKN009 BKN040 00/M00 Q1019 R88/920095,EDDE,2021-01-18T03:20:00Z,50.98,10.97,0.0,0.0,270,15,,3.73,30.088583,,,,,,,,,,,FEW,400,BKN,900,BKN,4000,,,IFR,,,,,,,,,,,,METAR,314.0
EDDC 180320Z 20004KT 170V250 9999 -SN BKN021 M06/M08 Q1019,EDDC,2021-01-18T03:20:00Z,51.13,13.75,-6.0,-8.0,200,4,,6.21,30.088583,,,,,,,,,,-SN,BKN,2100,,,,,,,MVFR,,,,,,,,,,,,METAR,227.0
EDDB 180320Z 11005KT CAVOK M06/M07 Q1020 NOSIG,EDDB,2021-01-18T03:20:00Z,52.38,13.53,-6.0,-7.0,110,5,,6.21,30.11811,,,,,,TRUE,,,,,CAVOK,,,,,,,,VFR,,,,,,,,,,,,METAR,48.0
CYKL 180320Z AUTO 04005KT 1 1/2SM -SN BKN020 OVC029 M07/M08 A2915 RMK SLP910,CYKL,2021-01-18T03:20:00Z,54.8,-66.8,-7.0,-8.0,40,5,,1.5,29.149607,991.0,,TRUE,,,,,,,-SN,BKN,2000,OVC,2900,,,,,IFR,,,,,,,,,,,,METAR,507.0
SCCI 180319Z AUTO 24021G35KT 9999 BKN057/// 12/06 Q0999,SCCI,2021-01-18T03:19:00Z,-53.0,-70.85,12.0,6.0,240,21,35,6.21,29.498032,,,TRUE,,,,,,,,BKN,5700,,,,,,,VFR,,,,,,,,,,,,METAR,37.0
PAPO 180319Z AUTO 03027G30KT 2SM -SN FEW011 BKN019 M14/M17 A2975 RMK AO2 PK WND 02031/0318 VIS 1 1/2V4 P0000 FZRANO,PAPO,2021-01-18T03:19:00Z,68.35,-166.8,-14.0,-17.0,30,27,30,2.0,29.749016,,,TRUE,TRUE,,,,TRUE,,-SN,FEW,1100,BKN,1900,,,,,IFR,,,,,,0.005,,,,,,METAR,4.0
KSLE 180319Z 00000KT 3SM R31/1600V4000FT BR FEW003 05/03 A3048 RMK AO2 T00500033,KSLE,2021-01-18T03:19:00Z,44.9,-123.0,5.0,3.3,0,0,,3.0,30.481298,,,,TRUE,,,,,,BR,FEW,300,,,,,,,MVFR,,,,,,,,,,,,METAR,63.0
KRME 180319Z AUTO 30004KT 2SM -SN BR OVC003 01/M01 A2962 RMK AO2 CIG 003V007 P0000 T00061011,KRME,2021-01-18T03:19:00Z,43.22,-75.4,0.6,-1.1,300,4,,2.0,29.619095,,,TRUE,TRUE,,,,,,-SN BR,OVC,300,,,,,,,LIFR,,,,,,0.005,,,,,,METAR,146.0
KBKX 180319Z AUTO 05004KT 10SM SCT015 BKN033 M03/M04 A2981 RMK AO2 FZRANO,KBKX,2021-01-18T03:19:00Z,44.3,-96.82,-3.0,-4.0,50,4,,10.0,29.811024,,,TRUE,TRUE,,,,TRUE,,,SCT,1500,BKN,3300,,,,,VFR,,,,,,,,,,,,METAR,494.0
UACC 180318Z 21003MPS 3100 BR OVC002 M11/M13 Q1012 R22/39//50 NOSIG RMK QBB070 QFE728/0971,UACC,2021-01-18T03:18:00Z,51.02,71.47,-11.0,-13.0,210,6,,1.93,29.88189,,,,,,TRUE,,,,BR,OVC,200,,,,,,,LIFR,,,,,,,,,,,,METAR,354.0
SBLO 180318Z 03005KT 1600 BR BKN002 BKN010 22/22 Q1012,SBLO,2021-01-18T03:18:00Z,-23.33,-51.12,22.0,22.0,30,5,,0.99,29.88189,,,,,,,,,,BR,BKN,200,BKN,1000,,,,,LIFR,,,,,,,,,,,,SPECI,563.0
PHBK 180318Z AUTO 34028G36KT 1SM -RA FEW012 BKN021 OVC036 A2999 RMK AO2 PK WND 34037/0307 P0009 $,PHBK,2021-01-18T03:18:00Z,22.03,-159.78,,,340,28,36,1.0,29.991142,,,TRUE,TRUE,TRUE,,,,,-RA,FEW,1200,BKN,2100,OVC,3600,,,IFR,,,,,,0.09,,,,,,METAR,5.0
PASO 180318Z AUTO VRB05G19KT 6SM -RA BKN026 OVC033 03/01 A2969 RMK AO2 P0001 T00330006 TSNO,PASO,2021-01-18T03:18:00Z,59.45,-151.7,3.3,0.6,0,5,19,6.0,29.68996,,,TRUE,TRUE,,,TRUE,,,-RA,BKN,2600,OVC,3300,,,,,MVFR,,,,,,0.01,,,,,,METAR,20.0
PAGM 180318Z AUTO 02019KT 2 1/2SM -SN BR FEW012 BKN038 OVC047 M16/M18 A2986 RMK AO2 VIS 1 1/4V5 P0000 FZRANO,PAGM,2021-01-18T03:18:00Z,63.77,-171.73,-16.0,-18.0,20,19,,2.5,29.861221,,,TRUE,TRUE,,,,TRUE,,-SN BR,FEW,1200,BKN,3800,OVC,4700,,,IFR,,,,,,0.005,,,,,,METAR,6.0
KY70 180318Z AUTO 28003KT 10SM -SN OVC033 M01/M02 A2968 RMK AO2 T10101021,KY70,2021-01-18T03:18:00Z,42.93,-85.07,-1.0,-2.1,280,3,,10.0,29.681103,,,TRUE,TRUE,,,,,,-SN,OVC,3300,,,,,,,VFR,,,,,,,,,,,,METAR,247.0
KUGN 180318Z AUTO 30003KT 6SM BR OVC029 M02/M04 A2974 RMK AO2 T10221044,KUGN,2021-01-18T03:18:00Z,42.42,-87.87,-2.2,-4.4,300,3,,6.0,29.740158,,,TRUE,TRUE,,,,,,BR,OVC,2900,,,,,,,MVFR,,,,,,,,,,,,METAR,217.0
KSAW 180318Z AUTO 33007KT 10SM OVC017 M06/M07 A2969 RMK AO2 T10561069,KSAW,2021-01-18T03:18:00Z,46.35,-87.4,-5.6,-6.9,330,7,,10.0,29.68996,,,TRUE,TRUE,,,,,,,OVC,1700,,,,,,,MVFR,,,,,,,,,,,,METAR,359.0
KPKB 180318Z 22006KT 9SM BKN009 BKN015 OVC027 01/M01 A2977 RMK AO2 SNE13 P0001 T00111006,KPKB,2021-01-18T03:18:00Z,39.35,-81.43,1.1,-0.6,220,6,,9.0,29.769686,,,,TRUE,,,,,,,BKN,900,BKN,1500,OVC,2700,,,IFR,,,,,,0.01,,,,,,METAR,245.0
KMYL 180318Z AUTO 00000KT 9SM FEW047 M07/M08 A3024 RMK AO2 T10671078,KMYL,2021-01-18T03:18:00Z,44.9,-116.1,-6.7,-7.8,0,0,,9.0,30.239174,,,TRUE,TRUE,,,,,,,FEW,4700,,,,,,,VFR,,,,,,,,,,,,SPECI,1532.0
KMSN 180318Z 00000KT 9SM -SN FEW007 BKN028 OVC035 M03/M04 A2974 RMK AO2 P0000 T10281044,KMSN,2021-01-18T03:18:00Z,43.13,-89.35,-2.8,-4.4,0,0,,9.0,29.740158,,,,TRUE,,,,,,-SN,FEW,700,BKN,2800,OVC,3500,,,MVFR,,,,,,0.005,,,,,,SPECI,262.0
KMDH 180318Z AUTO 28004KT 10SM FEW016 BKN022 OVC030 02/M01 A2991 RMK AO2 SNE08 P0000 T00171011,KMDH,2021-01-18T03:18:00Z,37.78,-89.25,1.7,-1.1,280,4,,10.0,29.911417,,,TRUE,TRUE,,,,,,,FEW,1600,BKN,2200,OVC,3000,,,MVFR,,,,,,0.005,,,,,,METAR,122.0
KHOP 180318Z AUTO 27010KT 10SM -DZ FEW022 FEW027 SCT034 BKN043 03/01 A2990 RMK AO2 DZE06DZB18 SLP131,KHOP,2021-01-18T03:18:00Z,36.67,-87.5,3.0,1.0,270,10,,10.0,29.899607,1013.1,,TRUE,TRUE,,,,,,-DZ,FEW,2200,FEW,2700,SCT,3400,BKN,4300,VFR,,,,,,,,,,,,METAR,170.0
KFFX 180318Z AUTO 00000KT 10SM BKN033 OVC040 M01/M03 A2969 RMK AO2 T10101032,KFFX,2021-01-18T03:18:00Z,43.43,-86.0,-1.0,-3.2,0,0,,10.0,29.68996,,,TRUE,TRUE,,,,,,,BKN,3300,OVC,4000,,,,,VFR,,,,,,,,,,,,METAR,234.0
KAUW 180318Z AUTO 36006KT 10SM SCT008 OVC022 M05/M07 A2970 RMK AO2 I1000 T10501067,KAUW,2021-01-18T03:18:00Z,44.93,-89.62,-5.0,-6.7,360,6,,10.0,29.698818,,,TRUE,TRUE,,,,,,,SCT,800,OVC,2200,,,,,MVFR,,,,,,,,,,,,METAR,367.0
CZBF 180318Z AUTO 24007KT 9SM -SN BKN100 BKN190 M01/M02 A2906 RMK SLP852,CZBF,2021-01-18T03:18:00Z,47.62,-65.75,-1.0,-2.0,240,7,,9.0,29.061024,985.2,,TRUE,,,,,,,-SN,BKN,10000,BKN,19000,,,,,VFR,,,,,,,,,,,,SPECI,60.0
PHNY 180317Z AUTO 19005KT 10SM FEW008 SCT024 OVC100 21/ A3003 RMK AO2,PHNY,2021-01-18T03:17:00Z,20.77,-156.95,21.0,,190,5,,10.0,30.029528,,,TRUE,TRUE,,,,,,,FEW,800,SCT,2400,OVC,10000,,,VFR,,,,,,,,,,,,METAR,395.0
PAKN 180317Z 18011KT 4SM -SN BR BKN007 OVC034 00/M01 A2947 RMK AO2 P0000 T00001011,PAKN,2021-01-18T03:17:00Z,58.68,-156.65,0.0,-1.1,180,11,,4.0,29.471457,,,,TRUE,,,,,,-SN BR,BKN,700,OVC,3400,,,,,IFR,,,,,,0.005,,,,,,METAR,20.0
KRXE 180317Z AUTO 00000KT 1 3/4SM BR OVC003 M04/M04 A3016 RMK AO2 T10391039,KRXE,2021-01-18T03:17:00Z,43.83,-111.8,-3.9,-3.9,0,0,,1.75,30.159449,,,TRUE,TRUE,,,,,,BR,OVC,300,,,,,,,LIFR,,,,,,,,,,,,METAR,1483.0
KRFD 180317Z 26003KT 5SM -SN FEW008 BKN029 OVC045 M02/M04 A2978 RMK AO2 P0000 T10171044 $,KRFD,2021-01-18T03:17:00Z,42.2,-89.1,-1.7,-4.4,260,3,,5.0,29.778543,,,,TRUE,TRUE,,,,,-SN,FEW,800,BKN,2900,OVC,4500,,,MVFR,,,,,,0.005,,,,,,METAR,222.0
KPNM 180317Z AUTO 00000KT 10SM OVC017 M07/M08 A2980 RMK AO2,KPNM,2021-01-18T03:17:00Z,45.53,-93.6,-7.0,-8.0,0,0,,10.0,29.799213,,,TRUE,TRUE,,,,,,,OVC,1700,,,,,,,MVFR,,,,,,,,,,,,METAR,298.0
KGOV 180317Z AUTO 00000KT 9SM UP BKN007 OVC012 M03/M04 A2965 RMK AO2 UPB06 CIG 007V010 SLP061 $,KGOV,2021-01-18T03:17:00Z,44.68,-84.73,-3.0,-4.0,0,0,,9.0,29.648623,1006.1,,TRUE,TRUE,TRUE,,,,,UP,BKN,700,OVC,1200,,,,,IFR,,,,,,,,,,,,METAR,350.0
KCQM 180317Z AUTO 29003KT 10SM OVC006 M08/M09 A2974 RMK AO2,KCQM,2021-01-18T03:17:00Z,47.82,-92.68,-8.0,-9.0,290,3,,10.0,29.740158,,,TRUE,TRUE,,,,,,,OVC,600,,,,,,,IFR,,,,,,,,,,,,METAR,406.0
KADC 180317Z AUTO 32013G16KT 10SM OVC016 M08/M11 A2980 RMK AO2,KADC,2021-01-18T03:17:00Z,46.45,-95.22,-8.0,-11.0,320,13,16,10.0,29.799213,,,TRUE,TRUE,,,,,,,OVC,1600,,,,,,,MVFR,,,,,,,,,,,,SPECI,416.0
K2V6 180317Z AUTO 17006KT 10SM SCT075 BKN090 00/M08 A2982 RMK AO2,K2V6,2021-01-18T03:17:00Z,40.1,-102.72,0.0,-8.0,170,6,,10.0,29.819881,,,TRUE,TRUE,,,,,,,SCT,7500,BKN,9000,,,,,VFR,,,,,,,,,,,,SPECI,1257.0
CYYC 180317Z 36016G21KT 5SM -SN FEW014 OVC049 01/M01 A2998 RMK SF2SC6 SLP197,CYYC,2021-01-18T03:17:00Z,51.12,-114.02,1.0,-1.0,360,16,21,5.0,29.97933,1019.7,,,,,,,,,-SN,FEW,1400,OVC,4900,,,,,MVFR,,,,,,,,,,,,SPECI,1085.0
CYTL 180317Z AUTO 01006G15KT 330V050 6SM -SN BKN047 OVC100 M20/M22 A2988 RMK SLP148,CYTL,2021-01-18T03:17:00Z,53.82,-89.88,-20.0,-22.0,10,6,15,6.0,29.878937,1014.8,,TRUE,,,,,,,-SN,BKN,4700,OVC,10000,,,,,VFR,,,,,,,,,,,,SPECI,218.0
CYRQ 180317Z AUTO 24007KT 9SM BKN023 OVC028 M02/M05 A2942 RMK SLP970,CYRQ,2021-01-18T03:17:00Z,46.35,-72.68,-2.0,-5.0,240,7,,9.0,29.421259,997.0,,TRUE,,,,,,,,BKN,2300,OVC,2800,,,,,MVFR,,,,,,,,,,,,SPECI,58.0
CYGW 180317Z AUTO 00000KT 5SM -SN CLR M24/M27 A2979 RMK SLP089,CYGW,2021-01-18T03:17:00Z,55.27,-77.77,-24.0,-27.0,0,0,,5.0,29.790354,1008.9,,TRUE,,,,,,,-SN,CLR,,,,,,,,MVFR,,,,,,,,,,,,SPECI,13.0
PAPH 180316Z AUTO 22013KT 4SM -SN BR SCT007 BKN018 OVC033 M02/M03 A2954 RMK AO2 P0000 FZRANO,PAPH,2021-01-18T03:16:00Z,56.95,-158.62,-2.0,-3.0,220,13,,4.0,29.53937,,,TRUE,TRUE,,,,TRUE,,-SN BR,SCT,700,BKN,1800,OVC,3300,,,MVFR,,,,,,0.005,,,,,,SPECI,29.0
KPHD 180316Z AUTO 22003KT 2SM -SN BR SCT007 BKN015 OVC020 01/00 A2972 RMK AO2 P0000 T00060000,KPHD,2021-01-18T03:16:00Z,40.47,-81.42,0.6,0.0,220,3,,2.0,29.719488,,,TRUE,TRUE,,,,,,-SN BR,SCT,700,BKN,1500,OVC,2000,,,IFR,,,,,,0.005,,,,,,METAR,272.0
KMPO 180316Z AUTO 24008KT 6SM -SN BR FEW009 BKN014 OVC050 M01/M03 A2964 RMK AO2 P0000 T10111033,KMPO,2021-01-18T03:16:00Z,41.13,-75.38,-1.1,-3.3,240,8,,6.0,29.639763,,,TRUE,TRUE,,,,,,-SN BR,FEW,900,BKN,1400,OVC,5000,,,MVFR,,,,,,0.005,,,,,,METAR,576.0
KLOU 180316Z 25003KT 10SM FEW009 OVC085 00/M02 A2985 RMK AO2 T00001022,KLOU,2021-01-18T03:16:00Z,38.22,-85.67,0.0,-2.2,250,3,,10.0,29.84941,,,,TRUE,,,,,,,FEW,900,OVC,8500,,,,,VFR,,,,,,,,,,,,METAR,165.0
KFFT 180316Z AUTO 23006KT 3SM -SN BR FEW022 BKN034 OVC055 00/M02 A2983 RMK AO2 P0000 T00001022,KFFT,2021-01-18T03:16:00Z,38.18,-84.9,0.0,-2.2,230,6,,3.0,29.828741,,,TRUE,TRUE,,,,,,-SN BR,FEW,2200,BKN,3400,OVC,5500,,,MVFR,,,,,,0.005,,,,,,METAR,235.0
KDUJ 180316Z AUTO 24008KT 2SM BR BKN006 OVC010 M01/M02 A2963 RMK AO2 SNE16 CIG 004V009 P0000 T10061017,KDUJ,2021-01-18T03:16:00Z,41.17,-78.9,-0.6,-1.7,240,8,,2.0,29.630905,,,TRUE,TRUE,,,,,,BR,BKN,600,OVC,1000,,,,,IFR,,,,,,0.005,,,,,,METAR,552.0
KDIJ 180316Z AUTO VRB03KT 3/4SM BR BKN002 OVC011 M06/M07 A3012 RMK AO2,KDIJ,2021-01-18T03:16:00Z,43.75,-111.1,-6.0,-7.0,0,3,,0.75,30.121063,,,TRUE,TRUE,,,,,,BR,BKN,200,OVC,1100,,,,,LIFR,,,,,,,,,,,,SPECI,1896.0
KCAK 180316Z 25007KT 4SM -SN BR SCT007 OVC013 01/M02 A2969 RMK AO2 P0000 T00061017 $,KCAK,2021-01-18T03:16:00Z,40.92,-81.45,0.6,-1.7,250,7,,4.0,29.68996,,,,TRUE,TRUE,,,,,-SN BR,SCT,700,OVC,1300,,,,,MVFR,,,,,,0.005,,,,,,METAR,369.0
KAMN 180316Z AUTO 00000KT 10SM BKN065 M01/M01 A2969 RMK AO2 T10131013,KAMN,2021-01-18T03:16:00Z,43.32,-84.68,-1.3,-1.3,0,0,,10.0,29.68996,,,TRUE,TRUE,,,,,,,BKN,6500,,,,,,,VFR,,,,,,,,,,,,SPECI,228.0
KAGC 180316Z 23007KT 1 3/4SM -SN BR BKN006 OVC014 00/M01 A2969 RMK AO2 SNB01 P0001 T00001006,KAGC,2021-01-18T03:16:00Z,40.35,-79.92,0.0,-0.6,230,7,,1.75,29.68996,,,,TRUE,,,,,,-SN BR,BKN,600,OVC,1400,,,,,IFR,,,,,,0.01,,,,,,METAR,380.0
K40B 180316Z AUTO 24006G13KT 160V320 M03/M04 A2924 RMK AO1 SLP921 T10251035 53019,K40B,2021-01-18T03:16:00Z,46.62,-69.52,-2.5,-3.5,240,6,13,,29.241142,992.1,,TRUE,TRUE,,,,,,,,,,,,,,,,1.9,,,,,,,,,,,METAR,344.0
CZUM 180316Z AUTO 05009KT 5SM -SN BKN019 BKN026 OVC036 M04/M06 A2908 RMK SLP879,CZUM,2021-01-18T03:16:00Z,53.55,-64.1,-4.0,-6.0,50,9,,5.0,29.078741,987.9,,TRUE,,,,,,,-SN,BKN,1900,BKN,2600,OVC,3600,,,MVFR,,,,,,,,,,,,SPECI,431.0
CYQA 180316Z AUTO 33004KT 9SM SCT008 OVC015 M07/M09 A2962 RMK SLP047,CYQA,2021-01-18T03:16:00Z,44.97,-79.3,-7.0,-9.0,330,4,,9.0,29.619095,1004.7,,TRUE,,,,,,,,SCT,800,OVC,1500,,,,,MVFR,,,,,,,,,,,,SPECI,277.0
YPTN 180315Z AUTO 08018G29KT 070V130 //// -SHRA SCT026 SCT037 BKN050 29/22 Q1007,YPTN,2021-01-18T03:15:00Z,-14.52,132.38,29.0,22.0,80,18,29,,29.734253,,,TRUE,,,,,,,-SHRA,SCT,2600,SCT,3700,BKN,5000,,,,,,,,,,,,,,,SPECI,135.0
YMEN 180315Z AUTO 24015G26KT 210V280 9999 // BKN046 24/10 Q1016,YMEN,2021-01-18T03:15:00Z,-37.72,144.9,24.0,10.0,240,15,26,6.21,30.0,,,TRUE,,,,,,,,BKN,4600,,,,,,,VFR,,,,,,,,,,,,SPECI,86.0
SBPL 180315Z 15013KT CAVOK 27/17 Q1011,SBPL,2021-01-18T03:15:00Z,-9.37,-40.57,27.0,17.0,150,13,,6.21,29.852362,,,,,,,,,,,CAVOK,,,,,,,,VFR,,,,,,,,,,,,SPECI,386.0
SBJE 180315Z 13001KT 9999 SCT020 29/23 Q1009,SBJE,2021-01-18T03:15:00Z,-2.9,-40.35,29.0,23.0,130,1,,6.21,29.793306,,,,,,,,,,,SCT,2000,,,,,,,VFR,,,,,,,,,,,,SPECI,25.0
PAWD 180315Z AUTO 19022G27KT 8SM -RA SCT028 BKN036 OVC060 03/00 A2983 RMK AO2 PK WND 19027/0313 RAB07 P0000 T00330000 TSNO,PAWD,2021-01-18T03:15:00Z,60.12,-149.42,3.3,0.0,190,22,27,8.0,29.828741,,,TRUE,TRUE,,,TRUE,,,-RA,SCT,2800,BKN,3600,OVC,6000,,,VFR,,,,,,0.005,,,,,,SPECI,3.0
PAUT 180315Z AUTO 7SM SCT015 BKN038 OVC060 M02/M07 A2972 RMK AO2 T10191073 PWINO,PAUT,2021-01-18T03:15:00Z,54.13,-165.6,-1.9,-7.3,,,,7.0,29.719488,,,TRUE,TRUE,,,,,TRUE,,SCT,1500,BKN,3800,OVC,6000,,,VFR,,,,,,,,,,,,SPECI,25.0
PAKX 180315Z AUTO 17003KT 10SM SCT060 OVC080 03/M03 A2953 RMK AO2,PAKX,2021-01-18T03:15:00Z,,,3.0,-3.0,170,3,,10.0,29.530512,,,TRUE,TRUE,,,,,,,SCT,6000,OVC,8000,,,,,VFR,,,,,,,,,,,,METAR,
PAKF 180315Z AUTO 31018G32KT 2 1/2SM -SN BKN029 OVC034 A2966 RMK AO2 PK WND 33032/0309 VIS 1 1/4V4 RAB08E10 P0000 FZRANO $,PAKF,2021-01-18T03:15:00Z,54.85,-163.42,,,310,18,32,2.5,29.660433,,,TRUE,TRUE,TRUE,,,TRUE,,-SN,BKN,2900,OVC,3400,,,,,IFR,,,,,,0.005,,,,,,SPECI,6.0
PAAD 180315Z AUTO 25009KT 10SM OVC013 M25/M28 A2987 RMK AO2 T12531280,PAAD,2021-01-18T03:15:00Z,70.13,-146.28,-25.3,-28.0,250,9,,10.0,29.870079,,,TRUE,TRUE,,,,,,,OVC,1300,,,,,,,MVFR,,,,,,,,,,,,METAR,8.0
LMML 180315Z 29026KT 9999 SCT023 BKN032 14/10 Q1014 NOSIG,LMML,2021-01-18T03:15:00Z,35.85,14.47,14.0,10.0,290,26,,6.21,29.940945,,,,,,TRUE,,,,,SCT,2300,BKN,3200,,,,,VFR,,,,,,,,,,,,METAR,78.0
LHSN 180315Z 23002KT 4000 BR BKN200 M08/M09 Q1021 TEMPO 5000 BR RMK GRN,LHSN,2021-01-18T03:15:00Z,47.12,20.23,-8.0,-9.0,230,2,,2.49,30.147638,,,,,,,,,,BR,BKN,20000,,,,,,,IFR,,,,,,,,,,,,SPECI,89.0
LHKE 180315Z 28004KT 4000 BR SCT083 M10/M11 Q1021 R12/01//95 NOSIG RMK GRN,LHKE,2021-01-18T03:15:00Z,46.92,19.75,-10.0,-11.0,280,4,,2.49,30.147638,,,,,,TRUE,,,,BR,SCT,8300,,,,,,,IFR,,,,,,,,,,,,SPECI,113.0
KZPH 180315Z AUTO 10SM CLR 10/08 A3009 RMK A02 T00990084,KZPH,2021-01-18T03:15:00Z,28.23,-82.15,9.9,8.4,,,,10.0,30.088583,,,TRUE,TRUE,,,,,,,CLR,,,,,,,,VFR,,,,,,,,,,,,METAR,26.0
KY63 180315Z AUTO 32005KT 10SM SCT011 BKN018 OVC031 M06/M07 A2983 RMK AO2 T10651071,KY63,2021-01-18T03:15:00Z,45.98,-96.0,-6.5,-7.1,320,5,,10.0,29.828741,,,TRUE,TRUE,,,,,,,SCT,1100,BKN,1800,OVC,3100,,,MVFR,,,,,,,,,,,,SPECI,367.0
KY51 180315Z AUTO 29003KT 10SM OVC015 M04/M04 A2975 RMK AO1 T10401041,KY51,2021-01-18T03:15:00Z,43.58,-90.9,-4.0,-4.1,290,3,,10.0,29.749016,,,TRUE,TRUE,,,,,,,OVC,1500,,,,,,,MVFR,,,,,,,,,,,,SPECI,390.0
KY49 180315Z AUTO 32008KT 10SM OVC013 M09/M10 A2978 RMK AO2 T10881097,KY49,2021-01-18T03:15:00Z,47.15,-94.65,-8.8,-9.7,320,8,,10.0,29.778543,,,TRUE,TRUE,,,,,,,OVC,1300,,,,,,,MVFR,,,,,,,,,,,,METAR,413.0
KY31 180315Z AUTO 28007KT 5SM -SN SCT016 BKN022 OVC036 M01/M03 A2965 RMK AO2 T10151029,KY31,2021-01-18T03:15:00Z,44.25,-84.18,-1.5,-2.9,280,7,,5.0,29.648623,,,TRUE,TRUE,,,,,,-SN,SCT,1600,BKN,2200,OVC,3600,,,MVFR,,,,,,,,,,,,METAR,264.0
KY23 180315Z AUTO 00000KT 10SM OVC016 M05/M08 A2975 RMK AO2 T10481077,KY23,2021-01-18T03:15:00Z,45.3,-91.63,-4.8,-7.7,0,0,,10.0,29.749016,,,TRUE,TRUE,,,,,,,OVC,1600,,,,,,,MVFR,,,,,,,,,,,,METAR,322.0
KY19 180315Z AUTO 13005KT 10SM FEW038 BKN047 OVC055 M04/M06 A2980 RMK AO2 PWINO,KY19,2021-01-18T03:15:00Z,46.77,-100.9,-4.0,-6.0,130,5,,10.0,29.799213,,,TRUE,TRUE,,,,,TRUE,,FEW,3800,BKN,4700,OVC,5500,,,VFR,,,,,,,,,,,,SPECI,591.0
KXSA 180315Z AUTO 18003KT 10SM BKN075 05/00 A2982 RMK AO2 T00490000,KXSA,2021-01-18T03:15:00Z,37.87,-76.9,4.9,0.0,180,3,,10.0,29.819881,,,TRUE,TRUE,,,,,,,BKN,7500,,,,,,,VFR,,,,,,,,,,,,SPECI,41.0
KXNX 180315Z AUTO 00000KT 10SM OVC060 02/M03 A2993 RMK A01,KXNX,2021-01-18T03:15:00Z,36.38,-86.42,2.0,-3.0,0,0,,10.0,29.929134,,,TRUE,TRUE,,,,,,,OVC,6000,,,,,,,VFR,,,,,,,,,,,,SPECI,178.0
KXLL 180315Z AUTO 00000KT 10SM CLR 03/M02 A2973 RMK AO2,KXLL,2021-01-18T03:15:00Z,40.57,-75.48,3.0,-2.0,0,0,,10.0,29.731298,,,TRUE,TRUE,,,,,,,CLR,,,,,,,,VFR,,,,,,,,,,,,METAR,118.0
KXER 180315Z AUTO 00000KT 10SM CLR 16/02 A3015 RMK A01,KXER,2021-01-18T03:15:00Z,,,16.0,2.0,0,0,,10.0,30.15059,,,TRUE,TRUE,,,,,,,CLR,,,,,,,,VFR,,,,,,,,,,,,METAR,
KXBP 180315Z AUTO 00000KT 10SM CLR 04/M04 A3011 RMK AO2 T00361044,KXBP,2021-01-18T03:15:00Z,33.18,-97.83,3.6,-4.4,0,0,,10.0,30.109253,,,TRUE,TRUE,,,,,,,CLR,,,,,,,,VFR,,,,,,,,,,,,METAR,256.0
KX60 180315Z AUTO 00000KT 10SM CLR 05/04 A3008 RMK AO2 T00520038,KX60,2021-01-18T03:15:00Z,29.35,-82.47,5.2,3.8,0,0,,10.0,30.079725,,,TRUE,TRUE,,,,,,,CLR,,,,,,,,VFR,,,,,,,,,,,,SPECI,21.0
KX26 180315Z AUTO 22004KT 10SM CLR 13/10 A3008 RMK AO2 T01270097,KX26,2021-01-18T03:15:00Z,27.82,-80.5,12.7,9.7,220,4,,10.0,30.079725,,,TRUE,TRUE,,,,,,,CLR,,,,,,,,VFR,,,,,,,,,,,,METAR,5.0
KX07 180315Z AUTO 00000KT 9SM OVC050 12/11 A3010 RMK A01,KX07,2021-01-18T03:15:00Z,27.9,-81.62,12.0,11.0,0,0,,9.0,30.100393,,,TRUE,TRUE,,,,,,,OVC,5000,,,,,,,VFR,,,,,,,,,,,,METAR,36.0
KWWR 180315Z AUTO 21009KT 10SM CLR 01/M08 A3000 RMK AO2,KWWR,2021-01-18T03:15:00Z,36.45,-99.52,1.0,-8.0,210,9,,10.0,30.0,,,TRUE,TRUE,,,,,,,CLR,,,,,,,,VFR,,,,,,,,,,,,METAR,664.0
KWDR 180315Z AUTO 22006KT 10SM CLR 04/M02 A2994 RMK AO2,KWDR,2021-01-18T03:15:00Z,33.98,-83.67,4.0,-2.0,220,6,,10.0,29.940945,,,TRUE,TRUE,,,,,,,CLR,,,,,,,,VFR,,,,,,,,,,,,METAR,280.0
KWDG 180315Z AUTO 00000KT 10SM CLR M01/M05 A2999 RMK AO2,KWDG,2021-01-18T03:15:00Z,36.37,-97.78,-1.0,-5.0,0,0,,10.0,29.991142,,,TRUE,TRUE,,,,,,,CLR,,,,,,,,VFR,,,,,,,,,,,,METAR,352.0
KW99 180315Z AUTO 00000KT 10SM SCT040 BKN048 OVC050 03/00 A2975 RMK AO2 T00290001,KW99,2021-01-18T03:15:00Z,39.0,-79.15,2.9,0.1,0,0,,10.0,29.749016,,,TRUE,TRUE,,,,,,,SCT,4000,BKN,4800,OVC,5000,,,VFR,,,,,,,,,,,,METAR,288.0
KW96 180315Z AUTO 00000KT 10SM SCT080 04/00 A2982 RMK AO1 T00401002,KW96,2021-01-18T03:15:00Z,37.5,-77.12,4.0,-0.2,0,0,,10.0,29.819881,,,TRUE,TRUE,,,,,,,SCT,8000,,,,,,,VFR,,,,,,,,,,,,SPECI,35.0
KW81 180315Z AUTO 21003KT 10SM OVC085 03/M03 A2983 RMK AO1 T00301035,KW81,2021-01-18T03:15:00Z,37.18,-78.1,3.0,-3.5,210,3,,10.0,29.828741,,,TRUE,TRUE,,,,,,,OVC,8500,,,,,,,VFR,,,,,,,,,,,,SPECI,121.0
KW78 180315Z AUTO 10SM OVC080 04/M03 A2985 RMK AO1 T00401030,KW78,2021-01-18T03:15:00Z,36.7,-78.85,4.0,-3.0,,,,10.0,29.84941,,,TRUE,TRUE,,,,,,,OVC,8000,,,,,,,VFR,,,,,,,,,,,,SPECI,120.0
KW75 180315Z AUTO 19004KT 10SM OVC070 06/M01 A2982 RMK AO1 T00571008,KW75,2021-01-18T03:15:00Z,37.6,-76.45,5.7,-0.8,190,4,,10.0,29.819881,,,TRUE,TRUE,,,,,,,OVC,7000,,,,,,,VFR,,,,,,,,,,,,SPECI,8.0
KW43 180315Z AUTO 2 1/2SM -SN SCT003 OVC010 01/00 A2977 RMK AO2,KW43,2021-01-18T03:15:00Z,44.67,-104.57,1.0,0.0,,,,2.5,29.769686,,,TRUE,TRUE,,,,,,-SN,SCT,300,OVC,1000,,,,,IFR,,,,,,,,,,,,METAR,1292.0
KW29 180315Z AUTO 21005KT 10SM OVC085 05/M01 A2978 RMK AO2,KW29,2021-01-18T03:15:00Z,38.98,-76.33,5.0,-1.0,210,5,,10.0,29.778543,,,TRUE,TRUE,,,,,,,OVC,8500,,,,,,,VFR,,,,,,,,,,,,SPECI,1.0
KW22 180315Z AUTO 22007G13KT 10SM BKN010 OVC014 M00/M00 A2975 RMK AO2,KW22,2021-01-18T03:15:00Z,39.0,-80.27,0.0,0.0,220,7,13,10.0,29.749016,,,TRUE,TRUE,,,,,,,BKN,1000,OVC,1400,,,,,MVFR,,,,,,,,,,,,METAR,497.0
KW13 180315Z AUTO 23006KT 10SM SCT060 02/M04 A2976 RMK AO1 T00161041,KW13,2021-01-18T03:15:00Z,38.08,-78.95,1.6,-4.1,230,6,,10.0,29.760826,,,TRUE,TRUE,,,,,,,SCT,6000,,,,,,,VFR,,,,,,,,,,,,SPECI,440.0
KVYS 180315Z AUTO 27010KT 5SM BR M02/M04 A2980 RMK AO2 T10251040,KVYS,2021-01-18T03:15:00Z,41.35,-89.15,-2.5,-4.0,270,10,,5.0,29.799213,,,TRUE,TRUE,,,,,,BR,,,,,,,,,,,,,,,,,,,,,METAR,198.0
KVWU 180315Z AUTO 31005KT 10SM -SN OVC019 M10/M12 A2980 RMK AO2,KVWU,2021-01-18T03:15:00Z,48.15,-94.52,-10.0,-12.0,310,5,,10.0,29.799213,,,TRUE,TRUE,,,,,,-SN,OVC,1900,,,,,,,MVFR,,,,,,,,,,,,METAR,359.0
KVVV 180315Z AUTO 36004KT 10SM OVC017 M04/M07 A2984 RMK AO2,KVVV,2021-01-18T03:15:00Z,45.3,-96.42,-4.0,-7.0,360,4,,10.0,29.840551,,,TRUE,TRUE,,,,,,,OVC,1700,,,,,,,MVFR,,,,,,,,,,,,METAR,334.0
KVUJ 180315Z AUTO 00000KT 10SM SCT075 M02/M03 A2993 RMK AO2 T10191032,KVUJ,2021-01-18T03:15:00Z,35.42,-80.15,-1.9,-3.2,0,0,,10.0,29.929134,,,TRUE,TRUE,,,,,,,SCT,7500,,,,,,,VFR,,,,,,,,,,,,SPECI,174.0
KVTP 180315Z AUTO 28010G18KT 10SM CLR M02/M12 A2998 RMK AO2,KVTP,2021-01-18T03:15:00Z,37.5,-105.17,-2.0,-12.0,280,10,18,10.0,29.97933,,,TRUE,TRUE,,,,,,,CLR,,,,,,,,VFR,,,,,,,,,,,,METAR,3086.0
KVTI 180315Z AUTO 00000KT 10SM OVC014 M02/M04 A2981 RMK AO2 T10211041,KVTI,2021-01-18T03:15:00Z,42.22,-92.02,-2.1,-4.1,0,0,,10.0,29.811024,,,TRUE,TRUE,,,,,,,OVC,1400,,,,,,,MVFR,,,,,,,,,,,,METAR,256.0
KVNW 180315Z AUTO 27005KT 10SM SCT013 BKN028 OVC065 M01/M02 A2974 RMK AO2,KVNW,2021-01-18T03:15:00Z,40.87,-84.62,-1.0,-2.0,270,5,,10.0,29.740158,,,TRUE,TRUE,,,,,,,SCT,1300,BKN,2800,OVC,6500,,,MVFR,,,,,,,,,,,,SPECI,238.0
KVNC 180315Z AUTO 00000KT 6SM BR SCT029 SCT034 BKN041 15/13 A3007 RMK AO2,KVNC,2021-01-18T03:15:00Z,27.07,-82.43,15.0,13.0,0,0,,6.0,30.070866,,,TRUE,TRUE,,,,,,BR,SCT,2900,SCT,3400,BKN,4100,,,VFR,,,,,,,,,,,,SPECI,4.0
KVLL 180315Z AUTO 00000KT 10SM OVC025 00/00 A2968 RMK AO2 T00021002,KVLL,2021-01-18T03:15:00Z,42.55,-83.18,0.2,-0.2,0,0,,10.0,29.681103,,,TRUE,TRUE,,,,,,,OVC,2500,,,,,,,MVFR,,,,,,,,,,,,SPECI,214.0
KVKY 180315Z AUTO 26017KT 10SM CLR 14/04 A3012 RMK A01,KVKY,2021-01-18T03:15:00Z,29.25,-88.43,14.0,4.0,260,17,,10.0,30.121063,,,TRUE,TRUE,,,,,,,CLR,,,,,,,,VFR,,,,,,,,,,,,SPECI,32.0
KVKS 180315Z AUTO 00000KT 10SM CLR 03/M02 A3007 RMK A01,KVKS,2021-01-18T03:15:00Z,32.23,-90.93,3.0,-2.0,0,0,,10.0,30.070866,,,TRUE,TRUE,,,,,,,CLR,,,,,,,,VFR,,,,,,,,,,,,SPECI,31.0
KVJI 180315Z AUTO 00000KT 10SM SCT050 SCT060 OVC080 01/M03 A2980 RMK AO2 T00051029,KVJI,2021-01-18T03:15:00Z,36.68,-82.03,0.5,-2.9,0,0,,10.0,29.799213,,,TRUE,TRUE,,,,,,,SCT,5000,SCT,6000,OVC,8000,,,VFR,,,,,,,,,,,,SPECI,636.0
KVHN 180315Z AUTO 21008KT 10SM CLR 08/M13 A3011 RMK AO2 T00831132,KVHN,2021-01-18T03:15:00Z,31.07,-104.78,8.3,-13.2,210,8,,10.0,30.109253,,,TRUE,TRUE,,,,,,,CLR,,,,,,,,VFR,,,,,,,,,,,,METAR,1200.0
KVGC 180315Z AUTO 00000KT 10SM SCT026 OVC033 00/M02 A2959 RMK AO2,KVGC,2021-01-18T03:15:00Z,42.85,-75.57,0.0,-2.0,0,0,,10.0,29.589567,,,TRUE,TRUE,,,,,,,SCT,2600,OVC,3300,,,,,VFR,,,,,,,,,,,,METAR,346.0
KVES 180315Z AUTO 27006KT 10SM BKN018 BKN024 OVC034 M02/M02 A2974 RMK AO2,KVES,2021-01-18T03:15:00Z,40.2,-84.53,-2.0,-2.0,270,6,,10.0,29.740158,,,TRUE,TRUE,,,,,,,BKN,1800,BKN,2400,OVC,3400,,,MVFR,,,,,,,,,,,,METAR,308.0
KVER 180315Z AUTO 00000KT 10SM OVC030 04/M01 A2990 RMK AO2 T00361012,KVER,2021-01-18T03:15:00Z,38.95,-92.68,3.6,-1.2,0,0,,10.0,29.899607,,,TRUE,TRUE,,,,,,,OVC,3000,,,,,,,MVFR,,,,,,,,,,,,SPECI,209.0
KVDI 180315Z AUTO 24003KT 10SM CLR 06/00 A3000 RMK AO2,KVDI,2021-01-18T03:15:00Z,32.2,-82.37,6.0,0.0,240,3,,10.0,30.0,,,TRUE,TRUE,,,,,,,CLR,,,,,,,,VFR,,,,,,,,,,,,METAR,81.0
KVDF 180315Z AUTO 00000KT 10SM SCT024 BKN050 12/10 A3009 RMK AO2,KVDF,2021-01-18T03:15:00Z,28.02,-82.33,12.0,10.0,0,0,,10.0,30.088583,,,TRUE,TRUE,,,,,,,SCT,2400,BKN,5000,,,,,VFR,,,,,,,,,,,,SPECI,5.0
KVBW 180315Z AUTO 24009G16KT 10SM SCT060 03/M04 A2975 RMK AO1 T00281036,KVBW,2021-01-18T03:15:00Z,38.37,-78.97,2.8,-3.6,240,9,16,10.0,29.749016,,,TRUE,TRUE,,,,,,,SCT,6000,,,,,,,VFR,,,,,,,,,,,,SPECI,362.0
KUYF 180315Z AUTO 27004KT 10SM SCT010 BKN018 BKN037 M01/M02 A2974 RMK AO2,KUYF,2021-01-18T03:15:00Z,39.93,-83.47,-1.0,-2.0,270,4,,10.0,29.740158,,,TRUE,TRUE,,,,,,,SCT,1000,BKN,1800,BKN,3700,,,MVFR,,,,,,,,,,,,METAR,326.0
KUXL 180315Z AUTO 00000KT 10SM CLR 06/M01 A3013 RMK AO2 T00551008,KUXL,2021-01-18T03:15:00Z,30.13,-93.38,5.5,-0.8,0,0,,10.0,30.129921,,,TRUE,TRUE,,,,,,,CLR,,,,,,,,VFR,,,,,,,,,,,,SPECI,2.0
KUVA 180315Z AUTO 09003KT 10SM CLR 09/03 A3011 RMK AO2 T00860025,KUVA,2021-01-18T03:15:00Z,29.22,-99.75,8.6,2.5,90,3,,10.0,30.109253,,,TRUE,TRUE,,,,,,,CLR,,,,,,,,VFR,,,,,,,,,,,,METAR,285.0
KUTA 180315Z AUTO 24006KT 10SM CLR 02/M02 A3000 RMK AO2 TSNO,KUTA,2021-01-18T03:15:00Z,34.68,-90.35,2.0,-2.0,240,6,,10.0,30.0,,,TRUE,TRUE,,,TRUE,,,,CLR,,,,,,,,VFR,,,,,,,,,,,,SPECI,58.0
KUOX 180315Z AUTO 00000KT 10SM CLR 00/M04 A3000 RMK AO2 PWINO,KUOX,2021-01-18T03:15:00Z,34.38,-89.53,0.0,-4.0,0,0,,10.0,30.0,,,TRUE,TRUE,,,,,TRUE,,CLR,,,,,,,,VFR,,,,,,,,,,,,SPECI,123.0
KUNV 180315Z AUTO 22006KT 10SM SCT030 SCT037 OVC050 00/M01 A2968 RMK AO2 T00021010,KUNV,2021-01-18T03:15:00Z,40.85,-77.83,0.2,-1.0,220,6,,10.0,29.681103,,,TRUE,TRUE,,,,,,,SCT,3000,SCT,3700,OVC,5000,,,VFR,,,,,,,,,,,,SPECI,365.0
KUNI 180315Z AUTO 21005KT 10SM SCT008 BKN013 OVC075 01/01 A2977 RMK AO2 T00050005,KUNI,2021-01-18T03:15:00Z,39.22,-82.23,0.5,0.5,210,5,,10.0,29.769686,,,TRUE,TRUE,,,,,,,SCT,800,BKN,1300,OVC,7500,,,MVFR,,,,,,,,,,,,METAR,232.0
KULS 180315Z AUTO 21010KT 10SM CLR 00/M06 A2990 RMK AO2,KULS,2021-01-18T03:15:00Z,37.6,-101.37,0.0,-6.0,210,10,,10.0,29.899607,,,TRUE,TRUE,,,,,,,CLR,,,,,,,,VFR,,,,,,,,,,,,METAR,934.0
KULM 180315Z AUTO 33007KT 10SM OVC060 M04/M06 A2982 RMK AO2,KULM,2021-01-18T03:15:00Z,44.32,-94.5,-4.0,-6.0,330,7,,10.0,29.819881,,,TRUE,TRUE,,,,,,,OVC,6000,,,,,,,VFR,,,,,,,,,,,,SPECI,305.0
KUKT 180315Z AUTO 00000KT 10SM FEW044 FEW050 BKN080 04/M02 A2972 RMK A01,KUKT,2021-01-18T03:15:00Z,40.43,-75.38,4.0,-2.0,0,0,,10.0,29.719488,,,TRUE,TRUE,,,,,,,FEW,4400,FEW,5000,BKN,8000,,,VFR,,,,,,,,,,,,SPECI,156.0
KUKL 180315Z AUTO 00000KT 10SM CLR 01/M06 A2993 RMK AO2 T00081060,KUKL,2021-01-18T03:15:00Z,38.3,-95.73,0.8,-6.0,0,0,,10.0,29.929134,,,TRUE,TRUE,,,,,,,CLR,,,,,,,,VFR,,,,,,,,,,,,METAR,357.0
KUKF 180315Z AUTO 00000KT 10SM SCT060 BKN070 OVC090 03/M03 A2988 RMK AO2,KUKF,2021-01-18T03:15:00Z,36.22,-81.1,3.0,-3.0,0,0,,10.0,29.878937,,,TRUE,TRUE,,,,,,,SCT,6000,BKN,7000,OVC,9000,,,VFR,,,,,,,,,,,,SPECI,383.0
KUES 180315Z AUTO 28005KT 5SM -SN SCT030 BKN035 OVC043 M04/M05 A2975 RMK AO2,KUES,2021-01-18T03:15:00Z,43.05,-88.25,-4.0,-5.0,280,5,,5.0,29.749016,,,TRUE,TRUE,,,,,,-SN,SCT,3000,BKN,3500,OVC,4300,,,MVFR,,,,,,,,,,,,SPECI,273.0
KUCY 180315Z AUTO 00000KT 10SM FEW031 SCT050 BKN075 05/M02 A2991 RMK A01,KUCY,2021-01-18T03:15:00Z,36.38,-88.98,5.0,-2.0,0,0,,10.0,29.911417,,,TRUE,TRUE,,,,,,,FEW,3100,SCT,5000,BKN,7500,,,VFR,,,,,,,,,,,,SPECI,97.0
KUBE 180315Z AUTO 00000KT 10SM OVC016 M06/M09 A2974 RMK AO2,KUBE,2021-01-18T03:15:00Z,45.5,-91.98,-6.0,-9.0,0,0,,10.0,29.740158,,,TRUE,TRUE,,,,,,,OVC,1600,,,,,,,MVFR,,,,,,,,,,,,METAR,376.0
KU69 180315Z AUTO 25022G31KT 10SM CLR 05/M06 A3000 RMK A01,KU69,2021-01-18T03:15:00Z,,,5.0,-6.0,250,22,31,10.0,30.0,,,TRUE,TRUE,,,,,,,CLR,,,,,,,,VFR,,,,,,,,,,,,METAR,
KU68 180315Z AUTO 32022G29KT 10SM CLR 03/M08 A2993 RMK AO2,KU68,2021-01-18T03:15:00Z,44.92,-108.45,3.0,-8.0,320,22,29,10.0,29.929134,,,TRUE,TRUE,,,,,,,CLR,,,,,,,,VFR,,,,,,,,,,,,METAR,1244.0
KU55 180315Z AUTO 08003KT 10SM M03/M13 A3018 RMK A01,KU55,2021-01-18T03:15:00Z,37.85,-112.38,-3.0,-13.0,80,3,,10.0,30.180119,,,TRUE,TRUE,,,,,,,,,,,,,,,,,,,,,,,,,,,METAR,2060.0
KU42 180315Z AUTO 00000KT 10SM OVC075 04/M02 A3015 RMK AO1 T00381017,KU42,2021-01-18T03:15:00Z,40.62,-111.98,3.8,-1.7,0,0,,10.0,30.15059,,,TRUE,TRUE,,,,,,,OVC,7500,,,,,,,VFR,,,,,,,,,,,,METAR,1399.0
KTZR 180315Z AUTO 29005KT 10SM OVC026 00/M02 A2975 RMK AO2 T10021018,KTZR,2021-01-18T03:15:00Z,39.9,-83.13,-0.2,-1.8,290,5,,10.0,29.749016,,,TRUE,TRUE,,,,,,,OVC,2600,,,,,,,MVFR,,,,,,,,,,,,METAR,275.0
KTYQ 180315Z AUTO 25007KT 10SM -SN BKN011 OVC021 M02/M03 A2977 RMK AO2 T10201035,KTYQ,2021-01-18T03:15:00Z,40.03,-86.25,-2.0,-3.5,250,7,,10.0,29.769686,,,TRUE,TRUE,,,,,,-SN,BKN,1100,OVC,2100,,,,,MVFR,,,,,,,,,,,,METAR,279.0
KTXW 180315Z AUTO 00000KT 10SM SCT033 SCT065 OVC110 15/12 A3009 RMK AO2 T01540122,KTXW,2021-01-18T03:15:00Z,26.18,-97.97,15.4,12.2,0,0,,10.0,30.088583,,,TRUE,TRUE,,,,,,,SCT,3300,SCT,6500,OVC,11000,,,VFR,,,,,,,,,,,,METAR,21.0
KTWM 180315Z AUTO 00000KT 10SM OVC012 M06/M09 A2973 RMK AO2,KTWM,2021-01-18T03:15:00Z,47.05,-91.75,-6.0,-9.0,0,0,,10.0,29.731298,,,TRUE,TRUE,,,,,,,OVC,1200,,,,,,,MVFR,,,,,,,,,,,,METAR,331.0
KTVY 180315Z AUTO 11003KT 10SM BKN080 OVC100 01/M02 A3017 RMK AO2,KTVY,2021-01-18T03:15:00Z,40.62,-112.35,1.0,-2.0,110,3,,10.0,30.171259,,,TRUE,TRUE,,,,,,,BKN,8000,OVC,10000,,,,,VFR,,,,,,,,,,,,SPECI,1310.0
KTVI 180315Z AUTO 00000KT 10SM CLR 06/00 A3005 RMK AO2,KTVI,2021-01-18T03:15:00Z,30.9,-83.88,6.0,0.0,0,0,,10.0,30.050198,,,TRUE,TRUE,,,,,,,CLR,,,,,,,,VFR,,,,,,,,,,,,METAR,74.0
KTTF 180315Z AUTO 25007KT 5SM -SN BKN007 BKN018 OVC026 00/M01 A2968 RMK AO2 T00001010,KTTF,2021-01-18T03:15:00Z,41.93,-83.42,0.0,-1.0,250,7,,5.0,29.681103,,,TRUE,TRUE,,,,,,-SN,BKN,700,BKN,1800,OVC,2600,,,IFR,,,,,,,,,,,,METAR,186.0
KTTA 180315Z AUTO 00000KT 10SM CLR 00/M02 A2990 RMK AO2 T00001023,KTTA,2021-01-18T03:15:00Z,35.58,-79.1,0.0,-2.3,0,0,,10.0,29.899607,,,TRUE,TRUE,,,,,,,CLR,,,,,,,,VFR,,,,,,,,,,,,SPECI,71.0
KTRK 180315Z AUTO 00000KT 10SM CLR 01/M02 A3024 RMK AO2,KTRK,2021-01-18T03:15:00Z,39.32,-120.13,1.0,-2.0,0,0,,10.0,30.239174,,,TRUE,TRUE,,,,,,,CLR,,,,,,,,VFR,,,,,,,,,,,,METAR,1800.0
KTQK 180315Z AUTO 10SM SCT120 M06/M14 A2988 RMK AO1 T10571136,KTQK,2021-01-18T03:15:00Z,38.47,-100.88,-5.7,-13.6,,,,10.0,29.878937,,,TRUE,TRUE,,,,,,,SCT,12000,,,,,,,VFR,,,,,,,,,,,,METAR,906.0
KTQH 180315Z AUTO 00000KT 10SM CLR M03/M05 A3001 RMK AO2,KTQH,2021-01-18T03:15:00Z,35.93,-95.0,-3.0,-5.0,0,0,,10.0,30.008858,,,TRUE,TRUE,,,,,,,CLR,,,,,,,,VFR,,,,,,,,,,,,METAR,265.0
KTPF 180315Z AUTO 05005KT 10SM SCT021 OVC060 13/09 A3009 RMK AO2,KTPF,2021-01-18T03:15:00Z,27.92,-82.45,13.0,9.0,50,5,,10.0,30.088583,,,TRUE,TRUE,,,,,,,SCT,2100,OVC,6000,,,,,VFR,,,,,,,,,,,,SPECI,1.0
KTOC 180315Z AUTO 23005KT 10SM SCT075 BKN080 04/M01 A2989 RMK AO2 T00401011,KTOC,2021-01-18T03:15:00Z,34.6,-83.3,4.0,-1.1,230,5,,10.0,29.890747,,,TRUE,TRUE,,,,,,,SCT,7500,BKN,8000,,,,,VFR,,,,,,,,,,,,METAR,292.0
KTOB 180315Z AUTO 29004KT 1/2SM FZFG OVC003 M07/M07 A2978 RMK AO2,KTOB,2021-01-18T03:15:00Z,44.02,-92.82,-7.0,-7.0,290,4,,0.5,29.778543,,,TRUE,TRUE,,,,,,FZFG,OVC,300,,,,,,,LIFR,,,,,,,,,,,,SPECI,394.0
KTNU 180315Z AUTO 27006KT 10SM OVC017 M02/M02 A2983 RMK A01,KTNU,2021-01-18T03:15:00Z,41.67,-93.02,-2.0,-2.0,270,6,,10.0,29.828741,,,TRUE,TRUE,,,,,,,OVC,1700,,,,,,,MVFR,,,,,,,,,,,,SPECI,287.0
KTNB 180315Z AUTO 00000KT 10SM M01/M03 A2978 RMK AO2 T10111031,KTNB,2021-01-18T03:15:00Z,36.2,-81.65,-1.1,-3.1,0,0,,10.0,29.778543,,,TRUE,TRUE,,,,,,,,,,,,,,,,,,,,,,,,,,,METAR,958.0
KTMT 180315Z AUTO 00000KT 10SM M04/M11 A3025 RMK AO2 T10451110,KTMT,2021-01-18T03:15:00Z,39.47,-117.2,-4.5,-11.0,0,0,,10.0,30.250984,,,TRUE,TRUE,,,,,,,,,,,,,,,,,,,,,,,,,,,METAR,1748.0
KTMK 180315Z AUTO 00000KT 1 1/2SM BR SCT005 OVC017 05/05 A3054 RMK AO2 VIS 3/4V4,KTMK,2021-01-18T03:15:00Z,45.42,-123.82,5.0,5.0,0,0,,1.5,30.540354,,,TRUE,TRUE,,,,,,BR,SCT,500,OVC,1700,,,,,IFR,,,,,,,,,,,,METAR,8.0
KTME 180315Z AUTO 05003KT 10SM CLR 09/02 A3013 RMK AO2,KTME,2021-01-18T03:15:00Z,29.8,-95.9,9.0,2.0,50,3,,10.0,30.129921,,,TRUE,TRUE,,,,,,,CLR,,,,,,,,VFR,,,,,,,,,,,,METAR,49.0
KTMA 180315Z AUTO 21003KT 10SM CLR 07/01 A3002 RMK AO2 T00650005,KTMA,2021-01-18T03:15:00Z,31.43,-83.48,6.5,0.5,210,3,,10.0,30.02067,,,TRUE,TRUE,,,,,,,CLR,,,,,,,,VFR,,,,,,,,,,,,METAR,105.0
KTKX 180315Z AUTO 31007KT 10SM -UP FEW034 OVC055 06/M01 A2993 RMK AO2 TSNO,KTKX,2021-01-18T03:15:00Z,36.22,-90.03,6.0,-1.0,310,7,,10.0,29.929134,,,TRUE,TRUE,,,TRUE,,,UP,FEW,3400,OVC,5500,,,,,VFR,,,,,,,,,,,,SPECI,73.0
KTKV 180315Z AUTO 33004KT 10SM OVC012 M06/M08 A2972 RMK AO2 T10651081 PWINO,KTKV,2021-01-18T03:15:00Z,45.47,-89.82,-6.5,-8.1,330,4,,10.0,29.719488,,,TRUE,TRUE,,,,,TRUE,,OVC,1200,,,,,,,MVFR,,,,,,,,,,,,METAR,449.0
KTKC 180315Z AUTO 33005KT 10SM OVC035 M03/M06 A2982 RMK AO2 T10301062,KTKC,2021-01-18T03:15:00Z,44.25,-95.62,-3.0,-6.2,330,5,,10.0,29.819881,,,TRUE,TRUE,,,,,,,OVC,3500,,,,,,,VFR,,,,,,,,,,,,METAR,408.0
KTIP 180315Z AUTO 28010KT 10SM OVC014 M02/M03 A2981 RMK AO2 T10221035,KTIP,2021-01-18T03:15:00Z,40.28,-88.15,-2.2,-3.5,280,10,,10.0,29.811024,,,TRUE,TRUE,,,,,,,OVC,1400,,,,,,,MVFR,,,,,,,,,,,,METAR,224.0
KTIF 180315Z AUTO 00000KT 10SM SCT044 OVC060 03/M06 A2982 RMK AO2 T00301061,KTIF,2021-01-18T03:15:00Z,41.97,-100.57,3.0,-6.1,0,0,,10.0,29.819881,,,TRUE,TRUE,,,,,,,SCT,4400,OVC,6000,,,,,VFR,,,,,,,,,,,,METAR,888.0
KTHA 180315Z AUTO 29008KT 10SM CLR 03/M07 A2990 RMK A01,KTHA,2021-01-18T03:15:00Z,35.38,-86.25,3.0,-7.0,290,8,,10.0,29.899607,,,TRUE,TRUE,,,,,,,CLR,,,,,,,,VFR,,,,,,,,,,,,SPECI,333.0
KTFP 180315Z AUTO 17004KT 10SM CLR 13/11 A3010 RMK AO2 T01260106,KTFP,2021-01-18T03:15:00Z,27.92,-97.22,12.6,10.6,170,4,,10.0,30.100393,,,TRUE,TRUE,,,,,,,CLR,,,,,,,,VFR,,,,,,,,,,,,METAR,5.0
KTEX 180315Z AUTO 13005KT 10SM CLR M01/M11 A3016 RMK AO2,KTEX,2021-01-18T03:15:00Z,37.95,-107.9,-1.0,-11.0,130,5,,10.0,30.159449,,,TRUE,TRUE,,,,,,,CLR,,,,,,,,VFR,,,,,,,,,,,,METAR,2760.0
KTEW 180315Z AUTO 00000KT 3SM -SN BKN005 OVC009 M01/M01 A2968 RMK AO2 T10061008,KTEW,2021-01-18T03:15:00Z,42.57,-84.42,-0.6,-0.8,0,0,,3.0,29.681103,,,TRUE,TRUE,,,,,,-SN,BKN,500,OVC,900,,,,,IFR,,,,,,,,,,,,METAR,281.0
KTDF 180315Z AUTO 21005KT 10SM OVC080 02/M02 A2989 RMK AO2,KTDF,2021-01-18T03:15:00Z,36.28,-78.98,2.0,-2.0,210,5,,10.0,29.890747,,,TRUE,TRUE,,,,,,,OVC,8000,,,,,,,VFR,,,,,,,,,,,,METAR,180.0
KTCY 180315Z AUTO 00000KT 10SM CLR 16/04 A3001 RMK A01,KTCY,2021-01-18T03:15:00Z,37.68,-121.43,16.0,4.0,0,0,,10.0,30.008858,,,TRUE,TRUE,,,,,,,CLR,,,,,,,,VFR,,,,,,,,,,,,METAR,51.0
KTBR 180315Z AUTO 00000KT 10SM CLR 02/00 A2999 RMK AO2 T00171001,KTBR,2021-01-18T03:15:00Z,32.48,-81.73,1.7,-0.1,0,0,,10.0,29.991142,,,TRUE,TRUE,,,,,,,CLR,,,,,,,,VFR,,,,,,,,,,,,METAR,54.0
KTAZ 180315Z AUTO 26005KT 10SM SCT027 SCT034 OVC039 M01/M04 A2985 RMK AO2 T10151036,KTAZ,2021-01-18T03:15:00Z,39.53,-89.33,-1.5,-3.6,260,5,,10.0,29.84941,,,TRUE,TRUE,,,,,,,SCT,2700,SCT,3400,OVC,3900,,,VFR,,,,,,,,,,,,METAR,188.0
KT82 180315Z AUTO 33004KT 10SM CLR 04/M01 A3011 RMK AO2 T00371015,KT82,2021-01-18T03:15:00Z,30.25,-98.92,3.7,-1.5,330,4,,10.0,30.109253,,,TRUE,TRUE,,,,,,,CLR,,,,,,,,VFR,,,,,,,,,,,,METAR,509.0
KT74 180315Z AUTO 00000KT 10SM CLR 04/M01 A3012 RMK AO2 T00431007,KT74,2021-01-18T03:15:00Z,30.57,-97.45,4.3,-0.7,0,0,,10.0,30.121063,,,TRUE,TRUE,,,,,,,CLR,,,,,,,,VFR,,,,,,,,,,,,METAR,169.0
KT69 180315Z AUTO 00000KT 10SM CLR 12/09 A3011 RMK A01,KT69,2021-01-18T03:15:00Z,28.03,-97.55,12.0,9.0,0,0,,10.0,30.109253,,,TRUE,TRUE,,,,,,,CLR,,,,,,,,VFR,,,,,,,,,,,,METAR,15.0
KT41 180315Z AUTO 13003KT 10SM CLR 09/01 A3013 RMK AO2 T00870008,KT41,2021-01-18T03:15:00Z,29.67,-95.07,8.7,0.8,130,3,,10.0,30.129921,,,TRUE,TRUE,,,,,,,CLR,,,,,,,,VFR,,,,,,,,,,,,METAR,8.0
KT35 180315Z AUTO 00000KT 10SM CLR 10/M01 A3012 RMK AO2 T00991015,KT35,2021-01-18T03:15:00Z,30.88,-96.97,9.9,-1.5,0,0,,10.0,30.121063,,,TRUE,TRUE,,,,,,,CLR,,,,,,,,VFR,,,,,,,,,,,,METAR,122.0
KT20 180315Z AUTO 07004KT 10SM CLR 11/00 A3011 RMK AO2 T01111001,KT20,2021-01-18T03:15:00Z,29.52,-97.47,11.1,-0.1,70,4,,10.0,30.109253,,,TRUE,TRUE,,,,,,,CLR,,,,,,,,VFR,,,,,,,,,,,,METAR,107.0
KSZY 180315Z AUTO 00000KT 10SM FEW048 BKN070 OVC080 03/M04 A2993 RMK A01,KSZY,2021-01-18T03:15:00Z,,,3.0,-4.0,0,0,,10.0,29.929134,,,TRUE,TRUE,,,,,,,FEW,4800,BKN,7000,OVC,8000,,,VFR,,,,,,,,,,,,SPECI,
KSZT 180315Z AUTO 25010G14KT 10SM OVC017 01/M01 A3030 RMK AO2,KSZT,2021-01-18T03:15:00Z,48.3,-116.57,1.0,-1.0,250,10,14,10.0,30.301182,,,TRUE,TRUE,,,,,,,OVC,1700,,,,,,,MVFR,,,,,,,,,,,,METAR,649.0
KSYN 180315Z AUTO 00000KT 5SM BR OVC010 M05/M06 A2979 RMK AO2 T10521065,KSYN,2021-01-18T03:15:00Z,44.47,-93.02,-5.2,-6.5,0,0,,5.0,29.790354,,,TRUE,TRUE,,,,,,BR,OVC,1000,,,,,,,MVFR,,,,,,,,,,,,METAR,280.0
KSYM 180315Z AUTO VRB04G11KT 10SM FEW020 SCT050 BKN065 M00/M03 A2983 RMK AO2,KSYM,2021-01-18T03:15:00Z,38.22,-83.58,0.0,-3.0,0,4,11,10.0,29.828741,,,TRUE,TRUE,,,,,,,FEW,2000,SCT,5000,BKN,6500,,,VFR,,,,,,,,,,,,SPECI,307.0
KSYI 180315Z AUTO 24004KT 10SM BKN070 BKN090 OVC110 03/M06 A2991 RMK A01,KSYI,2021-01-18T03:15:00Z,35.57,-86.45,3.0,-6.0,240,4,,10.0,29.911417,,,TRUE,TRUE,,,,,,,BKN,7000,BKN,9000,OVC,11000,,,VFR,,,,,,,,,,,,SPECI,244.0
KSYF 180315Z AUTO 22009KT 10SM SCT080 BKN090 BKN120 01/M08 A2985 RMK AO2 T00051076 PWINO,KSYF,2021-01-18T03:15:00Z,39.77,-101.8,0.5,-7.6,220,9,,10.0,29.84941,,,TRUE,TRUE,,,,,TRUE,,SCT,8000,BKN,9000,BKN,12000,,,VFR,,,,,,,,,,,,METAR,1041.0
KSXU 180315Z AUTO 14008KT 10SM CLR 02/M09 A2999 RMK AO2 T00201086,KSXU,2021-01-18T03:15:00Z,34.93,-104.65,2.0,-8.6,140,8,,10.0,29.991142,,,TRUE,TRUE,,,,,,,CLR,,,,,,,,VFR,,,,,,,,,,,,SPECI,1465.0
KSXK 180315Z AUTO 00000KT 10SM OVC041 M02/M02 A2982 RMK AO2,KSXK,2021-01-18T03:15:00Z,42.98,-96.17,-2.0,-2.0,0,0,,10.0,29.819881,,,TRUE,TRUE,,,,,,,OVC,4100,,,,,,,VFR,,,,,,,,,,,,SPECI,430.0
KSWW 180315Z AUTO 13005KT 10SM CLR 07/M04 A3011 RMK AO2 T00661042,KSWW,2021-01-18T03:15:00Z,32.47,-100.47,6.6,-4.2,130,5,,10.0,30.109253,,,TRUE,TRUE,,,,,,,CLR,,,,,,,,VFR,,,,,,,,,,,,METAR,718.0
KSVH 180315Z AUTO 22004KT 10SM OVC090 04/M03 A2984 RMK AO2 T00351028,KSVH,2021-01-18T03:15:00Z,35.75,-80.95,3.5,-2.8,220,4,,10.0,29.840551,,,TRUE,TRUE,,,,,,,OVC,9000,,,,,,,VFR,,,,,,,,,,,,SPECI,286.0
KSVE 180315Z AUTO 25007KT 10SM CLR 03/00 A3026 RMK AO2,KSVE,2021-01-18T03:15:00Z,40.37,-120.57,3.0,0.0,250,7,,10.0,30.259842,,,TRUE,TRUE,,,,,,,CLR,,,,,,,,VFR,,,,,,,,,,,,METAR,1263.0
KSVC 180315Z AUTO 33008KT 10SM CLR 04/M19 A3010 RMK AO2 T00401190,KSVC,2021-01-18T03:15:00Z,32.63,-108.15,4.0,-19.0,330,8,,10.0,30.100393,,,TRUE,TRUE,,,,,,,CLR,,,,,,,,VFR,,,,,,,,,,,,METAR,1638.0
KSUZ 180315Z AUTO 00000KT 10SM CLR 00/M04 A3001 RMK A01,KSUZ,2021-01-18T03:15:00Z,34.58,-92.48,0.0,-4.0,0,0,,10.0,30.008858,,,TRUE,TRUE,,,,,,,CLR,,,,,,,,VFR,,,,,,,,,,,,SPECI,114.0
KSUW 180315Z AUTO 31005KT 10SM OVC015 M05/M08 A2978 RMK AO2 T10511080,KSUW,2021-01-18T03:15:00Z,46.68,-92.1,-5.1,-8.0,310,5,,10.0,29.778543,,,TRUE,TRUE,,,,,,,OVC,1500,,,,,,,MVFR,,,,,,,,,,,,METAR,205.0
KSUT 180315Z AUTO 28007KT 10SM CLR 08/00 A2996 RMK AO2 T00820000,KSUT,2021-01-18T03:15:00Z,33.93,-78.08,8.2,0.0,280,7,,10.0,29.958662,,,TRUE,TRUE,,,,,,,CLR,,,,,,,,VFR,,,,,,,,,,,,SPECI,6.0
KSUA 180315Z AUTO 00000KT 10SM CLR 15/08 A3009 RMK AO2,KSUA,2021-01-18T03:15:00Z,27.18,-80.22,15.0,8.0,0,0,,10.0,30.088583,,,TRUE,TRUE,,,,,,,CLR,,,,,,,,VFR,,,,,,,,,,,,SPECI,4.0
KSTK 180315Z AUTO 00000KT 10SM SCT070 BKN080 BKN110 01/M05 A2980 RMK AO2,KSTK,2021-01-18T03:15:00Z,40.62,-103.27,1.0,-5.0,0,0,,10.0,29.799213,,,TRUE,TRUE,,,,,,,SCT,7000,BKN,8000,BKN,11000,,,VFR,,,,,,,,,,,,SPECI,1228.0
KSTE 180315Z AUTO 34003KT 10SM OVC022 M04/M08 A2973 RMK AO2 T10401078,KSTE,2021-01-18T03:15:00Z,44.55,-89.53,-4.0,-7.8,340,3,,10.0,29.731298,,,TRUE,TRUE,,,,,,,OVC,2200,,,,,,,MVFR,,,,,,,,,,,,METAR,335.0
KSRR 180315Z AUTO 21010KT 10SM CLR 06/M22 A3010 RMK AO2,KSRR,2021-01-18T03:15:00Z,33.47,-105.52,6.0,-22.0,210,10,,10.0,30.100393,,,TRUE,TRUE,,,,,,,CLR,,,,,,,,VFR,,,,,,,,,,,,METAR,2063.0
KSRE 180315Z AUTO 00000KT 10SM CLR 03/M10 A3004 RMK AO2,KSRE,2021-01-18T03:15:00Z,35.27,-96.68,3.0,-10.0,0,0,,10.0,30.041338,,,TRUE,TRUE,,,,,,,CLR,,,,,,,,VFR,,,,,,,,,,,,METAR,306.0
KSRB 180315Z AUTO 32009KT 10SM OVC070 04/M03 A2989 RMK A01,KSRB,2021-01-18T03:15:00Z,36.05,-85.53,4.0,-3.0,320,9,,10.0,29.890747,,,TRUE,TRUE,,,,,,,OVC,7000,,,,,,,VFR,,,,,,,,,,,,METAR,303.0
KSPF 180315Z AUTO 26009KT 5SM BR SCT022 BKN055 BKN075 00/00 A2975 RMK AO2 PWINO,KSPF,2021-01-18T03:15:00Z,44.47,-103.78,0.0,0.0,260,9,,5.0,29.749016,,,TRUE,TRUE,,,,,TRUE,BR,SCT,2200,BKN,5500,BKN,7500,,,MVFR,,,,,,,,,,,,SPECI,1191.0
KSPA 180315Z AUTO 00000KT 10SM BKN060 OVC075 04/M02 A2988 RMK AO2,KSPA,2021-01-18T03:15:00Z,34.92,-81.95,4.0,-2.0,0,0,,10.0,29.878937,,,TRUE,TRUE,,,,,,,BKN,6000,OVC,7500,,,,,VFR,,,,,,,,,,,,SPECI,242.0
KSOW 180315Z AUTO 20005KT 10SM CLR 05/M24 A3014 RMK AO2,KSOW,2021-01-18T03:15:00Z,34.27,-110.0,5.0,-24.0,200,5,,10.0,30.138779,,,TRUE,TRUE,,,,,,,CLR,,,,,,,,VFR,,,,,,,,,,,,METAR,1954.0
KSOA 180315Z AUTO 00000KT 10SM CLR 03/M02 A3013 RMK AO2,KSOA,2021-01-18T03:15:00Z,30.58,-100.65,3.0,-2.0,0,0,,10.0,30.129921,,,TRUE,TRUE,,,,,,,CLR,,,,,,,,VFR,,,,,,,,,,,,METAR,654.0
KSNL 180315Z AUTO 20003KT 10SM CLR 01/M10 A3003 RMK AO2 T00081098,KSNL,2021-01-18T03:15:00Z,35.35,-96.95,0.8,-9.8,200,3,,10.0,30.029528,,,TRUE,TRUE,,,,,,,CLR,,,,,,,,VFR,,,,,,,,,,,,METAR,327.0
KSNK 180315Z AUTO 11006KT 10SM CLR 05/M04 A3009 RMK AO2 T00531044,KSNK,2021-01-18T03:15:00Z,32.7,-100.95,5.3,-4.4,110,6,,10.0,30.088583,,,TRUE,TRUE,,,,,,,CLR,,,,,,,,VFR,,,,,,,,,,,,METAR,738.0
KSNH 180315Z AUTO 20003KT 10SM FEW049 SCT060 BKN075 02/M02 A2993 RMK A01,KSNH,2021-01-18T03:15:00Z,35.17,-88.22,2.0,-2.0,200,3,,10.0,29.929134,,,TRUE,TRUE,,,,,,,FEW,4900,SCT,6000,BKN,7500,,,VFR,,,,,,,,,,,,METAR,142.0
KSNC 180315Z AUTO 23009KT 10SM BKN055 04/M03 A2966 RMK AO2,KSNC,2021-01-18T03:15:00Z,41.38,-72.5,4.0,-3.0,230,9,,10.0,29.660433,,,TRUE,TRUE,,,,,,,BKN,5500,,,,,,,VFR,,,,,,,,,,,,METAR,114.0
KSMS 180315Z AUTO 00000KT 10SM CLR 02/M00 A2996 RMK AO2,KSMS,2021-01-18T03:15:00Z,34.0,-80.37,2.0,0.0,0,0,,10.0,29.958662,,,TRUE,TRUE,,,,,,,CLR,,,,,,,,VFR,,,,,,,,,,,,METAR,53.0
KSME 180315Z AUTO 21003KT 10SM BKN075 OVC090 00/M06 A2988 RMK AO2,KSME,2021-01-18T03:15:00Z,37.05,-84.62,0.0,-6.0,210,3,,10.0,29.878937,,,TRUE,TRUE,,,,,,,BKN,7500,OVC,9000,,,,,VFR,,,,,,,,,,,,METAR,279.0
KSMD 180315Z AUTO 24010G15KT 10SM OVC021 M01/M04 A2974 RMK A01,KSMD,2021-01-18T03:15:00Z,41.15,-85.15,-1.0,-4.0,240,10,15,10.0,29.740158,,,TRUE,TRUE,,,,,,,OVC,2100,,,,,,,MVFR,,,,,,,,,,,,METAR,252.0
KSLR 180315Z AUTO 26005KT 10SM CLR 07/M06 A3011 RMK AO2 T00671057,KSLR,2021-01-18T03:15:00Z,33.17,-95.62,6.7,-5.7,260,5,,10.0,30.109253,,,TRUE,TRUE,,,,,,,CLR,,,,,,,,VFR,,,,,,,,,,,,METAR,144.0
KSLO 180315Z AUTO 00000KT 10SM SCT011 BKN035 BKN046 00/00 A2988 RMK AO2 T00021002,KSLO,2021-01-18T03:15:00Z,38.65,-88.97,0.2,-0.2,0,0,,10.0,29.878937,,,TRUE,TRUE,,,,,,,SCT,1100,BKN,3500,BKN,4600,,,VFR,,,,,,,,,,,,METAR,173.0
KSLH 180315Z AUTO 00000KT 10SM BKN021 BKN060 OVC090 M03/M06 A2968 RMK AO2,KSLH,2021-01-18T03:15:00Z,45.65,-84.52,-3.0,-6.0,0,0,,10.0,29.681103,,,TRUE,TRUE,,,,,,,BKN,2100,BKN,6000,OVC,9000,,,MVFR,,,,,,,,,,,,SPECI,193.0
KSLB 180315Z AUTO 30008KT 10SM OVC042 M01/M02 RMK AO2,KSLB,2021-01-18T03:15:00Z,42.6,-95.23,-1.0,-2.0,300,8,,10.0,,,,TRUE,TRUE,,,,,,,OVC,4200,,,,,,,VFR,,,,,,,,,,,,SPECI,450.0
KSJX 180315Z AUTO 36004KT 10SM SCT017 BKN044 OVC090 M03/M07 A2971 RMK AO2 T10331066,KSJX,2021-01-18T03:15:00Z,45.7,-85.57,-3.3,-6.6,360,4,,10.0,29.71063,,,TRUE,TRUE,,,,,,,SCT,1700,BKN,4400,OVC,9000,,,VFR,,,,,,,,,,,,SPECI,202.0
KSJS 180315Z AUTO 24004KT 7SM -RA BKN016 BKN022 OVC036 01/01 A2981 RMK AO2 T00080008,KSJS,2021-01-18T03:15:00Z,37.75,-82.63,0.8,0.8,240,4,,7.0,29.811024,,,TRUE,TRUE,,,,,,-RA,BKN,1600,BKN,2200,OVC,3600,,,MVFR,,,,,,,,,,,,METAR,359.0
KSIK 180315Z AUTO 00000KT 10SM SCT046 SCT055 SCT080 03/00 A2993 RMK AO2 TSNO,KSIK,2021-01-18T03:15:00Z,36.9,-89.57,3.0,0.0,0,0,,10.0,29.929134,,,TRUE,TRUE,,,TRUE,,,,SCT,4600,SCT,5500,SCT,8000,,,VFR,,,,,,,,,,,,SPECI,95.0
KSHL 180315Z AUTO 33006KT 10SM OVC037 M01/M02 A2980 RMK AO2,KSHL,2021-01-18T03:15:00Z,43.22,-95.83,-1.0,-2.0,330,6,,10.0,29.799213,,,TRUE,TRUE,,,,,,,OVC,3700,,,,,,,VFR,,,,,,,,,,,,SPECI,430.0
KSHD 180315Z AUTO 23003KT 10SM CLR 00/M04 A2979 RMK AO2 T00001039,KSHD,2021-01-18T03:15:00Z,38.27,-78.9,0.0,-3.9,230,3,,10.0,29.790354,,,TRUE,TRUE,,,,,,,CLR,,,,,,,,VFR,,,,,,,,,,,,SPECI,360.0
KSGS 180315Z AUTO 33007KT 10SM SCT030 SCT044 OVC065 M05/M08 A2980 RMK AO2 T10531078,KSGS,2021-01-18T03:15:00Z,44.87,-93.03,-5.3,-7.8,330,7,,10.0,29.799213,,,TRUE,TRUE,,,,,,,SCT,3000,SCT,4400,OVC,6500,,,VFR,,,,,,,,,,,,SPECI,250.0
KSFY 180315Z AUTO 27005KT 10SM OVC030 M03/M05 A2979 RMK AO2,KSFY,2021-01-18T03:15:00Z,42.05,-90.12,-3.0,-5.0,270,5,,10.0,29.790354,,,TRUE,TRUE,,,,,,,OVC,3000,,,,,,,MVFR,,,,,,,,,,,,METAR,188.0
KSFQ 180315Z AUTO 23005KT 10SM BKN060 04/00 A2988 RMK AO2 T00401005,KSFQ,2021-01-18T03:15:00Z,36.68,-76.6,4.0,-0.5,230,5,,10.0,29.878937,,,TRUE,TRUE,,,,,,,BKN,6000,,,,,,,VFR,,,,,,,,,,,,SPECI,19.0
KSEZ 180315Z AUTO 03009KT 10SM CLR 12/M23 A3008 RMK AO2,KSEZ,2021-01-18T03:15:00Z,34.85,-111.78,12.0,-23.0,30,9,,10.0,30.079725,,,TRUE,TRUE,,,,,,,CLR,,,,,,,,VFR,,,,,,,,,,,,METAR,1455.0
KSEP 180315Z AUTO 00000KT 10SM CLR 05/M03 A3013 RMK AO2 T00471035,KSEP,2021-01-18T03:15:00Z,32.22,-98.17,4.7,-3.5,0,0,,10.0,30.129921,,,TRUE,TRUE,,,,,,,CLR,,,,,,,,VFR,,,,,,,,,,,,METAR,399.0
KSEM 180315Z AUTO 30010KT 10SM FEW080 FEW100 FEW120 09/M03 A3001 RMK AO2,KSEM,2021-01-18T03:15:00Z,32.35,-86.98,9.0,-3.0,300,10,,10.0,30.008858,,,TRUE,TRUE,,,,,,,FEW,8000,FEW,10000,FEW,12000,,,VFR,,,,,,,,,,,,SPECI,48.0
KSEF 180315Z AUTO 00000KT 10SM CLR 13/10 A3008 RMK AO2 T01350101,KSEF,2021-01-18T03:15:00Z,27.45,-81.35,13.5,10.1,0,0,,10.0,30.079725,,,TRUE,TRUE,,,,,,,CLR,,,,,,,,VFR,,,,,,,,,,,,METAR,17.0
KSEE 180315Z AUTO 31003KT 10SM CLR 16/M03 A2994 RMK AO2,KSEE,2021-01-18T03:15:00Z,32.82,-116.97,16.0,-3.0,310,3,,10.0,29.940945,,,TRUE,TRUE,,,,,,,CLR,,,,,,,,VFR,,,,,,,,,,,,METAR,113.0
KSDC 180315Z AUTO 00000KT 10SM OVC007 01/00 A2964 RMK AO2,KSDC,2021-01-18T03:15:00Z,43.23,-77.12,1.0,0.0,0,0,,10.0,29.639763,,,TRUE,TRUE,,,,,,,OVC,700,,,,,,,IFR,,,,,,,,,,,,METAR,127.0
KSDA 180315Z AUTO 24004KT 10SM CLR M02/M02 A2987 RMK AO2,KSDA,2021-01-18T03:15:00Z,40.75,-95.42,-2.0,-2.0,240,4,,10.0,29.870079,,,TRUE,TRUE,,,,,,,CLR,,,,,,,,VFR,,,,,,,,,,,,SPECI,293.0
KSCX 180315Z AUTO VRB05G10KT 10SM FEW043 BKN050 OVC060 03/M03 A2985 RMK A01,KSCX,2021-01-18T03:15:00Z,36.45,-84.58,3.0,-3.0,0,5,10,10.0,29.84941,,,TRUE,TRUE,,,,,,,FEW,4300,BKN,5000,OVC,6000,,,VFR,,,,,,,,,,,,METAR,462.0
KSCR 180315Z AUTO 00000KT 10SM BKN070 M01/M03 A2989 RMK AO2 T10101026,KSCR,2021-01-18T03:15:00Z,35.7,-79.5,-1.0,-2.6,0,0,,10.0,29.890747,,,TRUE,TRUE,,,,,,,BKN,7000,,,,,,,VFR,,,,,,,,,,,,METAR,182.0
KSCD 180315Z AUTO 00000KT 10SM CLR 01/M01 A2998 RMK AO2 T00101009,KSCD,2021-01-18T03:15:00Z,33.17,-86.3,1.0,-0.9,0,0,,10.0,29.97933,,,TRUE,TRUE,,,,,,,CLR,,,,,,,,VFR,,,,,,,,,,,,METAR,164.0
KSBS 180315Z AUTO 00000KT 10SM OVC049 01/M06 A2999 RMK AO1 T00051065,KSBS,2021-01-18T03:15:00Z,40.52,-106.87,0.5,-6.5,0,0,,10.0,29.991142,,,TRUE,TRUE,,,,,,,OVC,4900,,,,,,,VFR,,,,,,,,,,,,SPECI,2097.0
KSBO 180315Z AUTO 00000KT 10SM CLR 06/00 A2999 RMK AO2,KSBO,2021-01-18T03:15:00Z,32.62,-82.37,6.0,0.0,0,0,,10.0,29.991142,,,TRUE,TRUE,,,,,,,CLR,,,,,,,,VFR,,,,,,,,,,,,METAR,98.0
KSAZ 180315Z AUTO 31015KT 10SM OVC014 M06/M07 A2979 RMK AO2,KSAZ,2021-01-18T03:15:00Z,46.37,-94.8,-6.0,-7.0,310,15,,10.0,29.790354,,,TRUE,TRUE,,,,,,,OVC,1400,,,,,,,MVFR,,,,,,,,,,,,SPECI,391.0
KSAA 180315Z AUTO 24029G38KT 10SM CLR 02/M05 A2988 RMK AO2,KSAA,2021-01-18T03:15:00Z,41.45,-106.8,2.0,-5.0,240,29,38,10.0,29.878937,,,TRUE,TRUE,,,,,,,CLR,,,,,,,,VFR,,,,,,,,,,,,METAR,2093.0
KS71 180315Z AUTO 25011KT 10SM 02/01 A2991 ,KS71,2021-01-18T03:15:00Z,48.6,-109.25,2.0,1.0,250,11,,10.0,29.911417,,,TRUE,,,,,,,,,,,,,,,,,,,,,,,,,,,,METAR,736.0
KS52 180315Z AUTO 00000KT 10SM CLR M06/M07 A3039 RMK AO2 T10601068,KS52,2021-01-18T03:15:00Z,48.42,-120.15,-6.0,-6.8,0,0,,10.0,30.389763,,,TRUE,TRUE,,,,,,,CLR,,,,,,,,VFR,,,,,,,,,,,,METAR,517.0
KS39 180315Z AUTO 00000KT 10SM CLR M00/M03 A3039 RMK AO2,KS39,2021-01-18T03:15:00Z,44.28,-120.9,0.0,-3.0,0,0,,10.0,30.389763,,,TRUE,TRUE,,,,,,,CLR,,,,,,,,VFR,,,,,,,,,,,,METAR,987.0
KS33 180315Z AUTO 00000KT 10SM CLR 02/M01 A3041 RMK AO2,KS33,2021-01-18T03:15:00Z,44.67,-121.15,2.0,-1.0,0,0,,10.0,30.410433,,,TRUE,TRUE,,,,,,,CLR,,,,,,,,VFR,,,,,,,,,,,,SPECI,739.0
KS25 180315Z AUTO 22004KT 10SM FEW030 BKN036 OVC049 M02/M03 A2978 RMK AO2 PWINO,KS25,2021-01-18T03:15:00Z,47.8,-103.25,-2.0,-3.0,220,4,,10.0,29.778543,,,TRUE,TRUE,,,,,TRUE,,FEW,3000,BKN,3600,OVC,4900,,,VFR,,,,,,,,,,,,SPECI,632.0
KS21 180315Z AUTO 00000KT 10SM CLR 00/M04 A3043 RMK AO2,KS21,2021-01-18T03:15:00Z,43.88,-121.45,0.0,-4.0,0,0,,10.0,30.431103,,,TRUE,TRUE,,,,,,,CLR,,,,,,,,VFR,,,,,,,,,,,,METAR,1269.0
KRZT 180315Z AUTO 24008KT 10SM SCT019 BKN029 OVC080 00/M01 A2977 RMK AO2 PWINO,KRZT,2021-01-18T03:15:00Z,39.43,-83.02,0.0,-1.0,240,8,,10.0,29.769686,,,TRUE,TRUE,,,,,TRUE,,SCT,1900,BKN,2900,OVC,8000,,,MVFR,,,,,,,,,,,,SPECI,217.0
KRZR 180315Z AUTO VRB04KT 10SM FEW043 SCT065 BKN075 07/M04 A2987 RMK A01,KRZR,2021-01-18T03:15:00Z,35.22,-84.8,7.0,-4.0,0,4,,10.0,29.870079,,,TRUE,TRUE,,,,,,,FEW,4300,SCT,6500,BKN,7500,,,VFR,,,,,,,,,,,,METAR,259.0
KRZN 180315Z AUTO 27005KT 10SM OVC015 M06/M07 A2978 RMK AO2 T10581075,KRZN,2021-01-18T03:15:00Z,45.82,-92.37,-5.8,-7.5,270,5,,10.0,29.778543,,,TRUE,TRUE,,,,,,,OVC,1500,,,,,,,MVFR,,,,,,,,,,,,SPECI,301.0
KRZL 180315Z AUTO 26006KT 5SM -SN OVC005 M01/M02 A2976 RMK AO2,KRZL,2021-01-18T03:15:00Z,40.95,-87.18,-1.0,-2.0,260,6,,5.0,29.760826,,,TRUE,TRUE,,,,,,-SN,OVC,500,,,,,,,IFR,,,,,,,,,,,,SPECI,210.0
KRYW 180315Z AUTO 09005KT 10SM CLR A3012 RMK AO2,KRYW,2021-01-18T03:15:00Z,30.5,-97.97,,,90,5,,10.0,30.121063,,,TRUE,TRUE,,,,,,,CLR,,,,,,,,VFR,,,,,,,,,,,,METAR,370.0
KRYV 180315Z AUTO 32003KT 4SM -SN SCT026 OVC035 M03/M03 A2974 RMK AO2 T10311031,KRYV,2021-01-18T03:15:00Z,43.17,-88.72,-3.1,-3.1,320,3,,4.0,29.740158,,,TRUE,TRUE,,,,,,-SN,SCT,2600,OVC,3500,,,,,MVFR,,,,,,,,,,,,SPECI,249.0
KRWV 180315Z AUTO 00000KT 10SM CLR 07/M01 A3012 RMK AO2 T00721013,KRWV,2021-01-18T03:15:00Z,30.52,-96.7,7.2,-1.3,0,0,,10.0,30.121063,,,TRUE,TRUE,,,,,,,CLR,,,,,,,,VFR,,,,,,,,,,,,METAR,116.0
KRVL 180315Z AUTO 00000KT 10SM SCT002 BKN019 OVC065 02/02 A2970 RMK AO2,KRVL,2021-01-18T03:15:00Z,40.68,-77.63,2.0,2.0,0,0,,10.0,29.698818,,,TRUE,TRUE,,,,,,,SCT,200,BKN,1900,OVC,6500,,,MVFR,,,,,,,,,,,,SPECI,250.0
KRVJ 180315Z AUTO 00000KT 10SM CLR 05/00 A3000 RMK AO2 T00481001,KRVJ,2021-01-18T03:15:00Z,32.07,-82.15,4.8,-0.1,0,0,,10.0,30.0,,,TRUE,TRUE,,,,,,,CLR,,,,,,,,VFR,,,,,,,,,,,,METAR,60.0
KRUQ 180315Z AUTO 20006KT 10SM OVC090 03/M03 A2987 RMK AO2 T00281033,KRUQ,2021-01-18T03:15:00Z,35.65,-80.52,2.8,-3.3,200,6,,10.0,29.870079,,,TRUE,TRUE,,,,,,,OVC,9000,,,,,,,VFR,,,,,,,,,,,,METAR,231.0
KRUG 180315Z AUTO 00000KT 10SM M07/M08 A2980 RMK AO2,KRUG,2021-01-18T03:15:00Z,48.38,-100.02,-7.0,-8.0,0,0,,10.0,29.799213,,,TRUE,TRUE,,,,,,,,,,,,,,,,,,,,,,,,,,,SPECI,469.0
KRTS 180315Z AUTO 00000KT 10SM CLR 05/M03 A3025 RMK AO2,KRTS,2021-01-18T03:15:00Z,39.67,-119.88,5.0,-3.0,0,0,,10.0,30.250984,,,TRUE,TRUE,,,,,,,CLR,,,,,,,,VFR,,,,,,,,,,,,METAR,1537.0
KRSV 180315Z AUTO 28006KT 10SM BKN019 BKN031 OVC080 M01/M03 A2986 RMK AO2 T10101030,KRSV,2021-01-18T03:15:00Z,39.02,-87.65,-1.0,-3.0,280,6,,10.0,29.861221,,,TRUE,TRUE,,,,,,,BKN,1900,BKN,3100,OVC,8000,,,MVFR,,,,,,,,,,,,METAR,139.0
KRSN 180315Z AUTO 24003KT 10SM CLR 06/M04 A3012 RMK AO2 T00621045,KRSN,2021-01-18T03:15:00Z,32.52,-92.58,6.2,-4.5,240,3,,10.0,30.121063,,,TRUE,TRUE,,,,,,,CLR,,,,,,,,VFR,,,,,,,,,,,,METAR,86.0
KRRT 180315Z AUTO 31008KT 10SM -SN OVC029 M12/M14 A2983 RMK AO2,KRRT,2021-01-18T03:15:00Z,48.93,-95.33,-12.0,-14.0,310,8,,10.0,29.828741,,,TRUE,TRUE,,,,,,-SN,OVC,2900,,,,,,,MVFR,,,,,,,,,,,,METAR,327.0
KRRL 180315Z AUTO 01003KT 10SM SCT012 OVC019 M05/M06 A2972 RMK AO2 T10531065 TSNO,KRRL,2021-01-18T03:15:00Z,45.2,-89.72,-5.3,-6.5,10,3,,10.0,29.719488,,,TRUE,TRUE,,,TRUE,,,,SCT,1200,OVC,1900,,,,,MVFR,,,,,,,,,,,,METAR,397.0
KRQO 180315Z AUTO 22005KT 10SM CLR 02/M08 A3004 RMK AO2 T00171076,KRQO,2021-01-18T03:15:00Z,35.47,-98.0,1.7,-7.6,220,5,,10.0,30.041338,,,TRUE,TRUE,,,,,,,CLR,,,,,,,,VFR,,,,,,,,,,,,METAR,431.0
KRQB 180315Z AUTO 00000KT 4SM -SN SCT010 BKN016 OVC033 M02/M03 A2967 RMK AO2 T10201030,KRQB,2021-01-18T03:15:00Z,43.72,-85.5,-2.0,-3.0,0,0,,4.0,29.66929,,,TRUE,TRUE,,,,,,-SN,SCT,1000,BKN,1600,OVC,3300,,,MVFR,,,,,,,,,,,,METAR,282.0
KRPJ 180315Z AUTO 26005KT 5SM -SN SCT022 BKN031 OVC043 M03/M03 A2978 RMK AO2 T10331035,KRPJ,2021-01-18T03:15:00Z,41.88,-89.08,-3.3,-3.5,260,5,,5.0,29.778543,,,TRUE,TRUE,,,,,,-SN,SCT,2200,BKN,3100,OVC,4300,,,MVFR,,,,,,,,,,,,METAR,234.0
KRPD 180315Z AUTO 00000KT 10SM OVC015 M05/M08 A2977 RMK AO2 T10501076,KRPD,2021-01-18T03:15:00Z,45.42,-91.77,-5.0,-7.6,0,0,,10.0,29.769686,,,TRUE,TRUE,,,,,,,OVC,1500,,,,,,,MVFR,,,,,,,,,,,,SPECI,334.0
KROX 180315Z 33009KT 10SM OVC026 A2984 RMK AO2 TSNO,KROX,2021-01-18T03:15:00Z,48.85,-95.7,,,330,9,,10.0,29.840551,,,,TRUE,,,TRUE,,,,OVC,2600,,,,,,,MVFR,,,,,,,,,,,,SPECI,320.0
KROS 180315Z AUTO 29004KT 10SM -SN SCT028 BKN050 OVC070 M07/M09 A2980 RMK AO2 T10721090,KROS,2021-01-18T03:15:00Z,45.7,-92.95,-7.2,-9.0,290,4,,10.0,29.799213,,,TRUE,TRUE,,,,,,-SN,SCT,2800,BKN,5000,OVC,7000,,,VFR,,,,,,,,,,,,METAR,282.0
KRNV 180315Z AUTO 24007KT 10SM CLR 04/M02 A3002 RMK AO2 T00371017,KRNV,2021-01-18T03:15:00Z,33.77,-90.75,3.7,-1.7,240,7,,10.0,30.02067,,,TRUE,TRUE,,,,,,,CLR,,,,,,,,VFR,,,,,,,,,,,,METAR,42.0
KRNP 180315Z AUTO 00000KT 7SM -SN SCT005 OVC026 00/M01 A2968 RMK AO2 T00001010,KRNP,2021-01-18T03:15:00Z,43.0,-84.13,0.0,-1.0,0,0,,7.0,29.681103,,,TRUE,TRUE,,,,,,-SN,SCT,500,OVC,2600,,,,,MVFR,,,,,,,,,,,,SPECI,224.0
KRNH 180315Z AUTO 28006KT 7SM OVC004 M07/M08 A2979 RMK AO2 T10701082,KRNH,2021-01-18T03:15:00Z,45.15,-92.53,-7.0,-8.2,280,6,,7.0,29.790354,,,TRUE,TRUE,,,,,,,OVC,400,,,,,,,LIFR,,,,,,,,,,,,METAR,302.0
KRNC 180315Z AUTO 28004KT 10SM FEW049 FEW060 OVC070 05/M06 A2989 RMK A01,KRNC,2021-01-18T03:15:00Z,35.7,-85.85,5.0,-6.0,280,4,,10.0,29.890747,,,TRUE,TRUE,,,,,,,FEW,4900,FEW,6000,OVC,7000,,,VFR,,,,,,,,,,,,METAR,310.0
KRMY 180315Z AUTO 25005KT 5SM -SN OVC010 M01/M02 A2969 RMK AO2 T10101021,KRMY,2021-01-18T03:15:00Z,42.25,-84.95,-1.0,-2.1,250,5,,5.0,29.68996,,,TRUE,TRUE,,,,,,-SN,OVC,1000,,,,,,,MVFR,,,,,,,,,,,,SPECI,285.0
KRMN 180315Z AUTO 22004KT 10SM CLR 04/M05 A2983 RMK AO2 T00421055,KRMN,2021-01-18T03:15:00Z,38.4,-77.45,4.2,-5.5,220,4,,10.0,29.828741,,,TRUE,TRUE,,,,,,,CLR,,,,,,,,VFR,,,,,,,,,,,,SPECI,50.0
KRLD 180315Z AUTO 00000KT 7SM CLR 02/01 A3039 RMK AO2 T00170014,KRLD,2021-01-18T03:15:00Z,46.3,-119.3,1.7,1.4,0,0,,7.0,30.389763,,,TRUE,TRUE,,,,,,,CLR,,,,,,,,VFR,,,,,,,,,,,,METAR,118.0
KRKW 180315Z AUTO VRB03KT 10SM FEW024 SCT043 BKN050 03/M03 A2984 RMK A01,KRKW,2021-01-18T03:15:00Z,35.92,-84.68,3.0,-3.0,0,3,,10.0,29.840551,,,TRUE,TRUE,,,,,,,FEW,2400,SCT,4300,BKN,5000,,,VFR,,,,,,,,,,,,METAR,505.0
KRKR 180315Z AUTO 00000KT 10SM CLR 01/M04 A3004 RMK AO2,KRKR,2021-01-18T03:15:00Z,35.02,-94.62,1.0,-4.0,0,0,,10.0,30.041338,,,TRUE,TRUE,,,,,,,CLR,,,,,,,,VFR,,,,,,,,,,,,METAR,136.0
KRID 180315Z AUTO 28011G16KT 10SM SCT017 BKN031 OVC075 M02/M02 A2976 RMK AO2,KRID,2021-01-18T03:15:00Z,39.75,-84.85,-2.0,-2.0,280,11,16,10.0,29.760826,,,TRUE,TRUE,,,,,,,SCT,1700,BKN,3100,OVC,7500,,,VFR,,,,,,,,,,,,SPECI,346.0
KRHP 180315Z AUTO 00000KT 10SM BKN038 BKN049 OVC075 02/00 A2988 RMK AO2 T00150000,KRHP,2021-01-18T03:15:00Z,35.18,-83.85,1.5,0.0,0,0,,10.0,29.878937,,,TRUE,TRUE,,,,,,,BKN,3800,BKN,4900,OVC,7500,,,VFR,,,,,,,,,,,,METAR,515.0
KRGK 180315Z AUTO 30005KT 10SM OVC010 M06/M08 A2980 RMK AO2,KRGK,2021-01-18T03:15:00Z,44.58,-92.48,-6.0,-8.0,300,5,,10.0,29.799213,,,TRUE,TRUE,,,,,,,OVC,1000,,,,,,,MVFR,,,,,,,,,,,,SPECI,238.0
KRGA 180315Z AUTO 26003KT 10SM CLR M01/M03 A2984 RMK AO2,KRGA,2021-01-18T03:15:00Z,37.63,-84.33,-1.0,-3.0,260,3,,10.0,29.840551,,,TRUE,TRUE,,,,,,,CLR,,,,,,,,VFR,,,,,,,,,,,,METAR,301.0
KRFI 180315Z AUTO 00000KT 10SM CLR 02/M02 A3012 RMK AO2 T00171020,KRFI,2021-01-18T03:15:00Z,32.15,-94.85,1.7,-2.0,0,0,,10.0,30.121063,,,TRUE,TRUE,,,,,,,CLR,,,,,,,,VFR,,,,,,,,,,,,METAR,133.0
KREG 180315Z AUTO 26004KT 10SM CLR 10/M01 A3010 RMK AO2 T00951008,KREG,2021-01-18T03:15:00Z,30.17,-90.93,9.5,-0.8,260,4,,10.0,30.100393,,,TRUE,TRUE,,,,,,,CLR,,,,,,,,VFR,,,,,,,,,,,,METAR,3.0
KRDK 180315Z AUTO 27003KT 10SM FEW200 FEW220 M03/M04 A2987 RMK AO2,KRDK,2021-01-18T03:15:00Z,41.02,-95.27,-3.0,-4.0,270,3,,10.0,29.870079,,,TRUE,TRUE,,,,,,,FEW,20000,FEW,22000,,,,,VFR,,,,,,,,,,,,SPECI,317.0
KRCZ 180315Z AUTO 19004KT 10SM CLR 03/M02 A2992 RMK AO2 T00321018,KRCZ,2021-01-18T03:15:00Z,34.88,-79.77,3.2,-1.8,190,4,,10.0,29.920275,,,TRUE,TRUE,,,,,,,CLR,,,,,,,,VFR,,,,,,,,,,,,METAR,110.0
KRCX 180315Z AUTO 00000KT 10SM M04/M04 A2975 RMK AO2 T10401043,KRCX,2021-01-18T03:15:00Z,45.5,-91.0,-4.0,-4.3,0,0,,10.0,29.749016,,,TRUE,TRUE,,,,,,,,,,,,,,,,,,,,,,,,,,,METAR,373.0
KRCV 180315Z AUTO 00000KT 10SM CLR 00/M09 A3002 RMK AO2 T00031087,KRCV,2021-01-18T03:15:00Z,37.72,-106.35,0.3,-8.7,0,0,,10.0,30.02067,,,TRUE,TRUE,,,,,,,CLR,,,,,,,,VFR,,,,,,,,,,,,METAR,2418.0
KRCR 180315Z AUTO 25006KT 10SM SCT021 BKN043 BKN080 M01/M03 A2975 RMK AO2,KRCR,2021-01-18T03:15:00Z,41.07,-86.18,-1.0,-3.0,250,6,,10.0,29.749016,,,TRUE,TRUE,,,,,,,SCT,2100,BKN,4300,BKN,8000,,,VFR,,,,,,,,,,,,METAR,240.0
KRCM 180315Z AUTO 27005KT 10SM SCT050 01/M04 A2992 RMK AO2,KRCM,2021-01-18T03:15:00Z,38.78,-93.8,1.0,-4.0,270,5,,10.0,29.920275,,,TRUE,TRUE,,,,,,,SCT,5000,,,,,,,VFR,,,,,,,,,,,,SPECI,242.0
KRCE 180315Z AUTO 22005KT 10SM CLR 01/M07 A3002 RMK AO2,KRCE,2021-01-18T03:15:00Z,35.48,-97.82,1.0,-7.0,220,5,,10.0,30.02067,,,TRUE,TRUE,,,,,,,CLR,,,,,,,,VFR,,,,,,,,,,,,SPECI,412.0
KRBW 180315Z AUTO 21003KT 10SM CLR 03/00 A3000 RMK AO2,KRBW,2021-01-18T03:15:00Z,32.92,-80.63,3.0,0.0,210,3,,10.0,30.0,,,TRUE,TRUE,,,,,,,CLR,,,,,,,,VFR,,,,,,,,,,,,SPECI,30.0
KRBO 180315Z AUTO 13005KT 10SM BKN060 15/11 A3010 RMK AO2 T01470111,KRBO,2021-01-18T03:15:00Z,27.78,-97.68,14.7,11.1,130,5,,10.0,30.100393,,,TRUE,TRUE,,,,,,,BKN,6000,,,,,,,VFR,,,,,,,,,,,,METAR,24.0
KRAW 180315Z AUTO 00000KT 10SM BKN050 01/M03 A2994 RMK AO2 T00081033,KRAW,2021-01-18T03:15:00Z,38.35,-93.35,0.8,-3.3,0,0,,10.0,29.940945,,,TRUE,TRUE,,,,,,,BKN,5000,,,,,,,VFR,,,,,,,,,,,,SPECI,285.0
KRAS 180315Z AUTO 15005KT 10SM CLR 15/13 A3012 RMK AO2 T01550129,KRAS,2021-01-18T03:15:00Z,27.82,-97.08,15.5,12.9,150,5,,10.0,30.121063,,,TRUE,TRUE,,,,,,,CLR,,,,,,,,VFR,,,,,,,,,,,,METAR,3.0
KPZZ 180315Z AUTO 27007KT 10SM CLR 14/06 A3014 RMK A01,KPZZ,2021-01-18T03:15:00Z,28.43,-91.03,14.0,6.0,270,7,,10.0,30.138779,,,TRUE,TRUE,,,,,,,CLR,,,,,,,,VFR,,,,,,,,,,,,METAR,25.0
KPZQ 180315Z AUTO 27004KT 10SM OVC028 M02/M04 A2968 RMK AO2 T10251044,KPZQ,2021-01-18T03:15:00Z,45.4,-83.82,-2.5,-4.4,270,4,,10.0,29.681103,,,TRUE,TRUE,,,,,,,OVC,2800,,,,,,,MVFR,,,,,,,,,,,,METAR,199.0
KPYX 180315Z AUTO 23009KT 10SM CLR 02/M07 A2996 RMK AO2 T00211075,KPYX,2021-01-18T03:15:00Z,36.42,-100.75,2.1,-7.5,230,9,,10.0,29.958662,,,TRUE,TRUE,,,,,,,CLR,,,,,,,,VFR,,,,,,,,,,,,METAR,890.0
KPXE 180315Z AUTO 23006KT 10SM CLR 05/M01 A2999 RMK AO2 T00481011,KPXE,2021-01-18T03:15:00Z,32.52,-83.77,4.8,-1.1,230,6,,10.0,29.991142,,,TRUE,TRUE,,,,,,,CLR,,,,,,,,VFR,,,,,,,,,,,,METAR,126.0
KPWC 180315Z AUTO 35005KT 10SM OVC015 M06/M08 A2981 RMK AO2,KPWC,2021-01-18T03:15:00Z,46.72,-94.38,-6.0,-8.0,350,5,,10.0,29.811024,,,TRUE,TRUE,,,,,,,OVC,1500,,,,,,,MVFR,,,,,,,,,,,,METAR,394.0
KPVW 180315Z AUTO 21005KT 10SM CLR 01/M05 A3004 RMK AO2 T00071055,KPVW,2021-01-18T03:15:00Z,34.17,-101.72,0.7,-5.5,210,5,,10.0,30.041338,,,TRUE,TRUE,,,,,,,CLR,,,,,,,,VFR,,,,,,,,,,,,METAR,1029.0
KPVJ 180315Z AUTO 00000KT 10SM CLR 03/M08 A3005 RMK AO2 T00281081,KPVJ,2021-01-18T03:15:00Z,34.72,-97.22,2.8,-8.1,0,0,,10.0,30.050198,,,TRUE,TRUE,,,,,,,CLR,,,,,,,,VFR,,,,,,,,,,,,METAR,287.0
KPVF 180315Z AUTO 10006KT 10SM CLR 14/07 A3007 RMK AO1,KPVF,2021-01-18T03:15:00Z,38.72,-120.75,14.0,7.0,100,6,,10.0,30.070866,,,TRUE,TRUE,,,,,,,CLR,,,,,,,,VFR,,,,,,,,,,,,SPECI,788.0
KPVE 180315Z AUTO 00000KT 10SM FEW044 BKN055 OVC065 02/M04 A2992 RMK A01,KPVE,2021-01-18T03:15:00Z,35.65,-88.2,2.0,-4.0,0,0,,10.0,29.920275,,,TRUE,TRUE,,,,,,,FEW,4400,BKN,5500,OVC,6500,,,VFR,,,,,,,,,,,,METAR,146.0
KPVB 180315Z AUTO 29006KT 10SM OVC019 M03/M04 A2977 RMK AO1 T10351038,KPVB,2021-01-18T03:15:00Z,42.68,-90.43,-3.5,-3.8,290,6,,10.0,29.769686,,,TRUE,TRUE,,,,,,,OVC,1900,,,,,,,MVFR,,,,,,,,,,,,SPECI,311.0
KPUJ 180315Z AUTO 30010G18KT 10SM -RA SCT018 BKN039 OVC065 05/M01 A2992 RMK AO2,KPUJ,2021-01-18T03:15:00Z,33.92,-84.93,5.0,-1.0,300,10,18,10.0,29.920275,,,TRUE,TRUE,,,,,,-RA,SCT,1800,BKN,3900,OVC,6500,,,VFR,,,,,,,,,,,,METAR,385.0
KPTT 180315Z AUTO 23005KT 10SM CLR M03/M11 A2995 RMK AO2 T10281107,KPTT,2021-01-18T03:15:00Z,37.7,-98.75,-2.8,-10.7,230,5,,10.0,29.949802,,,TRUE,TRUE,,,,,,,CLR,,,,,,,,VFR,,,,,,,,,,,,METAR,594.0
KPTS 180315Z AUTO 00000KT 10SM CLR M01/M04 A2994 RMK AO2 T10091040,KPTS,2021-01-18T03:15:00Z,37.45,-94.73,-0.9,-4.0,0,0,,10.0,29.940945,,,TRUE,TRUE,,,,,,,CLR,,,,,,,,VFR,,,,,,,,,,,,METAR,286.0
KPTD 180315Z AUTO 29005KT 10SM -UP OVC020 M04/M06 A2959 RMK AO2,KPTD,2021-01-18T03:15:00Z,44.68,-74.95,-4.0,-6.0,290,5,,10.0,29.589567,,,TRUE,TRUE,,,,,,UP,OVC,2000,,,,,,,MVFR,,,,,,,,,,,,METAR,144.0
KPTB 180315Z AUTO 19003KT 10SM BKN085 03/M02 A2984 RMK AO2 T00261016,KPTB,2021-01-18T03:15:00Z,37.17,-77.52,2.6,-1.6,190,3,,10.0,29.840551,,,TRUE,TRUE,,,,,,,BKN,8500,,,,,,,VFR,,,,,,,,,,,,SPECI,56.0
KPSO 180315Z AUTO 00000KT 10SM CLR M04/M09 A3010 RMK AO2 T10421095,KPSO,2021-01-18T03:15:00Z,37.28,-107.05,-4.2,-9.5,0,0,,10.0,30.100393,,,TRUE,TRUE,,,,,,,CLR,,,,,,,,VFR,,,,,,,,,,,,METAR,2332.0
KPSN 180315Z AUTO 00000KT 10SM CLR 02/00 A3011 RMK AO2 T00300000,KPSN,2021-01-18T03:15:00Z,31.78,-95.7,3.0,0.0,0,0,,10.0,30.109253,,,TRUE,TRUE,,,,,,,CLR,,,,,,,,VFR,,,,,,,,,,,,METAR,124.0
KPSK 180315Z AUTO 21007KT 10SM OVC070 01/M01 A2979 RMK AO2 T00101015,KPSK,2021-01-18T03:15:00Z,37.13,-80.67,1.0,-1.5,210,7,,10.0,29.790354,,,TRUE,TRUE,,,,,,,OVC,7000,,,,,,,VFR,,,,,,,,,,,,SPECI,629.0
KPRS 180315Z AUTO 35008KT 10SM CLR 12/M08 A3007 RMK AO2 T01221080,KPRS,2021-01-18T03:15:00Z,29.63,-104.35,12.2,-8.0,350,8,,10.0,30.070866,,,TRUE,TRUE,,,,,,,CLR,,,,,,,,VFR,,,,,,,,,,,,METAR,890.0
KPRO 180315Z AUTO 27010KT 10SM OVC046 M01/M03 A2983 RMK AO2 T10081028,KPRO,2021-01-18T03:15:00Z,41.83,-94.17,-0.8,-2.8,270,10,,10.0,29.828741,,,TRUE,TRUE,,,,,,,OVC,4600,,,,,,,VFR,,,,,,,,,,,,SPECI,308.0
KPRG 180315Z AUTO 29011G16KT 10SM -SN OVC014 M01/M03 A2983 RMK AO2 T10151026,KPRG,2021-01-18T03:15:00Z,39.7,-87.67,-1.5,-2.6,290,11,16,10.0,29.828741,,,TRUE,TRUE,,,,,,-SN,OVC,1400,,,,,,,MVFR,,,,,,,,,,,,METAR,197.0
KPQN 180315Z AUTO 06003KT BKN030 M03/M04 A2980 RMK AO2 PWINO,KPQN,2021-01-18T03:15:00Z,43.98,-96.28,-3.0,-4.0,60,3,,,29.799213,,,TRUE,TRUE,,,,,TRUE,,BKN,3000,,,,,,,,,,,,,,,,,,,METAR,529.0
KPPQ 180315Z AUTO 26005KT 10SM OVC026 01/M02 A2986 RMK AO2 T00051020,KPPQ,2021-01-18T03:15:00Z,39.63,-90.78,0.5,-2.0,260,5,,10.0,29.861221,,,TRUE,TRUE,,,,,,,OVC,2600,,,,,,,MVFR,,,,,,,,,,,,METAR,215.0
KPPO 180315Z AUTO 25006KT 1 1/2SM -SN OVC009 M02/M03 A2974 RMK AO2 T10221027,KPPO,2021-01-18T03:15:00Z,41.57,-86.73,-2.2,-2.7,250,6,,1.5,29.740158,,,TRUE,TRUE,,,,,,-SN,OVC,900,,,,,,,IFR,,,,,,,,,,,,METAR,242.0
KPPA 180315Z AUTO 20009KT 10SM CLR 01/M07 A3000 RMK AO2 T00051072,KPPA,2021-01-18T03:15:00Z,35.62,-101.0,0.5,-7.2,200,9,,10.0,30.0,,,TRUE,TRUE,,,,,,,CLR,,,,,,,,VFR,,,,,,,,,,,,METAR,989.0
KPOY 180315Z AUTO 30013G17KT 10SM CLR 00/M05 A2991 RMK AO2,KPOY,2021-01-18T03:15:00Z,44.87,-108.8,0.0,-5.0,300,13,17,10.0,29.911417,,,TRUE,TRUE,,,,,,,CLR,,,,,,,,VFR,,,,,,,,,,,,METAR,1547.0
KPOV 180315Z AUTO 24004KT 7SM BKN005 BKN011 M01/M02 A2967 RMK AO2 T10071017 PWINO,KPOV,2021-01-18T03:15:00Z,41.22,-81.25,-0.7,-1.7,240,4,,7.0,29.66929,,,TRUE,TRUE,,,,,TRUE,,BKN,500,BKN,1100,,,,,IFR,,,,,,,,,,,,METAR,363.0
KPO1 180315Z AUTO 00000KT 10SM M03/M04 A2980 ,KPO1,2021-01-18T03:15:00Z,48.13,-105.17,-3.0,-4.0,0,0,,10.0,29.799213,,,TRUE,,,,,,,,,,,,,,,,,,,,,,,,,,,,METAR,621.0
KPNT 180315Z AUTO 27011KT 5SM -SN BKN009 BKN020 OVC029 M03/M04 A2982 RMK AO2 T10281038,KPNT,2021-01-18T03:15:00Z,40.92,-88.62,-2.8,-3.8,270,11,,5.0,29.819881,,,TRUE,TRUE,,,,,,-SN,BKN,900,BKN,2000,OVC,2900,,,IFR,,,,,,,,,,,,METAR,199.0
KPMV 180315Z AUTO 23005KT 10SM CLR 00/M05 A2987 RMK AO2 T10031048,KPMV,2021-01-18T03:15:00Z,40.95,-95.92,-0.3,-4.8,230,5,,10.0,29.870079,,,TRUE,TRUE,,,,,,,CLR,,,,,,,,VFR,,,,,,,,,,,,METAR,365.0
KPMU 180315Z AUTO 00000KT 10SM CLR M00/M02 A3000 RMK AO2,KPMU,2021-01-18T03:15:00Z,34.37,-89.9,0.0,-2.0,0,0,,10.0,30.0,,,TRUE,TRUE,,,,,,,CLR,,,,,,,,VFR,,,,,,,,,,,,METAR,67.0
KPMH 180315Z AUTO 24003KT 10SM OVC021 01/M01 A2981 RMK AO2 T00071007,KPMH,2021-01-18T03:15:00Z,38.83,-82.85,0.7,-0.7,240,3,,10.0,29.811024,,,TRUE,TRUE,,,,,,,OVC,2100,,,,,,,MVFR,,,,,,,,,,,,SPECI,200.0
KPLU 180315Z AUTO 00000KT 1/4SM FG VV002 04/04 A3051 RMK AO2,KPLU,2021-01-18T03:15:00Z,47.1,-122.28,4.0,4.0,0,0,,0.25,30.510826,,,TRUE,TRUE,,,,,,FG,OVX,0,,,,,,,LIFR,,,,,,,,,,,200,SPECI,164.0
KPLR 180315Z AUTO 23004KT 10SM FEW055 06/M03 A2997 RMK A01,KPLR,2021-01-18T03:15:00Z,33.57,-86.25,6.0,-3.0,230,4,,10.0,29.970472,,,TRUE,TRUE,,,,,,,FEW,5500,,,,,,,VFR,,,,,,,,,,,,SPECI,145.0
KPKV 180315Z AUTO 11003KT 10SM SCT070 11/05 A3013 RMK AO2 T01110051,KPKV,2021-01-18T03:15:00Z,28.65,-96.68,11.1,5.1,110,3,,10.0,30.129921,,,TRUE,TRUE,,,,,,,SCT,7000,,,,,,,VFR,,,,,,,,,,,,METAR,8.0
KPJC 180315Z AUTO 24004KT 10SM OVC016 00/00 A2970 RMK AO2,KPJC,2021-01-18T03:15:00Z,40.8,-80.17,0.0,0.0,240,4,,10.0,29.698818,,,TRUE,TRUE,,,,,,,OVC,1600,,,,,,,MVFR,,,,,,,,,,,,SPECI,273.0
KPIM 180315Z AUTO 21006KT 10SM CLR 06/M03 A2995 RMK AO2 T00571030,KPIM,2021-01-18T03:15:00Z,32.83,-84.88,5.7,-3.0,210,6,,10.0,29.949802,,,TRUE,TRUE,,,,,,,CLR,,,,,,,,VFR,,,,,,,,,,,,METAR,274.0
KPHT 180315Z AUTO 34003KT 10SM OVC050 03/M03 A2991 RMK A01,KPHT,2021-01-18T03:15:00Z,36.33,-88.38,3.0,-3.0,340,3,,10.0,29.911417,,,TRUE,TRUE,,,,,,,OVC,5000,,,,,,,VFR,,,,,,,,,,,,METAR,172.0
KPHN 180315Z AUTO 00000KT 3SM -SN BKN004 OVC012 M00/M01 A2967 RMK AO2,KPHN,2021-01-18T03:15:00Z,42.92,-82.52,0.0,-1.0,0,0,,3.0,29.66929,,,TRUE,TRUE,,,,,,-SN,BKN,400,OVC,1200,,,,,LIFR,,,,,,,,,,,,SPECI,195.0
KPGV 180315Z AUTO 24005KT 10SM CLR 03/M01 A2993 RMK AO2,KPGV,2021-01-18T03:15:00Z,35.63,-77.4,3.0,-1.0,240,5,,10.0,29.929134,,,TRUE,TRUE,,,,,,,CLR,,,,,,,,VFR,,,,,,,,,,,,METAR,6.0
KPEZ 180315Z AUTO 00000KT 10SM CLR 10/06 A3011 RMK AO2 T00990057,KPEZ,2021-01-18T03:15:00Z,28.95,-98.52,9.9,5.7,0,0,,10.0,30.109253,,,TRUE,TRUE,,,,,,,CLR,,,,,,,,VFR,,,,,,,,,,,,METAR,126.0
KPEX 180315Z AUTO 31006KT 10SM OVC031 M05/M06 A2981 RMK AO2,KPEX,2021-01-18T03:15:00Z,45.37,-94.73,-5.0,-6.0,310,6,,10.0,29.811024,,,TRUE,TRUE,,,,,,,OVC,3100,,,,,,,VFR,,,,,,,,,,,,SPECI,359.0
KPEQ 180315Z AUTO 00000KT 10SM CLR 07/M05 A3006 RMK AO2 T00711053 PWINO,KPEQ,2021-01-18T03:15:00Z,31.38,-103.52,7.1,-5.3,0,0,,10.0,30.059055,,,TRUE,TRUE,,,,,TRUE,,CLR,,,,,,,,VFR,,,,,,,,,,,,METAR,794.0
KPEA 180315Z AUTO 00000KT 10SM OVC020 M01/M04 A2986 RMK AO2 T10131040,KPEA,2021-01-18T03:15:00Z,41.4,-92.95,-1.3,-4.0,0,0,,10.0,29.861221,,,TRUE,TRUE,,,,,,,OVC,2000,,,,,,,MVFR,,,,,,,,,,,,SPECI,264.0
KPDC 180315Z AUTO 25004KT 10SM SCT010 OVC028 M04/M07 A2980 RMK AO2 T10431067,KPDC,2021-01-18T03:15:00Z,43.02,-91.12,-4.3,-6.7,250,4,,10.0,29.799213,,,TRUE,TRUE,,,,,,,SCT,1000,OVC,2800,,,,,MVFR,,,,,,,,,,,,SPECI,201.0
KPCZ 180315Z AUTO 31004KT 10SM OVC024 M02/M06 A2975 RMK AO2 T10161061,KPCZ,2021-01-18T03:15:00Z,44.33,-89.02,-1.6,-6.1,310,4,,10.0,29.749016,,,TRUE,TRUE,,,,,,,OVC,2400,,,,,,,MVFR,,,,,,,,,,,,SPECI,248.0
KPCW 180315Z AUTO 27013KT 10SM SCT009 BKN014 OVC032 M00/M01 A2970 RMK AO2,KPCW,2021-01-18T03:15:00Z,41.52,-82.87,0.0,-1.0,270,13,,10.0,29.698818,,,TRUE,TRUE,,,,,,,SCT,900,BKN,1400,OVC,3200,,,MVFR,,,,,,,,,,,,METAR,179.0
KPCM 180315Z AUTO 00000KT 10SM SCT038 BKN048 12/09 A3010 RMK AO2,KPCM,2021-01-18T03:15:00Z,28.0,-82.17,12.0,9.0,0,0,,10.0,30.100393,,,TRUE,TRUE,,,,,,,SCT,3800,BKN,4800,,,,,VFR,,,,,,,,,,,,METAR,43.0
KPCD 180315Z AUTO 00000KT 10SM BKN041 OVC050 00/00 A2991 RMK AO2 T00031003,KPCD,2021-01-18T03:15:00Z,37.87,-89.87,0.3,-0.3,0,0,,10.0,29.911417,,,TRUE,TRUE,,,,,,,BKN,4100,OVC,5000,,,,,VFR,,,,,,,,,,,,METAR,112.0
KPBX 180315Z AUTO 00000KT 5SM -SN OVC011 00/00 A2980 RMK AO2 T00000000,KPBX,2021-01-18T03:15:00Z,37.57,-82.57,0.0,0.0,0,0,,5.0,29.799213,,,TRUE,TRUE,,,,,,-SN,OVC,1100,,,,,,,MVFR,,,,,,,,,,,,METAR,447.0
KPBH 180315Z AUTO 00000KT 10SM OVC014 M06/M07 A2971 RMK AO2 T10651075,KPBH,2021-01-18T03:15:00Z,45.7,-90.4,-6.5,-7.5,0,0,,10.0,29.71063,,,TRUE,TRUE,,,,,,,OVC,1400,,,,,,,MVFR,,,,,,,,,,,,METAR,445.0
KPAN 180315Z AUTO 00000KT 10SM CLR 09/M25 A3011 RMK AO2,KPAN,2021-01-18T03:15:00Z,34.25,-111.33,9.0,-25.0,0,0,,10.0,30.109253,,,TRUE,TRUE,,,,,,,CLR,,,,,,,,VFR,,,,,,,,,,,,METAR,1575.0
KP08 180315Z AUTO 12009KT 10SM CLR 11/M16 A2996 RMK AO2,KP08,2021-01-18T03:15:00Z,32.93,-111.43,11.0,-16.0,120,9,,10.0,29.958662,,,TRUE,TRUE,,,,,,,CLR,,,,,,,,VFR,,,,,,,,,,,,METAR,477.0
KOZW 180315Z AUTO 00000KT 4SM -SN BKN025 OVC055 M01/M01 A2967 RMK AO2 T10101010,KOZW,2021-01-18T03:15:00Z,42.62,-83.98,-1.0,-1.0,0,0,,4.0,29.66929,,,TRUE,TRUE,,,,,,-SN,BKN,2500,OVC,5500,,,,,MVFR,,,,,,,,,,,,SPECI,288.0
KOZS 180315Z AUTO 26008KT 10SM SCT035 BKN041 BKN049 03/M02 A2992 RMK AO2,KOZS,2021-01-18T03:15:00Z,37.97,-92.68,3.0,-2.0,260,8,,10.0,29.920275,,,TRUE,TRUE,,,,,,,SCT,3500,BKN,4100,BKN,4900,,,VFR,,,,,,,,,,,,METAR,321.0
KOZA 180315Z AUTO 00000KT 10SM CLR 03/M03 A3011 RMK AO2,KOZA,2021-01-18T03:15:00Z,30.73,-101.2,3.0,-3.0,0,0,,10.0,30.109253,,,TRUE,TRUE,,,,,,,CLR,,,,,,,,VFR,,,,,,,,,,,,METAR,721.0
KOXI 180315Z AUTO 24007KT 2 1/2SM BKN010 OVC016 M01/M02 A2975 RMK AO1,KOXI,2021-01-18T03:15:00Z,41.33,-86.67,-1.0,-2.0,240,7,,2.5,29.749016,,,TRUE,TRUE,,,,,,,BKN,1000,OVC,1600,,,,,IFR,,,,,,,,,,,,METAR,208.0
KOXD 180315Z AUTO 27006KT 10SM BKN013 BKN020 OVC049 M01/M01 A2977 RMK AO2 T10101010,KOXD,2021-01-18T03:15:00Z,39.5,-84.78,-1.0,-1.0,270,6,,10.0,29.769686,,,TRUE,TRUE,,,,,,,BKN,1300,BKN,2000,OVC,4900,,,MVFR,,,,,,,,,,,,METAR,317.0
KOWX 180315Z AUTO 25007KT 7SM SCT008 OVC019 00/M02 A2974 RMK AO1,KOWX,2021-01-18T03:15:00Z,41.03,-83.98,0.0,-2.0,250,7,,7.0,29.740158,,,TRUE,TRUE,,,,,,,SCT,800,OVC,1900,,,,,MVFR,,,,,,,,,,,,METAR,232.0
KOWP 180315Z AUTO 00000KT 10SM CLR 06/M05 A3001 RMK AO2 T00601050 PWINO,KOWP,2021-01-18T03:15:00Z,36.18,-96.15,6.0,-5.0,0,0,,10.0,30.008858,,,TRUE,TRUE,,,,,TRUE,,CLR,,,,,,,,VFR,,,,,,,,,,,,METAR,267.0
KOVL 180315Z AUTO 32008KT 10SM CLR M05/M06 A2982 RMK AO2,KOVL,2021-01-18T03:15:00Z,44.78,-95.03,-5.0,-6.0,320,8,,10.0,29.819881,,,TRUE,TRUE,,,,,,,CLR,,,,,,,,VFR,,,,,,,,,,,,METAR,329.0
KOSC 180315Z AUTO 00000KT 10SM -SN OVC020 M02/M02 A2967 RMK AO2 T10181022,KOSC,2021-01-18T03:15:00Z,44.45,-83.4,-1.8,-2.2,0,0,,10.0,29.66929,,,TRUE,TRUE,,,,,,-SN,OVC,2000,,,,,,,MVFR,,,,,,,,,,,,METAR,191.0
KOSA 180315Z AUTO 25003KT 7SM CLR 06/M01 A3010 RMK AO1 T00571014,KOSA,2021-01-18T03:15:00Z,33.1,-94.97,5.7,-1.4,250,3,,7.0,30.100393,,,TRUE,TRUE,,,,,,,CLR,,,,,,,,VFR,,,,,,,,,,,,METAR,108.0
KORS 180315Z AUTO 10003KT 4SM BR CLR 05/05 A3053 RMK AO2,KORS,2021-01-18T03:15:00Z,48.7,-122.92,5.0,5.0,100,3,,4.0,30.528543,,,TRUE,TRUE,,,,,,BR,CLR,,,,,,,,MVFR,,,,,,,,,,,,METAR,7.0
KORG 180315Z AUTO 00000KT 10SM CLR 07/02 A3014 RMK AO2 T00680019,KORG,2021-01-18T03:15:00Z,30.07,-93.8,6.8,1.9,0,0,,10.0,30.138779,,,TRUE,TRUE,,,,,,,CLR,,,,,,,,VFR,,,,,,,,,,,,METAR,2.0
KOQN 180315Z AUTO 00000KT 10SM OVC055 04/M02 A2974 RMK AO2,KOQN,2021-01-18T03:15:00Z,39.98,-75.58,4.0,-2.0,0,0,,10.0,29.740158,,,TRUE,TRUE,,,,,,,OVC,5500,,,,,,,VFR,,,,,,,,,,,,METAR,141.0
KOPN 180315Z AUTO 23003KT 10SM CLR 03/M01 A2997 RMK AO2,KOPN,2021-01-18T03:15:00Z,32.95,-84.27,3.0,-1.0,230,3,,10.0,29.970472,,,TRUE,TRUE,,,,,,,CLR,,,,,,,,VFR,,,,,,,,,,,,METAR,241.0
KOPL 180315Z AUTO 00000KT 10SM CLR 05/00 A3011 RMK AO2 T00510000,KOPL,2021-01-18T03:15:00Z,30.55,-92.1,5.1,0.0,0,0,,10.0,30.109253,,,TRUE,TRUE,,,,,,,CLR,,,,,,,,VFR,,,,,,,,,,,,METAR,22.0
KOOA 180315Z AUTO 28009KT 10SM OVC020 M01/M02 A2984 RMK AO2 T10061025,KOOA,2021-01-18T03:15:00Z,41.23,-92.5,-0.6,-2.5,280,9,,10.0,29.840551,,,TRUE,TRUE,,,,,,,OVC,2000,,,,,,,MVFR,,,,,,,,,,,,METAR,256.0
KONZ 180315Z AUTO 26004KT 3SM -SN BKN004 BKN015 OVC027 00/00 A2968 RMK AO2 T00001001,KONZ,2021-01-18T03:15:00Z,42.1,-83.15,0.0,-0.1,260,4,,3.0,29.681103,,,TRUE,TRUE,,,,,,-SN,BKN,400,BKN,1500,OVC,2700,,,LIFR,,,,,,,,,,,,METAR,179.0
KONX 180315Z AUTO 00000KT 10SM CLR 04/03 A2988 RMK AO2 T00400025,KONX,2021-01-18T03:15:00Z,36.4,-76.02,4.0,2.5,0,0,,10.0,29.878937,,,TRUE,TRUE,,,,,,,CLR,,,,,,,,VFR,,,,,,,,,,,,METAR,4.0
KONP 180315Z AUTO 00000KT 7SM SCT028 07/06 A3051 RMK AO2,KONP,2021-01-18T03:15:00Z,44.57,-124.05,7.0,6.0,0,0,,7.0,30.510826,,,TRUE,TRUE,,,,,,,SCT,2800,,,,,,,VFR,,,,,,,,,,,,METAR,43.0
KONM 180315Z AUTO 00000KT 10SM CLR 04/M15 A3006 RMK AO2 T00371149,KONM,2021-01-18T03:15:00Z,34.02,-106.9,3.7,-14.9,0,0,,10.0,30.059055,,,TRUE,TRUE,,,,,,,CLR,,,,,,,,VFR,,,,,,,,,,,,METAR,1467.0
KONL 180315Z AUTO 00000KT 10SM SCT120 M03/M06 A2982 RMK AO2 T10351065,KONL,2021-01-18T03:15:00Z,42.47,-98.68,-3.5,-6.5,0,0,,10.0,29.819881,,,TRUE,TRUE,,,,,,,SCT,12000,,,,,,,VFR,,,,,,,,,,,,METAR,619.0
KONA 180315Z AUTO 29005KT 10SM OVC021 M03/M05 A2980 RMK AO2,KONA,2021-01-18T03:15:00Z,44.07,-91.7,-3.0,-5.0,290,5,,10.0,29.799213,,,TRUE,TRUE,,,,,,,OVC,2100,,,,,,,MVFR,,,,,,,,,,,,SPECI,200.0
KOMH 180315Z AUTO 00000KT 10SM CLR M01/M02 A2979 RMK AO2,KOMH,2021-01-18T03:15:00Z,38.25,-78.05,-1.0,-2.0,0,0,,10.0,29.790354,,,TRUE,TRUE,,,,,,,CLR,,,,,,,,VFR,,,,,,,,,,,,SPECI,136.0
KOLZ 180315Z AUTO 27003KT 10SM OVC010 M06/M07 A2979 RMK A01,KOLZ,2021-01-18T03:15:00Z,42.67,-91.97,-6.0,-7.0,270,3,,10.0,29.790354,,,TRUE,TRUE,,,,,,,OVC,1000,,,,,,,MVFR,,,,,,,,,,,,METAR,328.0
KOLY 180315Z AUTO 26006KT 10SM BKN037 OVC090 00/M01 A2988 RMK AO2 T10051010,KOLY,2021-01-18T03:15:00Z,38.72,-88.18,-0.5,-1.0,260,6,,10.0,29.878937,,,TRUE,TRUE,,,,,,,BKN,3700,OVC,9000,,,,,VFR,,,,,,,,,,,,METAR,144.0
KOLV 180315Z AUTO 24006KT 10SM BKN075 BKN085 04/M03 A2996 RMK A01,KOLV,2021-01-18T03:15:00Z,34.98,-89.78,4.0,-3.0,240,6,,10.0,29.958662,,,TRUE,TRUE,,,,,,,BKN,7500,BKN,8500,,,,,VFR,,,,,,,,,,,,METAR,124.0
KOLG 180315Z AUTO 00000KT 10SM OVC010 M06/M07 A2975 RMK AO1,KOLG,2021-01-18T03:15:00Z,46.3,-91.82,-6.0,-7.0,0,0,,10.0,29.749016,,,TRUE,TRUE,,,,,,,OVC,1000,,,,,,,MVFR,,,,,,,,,,,,METAR,334.0
KOLE 180315Z AUTO 25005KT 4SM -SN BKN007 OVC100 M02/M02 A2959 RMK AO2,KOLE,2021-01-18T03:15:00Z,42.23,-78.37,-2.0,-2.0,250,5,,4.0,29.589567,,,TRUE,TRUE,,,,,,-SN,BKN,700,OVC,10000,,,,,IFR,,,,,,,,,,,,METAR,651.0
KOKZ 180315Z AUTO 00000KT 10SM CLR 01/M01 A2997 RMK AO2 T00061012,KOKZ,2021-01-18T03:15:00Z,32.97,-82.83,0.6,-1.2,0,0,,10.0,29.970472,,,TRUE,TRUE,,,,,,,CLR,,,,,,,,VFR,,,,,,,,,,,,METAR,128.0
KOKV 180315Z AUTO 22004KT 10SM SCT060 BKN080 OVC085 03/M01 A2973 RMK AO2,KOKV,2021-01-18T03:15:00Z,39.13,-78.15,3.0,-1.0,220,4,,10.0,29.731298,,,TRUE,TRUE,,,,,,,SCT,6000,BKN,8000,OVC,8500,,,VFR,,,,,,,,,,,,SPECI,213.0
KOKM 180315Z AUTO 00000KT 10SM CLR 01/M06 A3003 RMK AO2 T00101057,KOKM,2021-01-18T03:15:00Z,35.67,-95.95,1.0,-5.7,0,0,,10.0,30.029528,,,TRUE,TRUE,,,,,,,CLR,,,,,,,,VFR,,,,,,,,,,,,METAR,215.0
KOJA 180315Z AUTO 22003KT 10SM CLR 02/M08 A3001 RMK AO2 T00221081,KOJA,2021-01-18T03:15:00Z,35.55,-98.67,2.2,-8.1,220,3,,10.0,30.008858,,,TRUE,TRUE,,,,,,,CLR,,,,,,,,VFR,,,,,,,,,,,,SPECI,490.0
KOIN 180315Z AUTO 23004KT 10SM CLR M01/M11 A2990 RMK AO1 T10121111,KOIN,2021-01-18T03:15:00Z,39.83,-100.53,-1.2,-11.1,230,4,,10.0,29.899607,,,TRUE,TRUE,,,,,,,CLR,,,,,,,,VFR,,,,,,,,,,,,SPECI,810.0
KOGS 180315Z AUTO 30008KT 10SM -UP BKN021 OVC027 M03/M06 A2958 RMK AO2,KOGS,2021-01-18T03:15:00Z,44.67,-75.47,-3.0,-6.0,300,8,,10.0,29.58071,,,TRUE,TRUE,,,,,,UP,BKN,2100,OVC,2700,,,,,MVFR,,,,,,,,,,,,METAR,88.0
KOGA 180315Z AUTO 00000KT 10SM OVC060 04/M04 A2981 RMK AO2 T00441044,KOGA,2021-01-18T03:15:00Z,41.12,-101.77,4.4,-4.4,0,0,,10.0,29.811024,,,TRUE,TRUE,,,,,,,OVC,6000,,,,,,,VFR,,,,,,,,,,,,METAR,991.0
KOEO 180315Z AUTO 29004KT 10SM OVC006 M06/M06 A2983 RMK AO2 T10651065,KOEO,2021-01-18T03:15:00Z,45.32,-92.7,-6.5,-6.5,290,4,,10.0,29.828741,,,TRUE,TRUE,,,,,,,OVC,600,,,,,,,IFR,,,,,,,,,,,,METAR,269.0
KOEL 180315Z AUTO 24006KT 10SM SCT110 M02/M13 A2988 RMK AO1 T10201127,KOEL,2021-01-18T03:15:00Z,39.12,-100.82,-2.0,-12.7,240,6,,10.0,29.878937,,,TRUE,TRUE,,,,,,,SCT,11000,,,,,,,VFR,,,,,,,,,,,,SPECI,924.0
KOEL 180315Z AUTO 24006KT 10SM SCT110 M02/M13 A2988 RMK AO1 T10201127,KOEL,2021-01-18T03:15:00Z,39.12,-100.82,-2.0,-12.7,240,6,,10.0,29.878937,,,TRUE,TRUE,,,,,,,SCT,11000,,,,,,,VFR,,,,,,,,,,,,SPECI,924.0
KOEB 180315Z AUTO 25006KT 7SM -SN SCT008 BKN020 OVC034 M02/M03 A2970 RMK AO2 T10231035,KOEB,2021-01-18T03:15:00Z,41.92,-85.05,-2.3,-3.5,250,6,,7.0,29.698818,,,TRUE,TRUE,,,,,,-SN,SCT,800,BKN,2000,OVC,3400,,,MVFR,,,,,,,,,,,,SPECI,291.0
KOCW 180315Z AUTO 22004KT 10SM CLR 04/M02 A2991 RMK AO2 T00431017,KOCW,2021-01-18T03:15:00Z,35.57,-77.05,4.3,-1.7,220,4,,10.0,29.911417,,,TRUE,TRUE,,,,,,,CLR,,,,,,,,VFR,,,,,,,,,,,,SPECI,10.0
KOCQ 180315Z AUTO 33004KT 2 1/2SM BKN019 BKN024 OVC030 M03/M04 A2973 RMK AO1 T10271039,KOCQ,2021-01-18T03:15:00Z,44.87,-87.92,-2.7,-3.9,330,4,,2.5,29.731298,,,TRUE,TRUE,,,,,,,BKN,1900,BKN,2400,OVC,3000,,,IFR,,,,,,,,,,,,METAR,181.0
KOBE 180315Z AUTO 00000KT 10SM CLR 12/10 A3008 RMK AO2,KOBE,2021-01-18T03:15:00Z,27.27,-80.85,12.0,10.0,0,0,,10.0,30.079725,,,TRUE,TRUE,,,,,,,CLR,,,,,,,,VFR,,,,,,,,,,,,SPECI,11.0
KOAR 180315Z AUTO 25008KT 10SM CLR 12/07 A3000 RMK AO2,KOAR,2021-01-18T03:15:00Z,,,12.0,7.0,250,8,,10.0,30.0,,,TRUE,TRUE,,,,,,,CLR,,,,,,,,VFR,,,,,,,,,,,,METAR,
KNUQ 180315Z AUTO 24004KT 10SM CLR 17/06 A3000 RMK AO2,KNUQ,2021-01-18T03:15:00Z,37.4,-122.05,17.0,6.0,240,4,,10.0,30.0,,,TRUE,TRUE,,,,,,,CLR,,,,,,,,VFR,,,,,,,,,,,,METAR,9.0
KNRN 180315Z AUTO 25004KT 10SM BKN090 OVC100 01/M10 A2990 RMK AO2,KNRN,2021-01-18T03:15:00Z,39.85,-99.9,1.0,-10.0,250,4,,10.0,29.899607,,,TRUE,TRUE,,,,,,,BKN,9000,OVC,10000,,,,,VFR,,,,,,,,,,,,METAR,726.0
KNQA 180315Z AUTO 25003KT 10SM FEW017 SCT070 BKN100 04/M03 A2995 RMK A01,KNQA,2021-01-18T03:15:00Z,35.35,-89.87,4.0,-3.0,250,3,,10.0,29.949802,,,TRUE,TRUE,,,,,,,FEW,1700,SCT,7000,BKN,10000,,,VFR,,,,,,,,,,,,SPECI,90.0
KNOW 180315Z AUTO 25008KT 7SM CLR 06/05 A3055 RMK AO2 T00620050,KNOW,2021-01-18T03:15:00Z,48.13,-123.4,6.2,5.0,250,8,,7.0,30.549213,,,TRUE,TRUE,,,,,,,CLR,,,,,,,,VFR,,,,,,,,,,,,METAR,3.0
KN38 180315Z AUTO 20008KT 2SM BR SCT003 OVC016 M01/M02 A2961 RMK AO2,KN38,2021-01-18T03:15:00Z,41.73,-77.4,-1.0,-2.0,200,8,,2.0,29.610237,,,TRUE,TRUE,,,,,,BR,SCT,300,OVC,1600,,,,,IFR,,,,,,,,,,,,METAR,576.0
KN03 180315Z AUTO 23004KT 4SM -SN BKN009 BKN013 OVC028 00/00 A2961 RMK AO2,KN03,2021-01-18T03:15:00Z,42.6,-76.22,0.0,0.0,230,4,,4.0,29.610237,,,TRUE,TRUE,,,,,,-SN,BKN,900,BKN,1300,OVC,2800,,,IFR,,,,,,,,,,,,METAR,361.0
KMZZ 180315Z AUTO 25011KT 10SM BKN016 OVC022 M02/M03 A2976 RMK AO2 T10171034,KMZZ,2021-01-18T03:15:00Z,40.48,-85.68,-1.7,-3.4,250,11,,10.0,29.760826,,,TRUE,TRUE,,,,,,,BKN,1600,OVC,2200,,,,,MVFR,,,,,,,,,,,,METAR,260.0
KMZH 180315Z AUTO 33004KT 10SM SCT036 BKN043 OVC070 M07/M09 A2976 RMK AO2,KMZH,2021-01-18T03:15:00Z,46.42,-92.8,-7.0,-9.0,330,4,,10.0,29.760826,,,TRUE,TRUE,,,,,,,SCT,3600,BKN,4300,OVC,7000,,,VFR,,,,,,,,,,,,SPECI,331.0
KMYZ 180315Z AUTO 20003KT 10SM CLR M02/M06 A2989 RMK AO2,KMYZ,2021-01-18T03:15:00Z,39.85,-96.63,-2.0,-6.0,200,3,,10.0,29.890747,,,TRUE,TRUE,,,,,,,CLR,,,,,,,,VFR,,,,,,,,,,,,METAR,388.0
KMYP 180315Z AUTO 26032KT 10SM CLR M06/M13 A3018 RMK AO2,KMYP,2021-01-18T03:15:00Z,38.48,-106.32,-6.0,-13.0,260,32,,10.0,30.180119,,,TRUE,TRUE,,,,,,,CLR,,,,,,,,VFR,,,,,,,,,,,,METAR,3629.0
KMYJ 180315Z AUTO 26004KT 10SM OVC025 00/M02 A2987 RMK AO2,KMYJ,2021-01-18T03:15:00Z,39.15,-91.82,0.0,-2.0,260,4,,10.0,29.870079,,,TRUE,TRUE,,,,,,,OVC,2500,,,,,,,MVFR,,,,,,,,,,,,SPECI,249.0
KMXO 180315Z AUTO 32007KT 10SM OVC021 M06/M06 A2980 RMK AO2,KMXO,2021-01-18T03:15:00Z,42.22,-91.17,-6.0,-6.0,320,7,,10.0,29.799213,,,TRUE,TRUE,,,,,,,OVC,2100,,,,,,,MVFR,,,,,,,,,,,,METAR,251.0
KMWO 180315Z AUTO 23007KT 10SM BKN021 OVC027 00/M01 A2979 RMK AO2 T10051012,KMWO,2021-01-18T03:15:00Z,39.53,-84.4,-0.5,-1.2,230,7,,10.0,29.790354,,,TRUE,TRUE,,,,,,,BKN,2100,OVC,2700,,,,,MVFR,,,,,,,,,,,,METAR,197.0
KMWM 180315Z AUTO 31012KT 10SM CLR M04/M06 A2980 RMK AO2,KMWM,2021-01-18T03:15:00Z,43.9,-95.1,-4.0,-6.0,310,12,,10.0,29.799213,,,TRUE,TRUE,,,,,,,CLR,,,,,,,,VFR,,,,,,,,,,,,METAR,427.0
KMWK 180315Z AUTO 00000KT 10SM SCT036 SCT055 SCT065 04/M01 A2985 RMK AO2 T00421011,KMWK,2021-01-18T03:15:00Z,36.47,-80.55,4.2,-1.1,0,0,,10.0,29.84941,,,TRUE,TRUE,,,,,,,SCT,3600,SCT,5500,SCT,6500,,,VFR,,,,,,,,,,,,SPECI,374.0
KMWC 180315Z AUTO 28006KT 7SM SCT044 BKN060 OVC070 M02/M06 A2975 RMK AO2,KMWC,2021-01-18T03:15:00Z,43.12,-88.03,-2.0,-6.0,280,6,,7.0,29.749016,,,TRUE,TRUE,,,,,,,SCT,4400,BKN,6000,OVC,7000,,,VFR,,,,,,,,,,,,SPECI,225.0
KMWA 180315Z AUTO 00000KT 5SM -SN SCT013 BKN040 OVC090 00/00 A2992 RMK AO2 T00001002,KMWA,2021-01-18T03:15:00Z,37.77,-89.02,0.0,-0.2,0,0,,5.0,29.920275,,,TRUE,TRUE,,,,,,-SN,SCT,1300,BKN,4000,OVC,9000,,,MVFR,,,,,,,,,,,,METAR,142.0
KMVH 180315Z AUTO 31018G25KT 1 1/2SM -SN OVC003 M00/M02 A2993 RMK AO2,KMVH,2021-01-18T03:15:00Z,46.83,-108.93,0.0,-2.0,310,18,25,1.5,29.929134,,,TRUE,TRUE,,,,,,-SN,OVC,300,,,,,,,LIFR,,,,,,,,,,,,METAR,1352.0
KMVE 180315Z AUTO 36007KT 10SM OVC041 M05/M07 A2984 RMK AO2,KMVE,2021-01-18T03:15:00Z,44.97,-95.72,-5.0,-7.0,360,7,,10.0,29.840551,,,TRUE,TRUE,,,,,,,OVC,4100,,,,,,,VFR,,,,,,,,,,,,METAR,319.0
KMUT 180315Z AUTO 00000KT 10SM OVC019 M02/M05 A2984 RMK AO2,KMUT,2021-01-18T03:15:00Z,41.37,-91.15,-2.0,-5.0,0,0,,10.0,29.840551,,,TRUE,TRUE,,,,,,,OVC,1900,,,,,,,MVFR,,,,,,,,,,,,METAR,166.0
KMTV 180315Z AUTO 00000KT 10SM SCT070 OVC080 02/M02 A2986 RMK AO2 T00211020,KMTV,2021-01-18T03:15:00Z,36.63,-80.02,2.1,-2.0,0,0,,10.0,29.861221,,,TRUE,TRUE,,,,,,,SCT,7000,OVC,8000,,,,,VFR,,,,,,,,,,,,METAR,276.0
KMTN 180315Z AUTO 18003KT 10SM OVC085 06/00 A2978 RMK AO2,KMTN,2021-01-18T03:15:00Z,39.32,-76.42,6.0,0.0,180,3,,10.0,29.778543,,,TRUE,TRUE,,,,,,,OVC,8500,,,,,,,VFR,,,,,,,,,,,,METAR,2.0
KMTK 180315Z AUTO 30015KT 10SM CLR 14/04 A3012 RMK A01,KMTK,2021-01-18T03:15:00Z,,,14.0,4.0,300,15,,10.0,30.121063,,,TRUE,TRUE,,,,,,,CLR,,,,,,,,VFR,,,,,,,,,,,,METAR,
KMRT 180315Z AUTO 30005KT 10SM SCT013 OVC070 M01/M03 A2973 RMK AO2 T10131028,KMRT,2021-01-18T03:15:00Z,40.22,-83.35,-1.3,-2.8,300,5,,10.0,29.731298,,,TRUE,TRUE,,,,,,,SCT,1300,OVC,7000,,,,,VFR,,,,,,,,,,,,METAR,302.0
KMRN 180315Z AUTO 00000KT 10SM BKN070 OVC095 05/M02 A2987 RMK AO2 T00521024,KMRN,2021-01-18T03:15:00Z,35.82,-81.62,5.2,-2.4,0,0,,10.0,29.870079,,,TRUE,TRUE,,,,,,,BKN,7000,OVC,9500,,,,,VFR,,,,,,,,,,,,SPECI,375.0
KMRJ 180315Z AUTO 30003KT 10SM OVC020 M01/M05 A2975 RMK AO2,KMRJ,2021-01-18T03:15:00Z,42.88,-90.23,-1.0,-5.0,300,3,,10.0,29.749016,,,TRUE,TRUE,,,,,,,OVC,2000,,,,,,,MVFR,,,,,,,,,,,,METAR,350.0
KMRC 180315Z AUTO 23004KT 10SM SCT060 BKN065 OVC075 01/M05 A2991 RMK A01,KMRC,2021-01-18T03:15:00Z,35.55,-87.18,1.0,-5.0,230,4,,10.0,29.911417,,,TRUE,TRUE,,,,,,,SCT,6000,BKN,6500,OVC,7500,,,VFR,,,,,,,,,,,,SPECI,205.0
KMQS 180315Z AUTO 23004KT 10SM OVC044 03/M03 A2975 RMK AO2,KMQS,2021-01-18T03:15:00Z,39.98,-75.87,3.0,-3.0,230,4,,10.0,29.749016,,,TRUE,TRUE,,,,,,,OVC,4400,,,,,,,VFR,,,,,,,,,,,,METAR,200.0
KMQJ 180315Z AUTO 00000KT 10SM BKN018 OVC037 M02/M02 A2978 RMK AO1,KMQJ,2021-01-18T03:15:00Z,39.85,-85.9,-2.0,-2.0,0,0,,10.0,29.778543,,,TRUE,TRUE,,,,,,,BKN,1800,OVC,3700,,,,,MVFR,,,,,,,,,,,,METAR,262.0
KMQI 180315Z AUTO 25008KT 10SM CLR 06/01 A2990 RMK AO2 T00570009,KMQI,2021-01-18T03:15:00Z,35.92,-75.7,5.7,0.9,250,8,,10.0,29.899607,,,TRUE,TRUE,,,,,,,CLR,,,,,,,,VFR,,,,,,,,,,,,SPECI,3.0
KMQB 180315Z AUTO 27005KT 10SM OVC023 M02/M04 A2985 RMK AO2 T10181040,KMQB,2021-01-18T03:15:00Z,40.52,-90.65,-1.8,-4.0,270,5,,10.0,29.84941,,,TRUE,TRUE,,,,,,,OVC,2300,,,,,,,MVFR,,,,,,,,,,,,METAR,205.0
KMPZ 180315Z AUTO 29005KT 10SM OVC018 00/M03 A2984 RMK AO2,KMPZ,2021-01-18T03:15:00Z,40.95,-91.52,0.0,-3.0,290,5,,10.0,29.840551,,,TRUE,TRUE,,,,,,,OVC,1800,,,,,,,MVFR,,,,,,,,,,,,METAR,222.0
KMOX 180315Z AUTO 33008KT 10SM CLR M06/M08 A2984 RMK AO2,KMOX,2021-01-18T03:15:00Z,45.57,-95.97,-6.0,-8.0,330,8,,10.0,29.840551,,,TRUE,TRUE,,,,,,,CLR,,,,,,,,VFR,,,,,,,,,,,,METAR,346.0
KMOR 180315Z AUTO 29005KT 10SM BKN055 BKN065 OVC075 04/M01 A2982 RMK A01,KMOR,2021-01-18T03:15:00Z,36.18,-83.37,4.0,-1.0,290,5,,10.0,29.819881,,,TRUE,TRUE,,,,,,,BKN,5500,BKN,6500,OVC,7500,,,VFR,,,,,,,,,,,,SPECI,393.0
KMOP 180315Z AUTO 27004KT 5SM -SN SCT015 SCT046 OVC050 00/M01 A2967 RMK AO2 T10051011,KMOP,2021-01-18T03:15:00Z,43.62,-84.73,-0.5,-1.1,270,4,,5.0,29.66929,,,TRUE,TRUE,,,,,,-SN,SCT,1500,SCT,4600,OVC,5000,,,MVFR,,,,,,,,,,,,METAR,229.0
KMNZ 180315Z AUTO 00000KT 10SM CLR 09/M04 A3011 RMK AO2 T00901040,KMNZ,2021-01-18T03:15:00Z,31.67,-98.15,9.0,-4.0,0,0,,10.0,30.109253,,,TRUE,TRUE,,,,,,,CLR,,,,,,,,VFR,,,,,,,,,,,,METAR,397.0
KMNV 180315Z AUTO 26008KT 10SM BKN060 OVC075 06/M03 A2987 RMK A01,KMNV,2021-01-18T03:15:00Z,35.55,-84.38,6.0,-3.0,260,8,,10.0,29.870079,,,TRUE,TRUE,,,,,,,BKN,6000,OVC,7500,,,,,VFR,,,,,,,,,,,,SPECI,306.0
KMNI 180315Z AUTO 00000KT 10SM CLR 01/00 A2997 RMK AO2,KMNI,2021-01-18T03:15:00Z,33.58,-80.22,1.0,0.0,0,0,,10.0,29.970472,,,TRUE,TRUE,,,,,,,CLR,,,,,,,,VFR,,,,,,,,,,,,SPECI,29.0
KMNH 180315Z AUTO 10SM CLR M01/M08 A2985 RMK AO2,KMNH,2021-01-18T03:15:00Z,39.22,-104.65,-1.0,-8.0,,,,10.0,29.84941,,,TRUE,TRUE,,,,,,,CLR,,,,,,,,VFR,,,,,,,,,,,,SPECI,2152.0
KMNE 180315Z AUTO 00000KT 10SM CLR 02/00 A3010 RMK AO2 T00201002,KMNE,2021-01-18T03:15:00Z,32.65,-93.3,2.0,-0.2,0,0,,10.0,30.100393,,,TRUE,TRUE,,,,,,,CLR,,,,,,,,VFR,,,,,,,,,,,,SPECI,84.0
KMMI 180315Z AUTO 25004KT 10SM BKN060 OVC070 06/M03 A2990 RMK A01,KMMI,2021-01-18T03:15:00Z,35.4,-84.57,6.0,-3.0,250,4,,10.0,29.899607,,,TRUE,TRUE,,,,,,,BKN,6000,OVC,7000,,,,,VFR,,,,,,,,,,,,SPECI,252.0
KMLE 180315Z AUTO 00000KT 10SM CLR M02/M05 A2987 RMK AO2 T10171047,KMLE,2021-01-18T03:15:00Z,41.2,-96.12,-1.7,-4.7,0,0,,10.0,29.870079,,,TRUE,TRUE,,,,,,,CLR,,,,,,,,VFR,,,,,,,,,,,,METAR,318.0
KMKS 180315Z AUTO 00000KT 10SM CLR 02/01 A2998 RMK AO2,KMKS,2021-01-18T03:15:00Z,33.18,-80.03,2.0,1.0,0,0,,10.0,29.97933,,,TRUE,TRUE,,,,,,,CLR,,,,,,,,VFR,,,,,,,,,,,,SPECI,22.0
KMKN 180315Z AUTO 00000KT 10SM CLR 09/M04 A3011 RMK AO2 T00921045,KMKN,2021-01-18T03:15:00Z,31.92,-98.6,9.2,-4.5,0,0,,10.0,30.109253,,,TRUE,TRUE,,,,,,,CLR,,,,,,,,VFR,,,,,,,,,,,,METAR,428.0
KMKJ 180315Z AUTO 25009KT 10SM SCT042 SCT049 OVC075 01/M01 A2979 RMK AO2 T00091008,KMKJ,2021-01-18T03:15:00Z,36.88,-81.33,0.9,-0.8,250,9,,10.0,29.790354,,,TRUE,TRUE,,,,,,,SCT,4200,SCT,4900,OVC,7500,,,VFR,,,,,,,,,,,,SPECI,777.0
KMJQ 180315Z AUTO 33013KT M03/M05 A2981 RMK AO2 PWINO,KMJQ,2021-01-18T03:15:00Z,43.63,-94.98,-3.0,-5.0,330,13,,,29.811024,,,TRUE,TRUE,,,,,TRUE,,,,,,,,,,,,,,,,,,,,,,METAR,439.0
KMIS 180315Z AUTO 26014KT 10SM CLR 13/07 A3010 RMK A01,KMIS,2021-01-18T03:15:00Z,29.3,-88.85,13.0,7.0,260,14,,10.0,30.100393,,,TRUE,TRUE,,,,,,,CLR,,,,,,,,VFR,,,,,,,,,,,,SPECI,24.0
KMHL 180315Z AUTO 28004KT 10SM BKN038 OVC055 01/M02 A2992 RMK AO2,KMHL,2021-01-18T03:15:00Z,39.1,-93.2,1.0,-2.0,280,4,,10.0,29.920275,,,TRUE,TRUE,,,,,,,BKN,3800,OVC,5500,,,,,VFR,,,,,,,,,,,,SPECI,236.0
KMGN 180315Z AUTO 00000KT 10SM SCT041 SCT070 OVC090 M03/M05 A2969 RMK AO2 T10311051,KMGN,2021-01-18T03:15:00Z,45.43,-84.92,-3.1,-5.1,0,0,,10.0,29.68996,,,TRUE,TRUE,,,,,,,SCT,4100,SCT,7000,OVC,9000,,,VFR,,,,,,,,,,,,SPECI,205.0
KMGC 180315Z AUTO 00000KT 1SM SN OVC003 M01/M02 A2974 RMK AO2,KMGC,2021-01-18T03:15:00Z,41.7,-86.82,-1.0,-2.0,0,0,,1.0,29.740158,,,TRUE,TRUE,,,,,,SN,OVC,300,,,,,,,LIFR,,,,,,,,,,,,METAR,199.0
KMFV 180315Z AUTO 22005KT 10SM OVC070 05/00 A2983 RMK AO2 T00491005,KMFV,2021-01-18T03:15:00Z,37.63,-75.77,4.9,-0.5,220,5,,10.0,29.828741,,,TRUE,TRUE,,,,,,,OVC,7000,,,,,,,VFR,,,,,,,,,,,,SPECI,13.0
KMEZ 180315Z AUTO 00000KT 10SM CLR 06/M05 A3003 RMK AO2,KMEZ,2021-01-18T03:15:00Z,34.55,-94.2,6.0,-5.0,0,0,,10.0,30.029528,,,TRUE,TRUE,,,,,,,CLR,,,,,,,,VFR,,,,,,,,,,,,METAR,320.0
KMEV 180315Z AUTO 15004KT 10SM CLR M01/M06 A3022 RMK AO2,KMEV,2021-01-18T03:15:00Z,38.98,-119.75,-1.0,-6.0,150,4,,10.0,30.221457,,,TRUE,TRUE,,,,,,,CLR,,,,,,,,VFR,,,,,,,,,,,,METAR,1437.0
KMDZ 180315Z AUTO 35003KT 10SM OVC019 M05/M07 A2970 RMK AO2 T10521067,KMDZ,2021-01-18T03:15:00Z,45.1,-90.3,-5.2,-6.7,350,3,,10.0,29.698818,,,TRUE,TRUE,,,,,,,OVC,1900,,,,,,,MVFR,,,,,,,,,,,,METAR,446.0
KMDQ 180315Z AUTO 27005KT 10SM CLR 05/M05 A2994 RMK A02 T00471054,KMDQ,2021-01-18T03:15:00Z,34.87,-86.55,4.7,-5.4,270,5,,10.0,29.940945,,,TRUE,TRUE,,,,,,,CLR,,,,,,,,VFR,,,,,,,,,,,,METAR,221.0
KMDJ 180315Z AUTO 27012KT 8SM CLR 14/06 A3014 RMK A01,KMDJ,2021-01-18T03:15:00Z,28.65,-89.8,14.0,6.0,270,12,,8.0,30.138779,,,TRUE,TRUE,,,,,,,CLR,,,,,,,,VFR,,,,,,,,,,,,SPECI,20.0
KMDD 180315Z AUTO 10006KT 10SM CLR 07/M04 A3008 RMK AO2 T00741042,KMDD,2021-01-18T03:15:00Z,32.03,-102.1,7.4,-4.2,100,6,,10.0,30.079725,,,TRUE,TRUE,,,,,,,CLR,,,,,,,,VFR,,,,,,,,,,,,METAR,853.0
KMCJ 180315Z AUTO 02006KT 10SM SCT032 BKN040 OVC045 15/M05 A3010 RMK A01,KMCJ,2021-01-18T03:15:00Z,29.72,-95.4,15.0,-5.0,20,6,,10.0,30.100393,,,TRUE,TRUE,,,,,,,SCT,3200,BKN,4000,OVC,4500,,,VFR,,,,,,,,,,,,METAR,70.0
KMCD 180315Z AUTO 31006KT 10SM SCT015 OVC090 M03/M07 A2969 RMK AO2 T10311069,KMCD,2021-01-18T03:15:00Z,45.85,-84.63,-3.1,-6.9,310,6,,10.0,29.68996,,,TRUE,TRUE,,,,,,,SCT,1500,OVC,9000,,,,,VFR,,,,,,,,,,,,METAR,228.0
KMCC 180315Z AUTO 18004KT 10SM CLR 14/09 A3001 RMK AO2,KMCC,2021-01-18T03:15:00Z,38.67,-121.4,14.0,9.0,180,4,,10.0,30.008858,,,TRUE,TRUE,,,,,,,CLR,,,,,,,,VFR,,,,,,,,,,,,METAR,21.0
KMBY 180315Z AUTO 28007KT 10SM OVC023 01/M03 A2988 RMK AO2,KMBY,2021-01-18T03:15:00Z,39.47,-92.43,1.0,-3.0,280,7,,10.0,29.878937,,,TRUE,TRUE,,,,,,,OVC,2300,,,,,,,MVFR,,,,,,,,,,,,SPECI,263.0
KMBT 180315Z AUTO 00000KT 10SM SCT055 OVC075 04/M07 A2990 RMK A01,KMBT,2021-01-18T03:15:00Z,35.88,-86.38,4.0,-7.0,0,0,,10.0,29.899607,,,TRUE,TRUE,,,,,,,SCT,5500,OVC,7500,,,,,VFR,,,,,,,,,,,,SPECI,187.0
KMAW 180315Z AUTO 31004KT 10SM CLR 05/00 A2994 RMK AO2,KMAW,2021-01-18T03:15:00Z,36.6,-90.0,5.0,0.0,310,4,,10.0,29.940945,,,TRUE,TRUE,,,,,,,CLR,,,,,,,,VFR,,,,,,,,,,,,SPECI,88.0
KMAO 180315Z AUTO 22003KT 10SM CLR 03/00 A2996 RMK AO2,KMAO,2021-01-18T03:15:00Z,34.18,-79.33,3.0,0.0,220,3,,10.0,29.958662,,,TRUE,TRUE,,,,,,,CLR,,,,,,,,VFR,,,,,,,,,,,,SPECI,27.0
KMAN 180315Z AUTO 30005KT 10SM CLR 03/03 A3033 RMK A01,KMAN,2021-01-18T03:15:00Z,43.58,-116.52,3.0,3.0,300,5,,10.0,30.33071,,,TRUE,TRUE,,,,,,,CLR,,,,,,,,VFR,,,,,,,,,,,,METAR,773.0
KM75 180315Z AUTO 29014KT 10SM OVC055 00/M01 A2985 RMK A01,KM75,2021-01-18T03:15:00Z,48.37,-107.92,0.0,-1.0,290,14,,10.0,29.84941,,,TRUE,TRUE,,,,,,,OVC,5500,,,,,,,VFR,,,,,,,,,,,,METAR,687.0
KM54 180315Z AUTO 16003KT 10SM BKN065 OVC075 M00/M03 A2989 RMK A01,KM54,2021-01-18T03:15:00Z,36.18,-86.32,0.0,-3.0,160,3,,10.0,29.890747,,,TRUE,TRUE,,,,,,,BKN,6500,OVC,7500,,,,,VFR,,,,,,,,,,,,SPECI,168.0
KM40 180315Z AUTO 00000KT 10SM CLR 01/M02 A3001 RMK AO2,KM40,2021-01-18T03:15:00Z,33.87,-88.48,1.0,-2.0,0,0,,10.0,30.008858,,,TRUE,TRUE,,,,,,,CLR,,,,,,,,VFR,,,,,,,,,,,,METAR,68.0
KM21 180315Z AUTO 27006G15KT 10SM RA BKN031 OVC037 02/M03 A2989 RMK AO2 T00221033,KM21,2021-01-18T03:15:00Z,37.22,-87.15,2.2,-3.3,270,6,15,10.0,29.890747,,,TRUE,TRUE,,,,,,RA,BKN,3100,OVC,3700,,,,,VFR,,,,,,,,,,,,METAR,127.0
KM08 180315Z AUTO 24006KT 10SM SCT055 BKN070 04/M04 A2994 RMK A01,KM08,2021-01-18T03:15:00Z,35.22,-89.05,4.0,-4.0,240,6,,10.0,29.940945,,,TRUE,TRUE,,,,,,,SCT,5500,BKN,7000,,,,,VFR,,,,,,,,,,,,SPECI,149.0
KM02 180315Z AUTO 24006KT 10SM FEW035 OVC048 03/M04 A2988 RMK A01,KM02,2021-01-18T03:15:00Z,36.13,-87.43,3.0,-4.0,240,6,,10.0,29.878937,,,TRUE,TRUE,,,,,,,FEW,3500,OVC,4800,,,,,VFR,,,,,,,,,,,,SPECI,268.0
KLYV 180315Z AUTO 03004KT 10SM M01/M04 A2982 RMK AO2,KLYV,2021-01-18T03:15:00Z,43.62,-96.22,-1.0,-4.0,30,4,,10.0,29.819881,,,TRUE,TRUE,,,,,,,,,,,,,,,,,,,,,,,,,,,METAR,435.0
KLYO 180315Z AUTO 22003KT 10SM CLR M01/M10 A2992 RMK AO2 T10091097,KLYO,2021-01-18T03:15:00Z,38.35,-98.23,-0.9,-9.7,220,3,,10.0,29.920275,,,TRUE,TRUE,,,,,,,CLR,,,,,,,,VFR,,,,,,,,,,,,METAR,515.0
KLXY 180315Z AUTO 20011KT 10SM CLR 08/M02 A3010 RMK AO2 T00791021,KLXY,2021-01-18T03:15:00Z,31.63,-96.52,7.9,-2.1,200,11,,10.0,30.100393,,,TRUE,TRUE,,,,,,,CLR,,,,,,,,VFR,,,,,,,,,,,,METAR,164.0
KLXN 180315Z AUTO 00000KT 10SM OVC085 01/M06 A2985 RMK AO2 T00051057,KLXN,2021-01-18T03:15:00Z,40.78,-99.77,0.5,-5.7,0,0,,10.0,29.84941,,,TRUE,TRUE,,,,,,,OVC,8500,,,,,,,VFR,,,,,,,,,,,,METAR,734.0
KLXL 180315Z AUTO 30003KT 10SM OVC016 M05/M07 A2979 RMK AO2,KLXL,2021-01-18T03:15:00Z,45.95,-94.33,-5.0,-7.0,300,3,,10.0,29.790354,,,TRUE,TRUE,,,,,,,OVC,1600,,,,,,,MVFR,,,,,,,,,,,,METAR,335.0
KLWB 180315Z AUTO 00000KT 10SM SCT028 OVC070 00/M03 A2976 RMK AO2 T00001030,KLWB,2021-01-18T03:15:00Z,37.87,-80.4,0.0,-3.0,0,0,,10.0,29.760826,,,TRUE,TRUE,,,,,,,SCT,2800,OVC,7000,,,,,VFR,,,,,,,,,,,,METAR,702.0
KLWA 180315Z AUTO 02003KT 7SM -SN SCT011 BKN032 OVC060 M01/M02 A2971 RMK AO2 T10071018,KLWA,2021-01-18T03:15:00Z,42.35,-86.25,-0.7,-1.8,20,3,,7.0,29.71063,,,TRUE,TRUE,,,,,,-SN,SCT,1100,BKN,3200,OVC,6000,,,VFR,,,,,,,,,,,,SPECI,199.0
KLVN 180315Z AUTO 31007KT 5SM -SN OVC008 M06/M07 A2980 RMK AO2,KLVN,2021-01-18T03:15:00Z,44.63,-93.23,-6.0,-7.0,310,7,,5.0,29.799213,,,TRUE,TRUE,,,,,,-SN,OVC,800,,,,,,,IFR,,,,,,,,,,,,METAR,292.0
KLVL 180315Z AUTO 20003KT 10SM OVC080 02/M02 A2986 RMK AO1 T00231018,KLVL,2021-01-18T03:15:00Z,36.78,-77.8,2.3,-1.8,200,3,,10.0,29.861221,,,TRUE,TRUE,,,,,,,OVC,8000,,,,,,,VFR,,,,,,,,,,,,SPECI,98.0
KLUX 180315Z AUTO 20005KT 10SM CLR 02/M02 A2990 RMK AO2,KLUX,2021-01-18T03:15:00Z,34.5,-81.95,2.0,-2.0,200,5,,10.0,29.899607,,,TRUE,TRUE,,,,,,,CLR,,,,,,,,VFR,,,,,,,,,,,,SPECI,213.0
KLUV 180315Z AUTO 11008KT 10SM BKN100 OVC120 02/M04 A3006 RMK AO2,KLUV,2021-01-18T03:15:00Z,32.75,-101.92,2.0,-4.0,110,8,,10.0,30.059055,,,TRUE,TRUE,,,,,,,BKN,10000,OVC,12000,,,,,VFR,,,,,,,,,,,,METAR,910.0
KLUM 180315Z AUTO 00000KT 10SM BKN006 OVC024 M07/M08 A2978 RMK AO2 T10731078,KLUM,2021-01-18T03:15:00Z,44.9,-91.87,-7.3,-7.8,0,0,,10.0,29.778543,,,TRUE,TRUE,,,,,,,BKN,600,OVC,2400,,,,,IFR,,,,,,,,,,,,METAR,271.0
KLUL 180315Z AUTO 32005KT 10SM CLR 08/M06 A3006 RMK A02 T00791061,KLUL,2021-01-18T03:15:00Z,31.67,-89.17,7.9,-6.1,320,5,,10.0,30.059055,,,TRUE,TRUE,,,,,,,CLR,,,,,,,,VFR,,,,,,,,,,,,METAR,74.0
KLUG 180315Z AUTO 00000KT 10SM SCT055 SCT065 BKN075 01/M06 A2991 RMK A01,KLUG,2021-01-18T03:15:00Z,35.52,-86.8,1.0,-6.0,0,0,,10.0,29.911417,,,TRUE,TRUE,,,,,,,SCT,5500,SCT,6500,BKN,7500,,,VFR,,,,,,,,,,,,SPECI,218.0
KLUD 180315Z AUTO 00000KT 10SM CLR 09/M08 A3008 RMK AO2 T00921076,KLUD,2021-01-18T03:15:00Z,33.25,-97.58,9.2,-7.6,0,0,,10.0,30.079725,,,TRUE,TRUE,,,,,,,CLR,,,,,,,,VFR,,,,,,,,,,,,METAR,319.0
KLUA 180315Z AUTO 21008KT 10SM CLR 02/M01 A2976 RMK AO2,KLUA,2021-01-18T03:15:00Z,38.67,-78.5,2.0,-1.0,210,8,,10.0,29.760826,,,TRUE,TRUE,,,,,,,CLR,,,,,,,,VFR,,,,,,,,,,,,SPECI,273.0
KLRY 180315Z AUTO 00000KT 10SM CLR M01/M04 A2995 RMK AO2,KLRY,2021-01-18T03:15:00Z,38.62,-94.35,-1.0,-4.0,0,0,,10.0,29.949802,,,TRUE,TRUE,,,,,,,CLR,,,,,,,,VFR,,,,,,,,,,,,SPECI,272.0
KLRO 180315Z AUTO 00000KT 10SM CLR 07/03 A2999 RMK AO2,KLRO,2021-01-18T03:15:00Z,32.9,-79.78,7.0,3.0,0,0,,10.0,29.991142,,,TRUE,TRUE,,,,,,,CLR,,,,,,,,VFR,,,,,,,,,,,,SPECI,3.0
KLRJ 180315Z AUTO 00000KT 10SM SCT039 M05/M05 A2983 RMK AO2,KLRJ,2021-01-18T03:15:00Z,42.77,-96.2,-5.0,-5.0,0,0,,10.0,29.828741,,,TRUE,TRUE,,,,,,,SCT,3900,,,,,,,VFR,,,,,,,,,,,,SPECI,363.0
KLQK 180315Z AUTO 23006KT 10SM SCT100 03/M02 A2986 RMK AO2 T00281018,KLQK,2021-01-18T03:15:00Z,34.82,-82.7,2.8,-1.8,230,6,,10.0,29.861221,,,TRUE,TRUE,,,,,,,SCT,10000,,,,,,,VFR,,,,,,,,,,,,SPECI,291.0
KLOT 180315Z AUTO 27007KT 10SM BKN013 BKN031 OVC075 M03/M03 A2977 RMK AO2 T10271030,KLOT,2021-01-18T03:15:00Z,41.6,-88.1,-2.7,-3.0,270,7,,10.0,29.769686,,,TRUE,TRUE,,,,,,,BKN,1300,BKN,3100,OVC,7500,,,MVFR,,,,,,,,,,,,METAR,205.0
KLOM 180315Z AUTO 22004KT 10SM BKN050 BKN060 OVC085 04/M02 A2974 RMK AO2 T00431021,KLOM,2021-01-18T03:15:00Z,40.13,-75.27,4.3,-2.1,220,4,,10.0,29.740158,,,TRUE,TRUE,,,,,,,BKN,5000,BKN,6000,OVC,8500,,,VFR,,,,,,,,,,,,METAR,87.0
KLNP 180315Z AUTO 22004KT 10SM SCT034 SCT041 BKN047 00/M03 A2977 RMK AO2,KLNP,2021-01-18T03:15:00Z,36.98,-82.52,0.0,-3.0,220,4,,10.0,29.769686,,,TRUE,TRUE,,,,,,,SCT,3400,SCT,4100,BKN,4700,,,VFR,,,,,,,,,,,,SPECI,817.0
KLNN 180315Z AUTO 25006KT 2 1/2SM OVC004 00/M01 A2968 RMK AO1 T00001013,KLNN,2021-01-18T03:15:00Z,41.68,-81.38,0.0,-1.3,250,6,,2.5,29.681103,,,TRUE,TRUE,,,,,,,OVC,400,,,,,,,LIFR,,,,,,,,,,,,METAR,190.0
KLNL 180315Z AUTO 00000KT 10SM OVC010 M06/M08 A2971 RMK AO2 T10641081,KLNL,2021-01-18T03:15:00Z,46.15,-89.22,-6.4,-8.1,0,0,,10.0,29.71063,,,TRUE,TRUE,,,,,,,OVC,1000,,,,,,,MVFR,,,,,,,,,,,,SPECI,517.0
KLNC 180315Z AUTO 00000KT 10SM CLR 03/M02 A3012 RMK AO2 T00301021,KLNC,2021-01-18T03:15:00Z,32.58,-96.72,3.0,-2.1,0,0,,10.0,30.121063,,,TRUE,TRUE,,,,,,,CLR,,,,,,,,VFR,,,,,,,,,,,,METAR,152.0
KLNA 180315Z AUTO 00000KT 10SM CLR 15/12 A3009 RMK AO2 T01500122 PNO,KLNA,2021-01-18T03:15:00Z,26.6,-80.08,15.0,12.2,0,0,,10.0,30.088583,,,TRUE,TRUE,,,,,,,CLR,,,,,,,,VFR,,,,,,,,,,,,SPECI,3.0
KLMO 180315Z AUTO 03003KT 10SM CLR 05/M08 A2982 RMK AO2 T00461076,KLMO,2021-01-18T03:15:00Z,40.17,-105.17,4.6,-7.6,30,3,,10.0,29.819881,,,TRUE,TRUE,,,,,,,CLR,,,,,,,,VFR,,,,,,,,,,,,METAR,1535.0
KLKU 180315Z AUTO 22004KT 10SM SCT075 02/M03 A2983 RMK AO2 T00251027,KLKU,2021-01-18T03:15:00Z,38.02,-77.97,2.5,-2.7,220,4,,10.0,29.828741,,,TRUE,TRUE,,,,,,,SCT,7500,,,,,,,VFR,,,,,,,,,,,,SPECI,146.0
KLKR 180315Z AUTO 22005KT 10SM FEW049 01/M01 A2991 RMK AO2,KLKR,2021-01-18T03:15:00Z,34.72,-80.85,1.0,-1.0,220,5,,10.0,29.911417,,,TRUE,TRUE,,,,,,,FEW,4900,,,,,,,VFR,,,,,,,,,,,,SPECI,166.0
KLJF 180315Z AUTO 31007KT 10SM OVC032 M04/M06 A2981 RMK AO2,KLJF,2021-01-18T03:15:00Z,45.1,-94.52,-4.0,-6.0,310,7,,10.0,29.811024,,,TRUE,TRUE,,,,,,,OVC,3200,,,,,,,VFR,,,,,,,,,,,,METAR,347.0
KLHZ 180315Z AUTO 22005KT 10SM CLR 02/M02 A2991 RMK AO2,KLHZ,2021-01-18T03:15:00Z,36.02,-78.33,2.0,-2.0,220,5,,10.0,29.911417,,,TRUE,TRUE,,,,,,,CLR,,,,,,,,VFR,,,,,,,,,,,,SPECI,104.0
KLHM 180315Z AUTO 00000KT 10SM CLR 09/07 A3000 RMK AO1,KLHM,2021-01-18T03:15:00Z,38.92,-121.35,9.0,7.0,0,0,,10.0,30.0,,,TRUE,TRUE,,,,,,,CLR,,,,,,,,VFR,,,,,,,,,,,,METAR,36.0
KLHB 180315Z AUTO 00000KT 10SM CLR 05/01 A3013 RMK AO2 T00480007,KLHB,2021-01-18T03:15:00Z,30.87,-96.62,4.8,0.7,0,0,,10.0,30.129921,,,TRUE,TRUE,,,,,,,CLR,,,,,,,,VFR,,,,,,,,,,,,METAR,83.0
KLGC 180315Z AUTO 00000KT 10SM -RA SCT065 OVC100 00/M01 A2995 RMK AO2 T00011015,KLGC,2021-01-18T03:15:00Z,33.0,-85.07,0.1,-1.5,0,0,,10.0,29.949802,,,TRUE,TRUE,,,,,,-RA,SCT,6500,OVC,10000,,,,,VFR,,,,,,,,,,,,METAR,209.0
KLDM 180315Z AUTO 00000KT 10SM OVC033 M01/M02 A2970 RMK AO2 T10101018,KLDM,2021-01-18T03:15:00Z,43.97,-86.4,-1.0,-1.8,0,0,,10.0,29.698818,,,TRUE,TRUE,,,,,,,OVC,3300,,,,,,,VFR,,,,,,,,,,,,SPECI,194.0
KLDJ 180315Z AUTO 28003KT 10SM OVC070 05/M04 A2973 RMK AO2 T00521037,KLDJ,2021-01-18T03:15:00Z,40.62,-74.25,5.2,-3.7,280,3,,10.0,29.731298,,,TRUE,TRUE,,,,,,,OVC,7000,,,,,,,VFR,,,,,,,,,,,,METAR,6.0
KLBO 180315Z AUTO 28006KT 10SM SCT045 01/M02 A2992 RMK AO2,KLBO,2021-01-18T03:15:00Z,37.65,-92.65,1.0,-2.0,280,6,,10.0,29.920275,,,TRUE,TRUE,,,,,,,SCT,4500,,,,,,,VFR,,,,,,,,,,,,SPECI,399.0
KLBE 180315Z AUTO 00000KT 1 1/4SM -SN OVC002 00/00 A2971 RMK AO2,KLBE,2021-01-18T03:15:00Z,40.27,-79.4,0.0,0.0,0,0,,1.25,29.71063,,,TRUE,TRUE,,,,,,-SN,OVC,200,,,,,,,LIFR,,,,,,,,,,,,SPECI,345.0
KLAM 180315Z AUTO 22005KT 10SM CLR 05/M13 A3008 RMK AO2 T00491130,KLAM,2021-01-18T03:15:00Z,35.87,-106.27,4.9,-13.0,220,5,,10.0,30.079725,,,TRUE,TRUE,,,,,,,CLR,,,,,,,,VFR,,,,,,,,,,,,SPECI,2166.0
KLAL 180315Z AUTO 00000KT 10SM BKN050 12/09 A3009 RMK AO2 PNO,KLAL,2021-01-18T03:15:00Z,27.98,-82.02,12.0,9.0,0,0,,10.0,30.088583,,,TRUE,TRUE,,,,,,,BKN,5000,,,,,,,VFR,,,,,,,,,,,,METAR,39.0
KL52 180315Z AUTO 10003KT 6SM HZ CLR 12/09 A2995 RMK A01,KL52,2021-01-18T03:15:00Z,35.1,-120.62,12.0,9.0,100,3,,6.0,29.949802,,,TRUE,TRUE,,,,,,HZ,CLR,,,,,,,,VFR,,,,,,,,,,,,METAR,3.0
KL35 180315Z AUTO 00000KT 10SM CLR 01/M10 A3020 RMK AO2,KL35,2021-01-18T03:15:00Z,34.27,-116.85,1.0,-10.0,0,0,,10.0,30.200787,,,TRUE,TRUE,,,,,,,CLR,,,,,,,,VFR,,,,,,,,,,,,SPECI,2062.0
KL18 180315Z AUTO 00000KT 10SM CLR 19/M04 A2996 RMK AO2,KL18,2021-01-18T03:15:00Z,33.35,-117.25,19.0,-4.0,0,0,,10.0,29.958662,,,TRUE,TRUE,,,,,,,CLR,,,,,,,,VFR,,,,,,,,,,,,METAR,215.0
KL08 180315Z AUTO 00000KT 10SM CLR 13/M10 A2995 RMK AO2,KL08,2021-01-18T03:15:00Z,33.27,-116.32,13.0,-10.0,0,0,,10.0,29.949802,,,TRUE,TRUE,,,,,,,CLR,,,,,,,,VFR,,,,,,,,,,,,METAR,156.0
KKY8 180315Z AUTO 24004KT 2SM BR 00/00 A2988 RMK A01,KKY8,2021-01-18T03:15:00Z,37.95,-86.87,0.0,0.0,240,4,,2.0,29.878937,,,TRUE,TRUE,,,,,,BR,,,,,,,,,,,,,,,,,,,,,SPECI,124.0
KKNB 180315Z AUTO 00000KT 10SM CLR 00/M15 A3013 RMK A01,KKNB,2021-01-18T03:15:00Z,37.02,-112.53,0.0,-15.0,0,0,,10.0,30.129921,,,TRUE,TRUE,,,,,,,CLR,,,,,,,,VFR,,,,,,,,,,,,METAR,1476.0
KK88 180315Z AUTO 22005KT 10SM CLR M02/M06 A2995 RMK AO1 T10251064,KK88,2021-01-18T03:15:00Z,37.87,-95.38,-2.5,-6.4,220,5,,10.0,29.949802,,,TRUE,TRUE,,,,,,,CLR,,,,,,,,VFR,,,,,,,,,,,,METAR,308.0
KK82 180315Z AUTO 24003KT 10SM CLR 00/M09 A2990 RMK AO2,KK82,2021-01-18T03:15:00Z,39.77,-98.8,0.0,-9.0,240,3,,10.0,29.899607,,,TRUE,TRUE,,,,,,,CLR,,,,,,,,VFR,,,,,,,,,,,,SPECI,548.0
KK62 180315Z AUTO 27006KT 10SM BKN013 BKN030 OVC070 M01/M02 A2980 RMK AO2,KK62,2021-01-18T03:15:00Z,38.7,-84.4,-1.0,-2.0,270,6,,10.0,29.799213,,,TRUE,TRUE,,,,,,,BKN,1300,BKN,3000,OVC,7000,,,MVFR,,,,,,,,,,,,METAR,274.0
KJZP 180315Z AUTO 32004KT 10SM BKN060 OVC080 06/M03 A2992 RMK AO2 T00561030,KJZP,2021-01-18T03:15:00Z,34.45,-84.47,5.6,-3.0,320,4,,10.0,29.920275,,,TRUE,TRUE,,,,,,,BKN,6000,OVC,8000,,,,,VFR,,,,,,,,,,,,SPECI,462.0
KJZI 180315Z AUTO 23004KT 10SM CLR 08/02 A2999 RMK AO2,KJZI,2021-01-18T03:15:00Z,32.7,-80.0,8.0,2.0,230,4,,10.0,29.991142,,,TRUE,TRUE,,,,,,,CLR,,,,,,,,VFR,,,,,,,,,,,,SPECI,5.0
KJYR 180315Z AUTO 00000KT 10SM CLR M00/M05 A2985 RMK AO2,KJYR,2021-01-18T03:15:00Z,40.9,-97.62,0.0,-5.0,0,0,,10.0,29.84941,,,TRUE,TRUE,,,,,,,CLR,,,,,,,,VFR,,,,,,,,,,,,METAR,508.0
KJYO 180315Z AUTO 24004KT 10SM SCT070 OVC085 04/M01 A2977 RMK AO2,KJYO,2021-01-18T03:15:00Z,39.07,-77.57,4.0,-1.0,240,4,,10.0,29.769686,,,TRUE,TRUE,,,,,,,SCT,7000,OVC,8500,,,,,VFR,,,,,,,,,,,,SPECI,112.0
KJYM 180315Z AUTO 26005KT 7SM -SN BKN009 OVC019 M02/M03 A2967 RMK AO2 T10221031,KJYM,2021-01-18T03:15:00Z,41.92,-84.58,-2.2,-3.1,260,5,,7.0,29.66929,,,TRUE,TRUE,,,,,,-SN,BKN,900,OVC,1900,,,,,IFR,,,,,,,,,,,,METAR,357.0
KJYL 180315Z AUTO 00000KT 10SM CLR 05/00 A3000 RMK AO2 T00470000,KJYL,2021-01-18T03:15:00Z,32.65,-81.6,4.7,0.0,0,0,,10.0,30.0,,,TRUE,TRUE,,,,,,,CLR,,,,,,,,VFR,,,,,,,,,,,,SPECI,54.0
KJYG 180315Z AUTO 32010KT 10SM SCT017 BKN040 OVC065 M04/M06 A2982 RMK AO2 PWINO,KJYG,2021-01-18T03:15:00Z,43.98,-94.55,-4.0,-6.0,320,10,,10.0,29.819881,,,TRUE,TRUE,,,,,TRUE,,SCT,1700,BKN,4000,OVC,6500,,,VFR,,,,,,,,,,,,METAR,323.0
KJXI 180315Z AUTO 25003KT 10SM CLR 04/M03 A3010 RMK AO2 T00411027,KJXI,2021-01-18T03:15:00Z,32.7,-94.95,4.1,-2.7,250,3,,10.0,30.100393,,,TRUE,TRUE,,,,,,,CLR,,,,,,,,VFR,,,,,,,,,,,,SPECI,130.0
KJWY 180315Z AUTO 00000KT 10SM CLR 04/M02 A3012 RMK AO2 T00361016,KJWY,2021-01-18T03:15:00Z,32.45,-96.92,3.6,-1.6,0,0,,10.0,30.121063,,,TRUE,TRUE,,,,,,,CLR,,,,,,,,VFR,,,,,,,,,,,,METAR,211.0
KJWG 180315Z AUTO 00000KT 10SM CLR 00/M07 A3003 RMK AO2 T10031073,KJWG,2021-01-18T03:15:00Z,35.87,-98.42,-0.3,-7.3,0,0,,10.0,30.029528,,,TRUE,TRUE,,,,,,,CLR,,,,,,,,VFR,,,,,,,,,,,,METAR,469.0
KJVY 180315Z AUTO 26006KT 10SM CLR 00/M02 A2985 RMK AO2 T00001022 TSNO,KJVY,2021-01-18T03:15:00Z,38.37,-85.73,0.0,-2.2,260,6,,10.0,29.84941,,,TRUE,TRUE,,,TRUE,,,,CLR,,,,,,,,VFR,,,,,,,,,,,,METAR,141.0
KJVW 180315Z AUTO 00000KT 10SM 01/01 A3007 RMK AO2,KJVW,2021-01-18T03:15:00Z,32.3,-90.42,1.0,1.0,0,0,,10.0,30.070866,,,TRUE,TRUE,,,,,,,,,,,,,,,,,,,,,,,,,,,SPECI,73.0
KJTC 180315Z AUTO 22006KT 10SM CLR M00/M20 A3017 RMK AO2,KJTC,2021-01-18T03:15:00Z,34.13,-109.32,0.0,-20.0,220,6,,10.0,30.171259,,,TRUE,TRUE,,,,,,,CLR,,,,,,,,VFR,,,,,,,,,,,,METAR,2148.0
KJSY 180315Z AUTO 00000KT 10SM BKN046 OVC050 M01/M03 A3034 RMK AO2 T10151030,KJSY,2021-01-18T03:15:00Z,45.35,-117.25,-1.5,-3.0,0,0,,10.0,30.339567,,,TRUE,TRUE,,,,,,,BKN,4600,OVC,5000,,,,,VFR,,,,,,,,,,,,METAR,1256.0
KJSV 180315Z AUTO 25003KT 10SM CLR 03/M03 A3002 RMK AO2,KJSV,2021-01-18T03:15:00Z,35.43,-94.8,3.0,-3.0,250,3,,10.0,30.02067,,,TRUE,TRUE,,,,,,,CLR,,,,,,,,VFR,,,,,,,,,,,,METAR,158.0
KJSO 180315Z AUTO 00000KT 10SM CLR 07/M03 A3012 RMK AO2 T00791030,KJSO,2021-01-18T03:15:00Z,31.87,-95.22,7.9,-3.0,0,0,,10.0,30.121063,,,TRUE,TRUE,,,,,,,CLR,,,,,,,,VFR,,,,,,,,,,,,METAR,204.0
KJOT 180315Z AUTO 26004KT 10SM OVC019 M02/M03 A2978 RMK AO2 T10171031,KJOT,2021-01-18T03:15:00Z,41.52,-88.18,-1.7,-3.1,260,4,,10.0,29.778543,,,TRUE,TRUE,,,,,,,OVC,1900,,,,,,,MVFR,,,,,,,,,,,,SPECI,175.0
KJNX 180315Z AUTO 00000KT 10SM CLR 00/M01 A2990 RMK AO2,KJNX,2021-01-18T03:15:00Z,35.53,-78.38,0.0,-1.0,0,0,,10.0,29.899607,,,TRUE,TRUE,,,,,,,CLR,,,,,,,,VFR,,,,,,,,,,,,SPECI,41.0
KJMR 180315Z AUTO 00000KT 10SM -SN SCT006 OVC018 M08/M09 A2981 RMK AO2,KJMR,2021-01-18T03:15:00Z,45.88,-93.27,-8.0,-9.0,0,0,,10.0,29.811024,,,TRUE,TRUE,,,,,,-SN,SCT,600,OVC,1800,,,,,MVFR,,,,,,,,,,,,METAR,301.0
KJKJ 180315Z AUTO 36006KT 10SM CLR M07/M12 A2986 RMK AO2,KJKJ,2021-01-18T03:15:00Z,46.83,-96.67,-7.0,-12.0,360,6,,10.0,29.861221,,,TRUE,TRUE,,,,,,,CLR,,,,,,,,VFR,,,,,,,,,,,,METAR,280.0
KJKA 180315Z AUTO 24005KT 10SM CLR 08/04 A3006 RMK AO2 T00810036,KJKA,2021-01-18T03:15:00Z,30.28,-87.67,8.1,3.6,240,5,,10.0,30.059055,,,TRUE,TRUE,,,,,,,CLR,,,,,,,,VFR,,,,,,,,,,,,METAR,5.0
KJHN 180315Z AUTO 20014KT 10SM CLR 02/M06 A2990 RMK AO2 T00241062 PNO,KJHN,2021-01-18T03:15:00Z,37.58,-101.73,2.4,-6.2,200,14,,10.0,29.899607,,,TRUE,TRUE,,,,,,,CLR,,,,,,,,VFR,,,,,,,,,,,,SPECI,1013.0
KJGG 180315Z AUTO 00000KT 10SM SCT070 OVC075 06/00 A2984 RMK AO1,KJGG,2021-01-18T03:15:00Z,37.23,-76.72,6.0,0.0,0,0,,10.0,29.840551,,,TRUE,TRUE,,,,,,,SCT,7000,OVC,7500,,,,,VFR,,,,,,,,,,,,SPECI,13.0
KJFZ 180315Z AUTO 25006KT 10SM SCT055 OVC075 00/M04 A2977 RMK AO2 T00001037,KJFZ,2021-01-18T03:15:00Z,37.07,-81.8,0.0,-3.7,250,6,,10.0,29.769686,,,TRUE,TRUE,,,,,,,SCT,5500,OVC,7500,,,,,VFR,,,,,,,,,,,,SPECI,809.0
KJFX 180315Z AUTO 00000KT 10SM CLR 02/M04 A2998 RMK AO2 PWINO,KJFX,2021-01-18T03:15:00Z,33.9,-87.32,2.0,-4.0,0,0,,10.0,29.97933,,,TRUE,TRUE,,,,,TRUE,,CLR,,,,,,,,VFR,,,,,,,,,,,,SPECI,144.0
KJES 180315Z AUTO 00000KT 10SM CLR 06/01 A3002 RMK AO2,KJES,2021-01-18T03:15:00Z,31.55,-81.88,6.0,1.0,0,0,,10.0,30.02067,,,TRUE,TRUE,,,,,,,CLR,,,,,,,,VFR,,,,,,,,,,,,METAR,26.0
KJDD 180315Z AUTO 00000KT 10SM CLR 01/M02 A3010 RMK AO2,KJDD,2021-01-18T03:15:00Z,32.75,-95.5,1.0,-2.0,0,0,,10.0,30.100393,,,TRUE,TRUE,,,,,,,CLR,,,,,,,,VFR,,,,,,,,,,,,METAR,127.0
KJCA 180315Z AUTO 24005KT 10SM CLR 04/M02 A2991 RMK AO2 T00451022,KJCA,2021-01-18T03:15:00Z,34.18,-83.57,4.5,-2.2,240,5,,10.0,29.911417,,,TRUE,TRUE,,,,,,,CLR,,,,,,,,VFR,,,,,,,,,,,,METAR,287.0
KJAU 180315Z AUTO VRB04G11KT 10SM FEW031 BKN041 OVC050 05/M03 A2987 RMK A01,KJAU,2021-01-18T03:15:00Z,36.33,-84.17,5.0,-3.0,0,4,11,10.0,29.870079,,,TRUE,TRUE,,,,,,,FEW,3100,BKN,4100,OVC,5000,,,VFR,,,,,,,,,,,,SPECI,350.0
KJAS 180315Z AUTO 00000KT 10SM CLR 05/02 A3014 RMK AO2 T00460017,KJAS,2021-01-18T03:15:00Z,30.88,-94.03,4.6,1.7,0,0,,10.0,30.138779,,,TRUE,TRUE,,,,,,,CLR,,,,,,,,VFR,,,,,,,,,,,,SPECI,60.0
KJAQ 180315Z AUTO 00000KT 10SM CLR 15/10 A3003 RMK AO1 T01470097,KJAQ,2021-01-18T03:15:00Z,38.37,-120.8,14.7,9.7,0,0,,10.0,30.029528,,,TRUE,TRUE,,,,,,,CLR,,,,,,,,VFR,,,,,,,,,,,,SPECI,518.0
KIZA 180315Z AUTO 00000KT 10SM CLR 18/00 A2996 RMK AO2,KIZA,2021-01-18T03:15:00Z,34.6,-120.07,18.0,0.0,0,0,,10.0,29.958662,,,TRUE,TRUE,,,,,,,CLR,,,,,,,,VFR,,,,,,,,,,,,METAR,200.0
KIYA 180315Z AUTO 00000KT 10SM CLR 08/04 A3012 RMK AO2 T00800036,KIYA,2021-01-18T03:15:00Z,29.98,-92.08,8.0,3.6,0,0,,10.0,30.121063,,,TRUE,TRUE,,,,,,,CLR,,,,,,,,VFR,,,,,,,,,,,,SPECI,4.0
KIXA 180315Z AUTO 21004KT 10SM CLR 00/00 A2988 RMK AO2,KIXA,2021-01-18T03:15:00Z,36.33,-77.63,0.0,0.0,210,4,,10.0,29.878937,,,TRUE,TRUE,,,,,,,CLR,,,,,,,,VFR,,,,,,,,,,,,SPECI,43.0
KISQ 180315Z AUTO 00000KT 10SM OVC028 M05/M06 A2971 RMK AO2 T10461063,KISQ,2021-01-18T03:15:00Z,45.97,-86.17,-4.6,-6.3,0,0,,10.0,29.71063,,,TRUE,TRUE,,,,,,,OVC,2800,,,,,,,MVFR,,,,,,,,,,,,METAR,206.0
KISO 180315Z AUTO 23004KT 10SM CLR 04/M01 A2992 RMK AO2 T00381007,KISO,2021-01-18T03:15:00Z,35.32,-77.62,3.8,-0.7,230,4,,10.0,29.920275,,,TRUE,TRUE,,,,,,,CLR,,,,,,,,VFR,,,,,,,,,,,,SPECI,27.0
KIRS 180315Z AUTO 25006KT 4SM -SN SCT008 OVC022 M02/M03 A2970 RMK AO2 T10221031,KIRS,2021-01-18T03:15:00Z,41.8,-85.43,-2.2,-3.1,250,6,,4.0,29.698818,,,TRUE,TRUE,,,,,,-SN,SCT,800,OVC,2200,,,,,MVFR,,,,,,,,,,,,SPECI,282.0
KIPJ 180315Z AUTO 23004KT 10SM BKN095 02/M04 A2987 RMK AO2 T00241037,KIPJ,2021-01-18T03:15:00Z,35.48,-81.17,2.4,-3.7,230,4,,10.0,29.870079,,,TRUE,TRUE,,,,,,,BKN,9500,,,,,,,VFR,,,,,,,,,,,,SPECI,266.0
KIOB 180315Z AUTO 27006KT 10SM OVC085 00/M02 A2984 RMK AO2,KIOB,2021-01-18T03:15:00Z,38.05,-83.98,0.0,-2.0,270,6,,10.0,29.840551,,,TRUE,TRUE,,,,,,,OVC,8500,,,,,,,VFR,,,,,,,,,,,,SPECI,301.0
KINJ 180315Z AUTO 00000KT 10SM CLR 06/M02 A3010 RMK AO2 T00591024,KINJ,2021-01-18T03:15:00Z,32.08,-97.1,5.9,-2.4,0,0,,10.0,30.100393,,,TRUE,TRUE,,,,,,,CLR,,,,,,,,VFR,,,,,,,,,,,,METAR,208.0
KIMS 180315Z AUTO 25007KT 10SM SCT048 SCT065 OVC075 M01/M02 A2983 RMK AO1,KIMS,2021-01-18T03:15:00Z,38.75,-85.47,-1.0,-2.0,250,7,,10.0,29.828741,,,TRUE,TRUE,,,,,,,SCT,4800,SCT,6500,OVC,7500,,,VFR,,,,,,,,,,,,METAR,244.0
KIMM 180315Z AUTO 00000KT 10SM FEW035 SCT070 OVC120 14/12 A3007 RMK AO2 PWINO,KIMM,2021-01-18T03:15:00Z,26.43,-81.4,14.0,12.0,0,0,,10.0,30.070866,,,TRUE,TRUE,,,,,TRUE,,FEW,3500,SCT,7000,OVC,12000,,,VFR,,,,,,,,,,,,SPECI,11.0
KIKW 180315Z AUTO 00000KT 7SM -SN SCT007 SCT036 SCT049 M01/M02 A2967 RMK AO2 T10101018,KIKW,2021-01-18T03:15:00Z,43.67,-84.27,-1.0,-1.8,0,0,,7.0,29.66929,,,TRUE,TRUE,,,,,,-SN,SCT,700,SCT,3600,SCT,4900,,,VFR,,,,,,,,,,,,METAR,190.0
KIKV 180315Z AUTO 27008KT 10SM OVC049 M01/M03 A2985 RMK AO2,KIKV,2021-01-18T03:15:00Z,41.68,-93.57,-1.0,-3.0,270,8,,10.0,29.84941,,,TRUE,TRUE,,,,,,,OVC,4900,,,,,,,VFR,,,,,,,,,,,,METAR,270.0
KIKK 180315Z AUTO 28011KT 10SM UP BKN010 OVC042 M02/M03 A2979 RMK AO2 T10221032,KIKK,2021-01-18T03:15:00Z,41.07,-87.85,-2.2,-3.2,280,11,,10.0,29.790354,,,TRUE,TRUE,,,,,,UP,BKN,1000,OVC,4200,,,,,MVFR,,,,,,,,,,,,SPECI,188.0
KIKG 180315Z AUTO 12004KT 10SM CLR 15/14 A3011 RMK AO2 T01510135,KIKG,2021-01-18T03:15:00Z,27.55,-98.03,15.1,13.5,120,4,,10.0,30.109253,,,TRUE,TRUE,,,,,,,CLR,,,,,,,,VFR,,,,,,,,,,,,METAR,37.0
KIJX 180315Z AUTO 00000KT 10SM OVC024 M01/M03 A2985 RMK AO2 T10071028,KIJX,2021-01-18T03:15:00Z,39.77,-90.25,-0.7,-2.8,0,0,,10.0,29.84941,,,TRUE,TRUE,,,,,,,OVC,2400,,,,,,,MVFR,,,,,,,,,,,,METAR,187.0
KIIY 180315Z AUTO 22004KT 10SM 03/M01 A2993 RMK AO2,KIIY,2021-01-18T03:15:00Z,33.78,-82.82,3.0,-1.0,220,4,,10.0,29.929134,,,TRUE,TRUE,,,,,,,,,,,,,,,,,,,,,,,,,,,SPECI,192.0
KIIB 180315Z AUTO 00000KT 10SM OVC013 M06/M07 A2980 RMK AO2 T10621072,KIIB,2021-01-18T03:15:00Z,42.45,-91.95,-6.2,-7.2,0,0,,10.0,29.799213,,,TRUE,TRUE,,,,,,,OVC,1300,,,,,,,MVFR,,,,,,,,,,,,METAR,294.0
KIGQ 180315Z AUTO 28007KT 3SM -SN SCT035 OVC047 M01/M02 A2976 RMK AO2 T10141021,KIGQ,2021-01-18T03:15:00Z,41.53,-87.53,-1.4,-2.1,280,7,,3.0,29.760826,,,TRUE,TRUE,,,,,,-SN,SCT,3500,OVC,4700,,,,,MVFR,,,,,,,,,,,,METAR,187.0
KIFP 180315Z AUTO 05005KT 10SM CLR 18/02 A2996 RMK AO2,KIFP,2021-01-18T03:15:00Z,35.15,-114.57,18.0,2.0,50,5,,10.0,29.958662,,,TRUE,TRUE,,,,,,,CLR,,,,,,,,VFR,,,,,,,,,,,,METAR,210.0
KIFA 180315Z AUTO 28008KT 10SM OVC013 M01/M04 A2981 RMK AO2 T10121040,KIFA,2021-01-18T03:15:00Z,42.47,-93.27,-1.2,-4.0,280,8,,10.0,29.811024,,,TRUE,TRUE,,,,,,,OVC,1300,,,,,,,MVFR,,,,,,,,,,,,METAR,344.0
KIER 180315Z AUTO 28003KT 10SM CLR 04/M01 A3012 RMK AO2 T00441015,KIER,2021-01-18T03:15:00Z,31.73,-93.1,4.4,-1.5,280,3,,10.0,30.121063,,,TRUE,TRUE,,,,,,,CLR,,,,,,,,VFR,,,,,,,,,,,,SPECI,35.0
KIDP 180315Z AUTO 25004KT 10SM CLR M01/M06 A2998 RMK AO2 T10121061,KIDP,2021-01-18T03:15:00Z,37.17,-95.78,-1.2,-6.1,250,4,,10.0,29.97933,,,TRUE,TRUE,,,,,,,CLR,,,,,,,,VFR,,,,,,,,,,,,SPECI,252.0
KIDI 180315Z AUTO 24005KT 1 1/2SM BR OVC004 00/00 A2972 RMK A01,KIDI,2021-01-18T03:15:00Z,40.63,-79.1,0.0,0.0,240,5,,1.5,29.719488,,,TRUE,TRUE,,,,,,BR,OVC,400,,,,,,,LIFR,,,,,,,,,,,,SPECI,425.0
KICL 180315Z AUTO 25004KT 10SM CLR M04/M03 A2989 RMK AO2,KICL,2021-01-18T03:15:00Z,40.72,-95.02,-4.0,-3.0,250,4,,10.0,29.890747,,,TRUE,TRUE,,,,,,,CLR,,,,,,,,VFR,,,,,,,,,,,,METAR,299.0
KIBM 180315Z AUTO 27011KT 10SM -DZ SCT047 SCT050 OVC065 05/M04 A2980 RMK AO2 T00521045,KIBM,2021-01-18T03:15:00Z,41.18,-103.68,5.2,-4.5,270,11,,10.0,29.799213,,,TRUE,TRUE,,,,,,-DZ,SCT,4700,SCT,5000,OVC,6500,,,VFR,,,,,,,,,,,,METAR,1494.0
KI75 180315Z AUTO 27004KT 10SM SCT026 OVC049 M01/M03 A2985 RMK AO2 T10101027,KI75,2021-01-18T03:15:00Z,41.05,-93.68,-1.0,-2.7,270,4,,10.0,29.84941,,,TRUE,TRUE,,,,,,,SCT,2600,OVC,4900,,,,,VFR,,,,,,,,,,,,METAR,336.0
KI74 180315Z AUTO 27005KT 10SM OVC026 M01/M02 A2974 RMK AO2,KI74,2021-01-18T03:15:00Z,40.12,-83.75,-1.0,-2.0,270,5,,10.0,29.740158,,,TRUE,TRUE,,,,,,,OVC,2600,,,,,,,MVFR,,,,,,,,,,,,METAR,322.0
KI69 180315Z AUTO 26009KT 7SM OVC016 00/M02 A2980 RMK AO2 T00001018,KI69,2021-01-18T03:15:00Z,39.08,-84.22,0.0,-1.8,260,9,,7.0,29.799213,,,TRUE,TRUE,,,,,,,OVC,1600,,,,,,,MVFR,,,,,,,,,,,,METAR,238.0
KI67 180315Z AUTO 25006KT 10SM SCT019 BKN032 OVC060 00/M02 A2981 RMK AO1,KI67,2021-01-18T03:15:00Z,39.25,-84.78,0.0,-2.0,250,6,,10.0,29.811024,,,TRUE,TRUE,,,,,,,SCT,1900,BKN,3200,OVC,6000,,,VFR,,,,,,,,,,,,SPECI,177.0
KI63 180315Z AUTO 28005KT 10SM OVC025 00/M03 A2984 RMK AO2 T10051031,KI63,2021-01-18T03:15:00Z,39.98,-90.8,-0.5,-3.1,280,5,,10.0,29.840551,,,TRUE,TRUE,,,,,,,OVC,2500,,,,,,,MVFR,,,,,,,,,,,,SPECI,221.0
KI35 180315Z AUTO 35003KT 10SM SCT070 OVC080 01/M01 A2981 RMK AO2 T00051010,KI35,2021-01-18T03:15:00Z,36.87,-83.37,0.5,-1.0,350,3,,10.0,29.811024,,,TRUE,TRUE,,,,,,,SCT,7000,OVC,8000,,,,,VFR,,,,,,,,,,,,SPECI,467.0
KI23 180315Z AUTO 27014G22KT 1 1/4SM OVC004 M01/M02 A2975 RMK AO1,KI23,2021-01-18T03:15:00Z,39.57,-83.42,-1.0,-2.0,270,14,22,1.25,29.749016,,,TRUE,TRUE,,,,,,,OVC,400,,,,,,,LIFR,,,,,,,,,,,,SPECI,298.0
KI19 180315Z AUTO 27004KT 5SM -SN SCT014 BKN035 OVC075 00/M02 A2977 RMK AO2 T10051016,KI19,2021-01-18T03:15:00Z,39.7,-83.98,-0.5,-1.6,270,4,,5.0,29.769686,,,TRUE,TRUE,,,,,,-SN,SCT,1400,BKN,3500,OVC,7500,,,MVFR,,,,,,,,,,,,METAR,285.0
KI16 180315Z AUTO 10SM 01/00 A2983 RMK AO2 T00080000,KI16,2021-01-18T03:15:00Z,37.6,-81.57,0.8,0.0,,,,10.0,29.828741,,,TRUE,TRUE,,,,,,,,,,,,,,,,,,,,,,,,,,,METAR,528.0
KHZX 180315Z AUTO 00000KT 10SM OVC008 M07/M08 A2977 RMK AO2,KHZX,2021-01-18T03:15:00Z,46.62,-93.32,-7.0,-8.0,0,0,,10.0,29.769686,,,TRUE,TRUE,,,,,,,OVC,800,,,,,,,IFR,,,,,,,,,,,,METAR,374.0
KHZR 180315Z AUTO 32004KT 10SM CLR 09/M02 A3011 RMK AO2 T00891024,KHZR,2021-01-18T03:15:00Z,30.72,-91.48,8.9,-2.4,320,4,,10.0,30.109253,,,TRUE,TRUE,,,,,,,CLR,,,,,,,,VFR,,,,,,,,,,,,SPECI,11.0
KHZL 180315Z AUTO 24004KT 5SM -SN BKN015 BKN026 OVC038 00/M01 A2969 RMK AO2,KHZL,2021-01-18T03:15:00Z,40.98,-76.0,0.0,-1.0,240,4,,5.0,29.68996,,,TRUE,TRUE,,,,,,-SN,BKN,1500,BKN,2600,OVC,3800,,,MVFR,,,,,,,,,,,,METAR,481.0
KHZE 180315Z AUTO 00000KT 10SM BKN031 OVC036 M03/M05 A2981 RMK AO2,KHZE,2021-01-18T03:15:00Z,47.28,-101.58,-3.0,-5.0,0,0,,10.0,29.811024,,,TRUE,TRUE,,,,,,,BKN,3100,OVC,3600,,,,,VFR,,,,,,,,,,,,METAR,542.0
KHZD 180315Z AUTO 28009G17KT 10SM FEW039 BKN048 OVC055 07/M02 A2991 RMK A01,KHZD,2021-01-18T03:15:00Z,36.08,-88.47,7.0,-2.0,280,9,17,10.0,29.911417,,,TRUE,TRUE,,,,,,,FEW,3900,BKN,4800,OVC,5500,,,VFR,,,,,,,,,,,,SPECI,147.0
KHYX 180315Z AUTO 26004KT 4SM -SN SCT007 BKN029 OVC045 00/M02 A2968 RMK AO2,KHYX,2021-01-18T03:15:00Z,43.43,-83.87,0.0,-2.0,260,4,,4.0,29.681103,,,TRUE,TRUE,,,,,,-SN,SCT,700,BKN,2900,OVC,4500,,,MVFR,,,,,,,,,,,,METAR,181.0
KHYW 180315Z AUTO 00000KT 10SM CLR 01/00 A2997 RMK AO2,KHYW,2021-01-18T03:15:00Z,33.83,-79.12,1.0,0.0,0,0,,10.0,29.970472,,,TRUE,TRUE,,,,,,,CLR,,,,,,,,VFR,,,,,,,,,,,,SPECI,10.0
KHXD 180315Z AUTO 23005KT 10SM CLR 08/01 A3001 RMK AO2,KHXD,2021-01-18T03:15:00Z,32.22,-80.7,8.0,1.0,230,5,,10.0,30.008858,,,TRUE,TRUE,,,,,,,CLR,,,,,,,,VFR,,,,,,,,,,,,SPECI,5.0
KHWY 180315Z AUTO 00000KT 10SM SCT075 02/M03 A2977 RMK AO2 T00191026,KHWY,2021-01-18T03:15:00Z,38.58,-77.72,1.9,-2.6,0,0,,10.0,29.769686,,,TRUE,TRUE,,,,,,,SCT,7500,,,,,,,VFR,,,,,,,,,,,,SPECI,93.0
KHVS 180315Z AUTO 00000KT 10SM SCT048 BKN055 01/M02 A2994 RMK AO2,KHVS,2021-01-18T03:15:00Z,34.4,-80.12,1.0,-2.0,0,0,,10.0,29.940945,,,TRUE,TRUE,,,,,,,SCT,4800,BKN,5500,,,,,VFR,,,,,,,,,,,,SPECI,110.0
KHVE 180315Z AUTO 03004KT 10SM CLR 00/M07 A3012 RMK AO2,KHVE,2021-01-18T03:15:00Z,38.42,-110.7,0.0,-7.0,30,4,,10.0,30.121063,,,TRUE,TRUE,,,,,,,CLR,,,,,,,,VFR,,,,,,,,,,,,METAR,1351.0
KHUM 180315Z AUTO 26004KT 7SM CLR 08/05 A3011 RMK AO2 T00750051,KHUM,2021-01-18T03:15:00Z,29.57,-90.67,7.5,5.1,260,4,,7.0,30.109253,,,TRUE,TRUE,,,,,,,CLR,,,,,,,,VFR,,,,,,,,,,,,METAR,1.0
KHUF 180315Z 27007KT 10SM OVC014 M01/M03 A2983 RMK AO2 SNE02 P0000 T10061033,KHUF,2021-01-18T03:15:00Z,39.45,-87.32,-0.6,-3.3,270,7,,10.0,29.828741,,,,TRUE,,,,,,,OVC,1400,,,,,,,MVFR,,,,,,0.005,,,,,,SPECI,174.0
KHTO 180315Z AUTO 24007KT 10SM OVC060 04/M04 A2970 RMK AO2 T00441036,KHTO,2021-01-18T03:15:00Z,40.95,-72.25,4.4,-3.6,240,7,,10.0,29.698818,,,TRUE,TRUE,,,,,,,OVC,6000,,,,,,,VFR,,,,,,,,,,,,SPECI,10.0
KHTH 180315Z AUTO 20005KT 10SM CLR 05/M05 A3021 RMK A01,KHTH,2021-01-18T03:15:00Z,,,5.0,-5.0,200,5,,10.0,30.209646,,,TRUE,TRUE,,,,,,,CLR,,,,,,,,VFR,,,,,,,,,,,,METAR,
KHSP 180315Z AUTO 26013G19KT 7SM -SN BKN008 OVC014 M02/M04 A2968 RMK AO2 T10201037,KHSP,2021-01-18T03:15:00Z,37.95,-79.82,-2.0,-3.7,260,13,19,7.0,29.681103,,,TRUE,TRUE,,,,,,-SN,BKN,800,OVC,1400,,,,,IFR,,,,,,,,,,,,SPECI,1148.0
KHSG 180315Z AUTO 11003KT 10SM CLR M04/M09 A2993 RMK AO2 T10391095 PWINO,KHSG,2021-01-18T03:15:00Z,43.72,-108.38,-3.9,-9.5,110,3,,10.0,29.929134,,,TRUE,TRUE,,,,,TRUE,,CLR,,,,,,,,VFR,,,,,,,,,,,,METAR,1497.0
KHSD 180315Z AUTO 19008KT 10SM CLR 03/M08 A3002 RMK A01,KHSD,2021-01-18T03:15:00Z,35.6,-97.72,3.0,-8.0,190,8,,10.0,30.02067,,,TRUE,TRUE,,,,,,,CLR,,,,,,,,VFR,,,,,,,,,,,,SPECI,358.0
KHSB 180315Z AUTO 28011KT 5SM BR BKN013 OVC019 01/M01 A2991 RMK AO2 T00081010,KHSB,2021-01-18T03:15:00Z,37.82,-88.55,0.8,-1.0,280,11,,5.0,29.911417,,,TRUE,TRUE,,,,,,BR,BKN,1300,OVC,1900,,,,,MVFR,,,,,,,,,,,,METAR,118.0
KHRX 180315Z AUTO 21006KT 7SM CLR 01/M05 A3003 RMK AO2 T00061052,KHRX,2021-01-18T03:15:00Z,34.87,-102.33,0.6,-5.2,210,6,,7.0,30.029528,,,TRUE,TRUE,,,,,,,CLR,,,,,,,,VFR,,,,,,,,,,,,METAR,1153.0
KHRJ 180315Z AUTO 19003KT 10SM CLR 02/M01 A2992 RMK AO2 T00201011,KHRJ,2021-01-18T03:15:00Z,35.38,-78.73,2.0,-1.1,190,3,,10.0,29.920275,,,TRUE,TRUE,,,,,,,CLR,,,,,,,,VFR,,,,,,,,,,,,SPECI,55.0
KHQZ 180315Z AUTO 00000KT 10SM CLR 06/M04 A3011 RMK AO1 T00551040,KHQZ,2021-01-18T03:15:00Z,32.75,-96.53,5.5,-4.0,0,0,,10.0,30.109253,,,TRUE,TRUE,,,,,,,CLR,,,,,,,,VFR,,,,,,,,,,,,METAR,136.0
KHQU 180315Z AUTO 27005KT 10SM CLR 02/M01 A2995 RMK AO2 T00231013,KHQU,2021-01-18T03:15:00Z,33.53,-82.52,2.3,-1.3,270,5,,10.0,29.949802,,,TRUE,TRUE,,,,,,,CLR,,,,,,,,VFR,,,,,,,,,,,,METAR,141.0
KHQG 180315Z AUTO 22008KT 10SM CLR M01/M08 A2993 RMK AO2 T10141077,KHQG,2021-01-18T03:15:00Z,37.17,-101.37,-1.4,-7.7,220,8,,10.0,29.929134,,,TRUE,TRUE,,,,,,,CLR,,,,,,,,VFR,,,,,,,,,,,,SPECI,956.0
KHQG 180315Z AUTO 22008KT 10SM CLR M01/M08 A2993 RMK AO2 T10141077,KHQG,2021-01-18T03:15:00Z,37.17,-101.37,-1.4,-7.7,220,8,,10.0,29.929134,,,TRUE,TRUE,,,,,,,CLR,,,,,,,,VFR,,,,,,,,,,,,SPECI,956.0
KHPT 180315Z AUTO 29004KT 10SM OVC012 M02/M03 A2979 RMK AO2,KHPT,2021-01-18T03:15:00Z,42.72,-93.23,-2.0,-3.0,290,4,,10.0,29.790354,,,TRUE,TRUE,,,,,,,OVC,1200,,,,,,,MVFR,,,,,,,,,,,,METAR,354.0
KHOB 180315Z AUTO 14008KT 10SM CLR 02/M04 A3005 RMK AO2,KHOB,2021-01-18T03:15:00Z,32.67,-103.22,2.0,-4.0,140,8,,10.0,30.050198,,,TRUE,TRUE,,,,,,,CLR,,,,,,,,VFR,,,,,,,,,,,,METAR,1112.0
KHNZ 180315Z AUTO 21006KT 10SM BKN085 01/M03 A2987 RMK AO2 T00081031,KHNZ,2021-01-18T03:15:00Z,36.37,-78.53,0.8,-3.1,210,6,,10.0,29.870079,,,TRUE,TRUE,,,,,,,BKN,8500,,,,,,,VFR,,,,,,,,,,,,METAR,158.0
KHNR 180315Z AUTO 00000KT 10SM OVC049 M02/M03 A2985 RMK AO2,KHNR,2021-01-18T03:15:00Z,41.58,-95.33,-2.0,-3.0,0,0,,10.0,29.84941,,,TRUE,TRUE,,,,,,,OVC,4900,,,,,,,VFR,,,,,,,,,,,,SPECI,364.0
KHMZ 180315Z AUTO 19003KT 4SM -SN SCT021 BKN028 OVC065 01/M02 A2971 RMK AO2 T00051023,KHMZ,2021-01-18T03:15:00Z,40.08,-78.52,0.5,-2.3,190,3,,4.0,29.71063,,,TRUE,TRUE,,,,,,-SN,SCT,2100,BKN,2800,OVC,6500,,,MVFR,,,,,,,,,,,,METAR,351.0
KHMT 180315Z AUTO 05003KT 10SM CLR 18/M03 A2997 RMK AO2 T01791026,KHMT,2021-01-18T03:15:00Z,33.73,-117.02,17.9,-2.6,50,3,,10.0,29.970472,,,TRUE,TRUE,,,,,,,CLR,,,,,,,,VFR,,,,,,,,,,,,METAR,462.0
KHMP 180315Z AUTO 24003KT 10SM CLR 01/M02 A2997 RMK AO2 T00101020,KHMP,2021-01-18T03:15:00Z,33.38,-84.33,1.0,-2.0,240,3,,10.0,29.970472,,,TRUE,TRUE,,,,,,,CLR,,,,,,,,VFR,,,,,,,,,,,,METAR,263.0
KHLX 180315Z AUTO 21006KT 10SM SCT029 SCT033 OVC070 00/M03 A2977 RMK AO2 T00031031,KHLX,2021-01-18T03:15:00Z,36.77,-80.82,0.3,-3.1,210,6,,10.0,29.769686,,,TRUE,TRUE,,,,,,,SCT,2900,SCT,3300,OVC,7000,,,VFR,,,,,,,,,,,,SPECI,819.0
KHLB 180315Z AUTO VRB03KT 10SM FEW016 BKN024 OVC035 M02/M02 A2979 RMK A01,KHLB,2021-01-18T03:15:00Z,,,-2.0,-2.0,0,3,,10.0,29.790354,,,TRUE,TRUE,,,,,,,FEW,1600,BKN,2400,OVC,3500,,,MVFR,,,,,,,,,,,,METAR,
KHJH 180315Z AUTO 00000KT 10SM CLR M03/M07 A2988 RMK AO2 T10281066,KHJH,2021-01-18T03:15:00Z,40.15,-97.58,-2.8,-6.6,0,0,,10.0,29.878937,,,TRUE,TRUE,,,,,,,CLR,,,,,,,,VFR,,,,,,,,,,,,SPECI,449.0
KHII 180315Z AUTO 05003KT 10SM CLR 18/M12 A2996 RMK AO2,KHII,2021-01-18T03:15:00Z,34.57,-114.37,18.0,-12.0,50,3,,10.0,29.958662,,,TRUE,TRUE,,,,,,,CLR,,,,,,,,VFR,,,,,,,,,,,,SPECI,241.0
KHHW 180315Z AUTO 23004KT 10SM CLR 05/M11 A3006 RMK AO2,KHHW,2021-01-18T03:15:00Z,34.03,-95.55,5.0,-11.0,230,4,,10.0,30.059055,,,TRUE,TRUE,,,,,,,CLR,,,,,,,,VFR,,,,,,,,,,,,METAR,178.0
KHHG 180315Z AUTO 25005KT 10SM OVC014 M02/M03 A2974 RMK AO2 T10161035,KHHG,2021-01-18T03:15:00Z,40.85,-85.45,-1.6,-3.5,250,5,,10.0,29.740158,,,TRUE,TRUE,,,,,,,OVC,1400,,,,,,,MVFR,,,,,,,,,,,,SPECI,247.0
KHHF 180315Z AUTO 24006KT 10SM CLR M01/M08 A2999 RMK AO2 T10121081,KHHF,2021-01-18T03:15:00Z,35.9,-100.4,-1.2,-8.1,240,6,,10.0,29.991142,,,TRUE,TRUE,,,,,,,CLR,,,,,,,,VFR,,,,,,,,,,,,METAR,729.0
KHFJ 180315Z AUTO 26004KT 10SM CLR 01/M04 A2995 RMK AO2,KHFJ,2021-01-18T03:15:00Z,36.9,-94.02,1.0,-4.0,260,4,,10.0,29.949802,,,TRUE,TRUE,,,,,,,CLR,,,,,,,,VFR,,,,,,,,,,,,SPECI,398.0
KHEQ 180315Z AUTO 00000KT 10SM CLR 03/M05 A2983 RMK AO2,KHEQ,2021-01-18T03:15:00Z,40.57,-102.28,3.0,-5.0,0,0,,10.0,29.828741,,,TRUE,TRUE,,,,,,,CLR,,,,,,,,VFR,,,,,,,,,,,,SPECI,1136.0
KHEG 180315Z AUTO 22004KT CLR 08/03 A3007 RMK AO2,KHEG,2021-01-18T03:15:00Z,30.28,-81.8,8.0,3.0,220,4,,,30.070866,,,TRUE,TRUE,,,,,,,CLR,,,,,,,,,,,,,,,,,,,,METAR,25.0
KHDE 180315Z AUTO 22003KT 10SM OVC100 03/M09 A2986 RMK AO2 T00271094,KHDE,2021-01-18T03:15:00Z,40.45,-99.33,2.7,-9.4,220,3,,10.0,29.861221,,,TRUE,TRUE,,,,,,,OVC,10000,,,,,,,VFR,,,,,,,,,,,,SPECI,703.0
KHDC 180315Z AUTO 00000KT 10SM SCT120 05/01 A3009 RMK AO2,KHDC,2021-01-18T03:15:00Z,30.52,-90.42,5.0,1.0,0,0,,10.0,30.088583,,,TRUE,TRUE,,,,,,,SCT,12000,,,,,,,VFR,,,,,,,,,,,,METAR,12.0
KHCR 180315Z AUTO 00000KT 10SM OVC090 00/M03 A3013 RMK AO2,KHCR,2021-01-18T03:15:00Z,40.48,-111.43,0.0,-3.0,0,0,,10.0,30.129921,,,TRUE,TRUE,,,,,,,OVC,9000,,,,,,,VFR,,,,,,,,,,,,METAR,1708.0
KHCO 180315Z AUTO 00000KT 10SM BKN017 OVC080 M11/M12 A2988 RMK AO2,KHCO,2021-01-18T03:15:00Z,48.75,-96.93,-11.0,-12.0,0,0,,10.0,29.878937,,,TRUE,TRUE,,,,,,,BKN,1700,OVC,8000,,,,,MVFR,,,,,,,,,,,,SPECI,250.0
KHCD 180315Z AUTO 31006KT 10SM BKN031 OVC042 M04/M05 A2982 RMK AO2 T10371055,KHCD,2021-01-18T03:15:00Z,44.87,-94.38,-3.7,-5.5,310,6,,10.0,29.819881,,,TRUE,TRUE,,,,,,,BKN,3100,OVC,4200,,,,,VFR,,,,,,,,,,,,SPECI,320.0
KHBV 180315Z AUTO 14004KT 10SM CLR 14/07 A3010 RMK AO2 T01360072,KHBV,2021-01-18T03:15:00Z,27.35,-98.73,13.6,7.2,140,4,,10.0,30.100393,,,TRUE,TRUE,,,,,,,CLR,,,,,,,,VFR,,,,,,,,,,,,METAR,200.0
KHBI 180315Z AUTO 20007KT 10SM CLR 04/M02 A2990 RMK AO2 T00351025,KHBI,2021-01-18T03:15:00Z,35.65,-79.9,3.5,-2.5,200,7,,10.0,29.899607,,,TRUE,TRUE,,,,,,,CLR,,,,,,,,VFR,,,,,,,,,,,,SPECI,199.0
KHAI 180315Z AUTO 24003KT 7SM -SN OVC010 M02/M03 A2971 RMK AO2 T10171030,KHAI,2021-01-18T03:15:00Z,41.97,-85.6,-1.7,-3.0,240,3,,7.0,29.71063,,,TRUE,TRUE,,,,,,-SN,OVC,1000,,,,,,,MVFR,,,,,,,,,,,,SPECI,250.0
KHAF 180315Z AUTO 01003KT 4SM -RA SCT002 11/09 A3002 RMK AO2,KHAF,2021-01-18T03:15:00Z,37.52,-122.5,11.0,9.0,10,3,,4.0,30.02067,,,TRUE,TRUE,,,,,,-RA,SCT,200,,,,,,,MVFR,,,,,,,,,,,,SPECI,11.0
KHAE 180315Z AUTO 26004KT 10SM OVC026 00/M02 A2986 RMK AO2,KHAE,2021-01-18T03:15:00Z,39.73,-91.45,0.0,-2.0,260,4,,10.0,29.861221,,,TRUE,TRUE,,,,,,,OVC,2600,,,,,,,MVFR,,,,,,,,,,,,SPECI,230.0
KGZS 180315Z AUTO 00000KT 10SM FEW050 FEW055 M01/M05 A2992 RMK A01,KGZS,2021-01-18T03:15:00Z,35.15,-87.05,-1.0,-5.0,0,0,,10.0,29.920275,,,TRUE,TRUE,,,,,,,FEW,5000,FEW,5500,,,,,VFR,,,,,,,,,,,,SPECI,198.0
KGZL 180315Z AUTO 20003KT 10SM CLR 01/M10 A3003 RMK AO2,KGZL,2021-01-18T03:15:00Z,35.28,-95.1,1.0,-10.0,200,3,,10.0,30.029528,,,TRUE,TRUE,,,,,,,CLR,,,,,,,,VFR,,,,,,,,,,,,SPECI,176.0
KGYL 180315Z AUTO 32006KT 7SM BKN018 OVC042 M04/M06 A2981 RMK AO2 T10401065,KGYL,2021-01-18T03:15:00Z,44.77,-94.08,-4.0,-6.5,320,6,,7.0,29.811024,,,TRUE,TRUE,,,,,,,BKN,1800,OVC,4200,,,,,MVFR,,,,,,,,,,,,METAR,304.0
KGYI 180315Z AUTO 21005KT 10SM CLR 03/M06 A3009 RMK AO2 T00331063,KGYI,2021-01-18T03:15:00Z,33.72,-96.67,3.3,-6.3,210,5,,10.0,30.088583,,,TRUE,TRUE,,,,,,,CLR,,,,,,,,VFR,,,,,,,,,,,,METAR,227.0
KGYH 180315Z AUTO 20006KT 10SM CLR 03/M01 A2988 RMK AO2,KGYH,2021-01-18T03:15:00Z,34.75,-82.38,3.0,-1.0,200,6,,10.0,29.878937,,,TRUE,TRUE,,,,,,,CLR,,,,,,,,VFR,,,,,,,,,,,,METAR,283.0
KGYF 180315Z AUTO 12004KT 10SM OVC050 19/09 A3012 RMK AO2 T01900093,KGYF,2021-01-18T03:15:00Z,,,19.0,9.3,120,4,,10.0,30.121063,,,TRUE,TRUE,,,,,,,OVC,5000,,,,,,,VFR,,,,,,,,,,,,METAR,
KGYB 180315Z AUTO 00000KT 10SM CLR 09/02 A3012 RMK AO2 T00870023,KGYB,2021-01-18T03:15:00Z,30.17,-96.98,8.7,2.3,0,0,,10.0,30.121063,,,TRUE,TRUE,,,,,,,CLR,,,,,,,,VFR,,,,,,,,,,,,METAR,140.0
KGWW 180315Z AUTO 21006KT 10SM CLR 02/00 A2992 RMK AO2 T00231005,KGWW,2021-01-18T03:15:00Z,35.47,-77.97,2.3,-0.5,210,6,,10.0,29.920275,,,TRUE,TRUE,,,,,,,CLR,,,,,,,,VFR,,,,,,,,,,,,SPECI,40.0
KGWR 180315Z AUTO 06006KT 10SM OVC010 M05/M05 A2984 RMK A01,KGWR,2021-01-18T03:15:00Z,46.22,-97.65,-5.0,-5.0,60,6,,10.0,29.840551,,,TRUE,TRUE,,,,,,,OVC,1000,,,,,,,MVFR,,,,,,,,,,,,SPECI,381.0
KGWB 180315Z AUTO 26006KT 10SM BKN020 OVC075 M01/M03 A2972 RMK AO2,KGWB,2021-01-18T03:15:00Z,41.3,-85.07,-1.0,-3.0,260,6,,10.0,29.719488,,,TRUE,TRUE,,,,,,,BKN,2000,OVC,7500,,,,,MVFR,,,,,,,,,,,,METAR,268.0
KGVT 180315Z AUTO 00000KT 10SM CLR 02/M01 A3010 RMK AO2,KGVT,2021-01-18T03:15:00Z,33.07,-96.07,2.0,-1.0,0,0,,10.0,30.100393,,,TRUE,TRUE,,,,,,,CLR,,,,,,,,VFR,,,,,,,,,,,,METAR,165.0
KGVE 180315Z AUTO 00000KT 10SM CLR M01/M01 A2979 RMK AO1 T10151015,KGVE,2021-01-18T03:15:00Z,38.15,-78.17,-1.5,-1.5,0,0,,10.0,29.790354,,,TRUE,TRUE,,,,,,,CLR,,,,,,,,VFR,,,,,,,,,,,,SPECI,138.0
KGRN 180315Z AUTO 29007KT 10SM SCT034 SCT045 OVC060 04/M04 A2977 RMK AO2 T00401041,KGRN,2021-01-18T03:15:00Z,42.8,-102.17,4.0,-4.1,290,7,,10.0,29.769686,,,TRUE,TRUE,,,,,,,SCT,3400,SCT,4500,OVC,6000,,,VFR,,,,,,,,,,,,METAR,1080.0
KGPM 180315Z AUTO 00000KT 10SM CLR 08/M04 A3012 RMK AO2 T00831040,KGPM,2021-01-18T03:15:00Z,32.7,-97.05,8.3,-4.0,0,0,,10.0,30.121063,,,TRUE,TRUE,,,,,,,CLR,,,,,,,,VFR,,,,,,,,,,,,METAR,178.0
KGPH 180315Z AUTO 31003KT 10SM CLR 01/M04 A2991 RMK AO2,KGPH,2021-01-18T03:15:00Z,39.33,-94.32,1.0,-4.0,310,3,,10.0,29.911417,,,TRUE,TRUE,,,,,,,CLR,,,,,,,,VFR,,,,,,,,,,,,SPECI,233.0
KGPC 180315Z AUTO 26008KT 10SM -SN OVC012 M02/M04 A2980 RMK AO2 T10181036,KGPC,2021-01-18T03:15:00Z,39.63,-86.82,-1.8,-3.6,260,8,,10.0,29.799213,,,TRUE,TRUE,,,,,,-SN,OVC,1200,,,,,,,MVFR,,,,,,,,,,,,SPECI,254.0
KGOP 180315Z AUTO 00000KT 10SM CLR 03/M02 A3012 RMK AO2,KGOP,2021-01-18T03:15:00Z,31.42,-97.8,3.0,-2.0,0,0,,10.0,30.121063,,,TRUE,TRUE,,,,,,,CLR,,,,,,,,VFR,,,,,,,,,,,,METAR,272.0
KGOO 180315Z AUTO 00000KT 10SM CLR 14/06 A3007 RMK A01,KGOO,2021-01-18T03:15:00Z,39.22,-121.0,14.0,6.0,0,0,,10.0,30.070866,,,TRUE,TRUE,,,,,,,CLR,,,,,,,,VFR,,,,,,,,,,,,METAR,950.0
KGNT 180315Z AUTO 00000KT 10SM CLR M04/M20 A3012 RMK AO2 T10381205,KGNT,2021-01-18T03:15:00Z,35.17,-107.9,-3.8,-20.5,0,0,,10.0,30.121063,,,TRUE,TRUE,,,,,,,CLR,,,,,,,,VFR,,,,,,,,,,,,METAR,1988.0
KGNG 180315Z AUTO 26016G22KT 5SM BR OVC003 01/01 A3024 RMK AO2,KGNG,2021-01-18T03:15:00Z,,,1.0,1.0,260,16,22,5.0,30.239174,,,TRUE,TRUE,,,,,,BR,OVC,300,,,,,,,LIFR,,,,,,,,,,,,METAR,
KGNC 180315Z AUTO 15005KT 10SM CLR 04/M04 A3010 RMK AO2 T00401036,KGNC,2021-01-18T03:15:00Z,32.68,-102.65,4.0,-3.6,150,5,,10.0,30.100393,,,TRUE,TRUE,,,,,,,CLR,,,,,,,,VFR,,,,,,,,,,,,METAR,1002.0
KGMJ 180315Z AUTO 21004KT 10SM CLR 01/M03 A3000 RMK AO2,KGMJ,2021-01-18T03:15:00Z,36.6,-94.73,1.0,-3.0,210,4,,10.0,30.0,,,TRUE,TRUE,,,,,,,CLR,,,,,,,,VFR,,,,,,,,,,,,METAR,251.0
KGLY 180315Z AUTO 27003KT 10SM FEW060 01/M03 A2993 RMK AO2,KGLY,2021-01-18T03:15:00Z,38.35,-93.68,1.0,-3.0,270,3,,10.0,29.929134,,,TRUE,TRUE,,,,,,,FEW,6000,,,,,,,VFR,,,,,,,,,,,,SPECI,247.0
KGLW 180315Z AUTO 00000KT 10SM BKN060 OVC070 00/M04 A2988 RMK AO2 T00001036,KGLW,2021-01-18T03:15:00Z,37.03,-85.95,0.0,-3.6,0,0,,10.0,29.878937,,,TRUE,TRUE,,,,,,,BKN,6000,OVC,7000,,,,,VFR,,,,,,,,,,,,METAR,216.0
KGLE 180315Z AUTO 28003KT 10SM CLR 02/M07 A3010 RMK AO2 T00181073,KGLE,2021-01-18T03:15:00Z,33.65,-97.2,1.8,-7.3,280,3,,10.0,30.100393,,,TRUE,TRUE,,,,,,,CLR,,,,,,,,VFR,,,,,,,,,,,,METAR,250.0
KGIC 180315Z AUTO 29004KT 10SM OVC050 02/M01 A3031 RMK AO1,KGIC,2021-01-18T03:15:00Z,45.95,-116.12,2.0,-1.0,290,4,,10.0,30.31004,,,TRUE,TRUE,,,,,,,OVC,5000,,,,,,,VFR,,,,,,,,,,,,METAR,1002.0
KGHW 180315Z AUTO 29005KT 10SM SCT015 SCT021 OVC026 M06/M07 A2980 RMK AO2,KGHW,2021-01-18T03:15:00Z,45.63,-95.32,-6.0,-7.0,290,5,,10.0,29.799213,,,TRUE,TRUE,,,,,,,SCT,1500,SCT,2100,OVC,2600,,,MVFR,,,,,,,,,,,,SPECI,423.0
KGHG 180315Z AUTO 24007G14KT 10SM OVC046 06/M03 A2962 RMK AO2,KGHG,2021-01-18T03:15:00Z,42.1,-70.67,6.0,-3.0,240,7,14,10.0,29.619095,,,TRUE,TRUE,,,,,,,OVC,4600,,,,,,,VFR,,,,,,,,,,,,SPECI,3.0
KGGP 180315Z AUTO 27010KT 10SM BKN013 OVC021 M01/M03 A2977 RMK AO2,KGGP,2021-01-18T03:15:00Z,40.72,-86.37,-1.0,-3.0,270,10,,10.0,29.769686,,,TRUE,TRUE,,,,,,,BKN,1300,OVC,2100,,,,,MVFR,,,,,,,,,,,,SPECI,224.0
KGGI 180315Z AUTO 27007KT 10SM OVC017 M01/M04 A2983 RMK AO2 T10081040,KGGI,2021-01-18T03:15:00Z,41.72,-92.73,-0.8,-4.0,270,7,,10.0,29.828741,,,TRUE,TRUE,,,,,,,OVC,1700,,,,,,,MVFR,,,,,,,,,,,,SPECI,305.0
KGGE 180315Z AUTO 22003KT 10SM CLR 04/01 A2998 RMK AO2,KGGE,2021-01-18T03:15:00Z,33.32,-79.32,4.0,1.0,220,3,,10.0,29.97933,,,TRUE,TRUE,,,,,,,CLR,,,,,,,,VFR,,,,,,,,,,,,SPECI,9.0
KGEV 180315Z AUTO 00000KT 7SM -SN SCT012 SCT023 OVC030 M01/M03 A2977 RMK AO2 T10101030,KGEV,2021-01-18T03:15:00Z,36.43,-81.42,-1.0,-3.0,0,0,,7.0,29.769686,,,TRUE,TRUE,,,,,,-SN,SCT,1200,SCT,2300,OVC,3000,,,MVFR,,,,,,,,,,,,SPECI,961.0
KGDJ 180315Z AUTO 00000KT 10SM CLR 04/M02 A3012 RMK AO2 T00391017,KGDJ,2021-01-18T03:15:00Z,32.45,-97.82,3.9,-1.7,0,0,,10.0,30.121063,,,TRUE,TRUE,,,,,,,CLR,,,,,,,,VFR,,,,,,,,,,,,METAR,235.0
KGDB 180315Z AUTO 31007KT 10SM OVC035 M03/M05 A2985 RMK AO2 T10311052,KGDB,2021-01-18T03:15:00Z,44.75,-95.55,-3.1,-5.2,310,7,,10.0,29.84941,,,TRUE,TRUE,,,,,,,OVC,3500,,,,,,,VFR,,,,,,,,,,,,SPECI,316.0
KGCY 180315Z AUTO 22005G15KT 2SM BR SCT004 BKN009 OVC041 02/M00 A2982 RMK A01,KGCY,2021-01-18T03:15:00Z,36.2,-82.82,2.0,0.0,220,5,15,2.0,29.819881,,,TRUE,TRUE,,,,,,BR,SCT,400,BKN,900,OVC,4100,,,IFR,,,,,,,,,,,,METAR,488.0
KGCM 180315Z AUTO 00000KT 10SM CLR 01/M07 A3001 RMK AO2,KGCM,2021-01-18T03:15:00Z,36.3,-95.48,1.0,-7.0,0,0,,10.0,30.008858,,,TRUE,TRUE,,,,,,,CLR,,,,,,,,VFR,,,,,,,,,,,,METAR,215.0
KGBG 180315Z AUTO 29006KT 10SM OVC018 M04/M06 A2983 RMK AO2 T10381064,KGBG,2021-01-18T03:15:00Z,40.93,-90.43,-3.8,-6.4,290,6,,10.0,29.828741,,,TRUE,TRUE,,,,,,,OVC,1800,,,,,,,MVFR,,,,,,,,,,,,SPECI,230.0
KGAO 180315Z AUTO 24005KT 10SM CLR 07/06 A3011 RMK AO2 T00730055,KGAO,2021-01-18T03:15:00Z,29.45,-90.27,7.3,5.5,240,5,,10.0,30.109253,,,TRUE,TRUE,,,,,,,CLR,,,,,,,,VFR,,,,,,,,,,,,METAR,0.0
KFZG 180315Z AUTO 00000KT 10SM CLR 03/01 A3002 RMK AO2 T00340006,KFZG,2021-01-18T03:15:00Z,31.68,-83.27,3.4,0.6,0,0,,10.0,30.02067,,,TRUE,TRUE,,,,,,,CLR,,,,,,,,VFR,,,,,,,,,,,,METAR,105.0
KFYM 180315Z AUTO 00000KT 10SM CLR 04/M06 A2993 RMK A01,KFYM,2021-01-18T03:15:00Z,35.07,-86.57,4.0,-6.0,0,0,,10.0,29.929134,,,TRUE,TRUE,,,,,,,CLR,,,,,,,,VFR,,,,,,,,,,,,METAR,297.0
KFYJ 180315Z AUTO 20003KT 10SM SCT075 05/00 A2983 RMK AO1 T00501005,KFYJ,2021-01-18T03:15:00Z,37.52,-76.77,5.0,-0.5,200,3,,10.0,29.828741,,,TRUE,TRUE,,,,,,,SCT,7500,,,,,,,VFR,,,,,,,,,,,,METAR,3.0
KFYE 180315Z AUTO 24005KT 10SM FEW060 OVC075 06/M03 A2994 RMK A01,KFYE,2021-01-18T03:15:00Z,35.2,-89.38,6.0,-3.0,240,5,,10.0,29.940945,,,TRUE,TRUE,,,,,,,FEW,6000,OVC,7500,,,,,VFR,,,,,,,,,,,,METAR,133.0
KFXY 180315Z AUTO 32007KT 10SM OVC013 M02/M02 A2979 RMK AO2,KFXY,2021-01-18T03:15:00Z,43.23,-93.62,-2.0,-2.0,320,7,,10.0,29.790354,,,TRUE,TRUE,,,,,,,OVC,1300,,,,,,,MVFR,,,,,,,,,,,,METAR,366.0
KFWZ 180315Z AUTO 29003KT 10SM CLR 00/M07 A2984 RMK AO2,KFWZ,2021-01-18T03:15:00Z,42.52,-108.78,0.0,-7.0,290,3,,10.0,29.840551,,,TRUE,TRUE,,,,,,,CLR,,,,,,,,VFR,,,,,,,,,,,,METAR,2605.0
KFWS 180315Z AUTO 00000KT 10SM CLR 03/M04 A3012 RMK AO2 T00321036 PWINO,KFWS,2021-01-18T03:15:00Z,32.57,-97.3,3.2,-3.6,0,0,,10.0,30.121063,,,TRUE,TRUE,,,,,TRUE,,CLR,,,,,,,,VFR,,,,,,,,,,,,METAR,211.0
KFWC 180315Z AUTO 00000KT 10SM SCT080 BKN110 00/M02 A2988 RMK AO1 T10011023,KFWC,2021-01-18T03:15:00Z,38.38,-88.42,-0.1,-2.3,0,0,,10.0,29.878937,,,TRUE,TRUE,,,,,,,SCT,8000,BKN,11000,,,,,VFR,,,,,,,,,,,,METAR,131.0
KFWB 180315Z AUTO 28005KT 10SM CLR 04/M04 A2995 RMK AO2,KFWB,2021-01-18T03:15:00Z,36.7,-93.4,4.0,-4.0,280,5,,10.0,29.949802,,,TRUE,TRUE,,,,,,,CLR,,,,,,,,VFR,,,,,,,,,,,,SPECI,392.0
KFVX 180315Z AUTO 23005KT 10SM OVC080 02/M01 A2981 RMK AO2 T00221015,KFVX,2021-01-18T03:15:00Z,37.35,-78.43,2.2,-1.5,230,5,,10.0,29.811024,,,TRUE,TRUE,,,,,,,OVC,8000,,,,,,,VFR,,,,,,,,,,,,SPECI,129.0
KFTN 180315Z AUTO 04003KT 10SM CLR 09/04 A3010 RMK A01,KFTN,2021-01-18T03:15:00Z,28.22,-100.02,9.0,4.0,40,3,,10.0,30.100393,,,TRUE,TRUE,,,,,,,CLR,,,,,,,,VFR,,,,,,,,,,,,METAR,236.0
KFSW 180315Z AUTO 30005KT 10SM OVC021 M01/M03 A2985 RMK AO2,KFSW,2021-01-18T03:15:00Z,40.67,-91.32,-1.0,-3.0,300,5,,10.0,29.84941,,,TRUE,TRUE,,,,,,,OVC,2100,,,,,,,MVFR,,,,,,,,,,,,METAR,219.0
KFSO 180315Z AUTO 28004KT 10SM OVC020 M02/M07 A2956 RMK AO2 T10221067,KFSO,2021-01-18T03:15:00Z,44.93,-73.1,-2.2,-6.7,280,4,,10.0,29.56004,,,TRUE,TRUE,,,,,,,OVC,2000,,,,,,,MVFR,,,,,,,,,,,,SPECI,70.0
KFSE 180315Z AUTO 30006KT 7SM -SN OVC016 M12/M13 A2983 RMK AO2,KFSE,2021-01-18T03:15:00Z,47.58,-95.77,-12.0,-13.0,300,6,,7.0,29.828741,,,TRUE,TRUE,,,,,,-SN,OVC,1600,,,,,,,MVFR,,,,,,,,,,,,SPECI,389.0
KFRR 180315Z AUTO 22004KT 10SM SCT047 SCT075 03/M02 A2975 RMK AO1,KFRR,2021-01-18T03:15:00Z,38.92,-78.25,3.0,-2.0,220,4,,10.0,29.749016,,,TRUE,TRUE,,,,,,,SCT,4700,SCT,7500,,,,,VFR,,,,,,,,,,,,SPECI,213.0
KFRH 180315Z AUTO 25005KT 10SM BKN008 OVC025 M01/M02 A2984 RMK AO1,KFRH,2021-01-18T03:15:00Z,38.5,-86.63,-1.0,-2.0,250,5,,10.0,29.840551,,,TRUE,TRUE,,,,,,,BKN,800,OVC,2500,,,,,IFR,,,,,,,,,,,,SPECI,241.0
KFQD 180315Z AUTO 21003KT 10SM SCT065 BKN095 03/M03 A2987 RMK AO2,KFQD,2021-01-18T03:15:00Z,35.42,-81.93,3.0,-3.0,210,3,,10.0,29.870079,,,TRUE,TRUE,,,,,,,SCT,6500,BKN,9500,,,,,VFR,,,,,,,,,,,,SPECI,325.0
KFPY 180315Z AUTO 7SM CLR 05/04 A3007 RMK AO2 T00450041,KFPY,2021-01-18T03:15:00Z,30.07,-83.57,4.5,4.1,,,,7.0,30.070866,,,TRUE,TRUE,,,,,,,CLR,,,,,,,,VFR,,,,,,,,,,,,SPECI,12.0
KFPK 180315Z AUTO 00000KT 4SM -SN OVC006 00/M01 A2967 RMK AO2 T10051010,KFPK,2021-01-18T03:15:00Z,42.57,-84.82,-0.5,-1.0,0,0,,4.0,29.66929,,,TRUE,TRUE,,,,,,-SN,OVC,600,,,,,,,IFR,,,,,,,,,,,,SPECI,269.0
KFOA 180315Z AUTO 28006KT 10SM BKN018 OVC024 00/M02 A2988 RMK AO2,KFOA,2021-01-18T03:15:00Z,38.67,-88.45,0.0,-2.0,280,6,,10.0,29.878937,,,TRUE,TRUE,,,,,,,BKN,1800,OVC,2400,,,,,MVFR,,,,,,,,,,,,SPECI,141.0
KFMM 180315Z AUTO 00000KT 10SM SCT065 BKN080 OVC090 03/M07 A2982 RMK AO2 T00251074,KFMM,2021-01-18T03:15:00Z,40.33,-103.8,2.5,-7.4,0,0,,10.0,29.819881,,,TRUE,TRUE,,,,,,,SCT,6500,BKN,8000,OVC,9000,,,VFR,,,,,,,,,,,,SPECI,1376.0
KFME 180315Z AUTO 21003KT 10SM OVC085 02/00 A2978 RMK AO1,KFME,2021-01-18T03:15:00Z,39.08,-76.77,2.0,0.0,210,3,,10.0,29.778543,,,TRUE,TRUE,,,,,,,OVC,8500,,,,,,,VFR,,,,,,,,,,,,METAR,43.0
KFLY 180315Z AUTO 00000KT 10SM CLR M02/M10 A2987 RMK AO2 T10171102,KFLY,2021-01-18T03:15:00Z,38.95,-104.57,-1.7,-10.2,0,0,,10.0,29.870079,,,TRUE,TRUE,,,,,,,CLR,,,,,,,,VFR,,,,,,,,,,,,METAR,2096.0
KFKS 180315Z AUTO 00000KT 7SM -SN SCT012 BKN028 OVC050 M02/M04 A2970 RMK AO2 T10221036,KFKS,2021-01-18T03:15:00Z,44.63,-86.2,-2.2,-3.6,0,0,,7.0,29.698818,,,TRUE,TRUE,,,,,,-SN,SCT,1200,BKN,2800,OVC,5000,,,MVFR,,,,,,,,,,,,METAR,189.0
KFKR 180315Z AUTO 26012KT 4SM UP BR FEW010 SCT017 OVC022 M02/M03 A2977 RMK AO2,KFKR,2021-01-18T03:15:00Z,40.27,-86.57,-2.0,-3.0,260,12,,4.0,29.769686,,,TRUE,TRUE,,,,,,BR UP,FEW,1000,SCT,1700,OVC,2200,,,MVFR,,,,,,,,,,,,SPECI,260.0
KFKN 180315Z AUTO 22005KT 10SM OVC060 04/M01 A2987 RMK AO2 T00441015,KFKN,2021-01-18T03:15:00Z,36.7,-76.9,4.4,-1.5,220,5,,10.0,29.870079,,,TRUE,TRUE,,,,,,,OVC,6000,,,,,,,VFR,,,,,,,,,,,,SPECI,9.0
KFKA 180315Z AUTO 31007KT 10SM OVC008 M07/M08 A2978 RMK AO2 T10661080,KFKA,2021-01-18T03:15:00Z,43.68,-92.17,-6.6,-8.0,310,7,,10.0,29.778543,,,TRUE,TRUE,,,,,,,OVC,800,,,,,,,IFR,,,,,,,,,,,,METAR,388.0
KFIN 180315Z AUTO 24003KT 10SM CLR 10/06 A3006 RMK AO2 T00970063,KFIN,2021-01-18T03:15:00Z,29.47,-81.2,9.7,6.3,240,3,,10.0,30.059055,,,TRUE,TRUE,,,,,,,CLR,,,,,,,,VFR,,,,,,,,,,,,METAR,10.0
KFHB 180315Z AUTO 24007KT 10SM CLR 09/05 A3003 RMK AO2 T00890055,KFHB,2021-01-18T03:15:00Z,30.62,-81.47,8.9,5.5,240,7,,10.0,30.029528,,,TRUE,TRUE,,,,,,,CLR,,,,,,,,VFR,,,,,,,,,,,,METAR,4.0
KFGX 180315Z AUTO 27009KT 10SM BKN016 BKN055 BKN075 M01/M02 A2982 RMK AO2 T10081020,KFGX,2021-01-18T03:15:00Z,38.55,-83.75,-0.8,-2.0,270,9,,10.0,29.819881,,,TRUE,TRUE,,,,,,,BKN,1600,BKN,5500,BKN,7500,,,MVFR,,,,,,,,,,,,METAR,279.0
KFFM 180315Z AUTO 34009KT 10SM BKN017 OVC025 M07/M09 A2987 RMK AO2,KFFM,2021-01-18T03:15:00Z,46.28,-96.15,-7.0,-9.0,340,9,,10.0,29.870079,,,TRUE,TRUE,,,,,,,BKN,1700,OVC,2500,,,,,MVFR,,,,,,,,,,,,METAR,362.0
KFFL 180315Z AUTO 28006KT 10SM OVC018 M02/M02 A2984 RMK A01,KFFL,2021-01-18T03:15:00Z,41.05,-91.97,-2.0,-2.0,280,6,,10.0,29.840551,,,TRUE,TRUE,,,,,,,OVC,1800,,,,,,,MVFR,,,,,,,,,,,,METAR,240.0
KFET 180315Z AUTO 00000KT 10SM CLR M01/M04 A2986 RMK AO2 T10121037,KFET,2021-01-18T03:15:00Z,41.45,-96.52,-1.2,-3.7,0,0,,10.0,29.861221,,,TRUE,TRUE,,,,,,,CLR,,,,,,,,VFR,,,,,,,,,,,,SPECI,366.0
KFEP 180315Z AUTO 27004KT 10SM OVC027 M03/M04 A2978 RMK AO2 T10261040,KFEP,2021-01-18T03:15:00Z,42.25,-89.58,-2.6,-4.0,270,4,,10.0,29.778543,,,TRUE,TRUE,,,,,,,OVC,2700,,,,,,,MVFR,,,,,,,,,,,,METAR,255.0
KFDW 180315Z AUTO 20004KT 10SM CLR 03/M01 A2992 RMK AO1,KFDW,2021-01-18T03:15:00Z,34.32,-81.12,3.0,-1.0,200,4,,10.0,29.920275,,,TRUE,TRUE,,,,,,,CLR,,,,,,,,VFR,,,,,,,,,,,,SPECI,174.0
KFDK 180315Z AUTO 00000KT 10SM OVC065 03/00 A2976 RMK AO2,KFDK,2021-01-18T03:15:00Z,39.42,-77.37,3.0,0.0,0,0,,10.0,29.760826,,,TRUE,TRUE,,,,,,,OVC,6500,,,,,,,VFR,,,,,,,,,,,,METAR,82.0
KFBL 180315Z AUTO 25003KT 2SM BR OVC004 M05/M05 A2980 RMK AO2,KFBL,2021-01-18T03:15:00Z,44.33,-93.32,-5.0,-5.0,250,3,,2.0,29.799213,,,TRUE,TRUE,,,,,,BR,OVC,400,,,,,,,LIFR,,,,,,,,,,,,SPECI,318.0
KF70 180315Z AUTO 12004KT 10SM CLR 16/M02 A2997 RMK AO1,KF70,2021-01-18T03:15:00Z,33.57,-117.13,16.0,-2.0,120,4,,10.0,29.970472,,,TRUE,TRUE,,,,,,,CLR,,,,,,,,VFR,,,,,,,,,,,,METAR,406.0
KF46 180315Z AUTO 00000KT 10SM CLR 08/M05 A3010 RMK AO2 T00841049,KF46,2021-01-18T03:15:00Z,32.93,-96.43,8.4,-4.9,0,0,,10.0,30.100393,,,TRUE,TRUE,,,,,,,CLR,,,,,,,,VFR,,,,,,,,,,,,METAR,175.0
KF44 180315Z AUTO 00000KT 10SM CLR 02/M02 A3009 RMK AO2,KF44,2021-01-18T03:15:00Z,32.17,-95.83,2.0,-2.0,0,0,,10.0,30.088583,,,TRUE,TRUE,,,,,,,CLR,,,,,,,,VFR,,,,,,,,,,,,SPECI,137.0
KF17 180315Z AUTO 00000KT 7SM CLR 03/00 A3013 RMK AO2,KF17,2021-01-18T03:15:00Z,31.83,-94.15,3.0,0.0,0,0,,7.0,30.129921,,,TRUE,TRUE,,,,,,,CLR,,,,,,,,VFR,,,,,,,,,,,,METAR,93.0
KF05 180315Z AUTO 23008KT 10SM CLR 03/M03 A3007 RMK AO2 T00321030,KF05,2021-01-18T03:15:00Z,34.23,-99.28,3.2,-3.0,230,8,,10.0,30.070866,,,TRUE,TRUE,,,,,,,CLR,,,,,,,,VFR,,,,,,,,,,,,METAR,384.0
KF00 180315Z AUTO 23005KT 10SM CLR 05/M05 A3009 RMK AO2 T00501054,KF00,2021-01-18T03:15:00Z,33.62,-96.18,5.0,-5.4,230,5,,10.0,30.088583,,,TRUE,TRUE,,,,,,,CLR,,,,,,,,VFR,,,,,,,,,,,,METAR,189.0
KEZZ 180315Z AUTO 29006KT 10SM SCT050 00/M06 A2990 RMK AO2 T10021055,KEZZ,2021-01-18T03:15:00Z,39.72,-94.28,-0.2,-5.5,290,6,,10.0,29.899607,,,TRUE,TRUE,,,,,,,SCT,5000,,,,,,,VFR,,,,,,,,,,,,METAR,317.0
KEZS 180315Z AUTO 33003KT 10SM OVC024 M01/M05 A2973 RMK AO2 T10151052,KEZS,2021-01-18T03:15:00Z,44.78,-88.57,-1.5,-5.2,330,3,,10.0,29.731298,,,TRUE,TRUE,,,,,,,OVC,2400,,,,,,,MVFR,,,,,,,,,,,,METAR,247.0
KEZF 180315Z AUTO 00000KT 10SM SCT080 01/00 A2980 RMK AO2 T00101003,KEZF,2021-01-18T03:15:00Z,38.27,-77.45,1.0,-0.3,0,0,,10.0,29.799213,,,TRUE,TRUE,,,,,,,SCT,8000,,,,,,,VFR,,,,,,,,,,,,SPECI,26.0
KEYF 180315Z AUTO 21005KT 10SM CLR 04/M01 A2994 RMK AO2 T00421007,KEYF,2021-01-18T03:15:00Z,34.6,-78.58,4.2,-0.7,210,5,,10.0,29.940945,,,TRUE,TRUE,,,,,,,CLR,,,,,,,,VFR,,,,,,,,,,,,SPECI,39.0
KEXX 180315Z AUTO 20005KT 10SM BKN085 02/M03 A2986 RMK AO2 T00201026,KEXX,2021-01-18T03:15:00Z,35.78,-80.3,2.0,-2.6,200,5,,10.0,29.861221,,,TRUE,TRUE,,,,,,,BKN,8500,,,,,,,VFR,,,,,,,,,,,,METAR,221.0
KEVU 180315Z AUTO 00000KT 10SM CLR 01/M02 A2987 RMK AO2 T00081025,KEVU,2021-01-18T03:15:00Z,40.35,-94.92,0.8,-2.5,0,0,,10.0,29.870079,,,TRUE,TRUE,,,,,,,CLR,,,,,,,,VFR,,,,,,,,,,,,SPECI,351.0
KEVM 180315Z AUTO 34003KT 10SM -SN OVC011 M08/M10 A2974 RMK AO2 T10801098,KEVM,2021-01-18T03:15:00Z,47.42,-92.5,-8.0,-9.8,340,3,,10.0,29.740158,,,TRUE,TRUE,,,,,,-SN,OVC,1100,,,,,,,MVFR,,,,,,,,,,,,METAR,419.0
KETN 180315Z AUTO 00000KT 10SM CLR M01/M06 A3011 RMK AO2 T10131057,KETN,2021-01-18T03:15:00Z,32.42,-98.82,-1.3,-5.7,0,0,,10.0,30.109253,,,TRUE,TRUE,,,,,,,CLR,,,,,,,,VFR,,,,,,,,,,,,METAR,445.0
KETC 180315Z AUTO 20004KT 10SM CLR 04/M02 A2990 RMK AO2 T00411016,KETC,2021-01-18T03:15:00Z,35.93,-77.55,4.1,-1.6,200,4,,10.0,29.899607,,,TRUE,TRUE,,,,,,,CLR,,,,,,,,VFR,,,,,,,,,,,,METAR,15.0
KETB 180315Z AUTO 29005KT 10SM -SN SCT026 BKN050 OVC085 M03/M04 A2973 RMK AO2,KETB,2021-01-18T03:15:00Z,43.42,-88.13,-3.0,-4.0,290,5,,10.0,29.731298,,,TRUE,TRUE,,,,,,-SN,SCT,2600,BKN,5000,OVC,8500,,,VFR,,,,,,,,,,,,METAR,269.0
KEST 180315Z AUTO 33013KT 10SM BKN016 OVC050 M03/M04 A2980 RMK AO2 T10281044,KEST,2021-01-18T03:15:00Z,43.4,-94.75,-2.8,-4.4,330,13,,10.0,29.799213,,,TRUE,TRUE,,,,,,,BKN,1600,OVC,5000,,,,,MVFR,,,,,,,,,,,,SPECI,401.0
KESN 180315Z AUTO 19003KT 10SM CLR 03/00 A2982 RMK AO2 T00321005,KESN,2021-01-18T03:15:00Z,38.8,-76.07,3.2,-0.5,190,3,,10.0,29.819881,,,TRUE,TRUE,,,,,,,CLR,,,,,,,,VFR,,,,,,,,,,,,METAR,14.0
KERY 180315Z AUTO 31003KT 10SM BKN060 OVC090 M05/M09 A2968 RMK AO2 T10551091,KERY,2021-01-18T03:15:00Z,46.3,-85.45,-5.5,-9.1,310,3,,10.0,29.681103,,,TRUE,TRUE,,,,,,,BKN,6000,OVC,9000,,,,,VFR,,,,,,,,,,,,SPECI,261.0
KERV 180315Z AUTO 00000KT 10SM CLR 07/01 A3011 RMK AO2 T00650007,KERV,2021-01-18T03:15:00Z,29.98,-99.08,6.5,0.7,0,0,,10.0,30.109253,,,TRUE,TRUE,,,,,,,CLR,,,,,,,,VFR,,,,,,,,,,,,METAR,483.0
KEQA 180315Z AUTO 21006KT 10SM CLR 01/M07 A2993 RMK AO2,KEQA,2021-01-18T03:15:00Z,37.78,-96.82,1.0,-7.0,210,6,,10.0,29.929134,,,TRUE,TRUE,,,,,,,CLR,,,,,,,,VFR,,,,,,,,,,,,SPECI,422.0
KEOK 180315Z AUTO 34005KT 10SM OVC022 M00/M02 A2984 RMK AO2,KEOK,2021-01-18T03:15:00Z,40.47,-91.42,0.0,-2.0,340,5,,10.0,29.840551,,,TRUE,TRUE,,,,,,,OVC,2200,,,,,,,MVFR,,,,,,,,,,,,SPECI,206.0
KEOE 180315Z AUTO 20007KT 10SM CLR 02/M01 A2995 RMK AO2,KEOE,2021-01-18T03:15:00Z,34.32,-81.63,2.0,-1.0,200,7,,10.0,29.949802,,,TRUE,TRUE,,,,,,,CLR,,,,,,,,VFR,,,,,,,,,,,,SPECI,166.0
KENL 180315Z AUTO 00000KT 3SM -SN SCT009 BKN025 OVC033 00/M01 A2988 RMK AO2 T00011010,KENL,2021-01-18T03:15:00Z,38.52,-89.1,0.1,-1.0,0,0,,3.0,29.878937,,,TRUE,TRUE,,,,,,-SN,SCT,900,BKN,2500,OVC,3300,,,MVFR,,,,,,,,,,,,METAR,161.0
KEMV 180315Z AUTO 20006KT 10SM CLR 03/M02 A2988 RMK AO2 T00311016,KEMV,2021-01-18T03:15:00Z,36.68,-77.48,3.1,-1.6,200,6,,10.0,29.878937,,,TRUE,TRUE,,,,,,,CLR,,,,,,,,VFR,,,,,,,,,,,,SPECI,35.0
KEMM 180315Z AUTO 28024G29KT 10SM SCT033 SCT040 00/M05 A3004 RMK AO2,KEMM,2021-01-18T03:15:00Z,41.82,-110.55,0.0,-5.0,280,24,29,10.0,30.041338,,,TRUE,TRUE,,,,,,,SCT,3300,SCT,4000,,,,,VFR,,,,,,,,,,,,SPECI,2219.0
KELO 180315Z AUTO 31003KT 4SM -SN BKN018 BKN029 OVC075 M08/M09 A2972 RMK AO2,KELO,2021-01-18T03:15:00Z,47.82,-91.83,-8.0,-9.0,310,3,,4.0,29.719488,,,TRUE,TRUE,,,,,,-SN,BKN,1800,BKN,2900,OVC,7500,,,MVFR,,,,,,,,,,,,METAR,438.0
KELK 180315Z AUTO 23003KT 10SM CLR 03/M07 A3000 RMK AO2 T00261075,KELK,2021-01-18T03:15:00Z,35.43,-99.4,2.6,-7.5,230,3,,10.0,30.0,,,TRUE,TRUE,,,,,,,CLR,,,,,,,,VFR,,,,,,,,,,,,SPECI,603.0
KELA 180315Z AUTO 10SM CLR 08/02 A3012 RMK AO2 T00790024,KELA,2021-01-18T03:15:00Z,29.6,-96.32,7.9,2.4,,,,10.0,30.121063,,,TRUE,TRUE,,,,,,,CLR,,,,,,,,VFR,,,,,,,,,,,,SPECI,56.0
KEKX 180315Z AUTO 27004KT 10SM SCT050 BKN055 BKN075 00/M02 A2986 RMK AO2 T10031025,KEKX,2021-01-18T03:15:00Z,,,-0.3,-2.5,270,4,,10.0,29.861221,,,TRUE,TRUE,,,,,,,SCT,5000,BKN,5500,BKN,7500,,,VFR,,,,,,,,,,,,METAR,
KEKS 180315Z AUTO 00000KT 10SM FEW075 BKN090 M01/M10 A3011 RMK AO2,KEKS,2021-01-18T03:15:00Z,45.27,-111.65,-1.0,-10.0,0,0,,10.0,30.109253,,,TRUE,TRUE,,,,,,,FEW,7500,BKN,9000,,,,,VFR,,,,,,,,,,,,METAR,1636.0
KEIR 180315Z AUTO 24006KT 9SM CLR 14/05 A3014 RMK A01,KEIR,2021-01-18T03:15:00Z,28.63,-91.48,14.0,5.0,240,6,,9.0,30.138779,,,TRUE,TRUE,,,,,,,CLR,,,,,,,,VFR,,,,,,,,,,,,SPECI,28.0
KEIK 180315Z AUTO 04004KT 10SM CLR 04/M07 A2980 RMK AO2 T00371068,KEIK,2021-01-18T03:15:00Z,40.02,-105.05,3.7,-6.8,40,4,,10.0,29.799213,,,TRUE,TRUE,,,,,,,CLR,,,,,,,,VFR,,,,,,,,,,,,METAR,1551.0
KEHY 180315Z AUTO 10SM OVC031 01/M06 A2986 RMK AO2 PWINO,KEHY,2021-01-18T03:15:00Z,41.73,-106.47,1.0,-6.0,,,,10.0,29.861221,,,TRUE,TRUE,,,,,TRUE,,OVC,3100,,,,,,,VFR,,,,,,,,,,,,METAR,2239.0
KEHO 180315Z AUTO 20005KT 10SM SCT060 BKN090 05/M03 A2988 RMK AO2 T00451026,KEHO,2021-01-18T03:15:00Z,35.25,-81.6,4.5,-2.6,200,5,,10.0,29.878937,,,TRUE,TRUE,,,,,,,SCT,6000,BKN,9000,,,,,VFR,,,,,,,,,,,,SPECI,261.0
KEHA 180315Z AUTO 22014KT 10SM CLR 04/M04 A2992 RMK AO2 T00351040,KEHA,2021-01-18T03:15:00Z,37.0,-101.87,3.5,-4.0,220,14,,10.0,29.920275,,,TRUE,TRUE,,,,,,,CLR,,,,,,,,VFR,,,,,,,,,,,,METAR,1103.0
KEGV 180315Z AUTO 35005KT 10SM BKN006 OVC011 M06/M07 A2969 RMK AO2 T10621068,KEGV,2021-01-18T03:15:00Z,45.93,-89.27,-6.2,-6.8,350,5,,10.0,29.68996,,,TRUE,TRUE,,,,,,,BKN,600,OVC,1100,,,,,IFR,,,,,,,,,,,,SPECI,499.0
KEFT 180315Z AUTO 26003KT 10SM OVC024 M02/M04 A2973 RMK AO2 T10241040,KEFT,2021-01-18T03:15:00Z,42.62,-89.6,-2.4,-4.0,260,3,,10.0,29.731298,,,TRUE,TRUE,,,,,,,OVC,2400,,,,,,,MVFR,,,,,,,,,,,,METAR,332.0
KEFK 180315Z AUTO 26015G20KT 7SM OVC012 M03/M04 A2949 RMK AO2 T10281043,KEFK,2021-01-18T03:15:00Z,44.88,-72.23,-2.8,-4.3,260,15,20,7.0,29.489174,,,TRUE,TRUE,,,,,,,OVC,1200,,,,,,,MVFR,,,,,,,,,,,,SPECI,282.0
KEDU 180315Z AUTO 00000KT 10SM CLR 14/07 A3001 RMK AO1,KEDU,2021-01-18T03:15:00Z,38.53,-121.78,14.0,7.0,0,0,,10.0,30.008858,,,TRUE,TRUE,,,,,,,CLR,,,,,,,,VFR,,,,,,,,,,,,METAR,20.0
KEDN 180315Z AUTO 23003KT 10SM CLR 06/01 A3001 RMK AO2 T00550005,KEDN,2021-01-18T03:15:00Z,31.3,-85.9,5.5,0.5,230,3,,10.0,30.008858,,,TRUE,TRUE,,,,,,,CLR,,,,,,,,VFR,,,,,,,,,,,,METAR,103.0
KEDE 180315Z AUTO 25005KT 10SM CLR 07/02 A2990 RMK AO2 T00730015,KEDE,2021-01-18T03:15:00Z,36.03,-76.57,7.3,1.5,250,5,,10.0,29.899607,,,TRUE,TRUE,,,,,,,CLR,,,,,,,,VFR,,,,,,,,,,,,SPECI,4.0
KEDC 180315Z AUTO 00000KT 10SM SCT044 SCT060 10/M02 A3013 RMK AO2,KEDC,2021-01-18T03:15:00Z,30.4,-97.57,10.0,-2.0,0,0,,10.0,30.129921,,,TRUE,TRUE,,,,,,,SCT,4400,SCT,6000,,,,,VFR,,,,,,,,,,,,SPECI,184.0
KECU 180315Z AUTO 13003KT 10SM CLR 10/M01 A3013 RMK AO2,KECU,2021-01-18T03:15:00Z,29.95,-100.17,10.0,-1.0,130,3,,10.0,30.129921,,,TRUE,TRUE,,,,,,,CLR,,,,,,,,VFR,,,,,,,,,,,,METAR,725.0
KECS 180315Z AUTO 33006KT 4SM -SN OVC010 00/00 A2980 RMK AO2,KECS,2021-01-18T03:15:00Z,43.88,-104.32,0.0,0.0,330,6,,4.0,29.799213,,,TRUE,TRUE,,,,,,-SN,OVC,1000,,,,,,,MVFR,,,,,,,,,,,,METAR,1273.0
KEBG 180315Z AUTO 15004KT 10SM CLR 14/12 A3010 RMK AO2 T01370115 TSNO,KEBG,2021-01-18T03:15:00Z,26.45,-98.13,13.7,11.5,150,4,,10.0,30.100393,,,TRUE,TRUE,,,TRUE,,,,CLR,,,,,,,,VFR,,,,,,,,,,,,METAR,21.0
KEAN 180315Z AUTO 29015G24KT 10SM BKN080 BKN090 OVC110 07/M04 A2978 RMK AO2 T00721045,KEAN,2021-01-18T03:15:00Z,42.05,-104.93,7.2,-4.5,290,15,24,10.0,29.778543,,,TRUE,TRUE,,,,,,,BKN,8000,BKN,9000,OVC,11000,,,VFR,,,,,,,,,,,,METAR,1452.0
KE41 180315Z AUTO 12007KT 10SM CLR 07/M03 A3008 RMK AO2 T00671031,KE41,2021-01-18T03:15:00Z,31.2,-101.47,6.7,-3.1,120,7,,10.0,30.079725,,,TRUE,TRUE,,,,,,,CLR,,,,,,,,VFR,,,,,,,,,,,,METAR,825.0
KE38 180315Z AUTO 00000KT 10SM CLR 07/M12 A3015 RMK AO2 T00711121,KE38,2021-01-18T03:15:00Z,30.38,-103.68,7.1,-12.1,0,0,,10.0,30.15059,,,TRUE,TRUE,,,,,,,CLR,,,,,,,,VFR,,,,,,,,,,,,METAR,1372.0
KE16 180315Z AUTO 30003KT 10SM CLR 15/03 A3002 RMK AO2 PWINO PNO,KE16,2021-01-18T03:15:00Z,37.08,-121.6,15.0,3.0,300,3,,10.0,30.02067,,,TRUE,TRUE,,,,,TRUE,,CLR,,,,,,,,VFR,,,,,,,,,,,,METAR,84.0
KE11 180315Z AUTO 14005KT 10SM CLR 04/M04 A3008 RMK AO2 T00401045,KE11,2021-01-18T03:15:00Z,32.33,-102.53,4.0,-4.5,140,5,,10.0,30.079725,,,TRUE,TRUE,,,,,,,CLR,,,,,,,,VFR,,,,,,,,,,,,METAR,966.0
KDZJ 180315Z AUTO 17004KT 10SM SCT070 BKN085 BKN120 02/00 A2989 RMK AO2 T00190000,KDZJ,2021-01-18T03:15:00Z,34.85,-84.0,1.9,0.0,170,4,,10.0,29.890747,,,TRUE,TRUE,,,,,,,SCT,7000,BKN,8500,BKN,12000,,,VFR,,,,,,,,,,,,METAR,578.0
KDYT 180315Z AUTO 29006KT 10SM OVC019 M05/M08 A2979 RMK AO2,KDYT,2021-01-18T03:15:00Z,46.72,-92.03,-5.0,-8.0,290,6,,10.0,29.790354,,,TRUE,TRUE,,,,,,,OVC,1900,,,,,,,MVFR,,,,,,,,,,,,METAR,185.0
KDYB 180315Z AUTO 00000KT 10SM CLR 04/02 A2998 RMK AO2,KDYB,2021-01-18T03:15:00Z,33.07,-80.28,4.0,2.0,0,0,,10.0,29.97933,,,TRUE,TRUE,,,,,,,CLR,,,,,,,,VFR,,,,,,,,,,,,SPECI,15.0
KDXX 180315Z AUTO 35005KT 10SM BKN022 OVC040 M03/M06 A2986 RMK AO2 PWINO,KDXX,2021-01-18T03:15:00Z,44.98,-96.18,-3.0,-6.0,350,5,,10.0,29.861221,,,TRUE,TRUE,,,,,TRUE,,BKN,2200,OVC,4000,,,,,MVFR,,,,,,,,,,,,SPECI,327.0
KDWX 180315Z AUTO 17011KT 10SM OVC046 01/M06 A3001 RMK AO2 T00101065,KDWX,2021-01-18T03:15:00Z,41.03,-107.5,1.0,-6.5,170,11,,10.0,30.008858,,,TRUE,TRUE,,,,,,,OVC,4600,,,,,,,VFR,,,,,,,,,,,,METAR,1974.0
KDWA 180315Z AUTO 00000KT 10SM CLR 13/06 A3002 RMK AO2,KDWA,2021-01-18T03:15:00Z,38.58,-121.85,13.0,6.0,0,0,,10.0,30.02067,,,TRUE,TRUE,,,,,,,CLR,,,,,,,,VFR,,,,,,,,,,,,METAR,28.0
KDVO 180315Z AUTO 00000KT 10SM CLR 09/07 A3001 RMK AO2,KDVO,2021-01-18T03:15:00Z,38.15,-122.55,9.0,7.0,0,0,,10.0,30.008858,,,TRUE,TRUE,,,,,,,CLR,,,,,,,,VFR,,,,,,,,,,,,METAR,1.0
KDVK 180315Z AUTO 00000KT 10SM BKN060 OVC075 00/M03 A2986 RMK AO2,KDVK,2021-01-18T03:15:00Z,37.58,-84.77,0.0,-3.0,0,0,,10.0,29.861221,,,TRUE,TRUE,,,,,,,BKN,6000,OVC,7500,,,,,VFR,,,,,,,,,,,,METAR,309.0
KDUX 180315Z AUTO 19010KT 10SM CLR 00/M08 A2997 RMK AO2 T00041083,KDUX,2021-01-18T03:15:00Z,35.85,-102.02,0.4,-8.3,190,10,,10.0,29.970472,,,TRUE,TRUE,,,,,,,CLR,,,,,,,,VFR,,,,,,,,,,,,METAR,1129.0
KDUH 180315Z AUTO 25007KT 7SM -SN SCT013 BKN020 OVC025 M01/M02 A2970 RMK AO2 T10061020,KDUH,2021-01-18T03:15:00Z,41.73,-83.65,-0.6,-2.0,250,7,,7.0,29.698818,,,TRUE,TRUE,,,,,,-SN,SCT,1300,BKN,2000,OVC,2500,,,MVFR,,,,,,,,,,,,SPECI,203.0
KDUC 180315Z AUTO 00000KT 10SM CLR 03/M07 A3007 RMK AO2 T00341066,KDUC,2021-01-18T03:15:00Z,34.47,-97.97,3.4,-6.6,0,0,,10.0,30.070866,,,TRUE,TRUE,,,,,,,CLR,,,,,,,,VFR,,,,,,,,,,,,METAR,339.0
KDUB 180315Z AUTO 31015G19KT 10SM SCT030 SCT036 SCT043 M01/M06 A2996 RMK AO2,KDUB,2021-01-18T03:15:00Z,43.55,-109.68,-1.0,-6.0,310,15,19,10.0,29.958662,,,TRUE,TRUE,,,,,,,SCT,3000,SCT,3600,SCT,4300,,,VFR,,,,,,,,,,,,METAR,2205.0
KDUA 180315Z AUTO 00000KT 10SM CLR 04/M01 A3008 RMK AO2,KDUA,2021-01-18T03:15:00Z,33.95,-96.4,4.0,-1.0,0,0,,10.0,30.079725,,,TRUE,TRUE,,,,,,,CLR,,,,,,,,VFR,,,,,,,,,,,,SPECI,209.0
KDTL 180315Z AUTO 33013KT 10SM -SN OVC014 M09/M10 A2982 RMK AO2,KDTL,2021-01-18T03:15:00Z,46.82,-95.88,-9.0,-10.0,330,13,,10.0,29.819881,,,TRUE,TRUE,,,,,,-SN,OVC,1400,,,,,,,MVFR,,,,,,,,,,,,SPECI,425.0
KDSF 180315Z AUTO 28011G17KT 10SM CLR 16/06 A3010 RMK A01,KDSF,2021-01-18T03:15:00Z,28.35,-88.27,16.0,6.0,280,11,17,10.0,30.100393,,,TRUE,TRUE,,,,,,,CLR,,,,,,,,VFR,,,,,,,,,,,,METAR,40.0
KDRM 180315Z AUTO 04003KT 10SM OVC100 M04/M09 A2968 RMK AO2 T10401095,KDRM,2021-01-18T03:15:00Z,46.0,-83.75,-4.0,-9.5,40,3,,10.0,29.681103,,,TRUE,TRUE,,,,,,,OVC,10000,,,,,,,VFR,,,,,,,,,,,,METAR,201.0
KDRI 180315Z AUTO 00000KT 10SM CLR 05/01 A3013 RMK AO2 T00540006,KDRI,2021-01-18T03:15:00Z,30.83,-93.33,5.4,0.6,0,0,,10.0,30.129921,,,TRUE,TRUE,,,,,,,CLR,,,,,,,,VFR,,,,,,,,,,,,SPECI,59.0
KDQH 180315Z AUTO 24003KT 10SM CLR 05/00 A3003 RMK AO2 T00450000,KDQH,2021-01-18T03:15:00Z,31.48,-82.87,4.5,0.0,240,3,,10.0,30.029528,,,TRUE,TRUE,,,,,,,CLR,,,,,,,,VFR,,,,,,,,,,,,METAR,76.0
KDNV 180315Z AUTO 27012G17KT 5SM -SN OVC008 M01/M02 A2981 RMK AO2 T10151025,KDNV,2021-01-18T03:15:00Z,40.2,-87.6,-1.5,-2.5,270,12,17,5.0,29.811024,,,TRUE,TRUE,,,,,,-SN,OVC,800,,,,,,,IFR,,,,,,,,,,,,METAR,208.0
KDNS 180315Z AUTO 00000KT 10SM FEW039 OVC050 M03/M03 A2985 RMK AO2,KDNS,2021-01-18T03:15:00Z,41.98,-95.37,-3.0,-3.0,0,0,,10.0,29.84941,,,TRUE,TRUE,,,,,,,FEW,3900,OVC,5000,,,,,VFR,,,,,,,,,,,,METAR,382.0
KDNN 180315Z AUTO 00000KT 10SM CLR 08/M05 A2991 RMK AO2,KDNN,2021-01-18T03:15:00Z,34.72,-84.87,8.0,-5.0,0,0,,10.0,29.911417,,,TRUE,TRUE,,,,,,,CLR,,,,,,,,VFR,,,,,,,,,,,,METAR,216.0
KDNA 180315Z AUTO 00000KT 10SM CLR 12/M13 A3007 RMK AO2,KDNA,2021-01-18T03:15:00Z,31.88,-106.7,12.0,-13.0,0,0,,10.0,30.070866,,,TRUE,TRUE,,,,,,,CLR,,,,,,,,VFR,,,,,,,,,,,,METAR,1254.0
KDMW 180315Z AUTO 00000KT 10SM BKN070 OVC095 04/M01 A2973 RMK AO2,KDMW,2021-01-18T03:15:00Z,39.6,-77.0,4.0,-1.0,0,0,,10.0,29.731298,,,TRUE,TRUE,,,,,,,BKN,7000,OVC,9500,,,,,VFR,,,,,,,,,,,,METAR,239.0
KDLZ 180315Z AUTO 27003KT 10SM SCT014 OVC075 M01/M02 A2974 RMK AO2,KDLZ,2021-01-18T03:15:00Z,40.28,-83.12,-1.0,-2.0,270,3,,10.0,29.740158,,,TRUE,TRUE,,,,,,,SCT,1400,OVC,7500,,,,,VFR,,,,,,,,,,,,METAR,287.0
KDLO 180315Z AUTO 00000KT 10SM CLR 10/03 A3001 RMK AO2 T01020026,KDLO,2021-01-18T03:15:00Z,35.75,-119.23,10.2,2.6,0,0,,10.0,30.008858,,,TRUE,TRUE,,,,,,,CLR,,,,,,,,VFR,,,,,,,,,,,,METAR,97.0
KDKX 180315Z AUTO 25008KT 10SM BKN065 BKN075 OVC090 06/M02 A2986 RMK A01,KDKX,2021-01-18T03:15:00Z,35.97,-83.87,6.0,-2.0,250,8,,10.0,29.861221,,,TRUE,TRUE,,,,,,,BKN,6500,BKN,7500,OVC,9000,,,VFR,,,,,,,,,,,,SPECI,253.0
KDKB 180315Z AUTO 28008KT 4SM -SN SCT028 BKN036 OVC044 M03/M03 A2977 RMK AO2 T10301035,KDKB,2021-01-18T03:15:00Z,41.93,-88.7,-3.0,-3.5,280,8,,4.0,29.769686,,,TRUE,TRUE,,,,,,-SN,SCT,2800,BKN,3600,OVC,4400,,,MVFR,,,,,,,,,,,,METAR,277.0
KDEH 180315Z AUTO VRB04KT 10SM OVC016 M06/M06 A2977 RMK AO2,KDEH,2021-01-18T03:15:00Z,43.27,-91.73,-6.0,-6.0,0,4,,10.0,29.769686,,,TRUE,TRUE,,,,,,,OVC,1600,,,,,,,MVFR,,,,,,,,,,,,SPECI,348.0
KDED 180315Z AUTO 24003KT 10SM CLR 11/07 A3008 RMK AO2 T01120069,KDED,2021-01-18T03:15:00Z,29.07,-81.28,11.2,6.9,240,3,,10.0,30.079725,,,TRUE,TRUE,,,,,,,CLR,,,,,,,,VFR,,,,,,,,,,,,METAR,21.0
KDCY 180315Z AUTO 26007KT 10SM SCT044 SCT050 OVC090 M01/M02 A2985 RMK AO2 T10101025,KDCY,2021-01-18T03:15:00Z,38.7,-87.13,-1.0,-2.5,260,7,,10.0,29.84941,,,TRUE,TRUE,,,,,,,SCT,4400,SCT,5000,OVC,9000,,,VFR,,,,,,,,,,,,METAR,143.0
KDCM 180315Z AUTO 00000KT 10SM CLR 01/M03 A2992 RMK AO2,KDCM,2021-01-18T03:15:00Z,34.78,-81.2,1.0,-3.0,0,0,,10.0,29.920275,,,TRUE,TRUE,,,,,,,CLR,,,,,,,,VFR,,,,,,,,,,,,SPECI,191.0
KDBN 180315Z AUTO 00000KT 10SM CLR 03/00 A3001 RMK AO2,KDBN,2021-01-18T03:15:00Z,32.57,-82.98,3.0,0.0,0,0,,10.0,30.008858,,,TRUE,TRUE,,,,,,,CLR,,,,,,,,VFR,,,,,,,,,,,,METAR,90.0
KD95 180315Z AUTO 00000KT 4SM -SN OVC011 M01/M01 A2967 RMK AO2 T10071007,KD95,2021-01-18T03:15:00Z,43.07,-83.27,-0.7,-0.7,0,0,,4.0,29.66929,,,TRUE,TRUE,,,,,,-SN,OVC,1100,,,,,,,MVFR,,,,,,,,,,,,METAR,253.0
KD73 180315Z AUTO 33003KT 10SM CLR 05/M02 A2993 RMK AO2 T00451017,KD73,2021-01-18T03:15:00Z,33.78,-83.7,4.5,-1.7,330,3,,10.0,29.929134,,,TRUE,TRUE,,,,,,,CLR,,,,,,,,VFR,,,,,,,,,,,,METAR,254.0
KD60 180315Z AUTO 30003KT 3SM BR CLR M05/M04 A2978 RMK AO2,KD60,2021-01-18T03:15:00Z,48.38,-102.9,-5.0,-4.0,300,3,,3.0,29.778543,,,TRUE,TRUE,,,,,,BR,CLR,,,,,,,,MVFR,,,,,,,,,,,,SPECI,682.0
KD57 180315Z AUTO 00000KT 4SM -UP OVC004 M04/M06 A2978 RMK AO2,KD57,2021-01-18T03:15:00Z,46.82,-101.87,-4.0,-6.0,0,0,,4.0,29.778543,,,TRUE,TRUE,,,,,,UP,OVC,400,,,,,,,LIFR,,,,,,,,,,,,SPECI,636.0
KD55 180315Z AUTO 05003KT 10SM SCT005 OVC010 M10/M10 A2982 RMK AO2,KD55,2021-01-18T03:15:00Z,48.75,-98.4,-10.0,-10.0,50,3,,10.0,29.819881,,,TRUE,TRUE,,,,,,,SCT,500,OVC,1000,,,,,MVFR,,,,,,,,,,,,METAR,488.0
KD39 180315Z AUTO 32011KT 10SM OVC018 M05/M08 A2980 RMK AO2 T10551083,KD39,2021-01-18T03:15:00Z,45.7,-94.93,-5.5,-8.3,320,11,,10.0,29.799213,,,TRUE,TRUE,,,,,,,OVC,1800,,,,,,,MVFR,,,,,,,,,,,,METAR,378.0
KD25 180315Z AUTO 28004KT 5SM -SN OVC008 M06/M06 A2970 RMK AO2 T10631063,KD25,2021-01-18T03:15:00Z,46.12,-89.88,-6.3,-6.3,280,4,,5.0,29.698818,,,TRUE,TRUE,,,,,,-SN,OVC,800,,,,,,,IFR,,,,,,,,,,,,METAR,490.0
KCZT 180315Z AUTO 00000KT 10SM CLR 08/04 A3008 RMK AO2,KCZT,2021-01-18T03:15:00Z,28.52,-99.82,8.0,4.0,0,0,,10.0,30.079725,,,TRUE,TRUE,,,,,,,CLR,,,,,,,,VFR,,,,,,,,,,,,METAR,176.0
KCZL 180315Z AUTO 00000KT 10SM SCT075 BKN085 04/00 A2993 RMK AO2,KCZL,2021-01-18T03:15:00Z,34.47,-84.93,4.0,0.0,0,0,,10.0,29.929134,,,TRUE,TRUE,,,,,,,SCT,7500,BKN,8500,,,,,VFR,,,,,,,,,,,,SPECI,197.0
KCYD 180315Z AUTO 29013KT 10SM CLR 17/05 A3013 RMK A02 TSNO T01660052,KCYD,2021-01-18T03:15:00Z,28.17,-89.22,16.6,5.2,290,13,,10.0,30.129921,,,TRUE,TRUE,,,TRUE,,,,CLR,,,,,,,,VFR,,,,,,,,,,,,METAR,30.0
KCXW 180315Z AUTO 25007KT 10SM BKN036 BKN042 04/M02 A3000 RMK A01,KCXW,2021-01-18T03:15:00Z,35.02,-92.55,4.0,-2.0,250,7,,10.0,30.0,,,TRUE,TRUE,,,,,,,BKN,3600,BKN,4200,,,,,VFR,,,,,,,,,,,,SPECI,84.0
KCXU 180315Z AUTO 21003KT 10SM CLR 06/01 A3003 RMK AO1 T00600011,KCXU,2021-01-18T03:15:00Z,31.22,-84.23,6.0,1.1,210,3,,10.0,30.029528,,,TRUE,TRUE,,,,,,,CLR,,,,,,,,VFR,,,,,,,,,,,,SPECI,48.0
KCXP 180315Z AUTO 00000KT 10SM CLR 08/M06 A3023 RMK AO2,KCXP,2021-01-18T03:15:00Z,39.18,-119.73,8.0,-6.0,0,0,,10.0,30.230314,,,TRUE,TRUE,,,,,,,CLR,,,,,,,,VFR,,,,,,,,,,,,METAR,1431.0
KCXE 180315Z AUTO 00000KT 10SM OVC080 03/M02 A2984 RMK AO1 T00341019,KCXE,2021-01-18T03:15:00Z,36.78,-78.5,3.4,-1.9,0,0,,10.0,29.840551,,,TRUE,TRUE,,,,,,,OVC,8000,,,,,,,VFR,,,,,,,,,,,,SPECI,154.0
KCWV 180315Z AUTO 00000KT 10SM CLR 04/02 A3000 RMK AO2 T00370022,KCWV,2021-01-18T03:15:00Z,32.2,-81.87,3.7,2.2,0,0,,10.0,30.0,,,TRUE,TRUE,,,,,,,CLR,,,,,,,,VFR,,,,,,,,,,,,METAR,32.0
KCWC 180315Z AUTO 22005KT 10SM CLR 07/M04 A3008 RMK AO2 T00731044,KCWC,2021-01-18T03:15:00Z,33.85,-98.48,7.3,-4.4,220,5,,10.0,30.079725,,,TRUE,TRUE,,,,,,,CLR,,,,,,,,VFR,,,,,,,,,,,,METAR,304.0
KCVX 180315Z AUTO 35005KT 10SM SCT025 SCT050 OVC090 M02/M06 A2969 RMK AO2 T10161059,KCVX,2021-01-18T03:15:00Z,45.3,-85.27,-1.6,-5.9,350,5,,10.0,29.68996,,,TRUE,TRUE,,,,,,,SCT,2500,SCT,5000,OVC,9000,,,VFR,,,,,,,,,,,,SPECI,196.0
KCVH 180315Z AUTO 00000KT 10SM CLR 16/04 A3002 RMK A01,KCVH,2021-01-18T03:15:00Z,36.9,-121.42,16.0,4.0,0,0,,10.0,30.02067,,,TRUE,TRUE,,,,,,,CLR,,,,,,,,VFR,,,,,,,,,,,,METAR,68.0
KCVG 180315Z 25006KT 8SM -SN FEW011 BKN038 OVC070 M01/M03 A2979 RMK AO2 SNB14 P0000 T10061028 $,KCVG,2021-01-18T03:15:00Z,39.05,-84.67,-0.6,-2.8,250,6,,8.0,29.790354,,,,TRUE,TRUE,,,,,-SN,FEW,1100,BKN,3800,OVC,7000,,,VFR,,,,,,0.005,,,,,,SPECI,264.0
KCVC 180315Z AUTO 00000KT 10SM CLR 04/M01 A2992 RMK AO2,KCVC,2021-01-18T03:15:00Z,33.63,-83.85,4.0,-1.0,0,0,,10.0,29.920275,,,TRUE,TRUE,,,,,,,CLR,,,,,,,,VFR,,,,,,,,,,,,SPECI,240.0
KCVB 180315Z AUTO 00000KT 10SM CLR 11/04 A3011 RMK AO2 T01050040,KCVB,2021-01-18T03:15:00Z,29.35,-98.85,10.5,4.0,0,0,,10.0,30.109253,,,TRUE,TRUE,,,,,,,CLR,,,,,,,,VFR,,,,,,,,,,,,SPECI,234.0
KCUL 180315Z AUTO 27006KT 10SM -SN SCT011 BKN019 OVC038 00/M01 A2989 RMK AO2,KCUL,2021-01-18T03:15:00Z,38.08,-88.12,0.0,-1.0,270,6,,10.0,29.890747,,,TRUE,TRUE,,,,,,-SN,SCT,1100,BKN,1900,OVC,3800,,,MVFR,,,,,,,,,,,,METAR,116.0
KCUH 180315Z AUTO 00000KT 10SM CLR 00/M05 A3001 RMK AO2 T10011055,KCUH,2021-01-18T03:15:00Z,35.95,-96.77,-0.1,-5.5,0,0,,10.0,30.008858,,,TRUE,TRUE,,,,,,,CLR,,,,,,,,VFR,,,,,,,,,,,,METAR,274.0
KCTZ 180315Z AUTO 00000KT 10SM CLR 02/00 A2993 RMK AO2 T00240000,KCTZ,2021-01-18T03:15:00Z,34.98,-78.37,2.4,0.0,0,0,,10.0,29.929134,,,TRUE,TRUE,,,,,,,CLR,,,,,,,,VFR,,,,,,,,,,,,SPECI,43.0
KCTY 180315Z AUTO 00000KT 10SM CLR 05/03 A3007 RMK AO2 T00460035,KCTY,2021-01-18T03:15:00Z,29.63,-83.1,4.6,3.5,0,0,,10.0,30.070866,,,TRUE,TRUE,,,,,,,CLR,,,,,,,,VFR,,,,,,,,,,,,METAR,12.0
KCTJ 180315Z AUTO 00000KT 10SM SCT060 SCT080 SCT100 01/M03 A2995 RMK AO2 T00111034,KCTJ,2021-01-18T03:15:00Z,33.63,-85.15,1.1,-3.4,0,0,,10.0,29.949802,,,TRUE,TRUE,,,,,,,SCT,6000,SCT,8000,SCT,10000,,,VFR,,,,,,,,,,,,METAR,351.0
KCSQ 180315Z AUTO 29006KT 10SM OVC047 M02/M02 A2985 RMK AO2,KCSQ,2021-01-18T03:15:00Z,41.02,-94.37,-2.0,-2.0,290,6,,10.0,29.84941,,,TRUE,TRUE,,,,,,,OVC,4700,,,,,,,VFR,,,,,,,,,,,,SPECI,394.0
KCRX 180315Z AUTO 23004KT 10SM CLR 03/M04 A2995 RMK AO2,KCRX,2021-01-18T03:15:00Z,34.92,-88.6,3.0,-4.0,230,4,,10.0,29.949802,,,TRUE,TRUE,,,,,,,CLR,,,,,,,,VFR,,,,,,,,,,,,SPECI,128.0
KCQW 180315Z AUTO 23003KT 10SM CLR 02/M01 A2992 RMK AO2,KCQW,2021-01-18T03:15:00Z,34.72,-79.95,2.0,-1.0,230,3,,10.0,29.920275,,,TRUE,TRUE,,,,,,,CLR,,,,,,,,VFR,,,,,,,,,,,,SPECI,67.0
KCQF 180315Z AUTO 24004KT 10SM CLR 10/06 A3006 RMK AO2,KCQF,2021-01-18T03:15:00Z,30.47,-87.88,10.0,6.0,240,4,,10.0,30.059055,,,TRUE,TRUE,,,,,,,CLR,,,,,,,,VFR,,,,,,,,,,,,METAR,21.0
KCQB 180315Z AUTO 22005KT 10SM CLR 04/M07 A3003 RMK AO2 T00381075,KCQB,2021-01-18T03:15:00Z,35.72,-96.82,3.8,-7.5,220,5,,10.0,30.029528,,,TRUE,TRUE,,,,,,,CLR,,,,,,,,VFR,,,,,,,,,,,,METAR,298.0
KCPW 180315Z AUTO 25010KT 10SM CLR M06/M13 A3018 RMK AO2,KCPW,2021-01-18T03:15:00Z,37.45,-106.8,-6.0,-13.0,250,10,,10.0,30.180119,,,TRUE,TRUE,,,,,,,CLR,,,,,,,,VFR,,,,,,,,,,,,METAR,3570.0
KCPU 180315Z AUTO 00000KT 10SM CLR 14/09 A3004 RMK AO2 T01400087,KCPU,2021-01-18T03:15:00Z,38.15,-120.65,14.0,8.7,0,0,,10.0,30.041338,,,TRUE,TRUE,,,,,,,CLR,,,,,,,,VFR,,,,,,,,,,,,METAR,400.0
KCPT 180315Z AUTO 30004KT 10SM 07/M05 A3011 RMK A01,KCPT,2021-01-18T03:15:00Z,32.35,-97.43,7.0,-5.0,300,4,,10.0,30.109253,,,TRUE,TRUE,,,,,,,,,,,,,,,,,,,,,,,,,,,METAR,260.0
KCPK 180315Z AUTO 00000KT 10SM CLR 00/M01 A2988 RMK AO2 T00001010,KCPK,2021-01-18T03:15:00Z,36.67,-76.32,0.0,-1.0,0,0,,10.0,29.878937,,,TRUE,TRUE,,,,,,,CLR,,,,,,,,VFR,,,,,,,,,,,,SPECI,4.0
KCPF 180315Z AUTO 25004KT 10SM SCT004 BKN009 OVC031 00/00 A2983 RMK AO2,KCPF,2021-01-18T03:15:00Z,37.38,-83.27,0.0,0.0,250,4,,10.0,29.828741,,,TRUE,TRUE,,,,,,,SCT,400,BKN,900,OVC,3100,,,IFR,,,,,,,,,,,,METAR,382.0
KCPC 180315Z AUTO 00000KT 10SM CLR 04/00 A2996 RMK AO2 T00350002,KCPC,2021-01-18T03:15:00Z,34.28,-78.72,3.5,0.2,0,0,,10.0,29.958662,,,TRUE,TRUE,,,,,,,CLR,,,,,,,,VFR,,,,,,,,,,,,SPECI,27.0
KCOQ 180315Z AUTO 30004KT 10SM -SN SCT060 OVC075 M08/M10 A2974 RMK AO2 TSNO,KCOQ,2021-01-18T03:15:00Z,46.7,-92.5,-8.0,-10.0,300,4,,10.0,29.740158,,,TRUE,TRUE,,,TRUE,,,-SN,SCT,6000,OVC,7500,,,,,VFR,,,,,,,,,,,,SPECI,390.0
KCOM 180315Z AUTO 00000KT 10SM CLR 06/M04 A3011 RMK AO2 T00551038,KCOM,2021-01-18T03:15:00Z,31.83,-99.4,5.5,-3.8,0,0,,10.0,30.109253,,,TRUE,TRUE,,,,,,,CLR,,,,,,,,VFR,,,,,,,,,,,,METAR,516.0
KCNI 180315Z AUTO 24006KT 10SM SCT027 SCT046 BKN090 06/M03 A2991 RMK AO2,KCNI,2021-01-18T03:15:00Z,34.32,-84.42,6.0,-3.0,240,6,,10.0,29.911417,,,TRUE,TRUE,,,,,,,SCT,2700,SCT,4600,BKN,9000,,,VFR,,,,,,,,,,,,METAR,371.0
KCNC 180315Z AUTO 27006KT 10SM OVC022 M01/M01 A2984 RMK AO2,KCNC,2021-01-18T03:15:00Z,41.02,-93.37,-1.0,-1.0,270,6,,10.0,29.840551,,,TRUE,TRUE,,,,,,,OVC,2200,,,,,,,MVFR,,,,,,,,,,,,METAR,319.0
KCNB 180315Z AUTO 27003KT 10SM SCT018 SCT024 OVC042 M03/M05 A2985 RMK AO2 T10301053,KCNB,2021-01-18T03:15:00Z,44.73,-96.27,-3.0,-5.3,270,3,,10.0,29.84941,,,TRUE,TRUE,,,,,,,SCT,1800,SCT,2400,OVC,4200,,,VFR,,,,,,,,,,,,METAR,363.0
KCMY 180315Z AUTO 30003KT 10SM M02/M06 A2977 RMK AO2 T10251062,KCMY,2021-01-18T03:15:00Z,43.97,-90.73,-2.5,-6.2,300,3,,10.0,29.769686,,,TRUE,TRUE,,,,,,,,,,,,,,,,,,,,,,,,,,,SPECI,253.0
KCMR 180315Z AUTO 16006KT 10SM CLR M00/M27 A3015 RMK AO2,KCMR,2021-01-18T03:15:00Z,35.3,-112.2,0.0,-27.0,160,6,,10.0,30.15059,,,TRUE,TRUE,,,,,,,CLR,,,,,,,,VFR,,,,,,,,,,,,METAR,2039.0
KCMD 180315Z AUTO 00000KT 10SM CLR 04/M06 A2997 RMK AO2 T00351065,KCMD,2021-01-18T03:15:00Z,34.27,-86.85,3.5,-6.5,0,0,,10.0,29.970472,,,TRUE,TRUE,,,,,,,CLR,,,,,,,,VFR,,,,,,,,,,,,SPECI,294.0
KCLW 180315Z AUTO 00000KT 10SM 12/07 A3008 RMK AO2,KCLW,2021-01-18T03:15:00Z,27.98,-82.75,12.0,7.0,0,0,,10.0,30.079725,,,TRUE,TRUE,,,,,,,,,,,,,,,,,,,,,,,,,,,METAR,21.0
KCLS 180315Z AUTO 00000KT 10SM OVC042 09/09 A3052 RMK AO2,KCLS,2021-01-18T03:15:00Z,46.68,-122.98,9.0,9.0,0,0,,10.0,30.519686,,,TRUE,TRUE,,,,,,,OVC,4200,,,,,,,VFR,,,,,,,,,,,,METAR,52.0
KCLK 180315Z AUTO 17003KT 10SM CLR 02/M08 A3003 RMK AO2 PNO TSNO,KCLK,2021-01-18T03:15:00Z,35.53,-98.93,2.0,-8.0,170,3,,10.0,30.029528,,,TRUE,TRUE,,,TRUE,,,,CLR,,,,,,,,VFR,,,,,,,,,,,,METAR,489.0
KCLI 180315Z AUTO 34004KT 10SM OVC029 M02/M07 A2973 RMK AO2 T10221070,KCLI,2021-01-18T03:15:00Z,44.62,-88.73,-2.2,-7.0,340,4,,10.0,29.731298,,,TRUE,TRUE,,,,,,,OVC,2900,,,,,,,MVFR,,,,,,,,,,,,METAR,248.0
KCKZ 180315Z AUTO 00000KT 10SM FEW040 SCT050 OVC075 03/M03 A2973 RMK AO2,KCKZ,2021-01-18T03:15:00Z,40.38,-75.28,3.0,-3.0,0,0,,10.0,29.731298,,,TRUE,TRUE,,,,,,,FEW,4000,SCT,5000,OVC,7500,,,VFR,,,,,,,,,,,,SPECI,160.0
KCKP 180315Z AUTO 31004KT 10SM SCT044 M01/M04 A2983 RMK AO2 T10091042,KCKP,2021-01-18T03:15:00Z,42.73,-95.55,-0.9,-4.2,310,4,,10.0,29.828741,,,TRUE,TRUE,,,,,,,SCT,4400,,,,,,,VFR,,,,,,,,,,,,METAR,369.0
KCKN 180315Z AUTO 35008KT 10SM SCT015 BKN070 M11/M13 A2988 RMK AO2,KCKN,2021-01-18T03:15:00Z,47.85,-96.62,-11.0,-13.0,350,8,,10.0,29.878937,,,TRUE,TRUE,,,,,,,SCT,1500,BKN,7000,,,,,VFR,,,,,,,,,,,,METAR,272.0
KCKM 180315Z AUTO 23005KT 10SM 05/M03 A3001 RMK A01,KCKM,2021-01-18T03:15:00Z,34.3,-90.52,5.0,-3.0,230,5,,10.0,30.008858,,,TRUE,TRUE,,,,,,,,,,,,,,,,,,,,,,,,,,,SPECI,52.0
KCKI 180315Z AUTO 00000KT 10SM CLR 00/00 A2997 RMK AO2,KCKI,2021-01-18T03:15:00Z,33.72,-79.85,0.0,0.0,0,0,,10.0,29.970472,,,TRUE,TRUE,,,,,,,CLR,,,,,,,,VFR,,,,,,,,,,,,SPECI,19.0
KCKF 180315Z AUTO 21004KT 10SM CLR 06/M01 A3001 RMK AO2 T00601007,KCKF,2021-01-18T03:15:00Z,31.98,-83.77,6.0,-0.7,210,4,,10.0,30.008858,,,TRUE,TRUE,,,,,,,CLR,,,,,,,,VFR,,,,,,,,,,,,METAR,92.0
KCKC 180315Z AUTO 00000KT 10SM BKN006 OVC012 M09/M12 A2968 RMK AO2,KCKC,2021-01-18T03:15:00Z,47.83,-90.38,-9.0,-12.0,0,0,,10.0,29.681103,,,TRUE,TRUE,,,,,,,BKN,600,OVC,1200,,,,,IFR,,,,,,,,,,,,SPECI,544.0
KCJR 180315Z AUTO 00000KT 10SM SCT075 02/M02 A2979 RMK AO2 T00201025,KCJR,2021-01-18T03:15:00Z,38.53,-77.87,2.0,-2.5,0,0,,10.0,29.790354,,,TRUE,TRUE,,,,,,,SCT,7500,,,,,,,VFR,,,,,,,,,,,,SPECI,90.0
KCIR 180315Z 10SM SCT031 BKN040 BKN060 02/M01 A2993 RMK AO2 T00201008,KCIR,2021-01-18T03:15:00Z,37.07,-89.22,2.0,-0.8,,,,10.0,29.929134,,,,TRUE,,,,,,,SCT,3100,BKN,4000,BKN,6000,,,VFR,,,,,,,,,,,,METAR,96.0
KCIN 180315Z AUTO 27009KT 10SM SCT044 BKN050 M03/M03 A2982 RMK AO2,KCIN,2021-01-18T03:15:00Z,42.03,-94.78,-3.0,-3.0,270,9,,10.0,29.819881,,,TRUE,TRUE,,,,,,,SCT,4400,BKN,5000,,,,,VFR,,,,,,,,,,,,SPECI,365.0
KCHK 180315Z AUTO 18004KT 10SM CLR 01/M07 A3001 RMK AO2,KCHK,2021-01-18T03:15:00Z,35.1,-97.97,1.0,-7.0,180,4,,10.0,30.008858,,,TRUE,TRUE,,,,,,,CLR,,,,,,,,VFR,,,,,,,,,,,,METAR,346.0
KCGS 180315Z AUTO 20003KT 10SM OVC085 05/M04 A2977 RMK AO1 T00511036,KCGS,2021-01-18T03:15:00Z,38.98,-76.92,5.1,-3.6,200,3,,10.0,29.769686,,,TRUE,TRUE,,,,,,,OVC,8500,,,,,,,VFR,,,,,,,,,,,,SPECI,15.0
KCGE 180315Z AUTO 20004KT 10SM SCT065 OVC080 05/M01 A2980 RMK A01,KCGE,2021-01-18T03:15:00Z,38.53,-76.03,5.0,-1.0,200,4,,10.0,29.799213,,,TRUE,TRUE,,,,,,,SCT,6500,OVC,8000,,,,,VFR,,,,,,,,,,,,SPECI,5.0
KCGC 180315Z AUTO 00000KT 10SM CLR 06/05 A3009 RMK AO2,KCGC,2021-01-18T03:15:00Z,28.87,-82.57,6.0,5.0,0,0,,10.0,30.088583,,,TRUE,TRUE,,,,,,,CLR,,,,,,,,VFR,,,,,,,,,,,,METAR,3.0
KCFS 180315Z AUTO 25003KT 3SM -SN M01/M01 A2966 RMK AO2 SKY OBSCURED T10061012,KCFS,2021-01-18T03:15:00Z,43.47,-83.45,-0.6,-1.2,250,3,,3.0,29.660433,,,TRUE,TRUE,,,,,,-SN,,,,,,,,,,,,,,,,,,,,,SPECI,214.0
KCFJ 180315Z AUTO 26010G15KT 10SM -SN OVC012 M03/M04 A2979 RMK AO2 T10281045,KCFJ,2021-01-18T03:15:00Z,39.98,-86.92,-2.8,-4.5,260,10,15,10.0,29.790354,,,TRUE,TRUE,,,,,,-SN,OVC,1200,,,,,,,MVFR,,,,,,,,,,,,METAR,243.0
KCFE 180315Z 7SM BKN018 BKN023 OVC065 M06/M07 A2982 RMK AO2 T10591075,KCFE,2021-01-18T03:15:00Z,45.17,-93.85,-5.9,-7.5,,,,7.0,29.819881,,,,TRUE,,,,,,,BKN,1800,BKN,2300,OVC,6500,,,MVFR,,,,,,,,,,,,SPECI,292.0
KCFD 180315Z AUTO 00000KT 10SM CLR 07/M01 A3013 RMK AO2 T00721015,KCFD,2021-01-18T03:15:00Z,30.72,-96.33,7.2,-1.5,0,0,,10.0,30.129921,,,TRUE,TRUE,,,,,,,CLR,,,,,,,,VFR,,,,,,,,,,,,METAR,106.0
KCEY 180315Z AUTO 30006KT 9SM FEW006 SCT015 OVC020 02/00 A2992 RMK AO1,KCEY,2021-01-18T03:15:00Z,36.67,-88.37,2.0,0.0,300,6,,9.0,29.920275,,,TRUE,TRUE,,,,,,,FEW,600,SCT,1500,OVC,2000,,,MVFR,,,,,,,,,,,,SPECI,172.0
KCDN 180315Z AUTO 00000KT 10SM CLR 04/M02 A2994 RMK AO2,KCDN,2021-01-18T03:15:00Z,34.28,-80.57,4.0,-2.0,0,0,,10.0,29.940945,,,TRUE,TRUE,,,,,,,CLR,,,,,,,,VFR,,,,,,,,,,,,SPECI,90.0
KCDI 180315Z AUTO 21003KT 10SM BKN013 BKN018 OVC070 01/00 A2974 RMK AO2 T00050000,KCDI,2021-01-18T03:15:00Z,39.97,-81.58,0.5,0.0,210,3,,10.0,29.740158,,,TRUE,TRUE,,,,,,,BKN,1300,BKN,1800,OVC,7000,,,MVFR,,,,,,,,,,,,SPECI,241.0
KCDH 180315Z AUTO 24005KT 10SM CLR 06/M02 A3005 RMK AO2,KCDH,2021-01-18T03:15:00Z,33.62,-92.77,6.0,-2.0,240,5,,10.0,30.050198,,,TRUE,TRUE,,,,,,,CLR,,,,,,,,VFR,,,,,,,,,,,,SPECI,38.0
KCDD 180315Z AUTO 00000KT 10SM OVC009 M09/M09 A2978 RMK AO2,KCDD,2021-01-18T03:15:00Z,48.27,-92.48,-9.0,-9.0,0,0,,10.0,29.778543,,,TRUE,TRUE,,,,,,,OVC,900,,,,,,,IFR,,,,,,,,,,,,METAR,344.0
KCDA 180315Z AUTO 22007KT 10SM -SN OVC016 M02/M04 A2949 RMK AO2 T10201045,KCDA,2021-01-18T03:15:00Z,44.57,-72.02,-2.0,-4.5,220,7,,10.0,29.489174,,,TRUE,TRUE,,,,,,-SN,OVC,1600,,,,,,,MVFR,,,,,,,,,,,,SPECI,357.0
KCCY 180315Z AUTO 30008KT 7SM OVC008 M04/M04 A2979 RMK AO2,KCCY,2021-01-18T03:15:00Z,43.07,-92.62,-4.0,-4.0,300,8,,7.0,29.790354,,,TRUE,TRUE,,,,,,,OVC,800,,,,,,,IFR,,,,,,,,,,,,METAR,340.0
KCCU 180315Z AUTO 26028G37KT 1SM -SN BKN022 BKN029 OVC036 M03/M08 RMK AO2 VIS 3/4V2,KCCU,2021-01-18T03:15:00Z,39.48,-106.15,-3.0,-8.0,260,28,37,1.0,,,,TRUE,TRUE,,,,,,-SN,BKN,2200,BKN,2900,OVC,3600,,,IFR,,,,,,,,,,,,METAR,3672.0
KCCO 180315Z AUTO 00000KT 10SM SCT070 BKN095 06/M02 A2993 RMK AO2 T00561019,KCCO,2021-01-18T03:15:00Z,33.32,-84.77,5.6,-1.9,0,0,,10.0,29.929134,,,TRUE,TRUE,,,,,,,SCT,7000,BKN,9500,,,,,VFR,,,,,,,,,,,,METAR,290.0
KCCB 180315Z AUTO 00000KT 10SM CLR 20/M06 A2996 RMK AO2,KCCB,2021-01-18T03:15:00Z,34.12,-117.68,20.0,-6.0,0,0,,10.0,29.958662,,,TRUE,TRUE,,,,,,,CLR,,,,,,,,VFR,,,,,,,,,,,,METAR,440.0
KCCA 180315Z AUTO 00000KT 9SM CLR M02/M04 A2999 RMK AO2,KCCA,2021-01-18T03:15:00Z,35.6,-92.45,-2.0,-4.0,0,0,,9.0,29.991142,,,TRUE,TRUE,,,,,,,CLR,,,,,,,,VFR,,,,,,,,,,,,SPECI,152.0
KCBK 180315Z AUTO 25005KT 10SM BKN090 OVC110 M01/M10 A2987 RMK AO2 PWINO,KCBK,2021-01-18T03:15:00Z,39.43,-101.05,-1.0,-10.0,250,5,,10.0,29.870079,,,TRUE,TRUE,,,,,TRUE,,BKN,9000,OVC,11000,,,,,VFR,,,,,,,,,,,,METAR,970.0
KCBG 180315Z AUTO 00000KT 10SM -SN OVC022 M07/M11 A2981 RMK AO2,KCBG,2021-01-18T03:15:00Z,45.57,-93.27,-7.0,-11.0,0,0,,10.0,29.811024,,,TRUE,TRUE,,,,,,-SN,OVC,2200,,,,,,,MVFR,,,,,,,,,,,,METAR,285.0
KCBF 180315Z AUTO 30005KT 10SM OVC050 01/M04 A2984 RMK AO2,KCBF,2021-01-18T03:15:00Z,41.27,-95.77,1.0,-4.0,300,5,,10.0,29.840551,,,TRUE,TRUE,,,,,,,OVC,5000,,,,,,,VFR,,,,,,,,,,,,SPECI,379.0
KCBE 180315Z AUTO 21009KT 160V220 10SM SCT034 BKN070 OVC090 03/M03 A2978 RMK AO2 T00321025,KCBE,2021-01-18T03:15:00Z,39.62,-78.77,3.2,-2.5,210,9,,10.0,29.778543,,,TRUE,TRUE,,,,,,,SCT,3400,BKN,7000,OVC,9000,,,VFR,,,,,,,,,,,,SPECI,226.0
KCAV 180315Z AUTO 29008KT 10SM OVC016 M01/M01 A2981 RMK A01,KCAV,2021-01-18T03:15:00Z,42.75,-93.77,-1.0,-1.0,290,8,,10.0,29.811024,,,TRUE,TRUE,,,,,,,OVC,1600,,,,,,,MVFR,,,,,,,,,,,,SPECI,352.0
KCAD 180315Z AUTO 00000KT 10SM SCT010 OVC042 M03/M05 A2965 RMK AO2 T10301046,KCAD,2021-01-18T03:15:00Z,44.27,-85.42,-3.0,-4.6,0,0,,10.0,29.648623,,,TRUE,TRUE,,,,,,,SCT,1000,OVC,4200,,,,,VFR,,,,,,,,,,,,SPECI,397.0
KC99 180315Z AUTO 29039G50KT 1 1/2SM SCT010 OVC016 M05/M08 A2978 RMK AO2,KC99,2021-01-18T03:15:00Z,39.87,-105.55,-5.0,-8.0,290,39,50,1.5,29.778543,,,TRUE,TRUE,,,,,,,SCT,1000,OVC,1600,,,,,IFR,,,,,,,,,,,,METAR,3334.0
KC83 180315Z AUTO 28005KT 10SM CLR 12/05 A3001 RMK AO2,KC83,2021-01-18T03:15:00Z,37.83,-121.62,12.0,5.0,280,5,,10.0,30.008858,,,TRUE,TRUE,,,,,,,CLR,,,,,,,,VFR,,,,,,,,,,,,METAR,16.0
KC75 180315Z AUTO 27004KT 10SM OVC040 M03/M06 A2982 RMK AO2 T10351060,KC75,2021-01-18T03:15:00Z,41.02,-89.38,-3.5,-6.0,270,4,,10.0,29.819881,,,TRUE,TRUE,,,,,,,OVC,4000,,,,,,,VFR,,,,,,,,,,,,METAR,166.0
KC65 180315Z AUTO 24006KT 3SM BR FEW003 FEW020 OVC042 M02/M04 A2973 RMK A01,KC65,2021-01-18T03:15:00Z,41.37,-86.3,-2.0,-4.0,240,6,,3.0,29.731298,,,TRUE,TRUE,,,,,,BR,FEW,300,FEW,2000,OVC,4200,,,MVFR,,,,,,,,,,,,METAR,241.0
KC35 180315Z AUTO 29003KT 10SM OVC019 M02/M05 A2974 RMK AO2 T10221053 PWINO,KC35,2021-01-18T03:15:00Z,43.53,-89.98,-2.2,-5.3,290,3,,10.0,29.740158,,,TRUE,TRUE,,,,,TRUE,,OVC,1900,,,,,,,MVFR,,,,,,,,,,,,METAR,272.0
KC29 180315Z AUTO 00000KT 10SM OVC023 M02/M03 A2975 RMK AO1 T10171028,KC29,2021-01-18T03:15:00Z,43.12,-89.53,-1.7,-2.8,0,0,,10.0,29.749016,,,TRUE,TRUE,,,,,,,OVC,2300,,,,,,,MVFR,,,,,,,,,,,,SPECI,282.0
KC09 180315Z AUTO 28009KT 10SM SCT021 SCT026 OVC041 M02/M03 A2978 RMK AO2 T10251032,KC09,2021-01-18T03:15:00Z,41.43,-88.42,-2.5,-3.2,280,9,,10.0,29.778543,,,TRUE,TRUE,,,,,,,SCT,2100,SCT,2600,OVC,4100,,,VFR,,,,,,,,,,,,METAR,179.0
KC07 180315Z AUTO 28010G16KT 250V310 1 1/4SM -SN SCT002 BKN010 OVC015 M06/M07 A3001 RMK AO2,KC07,2021-01-18T03:15:00Z,40.35,-106.7,-6.0,-7.0,280,10,16,1.25,30.008858,,,TRUE,TRUE,,,,,,-SN,SCT,200,BKN,1000,OVC,1500,,,IFR,,,,,,,,,,,,METAR,3224.0
KBYY 180315Z AUTO 00000KT 10SM CLR 07/06 A3013 RMK AO2 T00790065,KBYY,2021-01-18T03:15:00Z,28.97,-95.87,7.9,6.5,0,0,,10.0,30.129921,,,TRUE,TRUE,,,,,,,CLR,,,,,,,,VFR,,,,,,,,,,,,METAR,12.0
KBYL 180315Z AUTO 31006KT 10SM FEW035 SCT042 OVC050 02/M02 A2985 RMK AO1,KBYL,2021-01-18T03:15:00Z,36.8,-84.2,2.0,-2.0,310,6,,10.0,29.84941,,,TRUE,TRUE,,,,,,,FEW,3500,SCT,4200,OVC,5000,,,VFR,,,,,,,,,,,,METAR,355.0
KBXA 180315Z AUTO 00000KT 10SM SCT120 05/02 A3008 RMK AO2 T00450015,KBXA,2021-01-18T03:15:00Z,30.82,-89.87,4.5,1.5,0,0,,10.0,30.079725,,,TRUE,TRUE,,,,,,,SCT,12000,,,,,,,VFR,,,,,,,,,,,,SPECI,35.0
KBWW 180315Z AUTO 14004KT 1 1/4SM -SN OVC003 M01/M01 A2973 RMK AO2,KBWW,2021-01-18T03:15:00Z,46.17,-103.3,-1.0,-1.0,140,4,,1.25,29.731298,,,TRUE,TRUE,,,,,,-SN,OVC,300,,,,,,,LIFR,,,,,,,,,,,,METAR,911.0
KBWD 180315Z AUTO 00000KT 10SM SCT038 03/M04 A3012 RMK AO1,KBWD,2021-01-18T03:15:00Z,31.8,-98.95,3.0,-4.0,0,0,,10.0,30.121063,,,TRUE,TRUE,,,,,,,SCT,3800,,,,,,,VFR,,,,,,,,,,,,METAR,420.0
KBVU 180315Z AUTO 36004KT 10SM CLR 12/M08 A3003 RMK AO2,KBVU,2021-01-18T03:15:00Z,35.95,-114.87,12.0,-8.0,360,4,,10.0,30.029528,,,TRUE,TRUE,,,,,,,CLR,,,,,,,,VFR,,,,,,,,,,,,METAR,654.0
KBVS 180315Z AUTO 33006KT 10SM FEW027 BKN033 OVC046 07/05 A3054 RMK A01,KBVS,2021-01-18T03:15:00Z,48.47,-122.42,7.0,5.0,330,6,,10.0,30.540354,,,TRUE,TRUE,,,,,,,FEW,2700,BKN,3300,OVC,4600,,,VFR,,,,,,,,,,,,SPECI,31.0
KBVN 180315Z AUTO 00000KT 10SM CLR M02/M04 A2983 RMK AO2 T10191045,KBVN,2021-01-18T03:15:00Z,41.73,-98.05,-1.9,-4.5,0,0,,10.0,29.828741,,,TRUE,TRUE,,,,,,,CLR,,,,,,,,VFR,,,,,,,,,,,,METAR,547.0
KBVI 180315Z AUTO 24006KT 10SM OVC011 00/M01 A2969 RMK AO2 T10011010,KBVI,2021-01-18T03:15:00Z,40.77,-80.37,-0.1,-1.0,240,6,,10.0,29.68996,,,TRUE,TRUE,,,,,,,OVC,1100,,,,,,,MVFR,,,,,,,,,,,,SPECI,387.0
KBUU 180315Z AUTO 30006KT 10SM CLR M03/M04 A2974 RMK AO2 T10261040 PWINO,KBUU,2021-01-18T03:15:00Z,42.68,-88.3,-2.6,-4.0,300,6,,10.0,29.740158,,,TRUE,TRUE,,,,,TRUE,,CLR,,,,,,,,VFR,,,,,,,,,,,,SPECI,238.0
KBTA 180315Z AUTO 25005KT 10SM CLR 00/M04 A2985 RMK AO2 T10031041,KBTA,2021-01-18T03:15:00Z,41.42,-96.12,-0.3,-4.1,250,5,,10.0,29.84941,,,TRUE,TRUE,,,,,,,CLR,,,,,,,,VFR,,,,,,,,,,,,METAR,400.0
KBRY 180315Z AUTO 25005KT 10SM SCT050 00/M02 A2985 RMK AO1,KBRY,2021-01-18T03:15:00Z,37.82,-85.5,0.0,-2.0,250,5,,10.0,29.84941,,,TRUE,TRUE,,,,,,,SCT,5000,,,,,,,VFR,,,,,,,,,,,,METAR,192.0
KBRG 180315Z AUTO 30005KT 10SM CLR 02/M13 A3007 RMK AO2 T00161126,KBRG,2021-01-18T03:15:00Z,34.65,-106.83,1.6,-12.6,300,5,,10.0,30.070866,,,TRUE,TRUE,,,,,,,CLR,,,,,,,,VFR,,,,,,,,,,,,SPECI,1585.0
KBQX 180315Z AUTO 16006KT 10SM SCT040 BKN049 OVC060 17/05 A3014 RMK A01,KBQX,2021-01-18T03:15:00Z,28.5,-95.72,17.0,5.0,160,6,,10.0,30.138779,,,TRUE,TRUE,,,,,,,SCT,4000,BKN,4900,OVC,6000,,,VFR,,,,,,,,,,,,METAR,34.0
KBQP 180315Z AUTO 25006KT 10SM CLR 06/M03 A3008 RMK AO2 T00631032,KBQP,2021-01-18T03:15:00Z,32.75,-91.88,6.3,-3.2,250,6,,10.0,30.079725,,,TRUE,TRUE,,,,,,,CLR,,,,,,,,VFR,,,,,,,,,,,,METAR,50.0
KBQK 180315Z AUTO 21005KT 10SM CLR 06/01 A3002 RMK AO2 T00600013,KBQK,2021-01-18T03:15:00Z,31.25,-81.47,6.0,1.3,210,5,,10.0,30.02067,,,TRUE,TRUE,,,,,,,CLR,,,,,,,,VFR,,,,,,,,,,,,METAR,7.0
KBPG 180315Z AUTO 11008KT 10SM CLR 06/M04 A3007 RMK AO2 T00591037,KBPG,2021-01-18T03:15:00Z,32.22,-101.52,5.9,-3.7,110,8,,10.0,30.070866,,,TRUE,TRUE,,,,,,,CLR,,,,,,,,VFR,,,,,,,,,,,,METAR,782.0
KBPC 180315Z AUTO 22005KT 10SM CLR 01/M07 A2999 RMK AO2,KBPC,2021-01-18T03:15:00Z,35.88,-101.03,1.0,-7.0,220,5,,10.0,29.991142,,,TRUE,TRUE,,,,,,,CLR,,,,,,,,VFR,,,,,,,,,,,,METAR,844.0
KBOW 180315Z AUTO 00000KT 10SM SCT044 OVC050 12/10 A3009 RMK AO2,KBOW,2021-01-18T03:15:00Z,27.93,-81.77,12.0,10.0,0,0,,10.0,30.088583,,,TRUE,TRUE,,,,,,,SCT,4400,OVC,5000,,,,,VFR,,,,,,,,,,,,SPECI,38.0
KBNW 180315Z AUTO 26005KT 10SM FEW022 SCT027 BKN031 M01/M01 A2981 RMK AO2,KBNW,2021-01-18T03:15:00Z,42.03,-93.83,-1.0,-1.0,260,5,,10.0,29.811024,,,TRUE,TRUE,,,,,,,FEW,2200,SCT,2700,BKN,3100,,,VFR,,,,,,,,,,,,METAR,350.0
KBNL 180315Z AUTO 00000KT 10SM OVC046 01/M01 A2997 RMK AO2,KBNL,2021-01-18T03:15:00Z,33.25,-81.38,1.0,-1.0,0,0,,10.0,29.970472,,,TRUE,TRUE,,,,,,,OVC,4600,,,,,,,VFR,,,,,,,,,,,,METAR,76.0
KBMT 180315Z AUTO 00000KT 10SM CLR 09/02 A3012 RMK AO2 T00890022,KBMT,2021-01-18T03:15:00Z,30.07,-94.22,8.9,2.2,0,0,,10.0,30.121063,,,TRUE,TRUE,,,,,,,CLR,,,,,,,,VFR,,,,,,,,,,,,SPECI,8.0
KBMC 180315Z AUTO 34005KT 10SM OVC060 02/M02 A3017 RMK AO1 T00201016,KBMC,2021-01-18T03:15:00Z,41.55,-112.07,2.0,-1.6,340,5,,10.0,30.171259,,,TRUE,TRUE,,,,,,,OVC,6000,,,,,,,VFR,,,,,,,,,,,,SPECI,1289.0
KBKT 180315Z AUTO 21007KT 10SM OVC080 03/M01 A2983 RMK AO1 T00311015,KBKT,2021-01-18T03:15:00Z,37.07,-77.95,3.1,-1.5,210,7,,10.0,29.828741,,,TRUE,TRUE,,,,,,,OVC,8000,,,,,,,VFR,,,,,,,,,,,,SPECI,134.0
KBKS 180315Z AUTO 08004KT 10SM CLR 12/10 A3010 RMK AO2 T01150095,KBKS,2021-01-18T03:15:00Z,27.2,-98.12,11.5,9.5,80,4,,10.0,30.100393,,,TRUE,TRUE,,,,,,,CLR,,,,,,,,VFR,,,,,,,,,,,,SPECI,34.0
KBKN 180315Z AUTO 23005KT 10SM CLR 00/M05 A2999 RMK AO2,KBKN,2021-01-18T03:15:00Z,36.75,-97.35,0.0,-5.0,230,5,,10.0,29.991142,,,TRUE,TRUE,,,,,,,CLR,,,,,,,,VFR,,,,,,,,,,,,SPECI,208.0
KBKD 180315Z AUTO 15003KT 10SM CLR 04/M03 A3010 RMK AO2 T00431026,KBKD,2021-01-18T03:15:00Z,32.72,-98.88,4.3,-2.6,150,3,,10.0,30.100393,,,TRUE,TRUE,,,,,,,CLR,,,,,,,,VFR,,,,,,,,,,,,METAR,383.0
KBJI 180315Z AUTO 33007KT 10SM -SN OVC015 M10/M11 A2979 RMK AO2 T11011113,KBJI,2021-01-18T03:15:00Z,47.5,-94.92,-10.1,-11.3,330,7,,10.0,29.790354,,,TRUE,TRUE,,,,,,-SN,OVC,1500,,,,,,,MVFR,,,,,,,,,,,,METAR,422.0
KBIJ 180315Z AUTO 00000KT 10SM CLR 02/00 A3003 RMK AO2,KBIJ,2021-01-18T03:15:00Z,31.4,-84.9,2.0,0.0,0,0,,10.0,30.029528,,,TRUE,TRUE,,,,,,,CLR,,,,,,,,VFR,,,,,,,,,,,,METAR,63.0
KBIE 180315Z AUTO 00000KT 10SM CLR M03/M06 A2988 RMK AO2 T10321056,KBIE,2021-01-18T03:15:00Z,40.28,-96.75,-3.2,-5.6,0,0,,10.0,29.878937,,,TRUE,TRUE,,,,,,,CLR,,,,,,,,VFR,,,,,,,,,,,,METAR,398.0
KBHC 180315Z AUTO 00000KT 10SM CLR 02/00 A3001 RMK AO2,KBHC,2021-01-18T03:15:00Z,31.72,-82.4,2.0,0.0,0,0,,10.0,30.008858,,,TRUE,TRUE,,,,,,,CLR,,,,,,,,VFR,,,,,,,,,,,,METAR,61.0
KBGF 180315Z AUTO 00000KT 10SM CLR 05/M06 A2991 RMK A01,KBGF,2021-01-18T03:15:00Z,35.18,-86.07,5.0,-6.0,0,0,,10.0,29.911417,,,TRUE,TRUE,,,,,,,CLR,,,,,,,,VFR,,,,,,,,,,,,SPECI,295.0
KBGE 180315Z AUTO 23007KT 10SM CLR 07/02 A3004 RMK AO2 T00730024,KBGE,2021-01-18T03:15:00Z,30.97,-84.63,7.3,2.4,230,7,,10.0,30.041338,,,TRUE,TRUE,,,,,,,CLR,,,,,,,,VFR,,,,,,,,,,,,METAR,40.0
KBFW 180315Z AUTO 00000KT 10SM OVC018 M07/M10 A2972 RMK AO2,KBFW,2021-01-18T03:15:00Z,47.25,-91.4,-7.0,-10.0,0,0,,10.0,29.719488,,,TRUE,TRUE,,,,,,,OVC,1800,,,,,,,MVFR,,,,,,,,,,,,METAR,335.0
KBEC 180315Z AUTO 22006KT 10SM CLR 01/M07 A2994 RMK AO2 T00081075,KBEC,2021-01-18T03:15:00Z,37.7,-97.22,0.8,-7.5,220,6,,10.0,29.940945,,,TRUE,TRUE,,,,,,,CLR,,,,,,,,VFR,,,,,,,,,,,,METAR,421.0
KBEA 180315Z AUTO 12004KT 10SM OVC060 13/10 A3010 RMK AO2 T01300102,KBEA,2021-01-18T03:15:00Z,28.37,-97.78,13.0,10.2,120,4,,10.0,30.100393,,,TRUE,TRUE,,,,,,,OVC,6000,,,,,,,VFR,,,,,,,,,,,,SPECI,83.0
KBDU 180315Z AUTO 14005KT 10SM CLR 08/M05 A2979 RMK AO2,KBDU,2021-01-18T03:15:00Z,40.03,-105.23,8.0,-5.0,140,5,,10.0,29.790354,,,TRUE,TRUE,,,,,,,CLR,,,,,,,,VFR,,,,,,,,,,,,METAR,1614.0
KBDN 180315Z AUTO 23003KT 10SM CLR 02/M03 A3040 RMK AO2,KBDN,2021-01-18T03:15:00Z,44.1,-121.2,2.0,-3.0,230,3,,10.0,30.398623,,,TRUE,TRUE,,,,,,,CLR,,,,,,,,VFR,,,,,,,,,,,,METAR,1044.0
KBDH 180315Z AUTO 30008KT 10SM CLR M05/M06 A2984 RMK AO2,KBDH,2021-01-18T03:15:00Z,45.12,-95.13,-5.0,-6.0,300,8,,10.0,29.840551,,,TRUE,TRUE,,,,,,,CLR,,,,,,,,VFR,,,,,,,,,,,,SPECI,341.0
KBCK 180315Z AUTO 31005KT 10SM OVC023 M02/M06 A2976 RMK AO2 T10211062,KBCK,2021-01-18T03:15:00Z,44.25,-90.85,-2.1,-6.2,310,5,,10.0,29.760826,,,TRUE,TRUE,,,,,,,OVC,2300,,,,,,,MVFR,,,,,,,,,,,,SPECI,256.0
KBCB 180315Z AUTO 25006KT 10SM OVC065 02/M01 A2981 RMK AO2 T00201015,KBCB,2021-01-18T03:15:00Z,37.22,-80.42,2.0,-1.5,250,6,,10.0,29.811024,,,TRUE,TRUE,,,,,,,OVC,6500,,,,,,,VFR,,,,,,,,,,,,SPECI,642.0
KBBP 180315Z AUTO 20003KT 10SM CLR 02/00 A2993 RMK AO2,KBBP,2021-01-18T03:15:00Z,34.62,-79.73,2.0,0.0,200,3,,10.0,29.929134,,,TRUE,TRUE,,,,,,,CLR,,,,,,,,VFR,,,,,,,,,,,,SPECI,44.0
KBBG 180315Z AUTO 27004KT 10SM CLR 04/M05 A2996 RMK AO2,KBBG,2021-01-18T03:15:00Z,36.53,-93.2,4.0,-5.0,270,4,,10.0,29.958662,,,TRUE,TRUE,,,,,,,CLR,,,,,,,,VFR,,,,,,,,,,,,METAR,403.0
KBBD 180315Z AUTO 08007KT 10SM FEW038 08/M04 A3010 RMK AO2,KBBD,2021-01-18T03:15:00Z,31.18,-99.32,8.0,-4.0,80,7,,10.0,30.100393,,,TRUE,TRUE,,,,,,,FEW,3800,,,,,,,VFR,,,,,,,,,,,,SPECI,554.0
KBBB 180315Z AUTO 36006KT 10SM OVC042 M06/M08 A2983 RMK AO2,KBBB,2021-01-18T03:15:00Z,45.32,-95.65,-6.0,-8.0,360,6,,10.0,29.828741,,,TRUE,TRUE,,,,,,,OVC,4200,,,,,,,VFR,,,,,,,,,,,,METAR,315.0
KBAX 180315Z AUTO 03004KT 10SM OVC023 M02/M02 A2966 RMK AO2 T10161016,KBAX,2021-01-18T03:15:00Z,43.78,-82.98,-1.6,-1.6,30,4,,10.0,29.660433,,,TRUE,TRUE,,,,,,,OVC,2300,,,,,,,MVFR,,,,,,,,,,,,SPECI,229.0
KBAM 180315Z AUTO 00000KT 10SM BKN065 03/00 A3027 RMK AO1,KBAM,2021-01-18T03:15:00Z,,,3.0,0.0,0,0,,10.0,30.268702,,,TRUE,TRUE,,,,,,,BKN,6500,,,,,,,VFR,,,,,,,,,,,,METAR,
KBAC 180315Z AUTO 00000KT 10SM OVC070 M07/M07 A2984 RMK AO2,KBAC,2021-01-18T03:15:00Z,46.93,-98.02,-7.0,-7.0,0,0,,10.0,29.840551,,,TRUE,TRUE,,,,,,,OVC,7000,,,,,,,VFR,,,,,,,,,,,,SPECI,423.0
KAZC 180315Z AUTO 14007KT 10SM CLR 00/M18 A3012 RMK AO2,KAZC,2021-01-18T03:15:00Z,36.97,-113.02,0.0,-18.0,140,7,,10.0,30.121063,,,TRUE,TRUE,,,,,,,CLR,,,,,,,,VFR,,,,,,,,,,,,METAR,1476.0
KAYS 180315Z AUTO 23003KT 10SM CLR 05/M01 A3002 RMK AO2 T00531010,KAYS,2021-01-18T03:15:00Z,31.25,-82.4,5.3,-1.0,230,3,,10.0,30.02067,,,TRUE,TRUE,,,,,,,CLR,,,,,,,,VFR,,,,,,,,,,,,METAR,42.0
KAXX 180315Z AUTO 27012G15KT 10SM CLR M01/M12 A3006 RMK AO2 T10131121,KAXX,2021-01-18T03:15:00Z,36.42,-105.28,-1.3,-12.1,270,12,15,10.0,30.059055,,,TRUE,TRUE,,,,,,,CLR,,,,,,,,VFR,,,,,,,,,,,,SPECI,2543.0
KAXV 180315Z AUTO 24004KT 10SM BKN012 OVC029 M02/M02 A2974 RMK AO2,KAXV,2021-01-18T03:15:00Z,40.5,-84.3,-2.0,-2.0,240,4,,10.0,29.740158,,,TRUE,TRUE,,,,,,,BKN,1200,OVC,2900,,,,,MVFR,,,,,,,,,,,,SPECI,278.0
KAXS 180315Z AUTO 21007KT 10SM CLR 04/M05 A3006 RMK AO2 T00401046,KAXS,2021-01-18T03:15:00Z,34.7,-99.33,4.0,-4.6,210,7,,10.0,30.059055,,,TRUE,TRUE,,,,,,,CLR,,,,,,,,VFR,,,,,,,,,,,,METAR,433.0
KAXH 180315Z AUTO 00000KT 10SM CLR 07/02 A3013 RMK AO2 T00710020,KAXH,2021-01-18T03:15:00Z,29.52,-95.48,7.1,2.0,0,0,,10.0,30.129921,,,TRUE,TRUE,,,,,,,CLR,,,,,,,,VFR,,,,,,,,,,,,METAR,18.0
KAXA 180315Z AUTO 32010KT 6SM BR BKN034 OVC050 M01/M01 A2979 RMK A01,KAXA,2021-01-18T03:15:00Z,43.07,-94.27,-1.0,-1.0,320,10,,6.0,29.790354,,,TRUE,TRUE,,,,,,BR,BKN,3400,OVC,5000,,,,,VFR,,,,,,,,,,,,SPECI,371.0
KAWG 180315Z AUTO 28006KT 10SM OVC019 M02/M03 A2982 RMK AO2,KAWG,2021-01-18T03:15:00Z,41.27,-91.67,-2.0,-3.0,280,6,,10.0,29.819881,,,TRUE,TRUE,,,,,,,OVC,1900,,,,,,,MVFR,,,,,,,,,,,,SPECI,229.0
KAVQ 180315Z AUTO 00000KT 10SM CLR 14/M11 A2997 RMK AO2 T01391110,KAVQ,2021-01-18T03:15:00Z,32.4,-111.22,13.9,-11.0,0,0,,10.0,29.970472,,,TRUE,TRUE,,,,,,,CLR,,,,,,,,VFR,,,,,,,,,,,,METAR,618.0
KAVK 180315Z AUTO 23005KT 10SM FEW040 M00/M10 A2998 RMK AO2 PWINO TSNO,KAVK,2021-01-18T03:15:00Z,36.77,-98.67,0.0,-10.0,230,5,,10.0,29.97933,,,TRUE,TRUE,,,TRUE,,TRUE,,FEW,4000,,,,,,,VFR,,,,,,,,,,,,METAR,450.0
KAVC 180315Z AUTO 18005KT 10SM OVC080 03/M02 A2991 RMK AO2 T00271021,KAVC,2021-01-18T03:15:00Z,36.68,-78.05,2.7,-2.1,180,5,,10.0,29.911417,,,TRUE,TRUE,,,,,,,OVC,8000,,,,,,,VFR,,,,,,,,,,,,METAR,119.0
KAUN 180315Z AUTO 00000KT 10SM CLR 12/08 A3003 RMK A01,KAUN,2021-01-18T03:15:00Z,38.95,-121.08,12.0,8.0,0,0,,10.0,30.029528,,,TRUE,TRUE,,,,,,,CLR,,,,,,,,VFR,,,,,,,,,,,,SPECI,453.0
KAUM 180315Z AUTO 00000KT 3/4SM BR OVC002 M05/M06 A2979 RMK AO2,KAUM,2021-01-18T03:15:00Z,43.67,-92.92,-5.0,-6.0,0,0,,0.75,29.790354,,,TRUE,TRUE,,,,,,BR,OVC,200,,,,,,,LIFR,,,,,,,,,,,,METAR,376.0
KAUH 180315Z AUTO 24004KT 10SM SCT120 M01/M05 A2985 RMK AO2 T10121055,KAUH,2021-01-18T03:15:00Z,40.88,-98.0,-1.2,-5.5,240,4,,10.0,29.84941,,,TRUE,TRUE,,,,,,,SCT,12000,,,,,,,VFR,,,,,,,,,,,,SPECI,549.0
KATS 180315Z AUTO 22010KT 10SM CLR 04/M09 A3005 RMK AO2,KATS,2021-01-18T03:15:00Z,32.85,-104.47,4.0,-9.0,220,10,,10.0,30.050198,,,TRUE,TRUE,,,,,,,CLR,,,,,,,,VFR,,,,,,,,,,,,METAR,1073.0
KATP 180315Z AUTO 28008KT 10SM CLR 17/07 A3012 RMK A01,KATP,2021-01-18T03:15:00Z,27.2,-90.03,17.0,7.0,280,8,,10.0,30.121063,,,TRUE,TRUE,,,,,,,CLR,,,,,,,,VFR,,,,,,,,,,,,METAR,50.0
KASW 180315Z AUTO 25006KT 10SM SCT014 BKN022 OVC080 M02/M04 A2973 RMK AO2,KASW,2021-01-18T03:15:00Z,41.27,-85.83,-2.0,-4.0,250,6,,10.0,29.731298,,,TRUE,TRUE,,,,,,,SCT,1400,BKN,2200,OVC,8000,,,MVFR,,,,,,,,,,,,METAR,253.0
KASN 180315Z AUTO 00000KT 10SM CLR 08/M02 A2996 RMK AO2 T00801022,KASN,2021-01-18T03:15:00Z,33.57,-86.05,8.0,-2.2,0,0,,10.0,29.958662,,,TRUE,TRUE,,,,,,,CLR,,,,,,,,VFR,,,,,,,,,,,,METAR,159.0
KASL 180315Z AUTO 00000KT 10SM CLR 00/M02 A3012 RMK AO1 T00031020,KASL,2021-01-18T03:15:00Z,32.52,-94.3,0.3,-2.0,0,0,,10.0,30.121063,,,TRUE,TRUE,,,,,,,CLR,,,,,,,,VFR,,,,,,,,,,,,METAR,104.0
KASJ 180315Z AUTO 22003KT 10SM CLR 02/M02 A2989 RMK AO2 T00231021,KASJ,2021-01-18T03:15:00Z,36.28,-77.17,2.3,-2.1,220,3,,10.0,29.890747,,,TRUE,TRUE,,,,,,,CLR,,,,,,,,VFR,,,,,,,,,,,,SPECI,20.0
KARW 180315Z AUTO 21004KT 10SM CLR 07/02 A3000 RMK AO2,KARW,2021-01-18T03:15:00Z,32.42,-80.63,7.0,2.0,210,4,,10.0,30.0,,,TRUE,TRUE,,,,,,,CLR,,,,,,,,VFR,,,,,,,,,,,,SPECI,2.0
KARV 180315Z AUTO 00000KT 7SM BKN010 OVC013 M05/M10 A2969 RMK AO2 T10551100,KARV,2021-01-18T03:15:00Z,45.92,-89.72,-5.5,-10.0,0,0,,7.0,29.68996,,,TRUE,TRUE,,,,,,,BKN,1000,OVC,1300,,,,,MVFR,,,,,,,,,,,,SPECI,494.0
KARM 180315Z AUTO 14003KT 10SM CLR 09/03 A3014 RMK AO2 T00930029,KARM,2021-01-18T03:15:00Z,29.25,-96.15,9.3,2.9,140,3,,10.0,30.138779,,,TRUE,TRUE,,,,,,,CLR,,,,,,,,VFR,,,,,,,,,,,,METAR,29.0
KAQX 180315Z AUTO 00000KT 10SM CLR 03/01 A2998 RMK AO2,KAQX,2021-01-18T03:15:00Z,32.98,-81.27,3.0,1.0,0,0,,10.0,29.97933,,,TRUE,TRUE,,,,,,,CLR,,,,,,,,VFR,,,,,,,,,,,,METAR,48.0
KAQO 180315Z AUTO 00000KT 10SM BKN044 04/M01 A3011 RMK AO2,KAQO,2021-01-18T03:15:00Z,30.78,-98.67,4.0,-1.0,0,0,,10.0,30.109253,,,TRUE,TRUE,,,,,,,BKN,4400,,,,,,,VFR,,,,,,,,,,,,SPECI,334.0
KAPY 180315Z AUTO 05003KT 10SM CLR 13/08 A3009 RMK AO2 T01250078 TSNO,KAPY,2021-01-18T03:15:00Z,26.97,-99.25,12.5,7.8,50,3,,10.0,30.088583,,,TRUE,TRUE,,,TRUE,,,,CLR,,,,,,,,VFR,,,,,,,,,,,,SPECI,129.0
KAPS 180315Z AUTO 26004KT 10SM CLR 10/00 A3010 RMK AO2 T00970002,KAPS,2021-01-18T03:15:00Z,30.08,-90.58,9.7,0.2,260,4,,10.0,30.100393,,,TRUE,TRUE,,,,,,,CLR,,,,,,,,VFR,,,,,,,,,,,,METAR,1.0
KANW 180315Z AUTO 22003KT 10SM SCT060 BKN080 OVC090 00/M07 A2981 RMK AO2 T10031066,KANW,2021-01-18T03:15:00Z,42.57,-100.0,-0.3,-6.6,220,3,,10.0,29.811024,,,TRUE,TRUE,,,,,,,SCT,6000,BKN,8000,OVC,9000,,,VFR,,,,,,,,,,,,SPECI,788.0
KANQ 180315Z AUTO 26004KT 5SM -SN FEW014 OVC047 M02/M04 A2970 RMK AO2,KANQ,2021-01-18T03:15:00Z,41.63,-85.08,-2.0,-4.0,260,4,,5.0,29.698818,,,TRUE,TRUE,,,,,,-SN,FEW,1400,OVC,4700,,,,,MVFR,,,,,,,,,,,,METAR,299.0
KANK 180315Z AUTO 27010G30KT 230V290 10SM CLR 07/M09 A3001 RMK AO1 T00721094,KANK,2021-01-18T03:15:00Z,38.53,-106.05,7.2,-9.4,270,10,30,10.0,30.008858,,,TRUE,TRUE,,,,,,,CLR,,,,,,,,VFR,,,,,,,,,,,,METAR,2293.0
KANE 180315Z AUTO 30005KT 7SM -SN SCT024 BKN045 OVC070 M06/M07 A2980 RMK AO2,KANE,2021-01-18T03:15:00Z,45.15,-93.22,-6.0,-7.0,300,5,,7.0,29.799213,,,TRUE,TRUE,,,,,,-SN,SCT,2400,BKN,4500,OVC,7000,,,VFR,,,,,,,,,,,,SPECI,276.0
KALX 180315Z AUTO 24003KT 10SM CLR 06/M01 A2996 RMK AO2 T00591009,KALX,2021-01-18T03:15:00Z,32.92,-85.97,5.9,-0.9,240,3,,10.0,29.958662,,,TRUE,TRUE,,,,,,,CLR,,,,,,,,VFR,,,,,,,,,,,,METAR,198.0
KALM 180315Z AUTO 09005KT 10SM CLR 08/M18 A3005 RMK AO2,KALM,2021-01-18T03:15:00Z,32.83,-105.98,8.0,-18.0,90,5,,10.0,30.050198,,,TRUE,TRUE,,,,,,,CLR,,,,,,,,VFR,,,,,,,,,,,,METAR,1267.0
KAJZ 180315Z AUTO 03003KT 10SM CLR M01/M10 A3010 RMK AO2 T10131102,KAJZ,2021-01-18T03:15:00Z,38.78,-108.07,-1.3,-10.2,30,3,,10.0,30.100393,,,TRUE,TRUE,,,,,,,CLR,,,,,,,,VFR,,,,,,,,,,,,METAR,1583.0
KAJR 180315Z AUTO 27005KT 10SM BKN065 OVC075 06/M02 A2988 RMK AO2 T00571017,KAJR,2021-01-18T03:15:00Z,34.5,-83.55,5.7,-1.7,270,5,,10.0,29.878937,,,TRUE,TRUE,,,,,,,BKN,6500,OVC,7500,,,,,VFR,,,,,,,,,,,,METAR,441.0
KAJG 180315Z AUTO 29008KT 10SM SCT012 BKN035 OVC090 M01/M02 A2987 RMK AO2 T10061023,KAJG,2021-01-18T03:15:00Z,38.62,-87.73,-0.6,-2.3,290,8,,10.0,29.870079,,,TRUE,TRUE,,,,,,,SCT,1200,BKN,3500,OVC,9000,,,VFR,,,,,,,,,,,,METAR,130.0
KAIT 180315Z AUTO 00000KT 10SM SCT008 OVC014 M06/M08 A2978 RMK AO2,KAIT,2021-01-18T03:15:00Z,46.53,-93.67,-6.0,-8.0,0,0,,10.0,29.778543,,,TRUE,TRUE,,,,,,,SCT,800,OVC,1400,,,,,MVFR,,,,,,,,,,,,SPECI,367.0
KAIO 180315Z AUTO 31004KT 10SM OVC048 M01/M04 A2985 RMK AO2,KAIO,2021-01-18T03:15:00Z,41.4,-95.03,-1.0,-4.0,310,4,,10.0,29.84941,,,TRUE,TRUE,,,,,,,OVC,4800,,,,,,,VFR,,,,,,,,,,,,SPECI,349.0
KAIK 180315Z AUTO 20004KT 10SM CLR 00/M03 A2996 RMK AO2 T10011027,KAIK,2021-01-18T03:15:00Z,33.65,-81.68,-0.1,-2.7,200,4,,10.0,29.958662,,,TRUE,TRUE,,,,,,,CLR,,,,,,,,VFR,,,,,,,,,,,,SPECI,155.0
KAIG 180315Z AUTO 30004KT 10SM OVC018 M06/M08 A2970 RMK AO2 T10581077,KAIG,2021-01-18T03:15:00Z,45.15,-89.12,-5.8,-7.7,300,4,,10.0,29.698818,,,TRUE,TRUE,,,,,,,OVC,1800,,,,,,,MVFR,,,,,,,,,,,,METAR,462.0
KAHQ 180315Z AUTO 24003KT 10SM CLR M01/M03 A2987 RMK AO2 T10081033,KAHQ,2021-01-18T03:15:00Z,41.23,-96.6,-0.8,-3.3,240,3,,10.0,29.870079,,,TRUE,TRUE,,,,,,,CLR,,,,,,,,VFR,,,,,,,,,,,,SPECI,372.0
KAFP 180315Z AUTO 00000KT 10SM CLR 02/M03 A2991 RMK AO2 T00221026,KAFP,2021-01-18T03:15:00Z,35.02,-80.08,2.2,-2.6,0,0,,10.0,29.911417,,,TRUE,TRUE,,,,,,,CLR,,,,,,,,VFR,,,,,,,,,,,,SPECI,91.0
KAFO 180315Z AUTO 02004KT 10SM OVC025 00/M06 A3009 RMK AO2,KAFO,2021-01-18T03:15:00Z,42.72,-110.95,0.0,-6.0,20,4,,10.0,30.088583,,,TRUE,TRUE,,,,,,,OVC,2500,,,,,,,MVFR,,,,,,,,,,,,SPECI,1881.0
KAFK 180315Z AUTO 25005KT 10SM CLR 00/M05 A2988 RMK AO2 T00011051,KAFK,2021-01-18T03:15:00Z,40.6,-95.85,0.1,-5.1,250,5,,10.0,29.878937,,,TRUE,TRUE,,,,,,,CLR,,,,,,,,VFR,,,,,,,,,,,,METAR,353.0
KAEL 180315Z AUTO 32004KT 5SM BR OVC012 M04/M06 A2979 RMK AO2,KAEL,2021-01-18T03:15:00Z,43.68,-93.37,-4.0,-6.0,320,4,,5.0,29.790354,,,TRUE,TRUE,,,,,,BR,OVC,1200,,,,,,,MVFR,,,,,,,,,,,,SPECI,382.0
KAEJ 180315Z AUTO 26013KT 10SM CLR 03/M07 A2995 RMK AO2 T00301075,KAEJ,2021-01-18T03:15:00Z,38.82,-106.12,3.0,-7.5,260,13,,10.0,29.949802,,,TRUE,TRUE,,,,,,,CLR,,,,,,,,VFR,,,,,,,,,,,,METAR,2420.0
KADU 180315Z AUTO 29004KT 10SM SCT037 BKN049 M02/M04 A2985 RMK AO2,KADU,2021-01-18T03:15:00Z,41.7,-94.92,-2.0,-4.0,290,4,,10.0,29.84941,,,TRUE,TRUE,,,,,,,SCT,3700,BKN,4900,,,,,VFR,,,,,,,,,,,,SPECI,391.0
KADT 180315Z AUTO 02003KT 10SM CLR 00/M10 A2990 RMK AO2 T10021098,KADT,2021-01-18T03:15:00Z,39.83,-101.05,-0.2,-9.8,20,3,,10.0,29.899607,,,TRUE,TRUE,,,,,,,CLR,,,,,,,,VFR,,,,,,,,,,,,METAR,899.0
KADS 180315Z AUTO 00000KT 10SM CLR 07/M06 A3011 RMK AO2 T00701063,KADS,2021-01-18T03:15:00Z,32.97,-96.83,7.0,-6.3,0,0,,10.0,30.109253,,,TRUE,TRUE,,,,,,,CLR,,,,,,,,VFR,,,,,,,,,,,,SPECI,198.0
KADM 180315Z AUTO 00000KT 10SM CLR M01/M06 A3007 RMK AO2,KADM,2021-01-18T03:15:00Z,34.3,-97.02,-1.0,-6.0,0,0,,10.0,30.070866,,,TRUE,TRUE,,,,,,,CLR,,,,,,,,VFR,,,,,,,,,,,,METAR,223.0
KADH 180315Z AUTO 24003KT 10SM CLR 05/M08 A3006 RMK AO2,KADH,2021-01-18T03:15:00Z,34.8,-96.67,5.0,-8.0,240,3,,10.0,30.059055,,,TRUE,TRUE,,,,,,,CLR,,,,,,,,VFR,,,,,,,,,,,,METAR,301.0
KACQ 180315Z AUTO 30006KT 5SM -SN OVC009 M04/M05 A2981 RMK AO2,KACQ,2021-01-18T03:15:00Z,44.07,-93.55,-4.0,-5.0,300,6,,5.0,29.811024,,,TRUE,TRUE,,,,,,-SN,OVC,900,,,,,,,IFR,,,,,,,,,,,,SPECI,339.0
KACP 180315Z AUTO 00000KT 10SM CLR 02/M00 A3011 RMK AO2,KACP,2021-01-18T03:15:00Z,30.75,-92.68,2.0,0.0,0,0,,10.0,30.109253,,,TRUE,TRUE,,,,,,,CLR,,,,,,,,VFR,,,,,,,,,,,,METAR,31.0
KACB 180315Z AUTO 00000KT 10SM SCT050 BKN065 OVC090 M02/M04 A2970 RMK AO2 T10171040,KACB,2021-01-18T03:15:00Z,44.98,-85.2,-1.7,-4.0,0,0,,10.0,29.698818,,,TRUE,TRUE,,,,,,,SCT,5000,BKN,6500,OVC,9000,,,VFR,,,,,,,,,,,,SPECI,189.0
KAAS 180315Z AUTO 00000KT 10SM OVC090 01/M03 A2991 RMK AO1,KAAS,2021-01-18T03:15:00Z,37.35,-85.32,1.0,-3.0,0,0,,10.0,29.911417,,,TRUE,TRUE,,,,,,,OVC,9000,,,,,,,VFR,,,,,,,,,,,,METAR,270.0
KAAA 180315Z AUTO 28004KT 10SM SCT024 BKN039 OVC070 M01/M05 A2984 RMK AO2 T10151049,KAAA,2021-01-18T03:15:00Z,40.17,-89.33,-1.5,-4.9,280,4,,10.0,29.840551,,,TRUE,TRUE,,,,,,,SCT,2400,BKN,3900,OVC,7000,,,VFR,,,,,,,,,,,,SPECI,179.0
KA39 180315Z AUTO 16003KT 10SM CLR 10/M11 A3000 RMK AO2,KA39,2021-01-18T03:15:00Z,32.98,-111.92,10.0,-11.0,160,3,,10.0,30.0,,,TRUE,TRUE,,,,,,,CLR,,,,,,,,VFR,,,,,,,,,,,,METAR,391.0
K9V9 180315Z AUTO 10003KT 10SM CLR M03/M06 A2980 RMK AO2 T10281062,K9V9,2021-01-18T03:15:00Z,43.77,-99.32,-2.8,-6.2,100,3,,10.0,29.799213,,,TRUE,TRUE,,,,,,,CLR,,,,,,,,VFR,,,,,,,,,,,,METAR,511.0
K9MN 180315Z AUTO 30006KT 10SM OVC010 M06/M07 A2979 RMK AO1 T10561073,K9MN,2021-01-18T03:15:00Z,44.02,-92.48,-5.6,-7.3,300,6,,10.0,29.790354,,,TRUE,TRUE,,,,,,,OVC,1000,,,,,,,MVFR,,,,,,,,,,,,METAR,308.0
K9D7 180315Z AUTO 11006KT 10SM OVC065 M07/M07 A2983 RMK AO2,K9D7,2021-01-18T03:15:00Z,48.48,-99.23,-7.0,-7.0,110,6,,10.0,29.828741,,,TRUE,TRUE,,,,,,,OVC,6500,,,,,,,VFR,,,,,,,,,,,,SPECI,451.0
K9A5 180315Z AUTO 28008KT 10SM SCT090 SCT120 07/M05 A2992 RMK AO2 T00741054,K9A5,2021-01-18T03:15:00Z,34.68,-85.28,7.4,-5.4,280,8,,10.0,29.920275,,,TRUE,TRUE,,,,,,,SCT,9000,SCT,12000,,,,,VFR,,,,,,,,,,,,METAR,234.0
K8W2 180315Z AUTO 00000KT 10SM CLR 01/M02 A2976 RMK AO1 T00081019,K8W2,2021-01-18T03:15:00Z,38.65,-78.7,0.8,-1.9,0,0,,10.0,29.760826,,,TRUE,TRUE,,,,,,,CLR,,,,,,,,VFR,,,,,,,,,,,,SPECI,295.0
K8A3 180315Z AUTO VRB05KT 10SM FEW044 OVC060 02/M04 A2986 RMK A01,K8A3,2021-01-18T03:15:00Z,36.42,-85.32,2.0,-4.0,0,5,,10.0,29.861221,,,TRUE,TRUE,,,,,,,FEW,4400,OVC,6000,,,,,VFR,,,,,,,,,,,,METAR,413.0
K8A0 180315Z AUTO 32006KT 10SM CLR 05/M05 A2994 RMK AO2,K8A0,2021-01-18T03:15:00Z,34.23,-86.25,5.0,-5.0,320,6,,10.0,29.940945,,,TRUE,TRUE,,,,,,,CLR,,,,,,,,VFR,,,,,,,,,,,,METAR,313.0
K82V 180315Z AUTO 20006KT 10SM -SN SCT034 BKN041 OVC049 02/M06 A2981 RMK AO2,K82V,2021-01-18T03:15:00Z,41.15,-104.13,2.0,-6.0,200,6,,10.0,29.811024,,,TRUE,TRUE,,,,,,-SN,SCT,3400,BKN,4100,OVC,4900,,,VFR,,,,,,,,,,,,METAR,1563.0
K82C 180315Z AUTO 31003KT 10SM OVC020 M02/M03 A2975 RMK AO2 T10211032,K82C,2021-01-18T03:15:00Z,43.83,-90.13,-2.1,-3.2,310,3,,10.0,29.749016,,,TRUE,TRUE,,,,,,,OVC,2000,,,,,,,MVFR,,,,,,,,,,,,SPECI,273.0
K81R 180315Z AUTO 00000KT 10SM CLR 06/M03 A3012 RMK AO2 T00651029,K81R,2021-01-18T03:15:00Z,,,6.5,-2.9,0,0,,10.0,30.121063,,,TRUE,TRUE,,,,,,,CLR,,,,,,,,VFR,,,,,,,,,,,,METAR,
K7W6 180315Z AUTO 24005KT 10SM CLR 06/01 A2990 RMK AO2 T00560010,K7W6,2021-01-18T03:15:00Z,35.55,-75.95,5.6,1.0,240,5,,10.0,29.899607,,,TRUE,TRUE,,,,,,,CLR,,,,,,,,VFR,,,,,,,,,,,,METAR,1.0
K7W4 180315Z AUTO 00000KT 10SM BKN080 01/M03 A2979 RMK AO1 T00111032,K7W4,2021-01-18T03:15:00Z,37.97,-77.75,1.1,-3.2,0,0,,10.0,29.790354,,,TRUE,TRUE,,,,,,,BKN,8000,,,,,,,VFR,,,,,,,,,,,,SPECI,115.0
K7S1 180315Z AUTO 35008KT 10SM CLR 01/M08 A3012 RMK AO2,K7S1,2021-01-18T03:15:00Z,45.53,-112.3,1.0,-8.0,350,8,,10.0,30.121063,,,TRUE,TRUE,,,,,,,CLR,,,,,,,,VFR,,,,,,,,,,,,METAR,1456.0
K7L2 180315Z AUTO 00000KT 10SM SCT048 BKN065 OVC075 M04/M06 A2982 RMK AO2,K7L2,2021-01-18T03:15:00Z,46.22,-100.25,-4.0,-6.0,0,0,,10.0,29.819881,,,TRUE,TRUE,,,,,,,SCT,4800,BKN,6500,OVC,7500,,,VFR,,,,,,,,,,,,SPECI,541.0
K7BM 180315Z AUTO 34013G29KT 280V010 10SM CLR 01/M10 A2997 RMK AO2,K7BM,2021-01-18T03:15:00Z,38.78,-106.22,1.0,-10.0,340,13,29,10.0,29.970472,,,TRUE,TRUE,,,,,,,CLR,,,,,,,,VFR,,,,,,,,,,,,SPECI,2996.0
K79S 180315Z AUTO 22009KT 10SM 04/M04 A2997 ,K79S,2021-01-18T03:15:00Z,47.85,-110.63,4.0,-4.0,220,9,,10.0,29.970472,,,TRUE,,,,,,,,,,,,,,,,,,,,,,,,,,,,METAR,874.0
K77S 180315Z AUTO 00000KT 10SM FEW028 07/07 A3045 RMK A01,K77S,2021-01-18T03:15:00Z,43.93,-123.0,7.0,7.0,0,0,,10.0,30.448818,,,TRUE,TRUE,,,,,,,FEW,2800,,,,,,,VFR,,,,,,,,,,,,METAR,161.0
K74V 180315Z AUTO 00000KT 10SM SCT090 M07/M09 A3007 RMK AO2,K74V,2021-01-18T03:15:00Z,40.28,-110.05,-7.0,-9.0,0,0,,10.0,30.070866,,,TRUE,TRUE,,,,,,,SCT,9000,,,,,,,VFR,,,,,,,,,,,,SPECI,1567.0
K6S5 180315Z AUTO 24006KT 10SM FEW047 BKN060 OVC090 02/M02 A3020 RMK AO2,K6S5,2021-01-18T03:15:00Z,46.25,-114.13,2.0,-2.0,240,6,,10.0,30.200787,,,TRUE,TRUE,,,,,,,FEW,4700,BKN,6000,OVC,9000,,,VFR,,,,,,,,,,,,METAR,1112.0
K6S2 180315Z AUTO 00000KT 4SM BR CLR 08/07 A3045 RMK AO2 T00800071,K6S2,2021-01-18T03:15:00Z,43.98,-124.12,8.0,7.1,0,0,,4.0,30.448818,,,TRUE,TRUE,,,,,,BR,CLR,,,,,,,,MVFR,,,,,,,,,,,,METAR,16.0
K6S0 180315Z AUTO 27026G34KT 10SM FEW033 FEW049 02/M08 A2996 RMK A01,K6S0,2021-01-18T03:15:00Z,45.8,-109.97,2.0,-8.0,270,26,34,10.0,29.958662,,,TRUE,TRUE,,,,,,,FEW,3300,FEW,4900,,,,,VFR,,,,,,,,,,,,METAR,1364.0
K6R3 180315Z AUTO 00000KT 5SM HZ CLR 05/01 A3013 RMK AO2 T00450012,K6R3,2021-01-18T03:15:00Z,30.35,-95.0,4.5,1.2,0,0,,5.0,30.129921,,,TRUE,TRUE,,,,,,HZ,CLR,,,,,,,,MVFR,,,,,,,,,,,,METAR,44.0
K6P9 180315Z AUTO 28004KT 10SM CLR 07/M05 A3010 RMK AO2 T00661051,K6P9,2021-01-18T03:15:00Z,32.43,-98.6,6.6,-5.1,280,4,,10.0,30.100393,,,TRUE,TRUE,,,,,,,CLR,,,,,,,,VFR,,,,,,,,,,,,METAR,451.0
K6L4 180315Z AUTO 00000KT 5SM -SN BKN007 BKN011 OVC055 00/00 A2979 RMK AO2,K6L4,2021-01-18T03:15:00Z,37.85,-81.92,0.0,0.0,0,0,,5.0,29.790354,,,TRUE,TRUE,,,,,,-SN,BKN,700,BKN,1100,OVC,5500,,,IFR,,,,,,,,,,,,SPECI,504.0
K6I2 180315Z AUTO 24003KT 10SM CLR 00/M02 A2986 RMK AO2,K6I2,2021-01-18T03:15:00Z,37.63,-85.25,0.0,-2.0,240,3,,10.0,29.861221,,,TRUE,TRUE,,,,,,,CLR,,,,,,,,VFR,,,,,,,,,,,,METAR,258.0
K6B9 180315Z AUTO 24007KT 10SM OVC022 01/M00 A2960 RMK AO2,K6B9,2021-01-18T03:15:00Z,42.92,-76.43,1.0,0.0,240,7,,10.0,29.601377,,,TRUE,TRUE,,,,,,,OVC,2200,,,,,,,MVFR,,,,,,,,,,,,SPECI,306.0
K6B0 180315Z AUTO 17004KT 10SM BKN032 OVC038 M01/M04 A2955 RMK AO2 T10061039,K6B0,2021-01-18T03:15:00Z,43.98,-73.1,-0.6,-3.9,170,4,,10.0,29.551182,,,TRUE,TRUE,,,,,,,BKN,3200,OVC,3800,,,,,VFR,,,,,,,,,,,,SPECI,149.0
K6A2 180315Z AUTO 00000KT 10SM CLR 03/M03 A2995 RMK AO2,K6A2,2021-01-18T03:15:00Z,33.23,-84.27,3.0,-3.0,0,0,,10.0,29.949802,,,TRUE,TRUE,,,,,,,CLR,,,,,,,,VFR,,,,,,,,,,,,METAR,290.0
K6A1 180315Z AUTO 22006KT 10SM CLR 05/M02 A2997 RMK AO2 T00521020,K6A1,2021-01-18T03:15:00Z,32.57,-84.25,5.2,-2.0,220,6,,10.0,29.970472,,,TRUE,TRUE,,,,,,,CLR,,,,,,,,VFR,,,,,,,,,,,,METAR,198.0
K66R 180315Z AUTO 00000KT 10SM CLR 07/02 A3013 RMK AO2 T00690019,K66R,2021-01-18T03:15:00Z,29.65,-96.52,6.9,1.9,0,0,,10.0,30.129921,,,TRUE,TRUE,,,,,,,CLR,,,,,,,,VFR,,,,,,,,,,,,METAR,70.0
K63S 180315Z AUTO 00000KT 10SM OVC012 00/M01 A3034 RMK A01,K63S,2021-01-18T03:15:00Z,,,0.0,-1.0,0,0,,10.0,30.339567,,,TRUE,TRUE,,,,,,,OVC,1200,,,,,,,MVFR,,,,,,,,,,,,METAR,
K5SM 180315Z AUTO 25010G16KT 210V280 10SM SCT021 SCT049 OVC060 M05/M13 A3013 RMK AO2,K5SM,2021-01-18T03:15:00Z,39.43,-107.38,-5.0,-13.0,250,10,16,10.0,30.129921,,,TRUE,TRUE,,,,,,,SCT,2100,SCT,4900,OVC,6000,,,VFR,,,,,,,,,,,,METAR,3229.0
K5R8 180315Z AUTO 00000KT 10SM CLR 05/00 A3012 RMK AO2 T00500003,K5R8,2021-01-18T03:15:00Z,30.43,-93.47,5.0,0.3,0,0,,10.0,30.121063,,,TRUE,TRUE,,,,,,,CLR,,,,,,,,VFR,,,,,,,,,,,,METAR,26.0
K5M9 180315Z AUTO 29007KT 10SM BKN014 BKN028 OVC065 01/M01 A2990 RMK AO2 T00051012,K5M9,2021-01-18T03:15:00Z,37.33,-88.12,0.5,-1.2,290,7,,10.0,29.899607,,,TRUE,TRUE,,,,,,,BKN,1400,BKN,2800,OVC,6500,,,MVFR,,,,,,,,,,,,METAR,199.0
K5H4 180315Z AUTO 07003KT 10SM M07/M08 A2983 RMK AO2,K5H4,2021-01-18T03:15:00Z,47.78,-99.93,-7.0,-8.0,70,3,,10.0,29.828741,,,TRUE,TRUE,,,,,,,,,,,,,,,,,,,,,,,,,,,SPECI,490.0
K5C1 180315Z AUTO 00000KT 10SM CLR 06/01 RMK AO1,K5C1,2021-01-18T03:15:00Z,29.72,-98.7,6.0,1.0,0,0,,10.0,,,,TRUE,TRUE,,,,,,,CLR,,,,,,,,VFR,,,,,,,,,,,,SPECI,422.0
K57C 180315Z AUTO 29005KT 7SM -SN SCT009 SCT016 OVC028 M03/M03 A2974 RMK AO2 T10311033,K57C,2021-01-18T03:15:00Z,42.8,-88.37,-3.1,-3.3,290,5,,7.0,29.740158,,,TRUE,TRUE,,,,,,-SN,SCT,900,SCT,1600,OVC,2800,,,MVFR,,,,,,,,,,,,METAR,454.0
K54J 180315Z AUTO 00000KT 10SM CLR 06/02 A3005 RMK AO2 T00630018,K54J,2021-01-18T03:15:00Z,30.73,-86.15,6.3,1.8,0,0,,10.0,30.050198,,,TRUE,TRUE,,,,,,,CLR,,,,,,,,VFR,,,,,,,,,,,,METAR,87.0
K54A 180315Z AUTO 00000KT 10SM CLR 13/13 A3007 RMK AO2,K54A,2021-01-18T03:15:00Z,26.85,-82.25,13.0,13.0,0,0,,10.0,30.070866,,,TRUE,TRUE,,,,,,,CLR,,,,,,,,VFR,,,,,,,,,,,,METAR,2.0
K4V0 180315Z AUTO 19005KT 10SM BKN090 M02/M06 A3004 RMK AO2 T10211061,K4V0,2021-01-18T03:15:00Z,40.1,-108.77,-2.1,-6.1,190,5,,10.0,30.041338,,,TRUE,TRUE,,,,,,,BKN,9000,,,,,,,VFR,,,,,,,,,,,,METAR,1602.0
K4S2 180315Z AUTO 15003KT 10SM CLR 05/02 A3045 RMK AO2,K4S2,2021-01-18T03:15:00Z,45.68,-121.55,5.0,2.0,150,3,,10.0,30.448818,,,TRUE,TRUE,,,,,,,CLR,,,,,,,,VFR,,,,,,,,,,,,SPECI,183.0
K4S1 180315Z AUTO 35019G23KT 7SM CLR 11/08 A3028 RMK AO2,K4S1,2021-01-18T03:15:00Z,42.42,-124.42,11.0,8.0,350,19,23,7.0,30.280512,,,TRUE,TRUE,,,,,,,CLR,,,,,,,,VFR,,,,,,,,,,,,METAR,7.0
K4R5 180315Z AUTO 00000KT 10SM BKN015 OVC021 M04/M05 A2975 RMK AO2 T10361055,K4R5,2021-01-18T03:15:00Z,46.78,-90.77,-3.6,-5.5,0,0,,10.0,29.749016,,,TRUE,TRUE,,,,,,,BKN,1500,OVC,2100,,,,,MVFR,,,,,,,,,,,,METAR,195.0
K4O4 180315Z AUTO 24003KT 10SM CLR 05/M06 A3006 RMK AO2,K4O4,2021-01-18T03:15:00Z,33.92,-94.87,5.0,-6.0,240,3,,10.0,30.059055,,,TRUE,TRUE,,,,,,,CLR,,,,,,,,VFR,,,,,,,,,,,,SPECI,148.0
K4M9 180315Z AUTO 00000KT 10SM FEW050 FEW065 OVC080 05/M01 A2994 RMK AO2 PWINO,K4M9,2021-01-18T03:15:00Z,36.4,-90.65,5.0,-1.0,0,0,,10.0,29.940945,,,TRUE,TRUE,,,,,TRUE,,FEW,5000,FEW,6500,OVC,8000,,,VFR,,,,,,,,,,,,METAR,86.0
K4I3 180315Z AUTO 25008KT 2 1/2SM -SN BKN008 OVC012 M01/M02 A2973 RMK AO2,K4I3,2021-01-18T03:15:00Z,40.33,-82.53,-1.0,-2.0,250,8,,2.5,29.731298,,,TRUE,TRUE,,,,,,-SN,BKN,800,OVC,1200,,,,,IFR,,,,,,,,,,,,METAR,361.0
K4F2 180315Z AUTO 00000KT 10SM CLR 03/M02 A3011 RMK AO2 T00281016,K4F2,2021-01-18T03:15:00Z,32.18,-94.3,2.8,-1.6,0,0,,10.0,30.109253,,,TRUE,TRUE,,,,,,,CLR,,,,,,,,VFR,,,,,,,,,,,,METAR,76.0
K4BM 180315Z AUTO 26015KT 10SM CLR M02/M10 A2994 RMK AO2,K4BM,2021-01-18T03:15:00Z,39.05,-105.52,-2.0,-10.0,260,15,,10.0,29.940945,,,TRUE,TRUE,,,,,,,CLR,,,,,,,,VFR,,,,,,,,,,,,METAR,3432.0
K4A9 180315Z AUTO 00000KT 10SM BKN085 BKN120 02/M02 A2992 RMK AO2 T00211018,K4A9,2021-01-18T03:15:00Z,34.47,-85.72,2.1,-1.8,0,0,,10.0,29.920275,,,TRUE,TRUE,,,,,,,BKN,8500,BKN,12000,,,,,VFR,,,,,,,,,,,,METAR,273.0
K4A6 180315Z AUTO 28008KT 10SM SCT075 OVC090 07/M04 A2993 RMK AO2,K4A6,2021-01-18T03:15:00Z,34.68,-86.0,7.0,-4.0,280,8,,10.0,29.929134,,,TRUE,TRUE,,,,,,,SCT,7500,OVC,9000,,,,,VFR,,,,,,,,,,,,METAR,191.0
K49A 180315Z AUTO 23003KT 10SM BKN070 BKN095 05/M02 A2991 RMK AO2 T00541023,K49A,2021-01-18T03:15:00Z,34.63,-84.53,5.4,-2.3,230,3,,10.0,29.911417,,,TRUE,TRUE,,,,,,,BKN,7000,BKN,9500,,,,,VFR,,,,,,,,,,,,METAR,449.0
K48A 180315Z AUTO 22006KT 10SM CLR 06/00 A2999 RMK AO2 T00561004,K48A,2021-01-18T03:15:00Z,32.4,-83.27,5.6,-0.4,220,6,,10.0,29.991142,,,TRUE,TRUE,,,,,,,CLR,,,,,,,,VFR,,,,,,,,,,,,METAR,115.0
K46U 180315Z AUTO 30012KT 10SM OVC020 M01/M02 A3011 RMK A01,K46U,2021-01-18T03:15:00Z,43.18,-111.05,-1.0,-2.0,300,12,,10.0,30.109253,,,TRUE,TRUE,,,,,,,OVC,2000,,,,,,,MVFR,,,,,,,,,,,,METAR,1718.0
K46D 180315Z AUTO 18004KT 8SM OVC060 M05/M06 A2983 RMK AO2,K46D,2021-01-18T03:15:00Z,47.45,-99.15,-5.0,-6.0,180,4,,8.0,29.828741,,,TRUE,TRUE,,,,,,,OVC,6000,,,,,,,VFR,,,,,,,,,,,,SPECI,488.0
K42J 180315Z AUTO 25005KT 10SM SCT023 SCT030 06/03 A3006 RMK A01 TSNO,K42J,2021-01-18T03:15:00Z,29.85,-82.05,6.0,3.0,250,5,,10.0,30.059055,,,TRUE,TRUE,,,TRUE,,,,SCT,2300,SCT,3000,,,,,VFR,,,,,,,,,,,,METAR,57.0
K41U 180315Z AUTO 04005KT 10SM BKN055 M06/M07 A3018 RMK AO1 T10591075,K41U,2021-01-18T03:15:00Z,39.33,-111.6,-5.9,-7.5,40,5,,10.0,30.180119,,,TRUE,TRUE,,,,,,,BKN,5500,,,,,,,VFR,,,,,,,,,,,,METAR,1676.0
K3U3 180315Z AUTO 26011KT 10SM 00/M08 A3012 ,K3U3,2021-01-18T03:15:00Z,46.15,-112.87,0.0,-8.0,260,11,,10.0,30.121063,,,TRUE,,,,,,,,,,,,,,,,,,,,,,,,,,,,METAR,1534.0
K3T5 180315Z AUTO 00000KT 10SM CLR 07/02 A3010 RMK AO2 T00730015,K3T5,2021-01-18T03:15:00Z,29.9,-96.95,7.3,1.5,0,0,,10.0,30.100393,,,TRUE,TRUE,,,,,,,CLR,,,,,,,,VFR,,,,,,,,,,,,METAR,96.0
K3S8 180315Z AUTO 00000KT 6SM BR CLR 05/05 A3041 RMK AO2,K3S8,2021-01-18T03:15:00Z,42.5,-123.4,5.0,5.0,0,0,,6.0,30.410433,,,TRUE,TRUE,,,,,,BR,CLR,,,,,,,,VFR,,,,,,,,,,,,METAR,339.0
K3R7 180315Z AUTO 20003KT 10SM CLR 07/02 A3012 RMK AO2 T00660019,K3R7,2021-01-18T03:15:00Z,30.25,-92.67,6.6,1.9,200,3,,10.0,30.121063,,,TRUE,TRUE,,,,,,,CLR,,,,,,,,VFR,,,,,,,,,,,,METAR,5.0
K3N8 180315Z AUTO 33013KT 10SM -SN OVC015 M10/M12 A2983 RMK AO2 T11001120,K3N8,2021-01-18T03:15:00Z,47.25,-95.92,-10.0,-12.0,330,13,,10.0,29.828741,,,TRUE,TRUE,,,,,,-SN,OVC,1500,,,,,,,MVFR,,,,,,,,,,,,METAR,379.0
K3LF 180315Z AUTO 27004KT 10SM SCT010 OVC016 M01/M02 A2988 RMK AO2 T10101020,K3LF,2021-01-18T03:15:00Z,39.17,-89.67,-1.0,-2.0,270,4,,10.0,29.878937,,,TRUE,TRUE,,,,,,,SCT,1000,OVC,1600,,,,,MVFR,,,,,,,,,,,,METAR,207.0
K3K3 180315Z AUTO 19006KT 10SM CLR 01/M08 A2989 RMK AO2,K3K3,2021-01-18T03:15:00Z,38.0,-101.75,1.0,-8.0,190,6,,10.0,29.890747,,,TRUE,TRUE,,,,,,,CLR,,,,,,,,VFR,,,,,,,,,,,,METAR,1010.0
K3J7 180315Z AUTO 20005KT 10SM CLR 05/00 A2994 RMK AO2,K3J7,2021-01-18T03:15:00Z,33.6,-83.13,5.0,0.0,200,5,,10.0,29.940945,,,TRUE,TRUE,,,,,,,CLR,,,,,,,,VFR,,,,,,,,,,,,METAR,207.0
K3I2 180315Z AUTO 20006KT 10SM SCT011 OVC070 02/01 A2981 RMK AO2 T00150011,K3I2,2021-01-18T03:15:00Z,38.92,-82.1,1.5,1.1,200,6,,10.0,29.811024,,,TRUE,TRUE,,,,,,,SCT,1100,OVC,7000,,,,,VFR,,,,,,,,,,,,METAR,195.0
K3F3 180315Z AUTO 00000KT 10SM CLR 02/M01 A3015 RMK AO2 T00211006,K3F3,2021-01-18T03:15:00Z,32.07,-93.77,2.1,-0.6,0,0,,10.0,30.15059,,,TRUE,TRUE,,,,,,,CLR,,,,,,,,VFR,,,,,,,,,,,,METAR,96.0
K3D2 180315Z AUTO 36006KT 10SM BKN017 OVC023 M03/M06 A2971 RMK AO2 T10291056,K3D2,2021-01-18T03:15:00Z,45.13,-87.18,-2.9,-5.6,360,6,,10.0,29.71063,,,TRUE,TRUE,,,,,,,BKN,1700,OVC,2300,,,,,MVFR,,,,,,,,,,,,SPECI,233.0
K3AU 180315Z AUTO 24004KT 10SM CLR 00/M07 A2994 RMK AO2,K3AU,2021-01-18T03:15:00Z,37.67,-97.08,0.0,-7.0,240,4,,10.0,29.940945,,,TRUE,TRUE,,,,,,,CLR,,,,,,,,VFR,,,,,,,,,,,,METAR,403.0
K38S 180315Z AUTO 30008KT 10SM 01/M07 A3015 ,K38S,2021-01-18T03:15:00Z,46.38,-112.77,1.0,-7.0,300,8,,10.0,30.15059,,,TRUE,,,,,,,,,,,,,,,,,,,,,,,,,,,,METAR,1430.0
K35A 180315Z AUTO 00000KT 10SM SCT060 03/M02 A2994 RMK A02 T00301021,K35A,2021-01-18T03:15:00Z,,,3.0,-2.1,0,0,,10.0,29.940945,,,TRUE,TRUE,,,,,,,SCT,6000,,,,,,,VFR,,,,,,,,,,,,METAR,
K33V 180315Z AUTO 23017G28KT 10SM SCT065 OVC085 M01/M06 A2994 RMK AO2 T10131061,K33V,2021-01-18T03:15:00Z,40.75,-106.28,-1.3,-6.1,230,17,28,10.0,29.940945,,,TRUE,TRUE,,,,,,,SCT,6500,OVC,8500,,,,,VFR,,,,,,,,,,,,METAR,2486.0
K33N 180315Z AUTO 21004KT 10SM SCT060 OVC075 05/M01 A2977 RMK A01,K33N,2021-01-18T03:15:00Z,39.22,-75.6,5.0,-1.0,210,4,,10.0,29.769686,,,TRUE,TRUE,,,,,,,SCT,6000,OVC,7500,,,,,VFR,,,,,,,,,,,,METAR,17.0
K2W6 180315Z AUTO 21003KT 10SM BKN075 03/M02 A2981 RMK AO1,K2W6,2021-01-18T03:15:00Z,38.32,-76.55,3.0,-2.0,210,3,,10.0,29.811024,,,TRUE,TRUE,,,,,,,BKN,7500,,,,,,,VFR,,,,,,,,,,,,METAR,40.0
K2V5 180315Z AUTO 28007KT 10SM OVC080 03/M06 A2984 RMK AO2,K2V5,2021-01-18T03:15:00Z,40.1,-102.25,3.0,-6.0,280,7,,10.0,29.840551,,,TRUE,TRUE,,,,,,,OVC,8000,,,,,,,VFR,,,,,,,,,,,,METAR,1117.0
K2R9 180315Z AUTO 03005KT 10SM OVC060 12/07 A3012 RMK AO2 T01150073,K2R9,2021-01-18T03:15:00Z,28.82,-97.87,11.5,7.3,30,5,,10.0,30.121063,,,TRUE,TRUE,,,,,,,OVC,6000,,,,,,,VFR,,,,,,,,,,,,METAR,88.0
K2P2 180315Z AUTO 35006KT 10SM BKN016 OVC027 M03/M06 A2971 RMK AO2 T10291057,K2P2,2021-01-18T03:15:00Z,45.38,-86.92,-2.9,-5.7,350,6,,10.0,29.71063,,,TRUE,TRUE,,,,,,,BKN,1600,OVC,2700,,,,,MVFR,,,,,,,,,,,,METAR,182.0
K2M2 180315Z AUTO 00000KT 10SM SCT042 BKN049 OVC110 M00/M06 A2991 RMK A01,K2M2,2021-01-18T03:15:00Z,35.23,-87.25,0.0,-6.0,0,0,,10.0,29.911417,,,TRUE,TRUE,,,,,,,SCT,4200,BKN,4900,OVC,11000,,,VFR,,,,,,,,,,,,METAR,286.0
K2LS 180315Z AUTO 25005KT 10SM SCT040 SCT046 10/06 A3013 RMK AO2 TSNO,K2LS,2021-01-18T03:15:00Z,29.42,-90.3,10.0,6.0,250,5,,10.0,30.129921,,,TRUE,TRUE,,,TRUE,,,,SCT,4000,SCT,4600,,,,,VFR,,,,,,,,,,,,METAR,0.0
K2J9 180315Z AUTO 25006KT 10SM CLR 07/02 A3006 RMK AO2,K2J9,2021-01-18T03:15:00Z,30.6,-84.55,7.0,2.0,250,6,,10.0,30.059055,,,TRUE,TRUE,,,,,,,CLR,,,,,,,,VFR,,,,,,,,,,,,METAR,62.0
K2J3 180315Z AUTO 00000KT 10SM CLR 03/01 A2998 RMK AO2 T00280006,K2J3,2021-01-18T03:15:00Z,32.98,-82.38,2.8,0.6,0,0,,10.0,29.97933,,,TRUE,TRUE,,,,,,,CLR,,,,,,,,VFR,,,,,,,,,,,,METAR,97.0
K2IS 180315Z AUTO 00000KT 10SM SCT120 14/12 A3009 RMK AO2 T01380117,K2IS,2021-01-18T03:15:00Z,26.73,-81.05,13.8,11.7,0,0,,10.0,30.088583,,,TRUE,TRUE,,,,,,,SCT,12000,,,,,,,VFR,,,,,,,,,,,,METAR,5.0
K2I0 180315Z AUTO 30007KT 10SM BKN027 OVC034 03/M03 A2990 RMK AO2 T00261026,K2I0,2021-01-18T03:15:00Z,37.35,-87.4,2.6,-2.6,300,7,,10.0,29.899607,,,TRUE,TRUE,,,,,,,BKN,2700,OVC,3400,,,,,MVFR,,,,,,,,,,,,METAR,127.0
K2G9 180315Z AUTO 22012KT 2 1/2SM -SN OVC006 M01/M02 A2966 RMK AO2 P0001,K2G9,2021-01-18T03:15:00Z,40.03,-79.02,-1.0,-2.0,220,12,,2.5,29.660433,,,TRUE,TRUE,,,,,,-SN,OVC,600,,,,,,,IFR,,,,,,0.01,,,,,,METAR,677.0
K2G4 180315Z AUTO 24010G16KT 5SM BKN009 OVC014 M03/M03 A2965 RMK AO1,K2G4,2021-01-18T03:15:00Z,39.58,-79.33,-3.0,-3.0,240,10,16,5.0,29.648623,,,TRUE,TRUE,,,,,,,BKN,900,OVC,1400,,,,,IFR,,,,,,,,,,,,SPECI,908.0
K2D5 180315Z AUTO 00000KT 10SM SCT030 M06/M06 A2983 RMK AO2,K2D5,2021-01-18T03:15:00Z,46.17,-98.08,-6.0,-6.0,0,0,,10.0,29.828741,,,TRUE,TRUE,,,,,,,SCT,3000,,,,,,,VFR,,,,,,,,,,,,SPECI,407.0
K2C8 180315Z AUTO 36004KT 10SM FEW007 OVC080 M12/M14 A2988 RMK AO2,K2C8,2021-01-18T03:15:00Z,48.78,-97.63,-12.0,-14.0,360,4,,10.0,29.878937,,,TRUE,TRUE,,,,,,,FEW,700,OVC,8000,,,,,VFR,,,,,,,,,,,,SPECI,271.0
K2A0 180315Z AUTO 26006KT 10SM FEW036 SCT047 OVC110 07/M04 A2988 RMK A01,K2A0,2021-01-18T03:15:00Z,35.48,-84.93,7.0,-4.0,260,6,,10.0,29.878937,,,TRUE,TRUE,,,,,,,FEW,3600,SCT,4700,OVC,11000,,,VFR,,,,,,,,,,,,METAR,219.0
K27K 180315Z AUTO 24007KT 10SM BKN070 OVC090 00/M02 A2983 RMK AO1,K27K,2021-01-18T03:15:00Z,38.23,-84.43,0.0,-2.0,240,7,,10.0,29.828741,,,TRUE,TRUE,,,,,,,BKN,7000,OVC,9000,,,,,VFR,,,,,,,,,,,,METAR,283.0
K24J 180315Z AUTO 00000KT 10SM CLR 06/03 A3005 RMK A01,K24J,2021-01-18T03:15:00Z,30.3,-83.03,6.0,3.0,0,0,,10.0,30.050198,,,TRUE,TRUE,,,,,,,CLR,,,,,,,,VFR,,,,,,,,,,,,SPECI,30.0
K24A 180315Z AUTO 21004KT 10SM SCT032 BKN070 OVC120 00/M03 A2984 RMK AO2 T00041027,K24A,2021-01-18T03:15:00Z,35.32,-83.2,0.4,-2.7,210,4,,10.0,29.840551,,,TRUE,TRUE,,,,,,,SCT,3200,BKN,7000,OVC,12000,,,VFR,,,,,,,,,,,,SPECI,864.0
K22N 180315Z AUTO 00000KT 10SM OVC085 01/00 A2972 RMK AO2,K22N,2021-01-18T03:15:00Z,40.8,-75.77,1.0,0.0,0,0,,10.0,29.719488,,,TRUE,TRUE,,,,,,,OVC,8500,,,,,,,VFR,,,,,,,,,,,,SPECI,159.0
K20V 180315Z AUTO 00000KT 10SM SCT032 BKN039 OVC045 00/M06 A2999 RMK AO2,K20V,2021-01-18T03:15:00Z,40.05,-106.37,0.0,-6.0,0,0,,10.0,29.991142,,,TRUE,TRUE,,,,,,,SCT,3200,BKN,3900,OVC,4500,,,VFR,,,,,,,,,,,,METAR,2259.0
K20U 180315Z AUTO 00000KT 3SM -SN SCT006 OVC012 M02/M02 A2975 RMK AO2,K20U,2021-01-18T03:15:00Z,46.93,-103.98,-2.0,-2.0,0,0,,3.0,29.749016,,,TRUE,TRUE,,,,,,-SN,SCT,600,OVC,1200,,,,,MVFR,,,,,,,,,,,,METAR,839.0
K1V6 180315Z AUTO 00000KT 10SM CLR M01/M07 A2985 RMK AO2,K1V6,2021-01-18T03:15:00Z,38.43,-105.1,-1.0,-7.0,0,0,,10.0,29.84941,,,TRUE,TRUE,,,,,,,CLR,,,,,,,,VFR,,,,,,,,,,,,METAR,1658.0
K1U7 180315Z AUTO 30011KT 10SM OVC035 02/M01 A3009 RMK A01,K1U7,2021-01-18T03:15:00Z,42.25,-111.33,2.0,-1.0,300,11,,10.0,30.088583,,,TRUE,TRUE,,,,,,,OVC,3500,,,,,,,VFR,,,,,,,,,,,,METAR,1808.0
K1S5 180315Z AUTO 04003KT 7SM CLR 01/00 A3039 RMK AO2 T00080000,K1S5,2021-01-18T03:15:00Z,46.33,-119.97,0.8,0.0,40,3,,7.0,30.389763,,,TRUE,TRUE,,,,,,,CLR,,,,,,,,VFR,,,,,,,,,,,,METAR,228.0
K1R7 180315Z AUTO 30004KT 10SM CLR 08/M05 A3009 RMK AO2 PWINO,K1R7,2021-01-18T03:15:00Z,31.6,-90.42,8.0,-5.0,300,4,,10.0,30.088583,,,TRUE,TRUE,,,,,TRUE,,CLR,,,,,,,,VFR,,,,,,,,,,,,SPECI,142.0
K1P1 180315Z AUTO 29005KT 10SM SCT032 OVC043 02/M04 A2952 RMK AO2 T00151040,K1P1,2021-01-18T03:15:00Z,43.78,-71.75,1.5,-4.0,290,5,,10.0,29.518702,,,TRUE,TRUE,,,,,,,SCT,3200,OVC,4300,,,,,VFR,,,,,,,,,,,,METAR,155.0
K1M5 180315Z AUTO 25005KT 10SM FEW030 OVC065 03/M04 A2988 RMK A01,K1M5,2021-01-18T03:15:00Z,36.6,-86.48,3.0,-4.0,250,5,,10.0,29.878937,,,TRUE,TRUE,,,,,,,FEW,3000,OVC,6500,,,,,VFR,,,,,,,,,,,,METAR,239.0
K1K1 180315Z AUTO 23005KT 10SM CLR 00/M08 A2995 RMK AO2 T00021077,K1K1,2021-01-18T03:15:00Z,37.77,-97.12,0.2,-7.7,230,5,,10.0,29.949802,,,TRUE,TRUE,,,,,,,CLR,,,,,,,,VFR,,,,,,,,,,,,METAR,411.0
K1H2 180315Z AUTO 27009G15KT 10SM OVC090 M01/M03 A2988 RMK AO2 T10101034,K1H2,2021-01-18T03:15:00Z,39.07,-88.53,-1.0,-3.4,270,9,15,10.0,29.878937,,,TRUE,TRUE,,,,,,,OVC,9000,,,,,,,VFR,,,,,,,,,,,,METAR,174.0
K1F0 180315Z AUTO 00000KT 10SM CLR 02/M06 A3006 RMK AO2 T00221061,K1F0,2021-01-18T03:15:00Z,34.15,-97.12,2.2,-6.1,0,0,,10.0,30.059055,,,TRUE,TRUE,,,,,,,CLR,,,,,,,,VFR,,,,,,,,,,,,METAR,256.0
K1A9 180315Z AUTO 27004KT 10SM OVC095 08/00 A2999 RMK AO2 T00780000,K1A9,2021-01-18T03:15:00Z,32.43,-86.52,7.8,0.0,270,4,,10.0,29.991142,,,TRUE,TRUE,,,,,,,OVC,9500,,,,,,,VFR,,,,,,,,,,,,METAR,65.0
K1A6 180315Z AUTO 25004KT 10SM BKN047 BKN060 OVC070 03/M01 A2984 RMK AO2 T00271006,K1A6,2021-01-18T03:15:00Z,36.62,-83.73,2.7,-0.6,250,4,,10.0,29.840551,,,TRUE,TRUE,,,,,,,BKN,4700,BKN,6000,OVC,7000,,,VFR,,,,,,,,,,,,METAR,348.0
K1A5 180315Z AUTO 00000KT 10SM SCT006 SCT013 SCT025 02/M01 A2989 RMK AO2 T00151007,K1A5,2021-01-18T03:15:00Z,35.22,-83.42,1.5,-0.7,0,0,,10.0,29.890747,,,TRUE,TRUE,,,,,,,SCT,600,SCT,1300,SCT,2500,,,VFR,,,,,,,,,,,,METAR,611.0
K19S 180315Z AUTO 22010KT 10SM CLR 03/M09 A2993 RMK AO2 T00261087,K19S,2021-01-18T03:15:00Z,37.48,-100.83,2.6,-8.7,220,10,,10.0,29.929134,,,TRUE,TRUE,,,,,,,CLR,,,,,,,,VFR,,,,,,,,,,,,METAR,886.0
K18H 180315Z AUTO 00000KT 9SM SCT075 18/07 A3013 RMK A01,K18H,2021-01-18T03:15:00Z,26.13,-92.03,18.0,7.0,0,0,,9.0,30.129921,,,TRUE,TRUE,,,,,,,SCT,7500,,,,,,,VFR,,,,,,,,,,,,METAR,30.0
K18A 180315Z AUTO 23004KT 10SM CLR 04/M02 A2990 RMK AO2 T00411021,K18A,2021-01-18T03:15:00Z,34.35,-83.13,4.1,-2.1,230,4,,10.0,29.899607,,,TRUE,TRUE,,,,,,,CLR,,,,,,,,VFR,,,,,,,,,,,,METAR,260.0
K17J 180315Z AUTO 24005KT 10SM CLR 07/01 A3004 RMK AO2 T00740006,K17J,2021-01-18T03:15:00Z,31.0,-84.87,7.4,0.6,240,5,,10.0,30.041338,,,TRUE,TRUE,,,,,,,CLR,,,,,,,,VFR,,,,,,,,,,,,METAR,42.0
K14Y 180315Z AUTO 33008KT 10SM OVC015 M06/M08 A2980 RMK AO2,K14Y,2021-01-18T03:15:00Z,45.9,-94.87,-6.0,-8.0,330,8,,10.0,29.799213,,,TRUE,TRUE,,,,,,,OVC,1500,,,,,,,MVFR,,,,,,,,,,,,SPECI,404.0
K13K 180315Z AUTO 25006KT 10SM CLR M02/M07 A2994 RMK AO2 T10191069,K13K,2021-01-18T03:15:00Z,37.85,-96.3,-1.9,-6.9,250,6,,10.0,29.940945,,,TRUE,TRUE,,,,,,,CLR,,,,,,,,VFR,,,,,,,,,,,,METAR,367.0
K11R 180315Z AUTO 00000KT 10SM CLR 08/01 A3013 RMK AO2 T00810013,K11R,2021-01-18T03:15:00Z,30.22,-96.37,8.1,1.3,0,0,,10.0,30.129921,,,TRUE,TRUE,,,,,,,CLR,,,,,,,,VFR,,,,,,,,,,,,SPECI,87.0
K0V4 180315Z AUTO 18008KT 10SM BKN060 OVC075 05/M01 A2982 RMK AO1 T00471011,K0V4,2021-01-18T03:15:00Z,37.15,-79.02,4.7,-1.1,180,8,,10.0,29.819881,,,TRUE,TRUE,,,,,,,BKN,6000,OVC,7500,,,,,VFR,,,,,,,,,,,,SPECI,186.0
K0S9 180315Z AUTO 29006KT 10SM OVC044 08/06 A3053 RMK AO2,K0S9,2021-01-18T03:15:00Z,48.05,-122.82,8.0,6.0,290,6,,10.0,30.528543,,,TRUE,TRUE,,,,,,,OVC,4400,,,,,,,VFR,,,,,,,,,,,,METAR,33.0
K0R4 180315Z AUTO 29006KT 10SM CLR 07/M02 A3011 RMK AO2 T00681018,K0R4,2021-01-18T03:15:00Z,31.57,-91.5,6.8,-1.8,290,6,,10.0,30.109253,,,TRUE,TRUE,,,,,,,CLR,,,,,,,,VFR,,,,,,,,,,,,METAR,16.0
K0R0 180315Z AUTO 00000KT 10SM OVC100 10/M04 A3009 RMK AO2,K0R0,2021-01-18T03:15:00Z,31.3,-89.82,10.0,-4.0,0,0,,10.0,30.088583,,,TRUE,TRUE,,,,,,,OVC,10000,,,,,,,VFR,,,,,,,,,,,,METAR,76.0
K0F2 180315Z AUTO 00000KT 10SM CLR 01/M05 A3008 RMK AO2 T00131046,K0F2,2021-01-18T03:15:00Z,33.6,-97.78,1.3,-4.6,0,0,,10.0,30.079725,,,TRUE,TRUE,,,,,,,CLR,,,,,,,,VFR,,,,,,,,,,,,METAR,330.0
K0E0 180315Z AUTO 00000KT 10SM CLR 04/M16 A3007 RMK AO2 T00381160,K0E0,2021-01-18T03:15:00Z,34.98,-106.0,3.8,-16.0,0,0,,10.0,30.070866,,,TRUE,TRUE,,,,,,,CLR,,,,,,,,VFR,,,,,,,,,,,,SPECI,1887.0
K0CO 180315Z AUTO 28037G51KT 1 1/4SM SN BKN008 OVC014 M08/M17 A2995 RMK AO2,K0CO,2021-01-18T03:15:00Z,39.8,-105.77,-8.0,-17.0,280,37,51,1.25,29.949802,,,TRUE,TRUE,,,,,,SN,BKN,800,OVC,1400,,,,,IFR,,,,,,,,,,,,METAR,3804.0
K0A0 180315Z AUTO 16004KT 10SM CLR 06/M17 A3004 RMK AO2,K0A0,2021-01-18T03:15:00Z,32.98,-106.97,6.0,-17.0,160,4,,10.0,30.041338,,,TRUE,TRUE,,,,,,,CLR,,,,,,,,VFR,,,,,,,,,,,,METAR,1401.0
K08D 180315Z AUTO 00000KT 3SM -SN FEW003 SCT037 BKN048 M03/M03 A2977 RMK AO2,K08D,2021-01-18T03:15:00Z,48.3,-102.4,-3.0,-3.0,0,0,,3.0,29.769686,,,TRUE,TRUE,,,,,,-SN,FEW,300,SCT,3700,BKN,4800,,,MVFR,,,,,,,,,,,,METAR,683.0
K06D 180315Z AUTO 14004KT 10SM BKN036 OVC070 M08/M08 A2979 RMK AO2,K06D,2021-01-18T03:15:00Z,48.88,-99.62,-8.0,-8.0,140,4,,10.0,29.790354,,,TRUE,TRUE,,,,,,,BKN,3600,OVC,7000,,,,,VFR,,,,,,,,,,,,SPECI,554.0
K06C 180315Z AUTO 00000KT 10SM SCT040 M02/M04 A2975 RMK AO2 T10191040,K06C,2021-01-18T03:15:00Z,41.98,-88.1,-1.9,-4.0,0,0,,10.0,29.749016,,,TRUE,TRUE,,,,,,,SCT,4000,,,,,,,VFR,,,,,,,,,,,,METAR,243.0
K05U 180315Z AUTO 00000KT 10SM CLR M03/M06 A3026 RMK A01,K05U,2021-01-18T03:15:00Z,39.6,-116.0,-3.0,-6.0,0,0,,10.0,30.259842,,,TRUE,TRUE,,,,,,,CLR,,,,,,,,VFR,,,,,,,,,,,,METAR,1813.0
K04W 180315Z AUTO 29003KT 10SM -SN BKN019 OVC043 M06/M08 A2979 RMK AO2,K04W,2021-01-18T03:15:00Z,46.02,-92.9,-6.0,-8.0,290,3,,10.0,29.790354,,,TRUE,TRUE,,,,,,-SN,BKN,1900,OVC,4300,,,,,MVFR,,,,,,,,,,,,METAR,310.0
K04V 180315Z AUTO 30015KT 10SM CLR 02/M10 A3000 RMK AO2,K04V,2021-01-18T03:15:00Z,38.1,-106.17,2.0,-10.0,300,15,,10.0,30.0,,,TRUE,TRUE,,,,,,,CLR,,,,,,,,VFR,,,,,,,,,,,,METAR,2389.0
EHVK 180315Z AUTO 23007KT 9000 BR FEW016 SCT022 OVC031 02/02 Q1023 WHT,EHVK,2021-01-18T03:15:00Z,51.65,5.7,2.0,2.0,230,7,,5.59,30.206694,,,TRUE,,,,,,,BR,FEW,1600,SCT,2200,OVC,3100,,,VFR,,,,,,,,,,,,SPECI,20.0
CYCY 180315Z AUTO 32021KT 1SM -SN BKN005 OVC150 M15/M16 A2991 RMK SLP132,CYCY,2021-01-18T03:15:00Z,70.48,-68.52,-15.0,-16.0,320,21,,1.0,29.911417,1013.2,,TRUE,,,,,,,-SN,BKN,500,OVC,15000,,,,,IFR,,,,,,,,,,,,SPECI,73.0
CYCK 180315Z AUTO 26008KT 3SM -SN SCT007 BKN014 00/M00 A2965 RMK SLP052,CYCK,2021-01-18T03:15:00Z,42.3,-82.08,0.0,0.0,260,8,,3.0,29.648623,1005.2,,TRUE,,,,,,,-SN,SCT,700,BKN,1400,,,,,MVFR,,,,,,,,,,,,SPECI,196.0
CWPF 180315Z AUTO 02005KT 06/05 RMK AO1 SLP341 T00630053 53013,CWPF,2021-01-18T03:15:00Z,48.43,-123.43,6.3,5.3,20,5,,,,1034.1,,TRUE,TRUE,,,,,,,,,,,,,,,,1.3,,,,,,,,,,,METAR,5.0
YBTL 180314Z 11013KT 8000 -SHRA FEW008 SCT014 BKN035 26/25 Q1008,YBTL,2021-01-18T03:14:00Z,-19.25,146.75,26.0,25.0,110,13,,4.97,29.763779,,,,,,,,,,-SHRA,FEW,800,SCT,1400,BKN,3500,,,MVFR,,,,,,,,,,,,SPECI,4.0
RJOZ 180314Z 10002KT 9000 -SHRASN FEW003 BKN008 BKN015 03/01 Q1020 RMK 1ST003 5ST008 7CU015 A3012,RJOZ,2021-01-18T03:14:00Z,34.03,131.05,3.0,1.0,100,2,,5.59,30.11811,,,,,,,,,,-SHRA -SHSN,FEW,300,BKN,800,BKN,1500,,,IFR,,,,,,,,,,,,METAR,4.0
LKKV 180314Z 27005KT 1500 SN BR BKN004 OVC030 M05/M05 Q1018 R29/////// RMK REG QNH 1016,LKKV,2021-01-18T03:14:00Z,50.2,12.92,-5.0,-5.0,270,5,,0.93,30.059055,,,,,,,,,,SN BR,BKN,400,OVC,3000,,,,,LIFR,,,,,,,,,,,,SPECI,600.0
KSBN 180314Z 24008KT 4SM -SN BR FEW007 BKN012 OVC039 M02/M04 A2972 RMK AO2 P0000 T10171039,KSBN,2021-01-18T03:14:00Z,41.7,-86.32,-1.7,-3.9,240,8,,4.0,29.719488,,,,TRUE,,,,,,-SN BR,FEW,700,BKN,1200,OVC,3900,,,MVFR,,,,,,0.005,,,,,,SPECI,236.0
KNY0 180314Z AUTO 29007KT 10SM OVC020 M01/M01 A2959 RMK AO2,KNY0,2021-01-18T03:14:00Z,42.98,-74.33,-1.0,-1.0,290,7,,10.0,29.589567,,,TRUE,TRUE,,,,,,,OVC,2000,,,,,,,MVFR,,,,,,,,,,,,METAR,266.0
KMMH 180314Z AUTO 28008KT 10SM CLR 03/M07 A3023 RMK AO2,KMMH,2021-01-18T03:14:00Z,37.62,-118.83,3.0,-7.0,280,8,,10.0,30.230314,,,TRUE,TRUE,,,,,,,CLR,,,,,,,,VFR,,,,,,,,,,,,METAR,2167.0
KMEH 180314Z AUTO 00000KT 1 1/2SM HZ FEW002 M01/M04 A3033 RMK AO2 T10111039,KMEH,2021-01-18T03:14:00Z,45.52,-118.42,-1.1,-3.9,0,0,,1.5,30.33071,,,TRUE,TRUE,,,,,,HZ,FEW,200,,,,,,,IFR,,,,,,,,,,,,METAR,1138.0
KLWT 180314Z AUTO 30014KT 1 1/2SM -SN BR OVC003 M01/M01 A2995 RMK AO2 P0000 T10061011,KLWT,2021-01-18T03:14:00Z,47.05,-109.47,-0.6,-1.1,300,14,,1.5,29.949802,,,TRUE,TRUE,,,,,,-SN BR,OVC,300,,,,,,,LIFR,,,,,,0.005,,,,,,SPECI,1254.0
KKLS 180314Z AUTO 32004KT 10SM BKN029 OVC045 09/07 A3053 RMK AO2 PRESRR,KKLS,2021-01-18T03:14:00Z,46.12,-122.9,9.0,7.0,320,4,,10.0,30.528543,,,TRUE,TRUE,,,,,,,BKN,2900,OVC,4500,,,,,MVFR,,,,,,,,,,,,SPECI,4.0
KCPS 180314Z AUTO 29005KT 10SM BKN023 OVC032 01/M01 A2989 RMK AO2 T00111006,KCPS,2021-01-18T03:14:00Z,38.53,-90.15,1.1,-0.6,290,5,,10.0,29.890747,,,TRUE,TRUE,,,,,,,BKN,2300,OVC,3200,,,,,MVFR,,,,,,,,,,,,SPECI,125.0
KAXN 180314Z AUTO 33010KT 10SM SCT014 OVC021 M06/M09 A2980 RMK AO2 T10611089,KAXN,2021-01-18T03:14:00Z,45.87,-95.4,-6.1,-8.9,330,10,,10.0,29.799213,,,TRUE,TRUE,,,,,,,SCT,1400,OVC,2100,,,,,MVFR,,,,,,,,,,,,SPECI,433.0
KAOH 180314Z AUTO 26008KT 10SM BKN012 M02/M03 A2972 RMK AO2 T10221033 $,KAOH,2021-01-18T03:14:00Z,40.7,-84.02,-2.2,-3.3,260,8,,10.0,29.719488,,,TRUE,TRUE,TRUE,,,,,,BKN,1200,,,,,,,MVFR,,,,,,,,,,,,SPECI,294.0
EHVL 180314Z AUTO 26015KT 9999 SCT016 BKN020 OVC220 06/04 Q1019 WHT,EHVL,2021-01-18T03:14:00Z,53.28,5.08,6.0,4.0,260,15,,6.21,30.088583,,,TRUE,,,,,,,,SCT,1600,BKN,2000,OVC,22000,,,MVFR,,,,,,,,,,,,SPECI,2.0
CYZS 180314Z 00000KT 15SM IC SCT033 M32/M35 A2982 RMK SC3 SLP113,CYZS,2021-01-18T03:14:00Z,64.2,-83.35,-32.0,-35.0,0,0,,15.0,29.819881,1011.3,,,,,,,,,IC,SCT,3300,,,,,,,VFR,,,,,,,,,,,,SPECI,60.0
CYYT 180314Z 26013KT 15SM BKN005 BKN240 03/02 A2949 RMK SF5CI2 SLP992,CYYT,2021-01-18T03:14:00Z,47.62,-52.73,3.0,2.0,260,13,,15.0,29.489174,999.2,,,,,,,,,,BKN,500,BKN,24000,,,,,IFR,,,,,,,,,,,,SPECI,128.0
CYKJ 180314Z AUTO 18003KT 9SM -SN OVC027 M16/M19 A2986 RMK SLP172,CYKJ,2021-01-18T03:14:00Z,57.25,-105.62,-16.0,-19.0,180,3,,9.0,29.861221,1017.2,,TRUE,,,,,,,-SN,OVC,2700,,,,,,,MVFR,,,,,,,,,,,,SPECI,519.0
YMML 180313Z 22015G25KT 9999 SCT046 23/09 Q1016 RF00/0/000/0,YMML,2021-01-18T03:13:00Z,-37.67,144.82,23.0,9.0,220,15,25,6.21,30.0,,,,,,,,,,,SCT,4600,,,,,,,VFR,,,,,,,,,,,,SPECI,115.0
PAVC 180313Z AUTO 34035G54KT 1/2SM SN OVC005 A2953 RMK AO2 PK WND 34054/0311 CIG 002V008 PRESRR P0000 FZRANO $,PAVC,2021-01-18T03:13:00Z,55.12,-162.27,,,340,35,54,0.5,29.530512,,,TRUE,TRUE,TRUE,,,TRUE,,SN,OVC,500,,,,,,,LIFR,,,,,,0.005,,,,,,SPECI,48.0
PAQH 180313Z AUTO 32015KT 4SM -SN BR OVC032 M11/M12 A2958 RMK AO2 P0000 FZRANO,PAQH,2021-01-18T03:13:00Z,59.75,-161.85,-11.0,-12.0,320,15,,4.0,29.58071,,,TRUE,TRUE,,,,TRUE,,-SN BR,OVC,3200,,,,,,,MVFR,,,,,,0.005,,,,,,SPECI,8.0
PAMB 180313Z AUTO 07011KT 2SM -SN BR BKN003 OVC007 00/M01 A2944 RMK AO2 P0000 FZRANO $,PAMB,2021-01-18T03:13:00Z,58.98,-159.05,0.0,-1.0,70,11,,2.0,29.438976,,,TRUE,TRUE,TRUE,,,TRUE,,-SN BR,BKN,300,OVC,700,,,,,LIFR,,,,,,0.005,,,,,,SPECI,28.0
KXVG 180313Z AUTO 29004KT 10SM -SN OVC018 M08/M09 A2978 RMK AO2,KXVG,2021-01-18T03:13:00Z,46.98,-94.2,-8.0,-9.0,290,4,,10.0,29.778543,,,TRUE,TRUE,,,,,,-SN,OVC,1800,,,,,,,MVFR,,,,,,,,,,,,METAR,407.0
KSET 180313Z AUTO 32007KT 10SM SCT025 OVC031 02/M03 A2988 RMK AO2 T00171028 $,KSET,2021-01-18T03:13:00Z,38.93,-90.43,1.7,-2.8,320,7,,10.0,29.878937,,,TRUE,TRUE,TRUE,,,,,,SCT,2500,OVC,3100,,,,,VFR,,,,,,,,,,,,SPECI,133.0
KOWA 180313Z AUTO 00000KT 1/2SM FZFG OVC001 M05/M06 A2979 RMK AO2,KOWA,2021-01-18T03:13:00Z,44.12,-93.25,-5.0,-6.0,0,0,,0.5,29.790354,,,TRUE,TRUE,,,,,,FZFG,OVC,100,,,,,,,LIFR,,,,,,,,,,,,METAR,345.0
KORB 180313Z AUTO 00000KT 7SM OVC006 M08/M09 A2972 RMK AO2,KORB,2021-01-18T03:13:00Z,48.02,-92.87,-8.0,-9.0,0,0,,7.0,29.719488,,,TRUE,TRUE,,,,,,,OVC,600,,,,,,,IFR,,,,,,,,,,,,SPECI,407.0
KMNN 180313Z AUTO 27006KT 9SM FEW009 OVC049 M01/M03 A2972 RMK AO2 SNE0257 P0000 T10111028,KMNN,2021-01-18T03:13:00Z,40.62,-83.07,-1.1,-2.8,270,6,,9.0,29.719488,,,TRUE,TRUE,,,,,,,FEW,900,OVC,4900,,,,,VFR,,,,,,0.005,,,,,,SPECI,301.0
KFOZ 180313Z AUTO 00000KT 5SM SCT011 OVC023 M09/M10 A2981 RMK AO2,KFOZ,2021-01-18T03:13:00Z,47.77,-93.65,-9.0,-10.0,0,0,,5.0,29.811024,,,TRUE,TRUE,,,,,,,SCT,1100,OVC,2300,,,,,MVFR,,,,,,,,,,,,METAR,412.0
KETH 180313Z AUTO 00000KT 10SM OVC016 M05/M07 A2986 RMK AO2,KETH,2021-01-18T03:13:00Z,45.78,-96.55,-5.0,-7.0,0,0,,10.0,29.861221,,,TRUE,TRUE,,,,,,,OVC,1600,,,,,,,MVFR,,,,,,,,,,,,SPECI,309.0
KELZ 180313Z AUTO 26005KT 2SM -SN BR SCT011 BKN014 OVC019 M02/M02 A2960 RMK AO2 P0000 T10171022 $,KELZ,2021-01-18T03:13:00Z,42.1,-77.98,-1.7,-2.2,260,5,,2.0,29.601377,,,TRUE,TRUE,TRUE,,,,,-SN BR,SCT,1100,BKN,1400,OVC,1900,,,IFR,,,,,,0.005,,,,,,SPECI,639.0
KDVP 180313Z AUTO 35008KT 10SM OVC046 M04/M06 A2982 RMK AO2 T10411065,KDVP,2021-01-18T03:13:00Z,43.98,-95.78,-4.1,-6.5,350,8,,10.0,29.819881,,,TRUE,TRUE,,,,,,,OVC,4600,,,,,,,VFR,,,,,,,,,,,,METAR,493.0
KBJJ 180313Z AUTO 24005KT 3SM -SN BR FEW006 BKN010 OVC016 M01/M01 A2969 RMK AO2 P0000 T10061011,KBJJ,2021-01-18T03:13:00Z,40.87,-81.88,-0.6,-1.1,240,5,,3.0,29.68996,,,TRUE,TRUE,,,,,,-SN BR,FEW,600,BKN,1000,OVC,1600,,,MVFR,,,,,,0.005,,,,,,SPECI,338.0
KAQP 180313Z AUTO 34008KT 10SM M04/M07 A2984 RMK AO2,KAQP,2021-01-18T03:13:00Z,45.22,-96.0,-4.0,-7.0,340,8,,10.0,29.840551,,,TRUE,TRUE,,,,,,,,,,,,,,,,,,,,,,,,,,,SPECI,312.0
ETAD 180313Z AUTO 23004KT 9999 SCT009 BKN032 00/M01 A3022 RMK AO2 SLP243 $,ETAD,2021-01-18T03:13:00Z,49.98,6.7,0.0,-1.0,230,4,,6.21,30.221457,1024.3,,TRUE,TRUE,TRUE,,,,,,SCT,900,BKN,3200,,,,,VFR,,,,,,,,,,,,METAR,365.0
CYRV 180313Z AUTO 10003KT 3SM BR SCT002 BKN009 OVC020 M00/M00 A3030 RMK SLP288,CYRV,2021-01-18T03:13:00Z,50.97,-118.17,0.0,0.0,100,3,,3.0,30.301182,1028.8,,TRUE,,,,,,,BR,SCT,200,BKN,900,OVC,2000,,,IFR,,,,,,,,,,,,SPECI,456.0
CYQG 180313Z AUTO 24006KT 4SM -SN SCT013 BKN020 M00/M01 A2966 RMK SLP058,CYQG,2021-01-18T03:13:00Z,42.27,-82.97,0.0,-1.0,240,6,,4.0,29.660433,1005.8,,TRUE,,,,,,,-SN,SCT,1300,BKN,2000,,,,,MVFR,,,,,,,,,,,,SPECI,189.0
CYHZ 180313Z CCA 24016KT 12SM -SHSN SCT017 OVC051 02/01 A2935 RMK SC3SC5 CVCTV CLD EMBD SLP943,CYHZ,2021-01-18T03:13:00Z,44.87,-63.5,2.0,1.0,240,16,,12.0,29.350393,994.3,,,,,,,,,-SHSN,SCT,1700,OVC,5100,,,,,VFR,,,,,,,,,,,,SPECI,136.0
YPDN 180312Z 12010KT 5000 SHRA SCT025 BKN032 27/25 Q1005,YPDN,2021-01-18T03:12:00Z,-12.42,130.9,27.0,25.0,120,10,,3.11,29.675198,,,,,,,,,,SHRA,SCT,2500,BKN,3200,,,,,MVFR,,,,,,,,,,,,SPECI,32.0
UKLL 180312Z 32004MPS 5000 -SHSN SCT016CB BKN016 M12/M13 Q1018 R31/450545 NOSIG,UKLL,2021-01-18T03:12:00Z,49.82,23.95,-12.0,-13.0,320,8,,3.11,30.059055,,,,,,TRUE,,,,-SHSN,SCT,1600,BKN,1600,,,,,MVFR,,,,,,,,,,,,METAR,316.0
PAIM 180312Z AUTO 00000KT 5SM -SHSN FEW014 BKN065 M10/M11 A2958 RMK AO2 SLP050,PAIM,2021-01-18T03:12:00Z,66.0,-153.7,-10.0,-11.0,0,0,,5.0,29.58071,1005.0,,TRUE,TRUE,,,,,,-SHSN,FEW,1400,BKN,6500,,,,,MVFR,,,,,,,,,,,,METAR,309.0
PADL 180312Z AUTO VRB05KT 7SM UP BKN004 OVC008 00/M01 A2945 RMK AO2 UPB06SNE06 P0000 FZRANO,PADL,2021-01-18T03:12:00Z,59.05,-158.5,0.0,-1.0,0,5,,7.0,29.450787,,,TRUE,TRUE,,,,TRUE,,UP,BKN,400,OVC,800,,,,,LIFR,,,,,,0.005,,,,,,SPECI,20.0
KMSS 180312Z AUTO 26004KT 10SM SCT027 BKN047 OVC055 M04/M08 A2961 RMK AO2 T10391078,KMSS,2021-01-18T03:12:00Z,44.93,-74.85,-3.9,-7.8,260,4,,10.0,29.610237,,,TRUE,TRUE,,,,,,,SCT,2700,BKN,4700,OVC,5500,,,VFR,,,,,,,,,,,,SPECI,60.0
KDKK 180312Z AUTO 23011KT 3/4SM -SN BR OVC007 01/00 A2965 RMK AO2 P0000 T00060000,KDKK,2021-01-18T03:12:00Z,42.5,-79.28,0.6,0.0,230,11,,0.75,29.648623,,,TRUE,TRUE,,,,,,-SN BR,OVC,700,,,,,,,LIFR,,,,,,0.005,,,,,,SPECI,205.0
KCOU 180312Z AUTO 27004KT 10SM OVC029 01/M02 A2988 RMK AO2 T00111022,KCOU,2021-01-18T03:12:00Z,38.82,-92.22,1.1,-2.2,270,4,,10.0,29.878937,,,TRUE,TRUE,,,,,,,OVC,2900,,,,,,,MVFR,,,,,,,,,,,,SPECI,272.0
KBUF 180312Z 26007KT 3SM -SN BR BKN012 OVC028 01/M01 A2963 RMK AO2 P0000 T00111011 $,KBUF,2021-01-18T03:12:00Z,42.93,-78.73,1.1,-1.1,260,7,,3.0,29.630905,,,,TRUE,TRUE,,,,,-SN BR,BKN,1200,OVC,2800,,,,,MVFR,,,,,,0.005,,,,,,SPECI,217.0
KBEH 180312Z AUTO 2SM -SN BR BKN008 OVC016 01/M01 A2971 RMK AO2 P0001 T00061011 $,KBEH,2021-01-18T03:12:00Z,42.13,-86.42,0.6,-1.1,,,,2.0,29.71063,,,TRUE,TRUE,TRUE,,,,,-SN BR,BKN,800,OVC,1600,,,,,IFR,,,,,,0.01,,,,,,SPECI,196.0
RJTY 180311Z AUTO 00000KT 10SM SCT028 BKN070 05/M02 A2996 RMK AO2 SLP156 FZRANO $,RJTY,2021-01-18T03:11:00Z,35.75,139.33,5.0,-2.0,0,0,,10.0,29.958662,1015.6,,TRUE,TRUE,TRUE,,,TRUE,,,SCT,2800,BKN,7000,,,,,VFR,,,,,,,,,,,,METAR,136.0
RJOW 180311Z 17009KT 130V200 8000 -SHSN FEW006 BKN010 02/01 Q1019 RMK 2ST006 7CU010 A3009,RJOW,2021-01-18T03:11:00Z,34.67,131.8,2.0,1.0,170,9,,4.97,30.088583,,,,,,,,,,-SHSN,FEW,600,BKN,1000,,,,,MVFR,,,,,,,,,,,,SPECI,54.0
PPIZ 180311Z AUTO 05016KT 5SM -SN SCT005 SCT026 OVC046 M26/M28 A2985 RMK AO2 P0000 FZRANO,PPIZ,2021-01-18T03:11:00Z,69.73,-163.0,-26.0,-28.0,50,16,,5.0,29.84941,,,TRUE,TRUE,,,,TRUE,,-SN,SCT,500,SCT,2600,OVC,4600,,,MVFR,,,,,,0.005,,,,,,SPECI,5.0
PAOT 180311Z 00000KT 2 1/2SM -SN BR OVC022 M11/M12 A2961 RMK AO2 P0000 T11061122,PAOT,2021-01-18T03:11:00Z,66.88,-162.6,-10.6,-12.2,0,0,,2.5,29.610237,,,,TRUE,,,,,,-SN BR,OVC,2200,,,,,,,IFR,,,,,,0.005,,,,,,SPECI,3.0
LTCE 180311Z 27016KT 7000 -SN BLSN BKN025 BKN070 M02/M04 Q1003 BECMG TL0350 VRB02KT NSW RMK RWY08R 25017KT RWY26R 27018KT RWY08L 26018KT,LTCE,2021-01-18T03:11:00Z,39.95,41.17,-2.0,-4.0,270,16,,4.35,29.616142,,,,,,,,,,-SN BLSN,BKN,2500,BKN,7000,,,,,MVFR,,,,,,,,,,,,METAR,1758.0
KVOK 180311Z AUTO 31004KT 10SM OVC019 M02/M03 A2974 RMK AO2 SLP086,KVOK,2021-01-18T03:11:00Z,43.93,-90.27,-2.0,-3.0,310,4,,10.0,29.740158,1008.6,,TRUE,TRUE,,,,,,,OVC,1900,,,,,,,MVFR,,,,,,,,,,,,SPECI,278.0
KGFK 180311Z 36007KT 10SM BKN016 OVC070 M10/M14 A2988 RMK AO2 T11001139,KGFK,2021-01-18T03:11:00Z,47.95,-97.18,-10.0,-13.9,360,7,,10.0,29.878937,,,,TRUE,,,,,,,BKN,1600,OVC,7000,,,,,MVFR,,,,,,,,,,,,SPECI,256.0
KGDV 180311Z AUTO 29004KT 3SM -SN BR OVC008 M01/M02 A2977 RMK AO2 CIG 004V011 P0000 FZRANO,KGDV,2021-01-18T03:11:00Z,47.13,-104.8,-1.0,-2.0,290,4,,3.0,29.769686,,,TRUE,TRUE,,,,TRUE,,-SN BR,OVC,800,,,,,,,IFR,,,,,,0.005,,,,,,SPECI,749.0
KFOD 180311Z AUTO 28005KT 10SM UP BKN020 BKN026 OVC032 M01/M02 A2982 RMK AO2 UPB0259SNE0259 P0000 FZRANO,KFOD,2021-01-18T03:11:00Z,42.53,-94.17,-1.0,-2.0,280,5,,10.0,29.819881,,,TRUE,TRUE,,,,TRUE,,UP,BKN,2000,BKN,2600,OVC,3200,,,MVFR,,,,,,0.005,,,,,,SPECI,347.0
KEKN 180311Z AUTO 24005G14KT 2 1/2SM -SN SCT017 OVC024 00/M04 A2974 RMK AO2 P0000 T00001039,KEKN,2021-01-18T03:11:00Z,38.88,-79.85,0.0,-3.9,240,5,14,2.5,29.740158,,,TRUE,TRUE,,,,,,-SN,SCT,1700,OVC,2400,,,,,IFR,,,,,,0.005,,,,,,SPECI,596.0
KDBQ 180311Z AUTO 30004KT 10SM FEW009 OVC023 M06/M08 A2977 RMK AO2 T10561078,KDBQ,2021-01-18T03:11:00Z,42.4,-90.7,-5.6,-7.8,300,4,,10.0,29.769686,,,TRUE,TRUE,,,,,,,FEW,900,OVC,2300,,,,,MVFR,,,,,,,,,,,,SPECI,317.0
KADG 180311Z AUTO 28006KT 2 1/2SM -SN BR FEW009 OVC037 M02/M03 A2970 RMK AO2 P0000 T10171033 $,KADG,2021-01-18T03:11:00Z,41.87,-84.08,-1.7,-3.3,280,6,,2.5,29.698818,,,TRUE,TRUE,TRUE,,,,,-SN BR,FEW,900,OVC,3700,,,,,IFR,,,,,,0.005,,,,,,SPECI,244.0
ETOU 180311Z AUTO 26005KT 9999 BKN019 BKN032 OVC070 02/01 A3023 RMK AO2 CIG 019V032 BKN019 V SCT SLP248 $,ETOU,2021-01-18T03:11:00Z,50.03,8.32,2.0,1.0,260,5,,6.21,30.230314,1024.8,,TRUE,TRUE,TRUE,,,,,,BKN,1900,BKN,3200,OVC,7000,,,MVFR,,,,,,,,,,,,SPECI,141.0
EHLW 180311Z AUTO 22007KT 9999 SCT021 SCT026 OVC230 01/00 Q1020 WHT,EHLW,2021-01-18T03:11:00Z,53.22,5.75,1.0,0.0,220,7,,6.21,30.11811,,,TRUE,,,,,,,,SCT,2100,SCT,2600,OVC,23000,,,VFR,,,,,,,,,,,,SPECI,1.0
EHEH 180311Z AUTO 23008KT 9999 FEW016 SCT027 BKN033 03/03 Q1023 BLU,EHEH,2021-01-18T03:11:00Z,51.45,5.38,3.0,3.0,230,8,,6.21,30.206694,,,TRUE,,,,,,,,FEW,1600,SCT,2700,BKN,3300,,,VFR,,,,,,,,,,,,SPECI,20.0
YBHM 180310Z AUTO 12019KT 9999 // BKN018 BKN024 OVC028 26/24 Q1009,YBHM,2021-01-18T03:10:00Z,-20.35,148.95,26.0,24.0,120,19,,6.21,29.793306,,,TRUE,,,,,,,,BKN,1800,BKN,2400,OVC,2800,,,MVFR,,,,,,,,,,,,SPECI,4.0
VCRI 180310Z 02006KT 9999 FEW017 27/25 Q1011 NOSIG,VCRI,2021-01-18T03:10:00Z,6.28,81.13,27.0,25.0,20,6,,6.21,29.852362,,,,,,TRUE,,,,,FEW,1700,,,,,,,VFR,,,,,,,,,,,,METAR,50.0
VCBI 180310Z 04009KT 360V070 9999 SCT017 26/23 Q1012 NOSIG,VCBI,2021-01-18T03:10:00Z,7.17,79.88,26.0,23.0,40,9,,6.21,29.88189,,,,,,TRUE,,,,,SCT,1700,,,,,,,VFR,,,,,,,,,,,,METAR,10.0
UATG 180310Z 06005MPS 3600 -FZDZ BR OVC003 M04/M04 Q1007 R14/32//55 NOSIG RMK QBB090 QFE757/1010,UATG,2021-01-18T03:10:00Z,47.12,51.83,-4.0,-4.0,60,10,,2.24,29.734253,,,,,,TRUE,,,,-FZDZ BR,OVC,300,,,,,,,LIFR,,,,,,,,,,,,METAR,-23.0
PHOG 180310Z 14005KT 10SM FEW020 SCT025 BKN045 24/21 A2996 RMK AO2 RAE07 P0003 T02390211 $,PHOG,2021-01-18T03:10:00Z,20.9,-156.43,23.9,21.1,140,5,,10.0,29.958662,,,,TRUE,TRUE,,,,,,FEW,2000,SCT,2500,BKN,4500,,,VFR,,,,,,0.03,,,,,,SPECI,14.0
PANI 180310Z AUTO 33003KT 6SM -SN BR OVC029 M09/M11 A2959 RMK AO2 P0000 FZRANO,PANI,2021-01-18T03:10:00Z,61.58,-159.53,-9.0,-11.0,330,3,,6.0,29.589567,,,TRUE,TRUE,,,,TRUE,,-SN BR,OVC,2900,,,,,,,MVFR,,,,,,0.005,,,,,,SPECI,21.0
KWBF 180310Z AUTO 00000KT 10SM OVC021 17/07 A3015 RMK A01,KWBF,2021-01-18T03:10:00Z,26.93,-90.5,17.0,7.0,0,0,,10.0,30.15059,,,TRUE,TRUE,,,,,,,OVC,2100,,,,,,,MVFR,,,,,,,,,,,,METAR,40.0
KVOA 180310Z AUTO 26017KT 10SM 14/05 A3009 RMK A01,KVOA,2021-01-18T03:10:00Z,29.23,-87.78,14.0,5.0,260,17,,10.0,30.088583,,,TRUE,TRUE,,,,,,,,,,,,,,,,,,,,,,,,,,,SPECI,53.0
KVAF 180310Z AUTO 16005KT 10SM CLR 18/04 A3013 RMK A01,KVAF,2021-01-18T03:10:00Z,27.35,-94.63,18.0,4.0,160,5,,10.0,30.129921,,,TRUE,TRUE,,,,,,,CLR,,,,,,,,VFR,,,,,,,,,,,,METAR,38.0
KSHN 180310Z AUTO 24004KT 3SM BR OVC048 03/03 A3050 RMK AO2 T00330033,KSHN,2021-01-18T03:10:00Z,47.23,-123.13,3.3,3.3,240,4,,3.0,30.499016,,,TRUE,TRUE,,,,,,BR,OVC,4800,,,,,,,MVFR,,,,,,,,,,,,SPECI,84.0
KS85 180310Z AUTO 00000KT 10SM M04/M05 A2978 RMK A01 Culbertson ,KS85,2021-01-18T03:10:00Z,48.15,-104.5,-4.0,-5.0,0,0,,10.0,29.778543,,,TRUE,TRUE,,,,,,,,,,,,,,,,,,,,,,,,,,,METAR,596.0
KRPH 180310Z AUTO 00000KT 10SM 02/M04 A3008 RMK AO2 T00171038,KRPH,2021-01-18T03:10:00Z,33.12,-98.55,1.7,-3.8,0,0,,10.0,30.079725,,,TRUE,TRUE,,,,,,,,,,,,,,,,,,,,,,,,,,,METAR,341.0
KQFB 180310Z AUTO 29002KT 4800 HZ OVC024 M02/M05 A3013 RMK A02 TSNO,KQFB,2021-01-18T03:10:00Z,,,-2.0,-5.0,290,2,,2.98,30.129921,,,TRUE,TRUE,,,TRUE,,,HZ,OVC,2400,,,,,,,IFR,,,,,,,,,,,,METAR,
KPWD 180310Z AUTO 00000KT 7SM OVC023 M04/M05 A2978 RMK A01 Plentywood ,KPWD,2021-01-18T03:10:00Z,48.78,-104.52,-4.0,-5.0,0,0,,7.0,29.778543,,,TRUE,TRUE,,,,,,,OVC,2300,,,,,,,MVFR,,,,,,,,,,,,METAR,690.0
KPNA 180310Z AUTO 32007KT 10SM OVC038 M01/M05 A3003 RMK AO2,KPNA,2021-01-18T03:10:00Z,42.8,-109.8,-1.0,-5.0,320,7,,10.0,30.029528,,,TRUE,TRUE,,,,,,,OVC,3800,,,,,,,VFR,,,,,,,,,,,,METAR,2158.0
KOYM 180310Z AUTO 24004KT 2 1/2SM -SN BKN008 OVC014 M01/M01 A2966 RMK AO2,KOYM,2021-01-18T03:10:00Z,41.42,-78.5,-1.0,-1.0,240,4,,2.5,29.660433,,,TRUE,TRUE,,,,,,-SN,BKN,800,OVC,1400,,,,,IFR,,,,,,,,,,,,METAR,582.0
KOWI 180310Z AUTO 18005KT 10SM CLR M03/M05 A2992 RMK AO2,KOWI,2021-01-18T03:10:00Z,38.53,-95.25,-3.0,-5.0,180,5,,10.0,29.920275,,,TRUE,TRUE,,,,,,,CLR,,,,,,,,VFR,,,,,,,,,,,,METAR,292.0
KORK 180310Z AUTO 27006KT 10SM CLR 05/M05 A2999 RMK AO2,KORK,2021-01-18T03:10:00Z,34.83,-92.25,5.0,-5.0,270,6,,10.0,29.991142,,,TRUE,TRUE,,,,,,,CLR,,,,,,,,VFR,,,,,,,,,,,,SPECI,166.0
KO32 180310Z AUTO 00000KT 7SM CLR 13/10 A3002 RMK AO2,KO32,2021-01-18T03:10:00Z,36.67,-119.45,13.0,10.0,0,0,,7.0,30.02067,,,TRUE,TRUE,,,,,,,CLR,,,,,,,,VFR,,,,,,,,,,,,METAR,117.0
KMHP 180310Z AUTO 22003KT 10SM CLR 04/01 A2999 RMK AO2 T00350014,KMHP,2021-01-18T03:10:00Z,32.37,-82.08,3.5,1.4,220,3,,10.0,29.991142,,,TRUE,TRUE,,,,,,,CLR,,,,,,,,VFR,,,,,,,,,,,,METAR,60.0
KMGR 180310Z AUTO 00000KT 10SM CLR 06/01 A3004 RMK AO2,KMGR,2021-01-18T03:10:00Z,31.08,-83.8,6.0,1.0,0,0,,10.0,30.041338,,,TRUE,TRUE,,,,,,,CLR,,,,,,,,VFR,,,,,,,,,,,,METAR,86.0
KMFD 180310Z AUTO 24007KT 5SM -SN BR SCT007 OVC037 M01/M02 A2969 RMK AO2 P0000 T10061022 TSNO,KMFD,2021-01-18T03:10:00Z,40.82,-82.52,-0.6,-2.2,240,7,,5.0,29.68996,,,TRUE,TRUE,,,TRUE,,,-SN BR,SCT,700,OVC,3700,,,,,MVFR,,,,,,0.005,,,,,,SPECI,394.0
KM91 180310Z AUTO 21004KT 10SM SCT032 BKN045 OVC050 03/M03 A2988 RMK A01,KM91,2021-01-18T03:10:00Z,36.53,-86.92,3.0,-3.0,210,4,,10.0,29.878937,,,TRUE,TRUE,,,,,,,SCT,3200,BKN,4500,OVC,5000,,,VFR,,,,,,,,,,,,SPECI,214.0
KM04 180310Z AUTO 24006KT 10SM BKN075 OVC085 05/M02 A2994 RMK A01,KM04,2021-01-18T03:10:00Z,35.58,-89.58,5.0,-2.0,240,6,,10.0,29.940945,,,TRUE,TRUE,,,,,,,BKN,7500,OVC,8500,,,,,VFR,,,,,,,,,,,,SPECI,83.0
KLUK 180310Z 27007KT 2SM -SN BR BKN013 OVC019 01/M02 A2982 RMK AO2 P0000 T00061017,KLUK,2021-01-18T03:10:00Z,39.1,-84.42,0.6,-1.7,270,7,,2.0,29.819881,,,,TRUE,,,,,,-SN BR,BKN,1300,OVC,1900,,,,,IFR,,,,,,0.005,,,,,,SPECI,144.0
KLCQ 180310Z AUTO 22005KT 10SM CLR 07/02 A3005 RMK AO2,KLCQ,2021-01-18T03:10:00Z,30.18,-82.58,7.0,2.0,220,5,,10.0,30.050198,,,TRUE,TRUE,,,,,,,CLR,,,,,,,,VFR,,,,,,,,,,,,METAR,59.0
KJWN 180310Z AUTO 20004KT 10SM OVC070 04/M05 A2988 RMK A01,KJWN,2021-01-18T03:10:00Z,36.18,-86.88,4.0,-5.0,200,4,,10.0,29.878937,,,TRUE,TRUE,,,,,,,OVC,7000,,,,,,,VFR,,,,,,,,,,,,SPECI,149.0
KIMT 180310Z AUTO 33007KT 10SM SCT008 OVC019 M06/M07 A2970 RMK AO2 T10561072,KIMT,2021-01-18T03:10:00Z,45.82,-88.12,-5.6,-7.2,330,7,,10.0,29.698818,,,TRUE,TRUE,,,,,,,SCT,800,OVC,1900,,,,,MVFR,,,,,,,,,,,,SPECI,343.0
KHOE 180310Z AUTO 20004KT 10SM CLR 06/01 A3003 RMK AO2,KHOE,2021-01-18T03:10:00Z,31.05,-82.78,6.0,1.0,200,4,,10.0,30.029528,,,TRUE,TRUE,,,,,,,CLR,,,,,,,,VFR,,,,,,,,,,,,METAR,56.0
KHAO 180310Z AUTO 27008KT 8SM -SN SCT014 BKN023 OVC030 M01/M03 A2980 RMK AO2 P0000 T10061028,KHAO,2021-01-18T03:10:00Z,39.37,-84.52,-0.6,-2.8,270,8,,8.0,29.799213,,,TRUE,TRUE,,,,,,-SN,SCT,1400,BKN,2300,OVC,3000,,,MVFR,,,,,,0.005,,,,,,SPECI,185.0
KGRY 180310Z AUTO VRB05G14KT 10SM CLR 16/06 A3014 RMK A01,KGRY,2021-01-18T03:10:00Z,27.63,-90.45,16.0,6.0,0,5,14,10.0,30.138779,,,TRUE,TRUE,,,,,,,CLR,,,,,,,,VFR,,,,,,,,,,,,SPECI,58.0
KGHB 180310Z AUTO 00000KT 10SM CLR 16/01 A3014 RMK A01,KGHB,2021-01-18T03:10:00Z,27.83,-91.98,16.0,1.0,0,0,,10.0,30.138779,,,TRUE,TRUE,,,,,,,CLR,,,,,,,,VFR,,,,,,,,,,,,METAR,30.0
KFZY 180310Z AUTO 00000KT 2SM -SN BR SCT007 BKN027 OVC038 01/00 A2962 RMK AO2 P0000 T00060000,KFZY,2021-01-18T03:10:00Z,43.35,-76.38,0.6,0.0,0,0,,2.0,29.619095,,,TRUE,TRUE,,,,,,-SN BR,SCT,700,BKN,2700,OVC,3800,,,IFR,,,,,,0.005,,,,,,SPECI,143.0
KFOT 180310Z AUTO 27006KT 7SM CLR 10/10 A3015 RMK AO1,KFOT,2021-01-18T03:10:00Z,40.55,-124.13,10.0,10.0,270,6,,7.0,30.15059,,,TRUE,TRUE,,,,,,,CLR,,,,,,,,VFR,,,,,,,,,,,,METAR,118.0
KEZM 180310Z AUTO 22003KT 10SM CLR 04/00 A3002 RMK AO2 T00421001,KEZM,2021-01-18T03:10:00Z,32.22,-83.13,4.2,-0.1,220,3,,10.0,30.02067,,,TRUE,TRUE,,,,,,,CLR,,,,,,,,VFR,,,,,,,,,,,,METAR,86.0
KCII 180310Z AUTO 28011KT 10SM 02/M07 A2997 RMK A01 Choteau ,KCII,2021-01-18T03:10:00Z,47.83,-112.17,2.0,-7.0,280,11,,10.0,29.970472,,,TRUE,TRUE,,,,,,,,,,,,,,,,,,,,,,,,,,,METAR,1202.0
KAZE 180310Z AUTO 23004KT 10SM CLR 07/00 A3000 RMK AO2 T00670002,KAZE,2021-01-18T03:10:00Z,31.88,-82.65,6.7,0.2,230,4,,10.0,30.0,,,TRUE,TRUE,,,,,,,CLR,,,,,,,,VFR,,,,,,,,,,,,METAR,78.0
KACJ 180310Z AUTO 22003KT 10SM CLR 07/00 A3000 RMK AO2,KACJ,2021-01-18T03:10:00Z,32.12,-84.18,7.0,0.0,220,3,,10.0,30.0,,,TRUE,TRUE,,,,,,,CLR,,,,,,,,VFR,,,,,,,,,,,,METAR,140.0
K7S6 180310Z AUTO 28016KT 10SM M01/M08 A2998 RMK A01 White Sulphur Spgs ,K7S6,2021-01-18T03:10:00Z,46.5,-110.92,-1.0,-8.0,280,16,,10.0,29.97933,,,TRUE,TRUE,,,,,,,,,,,,,,,,,,,,,,,,,,,METAR,1543.0
K7S0 180310Z AUTO 17008KT 10SM 02/M02 A3018 RMK A01 Ronan ,K7S0,2021-01-18T03:10:00Z,47.57,-114.1,2.0,-2.0,170,8,,10.0,30.180119,,,TRUE,TRUE,,,,,,,,,,,,,,,,,,,,,,,,,,,METAR,941.0
K6S8 180310Z AUTO 33012KT 10SM 02/M01 A2997 RMK A01 LAUREL,K6S8,2021-01-18T03:10:00Z,45.7,-108.77,2.0,-1.0,330,12,,10.0,29.970472,,,TRUE,TRUE,,,,,,,,,,,,,,,,,,,,,,,,,,,METAR,1072.0
K65S 180310Z AUTO 28004KT 10SM FEW012 00/M02 A3025 RMK AO2,K65S,2021-01-18T03:10:00Z,48.73,-116.3,0.0,-2.0,280,4,,10.0,30.250984,,,TRUE,TRUE,,,,,,,FEW,1200,,,,,,,VFR,,,,,,,,,,,,METAR,708.0
K4U6 180310Z AUTO 32007KT 10SM M00/M01 A2979 RMK A01 Circle ,K4U6,2021-01-18T03:10:00Z,47.42,-105.57,0.0,-1.0,320,7,,10.0,29.790354,,,TRUE,TRUE,,,,,,,,,,,,,,,,,,,,,,,,,,,METAR,739.0
K2J5 180310Z AUTO 00000KT 10SM CLR 01/M01 A2998 RMK AO2 T00131009,K2J5,2021-01-18T03:10:00Z,32.9,-81.97,1.3,-0.9,0,0,,10.0,29.97933,,,TRUE,TRUE,,,,,,,CLR,,,,,,,,VFR,,,,,,,,,,,,METAR,72.0
CYER 180310Z AUTO 31003KT 9SM OVC015 M21/M23 A3005 RMK SLP177,CYER,2021-01-18T03:10:00Z,56.02,-87.68,-21.0,-23.0,310,3,,9.0,30.050198,1017.7,,TRUE,,,,,,,,OVC,1500,,,,,,,MVFR,,,,,,,,,,,,SPECI,11.0
RKSF 180309Z 31004KT 9000 BR BKN025 BKN040 00/M03 A3003 RMK CIG025,RKSF,2021-01-18T03:09:00Z,37.5,126.92,0.0,-3.0,310,4,,5.59,30.029528,,,,,,,,,,BR,BKN,2500,BKN,4000,,,,,MVFR,,,,,,,,,,,,METAR,49.0
RJSN 180309Z 19012KT 1000 R28/P2000N -SHSN FEW002 BKN005 BKN010 01/01 Q1013 RMK 2ST002 5ST005 6CU010 A2992,RJSN,2021-01-18T03:09:00Z,37.95,139.12,1.0,1.0,190,12,,0.62,29.911417,,,,,,,,,,-SHSN,FEW,200,BKN,500,BKN,1000,,,LIFR,,,,,,,,,,,,METAR,4.0
LHDC 180309Z AUTO 00000KT 5000 BR NSC M07/M08 Q1021,LHDC,2021-01-18T03:09:00Z,47.48,21.62,-7.0,-8.0,0,0,,3.11,30.147638,,,TRUE,,,,,,,BR,CLR,,,,,,,,MVFR,,,,,,,,,,,,SPECI,105.0
KSPI 180309Z AUTO 29005KT 10SM OVC031 M01/M04 A2985 RMK AO2 T10111044,KSPI,2021-01-18T03:09:00Z,39.85,-89.68,-1.1,-4.4,290,5,,10.0,29.84941,,,TRUE,TRUE,,,,,,,OVC,3100,,,,,,,VFR,,,,,,,,,,,,SPECI,179.0
KLAF 180309Z AUTO 25007KT 3SM BR OVC008 M01/M02 A2978 RMK AO2 SNE0255 CIG 006V010 P0000 I1000 T10111022 $,KLAF,2021-01-18T03:09:00Z,40.42,-86.93,-1.1,-2.2,250,7,,3.0,29.778543,,,TRUE,TRUE,TRUE,,,,,BR,OVC,800,,,,,,,IFR,,,,,,0.005,,,,,,SPECI,182.0
KHUL 180309Z AUTO 24010KT 10SM BKN031 00/M06 A2926 RMK AO2 T00001056,KHUL,2021-01-18T03:09:00Z,46.12,-67.8,0.0,-5.6,240,10,,10.0,29.258858,,,TRUE,TRUE,,,,,,,BKN,3100,,,,,,,VFR,,,,,,,,,,,,SPECI,148.0
KGVQ 180309Z AUTO 30009KT 10SM -RA FEW014 BKN030 OVC055 01/M02 A2961 RMK AO2 UPE00RAB00 P0000 FZRANO,KGVQ,2021-01-18T03:09:00Z,43.03,-78.17,1.0,-2.0,300,9,,10.0,29.610237,,,TRUE,TRUE,,,,TRUE,,-RA,FEW,1400,BKN,3000,OVC,5500,,,MVFR,,,,,,0.005,,,,,,SPECI,279.0
ETIH 180309Z AUTO 27003KT 5000 -UP BR OVC005 M01/M03 A3014 RMK AO2 UPE00UPB09 SLP237 $,ETIH,2021-01-18T03:09:00Z,49.22,11.83,-1.0,-3.0,270,3,,3.11,30.138779,1023.7,,TRUE,TRUE,TRUE,,,,,BR UP,OVC,500,,,,,,,IFR,,,,,,,,,,,,SPECI,436.0
CYOY 180309Z AUTO 25006KT 220V290 9SM OVC013 M02/M05 A2932,CYOY,2021-01-18T03:09:00Z,46.88,-71.5,-2.0,-5.0,250,6,,9.0,29.320866,,,TRUE,,,,,,,,OVC,1300,,,,,,,MVFR,,,,,,,,,,,,SPECI,167.0
CYLH 180309Z AUTO 00000KT 9SM -SN SCT040 BKN060 BKN071 OVC100 M14/M16 A2976 RMK SLP106,CYLH,2021-01-18T03:09:00Z,52.2,-87.93,-14.0,-16.0,0,0,,9.0,29.760826,1010.6,,TRUE,,,,,,,-SN,SCT,4000,BKN,6000,BKN,7100,OVC,10000,VFR,,,,,,,,,,,,SPECI,245.0
CYBW 180309Z AUTO 04010KT 9SM OVC060 01/M06 A2996 RMK WSHFT AT 0303Z SLP193,CYBW,2021-01-18T03:09:00Z,51.1,-114.37,1.0,-6.0,40,10,,9.0,29.958662,1019.3,,TRUE,,,,,,,,OVC,6000,,,,,,,VFR,,,,,,,,,,,,SPECI,1197.0
UTO8 M M M 192/-12/-14/1001/M/ 1025 26MM,UTO8,2021-01-18T03:08:09Z,,,,,,,,,,,,,,,,,,,,,,,,,,,,,,,,,,,,,,,,METAR,
PABE 180308Z 32013KT 3SM -SN BR BKN020 OVC035 M11/M12 A2958 RMK AO2 P0001 T11061122,PABE,2021-01-18T03:08:00Z,60.78,-161.83,-10.6,-12.2,320,13,,3.0,29.58071,,,,TRUE,,,,,,-SN BR,BKN,2000,OVC,3500,,,,,MVFR,,,,,,0.01,,,,,,SPECI,28.0
KLAN 180308Z 33003KT 8SM -SN FEW007 BKN055 OVC070 M01/M02 A2969 RMK AO2 P0000 T10111017,KLAN,2021-01-18T03:08:00Z,42.78,-84.58,-1.1,-1.7,330,3,,8.0,29.68996,,,,TRUE,,,,,,-SN,FEW,700,BKN,5500,OVC,7000,,,VFR,,,,,,0.005,,,,,,SPECI,261.0
KITH 180308Z AUTO 00000KT 1 1/2SM -SN BR BKN004 BKN008 OVC013 00/M02 A2962 RMK AO2 VIS 1V2 CIG 003V008 P0000,KITH,2021-01-18T03:08:00Z,42.48,-76.45,0.0,-2.0,0,0,,1.5,29.619095,,,TRUE,TRUE,,,,,,-SN BR,BKN,400,BKN,800,OVC,1300,,,LIFR,,,,,,0.005,,,,,,METAR,338.0
PAIW 180307Z AUTO 36026G32KT 3/4SM -SN BR OVC012 M18/M19 A2979 RMK AO2 PK WND 36032/0300 P0000 FZRANO,PAIW,2021-01-18T03:07:00Z,65.62,-168.1,-18.0,-19.0,360,26,32,0.75,29.790354,,,TRUE,TRUE,,,,TRUE,,-SN BR,OVC,1200,,,,,,,LIFR,,,,,,0.005,,,,,,METAR,6.0
CYMT 180307Z AUTO 31013G21KT 6SM -SN OVC013 M13/M15 A2934 RMK SLP963,CYMT,2021-01-18T03:07:00Z,49.77,-74.52,-13.0,-15.0,310,13,21,6.0,29.338583,996.3,,TRUE,,,,,,,-SN,OVC,1300,,,,,,,MVFR,,,,,,,,,,,,SPECI,388.0
PATE 180306Z AUTO 02015KT 8SM -SN SCT011 OVC023 M15/M17 A2967 RMK AO2 P0000 FZRANO,PATE,2021-01-18T03:06:00Z,65.23,-166.33,-15.0,-17.0,20,15,,8.0,29.66929,,,TRUE,TRUE,,,,TRUE,,-SN,SCT,1100,OVC,2300,,,,,MVFR,,,,,,0.005,,,,,,METAR,93.0
KMNM 180306Z AUTO 02007KT 5SM -SN BR BKN014 OVC049 M03/M05 A2974 RMK AO2 P0000 FZRANO $,KMNM,2021-01-18T03:06:00Z,45.12,-87.63,-3.0,-5.0,20,7,,5.0,29.740158,,,TRUE,TRUE,TRUE,,,TRUE,,-SN BR,BKN,1400,OVC,4900,,,,,MVFR,,,,,,0.005,,,,,,METAR,188.0
KMGY 180306Z AUTO 24006KT 3SM -SN BR FEW005 SCT011 OVC025 M01/M02 A2976 RMK AO2 P0000 T10061022,KMGY,2021-01-18T03:06:00Z,39.6,-84.23,-0.6,-2.2,240,6,,3.0,29.760826,,,TRUE,TRUE,,,,,,-SN BR,FEW,500,SCT,1100,OVC,2500,,,MVFR,,,,,,0.005,,,,,,METAR,290.0
KHEI 180306Z AUTO 09005KT 1SM -SN BR VV014 M01/M02 A2975 RMK AO2 P0001 T10111017,KHEI,2021-01-18T03:06:00Z,46.02,-102.65,-1.1,-1.7,90,5,,1.0,29.749016,,,TRUE,TRUE,,,,,,-SN BR,OVX,0,,,,,,,LIFR,,,,,,0.01,,,,,1400,METAR,824.0
KGUS 180306Z AUTO 27010KT 10SM OVC014 M02/M02 A2974 RMK AO2 OVC V BKN SLP083 $,KGUS,2021-01-18T03:06:00Z,40.63,-86.15,-2.0,-2.0,270,10,,10.0,29.740158,1008.3,,TRUE,TRUE,TRUE,,,,,,OVC,1400,,,,,,,MVFR,,,,,,,,,,,,METAR,245.0
KGSH 180306Z AUTO 24006KT 2 1/2SM -SN BR FEW008 OVC029 M02/M04 A2972 RMK AO2 P0000 T10221039,KGSH,2021-01-18T03:06:00Z,41.53,-85.78,-2.2,-3.9,240,6,,2.5,29.719488,,,TRUE,TRUE,,,,,,-SN BR,FEW,800,OVC,2900,,,,,IFR,,,,,,0.005,,,,,,METAR,252.0
CYZR 180306Z AUTO 35006KT 9SM -SN BKN009 OVC019 M00/M01 A2965 RMK SLP050,CYZR,2021-01-18T03:06:00Z,43.0,-82.3,0.0,-1.0,350,6,,9.0,29.648623,1005.0,,TRUE,,,,,,,-SN,BKN,900,OVC,1900,,,,,IFR,,,,,,,,,,,,SPECI,181.0
PATL 180305Z AUTO VRB03KT 10SM -SHSN OVC013 M09/M11 A2956 RMK AO2 SLP036,PATL,2021-01-18T03:05:00Z,62.9,-155.97,-9.0,-11.0,0,3,,10.0,29.56004,1003.6,,TRUE,TRUE,,,,,,-SHSN,OVC,1300,,,,,,,MVFR,,,,,,,,,,,,METAR,261.0
MUCL 180305Z AUTO 34002KT 23/19 Q1018,MUCL,2021-01-18T03:05:00Z,21.63,-81.55,23.0,19.0,340,2,,,30.059055,,,TRUE,,,,,,,,,,,,,,,,,,,,,,,,,,,,METAR,5.0
KRNT 180305Z 00000KT 8SM BKN021 06/05 A3053 RMK AO2 T00610050,KRNT,2021-01-18T03:05:00Z,47.5,-122.22,6.1,5.0,0,0,,8.0,30.528543,,,,TRUE,,,,,,,BKN,2100,,,,,,,MVFR,,,,,,,,,,,,METAR,7.0
KF45 180305Z AUTO 00000KT 10SM OVC046 14/12 A3010 RMK AO2,KF45,2021-01-18T03:05:00Z,26.85,-80.22,14.0,12.0,0,0,,10.0,30.100393,,,TRUE,TRUE,,,,,,,OVC,4600,,,,,,,VFR,,,,,,,,,,,,SPECI,6.0
PHNG 180304Z 23011KT 10SM FEW045 FEW110 26/18 A2991 RMK AO2 T02610178 PNO $,PHNG,2021-01-18T03:04:00Z,21.43,-157.77,26.1,17.8,230,11,,10.0,29.911417,,,,TRUE,TRUE,,,,,,FEW,4500,FEW,11000,,,,,VFR,,,,,,,,,,,,METAR,1.0
PATG 180304Z AUTO 34012KT 5SM -SN BR OVC016 M03/M03 A2945 RMK AO2 P0000 FZRANO,PATG,2021-01-18T03:04:00Z,59.05,-160.38,-3.0,-3.0,340,12,,5.0,29.450787,,,TRUE,TRUE,,,,TRUE,,-SN BR,OVC,1600,,,,,,,MVFR,,,,,,0.005,,,,,,SPECI,1.0
PASI 180304Z 10005KT 7SM SCT019 BKN032 OVC049 04/03 A3036 RMK AO2 T00440028,PASI,2021-01-18T03:04:00Z,57.03,-135.35,4.4,2.8,100,5,,7.0,30.360237,,,,TRUE,,,,,,,SCT,1900,BKN,3200,OVC,4900,,,VFR,,,,,,,,,,,,METAR,2.0
PFCL 180303Z AUTO 10013KT 3SM UP BR OVC007 00/00 A2944 RMK AO2 CIG 003V009 P0000 FZRANO TSNO,PFCL,2021-01-18T03:03:00Z,58.83,-158.53,0.0,0.0,100,13,,3.0,29.438976,,,TRUE,TRUE,,,TRUE,TRUE,,BR UP,OVC,700,,,,,,,IFR,,,,,,0.005,,,,,,SPECI,23.0
PAYA 180303Z AUTO 21012KT 6SM -RA BR BKN023 BKN029 OVC043 04/03 A3022 RMK AO2 P0000 T00390028 TSNO,PAYA,2021-01-18T03:03:00Z,59.52,-139.67,3.9,2.8,210,12,,6.0,30.221457,,,TRUE,TRUE,,,TRUE,,,-RA BR,BKN,2300,BKN,2900,OVC,4300,,,MVFR,,,,,,0.005,,,,,,SPECI,9.0
KOLF 180303Z AUTO 25003KT 10SM FEW001 SCT060 M04/M05 A2981 RMK AO2 T10391050,KOLF,2021-01-18T03:03:00Z,48.1,-105.58,-3.9,-5.0,250,3,,10.0,29.811024,,,TRUE,TRUE,,,,,,,FEW,100,SCT,6000,,,,,VFR,,,,,,,,,,,,SPECI,605.0
KBFD 180303Z AUTO 00000KT 1SM -SN SCT008 OVC014 00/M03 A2960 RMK AO2 P0001 T00001033,KBFD,2021-01-18T03:03:00Z,41.8,-78.63,0.0,-3.3,0,0,,1.0,29.601377,,,TRUE,TRUE,,,,,,-SN,SCT,800,OVC,1400,,,,,IFR,,,,,,0.01,,,,,,SPECI,642.0
KAPN 180303Z AUTO 31004KT 10SM SCT029 OVC095 M03/M04 A2967 RMK AO2 T10281044,KAPN,2021-01-18T03:03:00Z,45.07,-83.57,-2.8,-4.4,310,4,,10.0,29.66929,,,TRUE,TRUE,,,,,,,SCT,2900,OVC,9500,,,,,VFR,,,,,,,,,,,,SPECI,208.0
EBLB 180303Z AUTO 27007KT 8000 SCT005/// OVC028/// 00/M00 Q1022 YLO,EBLB,2021-01-18T03:03:00Z,50.47,6.17,0.0,0.0,270,7,,4.97,30.177166,,,TRUE,,,,,,,,SCT,500,OVC,2800,,,,,MVFR,,,,,,,,,,,,SPECI,563.0
CYGV 180303Z AUTO 10011G18KT 9SM -RA OVC006 01/00 A2893 RMK SLP803,CYGV,2021-01-18T03:03:00Z,50.28,-63.62,1.0,0.0,100,11,18,9.0,28.931103,980.3,,TRUE,,,,,,,-RA,OVC,600,,,,,,,IFR,,,,,,,,,,,,SPECI,32.0
PAVL 180302Z AUTO 01016KT 2SM -SN BR OVC028 M13/M16 A2961 RMK AO2 P0000 T11331156 TSNO,PAVL,2021-01-18T03:02:00Z,67.73,-164.55,-13.3,-15.6,10,16,,2.0,29.610237,,,TRUE,TRUE,,,TRUE,,,-SN BR,OVC,2800,,,,,,,IFR,,,,,,0.005,,,,,,SPECI,6.0
PADM 180302Z AUTO 32006KT 9SM -SN SCT015 OVC039 M11/M12 A2917 RMK AO2 P0000 FZRANO,PADM,2021-01-18T03:02:00Z,61.87,-162.03,-11.0,-12.0,320,6,,9.0,29.170275,,,TRUE,TRUE,,,,TRUE,,-SN,SCT,1500,OVC,3900,,,,,VFR,,,,,,0.005,,,,,,METAR,17.0
PACV 180302Z 11006KT 10SM SCT026 BKN036 OVC046 04/02 A3002 RMK AO2 PRESRR T00390022,PACV,2021-01-18T03:02:00Z,60.5,-145.47,3.9,2.2,110,6,,10.0,30.02067,,,,TRUE,,,,,,,SCT,2600,BKN,3600,OVC,4600,,,VFR,,,,,,,,,,,,SPECI,15.0
KDSV 180302Z AUTO 00000KT 1 3/4SM -SN BR OVC019 01/M01 A2963 RMK AO2 P0000 T00061011,KDSV,2021-01-18T03:02:00Z,42.57,-77.72,0.6,-1.1,0,0,,1.75,29.630905,,,TRUE,TRUE,,,,,,-SN BR,OVC,1900,,,,,,,IFR,,,,,,0.005,,,,,,SPECI,195.0
KDET 180302Z 26006KT 5SM BR BKN010 BKN017 OVC023 01/M01 A2968 RMK AO2 CIG 007V015 T00061011,KDET,2021-01-18T03:02:00Z,42.4,-83.02,0.6,-1.1,260,6,,5.0,29.681103,,,,TRUE,,,,,,BR,BKN,1000,BKN,1700,OVC,2300,,,MVFR,,,,,,,,,,,,SPECI,190.0
EHKD 180302Z AUTO 25010KT 9999 FEW014 BKN031 BKN035 06/04 Q1020 BLU,EHKD,2021-01-18T03:02:00Z,52.92,4.77,6.0,4.0,250,10,,6.21,30.11811,,,TRUE,,,,,,,,FEW,1400,BKN,3100,BKN,3500,,,VFR,,,,,,,,,,,,SPECI,1.0
RJDM 180301Z 28005KT 9999 -SHRA FEW025 BKN035 05/M02 Q1021 RMK 1CU025 7SC035 A3017,RJDM,2021-01-18T03:01:00Z,33.32,130.42,5.0,-2.0,280,5,,6.21,30.147638,,,,,,,,,,-SHRA,FEW,2500,BKN,3500,,,,,VFR,,,,,,,,,,,,SPECI,19.0
PHMK 180301Z 16010KT 10SM SCT020 BKN030 BKN090 24/20 A2997 RMK AO2 T02440200,PHMK,2021-01-18T03:01:00Z,21.15,-157.1,24.4,20.0,160,10,,10.0,29.970472,,,,TRUE,,,,,,,SCT,2000,BKN,3000,BKN,9000,,,MVFR,,,,,,,,,,,,METAR,135.0
PGUM 180301Z 09010G21KT 10SM BKN024 29/22 A2985 RMK AO2 T02940217 $,PGUM,2021-01-18T03:01:00Z,13.48,144.8,29.4,21.7,90,10,21,10.0,29.84941,,,,TRUE,TRUE,,,,,,BKN,2400,,,,,,,MVFR,,,,,,,,,,,,METAR,74.0
PAFS 180301Z AUTO 26003KT 10SM SCT110 M12/M14 A2956 RMK AO2 SLP023 T11221144 51003 FZRANO,PAFS,2021-01-18T03:01:00Z,63.02,-154.35,-12.2,-14.4,260,3,,10.0,29.56004,1002.3,,TRUE,TRUE,,,,TRUE,,,SCT,11000,,,,,,,VFR,0.3,,,,,,,,,,,METAR,131.0
LTCI 180301Z 18012KT 9999 -SN SCT035 BKN070 03/M02 Q1008 TEMPO 4000 BR RMK RWY21 18010KT 160V220 3ST035 6AS070,LTCI,2021-01-18T03:01:00Z,38.47,43.33,3.0,-2.0,180,12,,6.21,29.763779,,,,,,,,,,-SN,SCT,3500,BKN,7000,,,,,VFR,,,,,,,,,,,,METAR,1654.0
LTAR 180301Z 23008KT 6000 1500S R01/P1500D R19/P1500D BCFG BKN002 BKN030 OVC080 M07/M07 Q1006 RMK RWY19 21009KT,LTAR,2021-01-18T03:01:00Z,39.8,36.9,-7.0,-7.0,230,8,,3.73,29.704725,,,,,,,,,,BCFG,BKN,200,BKN,3000,OVC,8000,,,LIFR,,,-0.9,,,,,,,,,METAR,1601.0
KMSP 180301Z 32007KT 10SM -SN FEW012 BKN017 OVC031 M06/M08 A2981 RMK AO2 SNB01 P0000 T10561078,KMSP,2021-01-18T03:01:00Z,44.88,-93.23,-5.6,-7.8,320,7,,10.0,29.811024,,,,TRUE,,,,,,-SN,FEW,1200,BKN,1700,OVC,3100,,,MVFR,,,,,,0.005,,,,,,METAR,255.0
KLHQ 180301Z AUTO 23008KT 10SM FEW008 BKN030 OVC043 01/M01 A2975 RMK AO2 T00061011,KLHQ,2021-01-18T03:01:00Z,39.75,-82.67,0.6,-1.1,230,8,,10.0,29.749016,,,TRUE,TRUE,,,,,,,FEW,800,BKN,3000,OVC,4300,,,MVFR,,,,,,,,,,,,METAR,259.0
CYCA 180301Z AUTO 10011G21KT 9SM -RA FEW013 OVC023 01/00 A2936 RMK PRESFR SLP949,CYCA,2021-01-18T03:01:00Z,53.68,-57.03,1.0,0.0,100,11,21,9.0,29.359253,994.9,,TRUE,,,,,,,-RA,FEW,1300,OVC,2300,,,,,MVFR,,,,,,,,,,,,SPECI,12.0
ZYTX 180300Z 33004MPS CAVOK M13/M24 Q1027 NOSIG,ZYTX,2021-01-18T03:00:00Z,41.63,123.48,-13.0,-24.0,330,8,,6.21,30.324802,,,,,,TRUE,,,,,CAVOK,,,,,,,,VFR,,,,,,,,,,,,METAR,56.0
ZYTL 180300Z 34004MPS 300V010 CAVOK M02/M17 Q1023 NOSIG,ZYTL,2021-01-18T03:00:00Z,38.97,121.55,-2.0,-17.0,340,8,,6.21,30.206694,,,,,,TRUE,,,,,CAVOK,,,,,,,,VFR,,,,,,,,,,,,METAR,33.0
ZYHB 180300Z 32005MPS CAVOK M23/M28 Q1022 NOSIG,ZYHB,2021-01-18T03:00:00Z,45.62,126.25,-23.0,-28.0,320,10,,6.21,30.177166,,,,,,TRUE,,,,,CAVOK,,,,,,,,VFR,,,,,,,,,,,,METAR,134.0
ZYCC 180300Z 33004MPS 290V360 CAVOK M20/M27 Q1022 NOSIG,ZYCC,2021-01-18T03:00:00Z,43.98,125.68,-20.0,-27.0,330,8,,6.21,30.177166,,,,,,TRUE,,,,,CAVOK,,,,,,,,VFR,,,,,,,,,,,,METAR,211.0
ZWWW 180300Z VRB01MPS 4000 BR NSC M15/M17 Q1019 NOSIG,ZWWW,2021-01-18T03:00:00Z,43.9,87.47,-15.0,-17.0,0,2,,2.49,30.088583,,,,,,TRUE,,,,BR,CLR,,,,,,,,IFR,,,,,,,,,,,,METAR,654.0
ZWSH 180300Z 30004MPS 7000 NSC M07/M12 Q1018 NOSIG,ZWSH,2021-01-18T03:00:00Z,39.55,76.02,-7.0,-12.0,300,8,,4.35,30.059055,,,,,,TRUE,,,,,CLR,,,,,,,,MVFR,,,,,,,,,,,,METAR,1374.0
ZUUU 180300Z VRB01MPS CAVOK 06/02 Q1029 NOSIG,ZUUU,2021-01-18T03:00:00Z,30.58,103.95,6.0,2.0,0,2,,6.21,30.383858,,,,,,TRUE,,,,,CAVOK,,,,,,,,VFR,,,,,,,,,,,,METAR,494.0
ZUGY 180300Z VRB01MPS CAVOK 03/M02 Q1028 NOSIG,ZUGY,2021-01-18T03:00:00Z,26.53,106.8,3.0,-2.0,0,2,,6.21,30.35433,,,,,,TRUE,,,,,CAVOK,,,,,,,,VFR,,,,,,,,,,,,METAR,1130.0
ZUCK 180300Z 07002MPS 030V110 3300 BR FEW004 SCT006 02/02 Q1030 NOSIG,ZUCK,2021-01-18T03:00:00Z,29.72,106.63,2.0,2.0,70,4,,2.05,30.413385,,,,,,TRUE,,,,BR,FEW,400,SCT,600,,,,,IFR,,,,,,,,,,,,METAR,416.0
ZSSS 180300Z 24005MPS CAVOK 08/M08 Q1027 NOSIG,ZSSS,2021-01-18T03:00:00Z,31.2,121.33,8.0,-8.0,240,10,,6.21,30.324802,,,,,,TRUE,,,,,CAVOK,,,,,,,,VFR,,,,,,,,,,,,METAR,2.0
ZSQD 180300Z 33002MPS 280V020 7000 NSC 05/M12 Q1024 NOSIG,ZSQD,2021-01-18T03:00:00Z,36.27,120.38,5.0,-12.0,330,4,,4.35,30.236221,,,,,,TRUE,,,,,CLR,,,,,,,,MVFR,,,,,,,,,,,,METAR,8.0
ZSPD 180300Z 25006MPS 220V280 CAVOK 08/M07 Q1027 NOSIG,ZSPD,2021-01-18T03:00:00Z,31.15,121.8,8.0,-7.0,250,12,,6.21,30.324802,,,,,,TRUE,,,,,CAVOK,,,,,,,,VFR,,,,,,,,,,,,METAR,4.0
ZSOF 180300Z 23004MPS 160V260 CAVOK 10/M07 Q1025 NOSIG,ZSOF,2021-01-18T03:00:00Z,31.98,116.97,10.0,-7.0,230,8,,6.21,30.265747,,,,,,TRUE,,,,,CAVOK,,,,,,,,VFR,,,,,,,,,,,,METAR,23.0
ZSNJ 180300Z 24005MPS CAVOK 09/M06 Q1027 NOSIG,ZSNJ,2021-01-18T03:00:00Z,31.75,118.87,9.0,-6.0,240,10,,6.21,30.324802,,,,,,TRUE,,,,,CAVOK,,,,,,,,VFR,,,,,,,,,,,,METAR,27.0
ZSNB 180300Z VRB01MPS 9000 NSC 10/M05 Q1027 NOSIG,ZSNB,2021-01-18T03:00:00Z,29.83,121.47,10.0,-5.0,0,2,,5.59,30.324802,,,,,,TRUE,,,,,CLR,,,,,,,,VFR,,,,,,,,,,,,METAR,5.0
ZSHC 180300Z 25003MPS 210V290 8000 NSC 08/M05 Q1027 NOSIG,ZSHC,2021-01-18T03:00:00Z,30.22,120.43,8.0,-5.0,250,6,,4.97,30.324802,,,,,,TRUE,,,,,CLR,,,,,,,,MVFR,,,,,,,,,,,,METAR,8.0
ZSFZ 180300Z 04005MPS CAVOK 11/01 Q1027 NOSIG,ZSFZ,2021-01-18T03:00:00Z,25.93,119.67,11.0,1.0,40,10,,6.21,30.324802,,,,,,TRUE,,,,,CAVOK,,,,,,,,VFR,,,,,,,,,,,,METAR,14.0
ZSAM 180300Z 01003MPS 330V080 CAVOK 13/01 Q1025 NOSIG,ZSAM,2021-01-18T03:00:00Z,24.53,118.13,13.0,1.0,10,6,,6.21,30.265747,,,,,,TRUE,,,,,CAVOK,,,,,,,,VFR,,,,,,,,,,,,METAR,13.0
ZPPP 180300Z 23001MPS CAVOK 05/M03 Q1029 BECMG TL0440 22007MPS,ZPPP,2021-01-18T03:00:00Z,25.0,102.65,5.0,-3.0,230,2,,6.21,30.383858,,,,,,,,,,,CAVOK,,,,,,,,VFR,,,,,,,,,,,,METAR,1885.0
ZLXY 180300Z 06004MPS CAVOK 05/M11 Q1023 NOSIG,ZLXY,2021-01-18T03:00:00Z,34.43,108.75,5.0,-11.0,60,8,,6.21,30.206694,,,,,,TRUE,,,,,CAVOK,,,,,,,,VFR,,,,,,,,,,,,METAR,478.0
ZLLL 180300Z VRB01MPS CAVOK M02/M18 Q1019 NOSIG,ZLLL,2021-01-18T03:00:00Z,36.52,103.62,-2.0,-18.0,0,2,,6.21,30.088583,,,,,,TRUE,,,,,CAVOK,,,,,,,,VFR,,,,,,,,,,,,METAR,1939.0
ZJSY 180300Z 20003MPS 160V240 9000 NSC 20/09 Q1023 NOSIG,ZJSY,2021-01-18T03:00:00Z,18.3,109.42,20.0,9.0,200,6,,5.59,30.206694,,,,,,TRUE,,,,,CLR,,,,,,,,VFR,,,,,,,,,,,,METAR,27.0
ZJHK 180300Z 36005MPS CAVOK 15/07 Q1025 NOSIG,ZJHK,2021-01-18T03:00:00Z,19.93,110.43,15.0,7.0,360,10,,6.21,30.265747,,,,,,TRUE,,,,,CAVOK,,,,,,,,VFR,,,,,,,,,,,,METAR,21.0
ZHHH 180300Z 21003MPS 160V260 CAVOK 09/M03 Q1027 NOSIG,ZHHH,2021-01-18T03:00:00Z,30.78,114.22,9.0,-3.0,210,6,,6.21,30.324802,,,,,,TRUE,,,,,CAVOK,,,,,,,,VFR,,,,,,,,,,,,METAR,33.0
ZHCC 180300Z 30005MPS CAVOK 12/M18 Q1023 NOSIG,ZHCC,2021-01-18T03:00:00Z,34.52,113.83,12.0,-18.0,300,10,,6.21,30.206694,,,,,,TRUE,,,,,CAVOK,,,,,,,,VFR,,,,,,,,,,,,METAR,149.0
ZGSZ 180300Z 01006MPS CAVOK 15/M02 Q1026 NOSIG,ZGSZ,2021-01-18T03:00:00Z,22.63,113.8,15.0,-2.0,10,12,,6.21,30.295275,,,,,,TRUE,,,,,CAVOK,,,,,,,,VFR,,,,,,,,,,,,METAR,18.0
ZGOW 180300Z 03003MPS 320V120 CAVOK 15/01 Q1025 NOSIG,ZGOW,2021-01-18T03:00:00Z,23.55,116.5,15.0,1.0,30,6,,6.21,30.265747,,,,,,TRUE,,,,,CAVOK,,,,,,,,VFR,,,,,,,,,,,,METAR,4.0
ZGNN 180300Z 35005MPS CAVOK 13/00 Q1028 NOSIG,ZGNN,2021-01-18T03:00:00Z,22.62,108.17,13.0,0.0,350,10,,6.21,30.35433,,,,,,TRUE,,,,,CAVOK,,,,,,,,VFR,,,,,,,,,,,,METAR,128.0
ZGKL 180300Z 00000MPS CAVOK 10/M00 Q1029 NOSIG,ZGKL,2021-01-18T03:00:00Z,25.22,110.03,10.0,0.0,0,0,,6.21,30.383858,,,,,,TRUE,,,,,CAVOK,,,,,,,,VFR,,,,,,,,,,,,METAR,151.0
ZGHA 180300Z 20003MPS 170V230 CAVOK 08/M03 Q1029 NOSIG,ZGHA,2021-01-18T03:00:00Z,28.18,113.22,8.0,-3.0,200,6,,6.21,30.383858,,,,,,TRUE,,,,,CAVOK,,,,,,,,VFR,,,,,,,,,,,,METAR,61.0
ZGGG 180300Z 04003MPS 320V100 CAVOK 14/M04 Q1027 NOSIG,ZGGG,2021-01-18T03:00:00Z,23.4,113.3,14.0,-4.0,40,6,,6.21,30.324802,,,,,,TRUE,,,,,CAVOK,,,,,,,,VFR,,,,,,,,,,,,METAR,11.0
ZBYN 180300Z 20002MPS 160V230 CAVOK 01/M22 Q1021 NOSIG,ZBYN,2021-01-18T03:00:00Z,37.73,112.63,1.0,-22.0,200,4,,6.21,30.147638,,,,,,TRUE,,,,,CAVOK,,,,,,,,VFR,,,,,,,,,,,,METAR,778.0
ZBTJ 180300Z 03005MPS 360V060 CAVOK 03/M19 Q1025 NOSIG,ZBTJ,2021-01-18T03:00:00Z,39.12,117.35,3.0,-19.0,30,10,,6.21,30.265747,,,,,,TRUE,,,,,CAVOK,,,,,,,,VFR,,,,,,,,,,,,METAR,4.0
ZBSJ 180300Z VRB01MPS 8000 NSC 04/M17 Q1023 NOSIG,ZBSJ,2021-01-18T03:00:00Z,38.28,114.7,4.0,-17.0,0,2,,4.97,30.206694,,,,,,TRUE,,,,,CLR,,,,,,,,MVFR,,,,,,,,,,,,METAR,70.0
ZBHH 180300Z 24002MPS 170V280 CAVOK M08/M21 Q1020 NOSIG,ZBHH,2021-01-18T03:00:00Z,40.85,111.82,-8.0,-21.0,240,4,,6.21,30.11811,,,,,,TRUE,,,,,CAVOK,,,,,,,,VFR,,,,,,,,,,,,METAR,1081.0
ZBAD 180300Z 11003MPS 080V140 CAVOK 02/M18 Q1025 NOSIG,ZBAD,2021-01-18T03:00:00Z,39.5,116.42,2.0,-18.0,110,6,,6.21,30.265747,,,,,,TRUE,,,,,CAVOK,,,,,,,,VFR,,,,,,,,,,,,METAR,25.0
ZBAA 180300Z 02004MPS 350V050 CAVOK 02/M21 Q1024 NOSIG,ZBAA,2021-01-18T03:00:00Z,40.07,116.6,2.0,-21.0,20,8,,6.21,30.236221,,,,,,TRUE,,,,,CAVOK,,,,,,,,VFR,,,,,,,,,,,,METAR,31.0
YWLM 180300Z 06004KT 350V160 9999 FEW040 28/14 Q1011,YWLM,2021-01-18T03:00:00Z,-32.8,151.83,28.0,14.0,60,4,,6.21,29.852362,,,,,,,,,,,FEW,4000,,,,,,,VFR,,,,,,,,,,,,METAR,7.0
YWHA 180300Z AUTO 17015KT 9999 // NCD 21/13 Q1020,YWHA,2021-01-18T03:00:00Z,-33.07,137.52,21.0,13.0,170,15,,6.21,30.11811,,,TRUE,,,,,,,,CLR,,,,,,,,VFR,,,,,,,,,,,,METAR,12.0
YWGT 180300Z AUTO 25011KT 9999 // NCD 28/08 Q1013,YWGT,2021-01-18T03:00:00Z,-36.42,146.3,28.0,8.0,250,11,,6.21,29.911417,,,TRUE,,,,,,,,CLR,,,,,,,,VFR,,,,,,,,,,,,METAR,152.0
YTRE 180300Z AUTO 11006KT 070V130 9999 // NCD 25/19 Q1012,YTRE,2021-01-18T03:00:00Z,-31.88,152.52,25.0,19.0,110,6,,6.21,29.88189,,,TRUE,,,,,,,,CLR,,,,,,,,VFR,,,,,,,,,,,,METAR,8.0
YTNK 180300Z AUTO 13013KT 9999 // NCD 34/05 Q1011,YTNK,2021-01-18T03:00:00Z,-19.63,134.18,34.0,5.0,130,13,,6.21,29.852362,,,TRUE,,,,,,,,CLR,,,,,,,,VFR,,,,,,,,,,,,METAR,368.0
YTEF 180300Z AUTO 07011KT 9999 // NCD 38/// Q1010,YTEF,2021-01-18T03:00:00Z,-21.72,122.23,,,70,11,,6.21,29.822834,,,TRUE,,,,,,,,CLR,,,,,,,,VFR,,,,,,,,,,,,METAR,298.0
YSWG 180300Z 23011KT CAVOK 30/01 Q1012,YSWG,2021-01-18T03:00:00Z,-35.15,147.47,30.0,1.0,230,11,,6.21,29.88189,,,,,,,,,,,CAVOK,,,,,,,,VFR,,,,,,,,,,,,METAR,212.0
YSTW 180300Z AUTO 33010KT 9999 // NCD 26/15 Q1014,YSTW,2021-01-18T03:00:00Z,-31.08,150.85,26.0,15.0,330,10,,6.21,29.940945,,,TRUE,,,,,,,,CLR,,,,,,,,VFR,,,,,,,,,,,,METAR,404.0
YSSY 180300Z 04015KT CAVOK 28/17 Q1010,YSSY,2021-01-18T03:00:00Z,-33.95,151.17,28.0,17.0,40,15,,6.21,29.822834,,,,,,,,,,,CAVOK,,,,,,,,VFR,,,,,,,,,,,,METAR,3.0
YSRI 180300Z AUTO 04005KT 9999 // NCD 29/14 Q1010,YSRI,2021-01-18T03:00:00Z,-33.6,150.77,29.0,14.0,40,5,,6.21,29.822834,,,TRUE,,,,,,,,CLR,,,,,,,,VFR,,,,,,,,,,,,METAR,19.0
YSNW 180300Z 09011KT CAVOK 27/15 Q1010,YSNW,2021-01-18T03:00:00Z,-34.95,150.53,27.0,15.0,90,11,,6.21,29.822834,,,,,,,,,,,CAVOK,,,,,,,,VFR,,,,,,,,,,,,METAR,109.0
YSNF 180300Z AUTO 15010KT 9999 // SCT024 24/16 Q1015,YSNF,2021-01-18T03:00:00Z,-29.03,167.93,24.0,16.0,150,10,,6.21,29.970472,,,TRUE,,,,,,,,SCT,2400,,,,,,,VFR,,,,,,,,,,,,METAR,113.0
YSDU 180300Z AUTO 29009KT 9999 // NCD 31/07 Q1013,YSDU,2021-01-18T03:00:00Z,-32.22,148.57,31.0,7.0,290,9,,6.21,29.911417,,,TRUE,,,,,,,,CLR,,,,,,,,VFR,,,,,,,,,,,,METAR,285.0
YSCB 180300Z AUTO 34011KT 290V360 9999 // NCD 29/07 Q1012,YSCB,2021-01-18T03:00:00Z,-35.3,149.18,29.0,7.0,340,11,,6.21,29.88189,,,TRUE,,,,,,,,CLR,,,,,,,,VFR,,,,,,,,,,,,METAR,577.0
YRMD 180300Z AUTO 05005KT 360V090 9999 // ////// 34/16 Q1007,YRMD,2021-01-18T03:00:00Z,-20.7,143.12,34.0,16.0,50,5,,6.21,29.734253,,,TRUE,,,,,,,,,,,,,,,,,,,,,,,,,,,,METAR,209.0
YPXM 180300Z AUTO 26006KT 9999 // OVC098 26/23 Q1010,YPXM,2021-01-18T03:00:00Z,-10.45,105.68,26.0,23.0,260,6,,6.21,29.822834,,,TRUE,,,,,,,,OVC,9800,,,,,,,VFR,,,,,,,,,,,,METAR,262.0
YPWR 180300Z AUTO 18009KT 9999 // NCD 26/06 Q1019,YPWR,2021-01-18T03:00:00Z,-31.15,136.82,26.0,6.0,180,9,,6.21,30.088583,,,TRUE,,,,,,,,CLR,,,,,,,,VFR,,,,,,,,,,,,METAR,169.0
YPPH 180300Z 05014KT CAVOK 29/04 Q1014,YPPH,2021-01-18T03:00:00Z,-31.93,115.98,29.0,4.0,50,14,,6.21,29.940945,,,,,,,,,,,CAVOK,,,,,,,,VFR,,,,,,,,,,,,METAR,16.0
YPPD 180300Z AUTO 06013KT 9999 // NCD 41/12 Q1006,YPPD,2021-01-18T03:00:00Z,-20.37,118.62,41.0,12.0,60,13,,6.21,29.704725,,,TRUE,,,,,,,,CLR,,,,,,,,VFR,,,,,,,,,,,,METAR,6.0
YPLM 180300Z AUTO 09006KT 9999 // NCD 33/21 Q1009,YPLM,2021-01-18T03:00:00Z,-22.23,114.08,33.0,21.0,90,6,,6.21,29.793306,,,TRUE,,,,,,,,CLR,,,,,,,,VFR,,,,,,,,,,,,METAR,5.0
YPKU 180300Z AUTO 13012KT 9999 // NCD 34/22 Q1007,YPKU,2021-01-18T03:00:00Z,-15.77,128.7,34.0,22.0,130,12,,6.21,29.734253,,,TRUE,,,,,,,,CLR,,,,,,,,VFR,,,,,,,,,,,,METAR,42.0
YPKG 180300Z AUTO 07012KT 050V110 9999 // NCD 25/08 Q1020,YPKG,2021-01-18T03:00:00Z,-30.78,121.45,25.0,8.0,70,12,,6.21,30.11811,,,TRUE,,,,,,,,CLR,,,,,,,,VFR,,,,,,,,,,,,METAR,372.0
YPJT 180300Z AUTO 03017KT 9999 // NCD 31/07 Q1014 RF00.0/000.0,YPJT,2021-01-18T03:00:00Z,-32.1,115.88,31.0,7.0,30,17,,6.21,29.940945,,,TRUE,,,,,,,,CLR,,,,,,,,VFR,,,,,,,,,,,,METAR,29.0
YPGV 180300Z 35008KT 9999 -SHRA FEW012 SCT025 BKN065 28/27 Q1007,YPGV,2021-01-18T03:00:00Z,-12.27,136.82,28.0,27.0,350,8,,6.21,29.734253,,,,,,,,,,-SHRA,FEW,1200,SCT,2500,BKN,6500,,,VFR,,,,,,,,,,,,METAR,53.0
YPEA 180300Z 02014KT 9999 -SHRA NSC 27/06 Q1014,YPEA,2021-01-18T03:00:00Z,-31.67,116.02,27.0,6.0,20,14,,6.21,29.940945,,,,,,,,,,-SHRA,CLR,,,,,,,,VFR,,,,,,,,,,,,METAR,38.0
YPCC 180300Z 05002KT 9999 FEW012 SCT350 30/26 Q1009 RF00.0/001.6,YPCC,2021-01-18T03:00:00Z,-12.18,96.83,30.0,26.0,50,2,,6.21,29.793306,,,,,,,,,,,FEW,1200,SCT,35000,,,,,VFR,,,,,,,,,,,,SPECI,3.0
YPBO 180300Z AUTO 07011KT 060V120 9999 // BKN091 OVC105 29/15 Q1013,YPBO,2021-01-18T03:00:00Z,-23.17,117.75,29.0,15.0,70,11,,6.21,29.911417,,,TRUE,,,,,,,,BKN,9100,OVC,10500,,,,,VFR,,,,,,,,,,,,METAR,425.0
YPAD 180300Z 17015KT 170V230 9999 FEW035 22/13 Q1021,YPAD,2021-01-18T03:00:00Z,-34.95,138.52,22.0,13.0,170,15,,6.21,30.147638,,,,,,,,,,,FEW,3500,,,,,,,VFR,,,,,,,,,,,,METAR,2.0
YOLD 180300Z AUTO 23009KT 9999 // NCD 28/09 Q1018,YOLD,2021-01-18T03:00:00Z,-30.48,136.88,28.0,9.0,230,9,,6.21,30.059055,,,TRUE,,,,,,,,CLR,,,,,,,,VFR,,,,,,,,,,,,METAR,102.0
YNWN 180300Z AUTO 11008KT 050V110 9999 // NCD 33/08 Q1013,YNWN,2021-01-18T03:00:00Z,-23.42,119.8,33.0,8.0,110,8,,6.21,29.911417,,,TRUE,,,,,,,,CLR,,,,,,,,VFR,,,,,,,,,,,,METAR,526.0
YNTN 180300Z AUTO 36004KT 320V030 9999 // NCD 36/21 Q1006,YNTN,2021-01-18T03:00:00Z,-17.68,141.07,36.0,21.0,360,4,,6.21,29.704725,,,TRUE,,,,,,,,CLR,,,,,,,,VFR,,,,,,,,,,,,METAR,19.0
YNBR 180300Z AUTO 34009KT 9999 // SCT047 OVC105 28/17 Q1013,YNBR,2021-01-18T03:00:00Z,-30.32,149.83,28.0,17.0,340,9,,6.21,29.911417,,,TRUE,,,,,,,,SCT,4700,OVC,10500,,,,,VFR,,,,,,,,,,,,METAR,230.0
YNAR 180300Z AUTO 21013KT 200V270 9999 // NCD 29/03 Q1014,YNAR,2021-01-18T03:00:00Z,-34.7,146.52,29.0,3.0,210,13,,6.21,29.940945,,,TRUE,,,,,,,,CLR,,,,,,,,VFR,,,,,,,,,,,,METAR,142.0
YMTG 180300Z AUTO 23012KT //// // OVC023 18/11 Q1020,YMTG,2021-01-18T03:00:00Z,-37.75,140.78,18.0,11.0,230,12,,,30.11811,,,TRUE,,,,,,,,OVC,2300,,,,,,,,,,,,,,,,,,,METAR,65.0
YMOR 180300Z AUTO 31009KT 9999 // SCT073 OVC100 25/14 Q1013,YMOR,2021-01-18T03:00:00Z,-29.5,149.85,25.0,14.0,310,9,,6.21,29.911417,,,TRUE,,,,,,,,SCT,7300,OVC,10000,,,,,VFR,,,,,,,,,,,,METAR,211.0
YMIA 180300Z AUTO 21008KT 180V240 9999 // NCD 27/04 Q1018,YMIA,2021-01-18T03:00:00Z,-34.23,142.08,27.0,4.0,210,8,,6.21,30.059055,,,TRUE,,,,,,,,CLR,,,,,,,,VFR,,,,,,,,,,,,METAR,53.0
YMHB 180300Z 29024KT 9999 FEW040 SCT050 BKN300 21/09 Q1001,YMHB,2021-01-18T03:00:00Z,-42.83,147.52,21.0,9.0,290,24,,6.21,29.557087,,,,,,,,,,,FEW,4000,SCT,5000,BKN,30000,,,VFR,,,,,,,,,,,,METAR,2.0
YMER 180300Z AUTO 05009KT 9999 // NCD 22/14 Q1011,YMER,2021-01-18T03:00:00Z,-36.92,149.9,22.0,14.0,50,9,,6.21,29.852362,,,TRUE,,,,,,,,CLR,,,,,,,,VFR,,,,,,,,,,,,METAR,2.0
YMEK 180300Z AUTO 03010KT 9999 // BKN105 31/03 Q1016,YMEK,2021-01-18T03:00:00Z,-26.62,118.55,31.0,3.0,30,10,,6.21,30.0,,,TRUE,,,,,,,,BKN,10500,,,,,,,VFR,,,,,,,,,,,,METAR,521.0
YMDG 180300Z AUTO 26011KT 9999 // NCD 29/06 Q1013,YMDG,2021-01-18T03:00:00Z,-32.57,149.62,29.0,6.0,260,11,,6.21,29.911417,,,TRUE,,,,,,,,CLR,,,,,,,,VFR,,,,,,,,,,,,METAR,470.0
YMAY 180300Z AUTO 27011KT 9999 // NCD 29/08 Q1012,YMAY,2021-01-18T03:00:00Z,-36.07,146.95,29.0,8.0,270,11,,6.21,29.88189,,,TRUE,,,,,,,,CLR,,,,,,,,VFR,,,,,,,,,,,,METAR,156.0
YMAV 180300Z AUTO 25017KT 9999 // SCT047 24/12 Q1016,YMAV,2021-01-18T03:00:00Z,-38.03,144.48,24.0,12.0,250,17,,6.21,30.0,,,TRUE,,,,,,,,SCT,4700,,,,,,,VFR,,,,,,,,,,,,METAR,11.0
YLRE 180300Z AUTO 09011KT 040V100 9999 // NCD 35/18 Q1009,YLRE,2021-01-18T03:00:00Z,-23.43,144.28,35.0,18.0,90,11,,6.21,29.793306,,,TRUE,,,,,,,,CLR,,,,,,,,VFR,,,,,,,,,,,,METAR,191.0
YLIS 180300Z AUTO 05012KT 9999 // SCT045 BKN057 OVC076 25/20 Q1012,YLIS,2021-01-18T03:00:00Z,-28.83,153.27,25.0,20.0,50,12,,6.21,29.88189,,,TRUE,,,,,,,,SCT,4500,BKN,5700,OVC,7600,,,VFR,,,,,,,,,,,,METAR,6.0
YLHI 180300Z AUTO 27013KT 9999 // NCD 27/19 Q1015 RF00.0/000.0,YLHI,2021-01-18T03:00:00Z,-31.53,159.07,27.0,19.0,270,13,,6.21,29.970472,,,TRUE,,,,,,,,CLR,,,,,,,,VFR,,,,,,,,,,,,METAR,2.0
YLEC 180300Z AUTO 21015KT 200V260 9999 // NCD 30/07 Q1017,YLEC,2021-01-18T03:00:00Z,-30.6,138.43,30.0,7.0,210,15,,6.21,30.029528,,,TRUE,,,,,,,,CLR,,,,,,,,VFR,,,,,,,,,,,,METAR,261.0
YKRY 180300Z AUTO 01010KT 9999 // SCT037 SCT044 SCT054 29/18 Q1014,YKRY,2021-01-18T03:00:00Z,-26.57,151.83,29.0,18.0,10,10,,6.21,29.940945,,,TRUE,,,,,,,,SCT,3700,SCT,4400,SCT,5400,,,VFR,,,,,,,,,,,,METAR,435.0
YHUG 180300Z AUTO 09010KT 9999 // ////// 34/13 Q1008,YHUG,2021-01-18T03:00:00Z,-20.82,144.23,34.0,13.0,90,10,,6.21,29.763779,,,TRUE,,,,,,,,,,,,,,,,,,,,,,,,,,,,METAR,320.0
YHID 180300Z AUTO 34009KT 9999 // SCT105 31/25 Q1007,YHID,2021-01-18T03:00:00Z,-10.58,142.3,31.0,25.0,340,9,,6.21,29.734253,,,TRUE,,,,,,,,SCT,10500,,,,,,,VFR,,,,,,,,,,,,METAR,5.0
YGTH 180300Z AUTO 23013KT 9999 // NCD 29/06 Q1014,YGTH,2021-01-18T03:00:00Z,-34.25,146.07,29.0,6.0,230,13,,6.21,29.940945,,,TRUE,,,,,,,,CLR,,,,,,,,VFR,,,,,,,,,,,,METAR,132.0
YGTE 180300Z AUTO 06007KT 9999 // SCT026 BKN075 BKN088 30/25 Q1006,YGTE,2021-01-18T03:00:00Z,-13.97,136.45,30.0,25.0,60,7,,6.21,29.704725,,,TRUE,,,,,,,,SCT,2600,BKN,7500,BKN,8800,,,VFR,,,,,,,,,,,,METAR,14.0
YGLA 180300Z AUTO 09012KT 9999 // BKN033 OVC040 29/19 Q1012,YGLA,2021-01-18T03:00:00Z,-23.87,151.22,29.0,19.0,90,12,,6.21,29.88189,,,TRUE,,,,,,,,BKN,3300,OVC,4000,,,,,VFR,,,,,,,,,,,,METAR,17.0
YGFN 180300Z AUTO 01008KT 9999 // BKN064 27/20 Q1013,YGFN,2021-01-18T03:00:00Z,-29.77,153.03,27.0,20.0,10,8,,6.21,29.911417,,,TRUE,,,,,,,,BKN,6400,,,,,,,VFR,,,,,,,,,,,,METAR,26.0
YGEL 180300Z AUTO 30005KT 9999 // BKN092 32/17 Q1010,YGEL,2021-01-18T03:00:00Z,-28.8,114.7,32.0,17.0,300,5,,6.21,29.822834,,,TRUE,,,,,,,,BKN,9200,,,,,,,VFR,,,,,,,,,,,,METAR,32.0
YFRT 180300Z AUTO 11010KT 9999 // NCD 26/11 Q1021,YFRT,2021-01-18T03:00:00Z,-30.83,128.12,26.0,11.0,110,10,,6.21,30.147638,,,TRUE,,,,,,,,CLR,,,,,,,,VFR,,,,,,,,,,,,METAR,159.0
YESP 180300Z AUTO 07011KT 010V090 9999 // NCD 26/10 Q1021,YESP,2021-01-18T03:00:00Z,-33.68,121.82,26.0,10.0,70,11,,6.21,30.147638,,,TRUE,,,,,,,,CLR,,,,,,,,VFR,,,,,,,,,,,,METAR,143.0
YEML 180300Z AUTO 05012KT 9999 // NCD 33/17 Q1010,YEML,2021-01-18T03:00:00Z,-23.57,148.18,33.0,17.0,50,12,,6.21,29.822834,,,TRUE,,,,,,,,CLR,,,,,,,,VFR,,,,,,,,,,,,METAR,192.0
YDBY 180300Z AUTO 07012KT 9999 // NCD 38/19 Q1005,YDBY,2021-01-18T03:00:00Z,-17.37,123.67,38.0,19.0,70,12,,6.21,29.675198,,,TRUE,,,,,,,,CLR,,,,,,,,VFR,,,,,,,,,,,,METAR,7.0
YCOM 180300Z AUTO 20011KT 180V250 9999 // NCD 26/02 Q1013,YCOM,2021-01-18T03:00:00Z,-36.3,148.97,26.0,2.0,200,11,,6.21,29.911417,,,TRUE,,,,,,,,CLR,,,,,,,,VFR,,,,,,,,,,,,METAR,930.0
YCNM 180300Z AUTO 18004KT //// // ////// 32/07 Q1012,YCNM,2021-01-18T03:00:00Z,-30.98,148.38,32.0,7.0,180,4,,,29.88189,,,TRUE,,,,,,,,,,,,,,,,,,,,,,,,,,,,METAR,180.0
YCIN 180300Z AUTO 07012KT 9999 // NCD 38/16 Q1005,YCIN,2021-01-18T03:00:00Z,-17.58,123.83,38.0,16.0,70,12,,6.21,29.675198,,,TRUE,,,,,,,,CLR,,,,,,,,VFR,,,,,,,,,,,,METAR,83.0
YCFS 180300Z AUTO 03019KT //// // SCT038 26/20 Q1012,YCFS,2021-01-18T03:00:00Z,-30.32,153.12,26.0,20.0,30,19,,,29.88189,,,TRUE,,,,,,,,SCT,3800,,,,,,,,,,,,,,,,,,,METAR,2.0
YCDU 180300Z AUTO 19016KT 9999 // NCD 20/12 Q1022,YCDU,2021-01-18T03:00:00Z,-32.12,133.7,20.0,12.0,190,16,,6.21,30.177166,,,TRUE,,,,,,,,CLR,,,,,,,,VFR,,,,,,,,,,,,METAR,21.0
YCCY 180300Z AUTO 13008KT 110V170 9999 // ////// 36/08 Q1007,YCCY,2021-01-18T03:00:00Z,-20.67,140.5,36.0,8.0,130,8,,6.21,29.734253,,,TRUE,,,,,,,,,,,,,,,,,,,,,,,,,,,,METAR,188.0
YCBP 180300Z AUTO 10007KT 090V180 9999 // NCD 29/07 Q1019,YCBP,2021-01-18T03:00:00Z,-29.03,134.72,29.0,7.0,100,7,,6.21,30.088583,,,TRUE,,,,,,,,CLR,,,,,,,,VFR,,,,,,,,,,,,METAR,227.0
YCBB 180300Z AUTO 27008KT 9999 // NCD 28/04 Q1015,YCBB,2021-01-18T03:00:00Z,-31.33,149.27,28.0,4.0,270,8,,6.21,29.970472,,,TRUE,,,,,,,,CLR,,,,,,,,VFR,,,,,,,,,,,,METAR,644.0
YCBA 180300Z AUTO 23007KT 180V270 9999 // NCD 30/01 Q1014,YCBA,2021-01-18T03:00:00Z,-31.53,145.8,30.0,1.0,230,7,,6.21,29.940945,,,TRUE,,,,,,,,CLR,,,,,,,,VFR,,,,,,,,,,,,METAR,219.0
YCAS 180300Z AUTO 14007KT //// // ////// 26/21 Q1012,YCAS,2021-01-18T03:00:00Z,-28.88,153.07,26.0,21.0,140,7,,,29.88189,,,TRUE,,,,,,,,,,,,,,,,,,,,,,,,,,,,METAR,25.0
YCAR 180300Z AUTO 21010KT 9999 // NCD 31/26 Q1009,YCAR,2021-01-18T03:00:00Z,-24.88,113.67,31.0,26.0,210,10,,6.21,29.793306,,,TRUE,,,,,,,,CLR,,,,,,,,VFR,,,,,,,,,,,,METAR,4.0
YBWX 180300Z AUTO 13005KT //// // ////// 34/26 Q1007,YBWX,2021-01-18T03:00:00Z,-20.85,115.4,34.0,26.0,130,5,,,29.734253,,,TRUE,,,,,,,,,,,,,,,,,,,,,,,,,,,,METAR,5.0
YBWW 180300Z AUTO 08004KT 9999 // OVC096 26/20 Q1013 RF00.0/000.2 DL-S/DL-SW/DL-NW,YBWW,2021-01-18T03:00:00Z,,,26.0,20.0,80,4,,6.21,29.911417,,,TRUE,,,,,,,,OVC,9600,,,,,,,VFR,,,,,,,,,,,,METAR,
YBUD 180300Z AUTO 07011KT 020V080 9999 // BKN034 BKN042 30/21 Q1012,YBUD,2021-01-18T03:00:00Z,-24.9,152.32,30.0,21.0,70,11,,6.21,29.88189,,,TRUE,,,,,,,,BKN,3400,BKN,4200,,,,,VFR,,,,,,,,,,,,METAR,30.0
YBRM 180300Z 13012KT CAVOK 38/15 Q1005,YBRM,2021-01-18T03:00:00Z,-17.93,122.23,38.0,15.0,130,12,,6.21,29.675198,,,,,,,,,,,CAVOK,,,,,,,,VFR,,,,,,,,,,,,METAR,11.0
YBRK 180300Z AUTO 09010KT 9999 // SCT037 BKN046 30/20 Q1011,YBRK,2021-01-18T03:00:00Z,-23.37,150.47,30.0,20.0,90,10,,6.21,29.852362,,,TRUE,,,,,,,,SCT,3700,BKN,4600,,,,,VFR,,,,,,,,,,,,METAR,10.0
YBPN 180300Z AUTO 11011KT 9999 -SHRA BKN018 OVC025 27/24 Q1010,YBPN,2021-01-18T03:00:00Z,-20.5,148.55,27.0,24.0,110,11,,6.21,29.822834,,,TRUE,,,,,,,-SHRA,BKN,1800,OVC,2500,,,,,MVFR,,,,,,,,,,,,METAR,20.0
YBOK 180300Z 01011KT 9999 BKN045 BKN092 FEW045CB 28/18 Q1013,YBOK,2021-01-18T03:00:00Z,-27.42,151.73,28.0,18.0,10,11,,6.21,29.911417,,,,,,,,,,,BKN,4500,BKN,9200,FEW,4500,,,VFR,,,,,,,,,,,,METAR,406.0
YBNA 180300Z AUTO 04010KT 9999 // NCD 26/22 Q1013,YBNA,2021-01-18T03:00:00Z,-28.83,153.57,26.0,22.0,40,10,,6.21,29.911417,,,TRUE,,,,,,,,CLR,,,,,,,,VFR,,,,,,,,,,,,METAR,3.0
YBMK 180300Z AUTO 12012KT 9999 // NCD 29/23 Q1010,YBMK,2021-01-18T03:00:00Z,-21.17,149.17,29.0,23.0,120,12,,6.21,29.822834,,,TRUE,,,,,,,,CLR,,,,,,,,VFR,,,,,,,,,,,,METAR,4.0
YBMA 180300Z AUTO 15007KT 9999 // ////// 36/07 Q1009,YBMA,2021-01-18T03:00:00Z,-20.67,139.48,36.0,7.0,150,7,,6.21,29.793306,,,TRUE,,,,,,,,,,,,,,,,,,,,,,,,,,,,METAR,346.0
YBLN 180300Z AUTO 04013KT 9999 // NCD 32/09 Q1013,YBLN,2021-01-18T03:00:00Z,-33.68,115.4,32.0,9.0,40,13,,6.21,29.911417,,,TRUE,,,,,,,,CLR,,,,,,,,VFR,,,,,,,,,,,,METAR,17.0
YBHI 180300Z AUTO 14009KT 130V190 9999 // NCD 27/04 Q1017,YBHI,2021-01-18T03:00:00Z,-32.0,141.47,27.0,4.0,140,9,,6.21,30.029528,,,TRUE,,,,,,,,CLR,,,,,,,,VFR,,,,,,,,,,,,METAR,285.0
YBDV 180300Z AUTO 14016KT //// // ////// 35/05 Q1012,YBDV,2021-01-18T03:00:00Z,-25.9,139.35,35.0,5.0,140,16,,,29.88189,,,TRUE,,,,,,,,,,,,,,,,,,,,,,,,,,,,METAR,46.0
YBCV 180300Z AUTO 12016KT 9999 // NCD 28/09 Q1013,YBCV,2021-01-18T03:00:00Z,-26.4,146.27,28.0,9.0,120,16,,6.21,29.911417,,,TRUE,,,,,,,,CLR,,,,,,,,VFR,,,,,,,,,,,,METAR,306.0
YBCS 180300Z AUTO 00000KT 9999 // SCT046 SCT055 OVC069 26/24 Q1006,YBCS,2021-01-18T03:00:00Z,-16.87,145.75,26.0,24.0,0,0,,6.21,29.704725,,,TRUE,,,,,,,,SCT,4600,SCT,5500,OVC,6900,,,VFR,,,,,,,,,,,,SPECI,2.0
YBCG 180300Z AUTO 36010KT 9999 // BKN120 27/21 Q1013,YBCG,2021-01-18T03:00:00Z,-28.17,153.5,27.0,21.0,360,10,,6.21,29.911417,,,TRUE,,,,,,,,BKN,12000,,,,,,,VFR,,,,,,,,,,,,METAR,5.0
YBBN 180300Z 06014KT 9999 VCSH FEW010 28/23 Q1012,YBBN,2021-01-18T03:00:00Z,-27.38,153.13,28.0,23.0,60,14,,6.21,29.88189,,,,,,,,,,VCSH,FEW,1000,,,,,,,VFR,,,,,,,,,,,,METAR,3.0
YBAS 180300Z 11018G30KT CAVOK 30/M01 Q1016,YBAS,2021-01-18T03:00:00Z,-23.8,133.9,30.0,-1.0,110,18,30,6.21,30.0,,,,,,,,,,,CAVOK,,,,,,,,VFR,,,,,,,,,,,,METAR,549.0
YAYE 180300Z AUTO 09014KT 080V150 9999 // NCD 31/M04 Q1016,YAYE,2021-01-18T03:00:00Z,-25.18,130.98,31.0,-4.0,90,14,,6.21,30.0,,,TRUE,,,,,,,,CLR,,,,,,,,VFR,,,,,,,,,,,,SPECI,489.0
YARG 180300Z AUTO 10011KT 9999 // NCD 35/08 Q1009,YARG,2021-01-18T03:00:00Z,-16.63,128.45,35.0,8.0,100,11,,6.21,29.793306,,,TRUE,,,,,,,,CLR,,,,,,,,VFR,,,,,,,,,,,,METAR,157.0
YAMB 180300Z 05013KT 9999 VCSH SCT036 BKN110 FEW040TCU 29/21 Q1011,YAMB,2021-01-18T03:00:00Z,-27.63,152.72,29.0,21.0,50,13,,6.21,29.852362,,,,,,,,,,VCSH,SCT,3600,BKN,11000,FEW,4000,,,VFR,,,,,,,,,,,,METAR,26.0
YABA 180300Z AUTO 04011KT 9999 // NCD 29/11 Q1018,YABA,2021-01-18T03:00:00Z,-34.93,117.8,29.0,11.0,40,11,,6.21,30.059055,,,TRUE,,,,,,,,CLR,,,,,,,,VFR,,,,,,,,,,,,METAR,67.0
WSSS 180300Z 01022KT 9999 FEW020 SCT160 BKN300 28/21 Q1013 NOSIG,WSSS,2021-01-18T03:00:00Z,1.37,103.97,28.0,21.0,10,22,,6.21,29.911417,,,,,,TRUE,,,,,FEW,2000,SCT,16000,BKN,30000,,,VFR,,,,,,,,,,,,METAR,17.0
WSSL 180300Z 03019KT 9999 FEW018 BKN300 28/20 Q1013,WSSL,2021-01-18T03:00:00Z,1.42,103.87,28.0,20.0,30,19,,6.21,29.911417,,,,,,,,,,,FEW,1800,BKN,30000,,,,,VFR,,,,,,,,,,,,METAR,11.0
WSAP 180300Z 04021KT 9999 FEW018 BKN300 28/21 Q1013,WSAP,2021-01-18T03:00:00Z,1.37,103.92,28.0,21.0,40,21,,6.21,29.911417,,,,,,,,,,,FEW,1800,BKN,30000,,,,,VFR,,,,,,,,,,,,METAR,20.0
WMSA 180300Z 06004KT 330V140 9999 FEW018 29/19 Q1012,WMSA,2021-01-18T03:00:00Z,3.13,101.55,29.0,19.0,60,4,,6.21,29.88189,,,,,,,,,,,FEW,1800,,,,,,,VFR,,,,,,,,,,,,METAR,19.0
WMKP 180300Z 03006KT 340V070 9000 FEW020 28/20 Q1012 NOSIG,WMKP,2021-01-18T03:00:00Z,5.28,100.27,28.0,20.0,30,6,,5.59,29.88189,,,,,,TRUE,,,,,FEW,2000,,,,,,,VFR,,,,,,,,,,,,METAR,4.0
WMKN 180300Z 05006KT 340V150 9999 SCT018 28/22 Q1015,WMKN,2021-01-18T03:00:00Z,5.37,103.1,28.0,22.0,50,6,,6.21,29.970472,,,,,,,,,,,SCT,1800,,,,,,,VFR,,,,,,,,,,,,METAR,12.0
WMKM 180300Z 04008G21KT 320V110 9999 FEW020 27/22 Q1013,WMKM,2021-01-18T03:00:00Z,2.27,102.25,27.0,22.0,40,8,21,6.21,29.911417,,,,,,,,,,,FEW,2000,,,,,,,VFR,,,,,,,,,,,,METAR,9.0
WMKL 180300Z 06010KT 350V110 9999 FEW022 30/21 Q1012,WMKL,2021-01-18T03:00:00Z,6.32,99.72,30.0,21.0,60,10,,6.21,29.88189,,,,,,,,,,,FEW,2200,,,,,,,VFR,,,,,,,,,,,,METAR,4.0
WMKK 180300Z 05012KT 330V110 9999 FEW018 28/19 Q1012 NOSIG,WMKK,2021-01-18T03:00:00Z,2.75,101.72,28.0,19.0,50,12,,6.21,29.88189,,,,,,TRUE,,,,,FEW,1800,,,,,,,VFR,,,,,,,,,,,,METAR,21.0
WMKJ 180300Z 04014KT 350V080 9999 FEW018 28/21 Q1012,WMKJ,2021-01-18T03:00:00Z,1.63,103.67,28.0,21.0,40,14,,6.21,29.88189,,,,,,,,,,,FEW,1800,,,,,,,VFR,,,,,,,,,,,,METAR,38.0
WMKI 180300Z 01010KT 350V050 9000 FEW018 SCT025 27/21 Q1012,WMKI,2021-01-18T03:00:00Z,4.57,101.08,27.0,21.0,10,10,,5.59,29.88189,,,,,,,,,,,FEW,1800,SCT,2500,,,,,VFR,,,,,,,,,,,,METAR,37.0
WMKE 180300Z 04008KT 340V100 7000 SCT014 27/22 Q1014,WMKE,2021-01-18T03:00:00Z,4.53,103.43,27.0,22.0,40,8,,4.35,29.940945,,,,,,,,,,,SCT,1400,,,,,,,MVFR,,,,,,,,,,,,METAR,5.0
WMKD 180300Z 35006KT 300V100 9999 FEW020 27/22 Q1014 NOSIG,WMKD,2021-01-18T03:00:00Z,3.77,103.22,27.0,22.0,350,6,,6.21,29.940945,,,,,,TRUE,,,,,FEW,2000,,,,,,,VFR,,,,,,,,,,,,METAR,18.0
WMKC 180300Z 09008KT 060V140 9999 SCT018 27/22 Q1015,WMKC,2021-01-18T03:00:00Z,6.17,102.28,27.0,22.0,90,8,,6.21,29.970472,,,,,,,,,,,SCT,1800,,,,,,,VFR,,,,,,,,,,,,METAR,7.0
WMKB 180300Z 05008KT 020V080 9000 FEW020 28/19 Q1012 NOSIG,WMKB,2021-01-18T03:00:00Z,5.47,100.38,28.0,19.0,50,8,,5.59,29.88189,,,,,,TRUE,,,,,FEW,2000,,,,,,,VFR,,,,,,,,,,,,METAR,4.0
WMKA 180300Z VRB07KT 9000 FEW020 28/21 Q1012,WMKA,2021-01-18T03:00:00Z,6.2,100.4,28.0,21.0,0,7,,5.59,29.88189,,,,,,,,,,,FEW,2000,,,,,,,VFR,,,,,,,,,,,,METAR,5.0
WMBA 180300Z VRB03KT 9999 FEW022 29/23 Q1012,WMBA,2021-01-18T03:00:00Z,4.22,100.7,29.0,23.0,0,3,,6.21,29.88189,,,,,,,,,,,FEW,2200,,,,,,,VFR,,,,,,,,,,,,METAR,9.0
WMAU 180300Z VRB13KT 9999 SCT020 28/22 Q1013,WMAU,2021-01-18T03:00:00Z,2.38,103.88,28.0,22.0,0,13,,6.21,29.911417,,,,,,,,,,,SCT,2000,,,,,,,VFR,,,,,,,,,,,,METAR,5.0
WIPP 180300Z 30008KT 9999 BKN010 26/23 Q1011 NOSIG,WIPP,2021-01-18T03:00:00Z,-2.88,104.7,26.0,23.0,300,8,,6.21,29.852362,,,,,,TRUE,,,,,BKN,1000,,,,,,,MVFR,,,,,,,,,,,,METAR,7.0
WIOO 180300Z 29006KT 9999 SCT012 27/23 Q1011 NOSIG,WIOO,2021-01-18T03:00:00Z,-0.15,109.4,27.0,23.0,290,6,,6.21,29.852362,,,,,,TRUE,,,,,SCT,1200,,,,,,,VFR,,,,,,,,,,,,METAR,4.0
WIMM 180300Z 21004KT 8000 BKN016 25/24 Q1012 RERA NOSIG,WIMM,2021-01-18T03:00:00Z,3.57,98.67,25.0,24.0,210,4,,4.97,29.88189,,,,,,TRUE,,,,,BKN,1600,,,,,,,MVFR,,,,,,,,,,,,METAR,27.0
WIII 180300Z 34015KT 6000 BKN018 28/24 Q1010 NOSIG,WIII,2021-01-18T03:00:00Z,-6.13,106.67,28.0,24.0,340,15,,3.73,29.822834,,,,,,TRUE,,,,,BKN,1800,,,,,,,MVFR,,,,,,,,,,,,METAR,9.0
WIHH 180300Z 36006KT 4000 -RA BKN017 28/24 Q1010 NOSIG,WIHH,2021-01-18T03:00:00Z,-6.27,106.88,28.0,24.0,360,6,,2.49,29.822834,,,,,,TRUE,,,,-RA,BKN,1700,,,,,,,IFR,,,,,,,,,,,,METAR,26.0
WIEE 180300Z VRB02KT 9999 FEW020 BKN095 30/22 Q1010 NOSIG,WIEE,2021-01-18T03:00:00Z,-0.78,100.28,30.0,22.0,0,2,,6.21,29.822834,,,,,,TRUE,,,,,FEW,2000,BKN,9500,,,,,VFR,,,,,,,,,,,,METAR,5.0
WIDN 180300Z 03018G27KT 9999 FEW015 27/20 Q1013 NOSIG,WIDN,2021-01-18T03:00:00Z,,,27.0,20.0,30,18,27,6.21,29.911417,,,,,,TRUE,,,,,FEW,1500,,,,,,,VFR,,,,,,,,,,,,METAR,
WIDD 180300Z 03015KT 9999 FEW014 27/20 Q1014 NOSIG,WIDD,2021-01-18T03:00:00Z,1.12,104.12,27.0,20.0,30,15,,6.21,29.940945,,,,,,TRUE,,,,,FEW,1400,,,,,,,VFR,,,,,,,,,,,,METAR,26.0
WIBB 180300Z 00000KT 8000 SCT010 25/22 Q1012,WIBB,2021-01-18T03:00:00Z,0.47,101.45,25.0,22.0,0,0,,4.97,29.88189,,,,,,,,,,,SCT,1000,,,,,,,MVFR,,,,,,,,,,,,METAR,41.0
WBSB 180300Z 19005KT 9999 -SHRA FEW005 SCT014 BKN140 26/23 Q1011 TEMPO 5000 SHRA,WBSB,2021-01-18T03:00:00Z,4.93,114.92,26.0,23.0,190,5,,6.21,29.852362,,,,,,,,,,-SHRA,FEW,500,SCT,1400,BKN,14000,,,VFR,,,,,,,,,,,,METAR,15.0
WBKW 180300Z 16005KT 100V240 9999 FEW017 29/24 Q1008,WBKW,2021-01-18T03:00:00Z,4.32,118.12,29.0,24.0,160,5,,6.21,29.763779,,,,,,,,,,,FEW,1700,,,,,,,VFR,,,,,,,,,,,,METAR,17.0
WBKT 180300Z VRB03KT 9999 FEW014 26/24 Q1008,WBKT,2021-01-18T03:00:00Z,6.92,116.83,26.0,24.0,0,3,,6.21,29.763779,,,,,,,,,,,FEW,1400,,,,,,,VFR,,,,,,,,,,,,METAR,11.0
WBKS 180300Z 27004KT 240V330 9999 SCT016 28/23 Q1008,WBKS,2021-01-18T03:00:00Z,5.9,118.07,28.0,23.0,270,4,,6.21,29.763779,,,,,,,,,,,SCT,1600,,,,,,,VFR,,,,,,,,,,,,METAR,13.0
WBKL 180300Z VRB03KT 5000 RA SCT012 SCT030 25/24 Q1010 RERA,WBKL,2021-01-18T03:00:00Z,5.3,115.25,25.0,24.0,0,3,,3.11,29.822834,,,,,,,,,,RA,SCT,1200,SCT,3000,,,,,MVFR,,,,,,,,,,,,METAR,29.0
WBKK 180300Z 16004KT 130V190 8000 -RA FEW013 SCT035 25/24 Q1009 TEMPO 5000 RA,WBKK,2021-01-18T03:00:00Z,5.93,116.05,25.0,24.0,160,4,,4.97,29.793306,,,,,,,,,,-RA,FEW,1300,SCT,3500,,,,,MVFR,,,,,,,,,,,,METAR,9.0
WBGY 180300Z 35007KT 290V050 9999 SCT018 28/24 Q1011,WBGY,2021-01-18T03:00:00Z,1.22,111.45,28.0,24.0,350,7,,6.21,29.852362,,,,,,,,,,,SCT,1800,,,,,,,VFR,,,,,,,,,,,,METAR,13.0
WBGS 180300Z 35006KT 330V040 9999 SCT018 27/23 Q1011,WBGS,2021-01-18T03:00:00Z,2.27,111.98,27.0,23.0,350,6,,6.21,29.852362,,,,,,,,,,,SCT,1800,,,,,,,VFR,,,,,,,,,,,,METAR,26.0
WBGR 180300Z VRB04KT 9999 SCT014 28/25 Q1010,WBGR,2021-01-18T03:00:00Z,4.32,113.98,28.0,25.0,0,4,,6.21,29.822834,,,,,,,,,,,SCT,1400,,,,,,,VFR,,,,,,,,,,,,METAR,18.0
WBGG 180300Z 34011KT 290V040 9999 SCT016 28/23 Q1012 NOSIG,WBGG,2021-01-18T03:00:00Z,1.48,110.35,28.0,23.0,340,11,,6.21,29.88189,,,,,,TRUE,,,,,SCT,1600,,,,,,,VFR,,,,,,,,,,,,METAR,26.0
WBGB 180300Z VRB03KT 9999 -RA FEW008 SCT016 26/25 Q1011,WBGB,2021-01-18T03:00:00Z,3.12,113.02,26.0,25.0,0,3,,6.21,29.852362,,,,,,,,,,-RA,FEW,800,SCT,1600,,,,,VFR,,,,,,,,,,,,METAR,34.0
WATT 180300Z 31005KT 9000 FEW014CB BKN015 28/26 Q1008 NOSIG RMK CB TO E,WATT,2021-01-18T03:00:00Z,-10.17,123.67,28.0,26.0,310,5,,5.59,29.763779,,,,,,TRUE,,,,,FEW,1400,BKN,1500,,,,,MVFR,,,,,,,,,,,,METAR,104.0
WARR 180300Z 26011KT 9999 FEW020 29/24 Q1008 NOSIG,WARR,2021-01-18T03:00:00Z,-7.37,112.78,29.0,24.0,260,11,,6.21,29.763779,,,,,,TRUE,,,,,FEW,2000,,,,,,,VFR,,,,,,,,,,,,METAR,2.0
WAQQ 180300Z 22003KT 9999 SCT015 29/24 Q1008,WAQQ,2021-01-18T03:00:00Z,3.33,117.57,29.0,24.0,220,3,,6.21,29.763779,,,,,,,,,,,SCT,1500,,,,,,,VFR,,,,,,,,,,,,METAR,0.0
WAPP 180300Z 20006KT 9000 FEW017CB SCT018 28/24 Q1007 NOSIG RMK CB TO S,WAPP,2021-01-18T03:00:00Z,-3.7,128.08,28.0,24.0,200,6,,5.59,29.734253,,,,,,TRUE,,,,,FEW,1700,SCT,1800,,,,,VFR,,,,,,,,,,,,METAR,20.0
WAOO 180300Z 30004KT 9999 BKN014 28/25 Q1009,WAOO,2021-01-18T03:00:00Z,-3.45,114.77,28.0,25.0,300,4,,6.21,29.793306,,,,,,,,,,,BKN,1400,,,,,,,MVFR,,,,,,,,,,,,METAR,23.0
WAMM 180300Z 27009KT 9000 -RA BKN018 28/25 Q1008 NOSIG,WAMM,2021-01-18T03:00:00Z,1.55,124.92,28.0,25.0,270,9,,5.59,29.763779,,,,,,TRUE,,,,-RA,BKN,1800,,,,,,,MVFR,,,,,,,,,,,,METAR,86.0
WALL 180300Z 23002KT 9999 FEW020 29/23 Q1009,WALL,2021-01-18T03:00:00Z,-1.27,116.9,29.0,23.0,230,2,,6.21,29.793306,,,,,,,,,,,FEW,2000,,,,,,,VFR,,,,,,,,,,,,METAR,3.0
WAKK 180300Z 07004KT 2000 TSRA FEW012CB OVC014 25/25 Q1008,WAKK,2021-01-18T03:00:00Z,-8.47,140.37,25.0,25.0,70,4,,1.24,29.763779,,,,,,,,,,TSRA,FEW,1200,OVC,1400,,,,,IFR,,,,,,,,,,,,METAR,3.0
WAJJ 180300Z 13005KT 9999 FEW011CB SCT012 33/23 Q1007 NOSIG,WAJJ,2021-01-18T03:00:00Z,-2.58,140.52,33.0,23.0,130,5,,6.21,29.734253,,,,,,TRUE,,,,,FEW,1100,SCT,1200,,,,,VFR,,,,,,,,,,,,METAR,93.0
WAHS 180300Z 29009KT 6000 SCT014 28/24 Q1009 NOSIG,WAHS,2021-01-18T03:00:00Z,-6.98,110.38,28.0,24.0,290,9,,3.73,29.793306,,,,,,TRUE,,,,,SCT,1400,,,,,,,MVFR,,,,,,,,,,,,METAR,3.0
WADL 180300Z 28006KT 240V310 7000 -RA BKN016 28/25 Q1008 NOSIG,WADL,2021-01-18T03:00:00Z,-8.75,116.28,28.0,25.0,280,6,,4.35,29.763779,,,,,,TRUE,,,,-RA,BKN,1600,,,,,,,MVFR,,,,,,,,,,,,METAR,97.0
WADD 180300Z VRB02KT 9999 SCT015 27/25 Q1008 NOSIG,WADD,2021-01-18T03:00:00Z,-8.73,115.17,27.0,25.0,0,2,,6.21,29.763779,,,,,,TRUE,,,,,SCT,1500,,,,,,,VFR,,,,,,,,,,,,METAR,3.0
WAAA 180300Z 06007KT 020V090 9999 SCT018 25/23 Q1009 TEMPO TL0400 2000 RA,WAAA,2021-01-18T03:00:00Z,-5.07,119.55,25.0,23.0,60,7,,6.21,29.793306,,,,,,,,,,,SCT,1800,,,,,,,VFR,,,,,,,,,,,,METAR,13.0
VYYY 180300Z 04004KT 7000 NSC 25/22 Q1015 NOSIG,VYYY,2021-01-18T03:00:00Z,16.9,96.13,25.0,22.0,40,4,,4.35,29.970472,,,,,,TRUE,,,,,CLR,,,,,,,,MVFR,,,,,,,,,,,,METAR,31.0
VYNT 180300Z 31008KT 6000 HZ FEW020 22/16 Q1016,VYNT,2021-01-18T03:00:00Z,19.62,96.2,22.0,16.0,310,8,,3.73,30.0,,,,,,,,,,HZ,FEW,2000,,,,,,,MVFR,,,,,,,,,,,,METAR,610.0
VVTS 180300Z 04009KT 360V070 9999 FEW020 27/15 Q1014 NOSIG,VVTS,2021-01-18T03:00:00Z,10.82,106.67,27.0,15.0,40,9,,6.21,29.940945,,,,,,TRUE,,,,,FEW,2000,,,,,,,VFR,,,,,,,,,,,,METAR,10.0
VVPQ 180300Z 04016G30KT CAVOK 27/15 Q1014 NOSIG,VVPQ,2021-01-18T03:00:00Z,10.23,103.97,27.0,15.0,40,16,30,6.21,29.940945,,,,,,TRUE,,,,,CAVOK,,,,,,,,VFR,,,,,,,,,,,,METAR,8.0
VVPB 180300Z 35010KT 5000 BR SCT015 BKN040 18/15 Q1025 NOSIG,VVPB,2021-01-18T03:00:00Z,16.38,107.7,18.0,15.0,350,10,,3.11,30.265747,,,,,,TRUE,,,,BR,SCT,1500,BKN,4000,,,,,MVFR,,,,,,,,,,,,METAR,15.0
VVNB 180300Z 01008KT 340V040 CAVOK 16/M00 Q1028 NOSIG,VVNB,2021-01-18T03:00:00Z,21.22,105.8,16.0,0.0,10,8,,6.21,30.35433,,,,,,TRUE,,,,,CAVOK,,,,,,,,VFR,,,,,,,,,,,,METAR,6.0
VVDN 180300Z 02011KT 6000 SCT015 BKN060 21/14 Q1023 NOSIG,VVDN,2021-01-18T03:00:00Z,16.03,108.2,21.0,14.0,20,11,,3.73,30.206694,,,,,,TRUE,,,,,SCT,1500,BKN,6000,,,,,MVFR,,,,,,,,,,,,METAR,7.0
VVCT 180300Z 01006KT 9999 FEW015 24/19 Q1015 NOSIG,VVCT,2021-01-18T03:00:00Z,10.08,105.72,24.0,19.0,10,6,,6.21,29.970472,,,,,,TRUE,,,,,FEW,1500,,,,,,,VFR,,,,,,,,,,,,METAR,6.0
VVCR 180300Z 03020KT 9999 FEW015 26/15 Q1018 NOSIG,VVCR,2021-01-18T03:00:00Z,12.0,109.22,26.0,15.0,30,20,,6.21,30.059055,,,,,,TRUE,,,,,FEW,1500,,,,,,,VFR,,,,,,,,,,,,METAR,12.0
VVCI 180300Z VRB01KT CAVOK 16/02 Q1027 NOSIG,VVCI,2021-01-18T03:00:00Z,20.82,106.73,16.0,2.0,0,1,,6.21,30.324802,,,,,,TRUE,,,,,CAVOK,,,,,,,,VFR,,,,,,,,,,,,METAR,6.0
VTUW 180300Z VRB04KT 9000 NSC 18/09 Q1023 NOSIG,VTUW,2021-01-18T03:00:00Z,17.38,104.63,18.0,9.0,0,4,,5.59,30.206694,,,,,,TRUE,,,,,CLR,,,,,,,,VFR,,,,,,,,,,,,METAR,167.0
VTUV 180300Z 05010KT 010V080 7000 NSC 19/09 Q1021 NOSIG,VTUV,2021-01-18T03:00:00Z,16.12,103.78,19.0,9.0,50,10,,4.35,30.147638,,,,,,TRUE,,,,,CLR,,,,,,,,MVFR,,,,,,,,,,,,METAR,136.0
VTUU 180300Z 04015KT CAVOK 22/12 Q1020 NOSIG,VTUU,2021-01-18T03:00:00Z,15.25,104.87,22.0,12.0,40,15,,6.21,30.11811,,,,,,TRUE,,,,,CAVOK,,,,,,,,VFR,,,,,,,,,,,,METAR,123.0
VTUQ 180300Z 04014KT 360V080 9000 FEW030 20/15 Q1022 NOSIG,VTUQ,2021-01-18T03:00:00Z,14.95,102.32,20.0,15.0,40,14,,5.59,30.177166,,,,,,TRUE,,,,,FEW,3000,,,,,,,VFR,,,,,,,,,,,,METAR,225.0
VTUO 180300Z 06014KT 030V090 9000 NSC 19/10 Q1021 NOSIG,VTUO,2021-01-18T03:00:00Z,15.23,103.25,19.0,10.0,60,14,,5.59,30.147638,,,,,,TRUE,,,,,CLR,,,,,,,,VFR,,,,,,,,,,,,METAR,182.0
VTUL 180300Z 12004KT 050V200 CAVOK 19/10 Q1023 NOSIG,VTUL,2021-01-18T03:00:00Z,17.43,101.72,19.0,10.0,120,4,,6.21,30.206694,,,,,,TRUE,,,,,CAVOK,,,,,,,,VFR,,,,,,,,,,,,METAR,257.0
VTUK 180300Z 06007KT 020V130 8000 NSC 19/10 Q1022 NOSIG,VTUK,2021-01-18T03:00:00Z,16.47,102.78,19.0,10.0,60,7,,4.97,30.177166,,,,,,TRUE,,,,,CLR,,,,,,,,MVFR,,,,,,,,,,,,METAR,190.0
VTUI 180300Z 13007KT 7000 NSC 17/09 Q1022 NOSIG,VTUI,2021-01-18T03:00:00Z,17.2,104.12,17.0,9.0,130,7,,4.35,30.177166,,,,,,TRUE,,,,,CLR,,,,,,,,MVFR,,,,,,,,,,,,METAR,162.0
VTUD 180300Z 07007KT 010V110 CAVOK 19/09 Q1023 NOSIG,VTUD,2021-01-18T03:00:00Z,17.37,102.78,19.0,9.0,70,7,,6.21,30.206694,,,,,,TRUE,,,,,CAVOK,,,,,,,,VFR,,,,,,,,,,,,METAR,177.0
VTST 180300Z 06014G24KT 020V090 CAVOK 29/21 Q1012 NOSIG,VTST,2021-01-18T03:00:00Z,7.52,99.62,29.0,21.0,60,14,24,6.21,29.88189,,,,,,TRUE,,,,,CAVOK,,,,,,,,VFR,,,,,,,,,,,,METAR,17.0
VTSS 180300Z 08012KT 050V120 9999 SCT020 SCT100 28/22 Q1014 NOSIG,VTSS,2021-01-18T03:00:00Z,6.92,100.38,28.0,22.0,80,12,,6.21,29.940945,,,,,,TRUE,,,,,SCT,2000,SCT,10000,,,,,VFR,,,,,,,,,,,,METAR,28.0
VTSR 180300Z 10020G36KT 060V140 9999 FEW025 28/21 Q1011 NOSIG,VTSR,2021-01-18T03:00:00Z,9.78,98.58,28.0,21.0,100,20,36,6.21,29.852362,,,,,,TRUE,,,,,FEW,2500,,,,,,,VFR,,,,,,,,,,,,METAR,23.0
VTSP 180300Z 08014KT 9999 FEW020 28/21 Q1012 NOSIG,VTSP,2021-01-18T03:00:00Z,8.12,98.32,28.0,21.0,80,14,,6.21,29.88189,,,,,,TRUE,,,,,FEW,2000,,,,,,,VFR,,,,,,,,,,,,METAR,12.0
VTSM 180300Z 09011KT 9000 FEW020 29/22 Q1015 NOSIG,VTSM,2021-01-18T03:00:00Z,9.55,100.07,29.0,22.0,90,11,,5.59,29.970472,,,,,,TRUE,,,,,FEW,2000,,,,,,,VFR,,,,,,,,,,,,METAR,12.0
VTSG 180300Z 06006KT 360V120 9999 FEW020 29/22 Q1013 NOSIG,VTSG,2021-01-18T03:00:00Z,8.1,98.98,29.0,22.0,60,6,,6.21,29.911417,,,,,,TRUE,,,,,FEW,2000,,,,,,,VFR,,,,,,,,,,,,METAR,32.0
VTSF 180300Z 09009KT 040V140 9999 SCT018 31/23 Q1014 NOSIG,VTSF,2021-01-18T03:00:00Z,8.53,99.95,31.0,23.0,90,9,,6.21,29.940945,,,,,,TRUE,,,,,SCT,1800,,,,,,,VFR,,,,,,,,,,,,METAR,6.0
VTSE 180300Z 05010G21KT 330V090 9000 BKN020 28/22 Q1015 NOSIG,VTSE,2021-01-18T03:00:00Z,10.72,99.37,28.0,22.0,50,10,21,5.59,29.970472,,,,,,TRUE,,,,,BKN,2000,,,,,,,MVFR,,,,,,,,,,,,METAR,8.0
VTSC 180300Z 11011KT 9999 SCT020 29/22 Q1014 NOSIG,VTSC,2021-01-18T03:00:00Z,6.52,101.75,29.0,22.0,110,11,,6.21,29.940945,,,,,,TRUE,,,,,SCT,2000,,,,,,,VFR,,,,,,,,,,,,METAR,5.0
VTSB 180300Z 05009KT 9999 FEW020 29/23 Q1014,VTSB,2021-01-18T03:00:00Z,9.12,99.15,29.0,23.0,50,9,,6.21,29.940945,,,,,,,,,,,FEW,2000,,,,,,,VFR,,,,,,,,,,,,METAR,10.0
VTPT 180300Z /////KT 5000 HZ FEW026 24/16 Q//// NOSIG,VTPT,2021-01-18T03:00:00Z,16.87,99.15,24.0,16.0,,,,3.11,,,,,,,TRUE,,,,HZ,FEW,2600,,,,,,,MVFR,,,,,,,,,,,,METAR,124.0
VTPP 180300Z 07005KT 010V130 CAVOK 24/11 Q1019 NOSIG,VTPP,2021-01-18T03:00:00Z,16.78,100.28,24.0,11.0,70,5,,6.21,30.088583,,,,,,TRUE,,,,,CAVOK,,,,,,,,VFR,,,,,,,,,,,,METAR,45.0
VTPO 180300Z 07007KT 9000 NSC 23/14 Q1019 NOSIG,VTPO,2021-01-18T03:00:00Z,17.23,99.82,23.0,14.0,70,7,,5.59,30.088583,,,,,,TRUE,,,,,CLR,,,,,,,,VFR,,,,,,,,,,,,METAR,58.0
VTPM 180300Z 08010KT CAVOK 26/12 Q1018 NOSIG,VTPM,2021-01-18T03:00:00Z,16.7,98.53,26.0,12.0,80,10,,6.21,30.059055,,,,,,TRUE,,,,,CAVOK,,,,,,,,VFR,,,,,,,,,,,,METAR,211.0
VTPH 180300Z 01013KT 340V040 8000 FEW030 25/17 Q1018 NOSIG,VTPH,2021-01-18T03:00:00Z,12.63,99.95,25.0,17.0,10,13,,4.97,30.059055,,,,,,TRUE,,,,,FEW,3000,,,,,,,MVFR,,,,,,,,,,,,METAR,12.0
VTPB 180300Z 01008KT 320V070 CAVOK 22/10 Q1021 NOSIG,VTPB,2021-01-18T03:00:00Z,16.67,101.2,22.0,10.0,10,8,,6.21,30.147638,,,,,,TRUE,,,,,CAVOK,,,,,,,,VFR,,,,,,,,,,,,METAR,134.0
VTCT 180300Z 36008KT 9999 FEW035 BKN046 18/15 Q1022 NOSIG,VTCT,2021-01-18T03:00:00Z,19.95,99.88,18.0,15.0,360,8,,6.21,30.177166,,,,,,TRUE,,,,,FEW,3500,BKN,4600,,,,,VFR,,,,,,,,,,,,METAR,389.0
VTCP 180300Z 34003KT 260V050 6000 NSC 24/13 Q1020 NOSIG,VTCP,2021-01-18T03:00:00Z,18.13,100.17,24.0,13.0,340,3,,3.73,30.11811,,,,,,TRUE,,,,,CLR,,,,,,,,MVFR,,,,,,,,,,,,METAR,166.0
VTCN 180300Z 19004KT 130V260 CAVOK 21/13 Q1021 NOSIG,VTCN,2021-01-18T03:00:00Z,18.82,100.78,21.0,13.0,190,4,,6.21,30.147638,,,,,,TRUE,,,,,CAVOK,,,,,,,,VFR,,,,,,,,,,,,METAR,211.0
VTCL 180300Z VRB03KT 8000 NSC 25/14 Q1020 NOSIG,VTCL,2021-01-18T03:00:00Z,18.27,99.52,25.0,14.0,0,3,,4.97,30.11811,,,,,,TRUE,,,,,CLR,,,,,,,,MVFR,,,,,,,,,,,,METAR,240.0
VTCH 180300Z 00000KT 9000 SCT025 20/16 Q1018 NOSIG,VTCH,2021-01-18T03:00:00Z,19.3,97.98,20.0,16.0,0,0,,5.59,30.059055,,,,,,TRUE,,,,,SCT,2500,,,,,,,VFR,,,,,,,,,,,,METAR,266.0
VTCC 180300Z 22007KT 8000 BKN035 23/14 Q1020 NOSIG,VTCC,2021-01-18T03:00:00Z,18.77,98.97,23.0,14.0,220,7,,4.97,30.11811,,,,,,TRUE,,,,,BKN,3500,,,,,,,MVFR,,,,,,,,,,,,METAR,308.0
VTBU 180300Z 08010KT 7000 NSC 25/14 Q1017 NOSIG,VTBU,2021-01-18T03:00:00Z,12.68,101.0,25.0,14.0,80,10,,4.35,30.029528,,,,,,TRUE,,,,,CLR,,,,,,,,MVFR,,,,,,,,,,,,METAR,12.0
VTBS 180300Z 06013KT CAVOK 23/14 Q1018 NOSIG,VTBS,2021-01-18T03:00:00Z,13.68,100.75,23.0,14.0,60,13,,6.21,30.059055,,,,,,TRUE,,,,,CAVOK,,,,,,,,VFR,,,,,,,,,,,,METAR,1.0
VTBO 180300Z 04018KT 7000 NSC 24/15 Q1017,VTBO,2021-01-18T03:00:00Z,12.28,102.32,24.0,15.0,40,18,,4.35,30.029528,,,,,,,,,,,CLR,,,,,,,,MVFR,,,,,,,,,,,,METAR,25.0
VTBD 180300Z 10007KT 070V130 CAVOK 24/14 Q1019 NOSIG,VTBD,2021-01-18T03:00:00Z,13.92,100.6,24.0,14.0,100,7,,6.21,30.088583,,,,,,TRUE,,,,,CAVOK,,,,,,,,VFR,,,,,,,,,,,,METAR,6.0
VRMM 180300Z 13006KT 9999 SCT018TCU 29/25 Q1009 NOSIG,VRMM,2021-01-18T03:00:00Z,4.2,73.52,29.0,25.0,130,6,,6.21,29.793306,,,,,,TRUE,,,,,SCT,1800,,,,,,,VFR,,,,,,,,,,,,METAR,2.0
VOVZ 180300Z 06003KT 1900 BR FEW018 24/20 Q1016 BECMG 2500 HZ,VOVZ,2021-01-18T03:00:00Z,17.72,83.22,24.0,20.0,60,3,,1.18,30.0,,,,,,,,,,BR,FEW,1800,,,,,,,IFR,,,,,,,,,,,,METAR,4.0
VOTV 180300Z 00000KT 5000 HZ FEW015 27/25 Q1011 NOSIG,VOTV,2021-01-18T03:00:00Z,8.48,76.92,27.0,25.0,0,0,,3.11,29.852362,,,,,,TRUE,,,,HZ,FEW,1500,,,,,,,MVFR,,,,,,,,,,,,METAR,9.0
VOTR 180300Z 34006KT 3000 BR SCT016 23/19 Q1014 NOSIG,VOTR,2021-01-18T03:00:00Z,10.77,78.72,23.0,19.0,340,6,,1.86,29.940945,,,,,,TRUE,,,,BR,SCT,1600,,,,,,,IFR,,,,,,,,,,,,METAR,90.0
VOTP 180300Z 00000KT 2000 BR SCT020 21/19 Q1015 BECMG 3000 BR,VOTP,2021-01-18T03:00:00Z,13.63,79.55,21.0,19.0,0,0,,1.24,29.970472,,,,,,,,,,BR,SCT,2000,,,,,,,IFR,,,,,,,,,,,,METAR,103.0
VOTK 180300Z 32006KT 5000 HZ FEW020 27/23 Q1014 NOSIG,VOTK,2021-01-18T03:00:00Z,8.72,78.02,27.0,23.0,320,6,,3.11,29.940945,,,,,,TRUE,,,,HZ,FEW,2000,,,,,,,MVFR,,,,,,,,,,,,METAR,25.0
VOSM 180300Z 00000KT 3000 BR FEW020 22/18 Q1015 BECMG 3500 BR,VOSM,2021-01-18T03:00:00Z,11.78,78.07,22.0,18.0,0,0,,1.86,29.970472,,,,,,,,,,BR,FEW,2000,,,,,,,IFR,,,,,,,,,,,,METAR,301.0
VORY 180300Z 03003KT 2000 BR NSC 24/21 Q1015 BECMG 2500 BR,VORY,2021-01-18T03:00:00Z,17.1,81.82,24.0,21.0,30,3,,1.24,29.970472,,,,,,,,,,BR,CLR,,,,,,,,IFR,,,,,,,,,,,,METAR,47.0
VOND 180300Z 07001KT 2500 HZ NSC 21/17 Q1016 NOSIG,VOND,2021-01-18T03:00:00Z,19.18,77.32,21.0,17.0,70,1,,1.55,30.0,,,,,,TRUE,,,,HZ,CLR,,,,,,,,IFR,,,,,,,,,,,,METAR,86.0
VOMY 180300Z 06009KT 5000 BR NSC 21/17 Q1017,VOMY,2021-01-18T03:00:00Z,12.23,76.65,21.0,17.0,60,9,,3.11,30.029528,,,,,,,,,,BR,CLR,,,,,,,,MVFR,,,,,,,,,,,,METAR,727.0
VOMM 180300Z VRB02KT 3000 BR SCT020 SCT100 24/21 Q1015 NOSIG,VOMM,2021-01-18T03:00:00Z,13.0,80.17,24.0,21.0,0,2,,1.86,29.970472,,,,,,TRUE,,,,BR,SCT,2000,SCT,10000,,,,,IFR,,,,,,,,,,,,METAR,7.0
VOML 180300Z 11004KT 4000 BR FEW003 25/23 Q1011 BECMG 5000 BR,VOML,2021-01-18T03:00:00Z,12.97,74.88,25.0,23.0,110,4,,2.49,29.852362,,,,,,,,,,BR,FEW,300,,,,,,,IFR,,,,,,,,,,,,METAR,100.0
VOMD 180300Z 02002KT 4500 BR FEW020 24/21 Q1014 NOSIG,VOMD,2021-01-18T03:00:00Z,9.83,78.08,24.0,21.0,20,2,,2.8,29.940945,,,,,,TRUE,,,,BR,FEW,2000,,,,,,,IFR,,,,,,,,,,,,METAR,135.0
VOKN 180300Z 06006KT 5000 BR FEW015 25/20 Q1012 NOSIG,VOKN,2021-01-18T03:00:00Z,11.92,75.55,25.0,20.0,60,6,,3.11,29.88189,,,,,,TRUE,,,,BR,FEW,1500,,,,,,,MVFR,,,,,,,,,,,,METAR,105.0
VOJV 180300Z 12006KT 4000 BR NSC 21/18 Q1016,VOJV,2021-01-18T03:00:00Z,15.17,76.63,21.0,18.0,120,6,,2.49,30.0,,,,,,,,,,BR,CLR,,,,,,,,IFR,,,,,,,,,,,,METAR,508.0
VOHY 180300Z VRB02KT 4000 HZ NSC 22/15 Q1018 BECMG 5000 HZ,VOHY,2021-01-18T03:00:00Z,17.45,78.47,22.0,15.0,0,2,,2.49,30.059055,,,,,,,,,,HZ,CLR,,,,,,,,IFR,,,,,,,,,,,,METAR,540.0
VOHS 180300Z 14004KT 3500 HZ NSC 21/16 Q1018 BECMG 5000,VOHS,2021-01-18T03:00:00Z,17.23,78.43,21.0,16.0,140,4,,2.17,30.059055,,,,,,,,,,HZ,CLR,,,,,,,,IFR,,,,,,,,,,,,METAR,607.0
VOHB 180300Z 09004KT 5000 HZ NSC 19/14 Q1018,VOHB,2021-01-18T03:00:00Z,15.37,75.08,19.0,14.0,90,4,,3.11,30.059055,,,,,,,,,,HZ,CLR,,,,,,,,MVFR,,,,,,,,,,,,METAR,661.0
VOGO 180300Z 08009KT 5000 HZ NSC 26/18 Q1012 NOSIG,VOGO,2021-01-18T03:00:00Z,15.38,73.83,26.0,18.0,80,9,,3.11,29.88189,,,,,,TRUE,,,,HZ,CLR,,,,,,,,MVFR,,,,,,,,,,,,METAR,56.0
VOGB 180300Z 00000KT 6000 NSC 20/16 Q1017,VOGB,2021-01-18T03:00:00Z,,,20.0,16.0,0,0,,3.73,30.029528,,,,,,,,,,,CLR,,,,,,,,MVFR,,,,,,,,,,,,METAR,
VOCL 180300Z 09003KT 4000 BR FEW015 25/22 Q1012 NOSIG,VOCL,2021-01-18T03:00:00Z,11.13,75.95,25.0,22.0,90,3,,2.49,29.88189,,,,,,TRUE,,,,BR,FEW,1500,,,,,,,IFR,,,,,,,,,,,,METAR,104.0
VOCI 180300Z 12006KT 4000 HZ NSC 25/20 Q1012 NOSIG,VOCI,2021-01-18T03:00:00Z,10.15,76.4,25.0,20.0,120,6,,2.49,29.88189,,,,,,TRUE,,,,HZ,CLR,,,,,,,,IFR,,,,,,,,,,,,METAR,8.0
VOCB 180300Z 05005KT 3000 BR FEW012 21/18 Q1016 NOSIG,VOCB,2021-01-18T03:00:00Z,11.02,77.03,21.0,18.0,50,5,,1.86,30.0,,,,,,TRUE,,,,BR,FEW,1200,,,,,,,IFR,,,,,,,,,,,,METAR,394.0
VOBZ 180300Z 06005KT 3000 BR FEW020 SCT100 23/21 Q1015 NOSIG,VOBZ,2021-01-18T03:00:00Z,16.52,80.78,23.0,21.0,60,5,,1.86,29.970472,,,,,,TRUE,,,,BR,FEW,2000,SCT,10000,,,,,IFR,,,,,,,,,,,,METAR,26.0
VOBM 180300Z 09002KT 6000 NSC 19/12 Q1017,VOBM,2021-01-18T03:00:00Z,15.85,74.62,19.0,12.0,90,2,,3.73,30.029528,,,,,,,,,,,CLR,,,,,,,,MVFR,,,,,,,,,,,,METAR,758.0
VOBL 180300Z VRB01KT 1000 R09R/2000 R27L/1200 BR FEW006 15/15 Q1019 BECMG 3000 BR,VOBL,2021-01-18T03:00:00Z,13.2,77.7,15.0,15.0,0,1,,0.62,30.088583,,,,,,,,,,BR,FEW,600,,,,,,,LIFR,,,,,,,,,,,,METAR,908.0
VOBG 180300Z 09004KT 1200 BR FEW008 18/16 Q1018 NOSIG,VOBG,2021-01-18T03:00:00Z,12.95,77.65,18.0,16.0,90,4,,0.75,30.059055,,,,,,TRUE,,,,BR,FEW,800,,,,,,,LIFR,,,,,,,,,,,,METAR,884.0
VMMC 180300Z 36013KT CAVOK 14/03 Q1025 NOSIG,VMMC,2021-01-18T03:00:00Z,22.15,113.58,14.0,3.0,360,13,,6.21,30.265747,,,,,,TRUE,,,,,CAVOK,,,,,,,,VFR,,,,,,,,,,,,METAR,1.0
VLVT 180300Z 18004KT 7000 NSC 20/10 Q1022 NOSIG,VLVT,2021-01-18T03:00:00Z,17.98,102.57,20.0,10.0,180,4,,4.35,30.177166,,,,,,TRUE,,,,,CLR,,,,,,,,MVFR,,,,,,,,,,,,METAR,171.0
VLSK 180300Z 04006KT 7000 NSC 19/10 Q1025 NOSIG,VLSK,2021-01-18T03:00:00Z,16.55,104.75,19.0,10.0,40,6,,4.35,30.265747,,,,,,TRUE,,,,,CLR,,,,,,,,MVFR,,,,,,,,,,,,METAR,148.0
VLPS 180300Z 36012KT CAVOK 23/11 Q1020 NOSIG,VLPS,2021-01-18T03:00:00Z,15.13,105.78,23.0,11.0,360,12,,6.21,30.11811,,,,,,TRUE,,,,,CAVOK,,,,,,,,VFR,,,,,,,,,,,,METAR,102.0
VLLN 180300Z 09002KT 6000 SCT017 OVC090 17/11 Q1024 NOSIG,VLLN,2021-01-18T03:00:00Z,20.97,101.4,17.0,11.0,90,2,,3.73,30.236221,,,,,,TRUE,,,,,SCT,1700,OVC,9000,,,,,MVFR,,,,,,,,,,,,METAR,548.0
VLLB 180300Z 36006KT 9999 FEW020 21/07 Q1023 NOSIG,VLLB,2021-01-18T03:00:00Z,19.9,102.17,21.0,7.0,360,6,,6.21,30.206694,,,,,,TRUE,,,,,FEW,2000,,,,,,,VFR,,,,,,,,,,,,METAR,297.0
VIJP 180300Z 09013KT 1000 R27/2000 RMID/1400 R09/1500 BR FEW030 SCT100 12/11 Q1015 NOSIG,VIJP,2021-01-18T03:00:00Z,26.82,75.8,12.0,11.0,90,13,,0.62,29.970472,,,,,,TRUE,,,,BR,FEW,3000,SCT,10000,,,,,LIFR,,,,,,,,,,,,METAR,383.0
VIAR 180300Z 00000KT 0050 R34/0150 FG VV/// 09/09 Q1019 NOSIG,VIAR,2021-01-18T03:00:00Z,31.7,74.8,9.0,9.0,0,0,,0.03,30.088583,,,,,,TRUE,,,,FG,OVX,0,,,,,,,LIFR,,,,,,,,,,,,METAR,226.0
VHHH 180300Z 33007KT 300V360 CAVOK 14/M02 Q1026 NOSIG,VHHH,2021-01-18T03:00:00Z,22.32,113.92,14.0,-2.0,330,7,,6.21,30.295275,,,,,,TRUE,,,,,CAVOK,,,,,,,,VFR,,,,,,,,,,,,METAR,9.0
VGHS 180300Z 00000KT 0200 FG NSC 14/14 Q1017 NOSIG,VGHS,2021-01-18T03:00:00Z,23.85,90.4,14.0,14.0,0,0,,0.12,30.029528,,,,,,TRUE,,,,FG,CLR,,,,,,,,LIFR,,,,,,,,,,,,METAR,11.0
VERC 180300Z 00000KT 1300 MIFG NSC 11/10 Q1019 NOSIG,VERC,2021-01-18T03:00:00Z,23.32,85.32,11.0,10.0,0,0,,0.81,30.088583,,,,,,TRUE,,,,MIFG,CLR,,,,,,,,LIFR,,,,,,,,,,,,METAR,646.0
VEPT 180300Z 00000KT 0100 R25/0170 FG VV/// 08/07 Q1018 NOSIG,VEPT,2021-01-18T03:00:00Z,25.6,85.08,8.0,7.0,0,0,,0.06,30.059055,,,,,,TRUE,,,,FG,OVX,0,,,,,,,LIFR,,,,,,,,,,,,METAR,53.0
VEMR 180300Z 24002KT 1500 BR FEW010 FEW020 SCT100 17/14 Q1019,VEMR,2021-01-18T03:00:00Z,25.88,93.77,17.0,14.0,240,2,,0.93,30.088583,,,,,,,,,,BR,FEW,1000,FEW,2000,SCT,10000,,,LIFR,,,,,,,,,,,,METAR,147.0
VEMN 180300Z 00000KT 1300 BR FEW008 14/13 Q1018 BECMG 1500 BR,VEMN,2021-01-18T03:00:00Z,27.47,95.02,14.0,13.0,0,0,,0.81,30.059055,,,,,,,,,,BR,FEW,800,,,,,,,LIFR,,,,,,,,,,,,METAR,111.0
VELR 180300Z 07001KT 4000 BR FEW025 17/15 Q1018,VELR,2021-01-18T03:00:00Z,27.3,94.1,17.0,15.0,70,1,,2.49,30.059055,,,,,,,,,,BR,FEW,2500,,,,,,,IFR,,,,,,,,,,,,METAR,101.0
VELP 180300Z 11003KT 3000 BR NSC 16/13 Q1017 NOSIG,VELP,2021-01-18T03:00:00Z,23.83,92.62,16.0,13.0,110,3,,1.86,30.029528,,,,,,TRUE,,,,BR,CLR,,,,,,,,IFR,,,,,,,,,,,,METAR,429.0
VEKO 180300Z 00000KT 1000 FG BKN100 12/11 Q1017,VEKO,2021-01-18T03:00:00Z,24.82,79.92,12.0,11.0,0,0,,0.62,30.029528,,,,,,,,,,FG,BKN,10000,,,,,,,LIFR,,,,,,,,,,,,METAR,222.0
VEJS 180300Z 27002KT 0500 FG NSC 13/11 Q1017,VEJS,2021-01-18T03:00:00Z,22.82,86.17,13.0,11.0,270,2,,0.31,30.029528,,,,,,,,,,FG,CLR,,,,,,,,LIFR,,,,,,,,,,,,METAR,151.0
VEJH 180300Z 00000KT 1500 BR NSC 15/10 Q1017,VEJH,2021-01-18T03:00:00Z,21.92,84.03,15.0,10.0,0,0,,0.93,30.029528,,,,,,,,,,BR,CLR,,,,,,,,LIFR,,,,,,,,,,,,METAR,231.0
VEIM 180300Z 09001KT 2000 BR FEW008 SCT018 BKN100 11/07 Q1020 NOSIG,VEIM,2021-01-18T03:00:00Z,24.77,93.9,11.0,7.0,90,1,,1.24,30.11811,,,,,,TRUE,,,,BR,FEW,800,SCT,1800,BKN,10000,,,IFR,,,,,,,,,,,,METAR,777.0
VEGY 180300Z 00000KT 0020 FG VV/// 10/10 Q1018,VEGY,2021-01-18T03:00:00Z,24.75,84.95,10.0,10.0,0,0,,0.01,30.059055,,,,,,,,,,FG,OVX,0,,,,,,,LIFR,,,,,,,,,,,,METAR,115.0
VEGT 180300Z 00000KT 0100 R02/0200 FG VV/// 13/13 Q1017 NOSIG,VEGT,2021-01-18T03:00:00Z,26.1,91.58,13.0,13.0,0,0,,0.06,30.029528,,,,,,TRUE,,,,FG,OVX,0,,,,,,,LIFR,,,,,,,,,,,,METAR,50.0
VEDG 180300Z 31002KT 0550 R16/0600 FG VV/// 15/13 Q1018 BECMG 0800 MIFG,VEDG,2021-01-18T03:00:00Z,23.62,87.25,15.0,13.0,310,2,,0.34,30.059055,,,,,,,,,,FG,OVX,0,,,,,,,LIFR,,,,,,,,,,,,METAR,88.0
VECC 180300Z 00000KT 0900 R01R/1000 MIFG NSC 16/13 Q1017 NOSIG,VECC,2021-01-18T03:00:00Z,22.65,88.43,16.0,13.0,0,0,,0.56,30.029528,,,,,,TRUE,,,,MIFG,CLR,,,,,,,,LIFR,,,,,,,,,,,,METAR,11.0
VEBS 180300Z 36003KT 1500 BR FEW020 18/15 Q1017 NOSIG,VEBS,2021-01-18T03:00:00Z,20.25,85.82,18.0,15.0,360,3,,0.93,30.029528,,,,,,TRUE,,,,BR,FEW,2000,,,,,,,LIFR,,,,,,,,,,,,METAR,42.0
VEBN 180300Z VRB02KT 1000 BR SCT025 OVC080 13/11 Q1018 NOSIG,VEBN,2021-01-18T03:00:00Z,25.45,82.85,13.0,11.0,0,2,,0.62,30.059055,,,,,,TRUE,,,,BR,SCT,2500,OVC,8000,,,,,LIFR,,,,,,,,,,,,METAR,81.0
VEBI 180300Z 00000KT 0300 FG VV 09/06 Q1019,VEBI,2021-01-18T03:00:00Z,25.7,91.98,9.0,6.0,0,0,,0.19,30.088583,,,,,,,,,,FG,,,,,,,,,,,,,,,,,,,,,METAR,892.0
VEAT 180300Z 00000KT 0100 VV/// 14/13 Q1017 BECMG 0150 FG,VEAT,2021-01-18T03:00:00Z,23.88,91.25,14.0,13.0,0,0,,0.06,30.029528,,,,,,,,,,,OVX,0,,,,,,,LIFR,,,,,,,,,,,,METAR,20.0
VDSR 180300Z 01010KT 9000 SCT017 23/12 Q1017,VDSR,2021-01-18T03:00:00Z,13.42,103.8,23.0,12.0,10,10,,5.59,30.029528,,,,,,,,,,,SCT,1700,,,,,,,VFR,,,,,,,,,,,,METAR,16.0
VDPP 180300Z 03012KT CAVOK 25/16 Q1016,VDPP,2021-01-18T03:00:00Z,11.55,104.83,25.0,16.0,30,12,,6.21,30.0,,,,,,,,,,,CAVOK,,,,,,,,VFR,,,,,,,,,,,,METAR,10.0
VAUD 180300Z 02003KT 1200 BR NSC 14/12 Q1015 NOSIG,VAUD,2021-01-18T03:00:00Z,24.62,73.9,14.0,12.0,20,3,,0.75,29.970472,,,,,,TRUE,,,,BR,CLR,,,,,,,,LIFR,,,,,,,,,,,,METAR,506.0
VASU 180300Z 00000KT 0050 FG NSC 18/18 Q1013 NOSIG,VASU,2021-01-18T03:00:00Z,21.12,72.73,18.0,18.0,0,0,,0.03,29.911417,,,,,,TRUE,,,,FG,CLR,,,,,,,,LIFR,,,,,,,,,,,,METAR,6.0
VARK 180300Z 32003KT 3000 HZ NSC 16/11 Q1013 NOSIG,VARK,2021-01-18T03:00:00Z,22.3,70.77,16.0,11.0,320,3,,1.86,29.911417,,,,,,TRUE,,,,HZ,CLR,,,,,,,,IFR,,,,,,,,,,,,METAR,125.0
VAPR 180300Z 33008KT 4000 HZ NSC 17/14 Q1014,VAPR,2021-01-18T03:00:00Z,21.63,69.67,17.0,14.0,330,8,,2.49,29.940945,,,,,,,,,,HZ,CLR,,,,,,,,IFR,,,,,,,,,,,,METAR,8.0
VAOZ 180300Z VRB02KT 2500 BR SCT040 20/18 Q1016 BECMG 3000 BR,VAOZ,2021-01-18T03:00:00Z,20.12,73.92,20.0,18.0,0,2,,1.55,30.0,,,,,,,,,,BR,SCT,4000,,,,,,,IFR,,,,,,,,,,,,METAR,598.0
VANP 180300Z 00000KT 2500 HZ NSC 20/11 Q1017 BECMG 3000 HZ,VANP,2021-01-18T03:00:00Z,21.08,79.05,20.0,11.0,0,0,,1.55,30.029528,,,,,,,,,,HZ,CLR,,,,,,,,IFR,,,,,,,,,,,,METAR,309.0
VAJJ 180300Z 00000KT 3000 FU SCT018 24/19 Q1012 NOSIG,VAJJ,2021-01-18T03:00:00Z,19.08,72.83,24.0,19.0,0,0,,1.86,29.88189,,,,,,TRUE,,,,FU,SCT,1800,,,,,,,IFR,,,,,,,,,,,,METAR,1.0
VAJB 180300Z 13002KT 4000 HZ NSC 17/10 Q1017,VAJB,2021-01-18T03:00:00Z,23.18,80.05,17.0,10.0,130,2,,2.49,30.029528,,,,,,,,,,HZ,CLR,,,,,,,,IFR,,,,,,,,,,,,METAR,489.0
VAID 180300Z 14008KT 4000 HZ FEW020 SCT100 19/11 Q1015 BECMG 5000 HZ,VAID,2021-01-18T03:00:00Z,22.72,75.8,19.0,11.0,140,8,,2.49,29.970472,,,,,,,,,,HZ,FEW,2000,SCT,10000,,,,,IFR,,,,,,,,,,,,METAR,564.0
VABV 180300Z 00000KT 2000 FU NSC 19/12 Q1013,VABV,2021-01-18T03:00:00Z,21.75,72.2,19.0,12.0,0,0,,1.24,29.911417,,,,,,,,,,FU,CLR,,,,,,,,IFR,,,,,,,,,,,,METAR,8.0
VABP 180300Z 16004KT 3000 HZ FEW025 SCT100 16/13 Q1016 NOSIG,VABP,2021-01-18T03:00:00Z,23.28,77.33,16.0,13.0,160,4,,1.86,30.0,,,,,,TRUE,,,,HZ,FEW,2500,SCT,10000,,,,,IFR,,,,,,,,,,,,METAR,520.0
VABO 180300Z 00000KT 1000 BR NSC 18/16 Q1013 NOSIG,VABO,2021-01-18T03:00:00Z,22.33,73.22,18.0,16.0,0,0,,0.62,29.911417,,,,,,TRUE,,,,BR,CLR,,,,,,,,LIFR,,,,,,,,,,,,METAR,36.0
VABB 180300Z 04004KT 2200 BR FEW020 SCT100 24/21 Q1013 NOSIG,VABB,2021-01-18T03:00:00Z,19.1,72.87,24.0,21.0,40,4,,1.37,29.911417,,,,,,TRUE,,,,BR,FEW,2000,SCT,10000,,,,,IFR,,,,,,,,,,,,METAR,14.0
VAAU 180300Z 00000KT 2000 HZ NSC 20/16 Q1016 TEMPO VIS 1000 BR,VAAU,2021-01-18T03:00:00Z,19.85,75.4,20.0,16.0,0,0,,1.24,30.0,,,,,,,,,,HZ,CLR,,,,,,,,IFR,,,,,,,,,,,,METAR,578.0
VAAH 180300Z 36004KT 1500 BR NSC 17/15 Q1013 TEMPO 1000 BR,VAAH,2021-01-18T03:00:00Z,23.07,72.63,17.0,15.0,360,4,,0.93,29.911417,,,,,,,,,,BR,CLR,,,,,,,,LIFR,,,,,,,,,,,,METAR,52.0
UWWW 180300Z 34001MPS CAVOK M22/M24 Q1017 R33/410250 NOSIG RMK QFE752/1003,UWWW,2021-01-18T03:00:00Z,53.5,50.17,-22.0,-24.0,340,2,,6.21,30.029528,,,,,,TRUE,,,,,CAVOK,,,,,,,,VFR,,,,,,,,,,,,SPECI,124.0
UWUU 180300Z 23002MPS 9999 SCT040 M24/M27 Q1017 R14R/0///60 NOSIG,UWUU,2021-01-18T03:00:00Z,54.57,55.87,-24.0,-27.0,230,4,,6.21,30.029528,,,,,,TRUE,,,,,SCT,4000,,,,,,,VFR,,,,,,,,,,,,SPECI,137.0
UWSG 180300Z 28003MPS CAVOK M25/M27 Q1016 R26/820160 NOSIG RMK QFE760/1013,UWSG,2021-01-18T03:00:00Z,51.72,46.17,-25.0,-27.0,280,6,,6.21,30.0,,,,,,TRUE,,,,,CAVOK,,,,,,,,VFR,,,,,,,,,,,,METAR,31.0
UWOR 180300Z 31001MPS 2700 BR NSC M18/M22 Q1014 R25/950242 NOSIG RMK QFE737/0983,UWOR,2021-01-18T03:00:00Z,51.07,58.6,-18.0,-22.0,310,2,,1.68,29.940945,,,,,,TRUE,,,,BR,CLR,,,,,,,,IFR,,,,,,,,,,,,METAR,270.0
UWOO 180300Z 06001MPS 9999 OVC007 M19/M21 Q1016 R26/950543 NOSIG RMK QFE752/1002,UWOO,2021-01-18T03:00:00Z,51.8,55.47,-19.0,-21.0,60,2,,6.21,30.0,,,,,,TRUE,,,,,OVC,700,,,,,,,IFR,,,,,,,,,,,,METAR,90.0
UWLW 180300Z 00000MPS 8000 NSC M31/M34 Q1018 R20/820650 NOSIG RMK QFE758,UWLW,2021-01-18T03:00:00Z,54.4,48.8,-31.0,-34.0,0,0,,4.97,30.059055,,,,,,TRUE,,,,,CLR,,,,,,,,MVFR,,,,,,,,,,,,SPECI,67.0
UWKS 180300Z 22001MPS 5000 BR NSC M25/M28 Q1017 R06/850343 NOSIG RMK QFE747,UWKS,2021-01-18T03:00:00Z,56.08,47.35,-25.0,-28.0,220,2,,3.11,30.029528,,,,,,TRUE,,,,BR,CLR,,,,,,,,MVFR,,,,,,,,,,,,METAR,165.0
UWKE 180300Z 24002MPS 9999 BKN007 M23/M26 Q1015 R21/390050 NOSIG RMK OBST OBSC QFE745/0993,UWKE,2021-01-18T03:00:00Z,55.57,52.08,-23.0,-26.0,240,4,,6.21,29.970472,,,,,,TRUE,,,,,BKN,700,,,,,,,IFR,,,,,,,,,,,,SPECI,193.0
UWKD 180300Z 00000MPS 9000 FEW002 M28/M32 Q1017 R29/810050 NOSIG RMK QBB080 QFE752/1003,UWKD,2021-01-18T03:00:00Z,55.62,49.28,-28.0,-32.0,0,0,,5.59,30.029528,,,,,,TRUE,,,,,FEW,200,,,,,,,VFR,,,,,,,,,,,,SPECI,114.0
UWGG 180300Z 20001MPS 5000 IC BR NSC M30/M32 Q1018 R36R/490145 NOSIG,UWGG,2021-01-18T03:00:00Z,56.23,43.78,-30.0,-32.0,200,2,,3.11,30.059055,,,,,,TRUE,,,,IC BR,CLR,,,,,,,,MVFR,,,,,,,,,,,,METAR,73.0
UUYY 180300Z 18002MPS 9999 -SN BKN012 M26/M29 Q1011 R18/490255 NOSIG RMK QFE750/1000,UUYY,2021-01-18T03:00:00Z,61.65,50.83,-26.0,-29.0,180,4,,6.21,29.852362,,,,,,TRUE,,,,-SN,BKN,1200,,,,,,,MVFR,,,,,,,,,,,,METAR,107.0
UUWW 180300Z 21002MPS 9000 FEW004 M24/M27 Q1017 R06/420250 NOSIG,UUWW,2021-01-18T03:00:00Z,55.6,37.27,-24.0,-27.0,210,4,,5.59,30.029528,,,,,,TRUE,,,,,FEW,400,,,,,,,VFR,,,,,,,,,,,,SPECI,195.0
UUOO 180300Z VRB01MPS CAVOK M17/M19 Q1015 R30/490239 NOSIG RMK QFE747,UUOO,2021-01-18T03:00:00Z,51.82,39.23,-17.0,-19.0,0,2,,6.21,29.970472,,,,,,TRUE,,,,,CAVOK,,,,,,,,VFR,,,,,,,,,,,,METAR,154.0
UUOL 180300Z 02002MPS CAVOK M21/M23 Q1016 R15/850249 NOSIG,UUOL,2021-01-18T03:00:00Z,52.7,39.53,-21.0,-23.0,20,4,,6.21,30.0,,,,,,TRUE,,,,,CAVOK,,,,,,,,VFR,,,,,,,,,,,,METAR,176.0
UUOK 180300Z 35002MPS CAVOK M20/M23 Q1014 R30/////// NOSIG RMK QFE742/0989,UUOK,2021-01-18T03:00:00Z,51.75,36.28,-20.0,-23.0,350,4,,6.21,29.940945,,,,,,TRUE,,,,,CAVOK,,,,,,,,VFR,,,,,,,,,,,,METAR,203.0
UUOB 180300Z 03002MPS CAVOK M17/M19 Q1013 R11/820350 NOSIG,UUOB,2021-01-18T03:00:00Z,50.65,36.58,-17.0,-19.0,30,4,,6.21,29.911417,,,,,,TRUE,,,,,CAVOK,,,,,,,,VFR,,,,,,,,,,,,METAR,218.0
UUMO 180300Z 23002MPS 6000 -SN OVC002 M24/M27 Q1018 R07/820345 NOSIG RMK QBB080 QFE749/0999,UUMO,2021-01-18T03:00:00Z,55.52,37.5,-24.0,-27.0,230,4,,3.73,30.059055,,,,,,TRUE,,,,-SN,OVC,200,,,,,,,LIFR,,,,,,,,,,,,METAR,167.0
UUEE 180300Z 30002MPS 220V330 9000 FEW002 M24/M26 Q1017 R24L/410257 R24C/410245 NOSIG RMK QBB060,UUEE,2021-01-18T03:00:00Z,55.97,37.42,-24.0,-26.0,300,4,,5.59,30.029528,,,,,,TRUE,,,,,FEW,200,,,,,,,VFR,,,,,,,,,,,,SPECI,186.0
UUDL 180300Z 18001MPS 7000 OVC003 M23/M26 Q1017 R23/850340 NOSIG RMK QBB090 QFE754,UUDL,2021-01-18T03:00:00Z,57.57,40.17,-23.0,-26.0,180,2,,4.35,30.029528,,,,,,TRUE,,,,,OVC,300,,,,,,,LIFR,,,,,,,,,,,,METAR,88.0
UUDD 180300Z 00000MPS 9999 -SN SCT002 M27/M31 Q1017 R32L/490237 NOSIG RMK QBB060,UUDD,2021-01-18T03:00:00Z,55.4,37.9,-27.0,-31.0,0,0,,6.21,30.029528,,,,,,TRUE,,,,-SN,SCT,200,,,,,,,VFR,,,,,,,,,,,,METAR,165.0
UUBW 180300Z 20002MPS 1400 0050SE R30/0075N FZFG FEW001 M23/M26 Q1019 R30/420342 TEMPO 0300 FZFG RMK QBB040,UUBW,2021-01-18T03:00:00Z,55.55,38.15,-23.0,-26.0,200,4,,0.87,30.088583,,,,,,,,,,FZFG,FEW,100,,,,,,,LIFR,,,,,,,,,,,,METAR,111.0
UUBP 180300Z 03001MPS CAVOK M20/M22 Q1015 R34/490540 NOSIG RMK QFE744/0992,UUBP,2021-01-18T03:00:00Z,53.22,34.18,-20.0,-22.0,30,2,,6.21,29.970472,,,,,,TRUE,,,,,CAVOK,,,,,,,,VFR,,,,,,,,,,,,METAR,197.0
UUBC 180300Z AUTO 01002MPS 9999 // M25/M27 Q1016 RMK QBB150 QFE745/0994,UUBC,2021-01-18T03:00:00Z,54.55,36.37,-25.0,-27.0,10,4,,6.21,30.0,,,TRUE,,,,,,,,,,,,,,,,,,,,,,,,,,,,METAR,198.0
UTTT 180300Z 07006KT CAVOK 06/M05 Q1009 R08R/CLRD70 NOSIG,UTTT,2021-01-18T03:00:00Z,41.27,69.27,6.0,-5.0,70,6,,6.21,29.793306,,,,,,TRUE,,,,,CAVOK,,,,,,,,VFR,,,,,,,,,,,,SPECI,429.0
UTST 180300Z 33006KT 5000 BR NSC 02/M01 Q1011 R88/CLRD70 NOSIG,UTST,2021-01-18T03:00:00Z,37.28,67.32,2.0,-1.0,330,6,,3.11,29.852362,,,,,,TRUE,,,,BR,CLR,,,,,,,,MVFR,,,,,,,,,,,,SPECI,311.0
UTSS 180300Z 12004KT 9999 NSC 07/M04 Q1008 R09/CLRD70 NOSIG,UTSS,2021-01-18T03:00:00Z,39.7,66.98,7.0,-4.0,120,4,,6.21,29.763779,,,,,,TRUE,,,,,CLR,,,,,,,,VFR,,,,,,,,,,,,SPECI,665.0
UTSK 180300Z VRB02KT 9999 BKN027CB 05/01 Q1008 R16/CLRD70,UTSK,2021-01-18T03:00:00Z,38.8,65.77,5.0,1.0,0,2,,6.21,29.763779,,,,,,,,,,,BKN,2700,,,,,,,MVFR,,,,,,,,,,,,SPECI,399.0
UTSB 180300Z 11006KT CAVOK 06/01 Q1007 R01/CLRD70 NOSIG,UTSB,2021-01-18T03:00:00Z,39.77,64.48,6.0,1.0,110,6,,6.21,29.734253,,,,,,TRUE,,,,,CAVOK,,,,,,,,VFR,,,,,,,,,,,,SPECI,225.0
UTSA 180300Z 09008KT 9999 NSC 07/M01 Q1007 R07/CLRD70 NOSIG,UTSA,2021-01-18T03:00:00Z,40.12,65.17,7.0,-1.0,90,8,,6.21,29.734253,,,,,,TRUE,,,,,CLR,,,,,,,,VFR,,,,,,,,,,,,SPECI,346.0
UTNU 180300Z 04004KT 6000 NSC M02/M05 Q1006 R31/CLRD70 NOSIG,UTNU,2021-01-18T03:00:00Z,41.58,60.63,-2.0,-5.0,40,4,,3.73,29.704725,,,,,,TRUE,,,,,CLR,,,,,,,,MVFR,,,,,,,,,,,,SPECI,97.0
UTNN 180300Z 35004KT CAVOK M05/M08 Q1008 R33/CLRD60 NOSIG,UTNN,2021-01-18T03:00:00Z,42.48,59.63,-5.0,-8.0,350,4,,6.21,29.763779,,,,,,TRUE,,,,,CAVOK,,,,,,,,VFR,,,,,,,,,,,,SPECI,76.0
UTFN 180300Z 34006KT 9999 NSC 01/M06 Q1012 R28/CLRD70 NOSIG,UTFN,2021-01-18T03:00:00Z,40.98,71.57,1.0,-6.0,340,6,,6.21,29.88189,,,,,,TRUE,,,,,CLR,,,,,,,,VFR,,,,,,,,,,,,METAR,477.0
UTFF 180300Z 15006KT 7000 NSC M00/M04 Q1012 R99/CLRD70,UTFF,2021-01-18T03:00:00Z,40.37,71.73,0.0,-4.0,150,6,,4.35,29.88189,,,,,,,,,,,CLR,,,,,,,,MVFR,,,,,,,,,,,,METAR,612.0
UTDT 180300Z 19002MPS 130V290 6000 BKN110 03/02 Q1011 R35/////// RMK QFE719/0959,UTDT,2021-01-18T03:00:00Z,37.87,68.87,3.0,2.0,190,4,,3.73,29.852362,,,,,,,,,,,BKN,11000,,,,,,,MVFR,,,,,,,,,,,,METAR,443.0
UTDL 180300Z 06003MPS 0900 R08/0900N FG SCT086 02/M00 Q1011 R08/CLRD70 NOSIG RMK QFE719/0959,UTDL,2021-01-18T03:00:00Z,40.22,69.7,2.0,0.0,60,6,,0.56,29.852362,,,,,,TRUE,,,,FG,SCT,8600,,,,,,,LIFR,,,,,,,,,,,,SPECI,436.0
UTDK 180300Z 02002MPS 9999 OVC140 08/M02 Q1012 R01/09//70 RMK QFE702/0936,UTDK,2021-01-18T03:00:00Z,37.98,69.8,8.0,-2.0,20,4,,6.21,29.88189,,,,,,,,,,,OVC,14000,,,,,,,VFR,,,,,,,,,,,,METAR,675.0
UTDD 180300Z VRB01MPS 6000 FEW066 SCT130 03/M04 Q1013 R09/D NOSIG RMK QFE691/0922,UTDD,2021-01-18T03:00:00Z,38.53,68.82,3.0,-4.0,0,2,,3.73,29.911417,,,,,,TRUE,,,,,FEW,6600,SCT,13000,,,,,MVFR,,,,,,,,,,,,METAR,785.0
UTAV 180300Z 15006KT 9999 FEW050CB BKN050 08/01 Q1006 R13/CLRD70 NOSIG,UTAV,2021-01-18T03:00:00Z,39.08,63.62,8.0,1.0,150,6,,6.21,29.704725,,,,,,TRUE,,,,,FEW,5000,BKN,5000,,,,,VFR,,,,,,,,,,,,METAR,187.0
UTAT 180300Z 04004KT 010V080 CAVOK M03/M05 Q1007 R08/CLRD70 NOSIG,UTAT,2021-01-18T03:00:00Z,41.77,59.83,-3.0,-5.0,40,4,,6.21,29.734253,,,,,,TRUE,,,,,CAVOK,,,,,,,,VFR,,,,,,,,,,,,METAR,84.0
UTAM 180300Z 22008KT CAVOK 06/03 Q1009 R88/CLRD70 NOSIG,UTAM,2021-01-18T03:00:00Z,37.62,61.9,6.0,3.0,220,8,,6.21,29.793306,,,,,,TRUE,,,,,CAVOK,,,,,,,,VFR,,,,,,,,,,,,METAR,218.0
UTAK 180300Z 13014KT 0450 R16R/1200 FG VV001 06/05 Q1005 R16R/19//60 NOSIG,UTAK,2021-01-18T03:00:00Z,40.05,53.0,6.0,5.0,130,14,,0.28,29.675198,,,,,,TRUE,,,,FG,OVX,0,,,,,,,LIFR,,,,,,,,,,,100,METAR,83.0
UTAA 180300Z 22004KT 190V280 6000 NSC 03/02 Q1007 R88/70D NOSIG,UTAA,2021-01-18T03:00:00Z,37.98,58.37,3.0,2.0,220,4,,3.73,29.734253,,,,,,TRUE,,,,,CLR,,,,,,,,MVFR,,,,,,,,,,,,METAR,207.0
USTR 180300Z 28004MPS CAVOK M19/M22 Q1010 R30/390040 R21/390043 TEMPO 1000 SHSN BKN011CB,USTR,2021-01-18T03:00:00Z,57.18,65.32,-19.0,-22.0,280,8,,6.21,29.822834,,,,,,,,,,,CAVOK,,,,,,,,VFR,,,,,,,,,,,,SPECI,93.0
USSS 180300Z 28006MPS CAVOK M18/M21 Q1012 R26R/450142 NOSIG RMK QFE739/0985,USSS,2021-01-18T03:00:00Z,56.75,60.78,-18.0,-21.0,280,12,,6.21,29.88189,,,,,,TRUE,,,,,CAVOK,,,,,,,,VFR,,,,,,,,,,,,SPECI,222.0
USRR 180300Z 27005MPS 8000 SCT031CB M27/M30 Q0997 R25/450337 NOSIG RMK QFE742,USRR,2021-01-18T03:00:00Z,61.33,73.42,-27.0,-30.0,270,10,,4.97,29.438976,,,,,,TRUE,,,,,SCT,3100,,,,,,,MVFR,,,,,,,,,,,,SPECI,52.0
USPP 180300Z 24003MPS CAVOK M25/M27 Q1015 R21/450250 NOSIG RMK QFE751,USPP,2021-01-18T03:00:00Z,57.92,56.02,-25.0,-27.0,240,6,,6.21,29.970472,,,,,,TRUE,,,,,CAVOK,,,,,,,,VFR,,,,,,,,,,,,SPECI,120.0
USNN 180300Z 27002MPS 9999 SCT021 M24/M26 Q0996 R21/39//37 NOSIG RMK QFE742,USNN,2021-01-18T03:00:00Z,60.95,76.48,-24.0,-26.0,270,4,,6.21,29.409449,,,,,,TRUE,,,,,SCT,2100,,,,,,,VFR,,,,,,,,,,,,SPECI,52.0
USHH 180300Z 27002MPS 240V330 9999 SCT045 M26/M29 Q1000 R24/810247 NOSIG,USHH,2021-01-18T03:00:00Z,61.03,69.08,-26.0,-29.0,270,4,,6.21,29.52756,,,,,,TRUE,,,,,SCT,4500,,,,,,,VFR,,,,,,,,,,,,METAR,46.0
USCM 180300Z 03001MPS 8000 SCT020 M21/M24 Q1012 R18/820252 TEMPO 2000 BR RMK QFE721,USCM,2021-01-18T03:00:00Z,53.4,58.75,-21.0,-24.0,30,2,,4.97,29.88189,,,,,,,,,,,SCT,2000,,,,,,,MVFR,,,,,,,,,,,,METAR,425.0
USCC 180300Z 27005MPS CAVOK M20/M23 Q1013 R27/350042 NOSIG RMK QFE740,USCC,2021-01-18T03:00:00Z,55.3,61.5,-20.0,-23.0,270,10,,6.21,29.911417,,,,,,TRUE,,,,,CAVOK,,,,,,,,VFR,,,,,,,,,,,,SPECI,227.0
URWW 180300Z 08007MPS 9999 BKN046 M11/M13 Q1011 R06/820245 TEMPO 1000 FZRA OVC003,URWW,2021-01-18T03:00:00Z,48.78,44.33,-11.0,-13.0,80,14,,6.21,29.852362,,,,,,,,,,,BKN,4600,,,,,,,VFR,,,,,,,,,,,,METAR,131.0
URWI 180300Z AUTO 07007MPS 4200 // M09/M10 Q1009 RMK QBB140,URWI,2021-01-18T03:00:00Z,46.37,44.33,-9.0,-10.0,70,14,,2.61,29.793306,,,TRUE,,,,,,,,,,,,,,,,,,,,,,,,,,,,METAR,145.0
URWA 180300Z 05005MPS 3600 BR OVC004 M05/M06 Q1008 R09/010070 TEMPO 2000 SN BKN003 OVC010 RMK OBST OBSC QFE758/1010,URWA,2021-01-18T03:00:00Z,46.28,47.98,-5.0,-6.0,50,10,,2.24,29.763779,,,,,,,,,,BR,OVC,400,,,,,,,LIFR,,,,,,,,,,,,METAR,-19.0
URSS 180300Z 34003MPS 9000 -SHRA SCT012 OVC025CB 03/01 Q1010 WS ALL RWY R06/250255 R02/250255 NOSIG RMK MT OBSC QFE757 R02/33003MPS MT OBSC QFE757,URSS,2021-01-18T03:00:00Z,43.45,39.92,3.0,1.0,340,6,,5.59,29.822834,,,,,,TRUE,,,,-SHRA,SCT,1200,OVC,2500,,,,,MVFR,,,,,,,,,,,,METAR,4.0
URRP 180300Z 08006MPS 5000 -SN SCT/// BKN026 M08/M09 Q1008 RESN REPL R05/350038 TEMPO -FZRA OVC003 RMK QFE752/1002,URRP,2021-01-18T03:00:00Z,47.5,39.92,-8.0,-9.0,80,12,,3.11,29.763779,,,,,,,,,,-SN PL,BKN,2600,,,,,,,MVFR,,,,,,,,,,,,METAR,73.0
URMT 180300Z 30004MPS 9999 -SN SCT004 OVC017 M03/M03 Q1005 R07/450145 NOSIG RMK QFE714,URMT,2021-01-18T03:00:00Z,45.12,42.12,-3.0,-3.0,300,8,,6.21,29.675198,,,,,,TRUE,,,,-SN,SCT,400,OVC,1700,,,,,MVFR,,,,,,,,,,,,METAR,448.0
URMO 180300Z AUTO 26003MPS 9999 // M02/M02 Q1006 RMK QFE711/0948,URMO,2021-01-18T03:00:00Z,43.2,44.6,-2.0,-2.0,260,6,,6.21,29.704725,,,TRUE,,,,,,,,,,,,,,,,,,,,,,,,,,,,METAR,505.0
URMN 180300Z 00000MPS 9999 OVC005 M03/M04 Q1006 R24/////// NOSIG RMK MT OBSC OBST OBSC QFE718,URMN,2021-01-18T03:00:00Z,43.52,43.63,-3.0,-4.0,0,0,,6.21,29.704725,,,,,,TRUE,,,,,OVC,500,,,,,,,IFR,,,,,,,,,,,,METAR,424.0
URMM 180300Z 11004MPS 1700 R12/P2000U SHSN BKN004 OVC031CB M03/M04 Q1006 R12/590132 NOSIG RMK MT OBSC QFE727/0969,URMM,2021-01-18T03:00:00Z,44.22,43.07,-3.0,-4.0,110,8,,1.06,29.704725,,,,,,TRUE,,,,SHSN,BKN,400,OVC,3100,,,,,LIFR,,,,,,,,,,,,METAR,318.0
URML 180300Z 33008MPS 9999 SCT008 OVC031 04/03 Q1004 R32/290060 NOSIG RMK MT OBSC QFE753/1004,URML,2021-01-18T03:00:00Z,42.82,47.65,4.0,3.0,330,16,,6.21,29.64567,,,,,,TRUE,,,,,SCT,800,OVC,3100,,,,,VFR,,,,,,,,,,,,METAR,4.0
URMG 180300Z 00000MPS 9000 -SN OVC044 M00/M01 Q1007 R26/190060 TEMPO 1000 SN BKN002 OVC007 RMK QFE741/0988,URMG,2021-01-18T03:00:00Z,43.38,45.7,0.0,-1.0,0,0,,5.59,29.734253,,,,,,,,,,-SN,OVC,4400,,,,,,,VFR,,,,,,,,,,,,METAR,160.0
URKK 180300Z 27006MPS 9999 FEW/// OVC019 M05/M07 Q1011 R23L/650240 NOSIG RMK QFE755,URKK,2021-01-18T03:00:00Z,45.03,39.15,-5.0,-7.0,270,12,,6.21,29.852362,,,,,,TRUE,,,,,OVC,1900,,,,,,,MVFR,,,,,,,,,,,,METAR,29.0
URKA 180300Z AUTO 34006MPS 6000 M05/M07 Q1012 RMK QFE755/1007,URKA,2021-01-18T03:00:00Z,45.0,37.35,-5.0,-7.0,340,12,,3.73,29.88189,,,TRUE,,,,,,,,,,,,,,,,,,,,,,,,,,,,METAR,41.0
URFF 180300Z 34003MPS 9999 SCT023 M11/M12 Q1014 R01/490594 NOSIG,URFF,2021-01-18T03:00:00Z,45.03,33.98,-11.0,-12.0,340,6,,6.21,29.940945,,,,,,TRUE,,,,,SCT,2300,,,,,,,VFR,,,,,,,,,,,,METAR,190.0
UOOO 180300Z 14014MPS 2400 1000SE BLSN NSC M20/M24 Q0998 R19/39//40 NOSIG RMK QFE733/0977,UOOO,2021-01-18T03:00:00Z,69.32,87.33,-20.0,-24.0,140,27,,1.49,29.468504,,,,,,TRUE,,,,BLSN,CLR,,,,,,,,IFR,,,,,,,,,,,,SPECI,177.0
UNTT 180300Z 21007MPS 1800 1100S R21/1800U SHSN SCT018CB OVC024 M08/M10 Q1002 R21/490242 NOSIG RMK QFE737,UNTT,2021-01-18T03:00:00Z,56.38,85.22,-8.0,-10.0,210,14,,1.12,29.586615,,,,,,TRUE,,,,SHSN,SCT,1800,OVC,2400,,,,,IFR,,,,,,,,,,,,METAR,179.0
UNOO 180300Z 26004MPS CAVOK M17/M19 Q1008 R25/390135 NOSIG RMK QFE748,UNOO,2021-01-18T03:00:00Z,54.97,73.32,-17.0,-19.0,260,8,,6.21,29.763779,,,,,,TRUE,,,,,CAVOK,,,,,,,,VFR,,,,,,,,,,,,METAR,85.0
UNNT 180300Z 23007MPS 7000 -SN BKN013 OVC026 M05/M08 Q1006 R25/390138 R16/390140 NOSIG RMK QFE744/0993,UNNT,2021-01-18T03:00:00Z,55.02,82.65,-5.0,-8.0,230,14,,4.35,29.704725,,,,,,TRUE,,,,-SN,BKN,1300,OVC,2600,,,,,MVFR,,,,,,,,,,,,SPECI,106.0
UNKL 180300Z 20005MPS CAVOK M06/M13 Q1007 R29/390145 NOSIG RMK QFE730,UNKL,2021-01-18T03:00:00Z,56.17,92.48,-6.0,-13.0,200,10,,6.21,29.734253,,,,,,TRUE,,,,,CAVOK,,,,,,,,VFR,,,,,,,,,,,,METAR,278.0
UNEE 180300Z 18006MPS CAVOK M06/M10 Q1005 R23/390136 NOSIG RMK QFE731,UNEE,2021-01-18T03:00:00Z,55.27,86.1,-6.0,-10.0,180,12,,6.21,29.675198,,,,,,TRUE,,,,,CAVOK,,,,,,,,VFR,,,,,,,,,,,,METAR,261.0
UNBB 180300Z 19009MPS 9999 DRSN NSC M07/M14 Q1008 R24/390136 NOSIG RMK QFE734,UNBB,2021-01-18T03:00:00Z,53.37,83.53,-7.0,-14.0,190,17,,6.21,29.763779,,,,,,TRUE,,,,DRSN,CLR,,,,,,,,VFR,,,,,,,,,,,,METAR,249.0
UNAA 180300Z 10001MPS 3400 FU BR NSC M10/M12 Q1013 R02/390037 NOSIG RMK QFE737,UNAA,2021-01-18T03:00:00Z,53.75,91.4,-10.0,-12.0,100,2,,2.11,29.911417,,,,,,TRUE,,,,FU BR,CLR,,,,,,,,IFR,,,,,,,,,,,,SPECI,249.0
UMMS 180300Z 34004MPS CAVOK M22/M24 Q1017 R31R/820445 R31L/////// NOSIG,UMMS,2021-01-18T03:00:00Z,53.88,28.03,-22.0,-24.0,340,8,,6.21,30.029528,,,,,,TRUE,,,,,CAVOK,,,,,,,,VFR,,,,,,,,,,,,METAR,196.0
UMMG 180300Z 32003MPS 9999 OVC018 M19/M22 Q1023 NOSIG,UMMG,2021-01-18T03:00:00Z,53.6,24.05,-19.0,-22.0,320,6,,6.21,30.206694,,,,,,TRUE,,,,,OVC,1800,,,,,,,MVFR,,,,,,,,,,,,METAR,125.0
UMKK 180300Z 20003MPS 7000 -SHSN BKN012 BKN031CB M09/M12 Q1020 R24/810195 NOSIG RMK QFE764/1019,UMKK,2021-01-18T03:00:00Z,54.88,20.57,-9.0,-12.0,200,6,,4.35,30.11811,,,,,,TRUE,,,,-SHSN,BKN,1200,BKN,3100,,,,,MVFR,,,,,,,,,,,,METAR,6.0
UMGG 180300Z 31002MPS 4000 BR FEW014 SCT100 M20/M22 Q1017 R28/490535 TEMPO 2000,UMGG,2021-01-18T03:00:00Z,52.53,31.02,-20.0,-22.0,310,4,,2.49,30.029528,,,,,,,,,,BR,FEW,1400,SCT,10000,,,,,IFR,,,,,,,,,,,,METAR,135.0
UMBB 180300Z 31002MPS 1900 BR BKN018CB M21/M22 Q1020 NOSIG,UMBB,2021-01-18T03:00:00Z,52.12,23.9,-21.0,-22.0,310,4,,1.18,30.11811,,,,,,TRUE,,,,BR,BKN,1800,,,,,,,IFR,,,,,,,,,,,,METAR,138.0
ULWC 180300Z 22003MPS 6000 -SN BKN005 OVC016 M14/M15 Q1014 NOSIG RMK QFE750/1000,ULWC,2021-01-18T03:00:00Z,59.28,38.02,-14.0,-15.0,220,6,,3.73,29.940945,,,,,,TRUE,,,,-SN,BKN,500,OVC,1600,,,,,IFR,,,,,,,,,,,,METAR,113.0
ULPB 180300Z AUTO 22002MPS 9999 // M06/M07 Q1012 RMK QBB170 QFE755/1007,ULPB,2021-01-18T03:00:00Z,61.88,34.15,-6.0,-7.0,220,4,,6.21,29.88189,,,TRUE,,,,,,,,,,,,,,,,,,,,,,,,,,,,METAR,41.0
ULOO 180300Z AUTO 26002MPS 9000 // M08/M09 Q1017 RMK QFE759,ULOO,2021-01-18T03:00:00Z,57.78,28.4,-8.0,-9.0,260,4,,5.59,30.029528,,,TRUE,,,,,,,,,,,,,,,,,,,,,,,,,,,,METAR,46.0
ULMM 180300Z 25003MPS 9999 -SHSN FEW009 BKN023CB M02/M03 Q1002 R31/590140 NOSIG RMK OBST OBSC QFE744,ULMM,2021-01-18T03:00:00Z,68.78,32.75,-2.0,-3.0,250,6,,6.21,29.586615,,,,,,TRUE,,,,-SHSN,FEW,900,BKN,2300,,,,,MVFR,,,,,,,,,,,,METAR,79.0
ULLI 180300Z 28004MPS 9999 -SN BKN004 BKN023 M07/M08 Q1015 R28L/451036 NOSIG RMK QBB130 OBST OBSC,ULLI,2021-01-18T03:00:00Z,59.8,30.27,-7.0,-8.0,280,8,,6.21,29.970472,,,,,,TRUE,,,,-SN,BKN,400,BKN,2300,,,,,LIFR,,,,,,,,,,,,METAR,25.0
ULAA 180300Z 08002MPS 9999 OVC009 M14/M16 Q1009 R08/490333 NOSIG RMK QFE756/1008,ULAA,2021-01-18T03:00:00Z,64.6,40.72,-14.0,-16.0,80,4,,6.21,29.793306,,,,,,TRUE,,,,,OVC,900,,,,,,,IFR,,,,,,,,,,,,METAR,10.0
UKOO 180300Z 00000MPS 8000 -SHSN SCT015 SCT015CB M10/M12 Q1015 R34/490350 NOSIG,UKOO,2021-01-18T03:00:00Z,46.42,30.68,-10.0,-12.0,0,0,,4.97,29.970472,,,,,,TRUE,,,,-SHSN,SCT,1500,SCT,1500,,,,,MVFR,,,,,,,,,,,,SPECI,52.0
UKOH 180300Z 01002MPS 9999 SCT046 M18/M20 Q1016 NOSIG,UKOH,2021-01-18T03:00:00Z,46.67,32.5,-18.0,-20.0,10,4,,6.21,30.0,,,,,,TRUE,,,,,SCT,4600,,,,,,,VFR,,,,,,,,,,,,METAR,43.0
UKKM 180300Z AUTO 32003MPS 9999 // NCD M20/M22 Q1016,UKKM,2021-01-18T03:00:00Z,50.6,30.2,-20.0,-22.0,320,6,,6.21,30.0,,,TRUE,,,,,,,,CLR,,,,,,,,VFR,,,,,,,,,,,,SPECI,156.0
UKKK 180300Z 32002MPS 9000 -SN BKN023 M18/M20 Q1015 R26/820345 NOSIG,UKKK,2021-01-18T03:00:00Z,50.4,30.45,-18.0,-20.0,320,4,,5.59,29.970472,,,,,,TRUE,,,,-SN,BKN,2300,,,,,,,MVFR,,,,,,,,,,,,METAR,175.0
UKHH 180300Z 01002MPS 8000 -SN OVC041 M15/M18 Q1013 R07/71//81 BECMG 2100 OVC007,UKHH,2021-01-18T03:00:00Z,49.92,36.28,-15.0,-18.0,10,4,,4.97,29.911417,,,,,,,,,,-SN,OVC,4100,,,,,,,MVFR,,,,,,,,,,,,SPECI,149.0
UKDR 180300Z 32003MPS CAVOK M20/M22 Q1015 R36/95//40 NOSIG,UKDR,2021-01-18T03:00:00Z,48.05,33.22,-20.0,-22.0,320,6,,6.21,29.970472,,,,,,TRUE,,,,,CAVOK,,,,,,,,VFR,,,,,,,,,,,,SPECI,119.0
UKDE 180300Z 33003MPS 9999 SCT019 M15/M17 Q1014 R02/810570 NOSIG,UKDE,2021-01-18T03:00:00Z,47.87,35.32,-15.0,-17.0,330,6,,6.21,29.940945,,,,,,TRUE,,,,,SCT,1900,,,,,,,VFR,,,,,,,,,,,,SPECI,106.0
UKDD 180300Z 36004MPS 9999 BKN034 M16/M19 Q1013 R26/911070 TEMPO 1400 SN OVC005,UKDD,2021-01-18T03:00:00Z,48.37,35.1,-16.0,-19.0,360,8,,6.21,29.911417,,,,,,,,,,,BKN,3400,,,,,,,VFR,,,,,,,,,,,,SPECI,147.0
UKBB 180300Z 32001MPS 9999 SCT024 M24/M26 Q1016 R36R/811050 NOSIG,UKBB,2021-01-18T03:00:00Z,50.33,30.9,-24.0,-26.0,320,2,,6.21,30.0,,,,,,TRUE,,,,,SCT,2400,,,,,,,VFR,,,,,,,,,,,,SPECI,125.0
UIUU 180300Z 06005MPS 5000 -SN BKN043 M24/M28 Q1017 R08/490350 NOSIG RMK QFE717/0956,UIUU,2021-01-18T03:00:00Z,51.8,107.45,-24.0,-28.0,60,10,,3.11,30.029528,,,,,,TRUE,,,,-SN,BKN,4300,,,,,,,MVFR,,,,,,,,,,,,METAR,508.0
UIII 180300Z 16006MPS 9999 SCT012CB M16/M19 Q1013 R12/490545 NOSIG RMK QFE717/0957,UIII,2021-01-18T03:00:00Z,52.27,104.37,-16.0,-19.0,160,12,,6.21,29.911417,,,,,,TRUE,,,,,SCT,1200,,,,,,,VFR,,,,,,,,,,,,SPECI,480.0
UIBB 180300Z 24003MPS 8000 -SHSN SCT027CB M16/M18 Q1007 R30/490532 NOSIG RMK QFE712/0950,UIBB,2021-01-18T03:00:00Z,56.37,101.7,-16.0,-18.0,240,6,,4.97,29.734253,,,,,,TRUE,,,,-SHSN,SCT,2700,,,,,,,MVFR,,,,,,,,,,,,SPECI,485.0
UIAA 180300Z 05001MPS 2500 R29/1700D FU NSC M32/M36 Q1019 R29/420260 NOSIG RMK QFE706/0941,UIAA,2021-01-18T03:00:00Z,52.02,113.32,-32.0,-36.0,50,2,,1.55,30.088583,,,,,,TRUE,,,,FU,CLR,,,,,,,,IFR,,,,,,,,,,,,SPECI,650.0
UHWW 180300Z 03002MPS 9999 NSC M16/M20 Q1013 R25L/410160 NOSIG RMK QFE758,UHWW,2021-01-18T03:00:00Z,43.4,132.15,-16.0,-20.0,30,4,,6.21,29.911417,,,,,,TRUE,,,,,CLR,,,,,,,,VFR,,,,,,,,,,,,METAR,11.0
UHSS 180300Z 34006MPS 4300 -SHSN BKN026CB M13/M16 Q1010 R01/810265 NOSIG RMK MT OBSC QFE756/1009,UHSS,2021-01-18T03:00:00Z,46.88,142.72,-13.0,-16.0,340,12,,2.67,29.822834,,,,,,TRUE,,,,-SHSN,BKN,2600,,,,,,,IFR,,,,,,,,,,,,METAR,14.0
UHPP 180300Z 30010G15MPS 8000 BLSN BKN037CB BKN045 M03/M11 Q0978 R34L/350038 NOSIG RMK MT OBSC QFE730/0973,UHPP,2021-01-18T03:00:00Z,53.17,158.45,-3.0,-11.0,300,19,29,4.97,28.877953,,,,,,TRUE,,,,BLSN,BKN,3700,BKN,4500,,,,,MVFR,,,,,,,,,,,,METAR,33.0
UHMM 180300Z 36007G13MPS 9999 DRSN SCT036 M18/M26 Q0999 R10/85//45 NOSIG RMK QFE735 R28/02007G12MPS,UHMM,2021-01-18T03:00:00Z,59.92,150.72,-18.0,-26.0,360,14,25,6.21,29.498032,,,,,,TRUE,,,,DRSN,SCT,3600,,,,,,,VFR,,,,,,,,,,,,METAR,175.0
UHMD 180300Z 36006MPS 9999 OVC032 M16/M20 Q1011 RMK QFE758/1010,UHMD,2021-01-18T03:00:00Z,64.38,-173.23,-16.0,-20.0,360,12,,6.21,29.852362,,,,,,,,,,,OVC,3200,,,,,,,VFR,,,,,,,,,,,,METAR,40.0
UHMA 180300Z 01003MPS CAVOK M28/M31 Q1019 R01/60D NOSIG RMK TDZ R01/01003G04MPS END R01/36004G06MPS QFE760/1014,UHMA,2021-01-18T03:00:00Z,64.73,177.73,-28.0,-31.0,10,6,,6.21,30.088583,,,,,,TRUE,,,,,CAVOK,,,,,,,,VFR,,,,,,,,,,,,METAR,53.0
UHHH 180300Z 01003MPS 3700 -SN SCT014 M19/M22 Q1013 R05R/450250 NOSIG RMK QFE753/1005,UHHH,2021-01-18T03:00:00Z,48.52,135.18,-19.0,-22.0,10,6,,2.3,29.911417,,,,,,TRUE,,,,-SN,SCT,1400,,,,,,,IFR,,,,,,,,,,,,METAR,74.0
UHBB 180300Z 01004MPS 9000 FEW033 M27/M30 Q1018 R36/410260 NOSIG RMK QFE746/0994,UHBB,2021-01-18T03:00:00Z,50.43,127.42,-27.0,-30.0,10,8,,5.59,30.059055,,,,,,TRUE,,,,,FEW,3300,,,,,,,VFR,,,,,,,,,,,,METAR,185.0
UGTB 180300Z 32027G37KT CAVOK 05/01 Q1005 NOSIG,UGTB,2021-01-18T03:00:00Z,41.67,44.95,5.0,1.0,320,27,37,6.21,29.675198,,,,,,TRUE,,,,,CAVOK,,,,,,,,VFR,,,,,,,,,,,,METAR,468.0
UGSB 180300Z AUTO 20011KT 170V230 9000 RA BKN012 OVC018 04/03 Q1012 R13/29//55 NOSIG,UGSB,2021-01-18T03:00:00Z,41.62,41.6,4.0,3.0,200,11,,5.59,29.88189,,,TRUE,,,TRUE,,,,RA,BKN,1200,OVC,1800,,,,,MVFR,,,,,,,,,,,,METAR,32.0
UGKO 180300Z 23008KT 9999 -SHRA SCT030CB OVC039 05/04 Q1010 R07/29//50 NOSIG,UGKO,2021-01-18T03:00:00Z,42.18,42.48,5.0,4.0,230,8,,6.21,29.822834,,,,,,TRUE,,,,-SHRA,SCT,3000,OVC,3900,,,,,VFR,,,,,,,,,,,,METAR,44.0
UERR 180300Z 23002MPS 2000 -SN BR SCT006 M41/M44 Q1016 R25/390237 TEMPO 1000 BR RMK QBB180 QFE731/0974,UERR,2021-01-18T03:00:00Z,62.53,114.05,-41.0,-44.0,230,4,,1.24,30.0,,,,,,,,,,-SN BR,SCT,600,,,,,,,IFR,,,,,,,,,,,,METAR,352.0
UERP 180300Z VRB01MPS CAVOK M41/M45 Q1012 R35/490338 NOSIG RMK QFE715,UERP,2021-01-18T03:00:00Z,66.4,112.03,-41.0,-45.0,0,2,,6.21,29.88189,,,,,,TRUE,,,,,CAVOK,,,,,,,,VFR,,,,,,,,,,,,METAR,514.0
UEEE 180300Z 00000MPS 0250 0200SW R23L/0300N FG VV002 M50/M56 Q1027 R23L/450150 NOSIG RMK QBB060 QFE761,UEEE,2021-01-18T03:00:00Z,62.08,129.77,-50.0,-56.0,0,0,,0.16,30.324802,,,,,,TRUE,,,,FG,OVX,0,,,,,,,LIFR,,,,,,,,,,,200,METAR,106.0
UDYZ 180300Z VRB01KT 9999 SCT046 05/M01 Q1004 R09/010070 NOSIG,UDYZ,2021-01-18T03:00:00Z,40.15,44.4,5.0,-1.0,0,1,,6.21,29.64567,,,,,,TRUE,,,,,SCT,4600,,,,,,,VFR,,,,,,,,,,,,METAR,851.0
UDSG 180300Z 00000KT 6000 -SN OVC023 M00/M01 Q1003 R02/////// NOSIG,UDSG,2021-01-18T03:00:00Z,40.75,43.87,0.0,-1.0,0,0,,3.73,29.616142,,,,,,TRUE,,,,-SN,OVC,2300,,,,,,,MVFR,,,,,,,,,,,,METAR,1515.0
UCFO 180300Z 19004MPS 3800 FU NSC 01/M05 Q1011 R12/0///95 NOSIG,UCFO,2021-01-18T03:00:00Z,40.6,72.8,1.0,-5.0,190,8,,2.36,29.852362,,,,,,TRUE,,,,FU,CLR,,,,,,,,IFR,,,,,,,,,,,,METAR,881.0
UCFM 180300Z 12003MPS 090V150 1800 BR FU NSC M05/M06 Q1009 R08/0///95 NOSIG,UCFM,2021-01-18T03:00:00Z,43.07,74.48,-5.0,-6.0,120,6,,1.12,29.793306,,,,,,TRUE,,,,BR FU,CLR,,,,,,,,IFR,,,,,,,,,,,,METAR,632.0
UCFL 180300Z 36004MPS 9999 SCT020CB BKN100 M01/M05 Q1014 R07/CLRD95,UCFL,2021-01-18T03:00:00Z,42.58,76.7,-1.0,-5.0,360,8,,6.21,29.940945,,,,,,,,,,,SCT,2000,BKN,10000,,,,,VFR,,,,,,,,,,,,METAR,1654.0
UBEE 180300Z 32004KT 2000 BR SCT026 OVC100 M01/M02 Q1004 R30/CLRD// NOSIG,UBEE,2021-01-18T03:00:00Z,40.63,47.13,-1.0,-2.0,320,4,,1.24,29.64567,,,,,,TRUE,,,,BR,SCT,2600,OVC,10000,,,,,IFR,,,,,,,,,,,,SPECI,14.0
UBBY 180300Z 18006KT 4000 BR SCT006 SCT100 03/03 Q1005 R33/////// NOSIG RMK MT OBSC,UBBY,2021-01-18T03:00:00Z,41.57,46.67,3.0,3.0,180,6,,2.49,29.675198,,,,,,TRUE,,,,BR,SCT,600,SCT,10000,,,,,IFR,,,,,,,,,,,,METAR,383.0
UBBN 180300Z 08008KT 9999 FEW043 BKN100 06/M01 Q1004 R14R/CLRD// NOSIG RMK MT OP QFE679,UBBN,2021-01-18T03:00:00Z,39.18,45.45,6.0,-1.0,80,8,,6.21,29.64567,,,,,,TRUE,,,,,FEW,4300,BKN,10000,,,,,VFR,,,,,,,,,,,,METAR,857.0
UBBL 180300Z 00000KT 6000 SCT060 02/02 Q1004 R33/CLRD// NOSIG RMK MT OBSC,UBBL,2021-01-18T03:00:00Z,38.75,48.82,2.0,2.0,0,0,,3.73,29.64567,,,,,,TRUE,,,,,SCT,6000,,,,,,,MVFR,,,,,,,,,,,,METAR,-11.0
UBBG 180300Z 25006KT 9999 BKN100 05/M00 Q1003 R30/CLRD// NOSIG,UBBG,2021-01-18T03:00:00Z,40.73,46.32,5.0,0.0,250,6,,6.21,29.616142,,,,,,TRUE,,,,,BKN,10000,,,,,,,VFR,,,,,,,,,,,,SPECI,333.0
UBBB 180300Z 16004KT 9999 SCT006 03/03 Q1003 R88/CLRD// NOSIG,UBBB,2021-01-18T03:00:00Z,40.47,50.07,3.0,3.0,160,4,,6.21,29.616142,,,,,,TRUE,,,,,SCT,600,,,,,,,VFR,,,,,,,,,,,,SPECI,94.0
UAUU 180300Z 26002MPS CAVOK M23/M25 Q1014 R33/810158 NOSIG RMK QFE745/0994,UAUU,2021-01-18T03:00:00Z,53.2,63.55,-23.0,-25.0,260,4,,6.21,29.940945,,,,,,TRUE,,,,,CAVOK,,,,,,,,VFR,,,,,,,,,,,,SPECI,177.0
UATT 180300Z 06003MPS 8000 BKN002 M14/M17 Q1013 R13/0///60 TEMPO 0500 +SHSN VV003 RMK QBB080 QFE740/0987,UATT,2021-01-18T03:00:00Z,50.25,57.2,-14.0,-17.0,60,6,,4.97,29.911417,,,,,,,,,,,BKN,200,,,,,,,LIFR,,,,,,,,,,,,METAR,217.0
UATE 180300Z 11007MPS 9999 -RA OVC010 05/03 Q1001 R12/0///70 NOSIG RMK QFE749/0998,UATE,2021-01-18T03:00:00Z,43.87,51.1,5.0,3.0,110,14,,6.21,29.557087,,,,,,TRUE,,,,-RA,OVC,1000,,,,,,,MVFR,,,,,,,,,,,,METAR,21.0
UASS 180300Z 11005MPS CAVOK M12/M16 Q1015 R08/81//54 NOSIG RMK QFE740/0987,UASS,2021-01-18T03:00:00Z,50.35,80.23,-12.0,-16.0,110,10,,6.21,29.970472,,,,,,TRUE,,,,,CAVOK,,,,,,,,VFR,,,,,,,,,,,,SPECI,215.0
UASP 180300Z 26004MPS CAVOK M06/M09 Q1012 R21/350145 NOSIG RMK QFE748/0997,UASP,2021-01-18T03:00:00Z,52.2,77.07,-6.0,-9.0,260,8,,6.21,29.88189,,,,,,TRUE,,,,,CAVOK,,,,,,,,VFR,,,,,,,,,,,,SPECI,122.0
UASK 180300Z 09002MPS 060V130 3000 BR BCFG BKN220 M19/M23 Q1017 R30/450245 TEMPO 1100 BR SCT003 RMK QFE737/0983,UASK,2021-01-18T03:00:00Z,50.03,82.5,-19.0,-23.0,90,4,,1.86,30.029528,,,,,,,,,,BR BCFG,BKN,22000,,,,,,,IFR,,,,,,,,,,,,METAR,285.0
UARR 180300Z 01003MPS CAVOK M18/M20 Q1015 R04/750345 NOSIG RMK QFE758/1011,UARR,2021-01-18T03:00:00Z,51.15,51.53,-18.0,-20.0,10,6,,6.21,29.970472,,,,,,TRUE,,,,,CAVOK,,,,,,,,VFR,,,,,,,,,,,,SPECI,33.0
UAOO 180300Z 08002MPS CAVOK M11/M12 Q1009 R05/CLRD70 NOSIG RMK QFE746/0994,UAOO,2021-01-18T03:00:00Z,44.7,65.6,-11.0,-12.0,80,4,,6.21,29.793306,,,,,,TRUE,,,,,CAVOK,,,,,,,,VFR,,,,,,,,,,,,SPECI,130.0
UAKK 180300Z 19004MPS 160V220 CAVOK M11/M15 Q1011 R23/3///40 NOSIG RMK QFE712/0949,UAKK,2021-01-18T03:00:00Z,49.68,73.35,-11.0,-15.0,190,8,,6.21,29.852362,,,,,,TRUE,,,,,CAVOK,,,,,,,,VFR,,,,,,,,,,,,SPECI,532.0
UAII 180300Z 15002MPS CAVOK 02/M02 Q1009 R28/0///70 NOSIG RMK QFE720/0960,UAII,2021-01-18T03:00:00Z,42.37,69.48,2.0,-2.0,150,4,,6.21,29.793306,,,,,,TRUE,,,,,CAVOK,,,,,,,,VFR,,,,,,,,,,,,SPECI,410.0
UADD 180300Z 17003MPS 130V200 9999 NSC 01/M05 Q1008 R13/0///65 NOSIG RMK QFE699/0933,UADD,2021-01-18T03:00:00Z,42.85,71.3,1.0,-5.0,170,6,,6.21,29.763779,,,,,,TRUE,,,,,CLR,,,,,,,,VFR,,,,,,,,,,,,SPECI,663.0
UACP 180300Z 24005MPS CAVOK M19/M21 Q1010 R23/3/0148 NOSIG RMK QFE745/0994,UACP,2021-01-18T03:00:00Z,54.78,69.18,-19.0,-21.0,240,10,,6.21,29.822834,,,,,,TRUE,,,,,CAVOK,,,,,,,,VFR,,,,,,,,,,,,SPECI,134.0
UACK 180300Z 26003MPS CAVOK M18/M20 Q1011 NOSIG RMK QFE734/0979,UACK,2021-01-18T03:00:00Z,53.32,69.58,-18.0,-20.0,260,6,,6.21,29.852362,,,,,,TRUE,,,,,CAVOK,,,,,,,,VFR,,,,,,,,,,,,METAR,261.0
UAAT 180300Z 00000MPS 9999 SCT200 M17/M19 Q1011 R02/920360 NOSIG RMK QFE707/0943,UAAT,2021-01-18T03:00:00Z,45.12,78.45,-17.0,-19.0,0,0,,6.21,29.852362,,,,,,TRUE,,,,,SCT,20000,,,,,,,VFR,,,,,,,,,,,,METAR,588.0
UAAH 180300Z 07003MPS CAVOK M12/M13 Q1015 R05/720155 NOSIG RMK QFE724/0965,UAAH,2021-01-18T03:00:00Z,46.9,75.0,-12.0,-13.0,70,6,,6.21,29.970472,,,,,,TRUE,,,,,CAVOK,,,,,,,,VFR,,,,,,,,,,,,SPECI,427.0
UAAA 180300Z 22003MPS 1000 R05L/1300D R05R/1000D BR FU SCT100 BKN200 M09/M11 Q1011 R05L/3///50 R05R/3///45 NOSIG,UAAA,2021-01-18T03:00:00Z,43.35,77.03,-9.0,-11.0,220,6,,0.62,29.852362,,,,,,TRUE,,,,FU BR,SCT,10000,BKN,20000,,,,,LIFR,,,,,,,,,,,,METAR,673.0
TTPP 180300Z 00000KT 9999 FEW016 24/21 Q1012 NOSIG,TTPP,2021-01-18T03:00:00Z,10.58,-61.35,24.0,21.0,0,0,,6.21,29.88189,,,,,,TRUE,,,,,FEW,1600,,,,,,,VFR,,,,,,,,,,,,SPECI,11.0
TTCP 180300Z 06003KT 9999 FEW016 24/21 Q1013 NOSIG,TTCP,2021-01-18T03:00:00Z,11.15,-60.85,24.0,21.0,60,3,,6.21,29.911417,,,,,,TRUE,,,,,FEW,1600,,,,,,,VFR,,,,,,,,,,,,SPECI,13.0
TNCM 180300Z 08010KT 050V110 9999 FEW020 26/21 Q1017 ,TNCM,2021-01-18T03:00:00Z,18.05,-63.12,26.0,21.0,80,10,,6.21,30.029528,,,,,,,,,,,FEW,2000,,,,,,,VFR,,,,,,,,,,,,METAR,9.0
TNCC 180300Z 10011KT 9999 FEW018 26/21 Q1013 NOSIG,TNCC,2021-01-18T03:00:00Z,12.2,-68.97,26.0,21.0,100,11,,6.21,29.911417,,,,,,TRUE,,,,,FEW,1800,,,,,,,VFR,,,,,,,,,,,,METAR,10.0
TNCA 180300Z 09010KT 9999 FEW018 26/21 Q1013 NOSIG,TNCA,2021-01-18T03:00:00Z,12.5,-70.0,26.0,21.0,90,10,,6.21,29.911417,,,,,,TRUE,,,,,FEW,1800,,,,,,,VFR,,,,,,,,,,,,METAR,7.0
TLPL 180300Z 05016KT 9999 BKN023 26/22 Q1014 NOSIG,TLPL,2021-01-18T03:00:00Z,13.75,-60.95,26.0,22.0,50,16,,6.21,29.940945,,,,,,TRUE,,,,,BKN,2300,,,,,,,MVFR,,,,,,,,,,,,METAR,13.0
TGPY 180300Z 08011KT 9999 FEW018 SCT038 25/23 Q1013 NOSIG,TGPY,2021-01-18T03:00:00Z,12.0,-61.78,25.0,23.0,80,11,,6.21,29.911417,,,,,,TRUE,,,,,FEW,1800,SCT,3800,,,,,VFR,,,,,,,,,,,,METAR,12.0
TFFR 180300Z AUTO 08007KT 9999 FEW026 SCT054 OVC064 25/21 Q1016 NOSIG,TFFR,2021-01-18T03:00:00Z,16.27,-61.53,25.0,21.0,80,7,,6.21,30.0,,,TRUE,,,TRUE,,,,,FEW,2600,SCT,5400,OVC,6400,,,VFR,,,,,,,,,,,,METAR,6.0
TFFF 180300Z AUTO 09008KT 9999 FEW015 SCT033 BKN048 23/22 Q1015 TEMPO 4000 SHRA SCT020TCU,TFFF,2021-01-18T03:00:00Z,14.6,-61.0,23.0,22.0,90,8,,6.21,29.970472,,,TRUE,,,,,,,,FEW,1500,SCT,3300,BKN,4800,,,VFR,,,,,,,,,,,,METAR,3.0
TBPB 180300Z 09021KT 9999 BKN018 26/21 Q1013 NOSIG,TBPB,2021-01-18T03:00:00Z,13.07,-59.48,26.0,21.0,90,21,,6.21,29.911417,,,,,,TRUE,,,,,BKN,1800,,,,,,,MVFR,,,,,,,,,,,,METAR,55.0
TAPA 180300Z 08010KT 050V130 9999 FEW018 25/20 Q1016 NOSIG,TAPA,2021-01-18T03:00:00Z,17.13,-61.78,25.0,20.0,80,10,,6.21,30.0,,,,,,TRUE,,,,,FEW,1800,,,,,,,VFR,,,,,,,,,,,,METAR,15.0
SYCJ 180300Z 09004KT 9999 FEW017 24/23 Q1011 NOSIG,SYCJ,2021-01-18T03:00:00Z,6.5,-58.25,24.0,23.0,90,4,,6.21,29.852362,,,,,,TRUE,,,,,FEW,1700,,,,,,,VFR,,,,,,,,,,,,METAR,30.0
SVMI 180300Z 05002KT 9999 SCT016 24/22 Q1014 ,SVMI,2021-01-18T03:00:00Z,10.6,-67.0,24.0,22.0,50,2,,6.21,29.940945,,,,,,,,,,,SCT,1600,,,,,,,VFR,,,,,,,,,,,,METAR,48.0
SUMU 180300Z 22014KT 9999 SCT030 20/12 Q1010 NOSIG,SUMU,2021-01-18T03:00:00Z,-34.83,-56.02,20.0,12.0,220,14,,6.21,29.822834,,,,,,TRUE,,,,,SCT,3000,,,,,,,VFR,,,,,,,,,,,,METAR,32.0
SULS 180300Z 19010G20KT 9999 SCT023 20/15 Q1010,SULS,2021-01-18T03:00:00Z,-34.87,-55.1,20.0,15.0,190,10,20,6.21,29.822834,,,,,,,,,,,SCT,2300,,,,,,,VFR,,,,,,,,,,,,METAR,22.0
SPSO 180300Z 20011KT CAVOK 20/18 Q1012 RMK PP000,SPSO,2021-01-18T03:00:00Z,-13.73,-76.22,20.0,18.0,200,11,,6.21,29.88189,,,,,,,,,,,CAVOK,,,,,,,,VFR,,,,,,,,,,,,SPECI,8.0
SPQT 180300Z 00000KT CAVOK 25/23 Q1008 NOSIG RMK PP000,SPQT,2021-01-18T03:00:00Z,-3.78,-73.32,25.0,23.0,0,0,,6.21,29.763779,,,,,,TRUE,,,,,CAVOK,,,,,,,,VFR,,,,,,,,,,,,SPECI,92.0
SPJC 180300Z 16011KT CAVOK 21/17 Q1012 NOSIG RMK PP000,SPJC,2021-01-18T03:00:00Z,-12.02,-77.12,21.0,17.0,160,11,,6.21,29.88189,,,,,,TRUE,,,,,CAVOK,,,,,,,,VFR,,,,,,,,,,,,SPECI,26.0
SOCA 180300Z AUTO 05008KT 9999 BKN023 BKN052 OVC066 26/24 Q1011 TEMPO 4000 SHRA SCT015TCU BKN026,SOCA,2021-01-18T03:00:00Z,4.82,-52.37,26.0,24.0,50,8,,6.21,29.852362,,,TRUE,,,,,,,,BKN,2300,BKN,5200,OVC,6600,,,MVFR,,,,,,,,,,,,METAR,7.0
SMJP 180300Z 07001KT CAVOK 24/22 Q1011 NOSIG,SMJP,2021-01-18T03:00:00Z,5.45,-55.18,24.0,22.0,70,1,,6.21,29.852362,,,,,,TRUE,,,,,CAVOK,,,,,,,,VFR,,,,,,,,,,,,METAR,14.0
SLVR 180300Z 17010G21KT 9999 FEW023 BKN070 BKN200 21/17 Q1013,SLVR,2021-01-18T03:00:00Z,-17.63,-63.13,21.0,17.0,170,10,21,6.21,29.911417,,,,,,,,,,,FEW,2300,BKN,7000,BKN,20000,,,VFR,,,,,,,,,,,,METAR,377.0
SLLP 180300Z VRB02KT 4000E VCFG FEW003 SCT012 FEW017CB BKN070 06/05 Q1035,SLLP,2021-01-18T03:00:00Z,-16.52,-68.17,6.0,5.0,0,2,,2.49,30.561024,,,,,,,,,,VCFG,FEW,300,SCT,1200,FEW,1700,BKN,7000,IFR,,,,,,,,,,,,METAR,4061.0
SLCB 180300Z 00000KT 9999 FEW010 BKN025 OVC070 14/14 Q1024,SLCB,2021-01-18T03:00:00Z,-17.42,-66.18,14.0,14.0,0,0,,6.21,30.236221,,,,,,,,,,,FEW,1000,BKN,2500,OVC,7000,,,MVFR,,,,,,,,,,,,METAR,2560.0
SKSP 180300Z 03008KT 9999 FEW017 SCT080 26/24 Q1013 RMK A2992,SKSP,2021-01-18T03:00:00Z,12.58,-81.72,26.0,24.0,30,8,,6.21,29.911417,,,,,,,,,,,FEW,1700,SCT,8000,,,,,VFR,,,,,,,,,,,,SPECI,6.0
SKRG 180300Z 05003KT 9999 BKN010 15/15 Q1025 NOSIG RMK A3028,SKRG,2021-01-18T03:00:00Z,6.17,-75.42,15.0,15.0,50,3,,6.21,30.265747,,,,,,TRUE,,,,,BKN,1000,,,,,,,MVFR,,,,,,,,,,,,SPECI,2132.0
SKLT 180300Z 33003KT 9999 SCT010 BKN080 25/24 Q1009 RERA RMK A2982,SKLT,2021-01-18T03:00:00Z,-4.2,-69.93,25.0,24.0,330,3,,6.21,29.793306,,,,,,,,,,,SCT,1000,BKN,8000,,,,,VFR,,,,,,,,,,,,SPECI,78.0
SKCL 180300Z 35006KT 9999 FEW030 22/19 Q1014 NOSIG RMK A2996,SKCL,2021-01-18T03:00:00Z,3.53,-76.37,22.0,19.0,350,6,,6.21,29.940945,,,,,,TRUE,,,,,FEW,3000,,,,,,,VFR,,,,,,,,,,,,SPECI,967.0
SKCG 180300Z 03008KT CAVOK 26/24 Q1009 RMK A2981,SKCG,2021-01-18T03:00:00Z,10.43,-75.52,26.0,24.0,30,8,,6.21,29.793306,,,,,,,,,,,CAVOK,,,,,,,,VFR,,,,,,,,,,,,SPECI,6.0
SKBQ 180300Z 01011G22KT CAVOK 26/22 Q1009 NOSIG RMK A2982,SKBQ,2021-01-18T03:00:00Z,10.87,-74.77,26.0,22.0,10,11,22,6.21,29.793306,,,,,,TRUE,,,,,CAVOK,,,,,,,,VFR,,,,,,,,,,,,METAR,23.0
SKBO 180300Z 34003KT 9999 FEW015 10/10 Q1026 NOSIG RMK A3030,SKBO,2021-01-18T03:00:00Z,4.7,-74.15,10.0,10.0,340,3,,6.21,30.295275,,,,,,TRUE,,,,,FEW,1500,,,,,,,VFR,,,,,,,,,,,,SPECI,2547.0
SGES 180300Z 24013KT 9999 BKN015 24/23 Q1010,SGES,2021-01-18T03:00:00Z,-25.45,-54.85,24.0,23.0,240,13,,6.21,29.822834,,,,,,,,,,,BKN,1500,,,,,,,MVFR,,,,,,,,,,,,METAR,256.0
SGAS 180300Z 22007KT CAVOK 21/19 Q1013,SGAS,2021-01-18T03:00:00Z,-25.25,-57.52,21.0,19.0,220,7,,6.21,29.911417,,,,,,,,,,,CAVOK,,,,,,,,VFR,,,,,,,,,,,,METAR,83.0
SEQM 180300Z 01004KT 9999 BKN005 BKN026 13/12 Q1025 NOSIG RMK A3029,SEQM,2021-01-18T03:00:00Z,-0.12,-78.35,13.0,12.0,10,4,,6.21,30.265747,,,,,,TRUE,,,,,BKN,500,BKN,2600,,,,,IFR,,,,,,,,,,,,SPECI,2386.0
SEMT 180300Z 27004KT 9999 BKN020 26/22 Q1011 RMK A2988,SEMT,2021-01-18T03:00:00Z,-0.95,-80.67,26.0,22.0,270,4,,6.21,29.852362,,,,,,,,,,,BKN,2000,,,,,,,MVFR,,,,,,,,,,,,SPECI,13.0
SELT 180300Z 02006KT 9999 FEW100 09/07 Q1028,SELT,2021-01-18T03:00:00Z,-0.92,-78.62,9.0,7.0,20,6,,6.21,30.35433,,,,,,,,,,,FEW,10000,,,,,,,VFR,,,,,,,,,,,,METAR,2779.0
SEGU 180300Z 22004KT 9999 FEW013 BKN033 26/23 Q1010 NOSIG RMK A2983,SEGU,2021-01-18T03:00:00Z,-2.15,-79.88,26.0,23.0,220,4,,6.21,29.822834,,,,,,TRUE,,,,,FEW,1300,BKN,3300,,,,,VFR,,,,,,,,,,,,SPECI,6.0
SCVD 180300Z AUTO 20004KT 9999 NCD 13/11 Q1018,SCVD,2021-01-18T03:00:00Z,-39.65,-73.08,13.0,11.0,200,4,,6.21,30.059055,,,TRUE,,,,,,,,CLR,,,,,,,,VFR,,,,,,,,,,,,METAR,19.0
SCTN 180300Z AUTO 24003KT 210V340 CAVOK 13/12 Q1020,SCTN,2021-01-18T03:00:00Z,-42.92,-72.7,13.0,12.0,240,3,,6.21,30.11811,,,TRUE,,,,,,,,CAVOK,,,,,,,,VFR,,,,,,,,,,,,METAR,8.0
SCTE 180300Z VRB01KT CAVOK 12/10 Q1020 NOSIG,SCTE,2021-01-18T03:00:00Z,-41.43,-73.08,12.0,10.0,0,1,,6.21,30.11811,,,,,,TRUE,,,,,CAVOK,,,,,,,,VFR,,,,,,,,,,,,METAR,85.0
SCSN 180300Z AUTO 04005KT 010V070 9999 NCD 13/12 Q1012,SCSN,2021-01-18T03:00:00Z,-33.65,-71.62,13.0,12.0,40,5,,6.21,29.88189,,,TRUE,,,,,,,,CLR,,,,,,,,VFR,,,,,,,,,,,,METAR,73.0
SCSE 180300Z AUTO 28009KT 9999 BKN008/// 15/13 Q1014,SCSE,2021-01-18T03:00:00Z,-29.92,-71.2,15.0,13.0,280,9,,6.21,29.940945,,,TRUE,,,,,,,,BKN,800,,,,,,,IFR,,,,,,,,,,,,METAR,141.0
SCRM 180300Z 26013KT 0800 FG OVC002 01/01 Q0991 NOSIG,SCRM,2021-01-18T03:00:00Z,-62.18,-58.98,1.0,1.0,260,13,,0.5,29.26181,,,,,,TRUE,,,,FG,OVC,200,,,,,,,LIFR,,,,,,,,,,,,METAR,45.0
SCQP 180300Z AUTO 27003KT 240V300 CAVOK 12/12 Q1017,SCQP,2021-01-18T03:00:00Z,-38.92,-72.65,12.0,12.0,270,3,,6.21,30.029528,,,TRUE,,,,,,,,CAVOK,,,,,,,,VFR,,,,,,,,,,,,METAR,97.0
SCPQ 180300Z AUTO VRB02KT CAVOK 12/11 Q1020,SCPQ,2021-01-18T03:00:00Z,-42.33,-73.72,12.0,11.0,0,2,,6.21,30.11811,,,TRUE,,,,,,,,CAVOK,,,,,,,,VFR,,,,,,,,,,,,METAR,166.0
SCON 180300Z AUTO 00000KT 9999 FEW036/// OVC062/// 13/12 Q1020,SCON,2021-01-18T03:00:00Z,-43.13,-73.62,13.0,12.0,0,0,,6.21,30.11811,,,TRUE,,,,,,,,FEW,3600,OVC,6200,,,,,VFR,,,,,,,,,,,,METAR,11.0
SCMK 180300Z AUTO 36007KT 330V040 //// // BKN011/// OVC020/// 13/12 Q1019,SCMK,2021-01-18T03:00:00Z,-43.9,-73.73,13.0,12.0,360,7,,,30.088583,,,TRUE,,,,,,,,BKN,1100,OVC,2000,,,,,,,,,,,,,,,,,METAR,22.0
SCJO 180300Z AUTO 00000KT 9999 ///////// 14/// Q1019,SCJO,2021-01-18T03:00:00Z,-40.6,-73.05,,,0,0,,6.21,30.088583,,,TRUE,,,,,,,,,,,,,,,,,,,,,,,,,,,,SPECI,61.0
SCIP 180300Z 09007KT 9999 SCT021 23/19 Q1023 NOSIG,SCIP,2021-01-18T03:00:00Z,-27.17,-109.43,23.0,19.0,90,7,,6.21,30.206694,,,,,,TRUE,,,,,SCT,2100,,,,,,,VFR,,,,,,,,,,,,METAR,48.0
SCIE 180300Z AUTO 22010KT 9999 NCD 15/12 Q1013,SCIE,2021-01-18T03:00:00Z,-36.77,-73.07,15.0,12.0,220,10,,6.21,29.911417,,,TRUE,,,,,,,,CLR,,,,,,,,VFR,,,,,,,,,,,,METAR,8.0
SCIC 180300Z AUTO 19005KT 9999 NCD 22/08 Q1011,SCIC,2021-01-18T03:00:00Z,-34.97,-71.22,22.0,8.0,190,5,,6.21,29.852362,,,TRUE,,,,,,,,CLR,,,,,,,,VFR,,,,,,,,,,,,METAR,230.0
SCFT 180300Z AUTO 25004KT 150V290 9999 BKN059/// 16/07 Q1018,SCFT,2021-01-18T03:00:00Z,-43.18,-71.85,16.0,7.0,250,4,,6.21,30.059055,,,TRUE,,,,,,,,BKN,5900,,,,,,,VFR,,,,,,,,,,,,METAR,345.0
SCFA 180300Z 20004KT CAVOK 18/15 Q1014 NOSIG,SCFA,2021-01-18T03:00:00Z,-23.43,-70.43,18.0,15.0,200,4,,6.21,29.940945,,,,,,TRUE,,,,,CAVOK,,,,,,,,VFR,,,,,,,,,,,,METAR,113.0
SCEL 180300Z AUTO 16007KT 9999 NCD 22/07 Q1012,SCEL,2021-01-18T03:00:00Z,-33.38,-70.78,22.0,7.0,160,7,,6.21,29.88189,,,TRUE,,,,,,,,CLR,,,,,,,,VFR,,,,,,,,,,,,METAR,478.0
SCDA 180300Z 20009KT CAVOK 21/15 Q1013,SCDA,2021-01-18T03:00:00Z,-20.53,-70.17,21.0,15.0,200,9,,6.21,29.911417,,,,,,,,,,,CAVOK,,,,,,,,VFR,,,,,,,,,,,,METAR,41.0
SCCY 180300Z AUTO VRB02KT 9999 OVC048 14/09 Q1013,SCCY,2021-01-18T03:00:00Z,-45.58,-72.1,14.0,9.0,0,2,,6.21,29.911417,,,TRUE,,,,,,,,OVC,4800,,,,,,,VFR,,,,,,,,,,,,METAR,301.0
SCCH 180300Z 21012KT CAVOK 22/11 Q1012,SCCH,2021-01-18T03:00:00Z,-36.57,-72.02,22.0,11.0,210,12,,6.21,29.88189,,,,,,,,,,,CAVOK,,,,,,,,VFR,,,,,,,,,,,,METAR,148.0
SCCF 180300Z AUTO 24011KT CAVOK 13/M01 Q1025,SCCF,2021-01-18T03:00:00Z,-22.5,-68.9,13.0,-1.0,240,11,,6.21,30.265747,,,TRUE,,,,,,,,CAVOK,,,,,,,,VFR,,,,,,,,,,,,METAR,2290.0
SCAT 180300Z AUTO 00000KT 9000 OVC015/// 16/13 Q1014,SCAT,2021-01-18T03:00:00Z,-27.27,-70.77,16.0,13.0,0,0,,5.59,29.940945,,,TRUE,,,,,,,,OVC,1500,,,,,,,MVFR,,,,,,,,,,,,METAR,209.0
SCAR 180300Z 00000KT CAVOK 21/15 Q1013,SCAR,2021-01-18T03:00:00Z,-18.35,-70.33,21.0,15.0,0,0,,6.21,29.911417,,,,,,,,,,,CAVOK,,,,,,,,VFR,,,,,,,,,,,,METAR,57.0
SBVT 180300Z 32004KT 9999 SCT025 24/22 Q1014,SBVT,2021-01-18T03:00:00Z,-20.25,-40.28,24.0,22.0,320,4,,6.21,29.940945,,,,,,,,,,,SCT,2500,,,,,,,VFR,,,,,,,,,,,,METAR,4.0
SBUL 180300Z 06004KT CAVOK 21/18 Q1016,SBUL,2021-01-18T03:00:00Z,-18.87,-48.22,21.0,18.0,60,4,,6.21,30.0,,,,,,,,,,,CAVOK,,,,,,,,VFR,,,,,,,,,,,,METAR,945.0
SBTF 180300Z 13002KT CAVOK 25/25 Q1010,SBTF,2021-01-18T03:00:00Z,-3.37,-64.72,25.0,25.0,130,2,,6.21,29.822834,,,,,,,,,,,CAVOK,,,,,,,,VFR,,,,,,,,,,,,METAR,55.0
SBTE 180300Z 32005KT 9999 FEW006 OVC070 24/23 Q1010,SBTE,2021-01-18T03:00:00Z,-5.05,-42.82,24.0,23.0,320,5,,6.21,29.822834,,,,,,,,,,,FEW,600,OVC,7000,,,,,VFR,,,,,,,,,,,,METAR,60.0
SBSV 180300Z 10011KT 9999 SCT017 27/22 Q1012,SBSV,2021-01-18T03:00:00Z,-12.9,-38.32,27.0,22.0,100,11,,6.21,29.88189,,,,,,,,,,,SCT,1700,,,,,,,VFR,,,,,,,,,,,,METAR,9.0
SBSP 180300Z AUTO 32007KT 9999 // FEW140/// OVC200/// 22/18 Q1015,SBSP,2021-01-18T03:00:00Z,-23.62,-46.65,22.0,18.0,320,7,,6.21,29.970472,,,TRUE,,,,,,,,FEW,14000,OVC,20000,,,,,VFR,,,,,,,,,,,,METAR,802.0
SBSN 180300Z 00000KT 9999 FEW020 24/23 Q1009,SBSN,2021-01-18T03:00:00Z,-2.42,-54.78,24.0,23.0,0,0,,6.21,29.793306,,,,,,,,,,,FEW,2000,,,,,,,VFR,,,,,,,,,,,,METAR,57.0
SBSM 180300Z 26004KT 9999 FEW045 20/16 Q1011,SBSM,2021-01-18T03:00:00Z,-29.72,-53.7,20.0,16.0,260,4,,6.21,29.852362,,,,,,,,,,,FEW,4500,,,,,,,VFR,,,,,,,,,,,,METAR,86.0
SBSL 180300Z 19003KT 9999 FEW015 24/24 Q1010,SBSL,2021-01-18T03:00:00Z,-2.58,-44.23,24.0,24.0,190,3,,6.21,29.822834,,,,,,,,,,,FEW,1500,,,,,,,VFR,,,,,,,,,,,,METAR,53.0
SBSJ 180300Z 17003KT CAVOK 23/19 Q1014,SBSJ,2021-01-18T03:00:00Z,-23.22,-45.87,23.0,19.0,170,3,,6.21,29.940945,,,,,,,,,,,CAVOK,,,,,,,,VFR,,,,,,,,,,,,METAR,640.0
SBSG 180300Z 19003KT 150V230 9999 FEW023 24/21 Q1011,SBSG,2021-01-18T03:00:00Z,-5.77,-35.37,24.0,21.0,190,3,,6.21,29.852362,,,,,,,,,,,FEW,2300,,,,,,,VFR,,,,,,,,,,,,METAR,83.0
SBSC 180300Z 36010KT 9999 FEW025 BKN100 30/19 Q1010,SBSC,2021-01-18T03:00:00Z,-22.92,-43.72,30.0,19.0,360,10,,6.21,29.822834,,,,,,,,,,,FEW,2500,BKN,10000,,,,,VFR,,,,,,,,,,,,METAR,6.0
SBRP 180300Z 00000KT CAVOK 23/20 Q1013,SBRP,2021-01-18T03:00:00Z,-21.13,-47.77,23.0,20.0,0,0,,6.21,29.911417,,,,,,,,,,,CAVOK,,,,,,,,VFR,,,,,,,,,,,,METAR,550.0
SBRF 180300Z 13009KT 9999 FEW020 25/20 Q1011,SBRF,2021-01-18T03:00:00Z,-8.13,-34.92,25.0,20.0,130,9,,6.21,29.852362,,,,,,,,,,,FEW,2000,,,,,,,VFR,,,,,,,,,,,,METAR,10.0
SBRB 180300Z 06003KT 9999 FEW020 25/25 Q1009,SBRB,2021-01-18T03:00:00Z,-9.87,-67.88,25.0,25.0,60,3,,6.21,29.793306,,,,,,,,,,,FEW,2000,,,,,,,VFR,,,,,,,,,,,,METAR,190.0
SBPV 180300Z 10004KT 9999 FEW020 26/25 Q1009,SBPV,2021-01-18T03:00:00Z,-8.72,-63.9,26.0,25.0,100,4,,6.21,29.793306,,,,,,,,,,,FEW,2000,,,,,,,VFR,,,,,,,,,,,,METAR,89.0
SBPS 180300Z 09007KT 9999 FEW015 BKN020 25/21 Q1013,SBPS,2021-01-18T03:00:00Z,-16.43,-39.07,25.0,21.0,90,7,,6.21,29.911417,,,,,,,,,,,FEW,1500,BKN,2000,,,,,MVFR,,,,,,,,,,,,METAR,44.0
SBPJ 180300Z 11002KT 9999 FEW025 25/24 Q1011,SBPJ,2021-01-18T03:00:00Z,-10.28,-48.37,25.0,24.0,110,2,,6.21,29.852362,,,,,,,,,,,FEW,2500,,,,,,,VFR,,,,,,,,,,,,METAR,226.0
SBPA 180300Z 15004KT 120V200 9000 BKN013 BKN050 OVC070 23/23 Q1009,SBPA,2021-01-18T03:00:00Z,-30.0,-51.17,23.0,23.0,150,4,,5.59,29.793306,,,,,,,,,,,BKN,1300,BKN,5000,OVC,7000,,,MVFR,,,,,,,,,,,,METAR,3.0
SBNT 180300Z 13009KT 9999 FEW025 26/22 Q1010,SBNT,2021-01-18T03:00:00Z,-5.92,-35.25,26.0,22.0,130,9,,6.21,29.822834,,,,,,,,,,,FEW,2500,,,,,,,VFR,,,,,,,,,,,,METAR,51.0
SBMQ 180300Z 34004KT 9999 FEW020 26/24 Q1010,SBMQ,2021-01-18T03:00:00Z,0.05,-51.07,26.0,24.0,340,4,,6.21,29.822834,,,,,,,,,,,FEW,2000,,,,,,,VFR,,,,,,,,,,,,METAR,15.0
SBMO 180300Z 14003KT CAVOK 24/21 Q1012,SBMO,2021-01-18T03:00:00Z,-9.52,-35.78,24.0,21.0,140,3,,6.21,29.88189,,,,,,,,,,,CAVOK,,,,,,,,VFR,,,,,,,,,,,,METAR,116.0
SBMN 180300Z 26001KT CAVOK 28/25 Q1010,SBMN,2021-01-18T03:00:00Z,-3.13,-59.98,28.0,25.0,260,1,,6.21,29.822834,,,,,,,,,,,CAVOK,,,,,,,,VFR,,,,,,,,,,,,METAR,71.0
SBMK 180300Z 17004KT CAVOK 23/14 Q1015,SBMK,2021-01-18T03:00:00Z,-16.7,-43.82,23.0,14.0,170,4,,6.21,29.970472,,,,,,,,,,,CAVOK,,,,,,,,VFR,,,,,,,,,,,,METAR,665.0
SBMG 180300Z 02007KT 9000 -RA FEW004 BKN015 22/22 Q1009,SBMG,2021-01-18T03:00:00Z,-23.48,-52.02,22.0,22.0,20,7,,5.59,29.793306,,,,,,,,,,-RA,FEW,400,BKN,1500,,,,,MVFR,,,,,,,,,,,,METAR,543.0
SBME 180300Z 06008KT CAVOK 25/23 Q1012,SBME,2021-01-18T03:00:00Z,-22.35,-41.77,25.0,23.0,60,8,,6.21,29.88189,,,,,,,,,,,CAVOK,,,,,,,,VFR,,,,,,,,,,,,METAR,2.0
SBLS 180300Z 14007KT CAVOK 20/16 Q1017,SBLS,2021-01-18T03:00:00Z,-19.67,-43.88,20.0,16.0,140,7,,6.21,30.029528,,,,,,,,,,,CAVOK,,,,,,,,VFR,,,,,,,,,,,,METAR,850.0
SBKP 180300Z 00000KT CAVOK 22/21 Q1014,SBKP,2021-01-18T03:00:00Z,-23.0,-47.13,22.0,21.0,0,0,,6.21,29.940945,,,,,,,,,,,CAVOK,,,,,,,,VFR,,,,,,,,,,,,METAR,659.0
SBKG 180300Z 11009KT CAVOK 23/20 Q1013,SBKG,2021-01-18T03:00:00Z,-7.27,-35.88,23.0,20.0,110,9,,6.21,29.911417,,,,,,,,,,,CAVOK,,,,,,,,VFR,,,,,,,,,,,,METAR,499.0
SBJU 180300Z 18004KT 9999 SCT019 27/16 Q1013,SBJU,2021-01-18T03:00:00Z,-7.22,-39.27,27.0,16.0,180,4,,6.21,29.911417,,,,,,,,,,,SCT,1900,,,,,,,VFR,,,,,,,,,,,,METAR,407.0
SBJP 180300Z 05005KT 9999 FEW020 24/22 Q1011,SBJP,2021-01-18T03:00:00Z,-7.15,-34.95,24.0,22.0,50,5,,6.21,29.852362,,,,,,,,,,,FEW,2000,,,,,,,VFR,,,,,,,,,,,,METAR,66.0
SBIL 180300Z 11004KT 9999 FEW023 26/23 Q1013,SBIL,2021-01-18T03:00:00Z,-14.8,-39.02,26.0,23.0,110,4,,6.21,29.911417,,,,,,,,,,,FEW,2300,,,,,,,VFR,,,,,,,,,,,,METAR,9.0
SBGR 180300Z 32008KT CAVOK 23/20 Q1014,SBGR,2021-01-18T03:00:00Z,-23.42,-46.47,23.0,20.0,320,8,,6.21,29.940945,,,,,,,,,,,CAVOK,,,,,,,,VFR,,,,,,,,,,,,METAR,745.0
SBGO 180300Z 29002KT CAVOK 23/21 Q1015,SBGO,2021-01-18T03:00:00Z,-16.62,-49.22,23.0,21.0,290,2,,6.21,29.970472,,,,,,,,,,,CAVOK,,,,,,,,VFR,,,,,,,,,,,,METAR,740.0
SBGL 180300Z 13005KT CAVOK 26/20 Q1009,SBGL,2021-01-18T03:00:00Z,-22.82,-43.25,26.0,20.0,130,5,,6.21,29.793306,,,,,,,,,,,CAVOK,,,,,,,,VFR,,,,,,,,,,,,METAR,3.0
SBFZ 180300Z 07008KT 9999 BKN024 27/23 Q1010,SBFZ,2021-01-18T03:00:00Z,-3.77,-38.52,27.0,23.0,70,8,,6.21,29.822834,,,,,,,,,,,BKN,2400,,,,,,,MVFR,,,,,,,,,,,,METAR,32.0
SBFN 180300Z AUTO 13009KT 9999 FEW017 26/22 Q1010,SBFN,2021-01-18T03:00:00Z,-3.85,-32.42,26.0,22.0,130,9,,6.21,29.822834,,,TRUE,,,,,,,,FEW,1700,,,,,,,VFR,,,,,,,,,,,,METAR,52.0
SBFL 180300Z 06001KT 9999 FEW020 BKN040 25/24 Q1006,SBFL,2021-01-18T03:00:00Z,-27.67,-48.53,25.0,24.0,60,1,,6.21,29.704725,,,,,,,,,,,FEW,2000,BKN,4000,,,,,VFR,,,,,,,,,,,,METAR,5.0
SBFI 180300Z 22003KT CAVOK 23/23 Q1010,SBFI,2021-01-18T03:00:00Z,-25.6,-54.48,23.0,23.0,220,3,,6.21,29.822834,,,,,,,,,,,CAVOK,,,,,,,,VFR,,,,,,,,,,,,METAR,233.0
SBEG 180300Z 00000KT CAVOK 25/24 Q1010,SBEG,2021-01-18T03:00:00Z,-3.03,-60.03,25.0,24.0,0,0,,6.21,29.822834,,,,,,,,,,,CAVOK,,,,,,,,VFR,,,,,,,,,,,,METAR,69.0
SBCY 180300Z 33005KT CAVOK 25/22 Q1011,SBCY,2021-01-18T03:00:00Z,-15.65,-56.12,25.0,22.0,330,5,,6.21,29.852362,,,,,,,,,,,CAVOK,,,,,,,,VFR,,,,,,,,,,,,METAR,182.0
SBCT 180300Z 34008KT 9999 BKN008 OVC010 21/20 Q1013,SBCT,2021-01-18T03:00:00Z,-25.52,-49.17,21.0,20.0,340,8,,6.21,29.911417,,,,,,,,,,,BKN,800,OVC,1000,,,,,IFR,,,,,,,,,,,,METAR,914.0
SBCO 180300Z 03002KT 7000 BKN012 BKN040 BKN047 22/21 Q1009,SBCO,2021-01-18T03:00:00Z,-29.95,-51.15,22.0,21.0,30,2,,4.35,29.793306,,,,,,,,,,,BKN,1200,BKN,4000,BKN,4700,,,MVFR,,,,,,,,,,,,METAR,8.0
SBCH 180300Z 18010KT 9999 SCT015 BKN080 22/19 Q1011,SBCH,2021-01-18T03:00:00Z,-27.13,-52.67,22.0,19.0,180,10,,6.21,29.852362,,,,,,,,,,,SCT,1500,BKN,8000,,,,,VFR,,,,,,,,,,,,METAR,639.0
SBCG 180300Z 01008KT 9999 SCT040 FEW050TCU BKN090 22/20 Q1011,SBCG,2021-01-18T03:00:00Z,-20.47,-54.67,22.0,20.0,10,8,,6.21,29.852362,,,,,,,,,,,SCT,4000,FEW,5000,BKN,9000,,,VFR,,,,,,,,,,,,METAR,556.0
SBCF 180300Z 09005KT CAVOK 21/15 Q1017,SBCF,2021-01-18T03:00:00Z,-19.63,-43.97,21.0,15.0,90,5,,6.21,30.029528,,,,,,,,,,,CAVOK,,,,,,,,VFR,,,,,,,,,,,,METAR,825.0
SBBV 180300Z 13010KT 9999 FEW030 OVC070 28/21 Q1010,SBBV,2021-01-18T03:00:00Z,2.85,-60.7,28.0,21.0,130,10,,6.21,29.822834,,,,,,,,,,,FEW,3000,OVC,7000,,,,,VFR,,,,,,,,,,,,METAR,80.0
SBBR 180300Z 09003KT CAVOK 21/18 Q1018,SBBR,2021-01-18T03:00:00Z,-15.87,-47.92,21.0,18.0,90,3,,6.21,30.059055,,,,,,,,,,,CAVOK,,,,,,,,VFR,,,,,,,,,,,,METAR,1051.0
SBBH 180300Z 10004KT CAVOK 20/14 Q1017,SBBH,2021-01-18T03:00:00Z,-19.85,-43.95,20.0,14.0,100,4,,6.21,30.029528,,,,,,,,,,,CAVOK,,,,,,,,VFR,,,,,,,,,,,,METAR,799.0
SBBG 180300Z AUTO 22006KT CAVOK 17/13 Q1011,SBBG,2021-01-18T03:00:00Z,-31.38,-54.12,17.0,13.0,220,6,,6.21,29.852362,,,TRUE,,,,,,,,CAVOK,,,,,,,,VFR,,,,,,,,,,,,METAR,182.0
SBBE 180300Z 06008KT CAVOK 25/24 Q1010,SBBE,2021-01-18T03:00:00Z,-1.37,-48.47,25.0,24.0,60,8,,6.21,29.822834,,,,,,,,,,,CAVOK,,,,,,,,VFR,,,,,,,,,,,,METAR,16.0
SBAU 180300Z 04007KT CAVOK 23/21 Q1011,SBAU,2021-01-18T03:00:00Z,-21.13,-50.43,23.0,21.0,40,7,,6.21,29.852362,,,,,,,,,,,CAVOK,,,,,,,,VFR,,,,,,,,,,,,METAR,415.0
SBAR 180300Z 12009KT 9999 SCT018 27/22 Q1011,SBAR,2021-01-18T03:00:00Z,-10.98,-37.07,27.0,22.0,120,9,,6.21,29.852362,,,,,,,,,,,SCT,1800,,,,,,,VFR,,,,,,,,,,,,METAR,4.0
SBAN 180300Z 34002KT CAVOK 20/19 Q1018,SBAN,2021-01-18T03:00:00Z,-16.22,-48.97,20.0,19.0,340,2,,6.21,30.059055,,,,,,,,,,,CAVOK,,,,,,,,VFR,,,,,,,,,,,,METAR,1131.0
SAZS 180300Z 26010KT CAVOK 14/08 Q1017,SAZS,2021-01-18T03:00:00Z,-41.15,-71.17,14.0,8.0,260,10,,6.21,30.029528,,,,,,,,,,,CAVOK,,,,,,,,VFR,,,,,,,,,,,,METAR,843.0
SAZN 180300Z 18002KT CAVOK 23/10 Q1010,SAZN,2021-01-18T03:00:00Z,-38.95,-68.15,23.0,10.0,180,2,,6.21,29.822834,,,,,,,,,,,CAVOK,,,,,,,,VFR,,,,,,,,,,,,METAR,273.0
SAZM 180300Z 25004KT CAVOK 14/12 Q1010,SAZM,2021-01-18T03:00:00Z,-37.92,-57.57,14.0,12.0,250,4,,6.21,29.822834,,,,,,,,,,,CAVOK,,,,,,,,VFR,,,,,,,,,,,,METAR,17.0
SAWH 180300Z 23032G45KT 9999 SCT045 08/05 Q0989 RE-DZ,SAWH,2021-01-18T03:00:00Z,-54.85,-68.3,8.0,5.0,230,32,45,6.21,29.202755,,,,,,,,,,-DZ,SCT,4500,,,,,,,VFR,,,,,,,,,,,,METAR,22.0
SAWG 180300Z 23023G33KT CAVOK 14/04 Q1000,SAWG,2021-01-18T03:00:00Z,-51.62,-69.27,14.0,4.0,230,23,33,6.21,29.52756,,,,,,,,,,,CAVOK,,,,,,,,VFR,,,,,,,,,,,,METAR,15.0
SAWE 180300Z 27025G37KT CAVOK 11/08 Q0992,SAWE,2021-01-18T03:00:00Z,-53.78,-67.75,11.0,8.0,270,25,37,6.21,29.291338,,,,,,,,,,,CAVOK,,,,,,,,VFR,,,,,,,,,,,,METAR,22.0
SAVC 180300Z 29016KT CAVOK 22/09 Q1005,SAVC,2021-01-18T03:00:00Z,-45.78,-67.47,22.0,9.0,290,16,,6.21,29.675198,,,,,,,,,,,CAVOK,,,,,,,,VFR,,,,,,,,,,,,METAR,58.0
SASJ 180300Z 18008KT 9999 FEW020 SCT100 19/17 Q1020,SASJ,2021-01-18T03:00:00Z,-24.38,-65.1,19.0,17.0,180,8,,6.21,30.11811,,,,,,,,,,,FEW,2000,SCT,10000,,,,,VFR,,,,,,,,,,,,METAR,913.0
SASA 180300Z 34005KT CAVOK 17/14 Q1021,SASA,2021-01-18T03:00:00Z,-24.85,-65.48,17.0,14.0,340,5,,6.21,30.147638,,,,,,,,,,,CAVOK,,,,,,,,VFR,,,,,,,,,,,,METAR,1235.0
SARI 180300Z 23004KT 9999 FEW025 23/22 Q1010,SARI,2021-01-18T03:00:00Z,-25.73,-54.47,23.0,22.0,230,4,,6.21,29.822834,,,,,,,,,,,FEW,2500,,,,,,,VFR,,,,,,,,,,,,METAR,268.0
SARF 180300Z 23004KT CAVOK 21/18 Q1012,SARF,2021-01-18T03:00:00Z,-26.22,-58.22,21.0,18.0,230,4,,6.21,29.88189,,,,,,,,,,,CAVOK,,,,,,,,VFR,,,,,,,,,,,,METAR,65.0
SARE 180300Z 19006KT CAVOK 18/14 Q1013,SARE,2021-01-18T03:00:00Z,-27.43,-59.05,18.0,14.0,190,6,,6.21,29.911417,,,,,,,,,,,CAVOK,,,,,,,,VFR,,,,,,,,,,,,METAR,52.0
SANT 180300Z 05004KT CAVOK 19/16 Q1016,SANT,2021-01-18T03:00:00Z,-26.85,-65.1,19.0,16.0,50,4,,6.21,30.0,,,,,,,,,,,CAVOK,,,,,,,,VFR,,,,,,,,,,,,METAR,446.0
SAME 180300Z 36004KT CAVOK 23/05 Q1015,SAME,2021-01-18T03:00:00Z,-32.82,-68.78,23.0,5.0,360,4,,6.21,29.970472,,,,,,,,,,,CAVOK,,,,,,,,VFR,,,,,,,,,,,,METAR,709.0
SAEZ 180300Z 25002KT CAVOK 16/12 Q1012 NOSIG,SAEZ,2021-01-18T03:00:00Z,-34.82,-58.53,16.0,12.0,250,2,,6.21,29.88189,,,,,,TRUE,,,,,CAVOK,,,,,,,,VFR,,,,,,,,,,,,METAR,16.0
SADF 180300Z 23002KT CAVOK 17/11 Q1012,SADF,2021-01-18T03:00:00Z,-34.45,-58.58,17.0,11.0,230,2,,6.21,29.88189,,,,,,,,,,,CAVOK,,,,,,,,VFR,,,,,,,,,,,,METAR,4.0
SACO 180300Z 33006KT CAVOK 15/12 Q1017 NOSIG,SACO,2021-01-18T03:00:00Z,-31.32,-64.22,15.0,12.0,330,6,,6.21,30.029528,,,,,,TRUE,,,,,CAVOK,,,,,,,,VFR,,,,,,,,,,,,METAR,474.0
SABE 180300Z 20003KT CAVOK 22/12 Q1012,SABE,2021-01-18T03:00:00Z,-34.57,-58.42,22.0,12.0,200,3,,6.21,29.88189,,,,,,,,,,,CAVOK,,,,,,,,VFR,,,,,,,,,,,,METAR,3.0
SAAR 180300Z 00000KT CAVOK 17/12 Q1013,SAAR,2021-01-18T03:00:00Z,-32.92,-60.77,17.0,12.0,0,0,,6.21,29.911417,,,,,,,,,,,CAVOK,,,,,,,,VFR,,,,,,,,,,,,METAR,24.0
RPVP 180300Z 09004KT 9999 FEW019 OVC080 29/23 Q1009 RMK A2980,RPVP,2021-01-18T03:00:00Z,9.75,118.75,29.0,23.0,90,4,,6.21,29.793306,,,,,,,,,,,FEW,1900,OVC,8000,,,,,VFR,,,,,,,,,,,,METAR,15.0
RPVM 180300Z 02013KT 9999 SCT020 OVC100 28/24 Q1009 RMK A2980,RPVM,2021-01-18T03:00:00Z,10.32,123.98,28.0,24.0,20,13,,6.21,29.793306,,,,,,,,,,,SCT,2000,OVC,10000,,,,,VFR,,,,,,,,,,,,METAR,9.0
RPVD 180300Z 32010KT 9999 SCT015 OVC070 28/24 Q1008 RMK A2977,RPVD,2021-01-18T03:00:00Z,9.33,123.3,28.0,24.0,320,10,,6.21,29.763779,,,,,,,,,,,SCT,1500,OVC,7000,,,,,VFR,,,,,,,,,,,,METAR,11.0
RPMZ 180300Z 08006KT 9000 -RA SCT017 OVC080 25/24 Q1008 RMK A2977,RPMZ,2021-01-18T03:00:00Z,6.92,122.07,25.0,24.0,80,6,,5.59,29.763779,,,,,,,,,,-RA,SCT,1700,OVC,8000,,,,,VFR,,,,,,,,,,,,METAR,8.0
RPMR 180300Z 02005KT 9999 -SHRA SCT018 OVC080 25/23 Q1007 RMK A2974,RPMR,2021-01-18T03:00:00Z,6.05,125.1,25.0,23.0,20,5,,6.21,29.734253,,,,,,,,,,-SHRA,SCT,1800,OVC,8000,,,,,VFR,,,,,,,,,,,,METAR,47.0
RPLL 180300Z 04008KT 360V080 9999 FEW025 BKN100 28/22 Q1011 NOSIG RMK A2985,RPLL,2021-01-18T03:00:00Z,14.52,121.0,28.0,22.0,40,8,,6.21,29.852362,,,,,,TRUE,,,,,FEW,2500,BKN,10000,,,,,VFR,,,,,,,,,,,,METAR,15.0
RPLI 180300Z 04015KT 9999 FEW018 BKN018 BKN090 28/18 Q1013 NOSIG RMK A2991,RPLI,2021-01-18T03:00:00Z,18.17,120.52,28.0,18.0,40,15,,6.21,29.911417,,,,,,TRUE,,,,,FEW,1800,BKN,1800,BKN,9000,,,MVFR,,,,,,,,,,,,METAR,5.0
RPLC 180300Z 02008KT 9999 SCT020 BKN100 28/18 Q1013 NOSIG RMK A2991,RPLC,2021-01-18T03:00:00Z,15.18,120.55,28.0,18.0,20,8,,6.21,29.911417,,,,,,TRUE,,,,,SCT,2000,BKN,10000,,,,,VFR,,,,,,,,,,,,METAR,138.0
RPLB 180300Z 05011KT 9999 FEW020 BKN080 28/19 Q1012 NOSIG RMK A2988,RPLB,2021-01-18T03:00:00Z,14.8,120.27,28.0,19.0,50,11,,6.21,29.88189,,,,,,TRUE,,,,,FEW,2000,BKN,8000,,,,,VFR,,,,,,,,,,,,METAR,19.0
ROYN 180300Z AUTO 04015KT 9999 FEW038 SCT041 OVC047 17/09 Q1023,ROYN,2021-01-18T03:00:00Z,24.47,122.97,17.0,9.0,40,15,,6.21,30.206694,,,TRUE,,,,,,,,FEW,3800,SCT,4100,OVC,4700,,,VFR,,,,,,,,,,,,METAR,21.0
RORY 180300Z AUTO 35011KT 330V030 9999 FEW038 SCT044 OVC060 16/07 Q1022,RORY,2021-01-18T03:00:00Z,27.05,128.4,16.0,7.0,350,11,,6.21,30.177166,,,TRUE,,,,,,,,FEW,3800,SCT,4400,OVC,6000,,,VFR,,,,,,,,,,,,METAR,13.0
RORS 180300Z 01014KT 9999 SCT035 BKN047 16/09 Q1023,RORS,2021-01-18T03:00:00Z,24.82,125.15,16.0,9.0,10,14,,6.21,30.206694,,,,,,,,,,,SCT,3500,BKN,4700,,,,,VFR,,,,,,,,,,,,METAR,13.0
RORK 180300Z AUTO 35011KT 9999 FEW039 SCT050 BKN070 19/10 Q1020,RORK,2021-01-18T03:00:00Z,25.93,131.32,19.0,10.0,350,11,,6.21,30.11811,,,TRUE,,,,,,,,FEW,3900,SCT,5000,BKN,7000,,,VFR,,,,,,,,,,,,METAR,11.0
ROMY 180300Z 01010KT 9999 FEW032 BKN050 17/09 Q1023,ROMY,2021-01-18T03:00:00Z,24.78,125.27,17.0,9.0,10,10,,6.21,30.206694,,,,,,,,,,,FEW,3200,BKN,5000,,,,,VFR,,,,,,,,,,,,METAR,38.0
ROMD 180300Z AUTO 36010KT 330V040 9999 SCT038 BKN043 BKN070 19/09 Q1021,ROMD,2021-01-18T03:00:00Z,25.83,131.25,19.0,9.0,360,10,,6.21,30.147638,,,TRUE,,,,,,,,SCT,3800,BKN,4300,BKN,7000,,,VFR,,,,,,,,,,,,METAR,45.0
ROIG 180300Z 04015KT 9999 FEW035 SCT044 17/09 Q1023,ROIG,2021-01-18T03:00:00Z,24.33,124.18,17.0,9.0,40,15,,6.21,30.206694,,,,,,,,,,,FEW,3500,SCT,4400,,,,,VFR,,,,,,,,,,,,METAR,26.0
ROAH 180300Z 36014KT 9999 SCT035 BKN050 16/08 Q1022 RMK 3CU035 6SC050 A3019,ROAH,2021-01-18T03:00:00Z,26.18,127.65,16.0,8.0,360,14,,6.21,30.177166,,,,,,,,,,,SCT,3500,BKN,5000,,,,,VFR,,,,,,,,,,,,METAR,6.0
RKTU 180300Z 27007KT 3200 -SN BR FEW005 BKN015 BKN030 M01/M02 Q1018,RKTU,2021-01-18T03:00:00Z,36.7,127.5,-1.0,-2.0,270,7,,1.99,30.059055,,,,,,,,,,-SN BR,FEW,500,BKN,1500,BKN,3000,,,IFR,,,,,,,,,,,,METAR,46.0
RKTN 180300Z 31005KT 4000 -SN BR SCT013 BKN030 M01/M05 Q1019 RMK CIG030,RKTN,2021-01-18T03:00:00Z,35.88,128.65,-1.0,-5.0,310,5,,2.49,30.088583,,,,,,,,,,-SN BR,SCT,1300,BKN,3000,,,,,IFR,,,,,,,,,,,,SPECI,25.0
RKSS 180300Z 29011KT 260V320 9999 -SN BKN035 BKN070 01/M05 Q1018 NOSIG,RKSS,2021-01-18T03:00:00Z,37.55,126.78,1.0,-5.0,290,11,,6.21,30.059055,,,,,,TRUE,,,,-SN,BKN,3500,BKN,7000,,,,,VFR,,,,,,,,,,,,METAR,18.0
RKSM 180300Z 21006KT 2400 -SN BR BKN010 BKN060 M00/M02 A3006,RKSM,2021-01-18T03:00:00Z,37.43,127.12,0.0,-2.0,210,6,,1.49,30.059055,,,,,,,,,,-SN BR,BKN,1000,BKN,6000,,,,,IFR,,,,,,,,,,,,METAR,18.0
RKSI 180300Z 32011KT 9999 SCT040 BKN120 01/M03 Q1018 NOSIG,RKSI,2021-01-18T03:00:00Z,37.47,126.45,1.0,-3.0,320,11,,6.21,30.059055,,,,,,TRUE,,,,,SCT,4000,BKN,12000,,,,,VFR,,,,,,,,,,,,METAR,7.0
RKPK 180300Z 23012KT 9999 SCT040 06/M04 Q1019,RKPK,2021-01-18T03:00:00Z,35.17,128.93,6.0,-4.0,230,12,,6.21,30.088583,,,,,,,,,,,SCT,4000,,,,,,,VFR,,,,,,,,,,,,METAR,3.0
RKPC 180300Z 28017G33KT 9999 BKN040 08/M03 Q1022 WS ALL RWY NOSIG,RKPC,2021-01-18T03:00:00Z,33.5,126.48,8.0,-3.0,280,17,33,6.21,30.177166,,,,,,TRUE,,,,,BKN,4000,,,,,,,VFR,,,,,,,,,,,,METAR,23.0
RKNY 180300Z 26011KT 9999 BKN035 BKN070 02/M07 Q1014 NOSIG,RKNY,2021-01-18T03:00:00Z,38.07,128.67,2.0,-7.0,260,11,,6.21,29.940945,,,,,,TRUE,,,,,BKN,3500,BKN,7000,,,,,VFR,,,,,,,,,,,,METAR,76.0
RKJB 180300Z 28012G23KT 240V310 8000 BKN030 06/M02 Q1021 NOSIG,RKJB,2021-01-18T03:00:00Z,34.98,126.38,6.0,-2.0,280,12,23,4.97,30.147638,,,,,,TRUE,,,,,BKN,3000,,,,,,,MVFR,,,,,,,,,,,,METAR,16.0
RJTT 180300Z 04008KT 9999 SCT035 06/M01 Q1014 BECMG 10005KT RMK 3CU035 A2995,RJTT,2021-01-18T03:00:00Z,35.55,139.77,6.0,-1.0,40,8,,6.21,29.940945,,,,,,,,,,,SCT,3500,,,,,,,VFR,,0.5,,,,,,,,,,METAR,5.0
RJTO 180300Z 22009KT 190V250 9999 FEW020 11/03 Q1013,RJTO,2021-01-18T03:00:00Z,34.77,139.37,11.0,3.0,220,9,,6.21,29.911417,,,,,,,,,,,FEW,2000,,,,,,,VFR,,,,,,,,,,,,METAR,37.0
RJTI 180300Z 02005KT 350V050 9999 FEW020 SCT030 07/M02 Q1014,RJTI,2021-01-18T03:00:00Z,35.63,139.83,7.0,-2.0,20,5,,6.21,29.940945,,,,,,,,,,,FEW,2000,SCT,3000,,,,,VFR,,,,,,,,,,,,METAR,4.0
RJTF 180300Z 03003KT 350V090 9999 FEW020 BKN030 06/M02 Q1014,RJTF,2021-01-18T03:00:00Z,35.67,139.52,6.0,-2.0,30,3,,6.21,29.940945,,,,,,,,,,,FEW,2000,BKN,3000,,,,,MVFR,,,,,,,,,,,,METAR,37.0
RJSY 180300Z 08012KT 3500 -SHSN FEW005 SCT015 BKN020 M01/M03 Q1012,RJSY,2021-01-18T03:00:00Z,38.82,139.78,-1.0,-3.0,80,12,,2.17,29.88189,,,,,,,,,,-SHSN,FEW,500,SCT,1500,BKN,2000,,,IFR,,,,,,,,,,,,METAR,17.0
RJSS 180300Z VRB04KT 9999 FEW020 SCT050 03/M06 Q1014,RJSS,2021-01-18T03:00:00Z,38.13,140.92,3.0,-6.0,0,4,,6.21,29.940945,,,,,,,,,,,FEW,2000,SCT,5000,,,,,VFR,,,,,,,,,,,,METAR,5.0
RJSR 180300Z 01003KT 340V040 9999 FEW040 BKN/// M02/M06 Q1012,RJSR,2021-01-18T03:00:00Z,40.18,140.37,-2.0,-6.0,10,3,,6.21,29.88189,,,,,,,,,,,FEW,4000,,,,,,,VFR,,,,,,,,,,,,SPECI,83.0
RJSM 180300Z 21006KT 180V240 9999 FEW030 BKN080 M01/M10 Q1014,RJSM,2021-01-18T03:00:00Z,40.7,141.37,-1.0,-10.0,210,6,,6.21,29.940945,,,,,,,,,,,FEW,3000,BKN,8000,,,,,VFR,,,,,,,,,,,,METAR,31.0
RJSK 180300Z 13008KT 100V180 9999 FEW020 BKN/// M01/M06 Q1012,RJSK,2021-01-18T03:00:00Z,39.62,140.22,-1.0,-6.0,130,8,,6.21,29.88189,,,,,,,,,,,FEW,2000,,,,,,,VFR,,,,,,,,,,,,METAR,95.0
RJSI 180300Z VRB01KT 9999 FEW030 BKN060 M02/M05 Q1014,RJSI,2021-01-18T03:00:00Z,39.42,141.13,-2.0,-5.0,0,1,,6.21,29.940945,,,,,,,,,,,FEW,3000,BKN,6000,,,,,VFR,,,,,,,,,,,,METAR,89.0
RJSF 180300Z 18005KT 130V240 9999 FEW030 SCT070 02/M05 Q1011,RJSF,2021-01-18T03:00:00Z,37.22,140.42,2.0,-5.0,180,5,,6.21,29.852362,,,,,,,,,,,FEW,3000,SCT,7000,,,,,VFR,,,,,,,,,,,,METAR,373.0
RJSC 180300Z VRB01KT 9999 FEW030 SCT040 BKN070 M02/M05 Q1013,RJSC,2021-01-18T03:00:00Z,38.42,140.37,-2.0,-5.0,0,1,,6.21,29.911417,,,,,,,,,,,FEW,3000,SCT,4000,BKN,7000,,,VFR,,,,,,,,,,,,METAR,104.0
RJSA 180300Z 23005KT 4000 -SHSN FEW010 SCT025 BKN035 M04/M06 Q1012,RJSA,2021-01-18T03:00:00Z,40.72,140.68,-4.0,-6.0,230,5,,2.49,29.88189,,,,,,,,,,-SHSN,FEW,1000,SCT,2500,BKN,3500,,,IFR,,,,,,,,,,,,METAR,196.0
RJOY 180300Z 27014KT 9999 FEW030 05/M05 Q1019,RJOY,2021-01-18T03:00:00Z,34.6,135.6,5.0,-5.0,270,14,,6.21,30.088583,,,,,,,,,,,FEW,3000,,,,,,,VFR,,,,,,,,,,,,METAR,10.0
RJOT 180300Z 25015KT 9999 -SHSN FEW020 BKN035 03/M02 Q1019,RJOT,2021-01-18T03:00:00Z,34.22,134.02,3.0,-2.0,250,15,,6.21,30.088583,,,,,,,,,,-SHSN,FEW,2000,BKN,3500,,,,,VFR,,,,,,,,,,,,METAR,181.0
RJOS 180300Z 30010KT 260V340 9999 FEW030 08/M06 Q1019,RJOS,2021-01-18T03:00:00Z,34.12,134.62,8.0,-6.0,300,10,,6.21,30.088583,,,,,,,,,,,FEW,3000,,,,,,,VFR,,,,,,,,,,,,METAR,3.0
RJOR 180300Z 24010KT 200V270 9999 FEW035 06/M04 Q1018,RJOR,2021-01-18T03:00:00Z,35.52,134.17,6.0,-4.0,240,10,,6.21,30.059055,,,,,,,,,,,FEW,3500,,,,,,,VFR,,,,,,,,,,,,METAR,11.0
RJOO 180300Z 24010KT 200V290 9999 FEW030 SCT050 07/M05 Q1018 RMK 1CU030 3SC050 A3008,RJOO,2021-01-18T03:00:00Z,34.78,135.43,7.0,-5.0,240,10,,6.21,30.059055,,,,,,,,,,,FEW,3000,SCT,5000,,,,,VFR,,,,,,,,,,,,METAR,11.0
RJOM 180300Z 18010KT 9999 FEW008 05/02 Q1020,RJOM,2021-01-18T03:00:00Z,33.82,132.68,5.0,2.0,180,10,,6.21,30.11811,,,,,,,,,,,FEW,800,,,,,,,VFR,,,,,,,,,,,,METAR,3.0
RJOK 180300Z 26005KT 200V310 9999 FEW030 08/M07 Q1019,RJOK,2021-01-18T03:00:00Z,33.53,133.67,8.0,-7.0,260,5,,6.21,30.088583,,,,,,,,,,,FEW,3000,,,,,,,VFR,,,,,,,,,,,,METAR,7.0
RJOH 180300Z 22015KT 9999 FEW030 SCT070 05/01 Q1018,RJOH,2021-01-18T03:00:00Z,35.48,133.25,5.0,1.0,220,15,,6.21,30.059055,,,,,,,,,,,FEW,3000,SCT,7000,,,,,VFR,,,,,,,,,,,,METAR,6.0
RJOC 180300Z 19010KT 9999 FEW012 SCT035 BKN045 04/M00 Q1017,RJOC,2021-01-18T03:00:00Z,35.42,132.88,4.0,0.0,190,10,,6.21,30.029528,,,,,,,,,,,FEW,1200,SCT,3500,BKN,4500,,,VFR,,,,,,,,,,,,METAR,2.0
RJOB 180300Z 23005KT 170V300 9999 FEW025 BKN040 04/M05 Q1018,RJOB,2021-01-18T03:00:00Z,34.75,133.85,4.0,-5.0,230,5,,6.21,30.059055,,,,,,,,,,,FEW,2500,BKN,4000,,,,,VFR,,,,,,,,,,,,METAR,242.0
RJOA 180300Z 27010KT 230V310 9999 FEW030 04/M05 Q1018,RJOA,2021-01-18T03:00:00Z,34.43,132.92,4.0,-5.0,270,10,,6.21,30.059055,,,,,,,,,,,FEW,3000,,,,,,,VFR,,,,,,,,,,,,METAR,318.0
RJNW 180300Z 20006KT 150V250 8000 -SHSN FEW000 SCT005 BKN015 01/00 Q1012,RJNW,2021-01-18T03:00:00Z,37.3,136.97,1.0,0.0,200,6,,4.97,29.88189,,,,,,,,,,-SHSN,FEW,0,SCT,500,BKN,1500,,,MVFR,,,,,,,,,,,,METAR,222.0
RJNT 180300Z 28009KT 9999 -SHRASN FEW005 SCT025 BKN040 02/00 Q1015,RJNT,2021-01-18T03:00:00Z,36.63,137.18,2.0,0.0,280,9,,6.21,29.970472,,,,,,,,,,-SHRA -SHSN,FEW,500,SCT,2500,BKN,4000,,,VFR,,,,,,,,,,,,METAR,30.0
RJNS 180300Z 26018KT 230V290 9999 FEW030 08/M06 Q1013,RJNS,2021-01-18T03:00:00Z,34.8,138.18,8.0,-6.0,260,18,,6.21,29.911417,,,,,,,,,,,FEW,3000,,,,,,,VFR,,,,,,,,,,,,METAR,133.0
RJNK 180300Z 30003KT 240V010 8000 -TSSN FEW005 BKN008 BKN010 BKN020CB 01/00 Q1016,RJNK,2021-01-18T03:00:00Z,36.38,136.42,1.0,0.0,300,3,,4.97,30.0,,,,,,,,,,-TSSN,FEW,500,BKN,800,BKN,1000,BKN,2000,IFR,,,,,,,,,,,,METAR,7.0
RJKI 180300Z AUTO 35006KT 320V030 9999 FEW032 SCT044 BKN049 14/07 Q1022,RJKI,2021-01-18T03:00:00Z,28.32,129.92,14.0,7.0,350,6,,6.21,30.177166,,,TRUE,,,,,,,,FEW,3200,SCT,4400,BKN,4900,,,VFR,,,,,,,,,,,,METAR,6.0
RJKA 180300Z 34009KT 290V010 9999 FEW025 BKN050 16/08 Q1022,RJKA,2021-01-18T03:00:00Z,28.42,129.72,16.0,8.0,340,9,,6.21,30.177166,,,,,,,,,,,FEW,2500,BKN,5000,,,,,VFR,,,,,,,,,,,,METAR,7.0
RJGG 180300Z 27013KT 9999 FEW030 07/M05 Q1017 NOSIG,RJGG,2021-01-18T03:00:00Z,34.87,136.8,7.0,-5.0,270,13,,6.21,30.029528,,,,,,TRUE,,,,,FEW,3000,,,,,,,VFR,,,,,,,,,,,,METAR,5.0
RJFU 180300Z 17003KT 120V210 9999 -SHRASN FEW015 BKN030 BKN040 06/M00 Q1021,RJFU,2021-01-18T03:00:00Z,32.92,129.92,6.0,0.0,170,3,,6.21,30.147638,,,,,,,,,,-SHRA -SHSN,FEW,1500,BKN,3000,BKN,4000,,,MVFR,,,,,,,,,,,,METAR,2.0
RJFT 180300Z 21008KT 150V270 9999 SCT050 07/M05 Q1021,RJFT,2021-01-18T03:00:00Z,32.83,130.85,7.0,-5.0,210,8,,6.21,30.147638,,,,,,,,,,,SCT,5000,,,,,,,VFR,,,,,,,,,,,,METAR,188.0
RJFS 180300Z 20010KT 9999 VCSH FEW030 SCT035 BKN040 06/M00 Q1021,RJFS,2021-01-18T03:00:00Z,33.15,130.3,6.0,0.0,200,10,,6.21,30.147638,,,,,,,,,,VCSH,FEW,3000,SCT,3500,BKN,4000,,,VFR,,,,,,,,,,,,METAR,2.0
RJFR 180300Z 32005KT 290V360 9999 FEW020 SCT035 BKN050 05/M01 Q1020,RJFR,2021-01-18T03:00:00Z,33.83,131.03,5.0,-1.0,320,5,,6.21,30.11811,,,,,,,,,,,FEW,2000,SCT,3500,BKN,5000,,,VFR,,,,,,,,,,,,METAR,9.0
RJFO 180300Z 15008KT 9999 FEW030 BKN050 06/M04 Q1020,RJFO,2021-01-18T03:00:00Z,33.47,131.73,6.0,-4.0,150,8,,6.21,30.11811,,,,,,,,,,,FEW,3000,BKN,5000,,,,,VFR,,,,,,,,,,,,METAR,3.0
RJFM 180300Z 28009G19KT 240V310 9999 FEW030 11/M06 Q1020,RJFM,2021-01-18T03:00:00Z,31.87,131.43,11.0,-6.0,280,9,19,6.21,30.11811,,,,,,,,,,,FEW,3000,,,,,,,VFR,,,,,,,,,,,,METAR,10.0
RJFK 180300Z 32010KT 280V350 9999 FEW040 SCT045 07/M02 Q1021 RMK 1CU040 4CU045 A3015 VOLCANIC ASH CLOUD S,RJFK,2021-01-18T03:00:00Z,31.8,130.72,7.0,-2.0,320,10,,6.21,30.147638,,,,,,,,,,,FEW,4000,SCT,4500,,,,,VFR,,,,,,,,,,,,METAR,271.0
RJFG 180300Z 31013KT 9999 FEW030 BKN045 08/00 Q1021,RJFG,2021-01-18T03:00:00Z,30.62,130.98,8.0,0.0,310,13,,6.21,30.147638,,,,,,,,,,,FEW,3000,BKN,4500,,,,,VFR,,,,,,,,,,,,METAR,234.0
RJFF 180300Z 32003KT 290V360 8000 -SHRA FEW015 SCT025 BKN030 05/01 Q1021 BECMG FM0400 27018G28KT RMK 1CU015 3CU025 5CU030 A3015,RJFF,2021-01-18T03:00:00Z,33.58,130.45,5.0,1.0,320,3,,4.97,30.147638,,,,,,,,,,-SHRA,FEW,1500,SCT,2500,BKN,3000,,,MVFR,,,,,,,,,,,,METAR,7.0
RJFE 180300Z 27011KT 230V310 9999 FEW045 SCT050 BKN070 09/M01 Q1021,RJFE,2021-01-18T03:00:00Z,32.67,128.82,9.0,-1.0,270,11,,6.21,30.147638,,,,,,,,,,,FEW,4500,SCT,5000,BKN,7000,,,VFR,,,,,,,,,,,,METAR,80.0
RJEC 180300Z 24006KT 9999 FEW020 SCT035 BKN/// M06/M19 Q1009,RJEC,2021-01-18T03:00:00Z,43.67,142.43,-6.0,-19.0,240,6,,6.21,29.793306,,,,,,,,,,,FEW,2000,SCT,3500,,,,,VFR,,,,,,,,,,,,METAR,209.0
RJEB 180300Z 24011KT 210V270 9999 SCT040 M03/M13 Q1009,RJEB,2021-01-18T03:00:00Z,44.3,143.4,-3.0,-13.0,240,11,,6.21,29.793306,,,,,,,,,,,SCT,4000,,,,,,,VFR,,,,,,,,,,,,METAR,24.0
RJDT 180300Z VRB02KT 8000 -SHRA FEW010 BKN020 BKN025 05/02 Q1018,RJDT,2021-01-18T03:00:00Z,34.28,129.32,5.0,2.0,0,2,,4.97,30.059055,,,,,,,,,,-SHRA,FEW,1000,BKN,2000,BKN,2500,,,MVFR,,,,,,,,,,,,METAR,61.0
RJDC 180300Z 28005KT 250V310 9999 -SHRA FEW015 SCT025 BKN040 05/01 Q1020,RJDC,2021-01-18T03:00:00Z,33.92,131.27,5.0,1.0,280,5,,6.21,30.11811,,,,,,,,,,-SHRA,FEW,1500,SCT,2500,BKN,4000,,,VFR,,,,,,,,,,,,METAR,5.0
RJCW 180300Z 29017KT 5000 R08/0900VP2000U -SHSN BLSN FEW003 SCT010 BKN030 M06/M10 Q1009,RJCW,2021-01-18T03:00:00Z,45.4,141.8,-6.0,-10.0,290,17,,3.11,29.793306,,,,,,,,,,BLSN -SHSN,FEW,300,SCT,1000,BKN,3000,,,MVFR,,,,,,,,,,,,METAR,11.0
RJCO 180300Z VRB03KT 9999 FEW010 BKN060 M03/M11 Q1013,RJCO,2021-01-18T03:00:00Z,43.12,141.37,-3.0,-11.0,0,3,,6.21,29.911417,,,,,,,,,,,FEW,1000,BKN,6000,,,,,VFR,,,,,,,,,,,,METAR,7.0
RJCN 180300Z 24006KT 9999 FEW025 M06/M09 Q1010,RJCN,2021-01-18T03:00:00Z,43.57,144.97,-6.0,-9.0,240,6,,6.21,29.822834,,,,,,,,,,,FEW,2500,,,,,,,VFR,,,,,,,,,,,,METAR,62.0
RJCM 180300Z VRB02KT 9999 FEW020 SCT/// M06/M12 Q1010,RJCM,2021-01-18T03:00:00Z,43.88,144.17,-6.0,-12.0,0,2,,6.21,29.822834,,,,,,,,,,,FEW,2000,,,,,,,VFR,,,,,,,,,,,,METAR,30.0
RJCK 180300Z 18011KT 9999 FEW030 M05/M08 Q1011,RJCK,2021-01-18T03:00:00Z,43.03,144.18,-5.0,-8.0,180,11,,6.21,29.852362,,,,,,,,,,,FEW,3000,,,,,,,VFR,,,,,,,,,,,,METAR,94.0
RJCH 180300Z VRB01KT 9999 FEW012 SCT025 BKN040 M03/M13 Q1012,RJCH,2021-01-18T03:00:00Z,41.77,140.82,-3.0,-13.0,0,1,,6.21,29.88189,,,,,,,,,,,FEW,1200,SCT,2500,BKN,4000,,,VFR,,,,,,,,,,,,METAR,36.0
RJCC 180300Z VRB02KT 9999 FEW025 SCT040 BKN/// M04/M12 Q1012 RMK 1CU025 3CU040 A2990,RJCC,2021-01-18T03:00:00Z,42.77,141.68,-4.0,-12.0,0,2,,6.21,29.88189,,,,,,,,,,,FEW,2500,SCT,4000,,,,,VFR,,,,,,,,,,,,METAR,19.0
RJCB 180300Z 34003KT 320V020 9999 FEW040 M12/M13 Q1011,RJCB,2021-01-18T03:00:00Z,42.72,143.22,-12.0,-13.0,340,3,,6.21,29.852362,,,,,,,,,,,FEW,4000,,,,,,,VFR,,,,,,,,,,,,METAR,149.0
RJBT 180300Z 26008G18KT 200V340 9999 FEW030 SCT040 04/M04 Q1016,RJBT,2021-01-18T03:00:00Z,35.5,134.8,4.0,-4.0,260,8,18,6.21,30.0,,,,,,,,,,,FEW,3000,SCT,4000,,,,,VFR,,,,,,,,,,,,METAR,172.0
RJBE 180300Z 27017KT 9999 FEW025 SCT040 07/M05 Q1019,RJBE,2021-01-18T03:00:00Z,34.63,135.23,7.0,-5.0,270,17,,6.21,30.088583,,,,,,,,,,,FEW,2500,SCT,4000,,,,,VFR,,,,,,,,,,,,METAR,5.0
RJBD 180300Z 33012KT 290V010 9999 FEW035 07/M05 Q1018,RJBD,2021-01-18T03:00:00Z,33.67,135.37,7.0,-5.0,330,12,,6.21,30.059055,,,,,,,,,,,FEW,3500,,,,,,,VFR,,,,,,,,,,,,METAR,91.0
RJBB 180300Z 27011KT 9999 FEW025 06/M02 Q1019 NOSIG,RJBB,2021-01-18T03:00:00Z,34.43,135.25,6.0,-2.0,270,11,,6.21,30.088583,,,,,,TRUE,,,,,FEW,2500,,,,,,,VFR,,,,,,,,,,,,METAR,8.0
RJAW 180300Z 02008KT 340V050 9999 FEW020 BKN100 21/13 Q1014 RMK 2CU020 7AC100 A2997,RJAW,2021-01-18T03:00:00Z,24.78,141.32,21.0,13.0,20,8,,6.21,29.940945,,,,,,,,,,,FEW,2000,BKN,10000,,,,,VFR,,,,,,,,,,,,METAR,116.0
RJAH 180300Z 05006KT 360V080 9999 FEW015 SCT050 BKN070 06/M03 Q1013,RJAH,2021-01-18T03:00:00Z,36.17,140.42,6.0,-3.0,50,6,,6.21,29.911417,,,,,,,,,,,FEW,1500,SCT,5000,BKN,7000,,,VFR,,,,,,,,,,,,METAR,31.0
RJAF 180300Z 18015G26KT 160V230 9999 VCSH FEW030 SCT050 BKN060 03/M08 Q1011,RJAF,2021-01-18T03:00:00Z,36.17,137.92,3.0,-8.0,180,15,26,6.21,29.852362,,,,,,,,,,VCSH,FEW,3000,SCT,5000,BKN,6000,,,VFR,,,,,,,,,,,,METAR,652.0
RJAA 180300Z 01005KT 330V040 9999 FEW020 BKN035 06/01 Q1013 NOSIG RMK 1SC020 5SC035 A2994,RJAA,2021-01-18T03:00:00Z,35.77,140.38,6.0,1.0,10,5,,6.21,29.911417,,,,,,TRUE,,,,,FEW,2000,BKN,3500,,,,,VFR,,,,,,,,,,,,METAR,36.0
RCTP 180300Z 04020KT 9999 FEW010 BKN035 15/08 Q1024 NOSIG RMK A3024,RCTP,2021-01-18T03:00:00Z,25.07,121.22,15.0,8.0,40,20,,6.21,30.236221,,,,,,TRUE,,,,,FEW,1000,BKN,3500,,,,,VFR,,,,,,,,,,,,METAR,33.0
RCSS 180300Z 08011KT 040V110 9999 FEW020 BKN040 BKN060 16/08 Q1024 NOSIG RMK A3025,RCSS,2021-01-18T03:00:00Z,25.07,121.55,16.0,8.0,80,11,,6.21,30.236221,,,,,,TRUE,,,,,FEW,2000,BKN,4000,BKN,6000,,,VFR,,,,,,,,,,,,METAR,8.0
RCNN 180300Z 04001KT 9999 FEW012 18/09 Q1021 NOSIG RMK A3017,RCNN,2021-01-18T03:00:00Z,22.93,120.2,18.0,9.0,40,1,,6.21,30.147638,,,,,,TRUE,,,,,FEW,1200,,,,,,,VFR,,,,,,,,,,,,METAR,15.0
RCMQ 180300Z 01013KT 9999 FEW012 17/08 Q1020 NOSIG RMK A3014,RCMQ,2021-01-18T03:00:00Z,24.27,120.62,17.0,8.0,10,13,,6.21,30.11811,,,,,,TRUE,,,,,FEW,1200,,,,,,,VFR,,,,,,,,,,,,METAR,202.0
RCKH 180300Z 26007KT 220V320 9999 FEW014 20/10 Q1021 NOSIG RMK A3015,RCKH,2021-01-18T03:00:00Z,22.57,120.33,20.0,10.0,260,7,,6.21,30.147638,,,,,,TRUE,,,,,FEW,1400,,,,,,,VFR,,,,,,,,,,,,METAR,6.0
RCFN 180300Z 02005KT 290V100 9999 FEW030 SCT055 BKN080 20/10 Q1023 NOSIG RMK A3022,RCFN,2021-01-18T03:00:00Z,22.77,121.1,20.0,10.0,20,5,,6.21,30.206694,,,,,,TRUE,,,,,FEW,3000,SCT,5500,BKN,8000,,,VFR,,,,,,,,,,,,METAR,42.0
PLCH 180300Z 10009KT 9999 FEW020 26/24 Q1009,PLCH,2021-01-18T03:00:00Z,1.98,-157.35,26.0,24.0,100,9,,6.21,29.793306,,,,,,,,,,,FEW,2000,,,,,,,VFR,,,,,,,,,,,,METAR,5.0
OTHH 180300Z AUTO 32008KT CAVOK 18/11 Q1015 NOSIG,OTHH,2021-01-18T03:00:00Z,25.27,51.6,18.0,11.0,320,8,,6.21,29.970472,,,TRUE,,,TRUE,,,,,CAVOK,,,,,,,,VFR,,,,,,,,,,,,METAR,3.0
OTBD 180300Z AUTO 30004KT 260V320 CAVOK 19/12 Q1015 NOSIG,OTBD,2021-01-18T03:00:00Z,25.25,51.57,19.0,12.0,300,4,,6.21,29.970472,,,TRUE,,,TRUE,,,,,CAVOK,,,,,,,,VFR,,,,,,,,,,,,METAR,13.0
OSDI 180300Z 23012KT 9999 FEW030 06/04 Q1013,OSDI,2021-01-18T03:00:00Z,33.42,36.52,6.0,4.0,230,12,,6.21,29.911417,,,,,,,,,,,FEW,3000,,,,,,,VFR,,,,,,,,,,,,METAR,614.0
ORSU 180300Z 22014KT 9999 SCT040 BKN080 11/06 Q1015,ORSU,2021-01-18T03:00:00Z,35.57,45.32,11.0,6.0,220,14,,6.21,29.970472,,,,,,,,,,,SCT,4000,BKN,8000,,,,,VFR,,,,,,,,,,,,METAR,760.0
ORNI 180300Z 00000KT 6000 NSC 11/06 Q1015 NOSIG,ORNI,2021-01-18T03:00:00Z,31.98,44.4,11.0,6.0,0,0,,3.73,29.970472,,,,,,TRUE,,,,,CLR,,,,,,,,MVFR,,,,,,,,,,,,METAR,33.0
ORMM 180300Z 22006KT CAVOK 09/04 Q1015 NOSIG,ORMM,2021-01-18T03:00:00Z,30.53,47.67,9.0,4.0,220,6,,6.21,29.970472,,,,,,TRUE,,,,,CAVOK,,,,,,,,VFR,,,,,,,,,,,,METAR,2.0
ORER 180300Z 15008KT 8000 -SHRA BKN040 10/06 Q1014 NOSIG,ORER,2021-01-18T03:00:00Z,36.23,43.97,10.0,6.0,150,8,,4.97,29.940945,,,,,,TRUE,,,,-SHRA,BKN,4000,,,,,,,MVFR,,,,,,,,,,,,METAR,397.0
ORBI 180300Z 17005KT 9999 4600 NSC 09/05 Q1015 NOSIG,ORBI,2021-01-18T03:00:00Z,33.27,44.23,9.0,5.0,170,5,,6.21,29.970472,,,,,,TRUE,,,,,CLR,,,,,,,,VFR,,,,,,,,,,,,METAR,37.0
OPST 180300Z 00000KT 0800 FG NSC 06/05 Q1019 BECMG 1500 RH92,OPST,2021-01-18T03:00:00Z,32.53,74.37,6.0,5.0,0,0,,0.5,30.088583,,,,,,,,,,FG,CLR,,,,,,,,LIFR,,,,,,,,,,,,METAR,234.0
OPSK 180300Z 05004KT 1000 BR SCT35 SCT100 06/04 Q1016 TEMPO 1000 BR,OPSK,2021-01-18T03:00:00Z,27.72,68.8,6.0,4.0,50,4,,0.62,30.0,,,,,,,,,,BR,SCT,10000,,,,,,,LIFR,,,,,,,,,,,,METAR,62.0
OPPS 180300Z 18004KT 1500 BR SCT200 07/05 Q1020,OPPS,2021-01-18T03:00:00Z,33.98,71.52,7.0,5.0,180,4,,0.93,30.11811,,,,,,,,,,BR,SCT,20000,,,,,,,LIFR,,,,,,,,,,,,METAR,356.0
OPNH 180300Z 31504KT 0800 FG NSC 06/03 Q1015 TEMPO 0600 FG,OPNH,2021-01-18T03:00:00Z,26.22,68.38,6.0,3.0,315,4,,0.5,29.970472,,,,,,,,,,FG,CLR,,,,,,,,LIFR,,,,,,,,,,,,METAR,30.0
OPMT 180300Z 05010KT 1000 BR VV/// 07/05 Q1018 NOSIG,OPMT,2021-01-18T03:00:00Z,30.2,71.42,7.0,5.0,50,10,,0.62,30.059055,,,,,,TRUE,,,,BR,OVX,0,,,,,,,LIFR,,,,,,,,,,,,METAR,122.0
OPKC 180300Z 03005KT 3000 FU NSC 11/06 Q1015 NOSIG,OPKC,2021-01-18T03:00:00Z,24.9,67.13,11.0,6.0,30,5,,1.86,29.970472,,,,,,TRUE,,,,FU,CLR,,,,,,,,IFR,,,,,,,,,,,,METAR,20.0
OMSJ 180300Z 10003KT CAVOK 12/08 Q1015 NOSIG,OMSJ,2021-01-18T03:00:00Z,25.32,55.52,12.0,8.0,100,3,,6.21,29.970472,,,,,,TRUE,,,,,CAVOK,,,,,,,,VFR,,,,,,,,,,,,METAR,33.0
OMRK 180300Z 22002KT 8000 NSC 11/08 Q1015 A3000,OMRK,2021-01-18T03:00:00Z,25.62,55.93,11.0,8.0,220,2,,4.97,29.970472,,,,,,,,,,,CLR,,,,,,,,MVFR,,,,,,,,,,,,METAR,18.0
OMFJ 180300Z 31005KT 8000 NSC 19/03 Q1014 A2996,OMFJ,2021-01-18T03:00:00Z,25.1,56.32,19.0,3.0,310,5,,4.97,29.940945,,,,,,,,,,,CLR,,,,,,,,MVFR,,,,,,,,,,,,METAR,27.0
OMDW 180300Z 17007KT CAVOK 15/07 Q1016 NOSIG,OMDW,2021-01-18T03:00:00Z,24.9,55.17,15.0,7.0,170,7,,6.21,30.0,,,,,,TRUE,,,,,CAVOK,,,,,,,,VFR,,,,,,,,,,,,METAR,34.0
OMDB 180300Z 22001KT CAVOK 17/07 Q1014 NOSIG,OMDB,2021-01-18T03:00:00Z,25.25,55.37,17.0,7.0,220,1,,6.21,29.940945,,,,,,TRUE,,,,,CAVOK,,,,,,,,VFR,,,,,,,,,,,,METAR,5.0
OMAL 180300Z 08004KT CAVOK 17/05 Q1016 NOSIG,OMAL,2021-01-18T03:00:00Z,24.25,55.6,17.0,5.0,80,4,,6.21,30.0,,,,,,TRUE,,,,,CAVOK,,,,,,,,VFR,,,,,,,,,,,,METAR,247.0
OMAD 180300Z 16003KT CAVOK 18/05 Q1015 NOSIG,OMAD,2021-01-18T03:00:00Z,24.42,54.47,18.0,5.0,160,3,,6.21,29.970472,,,,,,TRUE,,,,,CAVOK,,,,,,,,VFR,,,,,,,,,,,,METAR,9.0
OMAA 180300Z 16004KT CAVOK 16/05 Q1014 NOSIG,OMAA,2021-01-18T03:00:00Z,24.42,54.65,16.0,5.0,160,4,,6.21,29.940945,,,,,,TRUE,,,,,CAVOK,,,,,,,,VFR,,,,,,,,,,,,METAR,13.0
OLBA 180300Z 29015KT 8000 BKN027 14/07 Q1015 NOSIG ///,OLBA,2021-01-18T03:00:00Z,33.82,35.48,14.0,7.0,290,15,,4.97,29.970472,,,,,,TRUE,,,,,BKN,2700,,,,,,,MVFR,,,,,,,,,,,,SPECI,29.0
OKBK 180300Z 00000KT CAVOK 09/03 Q1016 NOSIG,OKBK,2021-01-18T03:00:00Z,29.22,47.97,9.0,3.0,0,0,,6.21,30.0,,,,,,TRUE,,,,,CAVOK,,,,,,,,VFR,,,,,,,,,,,,METAR,55.0
OJAQ 180300Z 34006KT 7000 FEW040 SCT100 14/05 Q1019 NOSIG,OJAQ,2021-01-18T03:00:00Z,29.62,35.02,14.0,5.0,340,6,,4.35,30.088583,,,,,,TRUE,,,,,FEW,4000,SCT,10000,,,,,MVFR,,,,,,,,,,,,METAR,45.0
OJAM 180300Z 24010KT 6000 -RA SCT005 SCT030 07/06 Q1015 NOSIG,OJAM,2021-01-18T03:00:00Z,31.98,35.98,7.0,6.0,240,10,,3.73,29.970472,,,,,,TRUE,,,,-RA,SCT,500,SCT,3000,,,,,MVFR,,,,,,,,,,,,METAR,765.0
OJAI 180300Z 25016KT 5000 RA SCT010 OVC100 07/05 Q1016 NOSIG,OJAI,2021-01-18T03:00:00Z,31.72,36.0,7.0,5.0,250,16,,3.11,30.0,,,,,,TRUE,,,,RA,SCT,1000,OVC,10000,,,,,MVFR,,,,,,,,,,,,METAR,723.0
OIZJ 180300Z 33004KT 6000 NSC 18/14 Q1013,OIZJ,2021-01-18T03:00:00Z,25.65,57.8,18.0,14.0,330,4,,3.73,29.911417,,,,,,,,,,,CLR,,,,,,,,MVFR,,,,,,,,,,,,METAR,6.0
OIZI 180300Z 03006KT CAVOK 11/M07 Q1015,OIZI,2021-01-18T03:00:00Z,27.23,60.72,11.0,-7.0,30,6,,6.21,29.970472,,,,,,,,,,,CAVOK,,,,,,,,VFR,,,,,,,,,,,,METAR,622.0
OIZH 180300Z 17006KT CAVOK 06/M04 Q1016 A3003,OIZH,2021-01-18T03:00:00Z,29.47,60.92,6.0,-4.0,170,6,,6.21,30.0,,,,,,,,,,,CAVOK,,,,,,,,VFR,,,,,,,,,,,,METAR,1378.0
OIZC 180300Z 05006KT 0800 FG NSC 13/13 Q1013,OIZC,2021-01-18T03:00:00Z,25.45,60.38,13.0,13.0,50,6,,0.5,29.911417,,,,,,,,,,FG,CLR,,,,,,,,LIFR,,,,,,,,,,,,METAR,13.0
OIZB 180300Z 32004KT CAVOK 00/M12 Q1015,OIZB,2021-01-18T03:00:00Z,31.1,61.55,0.0,-12.0,320,4,,6.21,29.970472,,,,,,,,,,,CAVOK,,,,,,,,VFR,,,,,,,,,,,,METAR,483.0
OIYY 180300Z 15004KT CAVOK 05/M02 Q1014,OIYY,2021-01-18T03:00:00Z,31.9,54.28,5.0,-2.0,150,4,,6.21,29.940945,,,,,,,,,,,CAVOK,,,,,,,,VFR,,,,,,,,,,,,METAR,1226.0
OITZ 180300Z 11004KT 9999 SCT035 01/M05 Q1010 A2983,OITZ,2021-01-18T03:00:00Z,36.77,48.37,1.0,-5.0,110,4,,6.21,29.822834,,,,,,,,,,,SCT,3500,,,,,,,VFR,,,,,,,,,,,,METAR,1630.0
OITT 180300Z 21008KT 9999 FEW035 FEW040CB SCT090 BKN180 06/M02 Q1008 A2979,OITT,2021-01-18T03:00:00Z,38.13,46.23,6.0,-2.0,210,8,,6.21,29.763779,,,,,,,,,,,FEW,3500,FEW,4000,SCT,9000,BKN,18000,VFR,,,,,,,,,,,,METAR,1353.0
OITR 180300Z 19012KT 9999 FEW035 05/M01 Q1006,OITR,2021-01-18T03:00:00Z,37.67,45.07,5.0,-1.0,190,12,,6.21,29.704725,,,,,,,,,,,FEW,3500,,,,,,,VFR,,,,,,,,,,,,METAR,1312.0
OITP 180300Z 24004KT CAVOK 00/M00 Q1004,OITP,2021-01-18T03:00:00Z,39.6,47.88,0.0,0.0,240,4,,6.21,29.64567,,,,,,,,,,,CAVOK,,,,,,,,VFR,,,,,,,,,,,,METAR,72.0
OITM 180300Z 18012KT 9999 FEW037 BKN090 05/01 Q1008,OITM,2021-01-18T03:00:00Z,37.35,46.15,5.0,1.0,180,12,,6.21,29.763779,,,,,,,,,,,FEW,3700,BKN,9000,,,,,VFR,,,,,,,,,,,,METAR,1340.0
OISY 180300Z 10004KT CAVOK 01/M04 Q1019,OISY,2021-01-18T03:00:00Z,30.7,51.55,1.0,-4.0,100,4,,6.21,30.088583,,,,,,,,,,,CAVOK,,,,,,,,VFR,,,,,,,,,,,,METAR,1800.0
OISS 180300Z 00000KT 9999 FEW040 08/M03 Q1017 A3005,OISS,2021-01-18T03:00:00Z,29.53,52.58,8.0,-3.0,0,0,,6.21,30.029528,,,,,,,,,,,FEW,4000,,,,,,,VFR,,,,,,,,,,,,METAR,1484.0
OISR 180300Z 34004KT 7000 NSC 08/M00 Q1016 A3001,OISR,2021-01-18T03:00:00Z,27.37,53.2,8.0,0.0,340,4,,4.35,30.0,,,,,,,,,,,CLR,,,,,,,,MVFR,,,,,,,,,,,,METAR,402.0
OISL 180300Z 00000KT CAVOK 06/M01 Q1015 A3000,OISL,2021-01-18T03:00:00Z,27.67,54.37,6.0,-1.0,0,0,,6.21,29.970472,,,,,,,,,,,CAVOK,,,,,,,,VFR,,,,,,,,,,,,METAR,804.0
OISF 180300Z 34004KT CAVOK 01/M04 Q1015 A2999,OISF,2021-01-18T03:00:00Z,28.9,53.72,1.0,-4.0,340,4,,6.21,29.970472,,,,,,,,,,,CAVOK,,,,,,,,VFR,,,,,,,,,,,,METAR,1305.0
OINZ 180300Z 00000KT CAVOK 02/01 Q1005,OINZ,2021-01-18T03:00:00Z,36.63,53.2,2.0,1.0,0,0,,6.21,29.675198,,,,,,,,,,,CAVOK,,,,,,,,VFR,,,,,,,,,,,,METAR,8.0
OINR 180300Z 12006KT CAVOK 07/05 Q1003,OINR,2021-01-18T03:00:00Z,36.9,50.67,7.0,5.0,120,6,,6.21,29.616142,,,,,,,,,,,CAVOK,,,,,,,,VFR,,,,,,,,,,,,METAR,-19.0
OINN 180300Z 00000KT CAVOK 05/02 Q1005,OINN,2021-01-18T03:00:00Z,36.67,51.47,5.0,2.0,0,0,,6.21,29.675198,,,,,,,,,,,CAVOK,,,,,,,,VFR,,,,,,,,,,,,METAR,-25.0
OING 180300Z 00000KT CAVOK 00/M00 Q1007,OING,2021-01-18T03:00:00Z,36.9,54.4,0.0,0.0,0,0,,6.21,29.734253,,,,,,,,,,,CAVOK,,,,,,,,VFR,,,,,,,,,,,,METAR,0.0
OINE 180300Z 00000KT CAVOK 04/00 Q1007,OINE,2021-01-18T03:00:00Z,37.38,55.45,4.0,0.0,0,0,,6.21,29.734253,,,,,,,,,,,CAVOK,,,,,,,,VFR,,,,,,,,,,,,METAR,125.0
OIMT 180300Z AUTO 12002KT //// // ////// 07/M07 Q1012,OIMT,2021-01-18T03:00:00Z,33.67,56.88,7.0,-7.0,120,2,,,29.88189,,,TRUE,,,,,,,,,,,,,,,,,,,,,,,,,,,,METAR,693.0
OIMS 180300Z 06008KT 9999 FEW035 M01/M07 Q1013,OIMS,2021-01-18T03:00:00Z,36.17,57.6,-1.0,-7.0,60,8,,6.21,29.911417,,,,,,,,,,,FEW,3500,,,,,,,VFR,,,,,,,,,,,,METAR,920.0
OIMQ 180300Z AUTO 04002KT //// // ////// 04/M07 Q1013,OIMQ,2021-01-18T03:00:00Z,35.27,58.47,4.0,-7.0,40,2,,,29.911417,,,TRUE,,,,,,,,,,,,,,,,,,,,,,,,,,,,METAR,1101.0
OIMN 180300Z 00000KT CAVOK M01/M05 Q1009,OIMN,2021-01-18T03:00:00Z,37.48,57.3,-1.0,-5.0,0,0,,6.21,29.793306,,,,,,,,,,,CAVOK,,,,,,,,VFR,,,,,,,,,,,,METAR,1065.0
OIMM 180300Z 29006KT 9999 FEW040 05/M04 Q1010 A2984,OIMM,2021-01-18T03:00:00Z,36.23,59.63,5.0,-4.0,290,6,,6.21,29.822834,,,,,,,,,,,FEW,4000,,,,,,,VFR,,,,,,,,,,,,METAR,995.0
OIMD 180300Z AUTO 24004KT //// // ////// 04/M08 Q1011,OIMD,2021-01-18T03:00:00Z,34.38,58.63,4.0,-8.0,240,4,,,29.852362,,,TRUE,,,,,,,,,,,,,,,,,,,,,,,,,,,,METAR,1097.0
OIMB 180300Z 00000KT 9999 FEW035 02/M13 Q1014,OIMB,2021-01-18T03:00:00Z,32.9,59.28,2.0,-13.0,0,0,,6.21,29.940945,,,,,,,,,,,FEW,3500,,,,,,,VFR,,,,,,,,,,,,METAR,1512.0
OIKQ 180300Z 35004KT 1000 BR NSC 17/16 Q1013,OIKQ,2021-01-18T03:00:00Z,26.75,55.9,17.0,16.0,350,4,,0.62,29.911417,,,,,,,,,,BR,CLR,,,,,,,,LIFR,,,,,,,,,,,,METAR,9.0
OIKK 180300Z 13004KT CAVOK 02/M04 Q1018 A3006,OIKK,2021-01-18T03:00:00Z,30.25,56.97,2.0,-4.0,130,4,,6.21,30.059055,,,,,,,,,,,CAVOK,,,,,,,,VFR,,,,,,,,,,,,METAR,1749.0
OIKB 180300Z 30004KT 1500 BR SCT020 SCT100 16/15 Q1013 A2994 NOSIG,OIKB,2021-01-18T03:00:00Z,27.22,56.37,16.0,15.0,300,4,,0.93,29.911417,,,,,,TRUE,,,,BR,SCT,2000,SCT,10000,,,,,LIFR,,,,,,,,,,,,METAR,6.0
OIIP 180300Z 26006KT 6000 NSC 04/M05 Q1011 A2986,OIIP,2021-01-18T03:00:00Z,35.78,50.83,4.0,-5.0,260,6,,3.73,29.852362,,,,,,,,,,,CLR,,,,,,,,MVFR,,,,,,,,,,,,METAR,1270.0
OIIK 180300Z 05002KT 9999 FEW040 00/M04 Q1011,OIIK,2021-01-18T03:00:00Z,36.25,50.05,0.0,-4.0,50,2,,6.21,29.852362,,,,,,,,,,,FEW,4000,,,,,,,VFR,,,,,,,,,,,,METAR,1278.0
OIII 180300Z 27010KT 9999 FEW035 04/M05 Q1012 A2989 NOSIG,OIII,2021-01-18T03:00:00Z,35.68,51.3,4.0,-5.0,270,10,,6.21,29.88189,,,,,,TRUE,,,,,FEW,3500,,,,,,,VFR,,,,,,,,,,,,METAR,1182.0
OIIE 180300Z 27010KT CAVOK 05/M04 Q1012,OIIE,2021-01-18T03:00:00Z,35.42,51.15,5.0,-4.0,270,10,,6.21,29.88189,,,,,,,,,,,CAVOK,,,,,,,,VFR,,,,,,,,,,,,METAR,993.0
OIGG 180300Z 15012KT 9999 SCT070 BKN170 19/M06 Q1004,OIGG,2021-01-18T03:00:00Z,37.33,49.6,19.0,-6.0,150,12,,6.21,29.64567,,,,,,,,,,,SCT,7000,BKN,17000,,,,,VFR,,,,,,,,,,,,METAR,-16.0
OIFS 180300Z 26004KT CAVOK M02/M06 Q1016,OIFS,2021-01-18T03:00:00Z,32.28,50.85,-2.0,-6.0,260,4,,6.21,30.0,,,,,,,,,,,CAVOK,,,,,,,,VFR,,,,,,,,,,,,METAR,2042.0
OIFM 180300Z 18002KT CAVOK M06/M08 Q1016 A3000,OIFM,2021-01-18T03:00:00Z,32.75,51.87,-6.0,-8.0,180,2,,6.21,30.0,,,,,,,,,,,CAVOK,,,,,,,,VFR,,,,,,,,,,,,METAR,1539.0
OICS 180300Z 00000KT 9999 SCT040 01/M03 Q1013 A2993,OICS,2021-01-18T03:00:00Z,35.25,47.02,1.0,-3.0,0,0,,6.21,29.911417,,,,,,,,,,,SCT,4000,,,,,,,VFR,,,,,,,,,,,,METAR,1369.0
OICI 180300Z 12002KT 9999 FEW040CB SCT045 BKN090 05/03 Q1017 A3004,OICI,2021-01-18T03:00:00Z,33.58,46.4,5.0,3.0,120,2,,6.21,30.029528,,,,,,,,,,,FEW,4000,SCT,4500,BKN,9000,,,VFR,,,,,,,,,,,,METAR,1323.0
OICC 180300Z 28004KT 5000 BR FEW045CB BKN080 04/01 Q1015 A2999 RESHRA,OICC,2021-01-18T03:00:00Z,34.35,47.17,4.0,1.0,280,4,,3.11,29.970472,,,,,,,,,,BR,FEW,4500,BKN,8000,,,,,MVFR,,,,,,,,,,,,METAR,1310.0
OIBV 180300Z 00000KT 0800 FG NSC 18/18 Q1014,OIBV,2021-01-18T03:00:00Z,26.82,53.35,18.0,18.0,0,0,,0.5,29.940945,,,,,,,,,,FG,CLR,,,,,,,,LIFR,,,,,,,,,,,,METAR,23.0
OIBS 180300Z 15004KT 7000 NSC 21/18 Q1015,OIBS,2021-01-18T03:00:00Z,25.9,54.55,21.0,18.0,150,4,,4.35,29.970472,,,,,,,,,,,CLR,,,,,,,,MVFR,,,,,,,,,,,,METAR,4.0
OIBP 180300Z 15006KT 6000 NSC 12/11 Q1014 A2996,OIBP,2021-01-18T03:00:00Z,27.38,52.73,12.0,11.0,150,6,,3.73,29.940945,,,,,,,,,,,CLR,,,,,,,,MVFR,,,,,,,,,,,,METAR,13.0
OIBL 180300Z 36006KT 2500 BR NSC 17/17 Q1014,OIBL,2021-01-18T03:00:00Z,26.53,54.82,17.0,17.0,360,6,,1.55,29.940945,,,,,,,,,,BR,CLR,,,,,,,,IFR,,,,,,,,,,,,METAR,25.0
OIBK 180300Z 29004KT 3000 BR FEW030 19/18 Q1014 NOSIG,OIBK,2021-01-18T03:00:00Z,26.53,53.98,19.0,18.0,290,4,,1.86,29.940945,,,,,,TRUE,,,,BR,FEW,3000,,,,,,,IFR,,,,,,,,,,,,METAR,27.0
OIBJ 180300Z 00000KT CAVOK 08/05 Q1017 A3005,OIBJ,2021-01-18T03:00:00Z,27.82,52.35,8.0,5.0,0,0,,6.21,30.029528,,,,,,,,,,,CAVOK,,,,,,,,VFR,,,,,,,,,,,,METAR,647.0
OIBH 180300Z 00000KT 7000 NSC 12/11 Q1015 A2997,OIBH,2021-01-18T03:00:00Z,27.2,54.32,12.0,11.0,0,0,,4.35,29.970472,,,,,,,,,,,CLR,,,,,,,,MVFR,,,,,,,,,,,,METAR,412.0
OIBB 180300Z 12004KT 5000 BR NSC 15/12 Q1015 A2997,OIBB,2021-01-18T03:00:00Z,28.93,50.83,15.0,12.0,120,4,,3.11,29.970472,,,,,,,,,,BR,CLR,,,,,,,,MVFR,,,,,,,,,,,,METAR,15.0
OIBA 180300Z 24008KT 4000 HZ FEW020 22/17 Q1014,OIBA,2021-01-18T03:00:00Z,25.88,55.03,22.0,17.0,240,8,,2.49,29.940945,,,,,,,,,,HZ,FEW,2000,,,,,,,IFR,,,,,,,,,,,,METAR,7.0
OIAW 180300Z 06002KT 5000 BR NSC 10/08 Q1014,OIAW,2021-01-18T03:00:00Z,31.33,48.77,10.0,8.0,60,2,,3.11,29.940945,,,,,,,,,,BR,CLR,,,,,,,,MVFR,,,,,,,,,,,,METAR,25.0
OIAM 180300Z 11006KT 3000 BR NSC 13/11 Q1013,OIAM,2021-01-18T03:00:00Z,30.55,49.15,13.0,11.0,110,6,,1.86,29.911417,,,,,,,,,,BR,CLR,,,,,,,,IFR,,,,,,,,,,,,METAR,7.0
OIAH 180300Z 00000KT CAVOK 06/04 Q1017,OIAH,2021-01-18T03:00:00Z,30.33,50.83,6.0,4.0,0,0,,6.21,30.029528,,,,,,,,,,,CAVOK,,,,,,,,VFR,,,,,,,,,,,,METAR,730.0
OIAA 180300Z 27006KT CAVOK 10/06 Q1014,OIAA,2021-01-18T03:00:00Z,30.35,48.22,10.0,6.0,270,6,,6.21,29.940945,,,,,,,,,,,CAVOK,,,,,,,,VFR,,,,,,,,,,,,METAR,4.0
OEYN 180300Z 03002KT CAVOK 14/09 Q1015 NOSIG,OEYN,2021-01-18T03:00:00Z,24.13,38.07,14.0,9.0,30,2,,6.21,29.970472,,,,,,TRUE,,,,,CAVOK,,,,,,,,VFR,,,,,,,,,,,,METAR,20.0
OEWJ 180300Z 04004KT 9999 FEW030 17/04 Q1017 NOSIG,OEWJ,2021-01-18T03:00:00Z,26.18,36.47,17.0,4.0,40,4,,6.21,30.029528,,,,,,TRUE,,,,,FEW,3000,,,,,,,VFR,,,,,,,,,,,,METAR,8.0
OEWD 180300Z 35003KT CAVOK 12/03 Q1016 NOSIG,OEWD,2021-01-18T03:00:00Z,20.5,45.2,12.0,3.0,350,3,,6.21,30.0,,,,,,TRUE,,,,,CAVOK,,,,,,,,VFR,,,,,,,,,,,,METAR,629.0
OETR 180300Z 24008KT 9999 SCT030 07/05 Q1015 NOSIG,OETR,2021-01-18T03:00:00Z,31.7,38.73,7.0,5.0,240,8,,6.21,29.970472,,,,,,TRUE,,,,,SCT,3000,,,,,,,VFR,,,,,,,,,,,,METAR,854.0
OETF 180300Z 24004KT CAVOK 11/07 Q1022 NOSIG,OETF,2021-01-18T03:00:00Z,21.47,40.53,11.0,7.0,240,4,,6.21,30.177166,,,,,,TRUE,,,,,CAVOK,,,,,,,,VFR,,,,,,,,,,,,METAR,1460.0
OETB 180300Z 00000KT 9999 FEW040 07/00 Q1017 NOSIG,OETB,2021-01-18T03:00:00Z,28.37,36.62,7.0,0.0,0,0,,6.21,30.029528,,,,,,TRUE,,,,,FEW,4000,,,,,,,VFR,,,,,,,,,,,,METAR,770.0
OESK 180300Z 24004KT CAVOK 07/M01 Q1019,OESK,2021-01-18T03:00:00Z,29.78,40.1,7.0,-1.0,240,4,,6.21,30.088583,,,,,,,,,,,CAVOK,,,,,,,,VFR,,,,,,,,,,,,METAR,671.0
OESH 180300Z 00000KT CAVOK 15/00 Q1017 NOSIG,OESH,2021-01-18T03:00:00Z,17.47,47.12,15.0,0.0,0,0,,6.21,30.029528,,,,,,TRUE,,,,,CAVOK,,,,,,,,VFR,,,,,,,,,,,,METAR,720.0
OERY 180300Z 00000KT CAVOK 13/M01 Q1018,OERY,2021-01-18T03:00:00Z,24.72,46.72,13.0,-1.0,0,0,,6.21,30.059055,,,,,,,,,,,CAVOK,,,,,,,,VFR,,,,,,,,,,,,METAR,611.0
OERR 180300Z 00000KT CAVOK 07/00 Q1015 NOSIG,OERR,2021-01-18T03:00:00Z,30.9,41.13,7.0,0.0,0,0,,6.21,29.970472,,,,,,TRUE,,,,,CAVOK,,,,,,,,VFR,,,,,,,,,,,,METAR,554.0
OERK 180300Z 18002KT CAVOK 12/02 Q1018 NOSIG,OERK,2021-01-18T03:00:00Z,24.95,46.72,12.0,2.0,180,2,,6.21,30.059055,,,,,,TRUE,,,,,CAVOK,,,,,,,,VFR,,,,,,,,,,,,METAR,618.0
OERF 180300Z 18004KT CAVOK 08/01 Q1017,OERF,2021-01-18T03:00:00Z,29.62,43.48,8.0,1.0,180,4,,6.21,30.029528,,,,,,,,,,,CAVOK,,,,,,,,VFR,,,,,,,,,,,,METAR,441.0
OEPA 180300Z 18006KT CAVOK 09/04 Q1017 NOSIG,OEPA,2021-01-18T03:00:00Z,28.33,46.12,9.0,4.0,180,6,,6.21,30.029528,,,,,,TRUE,,,,,CAVOK,,,,,,,,VFR,,,,,,,,,,,,METAR,361.0
OENG 180300Z 24002KT CAVOK 11/M01 Q1020 NOSIG,OENG,2021-01-18T03:00:00Z,17.62,44.42,11.0,-1.0,240,2,,6.21,30.11811,,,,,,TRUE,,,,,CAVOK,,,,,,,,VFR,,,,,,,,,,,,METAR,1210.0
OEMA 180300Z 32007KT CAVOK 14/02 Q1019 NOSIG,OEMA,2021-01-18T03:00:00Z,24.55,39.7,14.0,2.0,320,7,,6.21,30.088583,,,,,,TRUE,,,,,CAVOK,,,,,,,,VFR,,,,,,,,,,,,METAR,639.0
OEKM 180300Z 00000KT CAVOK 10/09 Q1024 NOSIG,OEKM,2021-01-18T03:00:00Z,18.3,42.78,10.0,9.0,0,0,,6.21,30.236221,,,,,,TRUE,,,,,CAVOK,,,,,,,,VFR,,,,,,,,,,,,METAR,2038.0
OEKJ 180300Z 18004KT 8000 CLR 13/M02 Q1019,OEKJ,2021-01-18T03:00:00Z,24.07,47.58,13.0,-2.0,180,4,,4.97,30.088583,,,,,,,,,,,CLR,,,,,,,,MVFR,,,,,,,,,,,,METAR,487.0
OEJN 180300Z 02008KT CAVOK 20/12 Q1015 NOSIG,OEJN,2021-01-18T03:00:00Z,21.68,39.15,20.0,12.0,20,8,,6.21,29.970472,,,,,,TRUE,,,,,CAVOK,,,,,,,,VFR,,,,,,,,,,,,METAR,8.0
OEJB 180300Z AUTO 27010KT CAVOK 13/02 Q1016 NOSIG,OEJB,2021-01-18T03:00:00Z,27.05,49.4,13.0,2.0,270,10,,6.21,30.0,,,TRUE,,,TRUE,,,,,CAVOK,,,,,,,,VFR,,,,,,,,,,,,METAR,6.0
OEHL 180300Z 21004KT CAVOK 05/01 Q1018 NOSIG,OEHL,2021-01-18T03:00:00Z,27.43,41.68,5.0,1.0,210,4,,6.21,30.059055,,,,,,TRUE,,,,,CAVOK,,,,,,,,VFR,,,,,,,,,,,,METAR,1002.0
OEGT 180300Z 24008KT 9999 SCT040 07/01 Q1016 NOSIG,OEGT,2021-01-18T03:00:00Z,31.42,37.27,7.0,1.0,240,8,,6.21,30.0,,,,,,TRUE,,,,,SCT,4000,,,,,,,VFR,,,,,,,,,,,,METAR,512.0
OEGS 180300Z 01004KT CAVOK 09/05 Q1017,OEGS,2021-01-18T03:00:00Z,26.3,43.77,9.0,5.0,10,4,,6.21,30.029528,,,,,,,,,,,CAVOK,,,,,,,,VFR,,,,,,,,,,,,METAR,647.0
OEGN 180300Z 12003KT 7000 FEW030 23/21 Q1014 NOSIG,OEGN,2021-01-18T03:00:00Z,16.9,42.58,23.0,21.0,120,3,,4.35,29.940945,,,,,,TRUE,,,,,FEW,3000,,,,,,,MVFR,,,,,,,,,,,,METAR,5.0
OEDR 180300Z 26005KT CAVOK 12/04 Q1014,OEDR,2021-01-18T03:00:00Z,26.27,50.17,12.0,4.0,260,5,,6.21,29.940945,,,,,,,,,,,CAVOK,,,,,,,,VFR,,,,,,,,,,,,METAR,17.0
OEDF 180300Z 00000KT CAVOK 11/02 Q1015 NOSIG,OEDF,2021-01-18T03:00:00Z,26.43,49.82,11.0,2.0,0,0,,6.21,29.970472,,,,,,TRUE,,,,,CAVOK,,,,,,,,VFR,,,,,,,,,,,,METAR,15.0
OEBH 180300Z 00000KT CAVOK 11/07 Q1019 NOSIG,OEBH,2021-01-18T03:00:00Z,19.98,42.62,11.0,7.0,0,0,,6.21,30.088583,,,,,,TRUE,,,,,CAVOK,,,,,,,,VFR,,,,,,,,,,,,METAR,1167.0
OEBA 180300Z 24005KT CAVOK 13/10 Q1021 NOSIG,OEBA,2021-01-18T03:00:00Z,20.3,41.63,13.0,10.0,240,5,,6.21,30.147638,,,,,,TRUE,,,,,CAVOK,,,,,,,,VFR,,,,,,,,,,,,METAR,1659.0
OEAR 180300Z 00000KT CAVOK 21/11 Q1016,OEAR,2021-01-18T03:00:00Z,,,21.0,11.0,0,0,,6.21,30.0,,,,,,,,,,,CAVOK,,,,,,,,VFR,,,,,,,,,,,,METAR,
OEAO 180300Z 00000KT CAVOK 10/03 Q1018,OEAO,2021-01-18T03:00:00Z,26.48,38.12,10.0,3.0,0,0,,6.21,30.059055,,,,,,,,,,,CAVOK,,,,,,,,VFR,,,,,,,,,,,,METAR,615.0
OEAH 180300Z 33003KT CAVOK 13/M01 Q1016 NOSIG,OEAH,2021-01-18T03:00:00Z,25.28,49.48,13.0,-1.0,330,3,,6.21,30.0,,,,,,TRUE,,,,,CAVOK,,,,,,,,VFR,,,,,,,,,,,,METAR,180.0
OEAB 180300Z 00000KT CAVOK 09/08 Q1024 NOSIG,OEAB,2021-01-18T03:00:00Z,18.23,42.65,9.0,8.0,0,0,,6.21,30.236221,,,,,,TRUE,,,,,CAVOK,,,,,,,,VFR,,,,,,,,,,,,METAR,2092.0
OBBI 180300Z 00000KT CAVOK 18/15 Q1015 NOSIG,OBBI,2021-01-18T03:00:00Z,26.27,50.63,18.0,15.0,0,0,,6.21,29.970472,,,,,,TRUE,,,,,CAVOK,,,,,,,,VFR,,,,,,,,,,,,METAR,6.0
NZWN 180300Z AUTO 34019G32KT 300V010 9999 FEW090/// 20/10 Q1000 NOSIG,NZWN,2021-01-18T03:00:00Z,-41.32,174.8,20.0,10.0,340,19,32,6.21,29.52756,,,TRUE,,,TRUE,,,,,FEW,9000,,,,,,,VFR,,,,,,,,,,,,METAR,12.0
NZCH 180300Z AUTO 34011G21KT 300V020 9999 FEW100/// 22/04 Q0993 NOSIG,NZCH,2021-01-18T03:00:00Z,-43.48,172.52,22.0,4.0,340,11,21,6.21,29.320866,,,TRUE,,,TRUE,,,,,FEW,10000,,,,,,,VFR,,,,,,,,,,,,METAR,36.0
NZAA 180300Z AUTO 25017KT 9999 FEW043/// 22/12 Q1009 NOSIG,NZAA,2021-01-18T03:00:00Z,-37.02,174.8,22.0,12.0,250,17,,6.21,29.793306,,,TRUE,,,TRUE,,,,,FEW,4300,,,,,,,VFR,,,,,,,,,,,,METAR,7.0
NWWW 180300Z AUTO 05006KT 360V100 9999 FEW016/// OVC025/// ///TCU 29/25 Q1009 TEMPO 4000 SHRA SCT018CB BKN025,NWWW,2021-01-18T03:00:00Z,,,29.0,25.0,50,6,,6.21,29.793306,,,TRUE,,,,,,,,FEW,1600,OVC,2500,,,,,MVFR,,,,,,,,,,,,METAR,
NVVW 180300Z 27005KT 9999 BKN022 31/27 Q1010,NVVW,2021-01-18T03:00:00Z,-19.45,169.22,31.0,27.0,270,5,,6.21,29.822834,,,,,,,,,,,BKN,2200,,,,,,,MVFR,,,,,,,,,,,,METAR,5.0
NVVV 180300Z 22005KT 9999 BKN020 30/26 Q1010,NVVV,2021-01-18T03:00:00Z,-17.68,168.3,30.0,26.0,220,5,,6.21,29.822834,,,,,,,,,,,BKN,2000,,,,,,,MVFR,,,,,,,,,,,,METAR,23.0
NVVA 180300Z 00000KT 9999 SCT018 FEW025CB OVC110 27/26 Q1010 RMK RERA,NVVA,2021-01-18T03:00:00Z,-20.25,169.77,27.0,26.0,0,0,,6.21,29.822834,,,,,,,,,,,SCT,1800,FEW,2500,OVC,11000,,,VFR,,,,,,,,,,,,METAR,7.0
NVSS 180300Z 04003KT 9999 FEW025 32/26 Q1009,NVSS,2021-01-18T03:00:00Z,-15.52,167.22,32.0,26.0,40,3,,6.21,29.793306,,,,,,,,,,,FEW,2500,,,,,,,VFR,,,,,,,,,,,,METAR,47.0
NVSG 180300Z 05004KT 9999 FEW020 32/28 Q1009,NVSG,2021-01-18T03:00:00Z,-15.3,167.97,32.0,28.0,50,4,,6.21,29.793306,,,,,,,,,,,FEW,2000,,,,,,,VFR,,,,,,,,,,,,METAR,31.0
NVSC 180300Z 36002KT 9999 BKN020 32/27 Q1009,NVSC,2021-01-18T03:00:00Z,-13.85,167.55,32.0,27.0,360,2,,6.21,29.793306,,,,,,,,,,,BKN,2000,,,,,,,MVFR,,,,,,,,,,,,METAR,11.0
NTAA 180300Z 23004KT 210V270 9999 FEW023 31/23 Q1013 WS R04 NOSIG,NTAA,2021-01-18T03:00:00Z,,,31.0,23.0,230,4,,6.21,29.911417,,,,,,TRUE,,,,,FEW,2300,,,,,,,VFR,,,,,,,,,,,,METAR,
NSTU 180300Z 09010KT 12SM VCSH BKN016TCU 31/29 A2982 RMK VCSH S TCU W-N-E-S SLP098 8/200 T03140291 57007,NSTU,2021-01-18T03:00:00Z,,,31.4,29.1,90,10,,12.0,29.819881,1009.8,,,,,,,,,VCSH,BKN,1600,,,,,,,MVFR,-0.7,,,,,,,,,,,METAR,
NSFA 180300Z 03012KT 9999 SCT025 31/26 Q1010,NSFA,2021-01-18T03:00:00Z,,,31.0,26.0,30,12,,6.21,29.822834,,,,,,,,,,,SCT,2500,,,,,,,VFR,,,,,,,,,,,,METAR,
NLWW 180300Z 09010KT 9999 FEW021 31/26 Q1009 NOSIG,NLWW,2021-01-18T03:00:00Z,,,31.0,26.0,90,10,,6.21,29.793306,,,,,,TRUE,,,,,FEW,2100,,,,,,,VFR,,,,,,,,,,,,METAR,
NIUE 180300Z 06009KT 030V100 9999 BKN1018 31/24 Q1011,NIUE,2021-01-18T03:00:00Z,-19.07,-169.92,31.0,24.0,60,9,,6.21,29.852362,,,,,,,,,,,,,,,,,,,,,,,,,,,,,,,METAR,22.0
NGTA 180300Z 08011KT 9999 FEW020 29/22 Q1008,NGTA,2021-01-18T03:00:00Z,1.37,173.13,29.0,22.0,80,11,,6.21,29.763779,,,,,,,,,,,FEW,2000,,,,,,,VFR,,,,,,,,,,,,METAR,8.0
NGFU 180300Z 09005KT 9999 VCSH FEW016CB SCT018TCU BKN110 30/26 Q1008,NGFU,2021-01-18T03:00:00Z,-8.52,179.18,30.0,26.0,90,5,,6.21,29.763779,,,,,,,,,,VCSH,FEW,1600,SCT,1800,BKN,11000,,,VFR,,,,,,,,,,,,METAR,2.0
NFTV 180300Z 01008KT 9999 FEW017 30/25 Q1011,NFTV,2021-01-18T03:00:00Z,-18.58,-173.97,30.0,25.0,10,8,,6.21,29.852362,,,,,,,,,,,FEW,1700,,,,,,,VFR,,,,,,,,,,,,METAR,71.0
NFTL 180300Z 35005KT 9999 FEW020 30/26 Q1011,NFTL,2021-01-18T03:00:00Z,-19.78,-174.33,30.0,26.0,350,5,,6.21,29.852362,,,,,,,,,,,FEW,2000,,,,,,,VFR,,,,,,,,,,,,METAR,10.0
NFTF 180300Z 34010KT 9999 FEW020 BKN300 30/26 Q1012,NFTF,2021-01-18T03:00:00Z,-21.23,-175.15,30.0,26.0,340,10,,6.21,29.88189,,,,,,,,,,,FEW,2000,BKN,30000,,,,,VFR,,,,,,,,,,,,METAR,38.0
NFNS 180300Z AUTO 12009KT //// ///// Q////,NFNS,2021-01-18T03:00:00Z,-16.82,179.33,,,120,9,,,,,,TRUE,,,,,,,,,,,,,,,,,,,,,,,,,,,,METAR,4.0
NFNL 180300Z AUTO 33008KT 32/26 Q1010,NFNL,2021-01-18T03:00:00Z,-16.47,179.33,32.0,26.0,330,8,,,29.822834,,,TRUE,,,,,,,,,,,,,,,,,,,,,,,,,,,,METAR,17.0
NFNA 180300Z 06010KT 9999 FEW020TCU BKN300 33/24 Q1010,NFNA,2021-01-18T03:00:00Z,-18.05,178.57,33.0,24.0,60,10,,6.21,29.822834,,,,,,,,,,,FEW,2000,BKN,30000,,,,,VFR,,,,,,,,,,,,METAR,6.0
NFFN 180300Z 33007KT 9999 4500NE TSRA FEW015CB SCT020TCU BKN046 29/25 Q1010 TEMPO 5000 TSRA,NFFN,2021-01-18T03:00:00Z,-17.75,177.45,29.0,25.0,330,7,,6.21,29.822834,,,,,,,,,,TSRA,FEW,1500,SCT,2000,BKN,4600,,,VFR,,,,,,,,,,,,SPECI,14.0
NCSW 180300Z AUTO 08004KT //// ////// 30/24 Q1010,NCSW,2021-01-18T03:00:00Z,,,30.0,24.0,80,4,,,29.822834,,,TRUE,,,,,,,,,,,,,,,,,,,,,,,,,,,,METAR,
NCRK 180300Z AUTO 07004KT //// ////// 30/23 Q1009,NCRK,2021-01-18T03:00:00Z,,,30.0,23.0,70,4,,,29.793306,,,TRUE,,,,,,,,,,,,,,,,,,,,,,,,,,,,METAR,
NCRG 180300Z AUTO 05008KT 9999 FEW033/// SCT047/// 28/22 Q1014,NCRG,2021-01-18T03:00:00Z,,,28.0,22.0,50,8,,6.21,29.940945,,,TRUE,,,,,,,,FEW,3300,SCT,4700,,,,,VFR,,,,,,,,,,,,METAR,
NCPY 180300Z AUTO 08005KT //// ////// 27/24 Q1009,NCPY,2021-01-18T03:00:00Z,,,27.0,24.0,80,5,,,29.793306,,,TRUE,,,,,,,,,,,,,,,,,,,,,,,,,,,,METAR,
NCPL 180300Z AUTO 06005KT //// ////// 31/24 Q1012,NCPL,2021-01-18T03:00:00Z,,,31.0,24.0,60,5,,,29.88189,,,TRUE,,,,,,,,,,,,,,,,,,,,,,,,,,,,METAR,
NCPK 180300Z AUTO NIL,NCPK,2021-01-18T03:00:00Z,,,,,,,,,,,,TRUE,,,,,,,,,,,,,,,,,,,,,,,,,,,,METAR,
NCNS 180300Z AUTO 09004KT //// ////// 31/24 Q1010,NCNS,2021-01-18T03:00:00Z,,,31.0,24.0,90,4,,,29.822834,,,TRUE,,,,,,,,,,,,,,,,,,,,,,,,,,,,METAR,
NCMR 180300Z AUTO 06005KT //// ////// ///// Q1012,NCMR,2021-01-18T03:00:00Z,,,,,60,5,,,29.88189,,,TRUE,,,,,,,,,,,,,,,,,,,,,,,,,,,,METAR,
NCMK 180300Z AUTO 09005KT //// ////// 29/25 Q1012,NCMK,2021-01-18T03:00:00Z,,,29.0,25.0,90,5,,,29.88189,,,TRUE,,,,,,,,,,,,,,,,,,,,,,,,,,,,METAR,
NCMH 180300Z AUTO 11004KT //// ////// ///// Q1009,NCMH,2021-01-18T03:00:00Z,,,,,110,4,,,29.793306,,,TRUE,,,,,,,,,,,,,,,,,,,,,,,,,,,,METAR,
NCMG 180300Z AUTO 03003KT //// ////// ///// Q////,NCMG,2021-01-18T03:00:00Z,,,,,30,3,,,,,,TRUE,,,,,,,,,,,,,,,,,,,,,,,,,,,,METAR,
NCAT 180300Z AUTO 08003KT //// ////// ///// Q////,NCAT,2021-01-18T03:00:00Z,-19.97,-158.12,,,80,3,,,,,,TRUE,,,,,,,,,,,,,,,,,,,,,,,,,,,,METAR,11.0
NCAI 180300Z AUTO 10008KT 050V130 29/24 Q1013,NCAI,2021-01-18T03:00:00Z,-18.82,-159.77,29.0,24.0,100,8,,,29.911417,,,TRUE,,,,,,,,,,,,,,,,,,,,,,,,,,,,METAR,7.0
MYSM 180300Z AUTO 02003KT 9999 -SHRA FEW033/// SCT041/// OVC057/// 21/21 A3006,MYSM,2021-01-18T03:00:00Z,24.05,-74.52,21.0,21.0,20,3,,6.21,30.059055,,,TRUE,,,,,,,-SHRA,FEW,3300,SCT,4100,OVC,5700,,,VFR,,,,,,,,,,,,METAR,5.0
MYNN 180300Z 35007KT 9999 SCT045 BKN200 20/13 A3011,MYNN,2021-01-18T03:00:00Z,25.03,-77.47,20.0,13.0,350,7,,6.21,30.109253,,,,,,,,,,,SCT,4500,BKN,20000,,,,,VFR,,,,,,,,,,,,METAR,5.0
MYGF 180300Z AUTO 10002KT 9999 FEW130/// BKN170/// BKN240/// 16/11 A3006,MYGF,2021-01-18T03:00:00Z,26.55,-78.7,16.0,11.0,100,2,,6.21,30.059055,,,TRUE,,,,,,,,FEW,13000,BKN,17000,BKN,24000,,,VFR,,,,,,,,,,,,METAR,2.0
MWCR 180300Z 07008KT 9999 FEW035 26/23 Q1016,MWCR,2021-01-18T03:00:00Z,19.3,-81.37,26.0,23.0,70,8,,6.21,30.0,,,,,,,,,,,FEW,3500,,,,,,,VFR,,,,,,,,,,,,METAR,4.0
MROC 180300Z 07006KT CAVOK 21/15 A3002 NOSIG,MROC,2021-01-18T03:00:00Z,10.0,-84.22,21.0,15.0,70,6,,6.21,30.02067,,,,,,TRUE,,,,,CAVOK,,,,,,,,VFR,,,,,,,,,,,,METAR,900.0
MRLB 180300Z 26005KT CAVOK 24/21 A2987,MRLB,2021-01-18T03:00:00Z,10.6,-85.55,24.0,21.0,260,5,,6.21,29.870079,,,,,,,,,,,CAVOK,,,,,,,,VFR,,,,,,,,,,,,METAR,79.0
MPTO 180300Z 24004KT 9999 FEW018 25/21 Q1011 NOSIG,MPTO,2021-01-18T03:00:00Z,9.05,-79.38,25.0,21.0,240,4,,6.21,29.852362,,,,,,TRUE,,,,,FEW,1800,,,,,,,VFR,,,,,,,,,,,,METAR,7.0
MPPA 180300Z 02007KT 9999 FEW018 26/24 Q1010,MPPA,2021-01-18T03:00:00Z,8.92,-79.6,26.0,24.0,20,7,,6.21,29.822834,,,,,,,,,,,FEW,1800,,,,,,,VFR,,,,,,,,,,,,METAR,1.0
MPMG 180300Z AUTO 35006KT //// R01///// // FEW021/// OVC092/// 25/23 Q1011,MPMG,2021-01-18T03:00:00Z,8.98,-79.57,25.0,23.0,350,6,,,29.852362,,,TRUE,,,,,,,,FEW,2100,OVC,9200,,,,,,,,,,,,,,,,,METAR,6.0
MNMG 180300Z 10006KT 9999 SCT020 SCT070 25/24 Q1012 A2990 NOSIG,MNMG,2021-01-18T03:00:00Z,12.15,-86.17,25.0,24.0,100,6,,6.21,29.88189,,,,,,TRUE,,,,,SCT,2000,SCT,7000,,,,,VFR,,,,,,,,,,,,METAR,59.0
MKJS 180300Z 17003KT 9999 FEW022 26/20 Q1015,MKJS,2021-01-18T03:00:00Z,18.5,-77.92,26.0,20.0,170,3,,6.21,29.970472,,,,,,,,,,,FEW,2200,,,,,,,VFR,,,,,,,,,,,,METAR,3.0
MKJP 180300Z 32007KT 9999 FEW022 26/22 Q1015,MKJP,2021-01-18T03:00:00Z,17.93,-76.78,26.0,22.0,320,7,,6.21,29.970472,,,,,,,,,,,FEW,2200,,,,,,,VFR,,,,,,,,,,,,METAR,3.0
MHTG 180300Z 36010KT 9999 FEW012 SCT026 19/17 Q1020 A3012 NOSIG,MHTG,2021-01-18T03:00:00Z,14.07,-87.22,19.0,17.0,360,10,,6.21,30.11811,,,,,,TRUE,,,,,FEW,1200,SCT,2600,,,,,VFR,,,,,,,,,,,,METAR,1001.0
MHRO 180300Z 00000KT 9999 BKN020 24/23 Q1016 A3000 NOSIG,MHRO,2021-01-18T03:00:00Z,16.32,-86.53,24.0,23.0,0,0,,6.21,30.0,,,,,,TRUE,,,,,BKN,2000,,,,,,,MVFR,,,,,,,,,,,,METAR,6.0
MHLC 180300Z 22004KT 9999 SCT026 BKN070 22/21 Q1016 A3000 NOSIG,MHLC,2021-01-18T03:00:00Z,15.75,-86.85,22.0,21.0,220,4,,6.21,30.0,,,,,,TRUE,,,,,SCT,2600,BKN,7000,,,,,VFR,,,,,,,,,,,,METAR,13.0
MHCA 180300Z 00000KT 9999 SCT028 22/21,MHCA,2021-01-18T03:00:00Z,14.87,-85.78,22.0,21.0,0,0,,6.21,,,,,,,,,,,,SCT,2800,,,,,,,VFR,,,,,,,,,,,,METAR,386.0
MGPB 180300Z 00000KT 9000 -DZ BKN016 OVC080 21/21 Q1018 A3006,MGPB,2021-01-18T03:00:00Z,15.73,-88.58,21.0,21.0,0,0,,5.59,30.059055,,,,,,,,,,-DZ,BKN,1600,OVC,8000,,,,,MVFR,,,,,,,,,,,,METAR,6.0
MGMM 180300Z 00000KT CAVOK 22/19 Q1019 A3009 BKN090,MGMM,2021-01-18T03:00:00Z,16.9,-89.87,22.0,19.0,0,0,,6.21,30.088583,,,,,,,,,,,BKN,9000,,,,,,,VFR,,,,,,,,,,,,METAR,105.0
MGGT 180300Z 02016KT 9999 BKN014 16/14 Q1026 A3030,MGGT,2021-01-18T03:00:00Z,14.58,-90.53,16.0,14.0,20,16,,6.21,30.295275,,,,,,,,,,,BKN,1400,,,,,,,MVFR,,,,,,,,,,,,METAR,1497.0
MDST 180300Z 16005KT 9999 FEW018 BKN300 22/20 Q1016,MDST,2021-01-18T03:00:00Z,19.4,-70.6,22.0,20.0,160,5,,6.21,30.0,,,,,,,,,,,FEW,1800,BKN,30000,,,,,VFR,,,,,,,,,,,,METAR,175.0
MDSD 180300Z 06004KT 9999 FEW018 SCT300 22/20 Q1016 NOSIG,MDSD,2021-01-18T03:00:00Z,18.42,-69.67,22.0,20.0,60,4,,6.21,30.0,,,,,,TRUE,,,,,FEW,1800,SCT,30000,,,,,VFR,,,,,,,,,,,,METAR,18.0
MDPP 180300Z 00000KT 9999 FEW018 24/22 Q1016,MDPP,2021-01-18T03:00:00Z,19.75,-70.57,24.0,22.0,0,0,,6.21,30.0,,,,,,,,,,,FEW,1800,,,,,,,VFR,,,,,,,,,,,,METAR,9.0
MDPC 180300Z 07006KT 9999 SCT018 25/22 Q1016 NOSIG,MDPC,2021-01-18T03:00:00Z,18.57,-68.37,25.0,22.0,70,6,,6.21,30.0,,,,,,TRUE,,,,,SCT,1800,,,,,,,VFR,,,,,,,,,,,,METAR,10.0
MDLR 180300Z 00000KT 9999 SCT017 20/20 Q1016,MDLR,2021-01-18T03:00:00Z,18.45,-68.92,20.0,20.0,0,0,,6.21,30.0,,,,,,,,,,,SCT,1700,,,,,,,VFR,,,,,,,,,,,,METAR,66.0
LZZI 180300Z 11003KT 5000 BR NSC M20/M22 Q1022,LZZI,2021-01-18T03:00:00Z,49.23,18.62,-20.0,-22.0,110,3,,3.11,30.177166,,,,,,,,,,BR,CLR,,,,,,,,MVFR,,,,,,,,,,,,METAR,311.0
LZTT 180300Z VRB01KT 9999 BKN009 M15/M17 Q1016,LZTT,2021-01-18T03:00:00Z,49.07,20.25,-15.0,-17.0,0,1,,6.21,30.0,,,,,,,,,,,BKN,900,,,,,,,IFR,,,,,,,,,,,,METAR,693.0
LZPP 180300Z AUTO 36007KT 9000 NCD M14/M16 Q1022,LZPP,2021-01-18T03:00:00Z,48.62,17.83,-14.0,-16.0,360,7,,5.59,30.177166,,,TRUE,,,,,,,,CLR,,,,,,,,VFR,,,,,,,,,,,,METAR,160.0
LZKZ 180300Z 02010KT 9999 OVC019 M09/M13 Q1020,LZKZ,2021-01-18T03:00:00Z,48.67,21.23,-9.0,-13.0,20,10,,6.21,30.11811,,,,,,,,,,,OVC,1900,,,,,,,MVFR,,,,,,,,,,,,METAR,227.0
LZIB 180300Z VRB02KT 9999 BKN035 M10/M12 Q1022 R13/710095,LZIB,2021-01-18T03:00:00Z,48.17,17.22,-10.0,-12.0,0,2,,6.21,30.177166,,,,,,,,,,,BKN,3500,,,,,,,VFR,,,,,,,,,,,,METAR,129.0
LYVR 180300Z AUTO VRB02KT 6000 BKN004/// OVC039/// M04/M06 Q1022,LYVR,2021-01-18T03:00:00Z,45.13,21.32,-4.0,-6.0,0,2,,3.73,30.177166,,,TRUE,,,,,,,,BKN,400,OVC,3900,,,,,LIFR,,,,,,,,,,,,METAR,82.0
LYUZ 180300Z AUTO 32003KT 290V360 4500 -SN BR OVC002/// M09/M10 Q1017,LYUZ,2021-01-18T03:00:00Z,43.9,19.67,-9.0,-10.0,320,3,,2.8,30.029528,,,TRUE,,,,,,,-SN BR,OVC,200,,,,,,,LIFR,,,,,,,,,,,,METAR,914.0
LYTV 180300Z VRB10KT CAVOK 02/M14 Q1018,LYTV,2021-01-18T03:00:00Z,42.4,18.72,2.0,-14.0,0,10,,6.21,30.059055,,,,,,,,,,,CAVOK,,,,,,,,VFR,,,,,,,,,,,,METAR,3.0
LYPG 180300Z 01009KT 350V070 CAVOK 00/M12 Q1019 NOSIG,LYPG,2021-01-18T03:00:00Z,42.37,19.25,0.0,-12.0,10,9,,6.21,30.088583,,,,,,TRUE,,,,,CAVOK,,,,,,,,VFR,,,,,,,,,,,,METAR,32.0
LYNI 180300Z 32003KT 9999 SCT013 OVC033 M05/M07 Q1022 R11/2///95 NOSIG,LYNI,2021-01-18T03:00:00Z,43.33,21.85,-5.0,-7.0,320,3,,6.21,30.177166,,,,,,TRUE,,,,,SCT,1300,OVC,3300,,,,,VFR,,,,,,,,,,,,METAR,197.0
LYKV 180300Z 00000KT 5000 BR SCT013 BKN030 M05/M05 Q1022 NOSIG,LYKV,2021-01-18T03:00:00Z,43.82,20.58,-5.0,-5.0,0,0,,3.11,30.177166,,,,,,TRUE,,,,BR,SCT,1300,BKN,3000,,,,,MVFR,,,,,,,,,,,,METAR,209.0
LYBT 180300Z 18001KT 1500 BR NSC M12/M12 Q1023 NOSIG,LYBT,2021-01-18T03:00:00Z,44.93,20.25,-12.0,-12.0,180,1,,0.93,30.206694,,,,,,TRUE,,,,BR,CLR,,,,,,,,LIFR,,,,,,,,,,,,METAR,78.0
LYBE 180300Z 27003KT 2500 BR OVC002 M07/M07 Q1023 R12/2///95 NOSIG,LYBE,2021-01-18T03:00:00Z,44.82,20.28,-7.0,-7.0,270,3,,1.55,30.206694,,,,,,TRUE,,,,BR,OVC,200,,,,,,,LIFR,,,,,,,,,,,,METAR,93.0
LUKK 180300Z 34009KT 7000 -SN FEW024 BKN035 OVC042 M09/M11 Q1016 R08/490145 NOSIG,LUKK,2021-01-18T03:00:00Z,46.93,28.93,-9.0,-11.0,340,9,,4.35,30.0,,,,,,TRUE,,,,-SN,FEW,2400,BKN,3500,OVC,4200,,,MVFR,,,,,,,,,,,,METAR,102.0
LRTZ 180300Z 34010KT 9999 BKN090 M06/M09 Q1019 BLU BLU,LRTZ,2021-01-18T03:00:00Z,43.98,28.62,-6.0,-9.0,340,10,,6.21,30.088583,,,,,,,,,,,BKN,9000,,,,,,,VFR,,,,,,,,,,,,METAR,45.0
LRTR 180300Z VRB01KT 4000 BR OVC039 M07/M07 Q1021 R11/590794,LRTR,2021-01-18T03:00:00Z,45.82,21.33,-7.0,-7.0,0,1,,2.49,30.147638,,,,,,,,,,BR,OVC,3900,,,,,,,IFR,,,,,,,,,,,,METAR,104.0
LRTM 180300Z AUTO 19008KT 6000 -SN BKN038/// M08/M10 Q1018,LRTM,2021-01-18T03:00:00Z,46.47,24.42,-8.0,-10.0,190,8,,3.73,30.059055,,,TRUE,,,,,,,-SN,BKN,3800,,,,,,,MVFR,,,,,,,,,,,,METAR,289.0
LRTC 180300Z AUTO 29010KT 8000 -SN BKN050/// BKN090/// M04/M07 Q1017,LRTC,2021-01-18T03:00:00Z,45.07,28.72,-4.0,-7.0,290,10,,4.97,30.029528,,,TRUE,,,,,,,-SN,BKN,5000,BKN,9000,,,,,MVFR,,,,,,,,,,,,METAR,52.0
LRSV 180300Z 33015KT 6000 -SN BKN042 M09/M11 Q1014 R16/490493,LRSV,2021-01-18T03:00:00Z,47.68,26.35,-9.0,-11.0,330,15,,3.73,29.940945,,,,,,,,,,-SN,BKN,4200,,,,,,,MVFR,,,,,,,,,,,,METAR,406.0
LRSM 180300Z AUTO 28003KT 7000 -SN OVC035/// M06/M08 Q1020,LRSM,2021-01-18T03:00:00Z,47.7,22.88,-6.0,-8.0,280,3,,4.35,30.11811,,,TRUE,,,,,,,-SN,OVC,3500,,,,,,,MVFR,,,,,,,,,,,,METAR,123.0
LRSB 180300Z VRB01KT 9999 OVC030 M09/M13 Q1018 NOSIG,LRSB,2021-01-18T03:00:00Z,45.78,24.08,-9.0,-13.0,0,1,,6.21,30.059055,,,,,,TRUE,,,,,OVC,3000,,,,,,,MVFR,,,,,,,,,,,,METAR,442.0
LROP 180300Z 28004KT 5000 BR NSC M08/M09 Q1019 R26L/09//95 NOSIG,LROP,2021-01-18T03:00:00Z,44.57,26.1,-8.0,-9.0,280,4,,3.11,30.088583,,,,,,TRUE,,,,BR,CLR,,,,,,,,MVFR,,,,,,,,,,,,METAR,92.0
LROD 180300Z AUTO 20005KT 9000 BKN037/// M06/M07 Q1021,LROD,2021-01-18T03:00:00Z,47.03,21.88,-6.0,-7.0,200,5,,5.59,30.147638,,,TRUE,,,,,,,,BKN,3700,,,,,,,VFR,,,,,,,,,,,,METAR,132.0
LRIA 180300Z 30006KT 1500 SN SCT010 OVC025 M08/M10 Q1017 R14/490195,LRIA,2021-01-18T03:00:00Z,47.17,27.62,-8.0,-10.0,300,6,,0.93,30.029528,,,,,,,,,,SN,SCT,1000,OVC,2500,,,,,LIFR,,,,,,,,,,,,METAR,71.0
LRFT 180300Z 27006KT 5000 BR OVC030 M08/M10 Q1018 WHT WHT,LRFT,2021-01-18T03:00:00Z,44.38,27.72,-8.0,-10.0,270,6,,3.11,30.059055,,,,,,,,,,BR,OVC,3000,,,,,,,MVFR,,,,,,,,,,,,METAR,54.0
LRCV 180300Z 25007KT 5000 BR NSC M10/M11 Q1019,LRCV,2021-01-18T03:00:00Z,44.32,23.88,-10.0,-11.0,250,7,,3.11,30.088583,,,,,,,,,,BR,CLR,,,,,,,,MVFR,,,,,,,,,,,,METAR,192.0
LRCT 180300Z 27002KT 5000 BR OVC030 M13/M14 Q1020 WHT WHT,LRCT,2021-01-18T03:00:00Z,46.5,23.88,-13.0,-14.0,270,2,,3.11,30.11811,,,,,,,,,,BR,OVC,3000,,,,,,,MVFR,,,,,,,,,,,,METAR,324.0
LRCL 180300Z 27005KT 9999 OVC031 M06/M10 Q1018 R07/19//95,LRCL,2021-01-18T03:00:00Z,46.78,23.68,-6.0,-10.0,270,5,,6.21,30.059055,,,,,,,,,,,OVC,3100,,,,,,,VFR,,,,,,,,,,,,METAR,313.0
LRCK 180300Z 26011KT 7000 NSC M06/M07 Q1018 NOSIG,LRCK,2021-01-18T03:00:00Z,44.37,28.48,-6.0,-7.0,260,11,,4.35,30.059055,,,,,,TRUE,,,,,CLR,,,,,,,,MVFR,,,,,,,,,,,,METAR,108.0
LRBS 180300Z 27005KT 6000 NSC M08/M09 Q1019 NOSIG,LRBS,2021-01-18T03:00:00Z,44.5,26.08,-8.0,-9.0,270,5,,3.73,30.088583,,,,,,TRUE,,,,,CLR,,,,,,,,MVFR,,,,,,,,,,,,METAR,91.0
LRBO 180300Z 27006KT 8000 BKN070 M08/M11 Q1018 BLU BLU,LRBO,2021-01-18T03:00:00Z,45.22,26.97,-8.0,-11.0,270,6,,4.97,30.059055,,,,,,,,,,,BKN,7000,,,,,,,MVFR,,,,,,,,,,,,METAR,104.0
LRBM 180300Z AUTO 26006KT 9999 -SHSN SCT022/// BKN028/// BKN033/// M06/M09 Q1020,LRBM,2021-01-18T03:00:00Z,47.67,23.47,-6.0,-9.0,260,6,,6.21,30.11811,,,TRUE,,,,,,,-SHSN,SCT,2200,BKN,2800,BKN,3300,,,MVFR,,,,,,,,,,,,METAR,180.0
LRBC 180300Z 34005KT 6000 -SN OVC030 M07/M08 Q1017 R16/490494,LRBC,2021-01-18T03:00:00Z,46.52,26.92,-7.0,-8.0,340,5,,3.73,30.029528,,,,,,,,,,-SN,OVC,3000,,,,,,,MVFR,,,,,,,,,,,,METAR,183.0
LRAR 180300Z 24003KT 5000 -SN BR FEW004 BKN037 M05/M06 Q1021 R09/491093,LRAR,2021-01-18T03:00:00Z,46.18,21.27,-5.0,-6.0,240,3,,3.11,30.147638,,,,,,,,,,-SN BR,FEW,400,BKN,3700,,,,,MVFR,,,,,,,,,,,,METAR,102.0
LQTZ 180300Z VRB01KT 3000 BR BKN005 M09/M09 Q1022,LQTZ,2021-01-18T03:00:00Z,44.47,18.73,-9.0,-9.0,0,1,,1.86,30.177166,,,,,,,,,,BR,BKN,500,,,,,,,IFR,,,,,,,,,,,,METAR,242.0
LQSA 180300Z 14003KT 5000 BR BKN050 M10/M10 Q1019,LQSA,2021-01-18T03:00:00Z,43.82,18.32,-10.0,-10.0,140,3,,3.11,30.088583,,,,,,,,,,BR,BKN,5000,,,,,,,MVFR,,,,,,,,,,,,METAR,505.0
LQMO 180300Z 20003KT 150V290 9999 FEW050 M00/M13 Q1019,LQMO,2021-01-18T03:00:00Z,43.28,17.83,0.0,-13.0,200,3,,6.21,30.088583,,,,,,,,,,,FEW,5000,,,,,,,VFR,,,,,,,,,,,,METAR,49.0
LQBK 180300Z 21002KT 9999 SCT047 M05/M05 Q1023 NOSIG,LQBK,2021-01-18T03:00:00Z,44.93,17.3,-5.0,-5.0,210,2,,6.21,30.206694,,,,,,TRUE,,,,,SCT,4700,,,,,,,VFR,,,,,,,,,,,,METAR,114.0
LPPT 180300Z 00000KT CAVOK 03/01 Q1027,LPPT,2021-01-18T03:00:00Z,38.77,-9.13,3.0,1.0,0,0,,6.21,30.324802,,,,,,,,,,,CAVOK,,,,,,,,VFR,,,,,,,,,,,,METAR,98.0
LPPS 180300Z 01002KT 9999 SCT015 BKN030 14/07 Q1028,LPPS,2021-01-18T03:00:00Z,33.07,-16.35,14.0,7.0,10,2,,6.21,30.35433,,,,,,,,,,,SCT,1500,BKN,3000,,,,,MVFR,,,,,,,,,,,,METAR,89.0
LPPR 180300Z 02005KT 350V090 8000 NSC 03/01 Q1028,LPPR,2021-01-18T03:00:00Z,41.23,-8.68,3.0,1.0,20,5,,4.97,30.35433,,,,,,,,,,,CLR,,,,,,,,MVFR,,,,,,,,,,,,METAR,64.0
LPPD 180300Z 21019KT 6000 -RA FEW008 SCT010 16/15 Q1018,LPPD,2021-01-18T03:00:00Z,37.73,-25.68,16.0,15.0,210,19,,3.73,30.059055,,,,,,,,,,-RA,FEW,800,SCT,1000,,,,,MVFR,,,,,,,,,,,,METAR,62.0
LPMT 180300Z 03004KT 7000 NSC 03/03 Q1027,LPMT,2021-01-18T03:00:00Z,38.7,-9.05,3.0,3.0,30,4,,4.35,30.324802,,,,,,,,,,,CLR,,,,,,,,MVFR,,,,,,,,,,,,METAR,4.0
LPMR 180300Z 17003KT 2000 BR NSC 01/00 Q1027,LPMR,2021-01-18T03:00:00Z,39.82,-8.88,1.0,0.0,170,3,,1.24,30.324802,,,,,,,,,,BR,CLR,,,,,,,,IFR,,,,,,,,,,,,METAR,50.0
LPMA 180300Z 32004KT 290V360 9999 BKN016 SCT030 15/08 Q1027,LPMA,2021-01-18T03:00:00Z,32.7,-16.77,15.0,8.0,320,4,,6.21,30.324802,,,,,,,,,,,BKN,1600,SCT,3000,,,,,MVFR,,,,,,,,,,,,METAR,54.0
LPLA 180300Z /////KT 9999 FEW007 BKN016 16/15 Q1014,LPLA,2021-01-18T03:00:00Z,38.77,-27.1,16.0,15.0,,,,6.21,29.940945,,,,,,,,,,,FEW,700,BKN,1600,,,,,MVFR,,,,,,,,,,,,METAR,60.0
LPFR 180300Z 03004KT CAVOK 04/01 Q1026,LPFR,2021-01-18T03:00:00Z,37.02,-7.97,4.0,1.0,30,4,,6.21,30.295275,,,,,,,,,,,CAVOK,,,,,,,,VFR,,,,,,,,,,,,METAR,3.0
LPBJ 180300Z 06002KT CAVOK 03/02 Q1026,LPBJ,2021-01-18T03:00:00Z,38.08,-7.93,3.0,2.0,60,2,,6.21,30.295275,,,,,,,,,,,CAVOK,,,,,,,,VFR,,,,,,,,,,,,METAR,196.0
LPAZ 180300Z 20022KT 9999 -SHRA BKN013 16/14 Q1020,LPAZ,2021-01-18T03:00:00Z,36.97,-25.17,16.0,14.0,200,22,,6.21,30.11811,,,,,,,,,,-SHRA,BKN,1300,,,,,,,MVFR,,,,,,,,,,,,METAR,96.0
LKTB 180300Z 07004KT 050V110 9999 OVC032 M09/M12 Q1021 R27/01//95 NOSIG,LKTB,2021-01-18T03:00:00Z,49.15,16.68,-9.0,-12.0,70,4,,6.21,30.147638,,,,,,TRUE,,,,,OVC,3200,,,,,,,VFR,,,,,,,,,,,,METAR,233.0
LKPR 180300Z 20005KT 9999 OVC018 M05/M07 Q1019 R24/29//95 R30/32//95 NOSIG,LKPR,2021-01-18T03:00:00Z,50.1,14.27,-5.0,-7.0,200,5,,6.21,30.088583,,,,,,TRUE,,,,,OVC,1800,,,,,,,MVFR,,,,,,,,,,,,METAR,364.0
LKPD 180300Z 12002KT 9999 BKN029 M07/M08 Q1021 RMK BLU,LKPD,2021-01-18T03:00:00Z,50.02,15.73,-7.0,-8.0,120,2,,6.21,30.147638,,,,,,,,,,,BKN,2900,,,,,,,MVFR,,,,,,,,,,,,SPECI,226.0
LKNA 180300Z 28007KT 9999 OVC023 M06/M10 Q1019 RMK WHT,LKNA,2021-01-18T03:00:00Z,49.17,16.12,-6.0,-10.0,280,7,,6.21,30.088583,,,,,,,,,,,OVC,2300,,,,,,,MVFR,,,,,,,,,,,,SPECI,460.0
LKMT 180300Z 22003KT 6000 FEW020 M19/M21 Q1021 R04/420195 NOSIG,LKMT,2021-01-18T03:00:00Z,49.68,18.12,-19.0,-21.0,220,3,,3.73,30.147638,,,,,,TRUE,,,,,FEW,2000,,,,,,,MVFR,,,,,,,,,,,,METAR,251.0
LKLN 180300Z AUTO 21003KT 8000 -SN SCT022 OVC034 M03/M04 Q1020,LKLN,2021-01-18T03:00:00Z,49.68,13.27,-3.0,-4.0,210,3,,4.97,30.11811,,,TRUE,,,,,,,-SN,SCT,2200,OVC,3400,,,,,MVFR,,,,,,,,,,,,METAR,353.0
LKKB 180300Z 17004KT 9999 BKN022 M05/M09 Q1020,LKKB,2021-01-18T03:00:00Z,50.12,14.53,-5.0,-9.0,170,4,,6.21,30.11811,,,,,,,,,,,BKN,2200,,,,,,,MVFR,,,,,,,,,,,,METAR,281.0
LKCV 180300Z 06003KT 9999 FEW029 M05/M09 Q1020 NOSIG RMK BLU BLU,LKCV,2021-01-18T03:00:00Z,49.93,15.38,-5.0,-9.0,60,3,,6.21,30.11811,,,,,,TRUE,,,,,FEW,2900,,,,,,,VFR,,,,,,,,,,,,METAR,234.0
LJPZ 180300Z AUTO 12005KT 9999 BKN049/// 00/M06 Q1021,LJPZ,2021-01-18T03:00:00Z,45.47,13.62,0.0,-6.0,120,5,,6.21,30.147638,,,TRUE,,,,,,,,BKN,4900,,,,,,,VFR,,,,,,,,,,,,METAR,2.0
LJMB 180300Z AUTO 15004KT 9999 SCT022/// M05/M06 Q1022,LJMB,2021-01-18T03:00:00Z,46.47,15.67,-5.0,-6.0,150,4,,6.21,30.177166,,,TRUE,,,,,,,,SCT,2200,,,,,,,VFR,,,,,,,,,,,,METAR,263.0
LJLJ 180300Z 21001KT 9999 OVC020 M04/M05 Q1022 NOSIG,LJLJ,2021-01-18T03:00:00Z,46.22,14.47,-4.0,-5.0,210,1,,6.21,30.177166,,,,,,TRUE,,,,,OVC,2000,,,,,,,MVFR,,,,,,,,,,,,METAR,363.0
LJCE 180300Z AUTO 00000KT 5000 BR OVC036/// M03/M04 Q1023,LJCE,2021-01-18T03:00:00Z,45.9,15.52,-3.0,-4.0,0,0,,3.11,30.206694,,,TRUE,,,,,,,BR,OVC,3600,,,,,,,MVFR,,,,,,,,,,,,METAR,153.0
LHBP 180300Z 12001KT 7000 FEW010 M11/M12 Q1021 R88/19//95 NOSIG,LHBP,2021-01-18T03:00:00Z,47.43,19.27,-11.0,-12.0,120,1,,4.35,30.147638,,,,,,TRUE,,,,,FEW,1000,,,,,,,MVFR,,,,,,,,,,,,METAR,141.0
LGKP 180300Z AUTO 30010KT //// // ////// 08/01 Q1015 RE//,LGKP,2021-01-18T03:00:00Z,35.42,27.15,8.0,1.0,300,10,,,29.970472,,,TRUE,,,,,,,,,,,,,,,,,,,,,,,,,,,,METAR,20.0
LFYR 180300Z AUTO 00000KT //// // OVC039 M01/M01 Q1029,LFYR,2021-01-18T03:00:00Z,47.32,1.68,-1.0,-1.0,0,0,,,30.383858,,,TRUE,,,,,,,,OVC,3900,,,,,,,,,,,,,,,,,,,METAR,83.0
LFTW 180300Z AUTO 36008KT CAVOK 03/M03 Q1025 NOSIG,LFTW,2021-01-18T03:00:00Z,43.75,4.42,3.0,-3.0,360,8,,6.21,30.265747,,,TRUE,,,TRUE,,,,,CAVOK,,,,,,,,VFR,,,,,,,,,,,,METAR,91.0
LFTH 180300Z AUTO 36007KT CAVOK 06/M05 Q1021 NOSIG,LFTH,2021-01-18T03:00:00Z,43.1,6.15,6.0,-5.0,360,7,,6.21,30.147638,,,TRUE,,,TRUE,,,,,CAVOK,,,,,,,,VFR,,,,,,,,,,,,METAR,3.0
LFSX 180300Z AUTO 13002KT 3700 BR BKN013 BKN018 OVC042 01/01 Q1027,LFSX,2021-01-18T03:00:00Z,47.77,6.35,1.0,1.0,130,2,,2.3,30.324802,,,TRUE,,,,,,,BR,BKN,1300,BKN,1800,OVC,4200,,,IFR,,,,,,,,,,,,METAR,266.0
LFST 180300Z AUTO 24008KT 9999 OVC038 03/00 Q1026 TEMPO 0800 BCFG OVC001,LFST,2021-01-18T03:00:00Z,48.53,7.63,3.0,0.0,240,8,,6.21,30.295275,,,TRUE,,,,,,,,OVC,3800,,,,,,,VFR,,,,,,,,,,,,METAR,149.0
LFSO 180300Z AUTO 24008KT 9999 OVC039 01/01 Q1026,LFSO,2021-01-18T03:00:00Z,48.57,5.97,1.0,1.0,240,8,,6.21,30.295275,,,TRUE,,,,,,,,OVC,3900,,,,,,,VFR,,,,,,,,,,,,METAR,328.0
LFSN 180300Z AUTO 14003KT 9999 FEW011 SCT016 OVC043 02/01 Q1026,LFSN,2021-01-18T03:00:00Z,48.68,6.22,2.0,1.0,140,3,,6.21,30.295275,,,TRUE,,,,,,,,FEW,1100,SCT,1600,OVC,4300,,,VFR,,,,,,,,,,,,METAR,214.0
LFSM 180300Z AUTO 24006KT 7000 OVC011 02/01 Q1027,LFSM,2021-01-18T03:00:00Z,,,2.0,1.0,240,6,,4.35,30.324802,,,TRUE,,,,,,,,OVC,1100,,,,,,,MVFR,,,,,,,,,,,,METAR,
LFSL 180300Z AUTO 00000KT CAVOK M01/M02 Q1029 NOSIG,LFSL,2021-01-18T03:00:00Z,45.03,1.48,-1.0,-2.0,0,0,,6.21,30.383858,,,TRUE,,,TRUE,,,,,CAVOK,,,,,,,,VFR,,,,,,,,,,,,METAR,300.0
LFSI 180300Z AUTO 22003KT 9999 OVC042 03/02 Q1027,LFSI,2021-01-18T03:00:00Z,48.62,4.9,3.0,2.0,220,3,,6.21,30.324802,,,TRUE,,,,,,,,OVC,4200,,,,,,,VFR,,,,,,,,,,,,METAR,136.0
LFSG 180300Z AUTO 23006KT 9999 FEW032 OVC039 01/00 Q1026,LFSG,2021-01-18T03:00:00Z,48.33,6.07,1.0,0.0,230,6,,6.21,30.295275,,,TRUE,,,,,,,,FEW,3200,OVC,3900,,,,,VFR,,,,,,,,,,,,METAR,320.0
LFSD 180300Z AUTO 00000KT 7000 -RA SCT022 BKN027 BKN033 01/01 Q1028,LFSD,2021-01-18T03:00:00Z,47.27,5.08,1.0,1.0,0,0,,4.35,30.35433,,,TRUE,,,,,,,-RA,SCT,2200,BKN,2700,BKN,3300,,,MVFR,,,,,,,,,,,,METAR,218.0
LFSB 180300Z AUTO 26005KT 220V290 9999 BKN054 02/00 Q1027 TEMPO BKN008,LFSB,2021-01-18T03:00:00Z,47.6,7.52,2.0,0.0,260,5,,6.21,30.324802,,,TRUE,,,,,,,,BKN,5400,,,,,,,VFR,,,,,,,,,,,,METAR,262.0
LFRZ 180300Z AUTO 14002KT 0600 0550 R25/P2000U FG FEW005 BKN044 02/02 Q1029 TEMPO VV///,LFRZ,2021-01-18T03:00:00Z,47.32,-2.17,2.0,2.0,140,2,,0.37,30.383858,,,TRUE,,,,,,,FG,FEW,500,BKN,4400,,,,,LIFR,,,,,,,,,,,,METAR,2.0
LFRV 180300Z AUTO 00000KT 9999 OVC038 03/02 Q1028,LFRV,2021-01-18T03:00:00Z,47.72,-2.72,3.0,2.0,0,0,,6.21,30.35433,,,TRUE,,,,,,,,OVC,3800,,,,,,,VFR,,,,,,,,,,,,METAR,132.0
LFRS 180300Z AUTO 17002KT 0750 0600 R03/0750D R21/P2000 FZFG SCT001 SCT005 M00/M00 Q1029 TEMPO 0500 FG VV///,LFRS,2021-01-18T03:00:00Z,47.17,-1.6,0.0,0.0,170,2,,0.47,30.383858,,,TRUE,,,,,,,FZFG,SCT,100,SCT,500,,,,,LIFR,,,,,,,,,,,,METAR,26.0
LFRQ 180300Z AUTO VRB02KT 9999 OVC039 04/03 Q1029,LFRQ,2021-01-18T03:00:00Z,47.97,-4.17,4.0,3.0,0,2,,6.21,30.383858,,,TRUE,,,,,,,,OVC,3900,,,,,,,VFR,,,,,,,,,,,,METAR,94.0
LFRO 180300Z AUTO VRB03KT 9999 OVC041 04/03 Q1029,LFRO,2021-01-18T03:00:00Z,48.75,-3.47,4.0,3.0,0,3,,6.21,30.383858,,,TRUE,,,,,,,,OVC,4100,,,,,,,VFR,,,,,,,,,,,,METAR,86.0
LFRN 180300Z AUTO 16001KT 6000 NSC 01/01 Q1029 TEMPO 0500 FG VV///,LFRN,2021-01-18T03:00:00Z,48.07,-1.73,1.0,1.0,160,1,,3.73,30.383858,,,TRUE,,,,,,,,CLR,,,,,,,,MVFR,,,,,,,,,,,,METAR,35.0
LFRM 180300Z AUTO VRB01KT 5000 BR NSC M00/M01 Q1029,LFRM,2021-01-18T03:00:00Z,47.95,0.2,0.0,-1.0,0,1,,3.11,30.383858,,,TRUE,,,,,,,BR,CLR,,,,,,,,MVFR,,,,,,,,,,,,METAR,51.0
LFRL 180300Z AUTO 19004KT 9999 OVC043 06/03 Q1028,LFRL,2021-01-18T03:00:00Z,48.27,-4.43,6.0,3.0,190,4,,6.21,30.35433,,,TRUE,,,,,,,,OVC,4300,,,,,,,VFR,,,,,,,,,,,,METAR,80.0
LFRK 180300Z AUTO 24005KT 9999 BKN024 OVC032 03/02 Q1028,LFRK,2021-01-18T03:00:00Z,49.17,-0.45,3.0,2.0,240,5,,6.21,30.35433,,,TRUE,,,,,,,,BKN,2400,OVC,3200,,,,,MVFR,,,,,,,,,,,,METAR,66.0
LFRJ 180300Z AUTO 20007KT 9999 OVC042 06/03 Q1028,LFRJ,2021-01-18T03:00:00Z,48.52,-4.15,6.0,3.0,200,7,,6.21,30.35433,,,TRUE,,,,,,,,OVC,4200,,,,,,,VFR,,,,,,,,,,,,METAR,109.0
LFRI 180300Z AUTO VRB02KT 9999 BKN040 01/01 Q1029,LFRI,2021-01-18T03:00:00Z,46.7,-1.37,1.0,1.0,0,2,,6.21,30.383858,,,TRUE,,,,,,,,BKN,4000,,,,,,,VFR,,,,,,,,,,,,METAR,89.0
LFRH 180300Z AUTO VRB02KT 9999 OVC040 04/03 Q1029 NOSIG,LFRH,2021-01-18T03:00:00Z,47.77,-3.45,4.0,3.0,0,2,,6.21,30.383858,,,TRUE,,,TRUE,,,,,OVC,4000,,,,,,,VFR,,,,,,,,,,,,METAR,46.0
LFRG 180300Z AUTO 24006KT 9999 FEW032 OVC110 04/03 Q1027,LFRG,2021-01-18T03:00:00Z,49.37,0.15,4.0,3.0,240,6,,6.21,30.324802,,,TRUE,,,,,,,,FEW,3200,OVC,11000,,,,,VFR,,,,,,,,,,,,METAR,146.0
LFRD 180300Z AUTO 21006KT CAVOK 03/01 Q1028 TEMPO 3000 BR,LFRD,2021-01-18T03:00:00Z,48.58,-2.07,3.0,1.0,210,6,,6.21,30.35433,,,TRUE,,,,,,,,CAVOK,,,,,,,,VFR,,,,,,,,,,,,METAR,56.0
LFRC 180300Z AUTO 25008KT CAVOK 04/03 Q1027,LFRC,2021-01-18T03:00:00Z,49.63,-1.47,4.0,3.0,250,8,,6.21,30.324802,,,TRUE,,,,,,,,CAVOK,,,,,,,,VFR,,,,,,,,,,,,METAR,137.0
LFRB 180300Z AUTO 18005KT 9999 OVC040 06/04 Q1028 TEMPO 3000 BR,LFRB,2021-01-18T03:00:00Z,48.45,-4.42,6.0,4.0,180,5,,6.21,30.35433,,,TRUE,,,,,,,,OVC,4000,,,,,,,VFR,,,,,,,,,,,,METAR,91.0
LFQQ 180300Z AUTO 21003KT CAVOK 01/00 Q1025 TEMPO 3000 BR,LFQQ,2021-01-18T03:00:00Z,50.57,3.1,1.0,0.0,210,3,,6.21,30.265747,,,TRUE,,,,,,,,CAVOK,,,,,,,,VFR,,,,,,,,,,,,METAR,43.0
LFQB 180300Z AUTO 25007KT 9999 OVC039 04/01 Q1027,LFQB,2021-01-18T03:00:00Z,48.32,4.02,4.0,1.0,250,7,,6.21,30.324802,,,TRUE,,,,,,,,OVC,3900,,,,,,,VFR,,,,,,,,,,,,METAR,107.0
LFQA 180300Z AUTO VRB01KT 9999 OVC044 02/01 Q1026,LFQA,2021-01-18T03:00:00Z,49.2,4.15,2.0,1.0,0,1,,6.21,30.295275,,,TRUE,,,,,,,,OVC,4400,,,,,,,VFR,,,,,,,,,,,,METAR,92.0
LFPV 180300Z AUTO 26008KT 9999 SCT032 02/01 Q1027 TEMPO 4000 BR,LFPV,2021-01-18T03:00:00Z,48.77,2.2,2.0,1.0,260,8,,6.21,30.324802,,,TRUE,,,,,,,,SCT,3200,,,,,,,VFR,,,,,,,,,,,,METAR,171.0
LFPT 180300Z AUTO VRB02KT CAVOK 01/01 Q1027,LFPT,2021-01-18T03:00:00Z,49.1,2.03,1.0,1.0,0,2,,6.21,30.324802,,,TRUE,,,,,,,,CAVOK,,,,,,,,VFR,,,,,,,,,,,,METAR,91.0
LFPO 180300Z 04002KT 9999 BKN033 02/01 Q1028 NOSIG,LFPO,2021-01-18T03:00:00Z,48.72,2.38,2.0,1.0,40,2,,6.21,30.35433,,,,,,TRUE,,,,,BKN,3300,,,,,,,VFR,,,,,,,,,,,,METAR,88.0
LFPN 180300Z AUTO 26004KT 9999 SCT025 SCT130 01/01 Q1027,LFPN,2021-01-18T03:00:00Z,48.75,2.12,1.0,1.0,260,4,,6.21,30.324802,,,TRUE,,,,,,,,SCT,2500,SCT,13000,,,,,VFR,,,,,,,,,,,,METAR,152.0
LFPM 180300Z AUTO 23005KT 9999 FEW028 OVC040 02/02 Q1028,LFPM,2021-01-18T03:00:00Z,48.62,2.67,2.0,2.0,230,5,,6.21,30.35433,,,TRUE,,,,,,,,FEW,2800,OVC,4000,,,,,VFR,,,,,,,,,,,,METAR,91.0
LFPG 180300Z 22006KT 9999 BKN025 03/02 Q1027 NOSIG,LFPG,2021-01-18T03:00:00Z,49.02,2.53,3.0,2.0,220,6,,6.21,30.324802,,,,,,TRUE,,,,,BKN,2500,,,,,,,MVFR,,,,,,,,,,,,METAR,107.0
LFPB 180300Z AUTO VRB02KT 9999 SCT030 SCT110 02/01 Q1028 TEMPO 4000 BR,LFPB,2021-01-18T03:00:00Z,48.97,2.42,2.0,1.0,0,2,,6.21,30.35433,,,TRUE,,,,,,,,SCT,3000,SCT,11000,,,,,VFR,,,,,,,,,,,,METAR,50.0
LFOZ 180300Z AUTO 23002KT 6000 OVC037 01/00 Q1028,LFOZ,2021-01-18T03:00:00Z,47.9,2.17,1.0,0.0,230,2,,3.73,30.35433,,,TRUE,,,,,,,,OVC,3700,,,,,,,MVFR,,,,,,,,,,,,METAR,121.0
LFOV 180300Z AUTO VRB02KT CAVOK 02/02 Q1028,LFOV,2021-01-18T03:00:00Z,48.03,-0.75,2.0,2.0,0,2,,6.21,30.35433,,,TRUE,,,,,,,,CAVOK,,,,,,,,VFR,,,,,,,,,,,,METAR,99.0
LFOT 180300Z AUTO 30001KT 8000 BKN032 01/01 Q1029 TEMPO 0600 FG VV///,LFOT,2021-01-18T03:00:00Z,47.43,0.72,1.0,1.0,300,1,,4.97,30.383858,,,TRUE,,,,,,,,BKN,3200,,,,,,,MVFR,,,,,,,,,,,,METAR,107.0
LFOP 180300Z AUTO 24006KT CAVOK 02/02 Q1027,LFOP,2021-01-18T03:00:00Z,49.37,1.17,2.0,2.0,240,6,,6.21,30.324802,,,TRUE,,,,,,,,CAVOK,,,,,,,,VFR,,,,,,,,,,,,METAR,149.0
LFOK 180300Z AUTO 23005KT 9999 OVC035 02/01 Q1027 BECMG 1500 BR,LFOK,2021-01-18T03:00:00Z,48.78,4.15,2.0,1.0,230,5,,6.21,30.324802,,,TRUE,,,,,,,,OVC,3500,,,,,,,VFR,,,,,,,,,,,,METAR,166.0
LFOJ 180300Z AUTO 24004KT CAVOK M00/M01 Q1028,LFOJ,2021-01-18T03:00:00Z,47.98,1.75,0.0,-1.0,240,4,,6.21,30.35433,,,TRUE,,,,,,,,CAVOK,,,,,,,,VFR,,,,,,,,,,,,METAR,122.0
LFOH 180300Z AUTO 24008KT 9999 SCT014 BKN024 BKN035 06/05 Q1027,LFOH,2021-01-18T03:00:00Z,49.52,0.08,6.0,5.0,240,8,,6.21,30.324802,,,TRUE,,,,,,,,SCT,1400,BKN,2400,BKN,3500,,,MVFR,,,,,,,,,,,,METAR,87.0
LFOE 180300Z AUTO 22003KT CAVOK 02/01 Q1027 TEMPO 1500 BR,LFOE,2021-01-18T03:00:00Z,49.02,1.22,2.0,1.0,220,3,,6.21,30.324802,,,TRUE,,,,,,,,CAVOK,,,,,,,,VFR,,,,,,,,,,,,METAR,132.0
LFOC 180300Z AUTO VRB03KT 9999 ////// M02/M03 Q1028,LFOC,2021-01-18T03:00:00Z,48.05,1.37,-2.0,-3.0,0,3,,6.21,30.35433,,,TRUE,,,,,,,,,,,,,,,,,,,,,,,,,,,,METAR,124.0
LFOB 180300Z AUTO 24002KT 6000 NSC M01/M02 Q1027 BECMG 3000 BR,LFOB,2021-01-18T03:00:00Z,49.47,2.12,-1.0,-2.0,240,2,,3.73,30.324802,,,TRUE,,,,,,,,CLR,,,,,,,,MVFR,,,,,,,,,,,,METAR,99.0
LFOA 180300Z AUTO VRB02KT 6000 OVC041 02/02 Q1028,LFOA,2021-01-18T03:00:00Z,47.05,2.63,2.0,2.0,0,2,,3.73,30.35433,,,TRUE,,,,,,,,OVC,4100,,,,,,,MVFR,,,,,,,,,,,,METAR,174.0
LFMY 180300Z AUTO VRB03KT CAVOK 05/M01 Q1024,LFMY,2021-01-18T03:00:00Z,43.6,5.1,5.0,-1.0,0,3,,6.21,30.236221,,,TRUE,,,,,,,,CAVOK,,,,,,,,VFR,,,,,,,,,,,,METAR,57.0
LFMV 180300Z AUTO 34023KT CAVOK 05/M00 Q1024 BECMG 35020G30KT,LFMV,2021-01-18T03:00:00Z,43.9,4.9,5.0,0.0,340,23,,6.21,30.236221,,,TRUE,,,,,,,,CAVOK,,,,,,,,VFR,,,,,,,,,,,,METAR,33.0
LFMU 180300Z AUTO 30010KT CAVOK 02/M00 Q1027 NOSIG,LFMU,2021-01-18T03:00:00Z,43.32,3.35,2.0,0.0,300,10,,6.21,30.324802,,,TRUE,,,TRUE,,,,,CAVOK,,,,,,,,VFR,,,,,,,,,,,,METAR,14.0
LFMT 180300Z AUTO 27005KT CAVOK 05/M03 Q1026 NOSIG,LFMT,2021-01-18T03:00:00Z,43.57,3.97,5.0,-3.0,270,5,,6.21,30.295275,,,TRUE,,,TRUE,,,,,CAVOK,,,,,,,,VFR,,,,,,,,,,,,METAR,1.0
LFMP 180300Z AUTO 33012KT CAVOK 07/M01 Q1027 TEMPO 33015G25KT,LFMP,2021-01-18T03:00:00Z,42.73,2.87,7.0,-1.0,330,12,,6.21,30.324802,,,TRUE,,,,,,,,CAVOK,,,,,,,,VFR,,,,,,,,,,,,METAR,41.0
LFMO 180300Z AUTO 34018KT CAVOK 05/M00 Q1026 NOSIG,LFMO,2021-01-18T03:00:00Z,44.13,4.87,5.0,0.0,340,18,,6.21,30.295275,,,TRUE,,,TRUE,,,,,CAVOK,,,,,,,,VFR,,,,,,,,,,,,METAR,56.0
LFMN 180300Z 32009KT CAVOK 06/M04 Q1020 NOSIG,LFMN,2021-01-18T03:00:00Z,43.65,7.2,6.0,-4.0,320,9,,6.21,30.11811,,,,,,TRUE,,,,,CAVOK,,,,,,,,VFR,,,,,,,,,,,,METAR,4.0
LFML 180300Z AUTO 29011KT CAVOK 05/M00 Q1024 NOSIG,LFML,2021-01-18T03:00:00Z,43.45,5.22,5.0,0.0,290,11,,6.21,30.236221,,,TRUE,,,TRUE,,,,,CAVOK,,,,,,,,VFR,,,,,,,,,,,,METAR,20.0
LFMK 180300Z AUTO 25008KT 220V280 CAVOK 03/01 Q1029 NOSIG,LFMK,2021-01-18T03:00:00Z,43.22,2.32,3.0,1.0,250,8,,6.21,30.383858,,,TRUE,,,TRUE,,,,,CAVOK,,,,,,,,VFR,,,,,,,,,,,,METAR,124.0
LFMI 180300Z AUTO 35011KT 320V020 CAVOK 05/M00 Q1024 TEMPO 34025G35KT,LFMI,2021-01-18T03:00:00Z,43.52,4.93,5.0,0.0,350,11,,6.21,30.236221,,,TRUE,,,,,,,,CAVOK,,,,,,,,VFR,,,,,,,,,,,,METAR,20.0
LFMH 180300Z AUTO VRB02KT 7000 BKN010 OVC040 01/01 Q1028,LFMH,2021-01-18T03:00:00Z,45.52,4.28,1.0,1.0,0,2,,4.35,30.35433,,,TRUE,,,,,,,,BKN,1000,OVC,4000,,,,,MVFR,,,,,,,,,,,,METAR,400.0
LFMD 180300Z AUTO 01003KT 320V040 CAVOK 01/M01 Q1021 NOSIG,LFMD,2021-01-18T03:00:00Z,43.53,6.95,1.0,-1.0,10,3,,6.21,30.147638,,,TRUE,,,TRUE,,,,,CAVOK,,,,,,,,VFR,,,,,,,,,,,,METAR,2.0
LFMC 180300Z AUTO 21003KT 120V280 9999 ////// 05/M04 Q1021,LFMC,2021-01-18T03:00:00Z,43.37,6.38,5.0,-4.0,210,3,,6.21,30.147638,,,TRUE,,,,,,,,,,,,,,,,,,,,,,,,,,,,METAR,79.0
LFLY 180300Z AUTO VRB02KT CAVOK 01/M00 Q1028 TEMPO 1200 OVC004,LFLY,2021-01-18T03:00:00Z,45.72,4.95,1.0,0.0,0,2,,6.21,30.35433,,,TRUE,,,,,,,,CAVOK,,,,,,,,VFR,,,,,,,,,,,,METAR,197.0
LFLX 180300Z AUTO 21003KT 9999 OVC042 02/01 Q1029 TEMPO 0600 FG VV///,LFLX,2021-01-18T03:00:00Z,46.87,1.73,2.0,1.0,210,3,,6.21,30.383858,,,TRUE,,,,,,,,OVC,4200,,,,,,,VFR,,,,,,,,,,,,METAR,157.0
LFLS 180300Z AUTO 08005KT 9999 FEW014 M01/M02 Q1027 TEMPO BKN004,LFLS,2021-01-18T03:00:00Z,45.37,5.32,-1.0,-2.0,80,5,,6.21,30.324802,,,TRUE,,,,,,,,FEW,1400,,,,,,,VFR,,,,,,,,,,,,METAR,386.0
LFLP 180300Z AUTO VRB01KT 0450 0350 R04/0400N FZFG VV/// M03/M03 Q1027 TEMPO 3500 BR OVC008,LFLP,2021-01-18T03:00:00Z,45.92,6.1,-3.0,-3.0,0,1,,0.28,30.324802,,,TRUE,,,,,,,FZFG,OVX,0,,,,,,,LIFR,,,,,,,,,,,,METAR,460.0
LFLN 180300Z AUTO 00000KT 5000 BR FEW010 OVC044 02/01 Q1028,LFLN,2021-01-18T03:00:00Z,46.42,4.02,2.0,1.0,0,0,,3.11,30.35433,,,TRUE,,,,,,,BR,FEW,1000,OVC,4400,,,,,MVFR,,,,,,,,,,,,METAR,238.0
LFLL 180300Z 00000KT 7000 NSC 00/00 Q1028 NOSIG,LFLL,2021-01-18T03:00:00Z,45.72,5.07,0.0,0.0,0,0,,4.35,30.35433,,,,,,TRUE,,,,,CLR,,,,,,,,MVFR,,,,,,,,,,,,METAR,234.0
LFLC 180300Z AUTO VRB03KT 9999 FEW021 OVC047 02/00 Q1028 TEMPO 3000 -RADZ,LFLC,2021-01-18T03:00:00Z,45.78,3.17,2.0,0.0,0,3,,6.21,30.35433,,,TRUE,,,,,,,,FEW,2100,OVC,4700,,,,,VFR,,,,,,,,,,,,METAR,325.0
LFLB 180300Z AUTO 00000KT 5000 BR OVC002 01/01 Q1028 TEMPO 2500 BR,LFLB,2021-01-18T03:00:00Z,45.63,5.87,1.0,1.0,0,0,,3.11,30.35433,,,TRUE,,,,,,,BR,OVC,200,,,,,,,LIFR,,,,,,,,,,,,METAR,234.0
LFKS 180300Z AUTO 28005KT 9999 ////// 07/04 Q1020,LFKS,2021-01-18T03:00:00Z,41.92,9.4,7.0,4.0,280,5,,6.21,30.11811,,,TRUE,,,,,,,,,,,,,,,,,,,,,,,,,,,,METAR,22.0
LFKJ 180300Z AUTO 03009KT CAVOK 03/01 Q1020 NOSIG,LFKJ,2021-01-18T03:00:00Z,41.92,8.8,3.0,1.0,30,9,,6.21,30.11811,,,TRUE,,,TRUE,,,,,CAVOK,,,,,,,,VFR,,,,,,,,,,,,METAR,9.0
LFKF 180300Z AUTO 04004KT 020V090 CAVOK 01/00 Q1020 NOSIG,LFKF,2021-01-18T03:00:00Z,41.5,9.08,1.0,0.0,40,4,,6.21,30.11811,,,TRUE,,,TRUE,,,,,CAVOK,,,,,,,,VFR,,,,,,,,,,,,METAR,15.0
LFKC 180300Z AUTO 19006KT CAVOK 03/02 Q1020 NOSIG,LFKC,2021-01-18T03:00:00Z,42.52,8.8,3.0,2.0,190,6,,6.21,30.11811,,,TRUE,,,TRUE,,,,,CAVOK,,,,,,,,VFR,,,,,,,,,,,,METAR,38.0
LFKB 180300Z AUTO 23004KT 9999 FEW032 04/03 Q1020 TEMPO SHRA SCT020 FEW040CB BKN050,LFKB,2021-01-18T03:00:00Z,42.55,9.48,4.0,3.0,230,4,,6.21,30.11811,,,TRUE,,,,,,,,FEW,3200,,,,,,,VFR,,,,,,,,,,,,METAR,7.0
LFJR 180300Z AUTO 00000KT 5000 BR NSC M01/M01 Q1029,LFJR,2021-01-18T03:00:00Z,47.57,-0.32,-1.0,-1.0,0,0,,3.11,30.383858,,,TRUE,,,,,,,BR,CLR,,,,,,,,MVFR,,,,,,,,,,,,METAR,50.0
LFJL 180300Z AUTO 24007KT 9999 BKN025 BKN032 OVC046 02/00 Q1026 TEMPO 0200 FG VV///,LFJL,2021-01-18T03:00:00Z,48.97,6.25,2.0,0.0,240,7,,6.21,30.295275,,,TRUE,,,,,,,,BKN,2500,BKN,3200,OVC,4600,,,MVFR,,,,,,,,,,,,METAR,259.0
LFGJ 180300Z AUTO 00000KT 1800 1400 R05/1600D BR FEW024 BKN039 OVC060 01/00 Q1028,LFGJ,2021-01-18T03:00:00Z,47.05,5.43,1.0,0.0,0,0,,1.12,30.35433,,,TRUE,,,,,,,BR,FEW,2400,BKN,3900,OVC,6000,,,IFR,,,,,,,,,,,,METAR,191.0
LFGA 180300Z AUTO VRB03KT 9999 R19/0900U BKN037 BKN043 M01/M02 Q1026,LFGA,2021-01-18T03:00:00Z,48.1,7.35,-1.0,-2.0,0,3,,6.21,30.295275,,,TRUE,,,,,,,,BKN,3700,BKN,4300,,,,,VFR,,,,,,,,,,,,METAR,191.0
LFCR 180300Z AUTO 06003KT CAVOK M02/M03 Q1027 TEMPO 0300 FG VV///,LFCR,2021-01-18T03:00:00Z,44.4,2.47,-2.0,-3.0,60,3,,6.21,30.324802,,,TRUE,,,,,,,,CAVOK,,,,,,,,VFR,,,,,,,,,,,,METAR,576.0
LFCK 180300Z AUTO 00000KT CAVOK M01/M01 Q1030,LFCK,2021-01-18T03:00:00Z,43.55,2.28,-1.0,-1.0,0,0,,6.21,30.413385,,,TRUE,,,,,,,,CAVOK,,,,,,,,VFR,,,,,,,,,,,,METAR,223.0
LFBZ 180300Z AUTO 11004KT 1200 1100 R09/1500D R27/1300U BR VV/// 02/01 Q1029 TEMPO 0300 FG,LFBZ,2021-01-18T03:00:00Z,43.47,-1.53,2.0,1.0,110,4,,0.75,30.383858,,,TRUE,,,,,,,BR,OVX,0,,,,,,,LIFR,,,,,,,,,,,,METAR,70.0
LFBY 180300Z AUTO VRB02KT 0200 0150 // ////// 00/M00 Q1030,LFBY,2021-01-18T03:00:00Z,43.68,-1.07,0.0,0.0,0,2,,0.12,30.413385,,,TRUE,,,,,,,,,,,,,,,,,,,,,,,,,,,,METAR,32.0
LFBU 180300Z AUTO /////KT 0800 0700 R28/1100N FG NSC 01/00 Q1030,LFBU,2021-01-18T03:00:00Z,45.72,0.22,1.0,0.0,,,,0.5,30.413385,,,TRUE,,,,,,,FG,CLR,,,,,,,,LIFR,,,,,,,,,,,,METAR,124.0
LFBT 180300Z AUTO 00000KT 9999 OVC027 05/04 Q1029 TEMPO 3000 BR OVC005,LFBT,2021-01-18T03:00:00Z,43.18,0.0,5.0,4.0,0,0,,6.21,30.383858,,,TRUE,,,,,,,,OVC,2700,,,,,,,MVFR,,,,,,,,,,,,METAR,359.0
LFBP 180300Z AUTO 00000KT 9999 BKN030 04/03 Q1029 TEMPO 0500 FG VV///,LFBP,2021-01-18T03:00:00Z,43.38,-0.42,4.0,3.0,0,0,,6.21,30.383858,,,TRUE,,,,,,,,BKN,3000,,,,,,,MVFR,,,,,,,,,,,,METAR,182.0
LFBO 180300Z AUTO 18002KT 5000 1200 R14R/P2000 R32L/P2000 R14L/1400D R32R/P2000 BR NSC M01/M01 Q1030 TEMPO 0400 FG VV///,LFBO,2021-01-18T03:00:00Z,43.62,1.37,-1.0,-1.0,180,2,,3.11,30.413385,,,TRUE,,,,,,,BR,CLR,,,,,,,,MVFR,,,,,,,,,,,,METAR,150.0
LFBM 180300Z AUTO 06002KT 9999 OVC002 M02/M03 Q1030 TEMPO 0800 FG VV///,LFBM,2021-01-18T03:00:00Z,43.92,-0.5,-2.0,-3.0,60,2,,6.21,30.413385,,,TRUE,,,,,,,,OVC,200,,,,,,,LIFR,,,,,,,,,,,,METAR,56.0
LFBL 180300Z AUTO 29005KT 9999 OVC035 02/01 Q1029 BECMG 3000 BR OVC003,LFBL,2021-01-18T03:00:00Z,45.87,1.17,2.0,1.0,290,5,,6.21,30.383858,,,TRUE,,,,,,,,OVC,3500,,,,,,,VFR,,,,,,,,,,,,METAR,402.0
LFBI 180300Z AUTO VRB02KT CAVOK M00/M01 Q1030 TEMPO 0500 FG VV///,LFBI,2021-01-18T03:00:00Z,46.58,0.32,0.0,-1.0,0,2,,6.21,30.413385,,,TRUE,,,,,,,,CAVOK,,,,,,,,VFR,,,,,,,,,,,,METAR,117.0
LFBH 180300Z AUTO 03005KT 9999 OVC043 05/04 Q1030 BECMG 0800 FG VV///,LFBH,2021-01-18T03:00:00Z,46.18,-1.2,5.0,4.0,30,5,,6.21,30.413385,,,TRUE,,,,,,,,OVC,4300,,,,,,,VFR,,,,,,,,,,,,METAR,18.0
LFBG 180300Z AUTO 10001KT 5000 BR NSC M01/M01 Q1030,LFBG,2021-01-18T03:00:00Z,45.67,-0.32,-1.0,-1.0,100,1,,3.11,30.413385,,,TRUE,,,,,,,BR,CLR,,,,,,,,MVFR,,,,,,,,,,,,METAR,28.0
LFBE 180300Z AUTO 07003KT 7000 SCT012 M03/M03 Q1030,LFBE,2021-01-18T03:00:00Z,44.82,0.52,-3.0,-3.0,70,3,,4.35,30.413385,,,TRUE,,,,,,,,SCT,1200,,,,,,,MVFR,,,,,,,,,,,,METAR,49.0
LFBD 180300Z AUTO 00000KT 4800 0900 R23/1100D R05/2100D R29/P2300 BCFG NSC M01/M01 Q1031 TEMPO 0500 FG,LFBD,2021-01-18T03:00:00Z,44.82,-0.7,-1.0,-1.0,0,0,,2.98,30.442913,,,TRUE,,,,,,,BCFG,CLR,,,,,,,,IFR,,,,,,,,,,,,METAR,48.0
LFBC 180300Z AUTO 00000KT 9999 1300 R24/1100D NSC M02/M03 Q1030,LFBC,2021-01-18T03:00:00Z,44.52,-1.12,-2.0,-3.0,0,0,,6.21,30.413385,,,TRUE,,,,,,,,CLR,,,,,,,,VFR,,,,,,,,,,,,METAR,22.0
LFBA 180300Z AUTO 00000KT 4600 0700 R29/1300D BCFG FEW009 BKN240 M02/M02 Q1030,LFBA,2021-01-18T03:00:00Z,44.17,0.6,-2.0,-2.0,0,0,,2.86,30.413385,,,TRUE,,,,,,,BCFG,FEW,900,BKN,24000,,,,,IFR,,,,,,,,,,,,METAR,68.0
LFAT 180300Z AUTO 15004KT 090V170 8000 FEW018 00/M00 Q1026,LFAT,2021-01-18T03:00:00Z,50.52,1.62,0.0,0.0,150,4,,4.97,30.295275,,,TRUE,,,,,,,,FEW,1800,,,,,,,MVFR,,,,,,,,,,,,METAR,2.0
LFAQ 180300Z AUTO 18002KT 3000 BR NSC M00/M00 Q1026,LFAQ,2021-01-18T03:00:00Z,49.97,2.7,0.0,0.0,180,2,,1.86,30.295275,,,TRUE,,,,,,,BR,CLR,,,,,,,,IFR,,,,,,,,,,,,METAR,107.0
LEZL 180300Z AUTO 03003KT CAVOK 03/01 Q1026,LEZL,2021-01-18T03:00:00Z,37.42,-5.9,3.0,1.0,30,3,,6.21,30.295275,,,TRUE,,,,,,,,CAVOK,,,,,,,,VFR,,,,,,,,,,,,METAR,26.0
LEZG 180300Z 27009KT CAVOK 08/06 Q1026,LEZG,2021-01-18T03:00:00Z,41.67,-1.02,8.0,6.0,270,9,,6.21,30.295275,,,,,,,,,,,CAVOK,,,,,,,,VFR,,,,,,,,,,,,METAR,245.0
LEXJ 180300Z AUTO 15001KT 9999 4400W -RA BKN004 BKN016 10/10 Q1029,LEXJ,2021-01-18T03:00:00Z,43.42,-3.82,10.0,10.0,150,1,,6.21,30.383858,,,TRUE,,,,,,,-RA,BKN,400,BKN,1600,,,,,LIFR,,,,,,,,,,,,SPECI,1.0
LEVX 180300Z 22005KT 190V250 CAVOK 06/06 Q1027 NOSIG,LEVX,2021-01-18T03:00:00Z,42.23,-8.62,6.0,6.0,220,5,,6.21,30.324802,,,,,,TRUE,,,,,CAVOK,,,,,,,,VFR,,,,,,,,,,,,METAR,253.0
LEVT 180300Z VRB02KT 0600 R04/0700N R22/1800U FG VV001 03/03 Q1028,LEVT,2021-01-18T03:00:00Z,42.87,-2.72,3.0,3.0,0,2,,0.37,30.35433,,,,,,,,,,FG,OVX,0,,,,,,,LIFR,,,,,,,,,,,100,SPECI,501.0
LEVS 180300Z AUTO VRB02KT CAVOK M01/M03 Q1028,LEVS,2021-01-18T03:00:00Z,40.37,-3.78,-1.0,-3.0,0,2,,6.21,30.35433,,,TRUE,,,,,,,,CAVOK,,,,,,,,VFR,,,,,,,,,,,,METAR,683.0
LEVD 180300Z AUTO 11003KT 4700 BR NCD M02/M03 Q1028,LEVD,2021-01-18T03:00:00Z,41.72,-4.85,-2.0,-3.0,110,3,,2.92,30.35433,,,TRUE,,,,,,,BR,CLR,,,,,,,,IFR,,,,,,,,,,,,METAR,844.0
LEVC 180300Z VRB02KT CAVOK 06/03 Q1026 NOSIG,LEVC,2021-01-18T03:00:00Z,39.5,-0.47,6.0,3.0,0,2,,6.21,30.295275,,,,,,TRUE,,,,,CAVOK,,,,,,,,VFR,,,,,,,,,,,,METAR,58.0
LETU 180300Z AUTO 26006KT 9999 NCD 05/04 Q1028,LETU,2021-01-18T03:00:00Z,,,5.0,4.0,260,6,,6.21,30.35433,,,TRUE,,,,,,,,CLR,,,,,,,,VFR,,,,,,,,,,,,METAR,
LETO 180300Z 01005KT CAVOK M05/M06 Q1028 NOSIG,LETO,2021-01-18T03:00:00Z,40.48,-3.47,-5.0,-6.0,10,5,,6.21,30.35433,,,,,,TRUE,,,,,CAVOK,,,,,,,,VFR,,,,,,,,,,,,METAR,598.0
LETL 180300Z AUTO 30004KT 270V340 9999 BKN019 BKN025 M02/M04 Q1027,LETL,2021-01-18T03:00:00Z,40.42,-1.22,-2.0,-4.0,300,4,,6.21,30.324802,,,TRUE,,,,,,,,BKN,1900,BKN,2500,,,,,MVFR,,,,,,,,,,,,METAR,1024.0
LEST 180300Z 12004KT 090V160 9999 BKN012 08/06 Q1028 NOSIG,LEST,2021-01-18T03:00:00Z,42.88,-8.42,8.0,6.0,120,4,,6.21,30.35433,,,,,,TRUE,,,,,BKN,1200,,,,,,,MVFR,,,,,,,,,,,,METAR,363.0
LESO 180300Z AUTO VRB02KT 9999 0500SW R22/P2000 R04/1300D BCFG BKN022 OVC028 05/05 Q1030,LESO,2021-01-18T03:00:00Z,43.35,-1.8,5.0,5.0,0,2,,6.21,30.413385,,,TRUE,,,,,,,BCFG,BKN,2200,OVC,2800,,,,,MVFR,,,,,,,,,,,,SPECI,3.0
LESB 180300Z AUTO 04005KT 9999 FEW049/// 08/04 Q1026,LESB,2021-01-18T03:00:00Z,39.6,2.7,8.0,4.0,40,5,,6.21,30.295275,,,TRUE,,,,,,,,FEW,4900,,,,,,,VFR,,,,,,,,,,,,METAR,48.0
LESA 180300Z AUTO 00000KT CAVOK M05/M06 Q1028,LESA,2021-01-18T03:00:00Z,40.95,-5.5,-5.0,-6.0,0,0,,6.21,30.35433,,,TRUE,,,,,,,,CAVOK,,,,,,,,VFR,,,,,,,,,,,,METAR,788.0
LERT 180300Z 09005KT 8000 NSC 05/04 Q1026 NOSIG,LERT,2021-01-18T03:00:00Z,36.63,-6.33,5.0,4.0,90,5,,4.97,30.295275,,,,,,TRUE,,,,,CLR,,,,,,,,MVFR,,,,,,,,,,,,METAR,27.0
LERS 180300Z AUTO 32003KT 270V070 CAVOK 06/05 Q1025,LERS,2021-01-18T03:00:00Z,41.13,1.17,6.0,5.0,320,3,,6.21,30.265747,,,TRUE,,,,,,,,CAVOK,,,,,,,,VFR,,,,,,,,,,,,METAR,68.0
LEPP 180300Z AUTO 18001KT 9999 OVC010 06/04 Q1028,LEPP,2021-01-18T03:00:00Z,42.77,-1.65,6.0,4.0,180,1,,6.21,30.35433,,,TRUE,,,,,,,,OVC,1000,,,,,,,MVFR,,,,,,,,,,,,METAR,448.0
LEPA 180300Z 06009KT CAVOK 08/04 Q1025 NOSIG,LEPA,2021-01-18T03:00:00Z,39.55,2.73,8.0,4.0,60,9,,6.21,30.265747,,,,,,TRUE,,,,,CAVOK,,,,,,,,VFR,,,,,,,,,,,,METAR,8.0
LEMO 180300Z 10004KT CAVOK 01/M00 Q1026 NOSIG,LEMO,2021-01-18T03:00:00Z,37.17,-5.62,1.0,0.0,100,4,,6.21,30.295275,,,,,,TRUE,,,,,CAVOK,,,,,,,,VFR,,,,,,,,,,,,METAR,82.0
LEMI 180300Z AUTO 33011KT CAVOK 12/M04 Q1025,LEMI,2021-01-18T03:00:00Z,37.8,-1.12,12.0,-4.0,330,11,,6.21,30.265747,,,TRUE,,,,,,,,CAVOK,,,,,,,,VFR,,,,,,,,,,,,METAR,193.0
LEMH 180300Z AUTO 01012KT 9999 FEW021/// 08/04 Q1025,LEMH,2021-01-18T03:00:00Z,39.87,4.22,8.0,4.0,10,12,,6.21,30.265747,,,TRUE,,,,,,,,FEW,2100,,,,,,,VFR,,,,,,,,,,,,METAR,82.0
LEMG 180300Z 27004KT 230V310 9999 FEW040 05/03 Q1025 NOSIG,LEMG,2021-01-18T03:00:00Z,36.67,-4.47,5.0,3.0,270,4,,6.21,30.265747,,,,,,TRUE,,,,,FEW,4000,,,,,,,VFR,,,,,,,,,,,,METAR,5.0
LEMD 180300Z 35003KT 7000 NSC M05/M07 Q1028 NOSIG,LEMD,2021-01-18T03:00:00Z,40.45,-3.57,-5.0,-7.0,350,3,,4.35,30.35433,,,,,,TRUE,,,,,CLR,,,,,,,,MVFR,,,,,,,,,,,,METAR,589.0
LELO 180300Z AUTO 28008KT 9999 FEW050 06/05 Q1028,LELO,2021-01-18T03:00:00Z,42.45,-2.32,6.0,5.0,280,8,,6.21,30.35433,,,TRUE,,,,,,,,FEW,5000,,,,,,,VFR,,,,,,,,,,,,METAR,352.0
LELN 180300Z AUTO 25002KT 1600 0450SW R23/0800U R05/0650N BR BCFG VV003 M07/M07 Q1028,LELN,2021-01-18T03:00:00Z,42.58,-5.65,-7.0,-7.0,250,2,,0.99,30.35433,,,TRUE,,,,,,,BCFG BR,OVX,0,,,,,,,LIFR,,,,,,,,,,,300,METAR,911.0
LELL 180300Z AUTO VRB01KT CAVOK 04/03 Q1025,LELL,2021-01-18T03:00:00Z,41.52,2.1,4.0,3.0,0,1,,6.21,30.265747,,,TRUE,,,,,,,,CAVOK,,,,,,,,VFR,,,,,,,,,,,,METAR,136.0
LELC 180300Z AUTO VRB02KT 9000 NCD 08/04 Q1025,LELC,2021-01-18T03:00:00Z,37.77,-0.8,8.0,4.0,0,2,,5.59,30.265747,,,TRUE,,,,,,,,CLR,,,,,,,,VFR,,,,,,,,,,,,METAR,3.0
LEJR 180300Z AUTO 06003KT 9000 NCD 02/02 Q1026,LEJR,2021-01-18T03:00:00Z,36.75,-6.07,2.0,2.0,60,3,,5.59,30.295275,,,TRUE,,,,,,,,CLR,,,,,,,,VFR,,,,,,,,,,,,METAR,25.0
LEIB 180300Z AUTO 02005KT 9999 FEW019/// 10/07 Q1025,LEIB,2021-01-18T03:00:00Z,38.87,1.38,10.0,7.0,20,5,,6.21,30.265747,,,TRUE,,,,,,,,FEW,1900,,,,,,,VFR,,,,,,,,,,,,METAR,4.0
LEHC 180300Z AUTO 31003KT 280V350 CAVOK 01/M01 Q1025,LEHC,2021-01-18T03:00:00Z,42.08,-0.32,1.0,-1.0,310,3,,6.21,30.265747,,,TRUE,,,,,,,,CAVOK,,,,,,,,VFR,,,,,,,,,,,,METAR,540.0
LEGR 180300Z AUTO 00000KT 9999 ////// M02/M03 Q1026,LEGR,2021-01-18T03:00:00Z,37.18,-3.78,-2.0,-3.0,0,0,,6.21,30.295275,,,TRUE,,,,,,,,,,,,,,,,,,,,,,,,,,,,SPECI,560.0
LEGE 180300Z 28003KT CAVOK 03/01 Q1025,LEGE,2021-01-18T03:00:00Z,41.9,2.77,3.0,1.0,280,3,,6.21,30.265747,,,,,,,,,,,CAVOK,,,,,,,,VFR,,,,,,,,,,,,METAR,140.0
LEDA 180300Z AUTO 06007KT 6000 NCD 02/02 Q1025,LEDA,2021-01-18T03:00:00Z,41.73,0.53,2.0,2.0,60,7,,3.73,30.265747,,,TRUE,,,,,,,,CLR,,,,,,,,MVFR,,,,,,,,,,,,METAR,352.0
LECO 180300Z AUTO 00000KT 0700 0400 R21/1700D R03/1000D FG BKN005 OVC029 10/10 Q1029,LECO,2021-01-18T03:00:00Z,43.3,-8.37,10.0,10.0,0,0,,0.43,30.383858,,,TRUE,,,,,,,FG,BKN,500,OVC,2900,,,,,LIFR,,,,,,,,,,,,SPECI,80.0
LECH 180300Z AUTO 08004KT 320V110 9000 NCD 09/03 Q1026,LECH,2021-01-18T03:00:00Z,40.92,-1.28,9.0,3.0,80,4,,5.59,30.295275,,,TRUE,,,,,,,,CLR,,,,,,,,VFR,,,,,,,,,,,,METAR,885.0
LEBT 180300Z AUTO 34004KT 300V010 CAVOK 05/03 Q1026,LEBT,2021-01-18T03:00:00Z,39.58,-0.45,5.0,3.0,340,4,,6.21,30.295275,,,TRUE,,,,,,,,CAVOK,,,,,,,,VFR,,,,,,,,,,,,METAR,50.0
LEBR 180300Z AUTO 32006KT 290V350 9999 NCD 07/05 Q1027,LEBR,2021-01-18T03:00:00Z,42.2,-1.43,7.0,5.0,320,6,,6.21,30.324802,,,TRUE,,,,,,,,CLR,,,,,,,,VFR,,,,,,,,,,,,METAR,347.0
LEBL 180300Z 33003KT CAVOK 07/05 Q1025 NOSIG,LEBL,2021-01-18T03:00:00Z,41.28,2.07,7.0,5.0,330,3,,6.21,30.265747,,,,,,TRUE,,,,,CAVOK,,,,,,,,VFR,,,,,,,,,,,,METAR,2.0
LEBG 180300Z AUTO VRB01KT 6000 OVC007 02/02 Q1028,LEBG,2021-01-18T03:00:00Z,42.37,-3.62,2.0,2.0,0,1,,3.73,30.35433,,,TRUE,,,,,,,,OVC,700,,,,,,,IFR,,,,,,,,,,,,METAR,892.0
LEBB 180300Z AUTO 00000KT 7000 SCT006 SCT010 07/07 Q1029,LEBB,2021-01-18T03:00:00Z,43.28,-2.92,7.0,7.0,0,0,,4.35,30.383858,,,TRUE,,,,,,,,SCT,600,SCT,1000,,,,,MVFR,,,,,,,,,,,,METAR,38.0
LEBA 180300Z AUTO VRB01KT CAVOK 00/M00 Q1027,LEBA,2021-01-18T03:00:00Z,37.85,-4.83,0.0,0.0,0,1,,6.21,30.324802,,,TRUE,,,,,,,,CAVOK,,,,,,,,VFR,,,,,,,,,,,,METAR,88.0
LEAS 180300Z AUTO 00000KT 2300 0900E -RA BR BCFG BKN005 BKN013 10/10 Q1029,LEAS,2021-01-18T03:00:00Z,43.57,-6.03,10.0,10.0,0,0,,1.43,30.383858,,,TRUE,,,,,,,BCFG -RA BR,BKN,500,BKN,1300,,,,,IFR,,,,,,,,,,,,SPECI,120.0
LEAM 180300Z AUTO 30006KT 260V330 CAVOK 10/01 Q1025,LEAM,2021-01-18T03:00:00Z,36.85,-2.37,10.0,1.0,300,6,,6.21,30.265747,,,TRUE,,,,,,,,CAVOK,,,,,,,,VFR,,,,,,,,,,,,METAR,16.0
LEAL 180300Z 26005KT CAVOK 05/M01 Q1025 NOSIG,LEAL,2021-01-18T03:00:00Z,38.27,-0.55,5.0,-1.0,260,5,,6.21,30.265747,,,,,,TRUE,,,,,CAVOK,,,,,,,,VFR,,,,,,,,,,,,METAR,26.0
LEAG 180300Z AUTO 34003KT 260V050 CAVOK 09/05 Q1026,LEAG,2021-01-18T03:00:00Z,36.12,-5.45,9.0,5.0,340,3,,6.21,30.295275,,,TRUE,,,,,,,,CAVOK,,,,,,,,VFR,,,,,,,,,,,,METAR,4.0
LEAB 180300Z 13003KT CAVOK M05/M06 Q1027 NOSIG,LEAB,2021-01-18T03:00:00Z,38.95,-1.85,-5.0,-6.0,130,3,,6.21,30.324802,,,,,,TRUE,,,,,CAVOK,,,,,,,,VFR,,,,,,,,,,,,METAR,704.0
LDZD 180300Z 14006KT CAVOK M03/M10 Q1021,LDZD,2021-01-18T03:00:00Z,44.1,15.33,-3.0,-10.0,140,6,,6.21,30.147638,,,,,,,,,,,CAVOK,,,,,,,,VFR,,,,,,,,,,,,METAR,82.0
LDZA 180300Z 00000KT 6000 NSC M03/M04 Q1023 TEMPO 2000 BR,LDZA,2021-01-18T03:00:00Z,45.72,16.07,-3.0,-4.0,0,0,,3.73,30.206694,,,,,,,,,,,CLR,,,,,,,,MVFR,,,,,,,,,,,,METAR,103.0
LDSP 180300Z AUTO 05009KT 020V080 CAVOK M00/M12 Q1021 NOSIG,LDSP,2021-01-18T03:00:00Z,43.53,16.3,0.0,-12.0,50,9,,6.21,30.147638,,,TRUE,,,TRUE,,,,,CAVOK,,,,,,,,VFR,,,,,,,,,,,,METAR,16.0
LDRI 180300Z 02007KT CAVOK 00/M08 Q1022,LDRI,2021-01-18T03:00:00Z,45.22,14.57,0.0,-8.0,20,7,,6.21,30.177166,,,,,,,,,,,CAVOK,,,,,,,,VFR,,,,,,,,,,,,METAR,80.0
LDPL 180300Z 08004KT 060V120 CAVOK M00/M05 Q1021,LDPL,2021-01-18T03:00:00Z,44.88,13.92,0.0,-5.0,80,4,,6.21,30.147638,,,,,,,,,,,CAVOK,,,,,,,,VFR,,,,,,,,,,,,METAR,63.0
LDOS 180300Z 25006KT CAVOK M10/M11 Q1023 R11///////,LDOS,2021-01-18T03:00:00Z,45.47,18.82,-10.0,-11.0,250,6,,6.21,30.206694,,,,,,,,,,,CAVOK,,,,,,,,VFR,,,,,,,,,,,,METAR,82.0
LDDU 180300Z 03022G32KT 340V090 CAVOK M00/M12 Q1016 TEMPO 02015KT,LDDU,2021-01-18T03:00:00Z,42.57,18.27,0.0,-12.0,30,22,32,6.21,30.0,,,,,,,,,,,CAVOK,,,,,,,,VFR,,,,,,,,,,,,METAR,156.0
LCPH 180300Z 32010KT 9999 FEW030TCU BKN045 11/05 Q1013,LCPH,2021-01-18T03:00:00Z,34.72,32.47,11.0,5.0,320,10,,6.21,29.911417,,,,,,,,,,,FEW,3000,BKN,4500,,,,,VFR,,,,,,,,,,,,METAR,8.0
LCLK 180300Z 31005KT 9999 FEW060 06/03 Q1012 NOSIG,LCLK,2021-01-18T03:00:00Z,34.87,33.62,6.0,3.0,310,5,,6.21,29.88189,,,,,,TRUE,,,,,FEW,6000,,,,,,,VFR,,,,,,,,,,,,METAR,2.0
LBWN 180300Z 22008KT CAVOK M05/M09 Q1019 NOSIG,LBWN,2021-01-18T03:00:00Z,43.22,27.82,-5.0,-9.0,220,8,,6.21,30.088583,,,,,,TRUE,,,,,CAVOK,,,,,,,,VFR,,,,,,,,,,,,METAR,74.0
LBSF 180300Z 27003KT 9999 SCT012 BKN016 M10/M12 Q1018 NOSIG,LBSF,2021-01-18T03:00:00Z,42.65,23.37,-10.0,-12.0,270,3,,6.21,30.059055,,,,,,TRUE,,,,,SCT,1200,BKN,1600,,,,,MVFR,,,,,,,,,,,,METAR,592.0
LBPL 180300Z 16002KT 9999 SCT100 M09/M11 Q1022,LBPL,2021-01-18T03:00:00Z,43.45,24.5,-9.0,-11.0,160,2,,6.21,30.177166,,,,,,,,,,,SCT,10000,,,,,,,VFR,,,,,,,,,,,,METAR,93.0
LBPG 180300Z 00000KT 9999 SCT060 BKN100 M09/M11 Q1020,LBPG,2021-01-18T03:00:00Z,42.28,24.72,-9.0,-11.0,0,0,,6.21,30.11811,,,,,,,,,,,SCT,6000,BKN,10000,,,,,VFR,,,,,,,,,,,,METAR,198.0
LBPD 180300Z AUTO VRB02KT 9999 NCD M08/M09 Q1020,LBPD,2021-01-18T03:00:00Z,42.05,24.85,-8.0,-9.0,0,2,,6.21,30.11811,,,TRUE,,,,,,,,CLR,,,,,,,,VFR,,,,,,,,,,,,METAR,182.0
LBIA 180300Z 00000KT 9999 SKC M09/M10 Q1020,LBIA,2021-01-18T03:00:00Z,42.45,26.35,-9.0,-10.0,0,0,,6.21,30.11811,,,,,,,,,,,SKC,,,,,,,,VFR,,,,,,,,,,,,METAR,155.0
LBGO 180300Z AUTO VRB02KT 9999 NCD M15/M17 Q1021 R99/29//95,LBGO,2021-01-18T03:00:00Z,43.15,25.72,-15.0,-17.0,0,2,,6.21,30.147638,,,TRUE,,,,,,,,CLR,,,,,,,,VFR,,,,,,,,,,,,METAR,84.0
LBBG 180300Z 22007KT CAVOK M06/M09 Q1020 NOSIG,LBBG,2021-01-18T03:00:00Z,42.57,27.52,-6.0,-9.0,220,7,,6.21,30.11811,,,,,,TRUE,,,,,CAVOK,,,,,,,,VFR,,,,,,,,,,,,METAR,41.0
KNEL 180300Z AUTO 21004KT 10SM BKN065 BKN080 03/M02 A2975 RMK AO2 SLP072 T00331017 50007 $,KNEL,2021-01-18T03:00:00Z,40.03,-74.33,3.3,-1.7,210,4,,10.0,29.749016,1007.2,,TRUE,TRUE,TRUE,,,,,,BKN,6500,BKN,8000,,,,,VFR,0.7,,,,,,,,,,,METAR,26.0
KMMV 180300Z AUTO 00000KT 1/2SM FG VV003 06/06 A3049 RMK AO2 T00610056,KMMV,2021-01-18T03:00:00Z,45.2,-123.13,6.1,5.6,0,0,,0.5,30.490158,,,TRUE,TRUE,,,,,,FG,OVX,0,,,,,,,LIFR,,,,,,,,,,,300,METAR,48.0
KMHV 180300Z AUTO 32009KT 10SM CLR 11/M07 A3006 RMK A01,KMHV,2021-01-18T03:00:00Z,35.07,-118.15,11.0,-7.0,320,9,,10.0,30.059055,,,TRUE,TRUE,,,,,,,CLR,,,,,,,,VFR,,,,,,,,,,,,SPECI,841.0
KJSL 180300Z AUTO VRB03KT 10SM CLR 17/07 A3014 RMK A01,KJSL,2021-01-18T03:00:00Z,26.23,-95.22,17.0,7.0,0,3,,10.0,30.138779,,,TRUE,TRUE,,,,,,,CLR,,,,,,,,VFR,,,,,,,,,,,,METAR,45.0
KGZN 180300Z AUTO 00000KT 10SM 07/M06 A3009 RMK AO2,KGZN,2021-01-18T03:00:00Z,32.37,-99.02,7.0,-6.0,0,0,,10.0,30.088583,,,TRUE,TRUE,,,,,,,,,,,,,,,,,,,,,,,,,,,SPECI,522.0
KGEZ 180300Z AUTO 24008KT 10SM BKN017 OVC041 00/M04 A2978 RMK AO2 T00001039,KGEZ,2021-01-18T03:00:00Z,39.58,-85.8,0.0,-3.9,240,8,,10.0,29.778543,,,TRUE,TRUE,,,,,,,BKN,1700,OVC,4100,,,,,MVFR,,,,,,,,,,,,METAR,245.0
KBMG 180300Z AUTO 25008KT 10SM BKN014 BKN022 OVC035 M01/M04 A2981 RMK AO2 T10111039,KBMG,2021-01-18T03:00:00Z,39.15,-86.62,-1.1,-3.9,250,8,,10.0,29.811024,,,TRUE,TRUE,,,,,,,BKN,1400,BKN,2200,OVC,3500,,,MVFR,,,,,,,,,,,,METAR,254.0
HTZA 180300Z 02006KT 9999 FEW010 25/24 Q1009 NOSIG,HTZA,2021-01-18T03:00:00Z,-6.22,39.22,25.0,24.0,20,6,,6.21,29.793306,,,,,,TRUE,,,,,FEW,1000,,,,,,,VFR,,,,,,,,,,,,METAR,19.0
HTTB 180300Z 00000KT 9999 SCT016 BKN070 19/19 Q1016 NOSIG,HTTB,2021-01-18T03:00:00Z,-5.07,32.82,19.0,19.0,0,0,,6.21,30.0,,,,,,TRUE,,,,,SCT,1600,BKN,7000,,,,,VFR,,,,,,,,,,,,METAR,1185.0
HTSU 180300Z 00000KT 9999 BKN016 15/14 Q1021,HTSU,2021-01-18T03:00:00Z,-7.95,31.6,15.0,14.0,0,0,,6.21,30.147638,,,,,,,,,,,BKN,1600,,,,,,,MVFR,,,,,,,,,,,,METAR,1820.0
HTMW 180300Z 00000KT 9999 FEW018 FEW019CB SCT080 19/18 Q1014 NOSIG,HTMW,2021-01-18T03:00:00Z,-2.43,32.92,19.0,18.0,0,0,,6.21,29.940945,,,,,,TRUE,,,,,FEW,1800,FEW,1900,SCT,8000,,,VFR,,,,,,,,,,,,METAR,1144.0
HTMU 180300Z 00000KT 9999 FEW014 FEW016CB SCT090 20/18 Q1017,HTMU,2021-01-18T03:00:00Z,-1.5,33.8,20.0,18.0,0,0,,6.21,30.029528,,,,,,,,,,,FEW,1400,FEW,1600,SCT,9000,,,VFR,,,,,,,,,,,,METAR,1154.0
HTMT 180300Z 32008KT 9999 SCT022 26/25 Q1009,HTMT,2021-01-18T03:00:00Z,-10.33,40.18,26.0,25.0,320,8,,6.21,29.793306,,,,,,,,,,,SCT,2200,,,,,,,VFR,,,,,,,,,,,,METAR,114.0
HTMG 180300Z 00000KT 9999 BKN021 23/22 Q1012,HTMG,2021-01-18T03:00:00Z,-6.78,37.65,23.0,22.0,0,0,,6.21,29.88189,,,,,,,,,,,BKN,2100,,,,,,,MVFR,,,,,,,,,,,,METAR,512.0
HTKJ 180300Z 00000KT 9999 FEW024 21/18 Q1016 NOSIG,HTKJ,2021-01-18T03:00:00Z,-3.42,37.07,21.0,18.0,0,0,,6.21,30.0,,,,,,TRUE,,,,,FEW,2400,,,,,,,VFR,,,,,,,,,,,,METAR,893.0
HTIR 180300Z 00000KT 9999 FEW020 17/15 Q1017,HTIR,2021-01-18T03:00:00Z,-7.67,35.75,17.0,15.0,0,0,,6.21,30.029528,,,,,,,,,,,FEW,2000,,,,,,,VFR,,,,,,,,,,,,METAR,1432.0
HTIB 180300Z 00000KT 9999 SCT016 FEW018CB BKN080 20/20 Q1014,HTIB,2021-01-18T03:00:00Z,,,20.0,20.0,0,0,,6.21,29.940945,,,,,,,,,,,SCT,1600,FEW,1800,BKN,8000,,,VFR,,,,,,,,,,,,METAR,
HTDO 180300Z 00000KT 9999 FEW018 19/18 Q1016 NOSIG,HTDO,2021-01-18T03:00:00Z,-6.17,35.77,19.0,18.0,0,0,,6.21,30.0,,,,,,TRUE,,,,,FEW,1800,,,,,,,VFR,,,,,,,,,,,,METAR,1119.0
HTDA 180300Z 35007KT 9999 FEW010 26/23 Q1010 NOSIG,HTDA,2021-01-18T03:00:00Z,-6.88,39.2,26.0,23.0,350,7,,6.21,29.822834,,,,,,TRUE,,,,,FEW,1000,,,,,,,VFR,,,,,,,,,,,,METAR,53.0
HTBU 180300Z 00000KT 9999 FEW011 FEW013CB SCT080 19/16 Q1015,HTBU,2021-01-18T03:00:00Z,-1.32,31.82,19.0,16.0,0,0,,6.21,29.970472,,,,,,,,,,,FEW,1100,FEW,1300,SCT,8000,,,VFR,,,,,,,,,,,,METAR,1144.0
HTAR 180300Z 27010KT 9999 FEW022 SCT022 19/15 Q1018 NOSIG,HTAR,2021-01-18T03:00:00Z,-3.37,36.63,19.0,15.0,270,10,,6.21,30.059055,,,,,,TRUE,,,,,FEW,2200,SCT,2200,,,,,VFR,,,,,,,,,,,,METAR,1386.0
HSSS 180300Z 02014KT CAVOK 20/M08 Q1015 NOSIG,HSSS,2021-01-18T03:00:00Z,15.58,32.55,20.0,-8.0,20,14,,6.21,29.970472,,,,,,TRUE,,,,,CAVOK,,,,,,,,VFR,,,,,,,,,,,,METAR,387.0
HESH 180300Z 27005KT CAVOK 17/04 Q1017 NOSIG,HESH,2021-01-18T03:00:00Z,27.97,34.38,17.0,4.0,270,5,,6.21,30.029528,,,,,,TRUE,,,,,CAVOK,,,,,,,,VFR,,,,,,,,,,,,METAR,50.0
HESG 180300Z 26005KT CAVOK 09/00 Q1019 NOSIG,HESG,2021-01-18T03:00:00Z,26.33,31.75,9.0,0.0,260,5,,6.21,30.088583,,,,,,TRUE,,,,,CAVOK,,,,,,,,VFR,,,,,,,,,,,,METAR,70.0
HESC 180300Z 27013KT CAVOK 04/00 Q1022 NOSIG,HESC,2021-01-18T03:00:00Z,28.68,34.07,4.0,0.0,270,13,,6.21,30.177166,,,,,,TRUE,,,,,CAVOK,,,,,,,,VFR,,,,,,,,,,,,METAR,1332.0
HEPS 180300Z 23013KT CAVOK 13/09 Q1017 NOSIG,HEPS,2021-01-18T03:00:00Z,31.28,32.25,13.0,9.0,230,13,,6.21,30.029528,,,,,,TRUE,,,,,CAVOK,,,,,,,,VFR,,,,,,,,,,,,METAR,2.0
HEMM 180300Z 23018KT 9999 SCT020 10/04 Q1019 NOSIG,HEMM,2021-01-18T03:00:00Z,31.32,27.22,10.0,4.0,230,18,,6.21,30.088583,,,,,,TRUE,,,,,SCT,2000,,,,,,,VFR,,,,,,,,,,,,METAR,26.0
HELX 180300Z 12002KT 6000 NSC 12/03 Q1020 NOSIG,HELX,2021-01-18T03:00:00Z,25.67,32.7,12.0,3.0,120,2,,3.73,30.11811,,,,,,TRUE,,,,,CLR,,,,,,,,MVFR,,,,,,,,,,,,METAR,86.0
HEGN 180300Z 29004KT CAVOK 13/00 Q1019 NOSIG,HEGN,2021-01-18T03:00:00Z,27.18,33.8,13.0,0.0,290,4,,6.21,30.088583,,,,,,TRUE,,,,,CAVOK,,,,,,,,VFR,,,,,,,,,,,,METAR,14.0
HECA 180300Z 25011KT 6000 SCT025 BKN030 12/05 Q1019 NOSIG,HECA,2021-01-18T03:00:00Z,30.12,31.4,12.0,5.0,250,11,,3.73,30.088583,,,,,,TRUE,,,,,SCT,2500,BKN,3000,,,,,MVFR,,,,,,,,,,,,METAR,68.0
HEBL 180300Z 34008KT CAVOK 11/05 Q1019 NOSIG,HEBL,2021-01-18T03:00:00Z,22.38,31.62,11.0,5.0,340,8,,6.21,30.088583,,,,,,TRUE,,,,,CAVOK,,,,,,,,VFR,,,,,,,,,,,,METAR,184.0
HEBA 180300Z 23007KT 9999 SCT020 SCT022 10/06 Q1018 NOSIG,HEBA,2021-01-18T03:00:00Z,30.92,29.7,10.0,6.0,230,7,,6.21,30.059055,,,,,,TRUE,,,,,SCT,2000,SCT,2200,,,,,VFR,,,,,,,,,,,,METAR,41.0
HEAX 180300Z 28007KT 9999 SCT020 SCT022 13/08 Q1017 NOSIG,HEAX,2021-01-18T03:00:00Z,31.18,29.93,13.0,8.0,280,7,,6.21,30.029528,,,,,,TRUE,,,,,SCT,2000,SCT,2200,,,,,VFR,,,,,,,,,,,,METAR,-2.0
HEAT 180300Z 27004KT CAVOK 09/02 Q1022 NOSIG,HEAT,2021-01-18T03:00:00Z,27.05,31.02,9.0,2.0,270,4,,6.21,30.177166,,,,,,TRUE,,,,,CAVOK,,,,,,,,VFR,,,,,,,,,,,,METAR,229.0
GVSV 180300Z 07014KT 6000 FEW020 21/15 Q1015 NOSIG,GVSV,2021-01-18T03:00:00Z,16.83,-25.07,21.0,15.0,70,14,,3.73,29.970472,,,,,,TRUE,,,,,FEW,2000,,,,,,,MVFR,,,,,,,,,,,,METAR,16.0
GVNP 180300Z 03010KT 8000 NSC 21/17 Q1014 NOSIG,GVNP,2021-01-18T03:00:00Z,14.95,-23.48,21.0,17.0,30,10,,4.97,29.940945,,,,,,TRUE,,,,,CLR,,,,,,,,MVFR,,,,,,,,,,,,METAR,70.0
GVAC 180300Z 05013KT 5000 HZ FEW015 BKN200 20/16 Q1015 NOSIG,GVAC,2021-01-18T03:00:00Z,16.73,-22.93,20.0,16.0,50,13,,3.11,29.970472,,,,,,TRUE,,,,HZ,FEW,1500,BKN,20000,,,,,MVFR,,,,,,,,,,,,METAR,54.0
GQPP 180300Z 05012KT 6000 DRSA NSC 16/00 Q1018 NOSIG,GQPP,2021-01-18T03:00:00Z,20.92,-17.02,16.0,0.0,50,12,,3.73,30.059055,,,,,,TRUE,,,,DRSA,CLR,,,,,,,,MVFR,,,,,,,,,,,,METAR,5.0
GQNO 180300Z 04005KT 5000 DU NSC 17/M10 Q1015 NOSIG,GQNO,2021-01-18T03:00:00Z,18.3,-15.97,17.0,-10.0,40,5,,3.11,29.970472,,,,,,TRUE,,,,DU,CLR,,,,,,,,MVFR,,,,,,,,,,,,METAR,1.0
GOTT 180300Z 04010KT CAVOK 25/M08 Q1011,GOTT,2021-01-18T03:00:00Z,13.73,-13.65,25.0,-8.0,40,10,,6.21,29.852362,,,,,,,,,,,CAVOK,,,,,,,,VFR,,,,,,,,,,,,METAR,53.0
GOSS 180300Z 04006KT 010V090 CAVOK 21/05 Q1013,GOSS,2021-01-18T03:00:00Z,16.05,-16.45,21.0,5.0,40,6,,6.21,29.911417,,,,,,,,,,,CAVOK,,,,,,,,VFR,,,,,,,,,,,,METAR,3.0
GOSP 180300Z 04002KT 8000 NSC 19/06 Q1013,GOSP,2021-01-18T03:00:00Z,16.68,-14.97,19.0,6.0,40,2,,4.97,29.911417,,,,,,,,,,,CLR,,,,,,,,MVFR,,,,,,,,,,,,METAR,10.0
GOSM 180300Z 08002KT CAVOK 20/01 Q1013,GOSM,2021-01-18T03:00:00Z,15.6,-13.33,20.0,1.0,80,2,,6.21,29.911417,,,,,,,,,,,CAVOK,,,,,,,,VFR,,,,,,,,,,,,METAR,28.0
GOOY 180300Z 02014KT 8000 NSC 19/13 Q1012,GOOY,2021-01-18T03:00:00Z,14.73,-17.5,19.0,13.0,20,14,,4.97,29.88189,,,,,,,,,,,CLR,,,,,,,,MVFR,,,,,,,,,,,,METAR,21.0
GOOK 180300Z 04016KT CAVOK 22/06 Q1013,GOOK,2021-01-18T03:00:00Z,14.15,-16.07,22.0,6.0,40,16,,6.21,29.911417,,,,,,,,,,,CAVOK,,,,,,,,VFR,,,,,,,,,,,,METAR,8.0
GOOG 180300Z 08004KT CAVOK 21/11 Q////,GOOG,2021-01-18T03:00:00Z,15.4,-15.08,21.0,11.0,80,4,,6.21,,,,,,,,,,,,CAVOK,,,,,,,,VFR,,,,,,,,,,,,METAR,38.0
GOOD 180300Z 04004KT 8000 NSC 20/03 Q1013,GOOD,2021-01-18T03:00:00Z,14.65,-16.22,20.0,3.0,40,4,,4.97,29.911417,,,,,,,,,,,CLR,,,,,,,,MVFR,,,,,,,,,,,,METAR,9.0
GOGS 180300Z 04004KT CAVOK 23/06 Q1011,GOGS,2021-01-18T03:00:00Z,12.4,-16.75,23.0,6.0,40,4,,6.21,29.852362,,,,,,,,,,,CAVOK,,,,,,,,VFR,,,,,,,,,,,,METAR,13.0
GOGK 180300Z 04006KT 8000 NSC 23/02 Q1011,GOGK,2021-01-18T03:00:00Z,12.9,-14.97,23.0,2.0,40,6,,4.97,29.852362,,,,,,,,,,,CLR,,,,,,,,MVFR,,,,,,,,,,,,METAR,37.0
GOGG 180300Z 04004KT CAVOK 22/07 Q1011,GOGG,2021-01-18T03:00:00Z,12.55,-16.27,22.0,7.0,40,4,,6.21,29.852362,,,,,,,,,,,CAVOK,,,,,,,,VFR,,,,,,,,,,,,METAR,24.0
GOBD 180300Z 03010KT 8000 NSC 23/18 Q1012 NOSIG,GOBD,2021-01-18T03:00:00Z,14.67,-17.07,23.0,18.0,30,10,,4.97,29.88189,,,,,,TRUE,,,,,CLR,,,,,,,,MVFR,,,,,,,,,,,,METAR,90.0
GMTT 180300Z 07004KT 5000 NSC 08/08 Q1026 NOSIG,GMTT,2021-01-18T03:00:00Z,35.72,-5.9,8.0,8.0,70,4,,3.11,30.295275,,,,,,TRUE,,,,,CLR,,,,,,,,MVFR,,,,,,,,,,,,METAR,19.0
GMTN 180300Z AUTO 21005KT 07/07 Q1025,GMTN,2021-01-18T03:00:00Z,35.58,-5.32,7.0,7.0,210,5,,,30.265747,,,TRUE,,,,,,,,,,,,,,,,,,,,,,,,,,,,METAR,10.0
GMTA 180300Z 17004KT CAVOK 07/05 Q1025,GMTA,2021-01-18T03:00:00Z,35.17,-3.85,7.0,5.0,170,4,,6.21,30.265747,,,,,,,,,,,CAVOK,,,,,,,,VFR,,,,,,,,,,,,METAR,14.0
GMMZ 180300Z 29003KT CAVOK 04/M06 Q1026 NOSIG,GMMZ,2021-01-18T03:00:00Z,30.93,-6.9,4.0,-6.0,290,3,,6.21,30.295275,,,,,,TRUE,,,,,CAVOK,,,,,,,,VFR,,,,,,,,,,,,METAR,1139.0
GMMX 180300Z VRB01KT CAVOK 05/01 Q1025 NOSIG,GMMX,2021-01-18T03:00:00Z,31.62,-8.03,5.0,1.0,0,1,,6.21,30.265747,,,,,,TRUE,,,,,CAVOK,,,,,,,,VFR,,,,,,,,,,,,METAR,465.0
GMMW 180300Z 27004KT CAVOK 02/00 Q1026 NOSIG,GMMW,2021-01-18T03:00:00Z,34.98,-3.02,2.0,0.0,270,4,,6.21,30.295275,,,,,,TRUE,,,,,CAVOK,,,,,,,,VFR,,,,,,,,,,,,METAR,174.0
GMMN 180300Z VRB01KT 4000 0300N BR SCT003 03/03 Q1026 NOSIG,GMMN,2021-01-18T03:00:00Z,33.37,-7.58,3.0,3.0,0,1,,2.49,30.295275,,,,,,TRUE,,,,BR,SCT,300,,,,,,,IFR,,,,,,,,,,,,SPECI,196.0
GMME 180300Z 00000KT 3000 BR NSC 07/07 Q1025 BECMG 5000,GMME,2021-01-18T03:00:00Z,34.05,-6.77,7.0,7.0,0,0,,1.86,30.265747,,,,,,,,,,BR,CLR,,,,,,,,IFR,,,,,,,,,,,,SPECI,84.0
GMMB 180300Z AUTO 15005KT 2100NDV ////// 05/05 Q1025 NOSIG,GMMB,2021-01-18T03:00:00Z,33.65,-7.22,5.0,5.0,150,5,,,30.265747,,,TRUE,,,TRUE,,,,,,,,,,,,,,,,,,,,,,,,,METAR,191.0
GMFO 180300Z VRB02KT CAVOK 04/M02 Q1026 NOSIG,GMFO,2021-01-18T03:00:00Z,34.78,-1.92,4.0,-2.0,0,2,,6.21,30.295275,,,,,,TRUE,,,,,CAVOK,,,,,,,,VFR,,,,,,,,,,,,METAR,452.0
GMFM 180300Z 17011KT CAVOK 05/M00 Q1025 NOSIG,GMFM,2021-01-18T03:00:00Z,33.87,-5.52,5.0,0.0,170,11,,6.21,30.265747,,,,,,TRUE,,,,,CAVOK,,,,,,,,VFR,,,,,,,,,,,,METAR,569.0
GMFK 180300Z VRB02KT CAVOK 04/M08 Q1028 NOSIG,GMFK,2021-01-18T03:00:00Z,31.95,-4.4,4.0,-8.0,0,2,,6.21,30.35433,,,,,,TRUE,,,,,CAVOK,,,,,,,,VFR,,,,,,,,,,,,METAR,1033.0
GMFF 180300Z 17007KT CAVOK 04/M01 Q1026 NOSIG,GMFF,2021-01-18T03:00:00Z,33.92,-4.97,4.0,-1.0,170,7,,6.21,30.295275,,,,,,TRUE,,,,,CAVOK,,,,,,,,VFR,,,,,,,,,,,,METAR,575.0
GMAD 180300Z 06006KT CAVOK 07/07 Q1024 NOSIG,GMAD,2021-01-18T03:00:00Z,30.32,-9.42,7.0,7.0,60,6,,6.21,30.236221,,,,,,TRUE,,,,,CAVOK,,,,,,,,VFR,,,,,,,,,,,,METAR,66.0
GLRB 180300Z 00000KT 6000 VCBR SCT010 23/22 Q1009 NOSIG,GLRB,2021-01-18T03:00:00Z,6.25,-10.35,23.0,22.0,0,0,,3.73,29.793306,,,,,,TRUE,,,,VCBR,SCT,1000,,,,,,,MVFR,,,,,,,,,,,,METAR,12.0
GFLL 180300Z 21006KT 6000 HZ BKN010 27/23 Q1008,GFLL,2021-01-18T03:00:00Z,8.62,-13.18,27.0,23.0,210,6,,3.73,29.763779,,,,,,,,,,HZ,BKN,1000,,,,,,,MVFR,,,,,,,,,,,,METAR,28.0
GEML 180300Z AUTO 26004KT CAVOK 09/06 Q1026,GEML,2021-01-18T03:00:00Z,35.27,-2.95,9.0,6.0,260,4,,6.21,30.295275,,,TRUE,,,,,,,,CAVOK,,,,,,,,VFR,,,,,,,,,,,,METAR,48.0
GCXO 180300Z AUTO 15003KT 110V170 CAVOK 10/08 Q1026,GCXO,2021-01-18T03:00:00Z,28.48,-16.35,10.0,8.0,150,3,,6.21,30.295275,,,TRUE,,,,,,,,CAVOK,,,,,,,,VFR,,,,,,,,,,,,METAR,623.0
GCTS 180300Z 02006KT 9999 FEW030 14/08 Q1025 NOSIG,GCTS,2021-01-18T03:00:00Z,28.05,-16.57,14.0,8.0,20,6,,6.21,30.265747,,,,,,TRUE,,,,,FEW,3000,,,,,,,VFR,,,,,,,,,,,,METAR,59.0
GCRR 180300Z AUTO 36006KT CAVOK 14/11 Q1025,GCRR,2021-01-18T03:00:00Z,28.95,-13.58,14.0,11.0,360,6,,6.21,30.265747,,,TRUE,,,,,,,,CAVOK,,,,,,,,VFR,,,,,,,,,,,,METAR,9.0
GCLP 180300Z 33008KT 9999 FEW025 15/11 Q1025 NOSIG,GCLP,2021-01-18T03:00:00Z,27.92,-15.38,15.0,11.0,330,8,,6.21,30.265747,,,,,,TRUE,,,,,FEW,2500,,,,,,,VFR,,,,,,,,,,,,METAR,16.0
GCLA 180300Z AUTO 30006KT 9999 OVC042 17/10 Q1026,GCLA,2021-01-18T03:00:00Z,28.62,-17.75,17.0,10.0,300,6,,6.21,30.295275,,,TRUE,,,,,,,,OVC,4200,,,,,,,VFR,,,,,,,,,,,,METAR,20.0
GCHI 180300Z AUTO 30006KT CAVOK 17/11 Q1025,GCHI,2021-01-18T03:00:00Z,27.82,-17.88,17.0,11.0,300,6,,6.21,30.265747,,,TRUE,,,,,,,,CAVOK,,,,,,,,VFR,,,,,,,,,,,,METAR,21.0
GCGM 180300Z AUTO 29005KT CAVOK 15/09 Q1025 RMK R09/30006KT ARP/31006KT,GCGM,2021-01-18T03:00:00Z,28.03,-17.22,15.0,9.0,290,5,,6.21,30.265747,,,TRUE,,,,,,,,CAVOK,,,,,,,,VFR,,,,,,,,,,,,METAR,217.0
GCFV 180300Z AUTO 05007KT 9999 SCT020 17/12 Q1025,GCFV,2021-01-18T03:00:00Z,28.43,-13.87,17.0,12.0,50,7,,6.21,30.265747,,,TRUE,,,,,,,,SCT,2000,,,,,,,VFR,,,,,,,,,,,,METAR,11.0
GBYD 180300Z VRB02KT 9000 NSC 20/07 Q1011,GBYD,2021-01-18T03:00:00Z,13.33,-16.65,20.0,7.0,0,2,,5.59,29.852362,,,,,,,,,,,CLR,,,,,,,,VFR,,,,,,,,,,,,METAR,29.0
GANR 180300Z 02002KT CAVOK 15/M04 Q1015,GANR,2021-01-18T03:00:00Z,15.23,-9.58,15.0,-4.0,20,2,,6.21,29.970472,,,,,,,,,,,CAVOK,,,,,,,,VFR,,,,,,,,,,,,METAR,237.0
GAMB 180300Z 02006KT CAVOK 19/M01 Q1012,GAMB,2021-01-18T03:00:00Z,14.52,-4.08,19.0,-1.0,20,6,,6.21,29.88189,,,,,,,,,,,CAVOK,,,,,,,,VFR,,,,,,,,,,,,METAR,271.0
GAKD 180300Z 04006KT 6000 NSC 23/M02 Q1013,GAKD,2021-01-18T03:00:00Z,14.48,-11.4,23.0,-2.0,40,6,,3.73,29.911417,,,,,,,,,,,CLR,,,,,,,,MVFR,,,,,,,,,,,,METAR,53.0
GABS 180300Z 05008KT CAVOK 19/M02 Q1014 NOSIG,GABS,2021-01-18T03:00:00Z,12.53,-7.95,19.0,-2.0,50,8,,6.21,29.940945,,,,,,TRUE,,,,,CAVOK,,,,,,,,VFR,,,,,,,,,,,,METAR,375.0
FZAA 180300Z 00000KT 7000 BKN016 25/22 Q1011 NOSIG,FZAA,2021-01-18T03:00:00Z,-4.38,15.45,25.0,22.0,0,0,,4.35,29.852362,,,,,,TRUE,,,,,BKN,1600,,,,,,,MVFR,,,,,,,,,,,,METAR,309.0
FYWW 180300Z AUTO 19003KT //// // ////// 18/12 Q1018,FYWW,2021-01-18T03:00:00Z,-22.57,17.1,18.0,12.0,190,3,,,30.059055,,,TRUE,,,,,,,,,,,,,,,,,,,,,,,,,,,,SPECI,1672.0
FYWB 180300Z AUTO 07004KT //// // ////// 17/15 Q1012,FYWB,2021-01-18T03:00:00Z,-22.98,14.65,17.0,15.0,70,4,,,29.88189,,,TRUE,,,,,,,,,,,,,,,,,,,,,,,,,,,,METAR,87.0
FYOW 180300Z AUTO 17002KT //// // ////// 19/14 Q1015,FYOW,2021-01-18T03:00:00Z,-20.43,16.67,19.0,14.0,170,2,,,29.970472,,,TRUE,,,,,,,,,,,,,,,,,,,,,,,,,,,,SPECI,1480.0
FYOO 180300Z AUTO 00000KT //// // ////// 21/19 Q1014,FYOO,2021-01-18T03:00:00Z,-19.15,15.92,21.0,19.0,0,0,,,29.940945,,,TRUE,,,,,,,,,,,,,,,,,,,,,,,,,,,,METAR,1105.0
FYOA 180300Z AUTO 13010KT //// // ////// 24/19 Q1012,FYOA,2021-01-18T03:00:00Z,-17.88,15.97,24.0,19.0,130,10,,,29.88189,,,TRUE,,,,,,,,,,,,,,,,,,,,,,,,,,,,METAR,1099.0
FYML 180300Z AUTO 17002KT //// // ////// 21/15 Q1016,FYML,2021-01-18T03:00:00Z,-24.6,17.93,21.0,15.0,170,2,,,30.0,,,TRUE,,,,,,,,,,,,,,,,,,,,,,,,,,,,SPECI,1113.0
FYLZ 180300Z AUTO 18002KT //// // ////// 15/13 Q1010,FYLZ,2021-01-18T03:00:00Z,-26.68,15.25,15.0,13.0,180,2,,,29.822834,,,TRUE,,,,,,,,,,,,,,,,,,,,,,,,,,,,METAR,129.0
FYKM 180300Z AUTO 31001KT //// // ////// 21/21 Q1010,FYKM,2021-01-18T03:00:00Z,-17.63,24.18,21.0,21.0,310,1,,,29.822834,,,TRUE,,,,,,,,,,,,,,,,,,,,,,,,,,,,METAR,959.0
FYGF 180300Z AUTO 21005KT //// // ////// 20/18 Q1015,FYGF,2021-01-18T03:00:00Z,-19.6,18.12,20.0,18.0,210,5,,,29.970472,,,TRUE,,,,,,,,,,,,,,,,,,,,,,,,,,,,METAR,1407.0
FYGB 180300Z AUTO 19001KT //// // ////// 16/13 Q1018,FYGB,2021-01-18T03:00:00Z,-22.5,18.97,16.0,13.0,190,1,,,30.059055,,,TRUE,,,,,,,,,,,,,,,,,,,,,,,,,,,,METAR,1436.0
FTTJ 180300Z 03007KT 6000 NSC 18/M03 Q1011 NOSIG,FTTJ,2021-01-18T03:00:00Z,12.13,15.03,18.0,-3.0,30,7,,3.73,29.852362,,,,,,TRUE,,,,,CLR,,,,,,,,MVFR,,,,,,,,,,,,METAR,295.0
FTTA 180300Z 00000KT CAVOK 18/10 Q1010,FTTA,2021-01-18T03:00:00Z,9.15,18.37,18.0,10.0,0,0,,6.21,29.822834,,,,,,,,,,,CAVOK,,,,,,,,VFR,,,,,,,,,,,,METAR,361.0
FSIA 180300Z 27006KT 9999 FEW020 27/22 Q1008 NOSIG,FSIA,2021-01-18T03:00:00Z,-4.67,55.52,27.0,22.0,270,6,,6.21,29.763779,,,,,,TRUE,,,,,FEW,2000,,,,,,,VFR,,,,,,,,,,,,METAR,3.0
FQTT 180300Z 00000KT 9999 SCT020 25/25 Q1009,FQTT,2021-01-18T03:00:00Z,-16.1,33.63,25.0,25.0,0,0,,6.21,29.793306,,,,,,,,,,,SCT,2000,,,,,,,VFR,,,,,,,,,,,,METAR,146.0
FQPB 180300Z 36009KT 9999 FEW020 SCT100 26/25 Q1009,FQPB,2021-01-18T03:00:00Z,-12.98,40.52,26.0,25.0,360,9,,6.21,29.793306,,,,,,,,,,,FEW,2000,SCT,10000,,,,,VFR,,,,,,,,,,,,METAR,101.0
FQNP 180300Z 02004KT CAVOK 24/21 Q1010,FQNP,2021-01-18T03:00:00Z,-15.1,39.27,24.0,21.0,20,4,,6.21,29.822834,,,,,,,,,,,CAVOK,,,,,,,,VFR,,,,,,,,,,,,METAR,434.0
FQMA 180300Z 21013KT 9999 BKN020 24/20 Q1011 NOSIG,FQMA,2021-01-18T03:00:00Z,-25.92,32.57,24.0,20.0,210,13,,6.21,29.852362,,,,,,TRUE,,,,,BKN,2000,,,,,,,MVFR,,,,,,,,,,,,METAR,34.0
FQBR 180300Z 02005KT 9999 SCT015 FEW030CB BKN030 24/24 Q1007 RMK CB TO NW,FQBR,2021-01-18T03:00:00Z,-19.8,34.9,24.0,24.0,20,5,,6.21,29.734253,,,,,,,,,,,SCT,1500,FEW,3000,BKN,3000,,,MVFR,,,,,,,,,,,,METAR,14.0
FOOL 180300Z 16004KT 9000 FEW011 26/24 Q1009 NOSIG,FOOL,2021-01-18T03:00:00Z,0.45,9.42,26.0,24.0,160,4,,5.59,29.793306,,,,,,TRUE,,,,,FEW,1100,,,,,,,VFR,,,,,,,,,,,,METAR,9.0
FNLU 180300Z VRB03KT 9999 FEW020 24/22 Q1009 NOSIG,FNLU,2021-01-18T03:00:00Z,-8.85,13.22,24.0,22.0,0,3,,6.21,29.793306,,,,,,TRUE,,,,,FEW,2000,,,,,,,VFR,,,,,,,,,,,,METAR,75.0
FMSD 180300Z 32002KT 9999 FEW016 25/21 Q1007,FMSD,2021-01-18T03:00:00Z,-25.03,46.95,25.0,21.0,320,2,,6.21,29.734253,,,,,,,,,,,FEW,1600,,,,,,,VFR,,,,,,,,,,,,METAR,7.0
FMNN 180300Z 21002KT 9999 BKN020 26/// Q1008,FMNN,2021-01-18T03:00:00Z,-13.32,48.32,,,210,2,,6.21,29.763779,,,,,,,,,,,BKN,2000,,,,,,,MVFR,,,,,,,,,,,,METAR,10.0
FMNM 180300Z VRB02KT 9999 SCT020CB 27/25 Q1008 NOSIG,FMNM,2021-01-18T03:00:00Z,-15.67,46.35,27.0,25.0,0,2,,6.21,29.763779,,,,,,TRUE,,,,,SCT,2000,,,,,,,VFR,,,,,,,,,,,,METAR,18.0
FMMT 180300Z VRB01KT 6000 -RA SCT017TCU BKN033 25/24 Q1009 TEMPO 4000 RA,FMMT,2021-01-18T03:00:00Z,-18.12,49.38,25.0,24.0,0,1,,3.73,29.793306,,,,,,,,,,-RA,SCT,1700,BKN,3300,,,,,MVFR,,,,,,,,,,,,METAR,13.0
FMMI 180300Z 09005KT 9999 FEW014 SCT017 20/18 Q1016 NOSIG,FMMI,2021-01-18T03:00:00Z,-18.8,47.47,20.0,18.0,90,5,,6.21,30.0,,,,,,TRUE,,,,,FEW,1400,SCT,1700,,,,,VFR,,,,,,,,,,,,METAR,1269.0
FMEP 180300Z AUTO VRB03KT CAVOK 27/19 Q1010 NOSIG,FMEP,2021-01-18T03:00:00Z,-21.32,55.42,27.0,19.0,0,3,,6.21,29.822834,,,TRUE,,,TRUE,,,,,CAVOK,,,,,,,,VFR,,,,,,,,,,,,METAR,21.0
FMEE 180300Z AUTO 12015KT CAVOK 27/22 Q1010 NOSIG,FMEE,2021-01-18T03:00:00Z,-20.88,55.52,27.0,22.0,120,15,,6.21,29.822834,,,TRUE,,,TRUE,,,,,CAVOK,,,,,,,,VFR,,,,,,,,,,,,METAR,20.0
FMCZ 180300Z AUTO VRB02KT CAVOK 25/24 Q1008 NOSIG,FMCZ,2021-01-18T03:00:00Z,-12.8,45.27,25.0,24.0,0,2,,6.21,29.763779,,,TRUE,,,TRUE,,,,,CAVOK,,,,,,,,VFR,,,,,,,,,,,,METAR,7.0
FKYS 180300Z 24002KT 7000 SCT006 22/22 Q1014 NOSIG,FKYS,2021-01-18T03:00:00Z,3.82,11.52,22.0,22.0,240,2,,4.35,29.940945,,,,,,TRUE,,,,,SCT,600,,,,,,,MVFR,,,,,,,,,,,,METAR,694.0
FKKD 180300Z 05003KT 9999 TS SCT016 FEW020CB 26/26 Q1008 NOSIG,FKKD,2021-01-18T03:00:00Z,4.0,9.72,26.0,26.0,50,3,,6.21,29.763779,,,,,,TRUE,,,,TS,SCT,1600,FEW,2000,,,,,VFR,,,,,,,,,,,,METAR,10.0
FIMP 180300Z 07013KT 9999 VCSH SCT017 27/22 Q1011,FIMP,2021-01-18T03:00:00Z,-20.43,57.68,27.0,22.0,70,13,,6.21,29.852362,,,,,,,,,,VCSH,SCT,1700,,,,,,,VFR,,,,,,,,,,,,METAR,57.0
FEFF 180300Z 27003KT 6000 NSC 23/22 Q1011 NOSIG,FEFF,2021-01-18T03:00:00Z,4.4,18.52,23.0,22.0,270,3,,3.73,29.852362,,,,,,TRUE,,,,,CLR,,,,,,,,MVFR,,,,,,,,,,,,METAR,364.0
FCBB 180300Z 23002KT 9000 NSC 23/22 Q1011 NOSIG,FCBB,2021-01-18T03:00:00Z,-4.25,15.25,23.0,22.0,230,2,,5.59,29.852362,,,,,,TRUE,,,,,CLR,,,,,,,,VFR,,,,,,,,,,,,METAR,316.0
FBSP 180300Z 12010KT 9999 OVC020 22/21 Q1013,FBSP,2021-01-18T03:00:00Z,-22.05,27.82,22.0,21.0,120,10,,6.21,29.911417,,,,,,,,,,,OVC,2000,,,,,,,MVFR,,,,,,,,,,,,METAR,889.0
FBMN 180300Z 21004KT 9999 SCT025 FEW030CB BKN060 20/20 Q1011,FBMN,2021-01-18T03:00:00Z,-19.97,23.42,20.0,20.0,210,4,,6.21,29.852362,,,,,,,,,,,SCT,2500,FEW,3000,BKN,6000,,,VFR,,,,,,,,,,,,METAR,946.0
FBKE 180300Z 30004KT 9999 FEW020 FEW035CB BKN060 21/21 Q1011,FBKE,2021-01-18T03:00:00Z,-17.82,25.17,21.0,21.0,300,4,,6.21,29.852362,,,,,,,,,,,FEW,2000,FEW,3500,BKN,6000,,,VFR,,,,,,,,,,,,METAR,999.0
FAWB 180300Z AUTO 07005KT //// // ////// 21/18 Q1016,FAWB,2021-01-18T03:00:00Z,-25.65,28.22,21.0,18.0,70,5,,,30.0,,,TRUE,,,,,,,,,,,,,,,,,,,,,,,,,,,,METAR,1245.0
FAUT 180300Z AUTO 08001KT //// // ////// 16/16 Q1017,FAUT,2021-01-18T03:00:00Z,-31.53,28.67,16.0,16.0,80,1,,,30.029528,,,TRUE,,,,,,,,,,,,,,,,,,,,,,,,,,,,METAR,735.0
FAUP 180300Z 24004KT CAVOK 21/12 Q1012 NOSIG,FAUP,2021-01-18T03:00:00Z,-28.38,21.27,21.0,12.0,240,4,,6.21,29.88189,,,,,,TRUE,,,,,CAVOK,,,,,,,,VFR,,,,,,,,,,,,METAR,845.0
FAPP 180300Z AUTO 10005KT //// // ////// 19/16 Q1016,FAPP,2021-01-18T03:00:00Z,-23.83,29.45,19.0,16.0,100,5,,,30.0,,,TRUE,,,,,,,,,,,,,,,,,,,,,,,,,,,,SPECI,1238.0
FAPE 180300Z 11003KT 9999 BKN038 19/16 Q1015 NOSIG,FAPE,2021-01-18T03:00:00Z,-33.98,25.6,19.0,16.0,110,3,,6.21,29.970472,,,,,,TRUE,,,,,BKN,3800,,,,,,,VFR,,,,,,,,,,,,METAR,58.0
FAOR 180300Z 06005KT 9999 BKN019 17/15 Q1019 NOSIG,FAOR,2021-01-18T03:00:00Z,-26.13,28.23,17.0,15.0,60,5,,6.21,30.088583,,,,,,TRUE,,,,,BKN,1900,,,,,,,MVFR,,,,,,,,,,,,METAR,1684.0
FAOB 180300Z AUTO 13008KT //// // ////// 19/16 Q1013,FAOB,2021-01-18T03:00:00Z,-34.55,20.23,19.0,16.0,130,8,,,29.911417,,,TRUE,,,,,,,,,,,,,,,,,,,,,,,,,,,,METAR,15.0
FAMM 180300Z 02008KT CAVOK 18/16 Q1015 NOSIG,FAMM,2021-01-18T03:00:00Z,-25.8,25.53,18.0,16.0,20,8,,6.21,29.970472,,,,,,TRUE,,,,,CAVOK,,,,,,,,VFR,,,,,,,,,,,,METAR,1280.0
FALW 180300Z AUTO 23004KT //// // ////// 17/14 Q1008,FALW,2021-01-18T03:00:00Z,-32.97,18.17,17.0,14.0,230,4,,,29.763779,,,TRUE,,,,,,,,,,,,,,,,,,,,,,,,,,,,METAR,31.0
FALE 180300Z 23004KT 9999 FEW030 BKN035 OVC050 21/19 Q1014 NOSIG,FALE,2021-01-18T03:00:00Z,-29.62,31.12,21.0,19.0,230,4,,6.21,29.940945,,,,,,TRUE,,,,,FEW,3000,BKN,3500,OVC,5000,,,VFR,,,,,,,,,,,,METAR,109.0
FALA 180300Z AUTO 07007KT //// // ////// 20/16 Q1018,FALA,2021-01-18T03:00:00Z,-25.93,27.92,20.0,16.0,70,7,,,30.059055,,,TRUE,,,,,,,,,,,,,,,,,,,,,,,,,,,,SPECI,1365.0
FAKN 180300Z AUTO 15003KT //// // ////// 19/14 Q1018,FAKN,2021-01-18T03:00:00Z,-25.38,31.1,19.0,14.0,150,3,,,30.059055,,,TRUE,,,,,,,,,,,,,,,,,,,,,,,,,,,,METAR,864.0
FAKM 180300Z 12003KT CAVOK 14/11 Q1015,FAKM,2021-01-18T03:00:00Z,-28.8,24.77,14.0,11.0,120,3,,6.21,29.970472,,,,,,,,,,,CAVOK,,,,,,,,VFR,,,,,,,,,,,,METAR,1203.0
FAHS 180300Z AUTO 18006KT //// // ////// 22/19 Q1014,FAHS,2021-01-18T03:00:00Z,-24.37,31.03,22.0,19.0,180,6,,,29.940945,,,TRUE,,,,,,,,,,,,,,,,,,,,,,,,,,,,METAR,532.0
FAGG 180300Z 11005KT 9999 BKN023 17/16 Q1013,FAGG,2021-01-18T03:00:00Z,-34.0,22.37,17.0,16.0,110,5,,6.21,29.911417,,,,,,,,,,,BKN,2300,,,,,,,MVFR,,,,,,,,,,,,METAR,196.0
FAEL 180300Z 22006KT 9999 SCT020 18/17 Q1015,FAEL,2021-01-18T03:00:00Z,-33.03,27.82,18.0,17.0,220,6,,6.21,29.970472,,,,,,,,,,,SCT,2000,,,,,,,VFR,,,,,,,,,,,,METAR,127.0
FACT 180300Z 19010KT CAVOK 19/14 Q1009 NOSIG,FACT,2021-01-18T03:00:00Z,-33.97,18.6,19.0,14.0,190,10,,6.21,29.793306,,,,,,TRUE,,,,,CAVOK,,,,,,,,VFR,,,,,,,,,,,,METAR,48.0
FABL 180300Z 18003KT CAVOK 14/12 Q1017 NOSIG,FABL,2021-01-18T03:00:00Z,-29.1,26.3,14.0,12.0,180,3,,6.21,30.029528,,,,,,TRUE,,,,,CAVOK,,,,,,,,VFR,,,,,,,,,,,,METAR,1348.0
EPWR 180300Z 13005KT 2800 BR BKN022 M15/M17 Q1022 R11/19//95,EPWR,2021-01-18T03:00:00Z,51.1,16.88,-15.0,-17.0,130,5,,1.74,30.177166,,,,,,,,,,BR,BKN,2200,,,,,,,IFR,,,,,,,,,,,,METAR,118.0
EPWA 180300Z 25001KT 4000 BR NSC M20/M22 Q1022 R33/1///95 NOSIG,EPWA,2021-01-18T03:00:00Z,52.17,20.97,-20.0,-22.0,250,1,,2.49,30.177166,,,,,,TRUE,,,,BR,CLR,,,,,,,,IFR,,,,,,,,,,,,METAR,107.0
EPSY 180300Z VRB02KT 6000 BKN002 OVC004 M16/M18 Q1021,EPSY,2021-01-18T03:00:00Z,53.47,20.93,-16.0,-18.0,0,2,,3.73,30.147638,,,,,,,,,,,BKN,200,OVC,400,,,,,LIFR,,,,,,,,,,,,METAR,136.0
EPSC 180300Z 12006KT 9000 FEW014 M13/M15 Q1021 R13/72//95,EPSC,2021-01-18T03:00:00Z,53.58,14.9,-13.0,-15.0,120,6,,5.59,30.147638,,,,,,,,,,,FEW,1400,,,,,,,VFR,,,,,,,,,,,,METAR,47.0
EPRZ 180300Z 29006KT 5000 -SN BR OVC007 M11/M14 Q1021 R09/42//95,EPRZ,2021-01-18T03:00:00Z,50.1,22.02,-11.0,-14.0,290,6,,3.11,30.147638,,,,,,,,,,-SN BR,OVC,700,,,,,,,IFR,,,,,,,,,,,,METAR,206.0
EPPO 180300Z 13005KT 2900 BR NSC M15/M17 Q1022,EPPO,2021-01-18T03:00:00Z,52.42,16.83,-15.0,-17.0,130,5,,1.8,30.177166,,,,,,,,,,BR,CLR,,,,,,,,IFR,,,,,,,,,,,,METAR,87.0
EPMO 180300Z 23002KT 2000 BR NSC M20/M23 Q1022,EPMO,2021-01-18T03:00:00Z,52.45,20.65,-20.0,-23.0,230,2,,1.24,30.177166,,,,,,,,,,BR,CLR,,,,,,,,IFR,,,,,,,,,,,,METAR,102.0
EPLL 180300Z VRB02KT 1800 BR OVC002 M20/M23 Q1022 R07/490293,EPLL,2021-01-18T03:00:00Z,51.72,19.4,-20.0,-23.0,0,2,,1.12,30.177166,,,,,,,,,,BR,OVC,200,,,,,,,LIFR,,,,,,,,,,,,METAR,176.0
EPLB 180300Z 29004KT 7000 NSC M21/M21 Q1021,EPLB,2021-01-18T03:00:00Z,51.23,22.72,-21.0,-21.0,290,4,,4.35,30.147638,,,,,,,,,,,CLR,,,,,,,,MVFR,,,,,,,,,,,,METAR,206.0
EPKT 180300Z 21004KT 4400 -SN BR BKN002 OVC003 M13/M15 Q1020 R99/410295,EPKT,2021-01-18T03:00:00Z,50.47,19.08,-13.0,-15.0,210,4,,2.73,30.11811,,,,,,,,,,-SN BR,BKN,200,OVC,300,,,,,LIFR,,,,,,,,,,,,METAR,296.0
EPKK 180300Z 23005KT 5000 -SN BR OVC010 M11/M13 Q1021 R25/41//95,EPKK,2021-01-18T03:00:00Z,50.07,19.8,-11.0,-13.0,230,5,,3.11,30.147638,,,,,,,,,,-SN BR,OVC,1000,,,,,,,MVFR,,,,,,,,,,,,METAR,237.0
EPGD 180300Z 24005KT 190V270 9999 -SN FEW022 BKN041 M11/M14 Q1020 R11/090095,EPGD,2021-01-18T03:00:00Z,54.37,18.47,-11.0,-14.0,240,5,,6.21,30.11811,,,,,,,,,,-SN,FEW,2200,BKN,4100,,,,,VFR,,,,,,,,,,,,METAR,136.0
EPBY 180300Z 22002KT 3500 BR NSC M20/M23 Q1022,EPBY,2021-01-18T03:00:00Z,53.1,18.0,-20.0,-23.0,220,2,,2.17,30.177166,,,,,,,,,,BR,CLR,,,,,,,,IFR,,,,,,,,,,,,METAR,66.0
EINN 180300Z 17005KT 9999 OVC040 05/03 Q1023 NOSIG,EINN,2021-01-18T03:00:00Z,52.7,-8.92,5.0,3.0,170,5,,6.21,30.206694,,,,,,TRUE,,,,,OVC,4000,,,,,,,VFR,,,,,,,,,,,,METAR,20.0
EIME 180300Z 23013KT 9999 FEW020 BKN033 04/03 Q1021,EIME,2021-01-18T03:00:00Z,53.3,-6.45,4.0,3.0,230,13,,6.21,30.147638,,,,,,,,,,,FEW,2000,BKN,3300,,,,,VFR,,,,,,,,,,,,METAR,90.0
EIDW 180300Z 24009KT 200V270 9999 FEW015 05/03 Q1021 NOSIG,EIDW,2021-01-18T03:00:00Z,53.42,-6.28,5.0,3.0,240,9,,6.21,30.147638,,,,,,TRUE,,,,,FEW,1500,,,,,,,VFR,,,,,,,,,,,,METAR,75.0
EICK 180300Z 21003KT 9999 BKN029 04/03 Q1023 NOSIG,EICK,2021-01-18T03:00:00Z,51.85,-8.47,4.0,3.0,210,3,,6.21,30.206694,,,,,,TRUE,,,,,BKN,2900,,,,,,,MVFR,,,,,,,,,,,,METAR,158.0
EGOP 180300Z AUTO 27008KT 9999 // FEW023/// BKN046/// 07/05 Q1024,EGOP,2021-01-18T03:00:00Z,51.72,-4.37,7.0,5.0,270,8,,6.21,30.236221,,,TRUE,,,,,,,,FEW,2300,BKN,4600,,,,,VFR,,,,,,,,,,,,METAR,8.0
DXXX 180300Z 28003KT 9999 FEW012 27/25 Q1009 NOSIG,DXXX,2021-01-18T03:00:00Z,6.17,1.25,27.0,25.0,280,3,,6.21,29.793306,,,,,,TRUE,,,,,FEW,1200,,,,,,,VFR,,,,,,,,,,,,METAR,22.0
DXNG 180300Z 04004KT CAVOK 21/M02 Q1011,DXNG,2021-01-18T03:00:00Z,9.77,1.1,21.0,-2.0,40,4,,6.21,29.852362,,,,,,,,,,,CAVOK,,,,,,,,VFR,,,,,,,,,,,,METAR,343.0
DTTZ 180300Z 24012KT CAVOK 07/M01 Q1023,DTTZ,2021-01-18T03:00:00Z,33.93,8.1,7.0,-1.0,240,12,,6.21,30.206694,,,,,,,,,,,CAVOK,,,,,,,,VFR,,,,,,,,,,,,METAR,87.0
DTTX 180300Z 25008KT CAVOK 10/M00 Q1020,DTTX,2021-01-18T03:00:00Z,34.72,10.68,10.0,0.0,250,8,,6.21,30.11811,,,,,,,,,,,CAVOK,,,,,,,,VFR,,,,,,,,,,,,METAR,17.0
DTTN 180300Z 21007KT 180V240 8000 FEW020 11/06 Q1021,DTTN,2021-01-18T03:00:00Z,36.47,8.8,11.0,6.0,210,7,,4.97,30.147638,,,,,,,,,,,FEW,2000,,,,,,,MVFR,,,,,,,,,,,,METAR,145.0
DTTL 180300Z AUTO 29008KT 220V360 NCD 13/08 Q1017,DTTL,2021-01-18T03:00:00Z,36.85,11.07,13.0,8.0,290,8,,,30.029528,,,TRUE,,,,,,,,CLR,,,,,,,,,,,,,,,,,,,,METAR,18.0
DTTK 180300Z 21004KT CAVOK 13/M01 Q1020,DTTK,2021-01-18T03:00:00Z,35.67,10.08,13.0,-1.0,210,4,,6.21,30.11811,,,,,,,,,,,CAVOK,,,,,,,,VFR,,,,,,,,,,,,METAR,65.0
DTTJ 180300Z 27022KT CAVOK 13/03 Q1022 NOSIG,DTTJ,2021-01-18T03:00:00Z,33.87,10.77,13.0,3.0,270,22,,6.21,30.177166,,,,,,TRUE,,,,,CAVOK,,,,,,,,VFR,,,,,,,,,,,,METAR,3.0
DTTG 180300Z 23021KT 7000 NSC 08/M00 Q1022 NOSIG,DTTG,2021-01-18T03:00:00Z,33.73,9.92,8.0,0.0,230,21,,4.35,30.177166,,,,,,TRUE,,,,,CLR,,,,,,,,MVFR,,,,,,,,,,,,METAR,120.0
DTTF 180300Z 32003KT 280V340 CAVOK 06/M02 Q1023 NOSIG,DTTF,2021-01-18T03:00:00Z,34.42,8.82,6.0,-2.0,320,3,,6.21,30.206694,,,,,,TRUE,,,,,CAVOK,,,,,,,,VFR,,,,,,,,,,,,METAR,314.0
DTTD 180300Z AUTO 27012KT NCD 09/M01 Q1024,DTTD,2021-01-18T03:00:00Z,32.32,10.4,9.0,-1.0,270,12,,,30.236221,,,TRUE,,,,,,,,CLR,,,,,,,,,,,,,,,,,,,,METAR,306.0
DTTB 180300Z 30022KT 8000 SCT020 SCT030 13/06 Q1019,DTTB,2021-01-18T03:00:00Z,37.25,9.8,13.0,6.0,300,22,,4.97,30.088583,,,,,,,,,,,SCT,2000,SCT,3000,,,,,MVFR,,,,,,,,,,,,METAR,4.0
DTTA 180300Z 30013KT 260V330 8000 -RA SCT023 BKN033 12/09 Q1019,DTTA,2021-01-18T03:00:00Z,36.85,10.22,12.0,9.0,300,13,,4.97,30.088583,,,,,,,,,,-RA,SCT,2300,BKN,3300,,,,,MVFR,,,,,,,,,,,,METAR,4.0
DTNH 180300Z AUTO 27009KT CAVOK 11/01 Q1019,DTNH,2021-01-18T03:00:00Z,36.07,10.43,11.0,1.0,270,9,,6.21,30.088583,,,TRUE,,,,,,,,CAVOK,,,,,,,,VFR,,,,,,,,,,,,METAR,1.0
DTMB 180300Z 27011KT CAVOK 12/M01 Q1019 NOSIG,DTMB,2021-01-18T03:00:00Z,35.77,10.75,12.0,-1.0,270,11,,6.21,30.088583,,,,,,TRUE,,,,,CAVOK,,,,,,,,VFR,,,,,,,,,,,,METAR,1.0
DTKA 180300Z 30020G35KT 8000 SHRA SCT020 SCT030 13/09 Q1021 NOSIG,DTKA,2021-01-18T03:00:00Z,36.98,8.88,13.0,9.0,300,20,35,4.97,30.147638,,,,,,TRUE,,,,SHRA,SCT,2000,SCT,3000,,,,,MVFR,,,,,,,,,,,,METAR,70.0
DRRT 180300Z 08008KT CAVOK 22/M06 Q1013,DRRT,2021-01-18T03:00:00Z,14.87,5.27,22.0,-6.0,80,8,,6.21,29.911417,,,,,,,,,,,CAVOK,,,,,,,,VFR,,,,,,,,,,,,METAR,387.0
DRRN 180300Z 33005KT CAVOK 22/M03 Q1011 NOSIG,DRRN,2021-01-18T03:00:00Z,13.47,2.17,22.0,-3.0,330,5,,6.21,29.852362,,,,,,TRUE,,,,,CAVOK,,,,,,,,VFR,,,,,,,,,,,,METAR,223.0
DNPO 180300Z 00000KT 7000 FEW008 24/23 Q1009 NOSIG,DNPO,2021-01-18T03:00:00Z,4.83,7.02,24.0,23.0,0,0,,4.35,29.793306,,,,,,TRUE,,,,,FEW,800,,,,,,,MVFR,,,,,,,,,,,,METAR,17.0
DNKN 180300Z 00000KT CAVOK 15/05 Q1015 NOSIG,DNKN,2021-01-18T03:00:00Z,12.05,8.52,15.0,5.0,0,0,,6.21,29.970472,,,,,,TRUE,,,,,CAVOK,,,,,,,,VFR,,,,,,,,,,,,METAR,471.0
DIYO 180300Z 00000KT 6000 NSC 21/20 Q1010 NOSIG,DIYO,2021-01-18T03:00:00Z,6.9,-5.35,21.0,20.0,0,0,,3.73,29.822834,,,,,,TRUE,,,,,CLR,,,,,,,,MVFR,,,,,,,,,,,,METAR,202.0
DIBK 180300Z 16004KT 8000 NSC 23/19 Q1011 NOSIG,DIBK,2021-01-18T03:00:00Z,7.73,-5.07,23.0,19.0,160,4,,4.97,29.852362,,,,,,TRUE,,,,,CLR,,,,,,,,MVFR,,,,,,,,,,,,METAR,363.0
DIAP 180300Z 15003KT 9999 FEW012 26/26 Q1008 NOSIG,DIAP,2021-01-18T03:00:00Z,5.25,-3.92,26.0,26.0,150,3,,6.21,29.763779,,,,,,TRUE,,,,,FEW,1200,,,,,,,VFR,,,,,,,,,,,,METAR,4.0
DGAA 180300Z 28006KT 9999 SCT013 26/24 Q1009 NOSIG,DGAA,2021-01-18T03:00:00Z,5.58,-0.17,26.0,24.0,280,6,,6.21,29.793306,,,,,,TRUE,,,,,SCT,1300,,,,,,,VFR,,,,,,,,,,,,METAR,68.0
DFOO 180300Z 02007KT CAVOK 21/01 Q1011,DFOO,2021-01-18T03:00:00Z,11.17,-4.32,21.0,1.0,20,7,,6.21,29.852362,,,,,,,,,,,CAVOK,,,,,,,,VFR,,,,,,,,,,,,METAR,461.0
DFFD 180300Z 36004KT CAVOK 22/02 Q1011 NOSIG,DFFD,2021-01-18T03:00:00Z,12.35,-1.52,22.0,2.0,360,4,,6.21,29.852362,,,,,,TRUE,,,,,CAVOK,,,,,,,,VFR,,,,,,,,,,,,METAR,309.0
DBBB 180300Z 34002KT 8000 FEW011 27/25 Q1009 NOSIG,DBBB,2021-01-18T03:00:00Z,6.35,2.38,27.0,25.0,340,2,,4.97,29.793306,,,,,,TRUE,,,,,FEW,1100,,,,,,,MVFR,,,,,,,,,,,,METAR,4.0
DAUZ 180300Z 05005KT CAVOK 02/M06 Q1025,DAUZ,2021-01-18T03:00:00Z,28.05,9.63,2.0,-6.0,50,5,,6.21,30.265747,,,,,,,,,,,CAVOK,,,,,,,,VFR,,,,,,,,,,,,METAR,567.0
DAUU 180300Z 00000KT CAVOK 04/M03 Q1025,DAUU,2021-01-18T03:00:00Z,31.92,5.4,4.0,-3.0,0,0,,6.21,30.265747,,,,,,,,,,,CAVOK,,,,,,,,VFR,,,,,,,,,,,,METAR,147.0
DAUT 180300Z 05009KT CAVOK 05/M03 Q1025,DAUT,2021-01-18T03:00:00Z,29.25,0.27,5.0,-3.0,50,9,,6.21,30.265747,,,,,,,,,,,CAVOK,,,,,,,,VFR,,,,,,,,,,,,METAR,307.0
DAUO 180300Z 24007KT CAVOK 07/M01 Q1024,DAUO,2021-01-18T03:00:00Z,33.5,6.78,7.0,-1.0,240,7,,6.21,30.236221,,,,,,,,,,,CAVOK,,,,,,,,VFR,,,,,,,,,,,,METAR,55.0
DAUL 180300Z 00000KT CAVOK 03/M12 Q1025,DAUL,2021-01-18T03:00:00Z,33.77,2.92,3.0,-12.0,0,0,,6.21,30.265747,,,,,,,,,,,CAVOK,,,,,,,,VFR,,,,,,,,,,,,METAR,755.0
DAUK 180300Z 18006KT CAVOK 05/M01 Q1025,DAUK,2021-01-18T03:00:00Z,33.08,6.08,5.0,-1.0,180,6,,6.21,30.265747,,,,,,,,,,,CAVOK,,,,,,,,VFR,,,,,,,,,,,,METAR,83.0
DAUI 180300Z 04015KT 9000 NSC 10/M03 Q1022,DAUI,2021-01-18T03:00:00Z,27.25,2.52,10.0,-3.0,40,15,,5.59,30.177166,,,,,,,,,,,CLR,,,,,,,,VFR,,,,,,,,,,,,METAR,271.0
DAUH 180300Z 00000KT CAVOK 02/M04 Q1025,DAUH,2021-01-18T03:00:00Z,31.67,6.15,2.0,-4.0,0,0,,6.21,30.265747,,,,,,,,,,,CAVOK,,,,,,,,VFR,,,,,,,,,,,,METAR,141.0
DAUG 180300Z 25005KT CAVOK 08/M04 Q1025,DAUG,2021-01-18T03:00:00Z,32.38,3.78,8.0,-4.0,250,5,,6.21,30.265747,,,,,,,,,,,CAVOK,,,,,,,,VFR,,,,,,,,,,,,METAR,444.0
DAUE 180300Z 01005KT CAVOK 02/M05 Q1027,DAUE,2021-01-18T03:00:00Z,30.57,2.87,2.0,-5.0,10,5,,6.21,30.324802,,,,,,,,,,,CAVOK,,,,,,,,VFR,,,,,,,,,,,,METAR,396.0
DAUB 180300Z 30007KT CAVOK 11/M08 Q1024,DAUB,2021-01-18T03:00:00Z,34.78,5.73,11.0,-8.0,300,7,,6.21,30.236221,,,,,,,,,,,CAVOK,,,,,,,,VFR,,,,,,,,,,,,METAR,75.0
DAUA 180300Z 04010KT CAVOK 05/M04 Q1024,DAUA,2021-01-18T03:00:00Z,27.83,-0.18,5.0,-4.0,40,10,,6.21,30.236221,,,,,,,,,,,CAVOK,,,,,,,,VFR,,,,,,,,,,,,METAR,278.0
DAOY 180300Z VRB02KT CAVOK M02/M13 Q1026,DAOY,2021-01-18T03:00:00Z,33.72,1.08,-2.0,-13.0,0,2,,6.21,30.295275,,,,,,,,,,,CAVOK,,,,,,,,VFR,,,,,,,,,,,,METAR,1340.0
DAOV 180300Z VRB01KT CAVOK 03/M02 Q1026,DAOV,2021-01-18T03:00:00Z,35.2,0.15,3.0,-2.0,0,1,,6.21,30.295275,,,,,,,,,,,CAVOK,,,,,,,,VFR,,,,,,,,,,,,METAR,506.0
DAOR 180300Z 04004KT CAVOK 01/M12 Q1027,DAOR,2021-01-18T03:00:00Z,31.65,-2.27,1.0,-12.0,40,4,,6.21,30.324802,,,,,,,,,,,CAVOK,,,,,,,,VFR,,,,,,,,,,,,METAR,809.0
DAOO 180300Z 18004KT CAVOK 03/03 Q1026,DAOO,2021-01-18T03:00:00Z,35.62,-0.62,3.0,3.0,180,4,,6.21,30.295275,,,,,,,,,,,CAVOK,,,,,,,,VFR,,,,,,,,,,,,METAR,87.0
DAON 180300Z 11004KT CAVOK 05/01 Q1026,DAON,2021-01-18T03:00:00Z,35.02,-1.47,5.0,1.0,110,4,,6.21,30.295275,,,,,,,,,,,CAVOK,,,,,,,,VFR,,,,,,,,,,,,METAR,245.0
DAOI 180300Z 08004KT CAVOK 05/01 Q1025,DAOI,2021-01-18T03:00:00Z,36.22,1.32,5.0,1.0,80,4,,6.21,30.265747,,,,,,,,,,,CAVOK,,,,,,,,VFR,,,,,,,,,,,,METAR,141.0
DAOF 180300Z 03006KT CAVOK 06/M10 Q1025,DAOF,2021-01-18T03:00:00Z,27.7,-8.17,6.0,-10.0,30,6,,6.21,30.265747,,,,,,,,,,,CAVOK,,,,,,,,VFR,,,,,,,,,,,,METAR,441.0
DAOB 180300Z 25003KT CAVOK 02/M05 Q1025,DAOB,2021-01-18T03:00:00Z,35.33,1.47,2.0,-5.0,250,3,,6.21,30.265747,,,,,,,,,,,CAVOK,,,,,,,,VFR,,,,,,,,,,,,METAR,984.0
DABT 180300Z 00000KT CAVOK 00/M07 Q1025,DABT,2021-01-18T03:00:00Z,35.75,6.32,0.0,-7.0,0,0,,6.21,30.265747,,,,,,,,,,,CAVOK,,,,,,,,VFR,,,,,,,,,,,,METAR,813.0
DABS 180300Z 30012KT 9999 FEW026 06/M07 Q1023,DABS,2021-01-18T03:00:00Z,35.43,8.12,6.0,-7.0,300,12,,6.21,30.206694,,,,,,,,,,,FEW,2600,,,,,,,VFR,,,,,,,,,,,,METAR,806.0
DABC 180300Z 32007KT 9999 FEW026 06/00 Q1024,DABC,2021-01-18T03:00:00Z,36.27,6.62,6.0,0.0,320,7,,6.21,30.236221,,,,,,,,,,,FEW,2600,,,,,,,VFR,,,,,,,,,,,,METAR,700.0
DABB 180300Z 29011KT 9999 FEW020 11/08 Q1022,DABB,2021-01-18T03:00:00Z,36.82,7.82,11.0,8.0,290,11,,6.21,30.177166,,,,,,,,,,,FEW,2000,,,,,,,VFR,,,,,,,,,,,,METAR,3.0
DAAY 180300Z 00000KT 9999 FEW030 M01/M06 Q1029,DAAY,2021-01-18T03:00:00Z,33.53,-0.25,-1.0,-6.0,0,0,,6.21,30.383858,,,,,,,,,,,FEW,3000,,,,,,,VFR,,,,,,,,,,,,METAR,1116.0
DAAV 180300Z 17005KT 9999 SCT033 08/05 Q1024,DAAV,2021-01-18T03:00:00Z,36.8,5.88,8.0,5.0,170,5,,6.21,30.236221,,,,,,,,,,,SCT,3300,,,,,,,VFR,,,,,,,,,,,,METAR,11.0
DAAT 180300Z 08016KT CAVOK 11/M15 Q1021,DAAT,2021-01-18T03:00:00Z,22.82,5.47,11.0,-15.0,80,16,,6.21,30.147638,,,,,,,,,,,CAVOK,,,,,,,,VFR,,,,,,,,,,,,METAR,1372.0
DAAP 180300Z 12003KT CAVOK 07/M05 Q1024,DAAP,2021-01-18T03:00:00Z,26.72,8.62,7.0,-5.0,120,3,,6.21,30.236221,,,,,,,,,,,CAVOK,,,,,,,,VFR,,,,,,,,,,,,METAR,542.0
DAAJ 180300Z 35003KT CAVOK 03/M09 Q1023,DAAJ,2021-01-18T03:00:00Z,24.28,9.47,3.0,-9.0,350,3,,6.21,30.206694,,,,,,,,,,,CAVOK,,,,,,,,VFR,,,,,,,,,,,,METAR,962.0
DAAG 180300Z 30003KT CAVOK 02/01 Q1026,DAAG,2021-01-18T03:00:00Z,36.68,3.22,2.0,1.0,300,3,,6.21,30.295275,,,,,,,,,,,CAVOK,,,,,,,,VFR,,,,,,,,,,,,METAR,18.0
DAAE 180300Z 25006KT CAVOK 05/01 Q1025,DAAE,2021-01-18T03:00:00Z,36.72,5.07,5.0,1.0,250,6,,6.21,30.265747,,,,,,,,,,,CAVOK,,,,,,,,VFR,,,,,,,,,,,,METAR,1.0
CZZJ 180300Z AUTO 29005KT 01/M02 RMK AO1 SOG 11 1017 SLP200 T00051024,CZZJ,2021-01-18T03:00:00Z,53.58,-116.47,0.5,-2.4,290,5,,,,1020.0,,TRUE,TRUE,,,,,,,,,,,,,,,,,,,,,,,,,,,METAR,927.0
CZVL 180300Z AUTO 32011KT 9SM FEW027 OVC034 01/M01 A2995 RMK SLP175,CZVL,2021-01-18T03:00:00Z,53.67,-113.85,1.0,-1.0,320,11,,9.0,29.949802,1017.5,,TRUE,,,,,,,,FEW,2700,OVC,3400,,,,,VFR,,,,,,,,,,,,METAR,685.0
CZTB 180300Z AUTO 27004KT M14/M16 RMK AO1 SOG 13 0001 SLP099 T11431155,CZTB,2021-01-18T03:00:00Z,48.37,-89.32,-14.3,-15.5,270,4,,,,1009.9,,TRUE,TRUE,,,,,,,,,,,,,,,,,,,,,,,,,,,METAR,197.0
CZSP 180300Z AUTO 21016G22KT 02/M02 RMK AO1 SOG 04 2024 PK WND 22025/0205 SLP903 T00171017,CZSP,2021-01-18T03:00:00Z,46.45,-62.58,1.7,-1.7,210,16,22,,,990.3,,TRUE,TRUE,,,,,,,,,,,,,,,,,,,,,,,,,,,METAR,31.0
CZSM 180300Z AUTO 10002KT M15/M17 RMK AO1 SOG 48 6004 SLP154 T11491166,CZSM,2021-01-18T03:00:00Z,60.03,-111.93,-14.9,-16.6,100,2,,,,1015.4,,TRUE,TRUE,,,,,,,,,,,,,,,,,,,,,,,,,,,SPECI,203.0
CZSJ 180300Z AUTO 02007KT 5SM -SN BKN015 BKN038 OVC110 M20/M21 A2991 RMK SLP158,CZSJ,2021-01-18T03:00:00Z,53.07,-93.35,-20.0,-21.0,20,7,,5.0,29.911417,1015.8,,TRUE,,,,,,,-SN,BKN,1500,BKN,3800,OVC,11000,,,MVFR,,,,,,,,,,,,METAR,286.0
CZPC 180300Z AUTO 28013G18KT 9SM 03/M09 A2999 RMK CLD MISG SLP189,CZPC,2021-01-18T03:00:00Z,49.52,-114.0,3.0,-9.0,280,13,18,9.0,29.991142,1018.9,,TRUE,,,,,,,,,,,,,,,,,,,,,,,,,,,,METAR,1187.0
CZOL 180300Z AUTO 33008KT 01/01 RMK AO1 T00110011,CZOL,2021-01-18T03:00:00Z,53.65,-113.35,1.1,1.1,330,8,,,,,,TRUE,TRUE,,,,,,,,,,,,,,,,,,,,,,,,,,,METAR,645.0
CZMU 180300Z AUTO 27016KT M00/M00 RMK AO1 SOG 05 PK WND 27022/0201 T10041004,CZMU,2021-01-18T03:00:00Z,53.57,-112.3,-0.4,-0.4,270,16,,,,,,TRUE,TRUE,,,,,,,,,,,,,,,,,,,,,,,,,,,METAR,682.0
CZMJ 180300Z AUTO 30005KT M02/M03 RMK AO1 2PAST HR 0001 SLP125 P0001 T10211027 50005,CZMJ,2021-01-18T03:00:00Z,50.33,-105.53,-2.1,-2.7,300,5,,,,1012.5,,TRUE,TRUE,,,,,,,,,,,,,,,,0.5,,,,,0.01,,,,,,METAR,571.0
CZMD 180300Z AUTO 02009KT 340V040 3SM -SN FEW015 OVC048 M20/M23 A2990 RMK SLP155,CZMD,2021-01-18T03:00:00Z,53.43,-91.77,-20.0,-23.0,20,9,,3.0,29.899607,1015.5,,TRUE,,,,,,,-SN,FEW,1500,OVC,4800,,,,,MVFR,,,,,,,,,,,,METAR,276.0
CZHY 180300Z AUTO 08002KT M12/M14 RMK AO1 SOG 16 5000 SLP137 T11191136,CZHY,2021-01-18T03:00:00Z,60.83,-115.78,-11.9,-13.6,80,2,,,,1013.7,,TRUE,TRUE,,,,,,,,,,,,,,,,,,,,,,,,,,,SPECI,159.0
CZFS 180300Z AUTO 26002KT M18/M20 RMK AO1 SOG 27 1020 SLP164 T11831203,CZFS,2021-01-18T03:00:00Z,61.77,-121.23,-18.3,-20.3,260,2,,,,1016.4,,TRUE,TRUE,,,,,,,,,,,,,,,,,,,,,,,,,,,SPECI,174.0
CZEV 180300Z AUTO 14003KT M22/M24 RMK AO1 SOG 24 1004 SLP158 T12191244,CZEV,2021-01-18T03:00:00Z,68.32,-133.48,-21.9,-24.4,140,3,,,,1015.8,,TRUE,TRUE,,,,,,,,,,,,,,,,,,,,,,,,,,,SPECI,92.0
CZEL 180300Z AUTO 31004KT M02/M04 RMK AO1 SOG 08 1001 SLP049 T10221036 50001,CZEL,2021-01-18T03:00:00Z,43.65,-80.42,-2.2,-3.6,310,4,,,,1004.9,,TRUE,TRUE,,,,,,,,,,,,,,,,0.1,,,,,,,,,,,METAR,370.0
CZDB 180300Z AUTO 24013G20KT 02/M00 RMK AO1 3PAST HR SOG 06 3020 PK WND 21023/0241 SLP926 P0001 T00181001 50005,CZDB,2021-01-18T03:00:00Z,45.42,-63.47,1.8,-0.1,240,13,20,,,992.6,,TRUE,TRUE,,,,,,,,,,,,,,,,0.5,,,,,0.01,,,,,,METAR,38.0
CZCR 180300Z AUTO 24007KT M01/M02 RMK AO1 SOG 18 1027 SLP836 T10081021,CZCR,2021-01-18T03:00:00Z,47.98,-66.33,-0.8,-2.1,240,7,,,,983.6,,TRUE,TRUE,,,,,,,,,,,,,,,,,,,,,,,,,,,METAR,39.0
CZCP 180300Z AUTO 09028KT ////SM //// NCD M24/M26 A3004,CZCP,2021-01-18T03:00:00Z,70.17,-124.68,-24.0,-26.0,90,28,,,30.041338,,,TRUE,,,,,,,,CLR,,,,,,,,,,,,,,,,,,,,METAR,23.0
CYZY 180300Z AUTO VRB03KT 9SM OVC065 01/M00 A3017 RMK SLP256,CYZY,2021-01-18T03:00:00Z,55.3,-123.13,1.0,0.0,0,3,,9.0,30.171259,1025.6,,TRUE,,,,,,,,OVC,6500,,,,,,,VFR,,,,,,,,,,,,METAR,694.0
CYZX 180300Z 25016KT 15SM BKN046 OVC054 04/M02 A2934 RMK SC5SC3 SLP935,CYZX,2021-01-18T03:00:00Z,44.98,-64.92,4.0,-2.0,250,16,,15.0,29.338583,993.5,,,,,,,,,,BKN,4600,OVC,5400,,,,,VFR,,,,,,,,,,,,METAR,28.0
CYZV 180300Z 07011G18KT 10SM OVC005 M00/M00 A2890 RMK SC8 SLP789,CYZV,2021-01-18T03:00:00Z,50.22,-66.27,0.0,0.0,70,11,18,10.0,28.898623,978.9,,,,,,,,,,OVC,500,,,,,,,IFR,,,,,,,,,,,,METAR,43.0
CYZU 180300Z 29007KT 5SM -SN FEW007 OVC045 01/00 A2999 RMK SC2SC6 /S01/ SLP195,CYZU,2021-01-18T03:00:00Z,54.15,-115.78,1.0,0.0,290,7,,5.0,29.991142,1019.5,,,,,,,,,-SN,FEW,700,OVC,4500,,,,,MVFR,,,,,,,,,,,,METAR,785.0
CYZT 180300Z 21003KT 15SM FEW100 03/03 A3059 RMK AC2 SLP362,CYZT,2021-01-18T03:00:00Z,50.68,-127.37,3.0,3.0,210,3,,15.0,30.590551,1036.2,,,,,,,,,,FEW,10000,,,,,,,VFR,,,,,,,,,,,,METAR,13.0
CYZP 180300Z AUTO 16008KT 9SM OVC180 06/05 A3045 RMK SLP315,CYZP,2021-01-18T03:00:00Z,53.25,-131.82,6.0,5.0,160,8,,9.0,30.448818,1031.5,,TRUE,,,,,,,,OVC,18000,,,,,,,VFR,,,,,,,,,,,,METAR,7.0
CYZH 180300Z AUTO 28010KT 9SM BKN021 OVC028 01/M01 A2995 RMK SLP177,CYZH,2021-01-18T03:00:00Z,55.28,-114.77,1.0,-1.0,280,10,,9.0,29.949802,1017.7,,TRUE,,,,,,,,BKN,2100,OVC,2800,,,,,MVFR,,,,,,,,,,,,METAR,583.0
CYZF 180300Z 06002KT 15SM -SN BKN006 OVC012 M17/M19 A2994 RMK SC7SC1 SLP167,CYZF,2021-01-18T03:00:00Z,62.47,-114.45,-17.0,-19.0,60,2,,15.0,29.940945,1016.7,,,,,,,,,-SN,BKN,600,OVC,1200,,,,,IFR,,,,,,,,,,,,METAR,202.0
CYZE 180300Z AUTO 07009KT 9SM OVC100 M05/M10 A2966 RMK SLP059,CYZE,2021-01-18T03:00:00Z,45.88,-82.57,-5.0,-10.0,70,9,,9.0,29.660433,1005.9,,TRUE,,,,,,,,OVC,10000,,,,,,,VFR,,,,,,,,,,,,METAR,189.0
CYYZ 180300Z 36008KT 12SM -SN BKN028 OVC077 M01/M03 A2963 RMK SC5AC3 SLP040,CYYZ,2021-01-18T03:00:00Z,43.67,-79.62,-1.0,-3.0,360,8,,12.0,29.630905,1004.0,,,,,,,,,-SN,BKN,2800,OVC,7700,,,,,MVFR,,,,,,,,,,,,METAR,171.0
CYYY 180300Z 24019KT 2 1/2SM -SN OVC003 M01/M01 A2907 RMK SC8 /S02/ SLP850,CYYY,2021-01-18T03:00:00Z,48.6,-68.22,-1.0,-1.0,240,19,,2.5,29.069881,985.0,,,,,,,,,-SN,OVC,300,,,,,,,LIFR,,,,,,,,,,,,METAR,43.0
CYYW 180300Z AUTO 00000KT 9SM BKN034 OVC100 M18/M20 A2973 RMK SLP123,CYYW,2021-01-18T03:00:00Z,50.3,-88.9,-18.0,-20.0,0,0,,9.0,29.731298,1012.3,,TRUE,,,,,,,,BKN,3400,OVC,10000,,,,,VFR,,,,,,,,,,,,METAR,320.0
CYYU 180300Z 01004KT 12SM -SN OVC010 M16/M18 A2977 RMK SC8 SLP106,CYYU,2021-01-18T03:00:00Z,49.42,-82.47,-16.0,-18.0,10,4,,12.0,29.769686,1010.6,,,,,,,,,-SN,OVC,1000,,,,,,,MVFR,,,,,,,,,,,,METAR,228.0
CYYR 180300Z 02018KT 2 1/2SM -SN DRSN FEW002 BKN005 OVC025 M00/M01 A2920 RMK SF2SF3SC3 SLP892,CYYR,2021-01-18T03:00:00Z,53.32,-60.42,0.0,-1.0,20,18,,2.5,29.199802,989.2,,,,,,,,,-SN DRSN,FEW,200,BKN,500,OVC,2500,,,IFR,,,,,,,,,,,,METAR,42.0
CYYQ 180300Z 35008KT 15SM -SN OVC026 M19/M22 A3012 RMK SC8 SLP204,CYYQ,2021-01-18T03:00:00Z,58.75,-94.07,-19.0,-22.0,350,8,,15.0,30.121063,1020.4,,,,,,,,,-SN,OVC,2600,,,,,,,MVFR,,,,,,,,,,,,METAR,20.0
CYYJ 180300Z 21005KT 20SM SCT042 BKN250 04/04 A3054 RMK SC4CI3 SLP343,CYYJ,2021-01-18T03:00:00Z,48.63,-123.42,4.0,4.0,210,5,,20.0,30.540354,1034.3,,,,,,,,,,SCT,4200,BKN,25000,,,,,VFR,,,,,,,,,,,,METAR,16.0
CYYH 180300Z 22003KT 15SM IC SKC M33/M36 A3002 RMK FROIN SLP172,CYYH,2021-01-18T03:00:00Z,69.53,-93.57,-33.0,-36.0,220,3,,15.0,30.02067,1017.2,,,,,,,,,IC,SKC,,,,,,,,VFR,,,,,,,,,,,,METAR,19.0
CYYG 180300Z 23014G20KT 15SM OVC064 02/M02 A2922 RMK SC8 SLP898,CYYG,2021-01-18T03:00:00Z,46.28,-63.12,2.0,-2.0,230,14,20,15.0,29.220472,989.8,,,,,,,,,,OVC,6400,,,,,,,VFR,,,,,,,,,,,,METAR,48.0
CYYF 180300Z 17005KT 15SM FEW090 BKN110 03/00 A3036 RMK AC2AC4 SLP295,CYYF,2021-01-18T03:00:00Z,49.47,-119.6,3.0,0.0,170,5,,15.0,30.360237,1029.5,,,,,,,,,,FEW,9000,BKN,11000,,,,,VFR,,,,,,,,,,,,METAR,342.0
CYYE 180300Z 22003KT 160V230 15SM SCT220 M09/M10 A2992 RMK CI3 SLP165,CYYE,2021-01-18T03:00:00Z,58.83,-122.58,-9.0,-10.0,220,3,,15.0,29.920275,1016.5,,,,,,,,,,SCT,22000,,,,,,,VFR,,,,,,,,,,,,METAR,379.0
CYYD 180300Z VRB02KT 15SM FEW065 SCT210 02/M02 A3035 RMK SC2CI1 SLP299,CYYD,2021-01-18T03:00:00Z,54.82,-127.18,2.0,-2.0,0,2,,15.0,30.351377,1029.9,,,,,,,,,,FEW,6500,SCT,21000,,,,,VFR,,,,,,,,,,,,METAR,527.0
CYYB 180300Z 36009KT 15SM -SN OVC011 M10/M12 A2962 RMK SC8 LAST STFD OBS/NEXT 181200 UTC SLP056,CYYB,2021-01-18T03:00:00Z,46.35,-79.42,-10.0,-12.0,360,9,,15.0,29.619095,1005.6,,,,,,,,,-SN,OVC,1100,,,,,,,MVFR,,,,,,,,,,,,METAR,360.0
CYXY 180300Z 20011G18KT 140V220 15SM DRSN BKN072 BKN190 00/M04 A2995 RMK AC5AC2 SLP185,CYXY,2021-01-18T03:00:00Z,60.72,-135.07,0.0,-4.0,200,11,18,15.0,29.949802,1018.5,,,,,,,,,DRSN,BKN,7200,BKN,19000,,,,,VFR,,,,,,,,,,,,METAR,677.0
CYXX 180300Z 20006KT 10SM OVC027 06/05 A3052 RMK SC8 SLP339,CYXX,2021-01-18T03:00:00Z,49.03,-122.38,6.0,5.0,200,6,,10.0,30.519686,1033.9,,,,,,,,,,OVC,2700,,,,,,,MVFR,,,,,,,,,,,,METAR,54.0
CYXU 180300Z 25005KT 6SM -SN BKN005 OVC037 M01/M01 A2964 RMK SF7SC1 SLP047,CYXU,2021-01-18T03:00:00Z,43.03,-81.15,-1.0,-1.0,250,5,,6.0,29.639763,1004.7,,,,,,,,,-SN,BKN,500,OVC,3700,,,,,IFR,,,,,,,,,,,,METAR,278.0
CYXT 180300Z 18011G19KT 160V220 20SM FEW010 SCT040 BKN060 BKN110 04/02 A3047 RMK CF1CU2SC2AC2 SLP329,CYXT,2021-01-18T03:00:00Z,54.47,-128.57,4.0,2.0,180,11,19,20.0,30.469488,1032.9,,,,,,,,,,FEW,1000,SCT,4000,BKN,6000,BKN,11000,VFR,,,,,,,,,,,,METAR,213.0
CYXS 180300Z AUTO 17006KT 9SM FEW075 M00/M02 A3025 RMK SLP284,CYXS,2021-01-18T03:00:00Z,53.88,-122.68,0.0,-2.0,170,6,,9.0,30.250984,1028.4,,TRUE,,,,,,,,FEW,7500,,,,,,,VFR,,,,,,,,,,,,METAR,685.0
CYXR 180300Z AUTO 33014KT 9SM OVC015 M14/M17 A2970 RMK SLP078,CYXR,2021-01-18T03:00:00Z,47.7,-79.85,-14.0,-17.0,330,14,,9.0,29.698818,1007.8,,TRUE,,,,,,,,OVC,1500,,,,,,,MVFR,,,,,,,,,,,,METAR,244.0
CYXL 180300Z 31002KT 6SM -SN SCT010 OVC031 M10/M11 A2972 RMK SC3SC5 SLP097,CYXL,2021-01-18T03:00:00Z,50.12,-91.9,-10.0,-11.0,310,2,,6.0,29.719488,1009.7,,,,,,,,,-SN,SCT,1000,OVC,3100,,,,,VFR,,,,,,,,,,,,METAR,381.0
CYXJ 180300Z 24015KT 15SM FEW200 03/M05 A3000 RMK CI1 SLP192,CYXJ,2021-01-18T03:00:00Z,56.25,-120.73,3.0,-5.0,240,15,,15.0,30.0,1019.2,,,,,,,,,,FEW,20000,,,,,,,VFR,,,,,,,,,,,,METAR,700.0
CYXH 180300Z 31011G16KT 15SM BKN060 OVC076 04/M03 A2990 RMK SC6AC2 LAST STFD OBS/NEXT 181300Z SLP152,CYXH,2021-01-18T03:00:00Z,50.02,-110.72,4.0,-3.0,310,11,16,15.0,29.899607,1015.2,,,,,,,,,,BKN,6000,OVC,7600,,,,,VFR,,,,,,,,,,,,METAR,717.0
CYXE 180300Z 04004KT 10SM -SN SCT012 OVC024 M04/M05 A2977 RMK SC3SC5 SLP120,CYXE,2021-01-18T03:00:00Z,52.17,-106.7,-4.0,-5.0,40,4,,10.0,29.769686,1012.0,,,,,,,,,-SN,SCT,1200,OVC,2400,,,,,MVFR,,,,,,,,,,,,METAR,504.0
CYXC 180300Z 00000KT 25SM FEW050 FEW170 M04/M05 A3016 RMK SC1AC1 SC TR AC TR SLP257,CYXC,2021-01-18T03:00:00Z,49.6,-115.78,-4.0,-5.0,0,0,,25.0,30.159449,1025.7,,,,,,,,,,FEW,5000,FEW,17000,,,,,VFR,,,,,,,,,,,,METAR,928.0
CYWL 180300Z 26003KT 210V280 15SM BKN050 OVC110 01/M03 A3031 RMK SC5AC3 SLP310,CYWL,2021-01-18T03:00:00Z,52.18,-122.07,1.0,-3.0,260,3,,15.0,30.31004,1031.0,,,,,,,,,,BKN,5000,OVC,11000,,,,,VFR,,,,,,,,,,,,SPECI,942.0
CYWK 180300Z 03007KT 3SM -SN OVC012 M06/M08 A2902 RMK SC8 LAST STFD OBS/NEXT 181100 UTC /S01/ SLP861,CYWK,2021-01-18T03:00:00Z,52.92,-66.87,-6.0,-8.0,30,7,,3.0,29.019686,986.1,,,,,,,,,-SN,OVC,1200,,,,,,,MVFR,,,,,,,,,,,,METAR,547.0
CYWH 180300Z 36003KT 15SM BKN040 07/06 A3054 RMK SC6 SLP343,CYWH,2021-01-18T03:00:00Z,48.42,-123.38,7.0,6.0,360,3,,15.0,30.540354,1034.3,,,,,,,,,,BKN,4000,,,,,,,VFR,,,,,,,,,,,,METAR,4.0
CYWG 180300Z 02012KT 15SM -SN DRSN OVC017 M15/M18 A2990 RMK SC8 SLP148,CYWG,2021-01-18T03:00:00Z,49.9,-97.23,-15.0,-18.0,20,12,,15.0,29.899607,1014.8,,,,,,,,,-SN DRSN,OVC,1700,,,,,,,MVFR,,,,,,,,,,,,METAR,238.0
CYWE 180300Z AUTO 00000KT 9SM FEW050 OVC060 M19/M21 A2988 RMK ICG SLP171,CYWE,2021-01-18T03:00:00Z,64.18,-114.08,-19.0,-21.0,0,0,,9.0,29.878937,1017.1,,TRUE,,,,,,,,FEW,5000,OVC,6000,,,,,VFR,,,,,,,,,,,,METAR,374.0
CYWA 180300Z AUTO 31005KT 9SM OVC028 M07/M10 A2963 RMK SLP042,CYWA,2021-01-18T03:00:00Z,45.95,-77.32,-7.0,-10.0,310,5,,9.0,29.630905,1004.2,,TRUE,,,,,,,,OVC,2800,,,,,,,MVFR,,,,,,,,,,,,METAR,121.0
CYVV 180300Z 01003KT 330V060 15SM OVC030 M02/M06 A2964 RMK SC8 SLP048,CYVV,2021-01-18T03:00:00Z,44.75,-81.1,-2.0,-6.0,10,3,,15.0,29.639763,1004.8,,,,,,,,,,OVC,3000,,,,,,,MVFR,,,,,,,,,,,,METAR,221.0
CYVT 180300Z AUTO 04005KT 9SM OVC009 M12/M14 A2991 RMK SLP164,CYVT,2021-01-18T03:00:00Z,55.83,-108.42,-12.0,-14.0,40,5,,9.0,29.911417,1016.4,,TRUE,,,,,,,,OVC,900,,,,,,,IFR,,,,,,,,,,,,METAR,438.0
CYVR 180300Z 33009KT 15SM FEW028 BKN240 06/06 A3053 RMK SC1CI5 SLP339,CYVR,2021-01-18T03:00:00Z,49.17,-123.17,6.0,6.0,330,9,,15.0,30.528543,1033.9,,,,,,,,,,FEW,2800,BKN,24000,,,,,VFR,,,,,,,,,,,,METAR,2.0
CYVQ 180300Z 00000KT 25SM FEW005 SCT010 BKN085 M23/M25 A3004 RMK ST2SC2AC3 SLP185,CYVQ,2021-01-18T03:00:00Z,65.27,-126.78,-23.0,-25.0,0,0,,25.0,30.041338,1018.5,,,,,,,,,,FEW,500,SCT,1000,BKN,8500,,,VFR,,,,,,,,,,,,METAR,63.0
CYVP 180300Z 01012KT 2 1/2SM -SN DRSN BKN012 BKN026 OVC038 M10/M12 A2958 RMK SN4SF1SC2SC1 SLP024,CYVP,2021-01-18T03:00:00Z,58.12,-68.42,-10.0,-12.0,10,12,,2.5,29.58071,1002.4,,,,,,,,,-SN DRSN,BKN,1200,BKN,2600,OVC,3800,,,IFR,,,,,,,,,,,,METAR,28.0
CYVO 180300Z 31010KT 15SM -SN OVC017 M13/M14 A2959 RMK SC8 LAST STFD OBS/NEXT 181100UTC SLP049,CYVO,2021-01-18T03:00:00Z,48.07,-77.77,-13.0,-14.0,310,10,,15.0,29.589567,1004.9,,,,,,,,,-SN,OVC,1700,,,,,,,MVFR,,,,,,,,,,,,METAR,329.0
CYVM 180300Z AUTO 18004KT 140V210 9SM OVC035 M20/M24 A3001 RMK SLP168,CYVM,2021-01-18T03:00:00Z,67.55,-64.02,-20.0,-24.0,180,4,,9.0,30.008858,1016.8,,TRUE,,,,,,,,OVC,3500,,,,,,,VFR,,,,,,,,,,,,METAR,3.0
CYVL 180300Z AUTO 17002KT 9SM M20/M22 A2993 RMK CLD MISG SLP172,CYVL,2021-01-18T03:00:00Z,67.02,-126.13,-20.0,-22.0,170,2,,9.0,29.929134,1017.2,,TRUE,,,,,,,,,,,,,,,,,,,,,,,,,,,,METAR,261.0
CYVC 180300Z 07004KT 10SM -SN BKN030 OVC070 M16/M19 A2993 RMK SC6AC2 SLP174,CYVC,2021-01-18T03:00:00Z,55.15,-105.27,-16.0,-19.0,70,4,,10.0,29.929134,1017.4,,,,,,,,,-SN,BKN,3000,OVC,7000,,,,,MVFR,,,,,,,,,,,,METAR,378.0
CYUY 180300Z 30007KT 15SM -SN OVC013 M14/M17 A2965 RMK SC8 PCPN VRY LGT SLP066,CYUY,2021-01-18T03:00:00Z,48.2,-78.82,-14.0,-17.0,300,7,,15.0,29.648623,1006.6,,,,,,,,,-SN,OVC,1300,,,,,,,MVFR,,,,,,,,,,,,METAR,304.0
CYUX 180300Z AUTO 13010KT 9SM OVC013 M19/M21 A2994 RMK SLP139,CYUX,2021-01-18T03:00:00Z,68.77,-81.22,-19.0,-21.0,130,10,,9.0,29.940945,1013.9,,TRUE,,,,,,,,OVC,1300,,,,,,,MVFR,,,,,,,,,,,,METAR,8.0
CYUS 180300Z AUTO 18004KT ////SM //// NCD M36/M41 A3003,CYUS,2021-01-18T03:00:00Z,68.78,-93.42,-36.0,-41.0,180,4,,,30.029528,,,TRUE,,,,,,,,CLR,,,,,,,,,,,,,,,,,,,,METAR,30.0
CYUL 180300Z 26014KT 15SM FEW013 SCT073 BKN084 M05/M07 A2953 RMK SF1AC3AC2 SF TR SLP004,CYUL,2021-01-18T03:00:00Z,45.47,-73.73,-5.0,-7.0,260,14,,15.0,29.530512,1000.4,,,,,,,,,,FEW,1300,SCT,7300,BKN,8400,,,VFR,,,,,,,,,,,,METAR,31.0
CYUB 180300Z 12009KT 6SM BR BKN005 OVC016 M19/M22 A3000 RMK SC7SC1 SLP160,CYUB,2021-01-18T03:00:00Z,69.43,-133.02,-19.0,-22.0,120,9,,6.0,30.0,1016.0,,,,,,,,,BR,BKN,500,OVC,1600,,,,,IFR,,,,,,,,,,,,METAR,5.0
CYUA 180300Z AUTO 16005KT ////SM OVC007 M25/M28 A2989,CYUA,2021-01-18T03:00:00Z,68.92,-137.23,-25.0,-28.0,160,5,,,29.890747,,,TRUE,,,,,,,,OVC,700,,,,,,,,,,,,,,,,,,,METAR,25.0
CYTZ 180300Z AUTO 35003KT 9SM -RA FEW029 OVC080 00/M03 A2964 RMK SLP041,CYTZ,2021-01-18T03:00:00Z,43.63,-79.4,0.0,-3.0,350,3,,9.0,29.639763,1004.1,,TRUE,,,,,,,-RA,FEW,2900,OVC,8000,,,,,VFR,,,,,,,,,,,,METAR,76.0
CYTS 180300Z 34006KT 15SM OVC012 M15/M17 A2972 RMK SC8 SLP095,CYTS,2021-01-18T03:00:00Z,48.57,-81.37,-15.0,-17.0,340,6,,15.0,29.719488,1009.5,,,,,,,,,,OVC,1200,,,,,,,MVFR,,,,,,,,,,,,METAR,290.0
CYTR 180300Z AUTO 31004KT 9SM BKN067 M02/M06 A2963 RMK SLP037,CYTR,2021-01-18T03:00:00Z,44.12,-77.52,-2.0,-6.0,310,4,,9.0,29.630905,1003.7,,TRUE,,,,,,,,BKN,6700,,,,,,,VFR,,,,,,,,,,,,METAR,80.0
CYTH 180300Z 02002KT 15SM BKN016 M24/M27 A3008 RMK SC7 SLP220,CYTH,2021-01-18T03:00:00Z,55.8,-97.83,-24.0,-27.0,20,2,,15.0,30.079725,1022.0,,,,,,,,,,BKN,1600,,,,,,,MVFR,,,,,,,,,,,,METAR,212.0
CYTE 180300Z AUTO 13014KT 1 1/4SM -SN OVC019 M16/M19 A2991 RMK SLP135,CYTE,2021-01-18T03:00:00Z,64.22,-76.52,-16.0,-19.0,130,14,,1.25,29.911417,1013.5,,TRUE,,,,,,,-SN,OVC,1900,,,,,,,IFR,,,,,,,,,,,,METAR,49.0
CYSM 180300Z 13003KT 070V140 15SM -SN OVC005 M15/M17 A2992 RMK SC8 FROIN SLP157,CYSM,2021-01-18T03:00:00Z,60.03,-111.92,-15.0,-17.0,130,3,,15.0,29.920275,1015.7,,,,,,,,,-SN,OVC,500,,,,,,,IFR,,,,,,,,,,,,METAR,203.0
CYSJ 180300Z 24012G19KT 15SM OVC040 02/M04 A2931 RMK SC8 SLP931,CYSJ,2021-01-18T03:00:00Z,45.32,-65.88,2.0,-4.0,240,12,19,15.0,29.309055,993.1,,,,,,,,,,OVC,4000,,,,,,,VFR,,,,,,,,,,,,METAR,89.0
CYSF 180300Z AUTO 12004KT 9SM CLR M25/M28 A2996 RMK SLP184,CYSF,2021-01-18T03:00:00Z,59.25,-105.83,-25.0,-28.0,120,4,,9.0,29.958662,1018.4,,TRUE,,,,,,,,CLR,,,,,,,,VFR,,,,,,,,,,,,METAR,238.0
CYSC 180300Z AUTO 26013G20KT 9SM -SN OVC016 M04/M06 A2943 RMK SLP980,CYSC,2021-01-18T03:00:00Z,45.43,-71.68,-4.0,-6.0,260,13,20,9.0,29.430119,998.0,,TRUE,,,,,,,-SN,OVC,1600,,,,,,,MVFR,,,,,,,,,,,,METAR,236.0
CYSB 180300Z 35008KT 15SM -SN OVC011 M12/M15 A2966 RMK SC8 SLP070,CYSB,2021-01-18T03:00:00Z,46.63,-80.8,-12.0,-15.0,350,8,,15.0,29.660433,1007.0,,,,,,,,,-SN,OVC,1100,,,,,,,MVFR,,,,,,,,,,,,METAR,349.0
CYRT 180300Z 32014KT 10SM IC DRSN BKN073 M26/M30 A3000 RMK AC7 SLP165,CYRT,2021-01-18T03:00:00Z,62.82,-92.12,-26.0,-30.0,320,14,,10.0,30.0,1016.5,,,,,,,,,IC DRSN,BKN,7300,,,,,,,VFR,,,,,,,,,,,,METAR,29.0
CYRL 180300Z 35006KT 8SM -SN BKN012 OVC025 M14/M17 A2978 RMK SC6SC2 LAST STFD OBS/NEXT 181000UTC SLP120,CYRL,2021-01-18T03:00:00Z,51.07,-93.78,-14.0,-17.0,350,6,,8.0,29.778543,1012.0,,,,,,,,,-SN,BKN,1200,OVC,2500,,,,,MVFR,,,,,,,,,,,,METAR,370.0
CYRJ 180300Z 29016G21KT 20SM -SN DRSN OVC018 M05/M08 A2928 RMK SC8 SLP927,CYRJ,2021-01-18T03:00:00Z,48.52,-72.27,-5.0,-8.0,290,16,21,20.0,29.279528,992.7,,,,,,,,,-SN DRSN,OVC,1800,,,,,,,MVFR,,,,,,,,,,,,METAR,173.0
CYRB 180300Z 04012KT 15SM -SN DRSN OVC022 M19/M23 A3008 RMK SC8 SLP198,CYRB,2021-01-18T03:00:00Z,74.72,-94.97,-19.0,-23.0,40,12,,15.0,30.079725,1019.8,,,,,,,,,-SN DRSN,OVC,2200,,,,,,,MVFR,,,,,,,,,,,,METAR,59.0
CYQZ 180300Z AUTO VRB02KT 9SM FEW075 BKN130 M01/M02 A3031 RMK SLP300,CYQZ,2021-01-18T03:00:00Z,53.02,-122.52,-1.0,-2.0,0,2,,9.0,30.31004,1030.0,,TRUE,,,,,,,,FEW,7500,BKN,13000,,,,,VFR,,,,,,,,,,,,METAR,548.0
CYQY 180300Z 21014G24KT 15SM FEW027 SCT069 BKN120 03/00 A2931 RMK SC2AS2AS3 SLP928,CYQY,2021-01-18T03:00:00Z,46.17,-60.03,3.0,0.0,210,14,24,15.0,29.309055,992.8,,,,,,,,,,FEW,2700,SCT,6900,BKN,12000,,,VFR,,,,,,,,,,,,METAR,58.0
CYQX 180300Z 20010KT 12SM FEW002 FEW010 SCT025 SCT120 BKN250 02/02 A2942 RMK SF1SC1SC1AC1CI3 SLP969,CYQX,2021-01-18T03:00:00Z,48.95,-54.58,2.0,2.0,200,10,,12.0,29.421259,996.9,,,,,,,,,,FEW,200,FEW,1000,SCT,2500,SCT,12000,VFR,,,,,,,,,,,,METAR,144.0
CYQW 180300Z AUTO 01008KT 2 1/2SM -SN SCT005 OVC033 M04/M04 A2980 RMK VIS VRB 1 1/2-3 SLP131,CYQW,2021-01-18T03:00:00Z,52.77,-108.25,-4.0,-4.0,10,8,,2.5,29.799213,1013.1,,TRUE,,,,,,,-SN,SCT,500,OVC,3300,,,,,IFR,,,,,,,,,,,,METAR,545.0
CYQV 180300Z AUTO 11005KT 9SM -SN OVC009 M08/M10 A2978 RMK SLP123,CYQV,2021-01-18T03:00:00Z,51.27,-102.47,-8.0,-10.0,110,5,,9.0,29.778543,1012.3,,TRUE,,,,,,,-SN,OVC,900,,,,,,,IFR,,,,,,,,,,,,METAR,493.0
CYQU 180300Z 24012KT 25SM FEW220 01/M04 A3003 RMK CI2 SLP203,CYQU,2021-01-18T03:00:00Z,55.18,-118.88,1.0,-4.0,240,12,,25.0,30.029528,1020.3,,,,,,,,,,FEW,22000,,,,,,,VFR,,,,,,,,,,,,METAR,668.0
CYQT 180300Z 25004KT 15SM SKC M15/M16 A2977 RMK SLP100,CYQT,2021-01-18T03:00:00Z,48.37,-89.32,-15.0,-16.0,250,4,,15.0,29.769686,1010.0,,,,,,,,,,SKC,,,,,,,,VFR,,,,,,,,,,,,METAR,197.0
CYQR 180300Z 31006KT 15SM BKN037 BKN200 M08/M09 A2977 RMK SC5CI2 SLP123,CYQR,2021-01-18T03:00:00Z,50.43,-104.67,-8.0,-9.0,310,6,,15.0,29.769686,1012.3,,,,,,,,,,BKN,3700,BKN,20000,,,,,VFR,,,,,,,,,,,,METAR,576.0
CYQQ 180300Z 24003KT 20SM SKC 07/05 A3055 RMK SLP346,CYQQ,2021-01-18T03:00:00Z,49.72,-124.9,7.0,5.0,240,3,,20.0,30.549213,1034.6,,,,,,,,,,SKC,,,,,,,,VFR,,,,,,,,,,,,METAR,24.0
CYQM 180300Z 23015G23KT 15SM OVC029 01/M02 A2922 RMK SC8 SLP898,CYQM,2021-01-18T03:00:00Z,46.12,-64.67,1.0,-2.0,230,15,23,15.0,29.220472,989.8,,,,,,,,,,OVC,2900,,,,,,,MVFR,,,,,,,,,,,,METAR,67.0
CYQL 180300Z 27013KT 20SM OVC090 03/M09 A2993 RMK AC8 SLP163,CYQL,2021-01-18T03:00:00Z,49.63,-112.8,3.0,-9.0,270,13,,20.0,29.929134,1016.3,,,,,,,,,,OVC,9000,,,,,,,VFR,,,,,,,,,,,,METAR,923.0
CYQK 180300Z 33008KT 4SM -SN FEW009 OVC040 M12/M14 A2978 RMK SF2SC6 SLP117,CYQK,2021-01-18T03:00:00Z,49.78,-94.37,-12.0,-14.0,330,8,,4.0,29.778543,1011.7,,,,,,,,,-SN,FEW,900,OVC,4000,,,,,MVFR,,,,,,,,,,,,METAR,413.0
CYQI 180300Z 28019G33KT 15SM OVC038 04/00 A2943 RMK SC8 SLP968,CYQI,2021-01-18T03:00:00Z,43.83,-66.08,4.0,0.0,280,19,33,15.0,29.430119,996.8,,,,,,,,,,OVC,3800,,,,,,,VFR,,,,,,,,,,,,METAR,37.0
CYQH 180300Z VRB02KT 20SM BKN120 M14/M16 A3001 RMK AC6 SLP221,CYQH,2021-01-18T03:00:00Z,60.12,-128.82,-14.0,-16.0,0,2,,20.0,30.008858,1022.1,,,,,,,,,,BKN,12000,,,,,,,VFR,,,,,,,,,,,,METAR,692.0
CYQD 180300Z AUTO 07003KT 9SM SCT200 M20/M23 A3000 RMK SLP192,CYQD,2021-01-18T03:00:00Z,53.97,-101.08,-20.0,-23.0,70,3,,9.0,30.0,1019.2,,TRUE,,,,,,,,SCT,20000,,,,,,,VFR,,,,,,,,,,,,METAR,268.0
CYQB 180300Z 25014G20KT 15SM -SN FEW010 SCT016 BKN030 OVC075 M01/M03 A2934 RMK SF1SC2SC4AC1 SLP940,CYQB,2021-01-18T03:00:00Z,46.78,-71.38,-1.0,-3.0,250,14,20,15.0,29.338583,994.0,,,,,,,,,-SN,FEW,1000,SCT,1600,BKN,3000,OVC,7500,MVFR,,,,,,,,,,,,METAR,73.0
CYPY 180300Z AUTO 13004KT 9SM OVC007 M17/M19 A2995 RMK SLP166,CYPY,2021-01-18T03:00:00Z,58.77,-111.12,-17.0,-19.0,130,4,,9.0,29.949802,1016.6,,TRUE,,,,,,,,OVC,700,,,,,,,IFR,,,,,,,,,,,,METAR,225.0
CYPW 180300Z 00000KT 15SM FEW007 FEW019 BKN035 04/04 A3054 RMK SF1SC1SC5 SF TR LAST STFD OBS NEXT OBS 181500 UTC SLP346,CYPW,2021-01-18T03:00:00Z,49.83,-124.5,4.0,4.0,0,0,,15.0,30.540354,1034.6,,,,,,,,,,FEW,700,FEW,1900,BKN,3500,,,VFR,,,,,,,,,,,,METAR,122.0
CYPR 180300Z AUTO 11008KT 3SM -RA BR FEW025 OVC034 06/04 A3046 RMK SLP321,CYPR,2021-01-18T03:00:00Z,54.28,-130.45,6.0,4.0,110,8,,3.0,30.46063,1032.1,,TRUE,,,,,,,-RA BR,FEW,2500,OVC,3400,,,,,MVFR,,,,,,,,,,,,METAR,30.0
CYPQ 180300Z AUTO 31006KT 9SM OVC065 M04/M06 A2962 RMK SLP040,CYPQ,2021-01-18T03:00:00Z,44.22,-78.37,-4.0,-6.0,310,6,,9.0,29.619095,1004.0,,TRUE,,,,,,,,OVC,6500,,,,,,,VFR,,,,,,,,,,,,METAR,190.0
CYPO 180300Z AUTO 02004KT 9SM -SN OVC016 M16/M18 A2993 RMK SLP143,CYPO,2021-01-18T03:00:00Z,54.98,-85.43,-16.0,-18.0,20,4,,9.0,29.929134,1014.3,,TRUE,,,,,,,-SN,OVC,1600,,,,,,,MVFR,,,,,,,,,,,,METAR,49.0
CYPL 180300Z AUTO 02004KT 1 1/2SM -SN OVC022 M12/M13 A2971 RMK SLP097,CYPL,2021-01-18T03:00:00Z,51.43,-90.22,-12.0,-13.0,20,4,,1.5,29.71063,1009.7,,TRUE,,,,,,,-SN,OVC,2200,,,,,,,IFR,,,,,,,,,,,,METAR,390.0
CYPH 180300Z AUTO /////KT RMK WND MISG CLD MISG WX MISG VIS MISG PCPN MISG PRES MISG T MISG TD MISG ICG MISG DENSITY ALT MISG,CYPH,2021-01-18T03:00:00Z,58.47,-78.08,,,,,,,,,,TRUE,,,,,,,,,,,,,,,,,,,,,,,,,,,,METAR,24.0
CYPE 180300Z 26010KT 15SM OVC069 01/M01 A2996 RMK AC8 SLP176,CYPE,2021-01-18T03:00:00Z,56.22,-117.45,1.0,-1.0,260,10,,15.0,29.958662,1017.6,,,,,,,,,,OVC,6900,,,,,,,VFR,,,,,,,,,,,,METAR,572.0
CYPD 180300Z AUTO 21009G21KT 190V250 9SM BKN034 OVC065 03/M01 A2932 RMK SLP931,CYPD,2021-01-18T03:00:00Z,45.67,-61.37,3.0,-1.0,210,9,21,9.0,29.320866,993.1,,TRUE,,,,,,,,BKN,3400,OVC,6500,,,,,VFR,,,,,,,,,,,,METAR,106.0
CYPA 180300Z 07006KT 15SM -SN OVC007 M14/M15 A2989 RMK ST8 SLP159,CYPA,2021-01-18T03:00:00Z,53.22,-105.67,-14.0,-15.0,70,6,,15.0,29.890747,1015.9,,,,,,,,,-SN,OVC,700,,,,,,,IFR,,,,,,,,,,,,METAR,428.0
CYOW 180300Z 28018KT 15SM BKN019 OVC046 M05/M08 A2959 RMK SC6SC2 SLP027,CYOW,2021-01-18T03:00:00Z,45.32,-75.67,-5.0,-8.0,280,18,,15.0,29.589567,1002.7,,,,,,,,,,BKN,1900,OVC,4600,,,,,MVFR,,,,,,,,,,,,METAR,111.0
CYOO 180300Z AUTO 34009KT 9SM -SN BKN049 OVC075 M02/M05 A2963 RMK SLP040,CYOO,2021-01-18T03:00:00Z,43.92,-78.9,-2.0,-5.0,340,9,,9.0,29.630905,1004.0,,TRUE,,,,,,,-SN,BKN,4900,OVC,7500,,,,,VFR,,,,,,,,,,,,METAR,136.0
CYOJ 180300Z 17006KT 15SM FEW055 OVC110 M13/M14 A2987 RMK SC2AC6 SLP148,CYOJ,2021-01-18T03:00:00Z,58.62,-117.17,-13.0,-14.0,170,6,,15.0,29.870079,1014.8,,,,,,,,,,FEW,5500,OVC,11000,,,,,VFR,,,,,,,,,,,,METAR,339.0
CYOD 180300Z 31004KT 15SM MIFG BKN015 M05/M06 A2989 RMK SC6 SLP158,CYOD,2021-01-18T03:00:00Z,54.4,-110.28,-5.0,-6.0,310,4,,15.0,29.890747,1015.8,,,,,,,,,MIFG,BKN,1500,,,,,,,MVFR,,,,,,,,,,,,METAR,540.0
CYNM 180300Z AUTO 32013G18KT 9SM -SN OVC012 M14/M15 A2957 RMK SLP043,CYNM,2021-01-18T03:00:00Z,49.77,-77.78,-14.0,-15.0,320,13,18,9.0,29.568897,1004.3,,TRUE,,,,,,,-SN,OVC,1200,,,,,,,MVFR,,,,,,,,,,,,METAR,276.0
CYNE 180300Z AUTO 02003KT 350V060 9SM CLR M24/M26 A3003 RMK SLP201,CYNE,2021-01-18T03:00:00Z,53.97,-97.83,-24.0,-26.0,20,3,,9.0,30.029528,1020.1,,TRUE,,,,,,,,CLR,,,,,,,,VFR,,,,,,,,,,,,METAR,220.0
CYNA 180300Z AUTO 13013G20KT 8SM SCT014 BKN019 BKN032 OVC055 02/01 A2903 RMK SLP833,CYNA,2021-01-18T03:00:00Z,50.18,-61.78,2.0,1.0,130,13,20,8.0,29.028543,983.3,,TRUE,,,,,,,,SCT,1400,BKN,1900,BKN,3200,OVC,5500,MVFR,,,,,,,,,,,,METAR,9.0
CYMX 180300Z 25009G16KT 25SM BKN020 OVC052 M05/M08 A2952 RMK SC6SC2 SLP002,CYMX,2021-01-18T03:00:00Z,45.67,-74.03,-5.0,-8.0,250,9,16,25.0,29.518702,1000.2,,,,,,,,,,BKN,2000,OVC,5200,,,,,MVFR,,,,,,,,,,,,METAR,78.0
CYMO 180300Z AUTO 32005KT 9SM CLR M18/M20 A2979 RMK SLP093,CYMO,2021-01-18T03:00:00Z,51.28,-80.62,-18.0,-20.0,320,5,,9.0,29.790354,1009.3,,TRUE,,,,,,,,CLR,,,,,,,,VFR,,,,,,,,,,,,METAR,8.0
CYMM 180300Z AUTO 28003KT 1/4SM R26/2400FT/N FZFG VV002 M10/M11 A2995 RMK ICG PAST HR SLP178,CYMM,2021-01-18T03:00:00Z,56.65,-111.22,-10.0,-11.0,280,3,,0.25,29.949802,1017.8,,TRUE,,,,,,,FZFG,OVX,0,,,,,,,LIFR,,,,,,,,,,,200,METAR,371.0
CYMA 180300Z VRB02KT 20SM SCT048 BKN098 M16/M18 A2988 RMK SC3AC3 SLP166,CYMA,2021-01-18T03:00:00Z,63.62,-135.87,-16.0,-18.0,0,2,,20.0,29.878937,1016.6,,,,,,,,,,SCT,4800,BKN,9800,,,,,VFR,,,,,,,,,,,,METAR,519.0
CYLW 180300Z AUTO 33003KT 310V060 9SM -RA SCT055 BKN070 OVC091 01/00 A3035 RMK SLP301,CYLW,2021-01-18T03:00:00Z,49.95,-119.37,1.0,0.0,330,3,,9.0,30.351377,1030.1,,TRUE,,,,,,,-RA,SCT,5500,BKN,7000,OVC,9100,,,VFR,,,,,,,,,,,,METAR,420.0
CYLL 180300Z 34013KT 5SM -SN OVC006 M02/M03 A2983 RMK SC8 SLP139,CYLL,2021-01-18T03:00:00Z,53.32,-110.07,-2.0,-3.0,340,13,,5.0,29.828741,1013.9,,,,,,,,,-SN,OVC,600,,,,,,,IFR,,,,,,,,,,,,METAR,664.0
CYKY 180300Z 29016KT 15SM OVC035 M00/M02 A2978 RMK SC8 SLP119,CYKY,2021-01-18T03:00:00Z,51.52,-109.17,0.0,-2.0,290,16,,15.0,29.778543,1011.9,,,,,,,,,,OVC,3500,,,,,,,VFR,,,,,,,,,,,,METAR,692.0
CYKP 180300Z AUTO 10003KT 040V120 9SM OVC130 M17/M19 A2980 RMK SLP123,CYKP,2021-01-18T03:00:00Z,51.67,-85.9,-17.0,-19.0,100,3,,9.0,29.799213,1012.3,,TRUE,,,,,,,,OVC,13000,,,,,,,VFR,,,,,,,,,,,,METAR,181.0
CYKA 180300Z VRB04KT 30SM FEW013 FEW045 SCT120 M01/M02 A3038 RMK SC1SC1AC2 SLP309,CYKA,2021-01-18T03:00:00Z,50.7,-120.45,-1.0,-2.0,0,4,,30.0,30.380905,1030.9,,,,,,,,,,FEW,1300,FEW,4500,SCT,12000,,,VFR,,,,,,,,,,,,METAR,344.0
CYJT 180300Z 17016KT 15SM SCT032 BKN055 03/00 A2926 RMK SC3SC2 SLP911,CYJT,2021-01-18T03:00:00Z,48.55,-58.57,3.0,0.0,170,16,,15.0,29.258858,991.1,,,,,,,,,,SCT,3200,BKN,5500,,,,,VFR,,,,,,,,,,,,METAR,7.0
CYIO 180300Z AUTO VRB02KT 9SM BKN075 M19/M22 A2998 RMK SLP163,CYIO,2021-01-18T03:00:00Z,72.68,-77.97,-19.0,-22.0,0,2,,9.0,29.97933,1016.3,,TRUE,,,,,,,,BKN,7500,,,,,,,VFR,,,,,,,,,,,,METAR,61.0
CYIN 180300Z AUTO 29003KT 9SM BKN075 OVC090 00/M05 A3030 RMK SLP320,CYIN,2021-01-18T03:00:00Z,51.27,-121.68,0.0,-5.0,290,3,,9.0,30.301182,1032.0,,TRUE,,,,,,,,BKN,7500,OVC,9000,,,,,VFR,,,,,,,,,,,,METAR,1127.0
CYHY 180300Z 09004KT 12SM -SN FEW002 BKN004 M12/M14 A2989 RMK ST2ST3 SLP140,CYHY,2021-01-18T03:00:00Z,60.83,-115.77,-12.0,-14.0,90,4,,12.0,29.890747,1014.0,,,,,,,,,-SN,FEW,200,BKN,400,,,,,LIFR,,,,,,,,,,,,METAR,159.0
CYHU 180300Z AUTO 26019KT 9SM CLR M04/M07 A2950 RMK SLP995,CYHU,2021-01-18T03:00:00Z,45.52,-73.42,-4.0,-7.0,260,19,,9.0,29.500984,999.5,,TRUE,,,,,,,,CLR,,,,,,,,VFR,,,,,,,,,,,,METAR,26.0
CYHM 180300Z 25007KT 4SM -SN OVC045 M00/M01 A2963 RMK SC8 VIS SW LWR SLP043,CYHM,2021-01-18T03:00:00Z,43.17,-79.93,0.0,-1.0,250,7,,4.0,29.630905,1004.3,,,,,,,,,-SN,OVC,4500,,,,,,,MVFR,,,,,,,,,,,,METAR,237.0
CYHK 180300Z AUTO 33013KT 8SM CLR M32/M35 A3006 RMK SLP182,CYHK,2021-01-18T03:00:00Z,68.62,-95.85,-32.0,-35.0,330,13,,8.0,30.059055,1018.2,,TRUE,,,,,,,,CLR,,,,,,,,VFR,,,,,,,,,,,,METAR,36.0
CYHD 180300Z AUTO 30005KT 9SM -SN SCT026 OVC036 M10/M11 A2972 RMK SLP098,CYHD,2021-01-18T03:00:00Z,49.82,-92.75,-10.0,-11.0,300,5,,9.0,29.719488,1009.8,,TRUE,,,,,,,-SN,SCT,2600,OVC,3600,,,,,VFR,,,,,,,,,,,,METAR,414.0
CYGX 180300Z 02007KT 10SM -SN OVC018 M22/M24 A3009 RMK SC8 SLP212,CYGX,2021-01-18T03:00:00Z,56.35,-94.7,-22.0,-24.0,20,7,,10.0,30.088583,1021.2,,,,,,,,,-SN,OVC,1800,,,,,,,MVFR,,,,,,,,,,,,METAR,145.0
CYGR 180300Z 22020G29KT 15SM -SHSN OVC015 01/M01 A2915 RMK CU8 LAST STFD OBS/NXT 181000Z SLP873,CYGR,2021-01-18T03:00:00Z,47.42,-61.77,1.0,-1.0,220,20,29,15.0,29.149607,987.3,,,,,,,,,-SHSN,OVC,1500,,,,,,,MVFR,,,,,,,,,,,,METAR,4.0
CYGQ 180300Z VRB02KT 15SM BKN085 M17/M20 A2975 RMK AC7 SLP111,CYGQ,2021-01-18T03:00:00Z,49.77,-86.92,-17.0,-20.0,0,2,,15.0,29.749016,1011.1,,,,,,,,,,BKN,8500,,,,,,,VFR,,,,,,,,,,,,METAR,340.0
CYGP 180300Z 28005KT 3SM -SN VV030 M00/M01 A2893 RMK SN8 SLP800,CYGP,2021-01-18T03:00:00Z,48.77,-64.47,0.0,-1.0,280,5,,3.0,28.931103,980.0,,,,,,,,,-SN,OVX,0,,,,,,,LIFR,,,,,,,,,,,3000,METAR,31.0
CYGL 180300Z 32008G15KT 15SM FEW160 M20/M23 A2962 RMK AC1 SLP055,CYGL,2021-01-18T03:00:00Z,53.62,-77.7,-20.0,-23.0,320,8,15,15.0,29.619095,1005.5,,,,,,,,,,FEW,16000,,,,,,,VFR,,,,,,,,,,,,METAR,192.0
CYGK 180300Z 30005KT 15SM BKN021 OVC080 M02/M05 A2962 RMK SC7AC1 SLP035,CYGK,2021-01-18T03:00:00Z,44.22,-76.58,-2.0,-5.0,300,5,,15.0,29.619095,1003.5,,,,,,,,,,BKN,2100,OVC,8000,,,,,MVFR,,,,,,,,,,,,METAR,91.0
CYFS 180300Z 27003KT 1SM BR OVC003 M18/M20 A2995 RMK FG3ST5 SLP164,CYFS,2021-01-18T03:00:00Z,61.75,-121.22,-18.0,-20.0,270,3,,1.0,29.949802,1016.4,,,,,,,,,BR,OVC,300,,,,,,,LIFR,,,,,,,,,,,,METAR,174.0
CYFC 180300Z AUTO 23014G19KT 9SM SCT039 OVC050 01/M04 A2927 RMK SLP915,CYFC,2021-01-18T03:00:00Z,45.87,-66.53,1.0,-4.0,230,14,19,9.0,29.27067,991.5,,TRUE,,,,,,,,SCT,3900,OVC,5000,,,,,VFR,,,,,,,,,,,,METAR,16.0
CYFB 180300Z 00000KT 15SM FEW200 M28/M32 A3003 RMK CI2 SLP177,CYFB,2021-01-18T03:00:00Z,63.75,-68.55,-28.0,-32.0,0,0,,15.0,30.029528,1017.7,,,,,,,,,,FEW,20000,,,,,,,VFR,,,,,,,,,,,,METAR,23.0
CYEV 180300Z 11002KT 15SM SCT022 SCT200 M22/M25 A2995 RMK SC3CI1 CI TR SLP155,CYEV,2021-01-18T03:00:00Z,68.32,-133.5,-22.0,-25.0,110,2,,15.0,29.949802,1015.5,,,,,,,,,,SCT,2200,SCT,20000,,,,,VFR,,,,,,,,,,,,METAR,74.0
CYET 180300Z AUTO 29005KT 9SM OVC060 02/M02 A3000 RMK SLP202,CYET,2021-01-18T03:00:00Z,53.57,-116.47,2.0,-2.0,290,5,,9.0,30.0,1020.2,,TRUE,,,,,,,,OVC,6000,,,,,,,VFR,,,,,,,,,,,,METAR,925.0
CYEK 180300Z AUTO 31009KT 9SM OVC027 M21/M24 A3009 RMK SLP194,CYEK,2021-01-18T03:00:00Z,61.1,-94.07,-21.0,-24.0,310,9,,9.0,30.088583,1019.4,,TRUE,,,,,,,,OVC,2700,,,,,,,MVFR,,,,,,,,,,,,METAR,7.0
CYEG 180300Z 32013KT 20SM FEW008 BKN015 BKN025 OVC040 01/01 A2995 RMK SF1SC5SC1SC2 SF TR SLP178,CYEG,2021-01-18T03:00:00Z,53.3,-113.58,1.0,1.0,320,13,,20.0,29.949802,1017.8,,,,,,,,,,FEW,800,BKN,1500,BKN,2500,OVC,4000,MVFR,,,,,,,,,,,,METAR,710.0
CYED 180300Z AUTO 31009KT 9SM BKN027 OVC091 OVC099 01/M02 A2995 RMK SLP173,CYED,2021-01-18T03:00:00Z,53.67,-113.47,1.0,-2.0,310,9,,9.0,29.949802,1017.3,,TRUE,,,,,,,,BKN,2700,OVC,9100,OVC,9900,,,MVFR,,,,,,,,,,,,METAR,688.0
CYDQ 180300Z AUTO 26015KT 9SM CLR 04/M04 A3001 RMK SLP192,CYDQ,2021-01-18T03:00:00Z,55.75,-120.18,4.0,-4.0,260,15,,9.0,30.008858,1019.2,,TRUE,,,,,,,,CLR,,,,,,,,VFR,,,,,,,,,,,,METAR,658.0
CYDN 180300Z AUTO 04005KT 9SM -SN OVC038 A2991 RMK T MISG TD MISG DENSITY ALT MISG,CYDN,2021-01-18T03:00:00Z,51.1,-100.05,,,40,5,,9.0,29.911417,,,TRUE,,,,,,,-SN,OVC,3800,,,,,,,VFR,,,,,,,,,,,,METAR,302.0
CYDL 180300Z AUTO VRB02KT 9SM SCT055 BKN074 OVC088 M05/M06 A3016 RMK SLP265,CYDL,2021-01-18T03:00:00Z,58.42,-130.02,-5.0,-6.0,0,2,,9.0,30.159449,1026.5,,TRUE,,,,,,,,SCT,5500,BKN,7400,OVC,8800,,,VFR,,,,,,,,,,,,METAR,804.0
CYDF 180300Z 09006KT 15SM OVC019 02/M00 A2930 RMK SC8 SLP924,CYDF,2021-01-18T03:00:00Z,49.22,-57.4,2.0,0.0,90,6,,15.0,29.300198,992.4,,,,,,,,,,OVC,1900,,,,,,,MVFR,,,,,,,,,,,,METAR,15.0
CYDB 180300Z AUTO 12011G20KT 9SM CLR 01/M05 A2979 RMK SLP143,CYDB,2021-01-18T03:00:00Z,61.37,-139.02,1.0,-5.0,120,11,20,9.0,29.790354,1014.3,,TRUE,,,,,,,,CLR,,,,,,,,VFR,,,,,,,,,,,,METAR,807.0
CYCX 180300Z AUTO 24011G17KT 9SM OVC034 OVC092 01/M04 A2928 RMK SLP917,CYCX,2021-01-18T03:00:00Z,45.83,-66.45,1.0,-4.0,240,11,17,9.0,29.279528,991.7,,TRUE,,,,,,,,OVC,3400,OVC,9200,,,,,VFR,,,,,,,,,,,,METAR,46.0
CYCO 180300Z 01002KT 12SM IC SCT011 M31/M35 A3020 RMK SC4 SLP232,CYCO,2021-01-18T03:00:00Z,67.82,-115.15,-31.0,-35.0,10,2,,12.0,30.200787,1023.2,,,,,,,,,IC,SCT,1100,,,,,,,VFR,,,,,,,,,,,,METAR,20.0
CYCD 180300Z 29004KT 250V310 15SM FEW030 SCT045 BKN230 04/03 A3054 RMK SC1SC2CI2 SLP344,CYCD,2021-01-18T03:00:00Z,49.05,-123.87,4.0,3.0,290,4,,15.0,30.540354,1034.4,,,,,,,,,,FEW,3000,SCT,4500,BKN,23000,,,VFR,,,,,,,,,,,,METAR,30.0
CYCB 180300Z 28003KT 250V310 14SM IC FEW025 M34/M38 A3019 RMK SC2 SLP232,CYCB,2021-01-18T03:00:00Z,69.1,-105.12,-34.0,-38.0,280,3,,14.0,30.188976,1023.2,,,,,,,,,IC,FEW,2500,,,,,,,VFR,,,,,,,,,,,,METAR,19.0
CYBX 180300Z 10014KT 4SM -RA BR FEW009 SCT012 OVC039 02/01 A2926 RMK SC2SC1SC5 SLP912,CYBX,2021-01-18T03:00:00Z,51.45,-57.18,2.0,1.0,100,14,,4.0,29.258858,991.2,,,,,,,,,-RA BR,FEW,900,SCT,1200,OVC,3900,,,MVFR,,,,,,,,,,,,METAR,32.0
CYBU 180300Z AUTO 36009KT 9SM -SN OVC011 M16/M18 A2990 RMK SLP164,CYBU,2021-01-18T03:00:00Z,53.32,-104.0,-16.0,-18.0,360,9,,9.0,29.899607,1016.4,,TRUE,,,,,,,-SN,OVC,1100,,,,,,,MVFR,,,,,,,,,,,,METAR,369.0
CYBR 180300Z 08011G16KT 12SM -SN OVC033 M12/M14 A2984 RMK SC8 SLP140,CYBR,2021-01-18T03:00:00Z,49.92,-99.95,-12.0,-14.0,80,11,16,12.0,29.840551,1014.0,,,,,,,,,-SN,OVC,3300,,,,,,,VFR,,,,,,,,,,,,METAR,405.0
CYBQ 180300Z AUTO 21006KT 9SM OVC034 M27/M29 A3002 RMK SLP213,CYBQ,2021-01-18T03:00:00Z,58.7,-98.5,-27.0,-29.0,210,6,,9.0,30.02067,1021.3,,TRUE,,,,,,,,OVC,3400,,,,,,,VFR,,,,,,,,,,,,METAR,272.0
CYBN 180300Z AUTO 36004KT 9SM OVC013 M03/M06 A2964 RMK SLP046,CYBN,2021-01-18T03:00:00Z,44.27,-79.92,-3.0,-6.0,360,4,,9.0,29.639763,1004.6,,TRUE,,,,,,,,OVC,1300,,,,,,,MVFR,,,,,,,,,,,,METAR,223.0
CYBL 180300Z 30008KT 15SM FEW030 SCT048 05/04 A3054 RMK SC1SC2 SLP349,CYBL,2021-01-18T03:00:00Z,49.95,-125.27,5.0,4.0,300,8,,15.0,30.540354,1034.9,,,,,,,,,,FEW,3000,SCT,4800,,,,,VFR,,,,,,,,,,,,METAR,94.0
CYBK 180300Z 31014KT 15SM -SN SCT025 BKN072 M25/M29 A3008 RMK SC3AC4 SLP190,CYBK,2021-01-18T03:00:00Z,64.3,-96.07,-25.0,-29.0,310,14,,15.0,30.079725,1019.0,,,,,,,,,-SN,SCT,2500,BKN,7200,,,,,VFR,,,,,,,,,,,,METAR,14.0
CYBG 180300Z 28022KT 12SM -SN BKN015 OVC040 M03/M04 A2923 RMK SC6SC2 SLP907,CYBG,2021-01-18T03:00:00Z,48.33,-70.98,-3.0,-4.0,280,22,,12.0,29.22933,990.7,,,,,,,,,-SN,BKN,1500,OVC,4000,,,,,MVFR,,,,,,,,,,,,METAR,151.0
CYBC 180300Z AUTO 27009KT 9SM OVC120 M01/M03 A2903 RMK SLP831,CYBC,2021-01-18T03:00:00Z,49.13,-68.2,-1.0,-3.0,270,9,,9.0,29.028543,983.1,,TRUE,,,,,,,,OVC,12000,,,,,,,VFR,,,,,,,,,,,,METAR,20.0
CYAY 180300Z AUTO 12015G21KT 9SM -RA OVC008 01/01 A2928 RMK SLP919,CYAY,2021-01-18T03:00:00Z,51.38,-56.07,1.0,1.0,120,15,21,9.0,29.279528,991.9,,TRUE,,,,,,,-RA,OVC,800,,,,,,,IFR,,,,,,,,,,,,METAR,23.0
CYAM 180300Z 05007KT 20SM OVC096 M06/M12 A2969 RMK AC8 SLP068,CYAM,2021-01-18T03:00:00Z,46.48,-84.52,-6.0,-12.0,50,7,,20.0,29.68996,1006.8,,,,,,,,,,OVC,9600,,,,,,,VFR,,,,,,,,,,,,METAR,186.0
CYAH 180300Z AUTO 30007KT 6SM -SN FEW019 BKN027 OVC085 M15/M18 A2935 RMK SLP969,CYAH,2021-01-18T03:00:00Z,53.75,-73.67,-15.0,-18.0,300,7,,6.0,29.350393,996.9,,TRUE,,,,,,,-SN,FEW,1900,BKN,2700,OVC,8500,,,MVFR,,,,,,,,,,,,METAR,298.0
CXZV 180300Z AUTO 07008KT M00/M01 RMK AO1 SOG 40 3006 PK WND 07018/0200 SLP787 T10021007,CXZV,2021-01-18T03:00:00Z,50.22,-66.25,-0.2,-0.7,70,8,,,,978.7,,TRUE,TRUE,,,,,,,,,,,,,,,,,,,,,,,,,,,METAR,43.0
CXZC 180300Z AUTO 31005KT M17/M19 RMK AO1 SOG 35 1003 SLP095 T11721191,CXZC,2021-01-18T03:00:00Z,51.3,-80.62,-17.2,-19.1,310,5,,,,1009.5,,TRUE,TRUE,,,,,,,,,,,,,,,,,,,,,,,,,,,METAR,8.0
CXYH 180300Z AUTO 07001KT M21/M24 RMK AO1 SLP139 T12131236 53027,CXYH,2021-01-18T03:00:00Z,61.25,-123.75,-21.3,-23.6,70,1,,,,1013.9,,TRUE,TRUE,,,,,,,,,,,,,,,,2.7,,,,,,,,,,,METAR,197.0
CXWN 180300Z AUTO 35005KT M14/M17 RMK AO1 SLP146 T11391172 52006,CXWN,2021-01-18T03:00:00Z,49.88,-97.13,-13.9,-17.2,350,5,,,,1014.6,,TRUE,TRUE,,,,,,,,,,,,,,,,0.6,,,,,,,,,,,METAR,232.0
CXWM 180300Z AUTO 26014KT 03/M05 RMK AO1 PK WND 27019/0246 T00261054,CXWM,2021-01-18T03:00:00Z,49.5,-112.12,2.6,-5.4,260,14,,,,,,TRUE,TRUE,,,,,,,,,,,,,,,,,,,,,,,,,,,METAR,947.0
CXVW 180300Z AUTO 24004KT 01/M01 RMK AO1 T00081008,CXVW,2021-01-18T03:00:00Z,55.1,-117.2,0.8,-0.8,240,4,,,,,,TRUE,TRUE,,,,,,,,,,,,,,,,,,,,,,,,,,,METAR,696.0
CXVN 180300Z AUTO 25005KT 02/M01 RMK AO1 SLP043 T00151014 50000,CXVN,2021-01-18T03:00:00Z,43.18,-79.4,1.5,-1.4,250,5,,,,1004.3,,TRUE,TRUE,,,,,,,,,,,,,,,,0.0,,,,,,,,,,,METAR,86.0
CXVM 180300Z AUTO 35009KT M00/M00 RMK AO1 T10031002,CXVM,2021-01-18T03:00:00Z,53.35,-110.88,-0.3,-0.2,350,9,,,,,,TRUE,TRUE,,,,,,,,,,,,,,,,,,,,,,,,,,,METAR,622.0
CXTP 180300Z AUTO 22004KT 02/02 RMK AO1 SLP971 T00190018 51014,CXTP,2021-01-18T03:00:00Z,48.55,-53.97,1.9,1.8,220,4,,,,997.1,,TRUE,TRUE,,,,,,,,,,,,,,,,1.4,,,,,,,,,,,METAR,104.0
CXTO 180300Z AUTO M00/M03 RMK AO1 SLP038 T10011030 51002,CXTO,2021-01-18T03:00:00Z,43.67,-79.4,-0.1,-3.0,,,,,,1003.8,,TRUE,TRUE,,,,,,,,,,,,,,,,0.2,,,,,,,,,,,METAR,115.0
CXTN 180300Z AUTO 11007KT M21/M23 RMK AO1 SOG 109 1011 SLP182 T12061228,CXTN,2021-01-18T03:00:00Z,69.2,-122.35,-20.6,-22.8,110,7,,,,1018.2,,TRUE,TRUE,,,,,,,,,,,,,,,,,,,,,,,,,,,METAR,564.0
CXTH 180300Z AUTO 34016KT M00/M00 RMK AO1 PK WND 32020/0220 T10021002,CXTH,2021-01-18T03:00:00Z,53.63,-111.68,-0.2,-0.2,340,16,,,,,,TRUE,TRUE,,,,,,,,,,,,,,,,,,,,,,,,,,,METAR,679.0
CXTD 180300Z AUTO 22012G21KT 03/M01 RMK AO1 PK WND 21021/0258 SLP937 T00251008 51022,CXTD,2021-01-18T03:00:00Z,45.62,-61.68,2.5,-0.8,220,12,21,,,993.7,,TRUE,TRUE,,,,,,,,,,,,,,,,2.2,,,,,,,,,,,METAR,58.0
CXSP 180300Z AUTO 33011KT M01/M01 RMK AO1 PK WND 33018/0217 T10081014,CXSP,2021-01-18T03:00:00Z,54.02,-111.27,-0.8,-1.4,330,11,,,,,,TRUE,TRUE,,,,,,,,,,,,,,,,,,,,,,,,,,,METAR,652.0
CXSL 180300Z AUTO 35009KT M01/M04 RMK AO1 PK WND 34020/0207 T10141035 50005,CXSL,2021-01-18T03:00:00Z,54.28,-112.5,-1.4,-3.5,350,9,,,,,,TRUE,TRUE,,,,,,,,,,,,,,,,0.5,,,,,,,,,,,METAR,680.0
CXSH 180300Z AUTO 29006KT M03/M06 RMK AO1 SLP958 T10271060 53012,CXSH,2021-01-18T03:00:00Z,46.55,-72.73,-2.7,-6.0,290,6,,,,995.8,,TRUE,TRUE,,,,,,,,,,,,,,,,1.2,,,,,,,,,,,METAR,106.0
CXSE 180300Z AUTO 30003KT M27/M30 RMK AO1 SOG 29 1010 SLP236 T12731301,CXSE,2021-01-18T03:00:00Z,73.77,-105.28,-27.3,-30.1,300,3,,,,1023.6,,TRUE,TRUE,,,,,,,,,,,,,,,,,,,,,,,,,,,METAR,11.0
CXSC 180300Z AUTO 30014KT M00/M01 RMK AO1 PK WND 30020/0240 T10041007,CXSC,2021-01-18T03:00:00Z,50.3,-110.08,-0.4,-0.7,300,14,,,,,,TRUE,TRUE,,,,,,,,,,,,,,,,,,,,,,,,,,,METAR,809.0
CXRL 180300Z AUTO 27009KT M02/M03 RMK AO1 T10181030 50004,CXRL,2021-01-18T03:00:00Z,54.5,-111.7,-1.8,-3.0,270,9,,,,,,TRUE,TRUE,,,,,,,,,,,,,,,,0.4,,,,,,,,,,,METAR,585.0
CXRH 180300Z AUTO 14006KT 03/M00 RMK AO1 T00281001,CXRH,2021-01-18T03:00:00Z,49.57,-57.88,2.8,-0.1,140,6,,,,,,TRUE,TRUE,,,,,,,,,,,,,,,,,,,,,,,,,,,METAR,68.0
CXRB 180300Z AUTO 05010KT M19/M22 RMK AO1 SOG 10 3010 SLP198 T11891215,CXRB,2021-01-18T03:00:00Z,74.72,-94.98,-18.9,-21.5,50,10,,,,1019.8,,TRUE,TRUE,,,,,,,,,,,,,,,,,,,,,,,,,,,METAR,30.0
CXPL 180300Z AUTO 28013KT 01/01 RMK AO1 PK WND 29017/0218 T00080008,CXPL,2021-01-18T03:00:00Z,51.13,-111.7,0.8,0.8,280,13,,,,,,TRUE,TRUE,,,,,,,,,,,,,,,,,,,,,,,,,,,METAR,735.0
CXPC 180300Z AUTO M05/M07 RMK AO1 SOG 17 0002 SLP044 T10531072,CXPC,2021-01-18T03:00:00Z,45.35,-80.05,-5.3,-7.2,,,,,,1004.4,,TRUE,TRUE,,,,,,,,,,,,,,,,,,,,,,,,,,,METAR,176.0
CXPA 180300Z AUTO 27009KT 02/M02 RMK AO1 T00211020,CXPA,2021-01-18T03:00:00Z,55.62,-118.3,2.1,-2.0,270,9,,,,,,TRUE,TRUE,,,,,,,,,,,,,,,,,,,,,,,,,,,METAR,628.0
CXOY 180300Z AUTO 31020KT M00/M00 RMK AO1 PK WND 32025/0213 T10041004,CXOY,2021-01-18T03:00:00Z,51.35,-110.35,-0.4,-0.4,310,20,,,,,,TRUE,TRUE,,,,,,,,,,,,,,,,,,,,,,,,,,,METAR,784.0
CXOX 180300Z AUTO 08005KT M16/M19 RMK AO1 SOG 44 1013 SLP168 T11631188,CXOX,2021-01-18T03:00:00Z,55.15,-105.27,-16.3,-18.8,80,5,,,,1016.8,,TRUE,TRUE,,,,,,,,,,,,,,,,,,,,,,,,,,,METAR,381.0
CXOL 180300Z AUTO 32014KT M00/M00 RMK AO1 PK WND 33022/0207 T10031002,CXOL,2021-01-18T03:00:00Z,51.77,-114.08,-0.3,-0.2,320,14,,,,,,TRUE,TRUE,,,,,,,,,,,,,,,,,,,,,,,,,,,METAR,1026.0
CXNP 180300Z AUTO 23017G25KT 03/M02 RMK AO1 SOG 09 1025 PK WND 24028/0210 SLP911 T00251017,CXNP,2021-01-18T03:00:00Z,45.75,-64.23,2.5,-1.7,230,17,25,,,991.1,,TRUE,TRUE,,,,,,,,,,,,,,,,,,,,,,,,,,,METAR,19.0
CXNM 180300Z AUTO M01/M02 RMK AO1 SOG 96 T10081022,CXNM,2021-01-18T03:00:00Z,46.82,-60.67,-0.8,-2.2,,,,,,,,TRUE,TRUE,,,,,,,,,,,,,,,,,,,,,,,,,,,METAR,452.0
CXMY 180300Z AUTO 03/01 RMK AO1 T00310005,CXMY,2021-01-18T03:00:00Z,44.98,-62.48,3.1,0.5,,,,,,,,TRUE,TRUE,,,,,,,,,,,,,,,,,,,,,,,,,,,METAR,37.0
CXMO 180300Z AUTO 34021KT 01/01 RMK AO1 PK WND 34028/0230 T00050009,CXMO,2021-01-18T03:00:00Z,51.67,-112.68,0.5,0.9,340,21,,,,,,TRUE,TRUE,,,,,,,,,,,,,,,,,,,,,,,,,,,METAR,837.0
CXMM 180300Z AUTO 00030KT M10/M10 RMK AO1 SOG 19 1023 SLP170 T10991103,CXMM,2021-01-18T03:00:00Z,56.65,-111.22,-9.9,-10.3,0,30,,,,1017.0,,TRUE,TRUE,,,,,,,,,,,,,,,,,,,,,,,,,,,METAR,372.0
CXMI 180300Z AUTO 25020G27KT 04/01 RMK AO1 PK WND 23028/0233 SLP941 T00390006 53020,CXMI,2021-01-18T03:00:00Z,44.6,-63.53,3.9,0.6,250,20,27,,,994.1,,TRUE,TRUE,,,,,,,,,,,,,,,,2.0,,,,,,,,,,,METAR,15.0
CXMG 180300Z AUTO 21005KT M04/M04 RMK AO1 T10381038,CXMG,2021-01-18T03:00:00Z,56.97,-117.45,-3.8,-3.8,210,5,,,,,,TRUE,TRUE,,,,,,,,,,,,,,,,,,,,,,,,,,,METAR,467.0
CXMD 180300Z AUTO 04002KT M11/M13 RMK AO1 SLP143 T11081129 56001,CXMD,2021-01-18T03:00:00Z,49.18,-98.08,-10.8,-12.9,40,2,,,,1014.3,,TRUE,TRUE,,,,,,,,,,,,,,,,-0.1,,,,,,,,,,,METAR,297.0
CXLL 180300Z AUTO 00000KT M25/M28 RMK AO1 SOG 49 3025 SLP165 T12521280,CXLL,2021-01-18T03:00:00Z,61.12,-122.85,-25.2,-28.0,0,0,,,,1016.5,,TRUE,TRUE,,,,,,,,,,,,,,,,,,,,,,,,,,,METAR,180.0
CXLB 180300Z AUTO 22015KT 04/02 RMK AO1 PK WND 21020/0242 SLP942 T00350018 51021,CXLB,2021-01-18T03:00:00Z,44.37,-64.3,3.5,1.8,220,15,,,,994.2,,TRUE,TRUE,,,,,,,,,,,,,,,,2.1,,,,,,,,,,,METAR,4.0
CXKT 180300Z AUTO 22007KT 02/M01 RMK AO1 SOG 04 2023 SLP929 T00221006 50002,CXKT,2021-01-18T03:00:00Z,45.07,-64.48,2.2,-0.6,220,7,,,,992.9,,TRUE,TRUE,,,,,,,,,,,,,,,,0.2,,,,,,,,,,,METAR,48.0
CXKM 180300Z AUTO 33018KT 01/01 RMK AO1 PK WND 32024/0221 T00100005,CXKM,2021-01-18T03:00:00Z,52.83,-111.87,1.0,0.5,330,18,,,,,,TRUE,TRUE,,,,,,,,,,,,,,,,,,,,,,,,,,,METAR,679.0
CXKI 180300Z AUTO M15/M16 RMK AO1 SOG 29 0001 SLP073 T11471164,CXKI,2021-01-18T03:00:00Z,48.13,-80.0,-14.7,-16.4,,,,,,1007.3,,TRUE,TRUE,,,,,,,,,,,,,,,,,,,,,,,,,,,METAR,328.0
CXKE 180300Z AUTO 30007KT M04/M06 RMK AO1 SOG 20 1006 SLP024 T10391062,CXKE,2021-01-18T03:00:00Z,45.0,-75.63,-3.9,-6.2,300,7,,,,1002.4,,TRUE,TRUE,,,,,,,,,,,,,,,,,,,,,,,,,,,METAR,99.0
CXKA 180300Z AUTO 02005KT M15/M17 RMK AO1 SOG 50 0005 SLP103 T11541173,CXKA,2021-01-18T03:00:00Z,49.4,-82.45,-15.4,-17.3,20,5,,,,1010.3,,TRUE,TRUE,,,,,,,,,,,,,,,,,,,,,,,,,,,METAR,221.0
CXIB 180300Z AUTO 21010G20KT 04/M01 RMK AO1 PK WND 20020/0252 SLP907 T00381013 53016,CXIB,2021-01-18T03:00:00Z,46.67,-60.4,3.8,-1.3,210,10,20,,,990.7,,TRUE,TRUE,,,,,,,,,,,,,,,,1.6,,,,,,,,,,,METAR,6.0
CXHR 180300Z AUTO 31024KT M00/M00 RMK AO1 PK WND 31034/0222 T10011001,CXHR,2021-01-18T03:00:00Z,51.18,-112.5,-0.1,-0.1,310,24,,,,,,TRUE,TRUE,,,,,,,,,,,,,,,,,,,,,,,,,,,METAR,975.0
CXHP 180300Z AUTO 23005KT 01/01 RMK AO1 T00130008,CXHP,2021-01-18T03:00:00Z,55.4,-116.48,1.3,0.8,230,5,,,,,,TRUE,TRUE,,,,,,,,,,,,,,,,,,,,,,,,,,,METAR,601.0
CXHM 180300Z AUTO 25002KT 01/M01 RMK AO1 SLP042 T00081009 50000,CXHM,2021-01-18T03:00:00Z,43.28,-79.9,0.8,-0.9,250,2,,,,1004.2,,TRUE,TRUE,,,,,,,,,,,,,,,,0.0,,,,,,,,,,,METAR,105.0
CXHF 180300Z AUTO M06/M08 RMK AO1 T10551080,CXHF,2021-01-18T03:00:00Z,45.83,-75.65,-5.5,-8.0,,,,,,,,TRUE,TRUE,,,,,,,,,,,,,,,,,,,,,,,,,,,METAR,185.0
CXHD 180300Z AUTO 33018KT 01/M01 RMK AO1 PK WND 32024/0227 T00061010,CXHD,2021-01-18T03:00:00Z,53.18,-112.25,0.6,-1.0,330,18,,,,,,TRUE,TRUE,,,,,,,,,,,,,,,,,,,,,,,,,,,METAR,688.0
CXHA 180300Z AUTO 26005KT M00/M01 RMK AO1 SLP062 T10021007 51001,CXHA,2021-01-18T03:00:00Z,42.03,-82.9,-0.2,-0.7,260,5,,,,1006.2,,TRUE,TRUE,,,,,,,,,,,,,,,,0.1,,,,,,,,,,,METAR,193.0
CXGH 180300Z AUTO 34006KT M16/M19 RMK AO1 SLP136 T11571186 51002,CXGH,2021-01-18T03:00:00Z,50.63,-97.0,-15.7,-18.6,340,6,,,,1013.6,,TRUE,TRUE,,,,,,,,,,,,,,,,0.2,,,,,,,,,,,METAR,217.0
CXFR 180300Z AUTO 26010KT 01/M02 RMK AO1 T00051024,CXFR,2021-01-18T03:00:00Z,56.08,-118.43,0.5,-2.4,260,10,,,,,,TRUE,TRUE,,,,,,,,,,,,,,,,,,,,,,,,,,,METAR,657.0
CXFM 180300Z AUTO 28007KT 03/M04 RMK AO1 T00251039,CXFM,2021-01-18T03:00:00Z,49.48,-111.48,2.5,-3.9,280,7,,,,,,TRUE,TRUE,,,,,,,,,,,,,,,,,,,,,,,,,,,METAR,884.0
CXET 180300Z AUTO 34005KT M03/M06 RMK AO1 SOG 09 2004 SLP043 T10341060,CXET,2021-01-18T03:00:00Z,44.23,-79.78,-3.4,-6.0,340,5,,,,1004.3,,TRUE,TRUE,,,,,,,,,,,,,,,,,,,,,,,,,,,METAR,250.0
CXEG 180300Z AUTO 32012KT 01/M00 RMK AO1 SOG 17 1033 SLP176 T00141001 50002,CXEG,2021-01-18T03:00:00Z,53.3,-113.6,1.4,-0.1,320,12,,,,1017.6,,TRUE,TRUE,,,,,,,,,,,,,,,,0.2,,,,,,,,,,,METAR,706.0
CXEC 180300Z AUTO 33011G18KT 01/M02 RMK AO1 SOG 17 1035 PK WND 32018/0257 SLP177 T00141017 50002,CXEC,2021-01-18T03:00:00Z,53.57,-113.52,1.4,-1.7,330,11,18,,,1017.7,,TRUE,TRUE,,,,,,,,,,,,,,,,0.2,,,,,,,,,,,METAR,666.0
CXEA 180300Z AUTO 32005KT M12/M14 RMK AO1 SOG 26 1009 SLP097 T11231143,CXEA,2021-01-18T03:00:00Z,50.63,-93.22,-12.3,-14.3,320,5,,,,1009.7,,TRUE,TRUE,,,,,,,,,,,,,,,,,,,,,,,,,,,METAR,351.0
CXDW 180300Z AUTO 01005KT M11/M13 RMK AO1 SOG 01 5000 SLP146 T11141133,CXDW,2021-01-18T03:00:00Z,49.4,-98.32,-11.4,-13.3,10,5,,,,1014.6,,TRUE,TRUE,,,,,,,,,,,,,,,,,,,,,,,,,,,METAR,341.0
CXDK 180300Z AUTO 24002KT M12/M14 RMK AO1 SOG 38 1018 SLP150 T11181142,CXDK,2021-01-18T03:00:00Z,61.27,-124.47,-11.8,-14.2,240,2,,,,1015.0,,TRUE,TRUE,,,,,,,,,,,,,,,,,,,,,,,,,,,METAR,269.0
CXDI 180300Z AUTO 28001KT M01/M01 RMK AO1 1PAST HR 8001 SLP051 P0000 T10061014 50006,CXDI,2021-01-18T03:00:00Z,42.87,-80.55,-0.6,-1.4,280,1,,,,1005.1,,TRUE,TRUE,,,,,,,,,,,,,,,,0.6,,,,,0.005,,,,,,METAR,234.0
CXDE 180300Z AUTO 31001KT M17/M19 RMK AO1 SOG 30 1019 SLP174 T11691190,CXDE,2021-01-18T03:00:00Z,65.22,-123.43,-16.9,-19.0,310,1,,,,1017.4,,TRUE,TRUE,,,,,,,,,,,,,,,,,,,,,,,,,,,METAR,208.0
CXDB 180300Z AUTO 26011KT M02/M06 RMK AO1 T10171059,CXDB,2021-01-18T03:00:00Z,49.05,-112.82,-1.7,-5.9,260,11,,,,,,TRUE,TRUE,,,,,,,,,,,,,,,,,,,,,,,,,,,METAR,1311.0
CXCS 180300Z AUTO 31021KT 01/M01 RMK AO1 PK WND 31027/0212 T00061009,CXCS,2021-01-18T03:00:00Z,51.93,-110.72,0.6,-0.9,310,21,,,,,,TRUE,TRUE,,,,,,,,,,,,,,,,,,,,,,,,,,,METAR,771.0
CXCP 180300Z AUTO 34013KT 01/M05 RMK AO1 PK WND 32022/0228 T00081046,CXCP,2021-01-18T03:00:00Z,50.28,-113.35,0.8,-4.6,340,13,,,,,,TRUE,TRUE,,,,,,,,,,,,,,,,,,,,,,,,,,,METAR,999.0
CXCK 180300Z AUTO 00000KT M15/M16 RMK AO1 SOG 38 2024 SLP171 T11471163,CXCK,2021-01-18T03:00:00Z,62.12,-136.2,-14.7,-16.3,0,0,,,,1017.1,,TRUE,TRUE,,,,,,,,,,,,,,,,,,,,,,,,,,,METAR,526.0
CXCD 180300Z AUTO 28009KT 02/M05 RMK AO1 T00151046,CXCD,2021-01-18T03:00:00Z,56.32,-119.75,1.5,-4.6,280,9,,,,,,TRUE,TRUE,,,,,,,,,,,,,,,,,,,,,,,,,,,METAR,628.0
CXCA 180300Z AUTO 00000KT M17/ RMK AO1 SOG 13 8001 SLP107 T1167,CXCA,2021-01-18T03:00:00Z,49.15,-88.35,-16.7,,0,0,,,,1010.7,,TRUE,TRUE,,,,,,,,,,,,,,,,,,,,,,,,,,,METAR,228.0
CXBW 180300Z AUTO 28008KT 01/M04 RMK AO1 T00121041,CXBW,2021-01-18T03:00:00Z,49.8,-112.3,1.2,-4.1,280,8,,,,,,TRUE,TRUE,,,,,,,,,,,,,,,,,,,,,,,,,,,METAR,823.0
CXBR 180300Z AUTO 27012KT 02/M09 RMK AO1 PK WND 28019/0223 T00231091,CXBR,2021-01-18T03:00:00Z,49.62,-113.82,2.3,-9.1,270,12,,,,,,TRUE,TRUE,,,,,,,,,,,,,,,,,,,,,,,,,,,METAR,1137.0
CXBO 180300Z AUTO 24014G20KT 01/M03 RMK AO1 PK WND 24020/0226 T00051030,CXBO,2021-01-18T03:00:00Z,46.83,-71.2,0.5,-3.0,240,14,20,,,,,TRUE,TRUE,,,,,,,,,,,,,,,,,,,,,,,,,,,METAR,8.0
CXBK 180300Z AUTO 31006KT M05/M06 RMK AO1 SLP106 T10491064 51004,CXBK,2021-01-18T03:00:00Z,50.2,-104.7,-4.9,-6.4,310,6,,,,1010.6,,TRUE,TRUE,,,,,,,,,,,,,,,,0.4,,,,,,,,,,,METAR,585.0
CXBI 180300Z AUTO 35006KT M05/M07 RMK AO1 SOG 23 1003 SLP047 T10521069,CXBI,2021-01-18T03:00:00Z,44.48,-79.55,-5.2,-6.9,350,6,,,,1004.7,,TRUE,TRUE,,,,,,,,,,,,,,,,,,,,,,,,,,,METAR,287.0
CXBA 180300Z AUTO 32014KT 01/01 RMK AO1 PK WND 32019/0249 T00100010,CXBA,2021-01-18T03:00:00Z,52.12,-110.1,1.0,1.0,320,14,,,,,,TRUE,TRUE,,,,,,,,,,,,,,,,,,,,,,,,,,,METAR,696.0
CXAT 180300Z AUTO 11003KT M17/M20 RMK AO1 SLP161 T11691202 53011,CXAT,2021-01-18T03:00:00Z,73.0,-85.03,-16.9,-20.2,110,3,,,,1016.1,,TRUE,TRUE,,,,,,,,,,,,,,,,1.1,,,,,,,,,,,METAR,10.0
CXAK 180300Z AUTO 32020KT 01/01 RMK AO1 PK WND 31032/0244 T00080008,CXAK,2021-01-18T03:00:00Z,52.35,-112.6,0.8,0.8,320,20,,,,,,TRUE,TRUE,,,,,,,,,,,,,,,,,,,,,,,,,,,METAR,799.0
CXAJ 180300Z AUTO 31007KT M03/M05 RMK AO1 SOG 26 T10271046,CXAJ,2021-01-18T03:00:00Z,54.78,-112.82,-2.7,-4.6,310,7,,,,,,TRUE,TRUE,,,,,,,,,,,,,,,,,,,,,,,,,,,METAR,586.0
CXAF 180300Z AUTO 34009KT M00/M02 RMK AO1 PK WND 35017/0203 T10031017,CXAF,2021-01-18T03:00:00Z,54.28,-112.97,-0.3,-1.7,340,9,,,,,,TRUE,TRUE,,,,,,,,,,,,,,,,,,,,,,,,,,,METAR,667.0
CWZZ 180300Z AUTO 36002KT 330V090 ////SM OVC002 M10/M11 A2956,CWZZ,2021-01-18T03:00:00Z,58.47,-62.65,-10.0,-11.0,360,2,,,29.56004,,,TRUE,,,,,,,,OVC,200,,,,,,,,,,,,,,,,,,,METAR,50.0
CWZW 180300Z AUTO 33002KT M04/M05 RMK AO1 SOG 63 1033 SLP230 T10411049,CWZW,2021-01-18T03:00:00Z,60.17,-132.73,-4.1,-4.9,330,2,,,,1023.0,,TRUE,TRUE,,,,,,,,,,,,,,,,,,,,,,,,,,,METAR,683.0
CWZQ 180300Z AUTO 20019G28KT RMK AO1 PK WND 21034/0218 53019,CWZQ,2021-01-18T03:00:00Z,46.53,-61.05,,,200,19,28,,,,,TRUE,TRUE,,,,,,,,,,,,,,,,1.9,,,,,,,,,,,METAR,13.0
CWZO 180300Z AUTO 09004KT RMK AO1,CWZO,2021-01-18T03:00:00Z,48.57,-123.25,,,90,4,,,,,,TRUE,TRUE,,,,,,,,,,,,,,,,,,,,,,,,,,,METAR,5.0
CWZL 180300Z AUTO 21001KT 07/ RMK AO1 SLP325 T0074 51012,CWZL,2021-01-18T03:00:00Z,53.03,-131.6,7.4,,210,1,,,,1032.5,,TRUE,TRUE,,,,,,,,,,,,,,,,1.2,,,,,,,,,,,METAR,17.0
CWZG 180300Z AUTO 23004KT M01/M08 RMK AO1 SOG 17 1012 SLP211 T10081077,CWZG,2021-01-18T03:00:00Z,51.2,-115.55,-0.8,-7.7,230,4,,,,1021.1,,TRUE,TRUE,,,,,,,,,,,,,,,,,,,,,,,,,,,METAR,1402.0
CWZA 180300Z AUTO 00000KT 07/06 RMK AO1 SLP329 T00710059 51010,CWZA,2021-01-18T03:00:00Z,49.25,-121.77,7.1,5.9,0,0,,,,1032.9,,TRUE,TRUE,,,,,,,,,,,,,,,,1.0,,,,,,,,,,,METAR,18.0
CWYY 180300Z AUTO 15006KT 03/M01 RMK AO1 SLP306 T00311011 51017,CWYY,2021-01-18T03:00:00Z,49.03,-119.43,3.1,-1.1,150,6,,,,1030.6,,TRUE,TRUE,,,,,,,,,,,,,,,,1.7,,,,,,,,,,,METAR,284.0
CWYL 180300Z AUTO 24009KT M05/M05 RMK AO1 SOG 88 1008 SLP229 T10491053,CWYL,2021-01-18T03:00:00Z,51.45,-116.33,-4.9,-5.3,240,9,,,,1022.9,,TRUE,TRUE,,,,,,,,,,,,,,,,,,,,,,,,,,,METAR,1602.0
CWYJ 180300Z AUTO 05001KT 04/04 RMK AO1 SLP345 T00400040 53012,CWYJ,2021-01-18T03:00:00Z,48.45,-123.3,4.0,4.0,50,1,,,,1034.5,,TRUE,TRUE,,,,,,,,,,,,,,,,1.2,,,,,,,,,,,METAR,59.0
CWXL 180300Z AUTO 27006KT 01/M03 RMK AO1 SLP156 T00051033 53005,CWXL,2021-01-18T03:00:00Z,49.73,-111.45,0.5,-3.3,270,6,,,,1015.6,,TRUE,TRUE,,,,,,,,,,,,,,,,0.5,,,,,,,,,,,METAR,815.0
CWXI 180300Z AUTO 02/M00 RMK AO1 SLP894 T00201004 56010,CWXI,2021-01-18T03:00:00Z,51.02,-57.1,2.0,-0.4,,,,,,989.4,,TRUE,TRUE,,,,,,,,,,,,,,,,-1.0,,,,,,,,,,,METAR,15.0
CWXC 180300Z AUTO 29005KT M03/M05 RMK AO1 2PAST HR M P0001 T10311048 50005,CWXC,2021-01-18T03:00:00Z,48.88,-71.03,-3.1,-4.8,290,5,,,,,,TRUE,TRUE,,,,,,,,,,,,,,,,0.5,,,,,0.01,,,,,,METAR,306.0
CWXA 180300Z AUTO 26009KT 02/M11 RMK AO1 SLP208 T00241106 52023,CWXA,2021-01-18T03:00:00Z,51.07,-115.07,2.4,-10.6,260,9,,,,1020.8,,TRUE,TRUE,,,,,,,,,,,,,,,,2.3,,,,,,,,,,,METAR,1303.0
CWWZ 180300Z AUTO 25005KT 02/01 RMK AO1 SLP040 T00160007 50000,CWWZ,2021-01-18T03:00:00Z,43.25,-79.22,1.6,0.7,250,5,,,,1004.0,,TRUE,TRUE,,,,,,,,,,,,,,,,0.0,,,,,,,,,,,METAR,75.0
CWWS 180300Z AUTO M20/M22 RMK AO1 SOG 01 3010 SLP180 T12001224,CWWS,2021-01-18T03:00:00Z,52.82,-97.62,-20.0,-22.4,,,,,,1018.0,,TRUE,TRUE,,,,,,,,,,,,,,,,,,,,,,,,,,,METAR,220.0
CWWL 180300Z AUTO 16012KT 08/06 RMK AO1 1012 PK WND 18017/0205 SLP320 T00780060 50002,CWWL,2021-01-18T03:00:00Z,53.5,-130.63,7.8,6.0,160,12,,,,1032.0,,TRUE,TRUE,,,,,,,,,,,,,,,,0.2,,,,,,,,,,,METAR,8.0
CWWK 180300Z AUTO 00000KT RMK AO1 SOG 02 3012,CWWK,2021-01-18T03:00:00Z,49.02,-122.78,,,0,0,,,,,,TRUE,TRUE,,,,,,,,,,,,,,,,,,,,,,,,,,,METAR,10.0
CWWF 180300Z AUTO 32007KT M04/M06 RMK AO1 SOG 04 5000 SLP114 T10441061,CWWF,2021-01-18T03:00:00Z,49.7,-103.8,-4.4,-6.1,320,7,,,,1011.4,,TRUE,TRUE,,,,,,,,,,,,,,,,,,,,,,,,,,,METAR,583.0
CWWE 180300Z AUTO 24017G22KT 04/01 RMK AO1 PK WND 23023/0223 SLP959 T00410007 53018,CWWE,2021-01-18T03:00:00Z,43.98,-64.67,4.1,0.7,240,17,22,,,995.9,,TRUE,TRUE,,,,,,,,,,,,,,,,1.8,,,,,,,,,,,METAR,4.0
CWWB 180300Z AUTO 24005KT 02/M01 RMK AO1 SLP040 T00151008 51001,CWWB,2021-01-18T03:00:00Z,43.3,-79.78,1.5,-0.8,240,5,,,,1004.0,,TRUE,TRUE,,,,,,,,,,,,,,,,0.1,,,,,,,,,,,METAR,77.0
CWWA 180300Z AUTO 01001KT 05/04 RMK AO1 SLP334 T00480041 53011,CWWA,2021-01-18T03:00:00Z,49.35,-123.18,4.8,4.1,10,1,,,,1033.4,,TRUE,TRUE,,,,,,,,,,,,,,,,1.1,,,,,,,,,,,METAR,172.0
CWVU 180300Z AUTO 25026G34KT 05/01 RMK AO1 PK WND 26034/0251 SLP954 T00500005 51024,CWVU,2021-01-18T03:00:00Z,44.28,-66.33,5.0,0.5,250,26,34,,,995.4,,TRUE,TRUE,,,,,,,,,,,,,,,,2.4,,,,,,,,,,,METAR,4.0
CWVT 180300Z AUTO 03004KT M12/M13 RMK AO1 SOG 24 1024 SLP178 T11171134,CWVT,2021-01-18T03:00:00Z,55.83,-108.42,-11.7,-13.4,30,4,,,,1017.8,,TRUE,TRUE,,,,,,,,,,,,,,,,,,,,,,,,,,,METAR,431.0
CWVQ 180300Z AUTO 26012G18KT M05/M07 RMK AO1 SOG 31 1012 PK WND 25018/0251 SLP007 T10511072,CWVQ,2021-01-18T03:00:00Z,45.42,-73.92,-5.1,-7.2,260,12,18,,,1000.7,,TRUE,TRUE,,,,,,,,,,,,,,,,,,,,,,,,,,,METAR,38.0
CWVP 180300Z AUTO 30012G20KT M01/M04 RMK AO1 SOG 13 3011 PK WND 30022/0220 SLP133 T10101044,CWVP,2021-01-18T03:00:00Z,49.63,-109.52,-1.0,-4.4,300,12,20,,,1013.3,,TRUE,TRUE,,,,,,,,,,,,,,,,,,,,,,,,,,,METAR,1269.0
CWVN 180300Z AUTO 30006KT M02/M04 RMK AO1 SLP137 T10241039 51012,CWVN,2021-01-18T03:00:00Z,49.07,-107.58,-2.4,-3.9,300,6,,,,1013.7,,TRUE,TRUE,,,,,,,,,,,,,,,,1.2,,,,,,,,,,,METAR,792.0
CWVI 180300Z AUTO 33015KT 01/M01 RMK AO1 SOG 17 3033 PK WND 32020/0213 SLP157 T00081009,CWVI,2021-01-18T03:00:00Z,53.52,-112.1,0.8,-0.9,330,15,,,,1015.7,,TRUE,TRUE,,,,,,,,,,,,,,,,,,,,,,,,,,,METAR,640.0
CWVF 180300Z AUTO 21003KT 07/06 RMK AO1 T00710058,CWVF,2021-01-18T03:00:00Z,49.1,-123.3,7.1,5.8,210,3,,,,,,TRUE,TRUE,,,,,,,,,,,,,,,,,,,,,,,,,,,METAR,13.0
CWUX 180300Z AUTO 28016G22KT M03/M04 RMK AO1 PK WND 28026/0228 SLP900 T10261044 51013,CWUX,2021-01-18T03:00:00Z,48.3,-70.93,-2.6,-4.4,280,16,22,,,990.0,,TRUE,TRUE,,,,,,,,,,,,,,,,1.3,,,,,,,,,,,METAR,150.0
CWUW 180300Z AUTO 19008KT ////SM OVC003 M25/M27 A2982,CWUW,2021-01-18T03:00:00Z,68.62,-71.12,-25.0,-27.0,190,8,,,29.819881,,,TRUE,,,,,,,,OVC,300,,,,,,,,,,,,,,,,,,,METAR,173.0
CWUS 180300Z AUTO 28005KT 02/M01 RMK AO1 SLP307 T00241007 51019,CWUS,2021-01-18T03:00:00Z,49.57,-119.65,2.4,-0.7,280,5,,,,1030.7,,TRUE,TRUE,,,,,,,,,,,,,,,,1.9,,,,,,,,,,,METAR,455.0
CWTY 180300Z AUTO 23010KT M02/M03 RMK AO1 SLP964 T10191030 53015,CWTY,2021-01-18T03:00:00Z,46.35,-72.52,-1.9,-3.0,230,10,,,,996.4,,TRUE,TRUE,,,,,,,,,,,,,,,,1.5,,,,,,,,,,,METAR,8.0
CWTT 180300Z AUTO 27018G23KT M03/M06 RMK AO1 PK WND 27026/0231 T10331056,CWTT,2021-01-18T03:00:00Z,45.27,-72.17,-3.3,-5.6,270,18,23,,,,,TRUE,TRUE,,,,,,,,,,,,,,,,,,,,,,,,,,,METAR,210.0
CWTN 180300Z AUTO 28005KT M01/M03 RMK AO1 SLP919 T10061031 53013,CWTN,2021-01-18T03:00:00Z,47.07,-70.78,-0.6,-3.1,280,5,,,,991.9,,TRUE,TRUE,,,,,,,,,,,,,,,,1.3,,,,,,,,,,,METAR,5.0
CWTG 180300Z AUTO 26019KT M01/M01 RMK AO1 1PAST HR 1004 PK WND 26023/0254 SLP809 P0000 T10101010 50008,CWTG,2021-01-18T03:00:00Z,49.32,-67.37,-1.0,-1.0,260,19,,,,980.9,,TRUE,TRUE,,,,,,,,,,,,,,,,0.8,,,,,0.005,,,,,,METAR,6.0
CWTA 180300Z AUTO 21004KT M05/M07 RMK AO1 SOG 35 1013 SLP997 T10471072,CWTA,2021-01-18T03:00:00Z,45.5,-73.58,-4.7,-7.2,210,4,,,,999.7,,TRUE,TRUE,,,,,,,,,,,,,,,,,,,,,,,,,,,METAR,71.0
CWST 180300Z AUTO 23015G20KT M01/M03 RMK AO1 SOG 09 3018 PK WND 23020/0259 SLP900 T10071027,CWST,2021-01-18T03:00:00Z,47.35,-70.02,-0.7,-2.7,230,15,20,,,990.0,,TRUE,TRUE,,,,,,,,,,,,,,,,,,,,,,,,,,,METAR,31.0
CWSS 180300Z AUTO 25008KT 02/M04 RMK AO1 SOG 02 1029 SLP940 T00211040,CWSS,2021-01-18T03:00:00Z,45.2,-67.25,2.1,-4.0,250,8,,,,994.0,,TRUE,TRUE,,,,,,,,,,,,,,,,,,,,,,,,,,,METAR,27.0
CWSR 180300Z AUTO 12003KT M06/M07 RMK AO1 SOG 11 3021 SLP119 T10591073 50007,CWSR,2021-01-18T03:00:00Z,53.37,-107.55,-5.9,-7.3,120,3,,,,1011.9,,TRUE,TRUE,,,,,,,,,,,,,,,,0.7,,,,,,,,,,,METAR,589.0
CWSP 180300Z AUTO 30006KT 08/06 RMK AO1 SLP347 T00840055 53017,CWSP,2021-01-18T03:00:00Z,48.38,-123.92,8.4,5.5,300,6,,,,1034.7,,TRUE,TRUE,,,,,,,,,,,,,,,,1.7,,,,,,,,,,,METAR,2.0
CWSL 180300Z AUTO 14001KT M01/M02 RMK AO1 SOG 03 1015 SLP304 T10131018,CWSL,2021-01-18T03:00:00Z,50.7,-119.28,-1.3,-1.8,140,1,,,,1030.4,,TRUE,TRUE,,,,,,,,,,,,,,,,,,,,,,,,,,,METAR,353.0
CWSK 180300Z AUTO 35001KT 05/05 RMK AO1 SLP339 T00530050 53015,CWSK,2021-01-18T03:00:00Z,49.78,-123.17,5.3,5.0,350,1,,,,1033.9,,TRUE,TRUE,,,,,,,,,,,,,,,,1.5,,,,,,,,,,,METAR,59.0
CWSG 180300Z AUTO 25023KT M01/M01 RMK AO1 2PAST HR 1010 PK WND 24028/0244 SLP808 P0001 T10091012 50009,CWSG,2021-01-18T03:00:00Z,49.12,-66.65,-0.9,-1.2,250,23,,,,980.8,,TRUE,TRUE,,,,,,,,,,,,,,,,0.9,,,,,0.01,,,,,,METAR,5.0
CWSF 180300Z AUTO 16005KT M01/M01 RMK AO1 SOG 19 1017 SLP791 T10071009 50005,CWSF,2021-01-18T03:00:00Z,49.25,-65.32,-0.7,-0.9,160,5,,,,979.1,,TRUE,TRUE,,,,,,,,,,,,,,,,0.5,,,,,,,,,,,METAR,15.0
CWSD 180300Z AUTO 23019G26KT 02/M02 RMK AO1 PK WND 23026/0219 SLP891 T00161019 53027,CWSD,2021-01-18T03:00:00Z,46.43,-63.85,1.6,-1.9,230,19,26,,,989.1,,TRUE,TRUE,,,,,,,,,,,,,,,,2.7,,,,,,,,,,,METAR,12.0
CWRZ 180300Z AUTO 24015G20KT M00/M00 RMK AO1 PK WND 23023/0203 SLP802 T10021004 53016,CWRZ,2021-01-18T03:00:00Z,48.42,-64.32,-0.2,-0.4,240,15,20,,,980.2,,TRUE,TRUE,,,,,,,,,,,,,,,,1.6,,,,,,,,,,,METAR,16.0
CWRY 180300Z AUTO 28012KT 02/M05 RMK AO1 PK WND 29018/0209 SLP157 T00211051 51001,CWRY,2021-01-18T03:00:00Z,49.12,-112.05,2.1,-5.1,280,12,,,,1015.7,,TRUE,TRUE,,,,,,,,,,,,,,,,0.1,,,,,,,,,,,METAR,1048.0
CWRX 180300Z AUTO VRB05KT ////SM //// OVC016 M20/M22 A2998,CWRX,2021-01-18T03:00:00Z,69.07,-79.07,-20.0,-22.0,0,5,,,29.97933,,,TRUE,,,,,,,,OVC,1600,,,,,,,,,,,,,,,,,,,METAR,39.0
CWRT 180300Z AUTO 30007KT 02/M07 RMK AO1 T00161066,CWRT,2021-01-18T03:00:00Z,49.62,-114.47,1.6,-6.6,300,7,,,,,,TRUE,TRUE,,,,,,,,,,,,,,,,,,,,,,,,,,,METAR,1311.0
CWRO 180300Z AUTO 18012KT 06/06 RMK AO1 SLP307 T00630063 53013,CWRO,2021-01-18T03:00:00Z,54.17,-131.67,6.3,6.3,180,12,,,,1030.7,,TRUE,TRUE,,,,,,,,,,,,,,,,1.3,,,,,,,,,,,METAR,7.0
CWRN 180300Z AUTO 22017G23KT 04/02 RMK AO1 PK WND 23035/0240 SLP945 T00390017 53019,CWRN,2021-01-18T03:00:00Z,45.35,-60.98,3.9,1.7,220,17,23,,,994.5,,TRUE,TRUE,,,,,,,,,,,,,,,,1.9,,,,,,,,,,,METAR,8.0
CWRM 180300Z AUTO 33008KT 01/01 RMK AO1 SOG 10 1028 SLP199 T00090005,CWRM,2021-01-18T03:00:00Z,52.42,-114.92,0.9,0.5,330,8,,,,1019.9,,TRUE,TRUE,,,,,,,,,,,,,,,,,,,,,,,,,,,METAR,986.0
CWRK 180300Z AUTO 33004KT M06/M08 RMK AO1 SOG 30 1004 SLP035 T10621080,CWRK,2021-01-18T03:00:00Z,45.07,-77.87,-6.2,-8.0,330,4,,,,1003.5,,TRUE,TRUE,,,,,,,,,,,,,,,,,,,,,,,,,,,METAR,328.0
CWRJ 180300Z AUTO 29007KT M02/M03 RMK AO1 SOG 16 6002 SLP109 T10161030 50005,CWRJ,2021-01-18T03:00:00Z,51.57,-107.92,-1.6,-3.0,290,7,,,,1010.9,,TRUE,TRUE,,,,,,,,,,,,,,,,0.5,,,,,,,,,,,METAR,586.0
CWRA 180300Z AUTO 24011KT 01/ RMK AO1 SLP001 T0010 51021,CWRA,2021-01-18T03:00:00Z,46.65,-53.07,1.0,,240,11,,,,1000.1,,TRUE,TRUE,,,,,,,,,,,,,,,,2.1,,,,,,,,,,,METAR,4.0
CWQV 180300Z AUTO 28021G28KT RMK AO1 PK WND 28028/0257,CWQV,2021-01-18T03:00:00Z,48.27,-70.12,,,280,21,28,,,,,TRUE,TRUE,,,,,,,,,,,,,,,,,,,,,,,,,,,METAR,4.0
CWQS 180300Z AUTO 21011KT 08/08 RMK AO1 SLP323 T00800075 51027,CWQS,2021-01-18T03:00:00Z,53.32,-132.77,8.0,7.5,210,11,,,,1032.3,,TRUE,TRUE,,,,,,,,,,,,,,,,2.7,,,,,,,,,,,METAR,10.0
CWQR 180300Z AUTO 10020KT 01/ RMK AO1 PK WND 10026/0206 T0011,CWQR,2021-01-18T03:00:00Z,50.22,-64.22,1.1,,100,20,,,,,,TRUE,TRUE,,,,,,,,,,,,,,,,,,,,,,,,,,,METAR,9.0
CWQP 180300Z AUTO 31010KT M01/M05 RMK AO1 SLP036 T10111049 50000,CWQP,2021-01-18T03:00:00Z,43.83,-77.15,-1.1,-4.9,310,10,,,,1003.6,,TRUE,TRUE,,,,,,,,,,,,,,,,0.0,,,,,,,,,,,METAR,77.0
CWQO 180300Z AUTO 24020KT M00/M00 RMK AO1 PK WND 24025/0249 T10021003,CWQO,2021-01-18T03:00:00Z,48.42,-68.9,-0.2,-0.3,240,20,,,,,,TRUE,TRUE,,,,,,,,,,,,,,,,,,,,,,,,,,,METAR,7.0
CWQK 180300Z AUTO 28012KT 09/ RMK AO1 PK WND 28017/0227 SLP341 T0086 52015,CWQK,2021-01-18T03:00:00Z,48.3,-123.53,8.6,,280,12,,,,1034.1,,TRUE,TRUE,,,,,,,,,,,,,,,,1.5,,,,,,,,,,,METAR,5.0
CWQH 180300Z AUTO 26011G17KT M03/M06 RMK AO1 SOG 24 1015 PK WND 28017/0253 SLP985 T10321059,CWQH,2021-01-18T03:00:00Z,45.37,-71.82,-3.2,-5.9,260,11,17,,,998.5,,TRUE,TRUE,,,,,,,,,,,,,,,,,,,,,,,,,,,METAR,181.0
CWPZ 180300Z AUTO 00000KT M04/M05 RMK AO1 SOG 42 1030 SLP309 T10411051,CWPZ,2021-01-18T03:00:00Z,54.38,-125.97,-4.1,-5.1,0,0,,,,1030.9,,TRUE,TRUE,,,,,,,,,,,,,,,,,,,,,,,,,,,METAR,715.0
CWPX 180300Z AUTO 36010KT ////SM //// OVC013 ///// A////,CWPX,2021-01-18T03:00:00Z,69.03,-107.82,,,360,10,,,,,,TRUE,,,,,,,,OVC,1300,,,,,,,,,,,,,,,,,,,METAR,163.0
CWPR 180300Z AUTO 26004KT M02/M04 RMK AO1 SOG 26 1015 SLP309 T10171037,CWPR,2021-01-18T03:00:00Z,49.47,-120.52,-1.7,-3.7,260,4,,,,1030.9,,TRUE,TRUE,,,,,,,,,,,,,,,,,,,,,,,,,,,METAR,703.0
CWPO 180300Z AUTO 09004KT M11/M12 RMK AO1 SOG 10 8004 SLP136 T11081115,CWPO,2021-01-18T03:00:00Z,49.2,-98.9,-10.8,-11.5,90,4,,,,1013.6,,TRUE,TRUE,,,,,,,,,,,,,,,,,,,,,,,,,,,METAR,471.0
CWPK 180300Z AUTO 28008KT M10/M11 RMK AO1 2PAST HR SOG 51 1009 SLP978 P0001 T11021114 50002,CWPK,2021-01-18T03:00:00Z,47.92,-74.62,-10.2,-11.4,280,8,,,,997.8,,TRUE,TRUE,,,,,,,,,,,,,,,,0.2,,,,,0.01,,,,,,METAR,443.0
CWPE 180300Z AUTO 26010G18KT 03/M03 RMK AO1 PK WND 26022/0214 SLP940 T00251029 52030,CWPE,2021-01-18T03:00:00Z,45.07,-66.47,2.5,-2.9,260,10,18,,,994.0,,TRUE,TRUE,,,,,,,,,,,,,,,,3.0,,,,,,,,,,,METAR,9.0
CWPD 180300Z AUTO 02004KT M06/M08 RMK AO1 PK WND 00020/0240 SLP896 T10551084 53009,CWPD,2021-01-18T03:00:00Z,47.57,-71.22,-5.5,-8.4,20,4,,,,989.6,,TRUE,TRUE,,,,,,,,,,,,,,,,0.9,,,,,,,,,,,METAR,795.0
CWPC 180300Z AUTO 28012KT 01/M00 RMK AO1 PK WND 27020/0201 SLP046 T00111003 58001,CWPC,2021-01-18T03:00:00Z,42.87,-79.25,1.1,-0.3,280,12,,,,1004.6,,TRUE,TRUE,,,,,,,,,,,,,,,,-0.1,,,,,,,,,,,METAR,174.0
CWOY 180300Z AUTO 09003KT M08/M10 RMK AO1 SOG 05 1004 SLP120 T10821096,CWOY,2021-01-18T03:00:00Z,51.77,-104.2,-8.2,-9.6,90,3,,,,1012.0,,TRUE,TRUE,,,,,,,,,,,,,,,,,,,,,,,,,,,METAR,557.0
CWOD 180300Z AUTO 29020G26KT M06/M09 RMK AO1 SOG 27 3021 PK WND 29029/0240 SLP917 T10631091,CWOD,2021-01-18T03:00:00Z,48.85,-72.55,-6.3,-9.1,290,20,26,,,991.7,,TRUE,TRUE,,,,,,,,,,,,,,,,,,,,,,,,,,,METAR,150.0
CWOC 180300Z AUTO 26010G17KT M01/M01 RMK AO1 3033 PK WND 27023/0205 SLP828 T10081011 50001,CWOC,2021-01-18T03:00:00Z,48.02,-65.32,-0.8,-1.1,260,10,17,,,982.8,,TRUE,TRUE,,,,,,,,,,,,,,,,0.1,,,,,,,,,,,METAR,42.0
CWOB 180300Z AUTO 05020KT ////SM OVC003 M19/M21 A2989,CWOB,2021-01-18T03:00:00Z,63.33,-64.15,-19.0,-21.0,50,20,,,29.890747,,,TRUE,,,,,,,,OVC,300,,,,,,,,,,,,,,,,,,,METAR,369.0
CWNZ 180300Z AUTO 01003KT M23/M26 RMK AO1 SOG 42 0003 SLP115 T12311256,CWNZ,2021-01-18T03:00:00Z,49.75,-84.17,-23.1,-25.6,10,3,,,,1011.5,,TRUE,TRUE,,,,,,,,,,,,,,,,,,,,,,,,,,,METAR,261.0
CWNQ 180300Z AUTO 25015G20KT M02/M05 RMK AO1 PK WND 25020/0255 SLP973 T10201050 53015,CWNQ,2021-01-18T03:00:00Z,46.22,-72.65,-2.0,-5.0,250,15,20,,,997.3,,TRUE,TRUE,,,,,,,,,,,,,,,,1.5,,,,,,,,,,,METAR,9.0
CWNP 180300Z AUTO 11003KT 00/M01 RMK AO1 SOG 11 1008 SLP282 T00001006,CWNP,2021-01-18T03:00:00Z,50.27,-117.82,0.0,-0.6,110,3,,,,1028.2,,TRUE,TRUE,,,,,,,,,,,,,,,,,,,,,,,,,,,METAR,517.0
CWNM 180300Z AUTO 27007KT 01/M00 RMK AO1 SLP282 T00051003 53007,CWNM,2021-01-18T03:00:00Z,49.5,-117.3,0.5,-0.3,270,7,,,,1028.2,,TRUE,TRUE,,,,,,,,,,,,,,,,0.7,,,,,,,,,,,METAR,533.0
CWNK 180300Z AUTO 00035KT M12/M14 RMK AO1 T11211142,CWNK,2021-01-18T03:00:00Z,49.5,-98.03,-12.1,-14.2,0,35,,,,,,TRUE,TRUE,,,,,,,,,,,,,,,,,,,,,,,,,,,METAR,271.0
CWNH 180300Z AUTO 25005KT M02/M04 RMK AO1 SOG 16 1017 PK WND 25017/0226 SLP891 T10151035,CWNH,2021-01-18T03:00:00Z,47.8,-69.53,-1.5,-3.5,250,5,,,,989.1,,TRUE,TRUE,,,,,,,,,,,,,,,,,,,,,,,,,,,METAR,147.0
CWNE 180300Z AUTO 21026G31KT 01/M01 RMK AO1 PK WND 21033/0203 SLP859 T00081006 53032,CWNE,2021-01-18T03:00:00Z,47.07,-64.0,0.8,-0.6,210,26,31,,,985.9,,TRUE,TRUE,,,,,,,,,,,,,,,,3.2,,,,,,,,,,,METAR,5.0
CWND 180300Z AUTO 10014KT M20/M22 RMK AO1 PK WND 10017/0206 SLP120 T11981218 50000,CWND,2021-01-18T03:00:00Z,69.63,-135.43,-19.8,-21.8,100,14,,,,1012.0,,TRUE,TRUE,,,,,,,,,,,,,,,,0.0,,,,,,,,,,,METAR,14.0
CWNC 180300Z AUTO 33007KT M02/M06 RMK AO1 SOG 01 3008 SLP034 T10211057,CWNC,2021-01-18T03:00:00Z,43.95,-78.17,-2.1,-5.7,330,7,,,,1003.4,,TRUE,TRUE,,,,,,,,,,,,,,,,,,,,,,,,,,,METAR,71.0
CWMT 180300Z AUTO 00000KT M16/M18 RMK AO1 SOG 36 3015 SLP157 T11621181,CWMT,2021-01-18T03:00:00Z,63.13,-117.25,-16.2,-18.1,0,0,,,,1015.7,,TRUE,TRUE,,,,,,,,,,,,,,,,,,,,,,,,,,,SPECI,274.0
CWMQ 180300Z AUTO 28011G18KT 02/M03 RMK AO1 PK WND 28018/0259 SLP148 T00221031 53008,CWMQ,2021-01-18T03:00:00Z,49.9,-109.47,2.2,-3.1,280,11,18,,,1014.8,,TRUE,TRUE,,,,,,,,,,,,,,,,0.8,,,,,,,,,,,METAR,767.0
CWMM 180300Z AUTO 01001KT 06/06 RMK AO1 SLP341 T00620055 53013,CWMM,2021-01-18T03:00:00Z,49.22,-122.68,6.2,5.5,10,1,,,,1034.1,,TRUE,TRUE,,,,,,,,,,,,,,,,1.3,,,,,,,,,,,METAR,2.0
CWMJ 180300Z AUTO 29005KT M07/M09 RMK AO1 SOG 31 1010 SLP017 T10711088,CWMJ,2021-01-18T03:00:00Z,46.27,-76.0,-7.1,-8.8,290,5,,,,1001.7,,TRUE,TRUE,,,,,,,,,,,,,,,,,,,,,,,,,,,METAR,198.0
CWME 180300Z AUTO 18004KT 07/05 RMK AO1 SLP359 T00670050 51020,CWME,2021-01-18T03:00:00Z,52.18,-127.47,6.7,5.0,180,4,,,,1035.9,,TRUE,TRUE,,,,,,,,,,,,,,,,2.0,,,,,,,,,,,METAR,23.0
CWLY 180300Z AUTO VRB03KT 9SM CLR 04/00 A3042 RMK SLP310,CWLY,2021-01-18T03:00:00Z,50.22,-121.58,4.0,0.0,0,3,,9.0,30.41929,1031.0,,TRUE,,,,,,,,CLR,,,,,,,,VFR,,,,,,,,,,,,METAR,228.0
CWLS 180300Z AUTO 33003KT M03/M05 RMK AO1 SOG 11 1002 SLP050 T10251051 50001,CWLS,2021-01-18T03:00:00Z,43.97,-80.75,-2.5,-5.1,330,3,,,,1005.0,,TRUE,TRUE,,,,,,,,,,,,,,,,0.1,,,,,,,,,,,METAR,413.0
CWLP 180300Z AUTO 25004KT 08/ RMK AO1 SLP356 T0076 51016,CWLP,2021-01-18T03:00:00Z,50.93,-127.63,7.6,,250,4,,,,1035.6,,TRUE,TRUE,,,,,,,,,,,,,,,,1.6,,,,,,,,,,,METAR,15.0
CWLM 180300Z AUTO 34004KT 07/06 RMK AO1 SLP342 T00680056 53011,CWLM,2021-01-18T03:00:00Z,48.42,-123.32,6.8,5.6,340,4,,,,1034.2,,TRUE,TRUE,,,,,,,,,,,,,,,,1.1,,,,,,,,,,,METAR,62.0
CWLI 180300Z AUTO 07008KT ////SM //// OVC003 ///// A////,CWLI,2021-01-18T03:00:00Z,69.6,-130.9,,,70,8,,,,,,TRUE,,,,,,,,OVC,300,,,,,,,,,,,,,,,,,,,METAR,92.0
CWLE 180300Z AUTO 24011KT M02/ RMK AO1 2PAST HR SOG 10 8007 SLP112 P0001 T1018 50002,CWLE,2021-01-18T03:00:00Z,50.95,-107.15,-1.8,,240,11,,,,1011.2,,TRUE,TRUE,,,,,,,,,,,,,,,,0.2,,,,,0.01,,,,,,METAR,666.0
CWLC 180300Z AUTO 12016KT 06/04 RMK AO1 PK WND 12019/0259 T00600044,CWLC,2021-01-18T03:00:00Z,54.3,-130.62,6.0,4.4,120,16,,,,,,TRUE,TRUE,,,,,,,,,,,,,,,,,,,,,,,,,,,METAR,27.0
CWLB 180300Z AUTO 34006KT M01/M03 RMK AO1 SOG 09 1035 SLP167 T10131030,CWLB,2021-01-18T03:00:00Z,54.77,-112.02,-1.3,-3.0,340,6,,,,1016.7,,TRUE,TRUE,,,,,,,,,,,,,,,,,,,,,,,,,,,METAR,561.0
CWKX 180300Z AUTO 27001KT M05/M06 RMK AO1 SOG 40 1027 SLP282 T10481055,CWKX,2021-01-18T03:00:00Z,58.43,-130.02,-4.8,-5.5,270,1,,,,1028.2,,TRUE,TRUE,,,,,,,,,,,,,,,,,,,,,,,,,,,METAR,807.0
CWKO 180300Z AUTO 30003KT M04/M07 RMK AO1 SLP128 T10421073 51004,CWKO,2021-01-18T03:00:00Z,49.17,-105.97,-4.2,-7.3,300,3,,,,1012.8,,TRUE,TRUE,,,,,,,,,,,,,,,,0.4,,,,,,,,,,,METAR,914.0
CWKK 180300Z AUTO 09008KT M10/M14 RMK AO1 SOG 18 8003 SLP079 T11011137,CWKK,2021-01-18T03:00:00Z,49.72,-88.33,-10.1,-13.7,90,8,,,,1007.9,,TRUE,TRUE,,,,,,,,,,,,,,,,,,,,,,,,,,,METAR,259.0
CWKH 180300Z AUTO 05/ RMK AO1 SLP333 T0050 53014,CWKH,2021-01-18T03:00:00Z,48.57,-123.55,5.0,,,,,,,1033.3,,TRUE,TRUE,,,,,,,,,,,,,,,,1.4,,,,,,,,,,,METAR,327.0
CWKG 180300Z AUTO 25006G15KT 01/00 RMK AO1 SLP951 T00080000 53024,CWKG,2021-01-18T03:00:00Z,44.43,-65.2,0.8,0.0,250,6,15,,,995.1,,TRUE,TRUE,,,,,,,,,,,,,,,,2.4,,,,,,,,,,,METAR,154.0
CWJX 180300Z AUTO 31015G21KT 01/M03 RMK AO1 SOG 11 1011 PK WND 32022/0232 SLP132 T00051033,CWJX,2021-01-18T03:00:00Z,50.88,-109.5,0.5,-3.3,310,15,21,,,1013.2,,TRUE,TRUE,,,,,,,,,,,,,,,,,,,,,,,,,,,METAR,671.0
CWJW 180300Z AUTO 15004KT M00/M04 RMK AO1 SOG 15 3019 SLP231 T10021042,CWJW,2021-01-18T03:00:00Z,52.93,-118.03,-0.2,-4.2,150,4,,,,1023.1,,TRUE,TRUE,,,,,,,,,,,,,,,,,,,,,,,,,,,METAR,1022.0
CWJV 180300Z AUTO 31002KT M00/M01 RMK AO1 SLP297 T10041013 51014,CWJV,2021-01-18T03:00:00Z,50.22,-119.18,-0.4,-1.3,310,2,,,,1029.7,,TRUE,TRUE,,,,,,,,,,,,,,,,1.4,,,,,,,,,,,METAR,487.0
CWJT 180300Z AUTO 27002KT M06/M07 RMK AO1 SLP004 T10591067 51014,CWJT,2021-01-18T03:00:00Z,46.07,-74.57,-5.9,-6.7,270,2,,,,1000.4,,TRUE,TRUE,,,,,,,,,,,,,,,,1.4,,,,,,,,,,,METAR,236.0
CWJR 180300Z AUTO 11002KT M01/M01 RMK AO1 SLP281 T10051011 53008,CWJR,2021-01-18T03:00:00Z,49.03,-116.5,-0.5,-1.1,110,2,,,,1028.1,,TRUE,TRUE,,,,,,,,,,,,,,,,0.8,,,,,,,,,,,METAR,642.0
CWJI 180300Z AUTO 26006KT M03/M04 RMK AO1 2PAST HR 1002 SLP121 P0001 T10261038 50007,CWJI,2021-01-18T03:00:00Z,49.72,-105.93,-2.6,-3.8,260,6,,,,1012.1,,TRUE,TRUE,,,,,,,,,,,,,,,,0.7,,,,,0.01,,,,,,METAR,724.0
CWJH 180300Z AUTO 17001KT M20/M23 RMK AO1 SOG 52 1008 SLP198 T11961226,CWJH,2021-01-18T03:00:00Z,56.32,-103.27,-19.6,-22.6,170,1,,,,1019.8,,TRUE,TRUE,,,,,,,,,,,,,,,,,,,,,,,,,,,METAR,345.0
CWJD 180300Z AUTO 05008KT M19/M22 RMK AO1 SOG 31 1010 SLP189 T11941220,CWJD,2021-01-18T03:00:00Z,53.18,-99.27,-19.4,-22.0,50,8,,,,1018.9,,TRUE,TRUE,,,,,,,,,,,,,,,,,,,,,,,,,,,METAR,222.0
CWJC 180300Z AUTO 15002KT M25/M27 RMK AO1 SOG 08 5002 SLP193 T12451273,CWJC,2021-01-18T03:00:00Z,61.13,-100.9,-24.5,-27.3,150,2,,,,1019.3,,TRUE,TRUE,,,,,,,,,,,,,,,,,,,,,,,,,,,METAR,340.0
CWJB 180300Z AUTO 22010G16KT M01/ RMK AO1 SOG 34 PK WND 22020/0223 T1011,CWJB,2021-01-18T03:00:00Z,46.78,-71.28,-1.1,,220,10,16,,,,,TRUE,TRUE,,,,,,,,,,,,,,,,,,,,,,,,,,,METAR,90.0
CWIZ 180300Z AUTO 26009G15KT M04/M07 RMK AO1 SOG 23 PK WND 28018/0214 T10421067,CWIZ,2021-01-18T03:00:00Z,45.28,-73.33,-4.2,-6.7,260,9,15,,,,,TRUE,TRUE,,,,,,,,,,,,,,,,,,,,,,,,,,,METAR,45.0
CWIW 180300Z AUTO 00000KT M07/M08 RMK AO1 3PAST HR SOG 02 2003 SLP121 P0001 T10681079 50003,CWIW,2021-01-18T03:00:00Z,51.67,-105.4,-6.8,-7.9,0,0,,,,1012.1,,TRUE,TRUE,,,,,,,,,,,,,,,,0.3,,,,,0.01,,,,,,METAR,524.0
CWIT 180300Z AUTO 28008KT M04/M07 RMK AO1 SOG 19 3011 SLP004 T10401066,CWIT,2021-01-18T03:00:00Z,45.17,-73.67,-4.0,-6.6,280,8,,,,1000.4,,TRUE,TRUE,,,,,,,,,,,,,,,,,,,,,,,,,,,METAR,53.0
CWIS 180300Z AUTO 28004KT M06/M07 RMK AO1 SOG 47 3014 SLP896 T10561071,CWIS,2021-01-18T03:00:00Z,47.28,-70.63,-5.6,-7.1,280,4,,,,989.6,,TRUE,TRUE,,,,,,,,,,,,,,,,,,,,,,,,,,,METAR,720.0
CWIP 180300Z AUTO 05008KT M00/M01 RMK AO1 PK WND 06018/0200 T10041006,CWIP,2021-01-18T03:00:00Z,50.17,-66.43,-0.4,-0.6,50,8,,,,,,TRUE,TRUE,,,,,,,,,,,,,,,,,,,,,,,,,,,METAR,27.0
CWIL 180300Z AUTO 31013KT ////SM ////// M31/M34 A3015,CWIL,2021-01-18T03:00:00Z,68.32,-100.07,-31.0,-34.0,310,13,,,30.15059,,,TRUE,,,,,,,,,,,,,,,,,,,,,,,,,,,,METAR,28.0
CWIK 180300Z AUTO 13001KT M06/M07 RMK AO1 SOG 04 8001 SLP116 T10601070,CWIK,2021-01-18T03:00:00Z,50.37,-102.58,-6.0,-7.0,130,1,,,,1011.6,,TRUE,TRUE,,,,,,,,,,,,,,,,,,,,,,,,,,,SPECI,597.0
CWIJ 180300Z AUTO 00012KT M28/M31 RMK AO1 SOG 31 2010 SLP190 T12811310,CWIJ,2021-01-18T03:00:00Z,65.77,-111.23,-28.1,-31.0,0,12,,,,1019.0,,TRUE,TRUE,,,,,,,,,,,,,,,,,,,,,,,,,,,METAR,490.0
CWII 180300Z AUTO 34013KT M15/M18 RMK AO1 SLP150 T11531177 50001,CWII,2021-01-18T03:00:00Z,50.7,-96.57,-15.3,-17.7,340,13,,,,1015.0,,TRUE,TRUE,,,,,,,,,,,,,,,,0.1,,,,,,,,,,,METAR,216.0
CWIG 180300Z AUTO 22022G28KT RMK AO1 PK WND 23030/0207,CWIG,2021-01-18T03:00:00Z,47.07,-70.53,,,220,22,28,,,,,TRUE,TRUE,,,,,,,,,,,,,,,,,,,,,,,,,,,METAR,12.0
CWID 180300Z AUTO 27001KT M14/M16 RMK AO1 SLP149 T11431162 52011,CWID,2021-01-18T03:00:00Z,61.32,-117.6,-14.3,-16.2,270,1,,,,1014.9,,TRUE,TRUE,,,,,,,,,,,,,,,,1.1,,,,,,,,,,,METAR,160.0
CWHV 180300Z AUTO 26002KT M02/M04 RMK AO1 3016 SLP938 T10181041 50002,CWHV,2021-01-18T03:00:00Z,46.2,-70.78,-1.8,-4.1,260,2,,,,993.8,,TRUE,TRUE,,,,,,,,,,,,,,,,0.2,,,,,,,,,,,METAR,227.0
CWHT 180300Z AUTO 04005KT 00/M03 RMK AO1 SOG 64 3034 SLP179 T00001031 50019,CWHT,2021-01-18T03:00:00Z,60.77,-137.58,0.0,-3.1,40,5,,,,1017.9,,TRUE,TRUE,,,,,,,,,,,,,,,,1.9,,,,,,,,,,,METAR,601.0
CWHQ 180300Z AUTO 27006KT M02/M03 RMK AO1 T10241027,CWHQ,2021-01-18T03:00:00Z,46.68,-71.97,-2.4,-2.7,270,6,,,,,,TRUE,TRUE,,,,,,,,,,,,,,,,,,,,,,,,,,,METAR,56.0
CWHO 180300Z AUTO M01/M01 RMK AO1 37 0247Z 7047 SLP966 T10081014,CWHO,2021-01-18T03:00:00Z,55.45,-60.22,-0.8,-1.4,,,,,,996.6,,TRUE,TRUE,,,,,,,,,,,,,,,,,,,,,,,,,,,METAR,16.0
CWHN 180300Z AUTO 32006KT 280V010 9SM CLR M05/M07 A2985 RMK SLP153,CWHN,2021-01-18T03:00:00Z,54.9,-109.97,-5.0,-7.0,320,6,,9.0,29.84941,1015.3,,TRUE,,,,,,,,CLR,,,,,,,,VFR,,,,,,,,,,,,METAR,635.0
CWHI 180300Z AUTO 30021KT 02/M01 RMK AO1 PK WND 30026/0244 T00151006 50004,CWHI,2021-01-18T03:00:00Z,51.7,-113.22,1.5,-0.6,300,21,,,,,,TRUE,TRUE,,,,,,,,,,,,,,,,0.4,,,,,,,,,,,METAR,906.0
CWGY 180300Z AUTO 28016G21KT 01/M01 RMK AO1 PK WND 27021/0254 SLP136 T00061009 51014,CWGY,2021-01-18T03:00:00Z,51.67,-110.2,0.6,-0.9,280,16,21,,,1013.6,,TRUE,TRUE,,,,,,,,,,,,,,,,1.4,,,,,,,,,,,METAR,709.0
CWGX 180300Z AUTO 01006KT M21/M24 RMK AO1 SOG 42 6002 SLP210 T12141244,CWGX,2021-01-18T03:00:00Z,56.35,-94.7,-21.4,-24.4,10,6,,,,1021.0,,TRUE,TRUE,,,,,,,,,,,,,,,,,,,,,,,,,,,METAR,145.0
CWGW 180300Z AUTO 21005KT 02/M06 RMK AO1 SOG 23 2010 SLP217 T00191057,CWGW,2021-01-18T03:00:00Z,49.75,-114.9,1.9,-5.7,210,5,,,,1021.7,,TRUE,TRUE,,,,,,,,,,,,,,,,,,,,,,,,,,,METAR,1137.0
CWGT 180300Z AUTO 26009KT 08/06 RMK AO1 SLP341 T00790060 53015,CWGT,2021-01-18T03:00:00Z,49.48,-124.43,7.9,6.0,260,9,,,,1034.1,,TRUE,TRUE,,,,,,,,,,,,,,,,1.5,,,,,,,,,,,METAR,5.0
CWGR 180300Z AUTO 21017G25KT 01/M00 RMK AO1 PK WND 22027/0226 SLP875 T00121003 53017,CWGR,2021-01-18T03:00:00Z,47.42,-61.77,1.2,-0.3,210,17,25,,,987.5,,TRUE,TRUE,,,,,,,,,,,,,,,,1.7,,,,,,,,,,,METAR,4.0
CWGM 180300Z AUTO 24016G24KT 03/M09 RMK AO1 PK WND 22027/0224 T00251094,CWGM,2021-01-18T03:00:00Z,49.13,-113.8,2.5,-9.4,240,16,24,,,,,TRUE,TRUE,,,,,,,,,,,,,,,,,,,,,,,,,,,METAR,1292.0
CWGL 180300Z AUTO 35007KT M05/M07 RMK AO1 SLP027 T10491069 51001,CWGL,2021-01-18T03:00:00Z,44.53,-79.22,-4.9,-6.9,350,7,,,,1002.7,,TRUE,TRUE,,,,,,,,,,,,,,,,0.1,,,,,,,,,,,METAR,220.0
CWGH 180300Z AUTO 26003KT M01/M05 RMK AO1 SLP033 T10141052 51005,CWGH,2021-01-18T03:00:00Z,44.42,-75.85,-1.4,-5.2,260,3,,,,1003.3,,TRUE,TRUE,,,,,,,,,,,,,,,,0.5,,,,,,,,,,,METAR,76.0
CWGD 180300Z AUTO 04003KT M02/M03 RMK AO1 2PAST HR SOG 02 0000 SLP060 P0001 T10171029 50002,CWGD,2021-01-18T03:00:00Z,43.77,-81.72,-1.7,-2.9,40,3,,,,1006.0,,TRUE,TRUE,,,,,,,,,,,,,,,,0.2,,,,,0.01,,,,,,METAR,214.0
CWGB 180300Z AUTO 24012KT 07/ RMK AO1 SLP337 T0072 53012,CWGB,2021-01-18T03:00:00Z,49.35,-124.13,7.2,,240,12,,,,1033.7,,TRUE,TRUE,,,,,,,,,,,,,,,,1.2,,,,,,,,,,,METAR,6.0
CWFQ 180300Z AUTO 27004KT M04/M06 RMK AO1 SOG 22 1016 SLP001 T10441064,CWFQ,2021-01-18T03:00:00Z,45.03,-72.85,-4.4,-6.4,270,4,,,,1000.1,,TRUE,TRUE,,,,,,,,,,,,,,,,,,,,,,,,,,,METAR,190.0
CWFJ 180300Z AUTO 28012G20KT 03/M10 RMK AO1 PK WND 27024/0215 T00261095,CWFJ,2021-01-18T03:00:00Z,49.2,-113.27,2.6,-9.5,280,12,20,,,,,TRUE,TRUE,,,,,,,,,,,,,,,,,,,,,,,,,,,METAR,1142.0
CWFF 180300Z AUTO 06009KT M15/M16 RMK AO1 SOG 31 2011 SLP136 T11461164,CWFF,2021-01-18T03:00:00Z,52.82,-104.6,-14.6,-16.4,60,9,,,,1013.6,,TRUE,TRUE,,,,,,,,,,,,,,,,,,,,,,,,,,,METAR,482.0
CWFD 180300Z AUTO VRB02KT ////SM NCD M18/M20 A2973,CWFD,2021-01-18T03:00:00Z,66.57,-61.58,-18.0,-20.0,0,2,,,29.731298,,,TRUE,,,,,,,,CLR,,,,,,,,,,,,,,,,,,,,METAR,375.0
CWEZ 180300Z AUTO 25005KT 07/06 RMK AO1 SLP336 T00660055 53010,CWEZ,2021-01-18T03:00:00Z,48.78,-123.05,6.6,5.5,250,5,,,,1033.6,,TRUE,TRUE,,,,,,,,,,,,,,,,1.0,,,,,,,,,,,METAR,23.0
CWEW 180300Z AUTO 26009G15KT M03/M06 RMK AO1 SOG 31 1014 SLP997 T10291063,CWEW,2021-01-18T03:00:00Z,45.82,-73.43,-2.9,-6.3,260,9,15,,,999.7,,TRUE,TRUE,,,,,,,,,,,,,,,,,,,,,,,,,,,METAR,17.0
CWEU 180300Z 15004KT 15SM -SN OVC098 M26/M29 A3008 RMK AC8 LAST STFD OBS/NEXT 180600Z SLP204,CWEU,2021-01-18T03:00:00Z,80.0,-85.93,-26.0,-29.0,150,4,,15.0,30.079725,1020.4,,,,,,,,,-SN,OVC,9800,,,,,,,VFR,,,,,,,,,,,,METAR,2.0
CWER 180300Z AUTO 24016G22KT RMK AO1 PK WND 23024/0229,CWER,2021-01-18T03:00:00Z,47.0,-70.82,,,240,16,22,,,,,TRUE,TRUE,,,,,,,,,,,,,,,,,,,,,,,,,,,METAR,4.0
CWEQ 180300Z AUTO 04010KT M15/M17 RMK AO1 1PAST HR SOG 04 1004 SLP162 P0000 T11521174 50002,CWEQ,2021-01-18T03:00:00Z,52.12,-101.22,-15.2,-17.4,40,10,,,,1016.2,,TRUE,TRUE,,,,,,,,,,,,,,,,0.2,,,,,0.005,,,,,,METAR,331.0
CWEL 180300Z AUTO 30013KT 08/05 RMK AO1 SLP339 T00810047 53011,CWEL,2021-01-18T03:00:00Z,49.22,-123.8,8.1,4.7,300,13,,,,1033.9,,TRUE,TRUE,,,,,,,,,,,,,,,,1.1,,,,,,,,,,,METAR,0.0
CWEH 180300Z AUTO 27013G18KT M02/M05 RMK AO1 SOG 17 1008 PK WND 29023/0245 SLP131 T10181050,CWEH,2021-01-18T03:00:00Z,49.43,-108.98,-1.8,-5.0,270,13,18,,,1013.1,,TRUE,TRUE,,,,,,,,,,,,,,,,,,,,,,,,,,,METAR,1077.0
CWEB 180300Z AUTO 34016KT 07/06 RMK AO1 PK WND 33023/0217 SLP351 T00740064 51014,CWEB,2021-01-18T03:00:00Z,49.38,-126.55,7.4,6.4,340,16,,,,1035.1,,TRUE,TRUE,,,,,,,,,,,,,,,,1.4,,,,,,,,,,,METAR,1.0
CWDZ 180300Z AUTO 32011G17KT 02/M00 RMK AO1 PK WND 31020/0201 SLP174 T00221003 51021,CWDZ,2021-01-18T03:00:00Z,51.43,-112.67,2.2,-0.3,320,11,17,,,1017.4,,TRUE,TRUE,,,,,,,,,,,,,,,,2.1,,,,,,,,,,,METAR,689.0
CWDV 180300Z AUTO 00000KT M10/M12 RMK AO1 SOG 33 8005 SLP090 T10951121 50001,CWDV,2021-01-18T03:00:00Z,49.02,-90.47,-9.5,-12.1,0,0,,,,1009.0,,TRUE,TRUE,,,,,,,,,,,,,,,,0.1,,,,,,,,,,,METAR,487.0
CWDQ 180300Z AUTO 30006KT M05/M07 RMK AO1 SOG 28 3015 SLP955 T10491071,CWDQ,2021-01-18T03:00:00Z,47.42,-72.78,-4.9,-7.1,300,6,,,,995.5,,TRUE,TRUE,,,,,,,,,,,,,,,,,,,,,,,,,,,METAR,174.0
CWDO 180300Z AUTO 18007KT 03/02 RMK AO1 3008 SLP941 T00280023 50007,CWDO,2021-01-18T03:00:00Z,49.68,-54.78,2.8,2.3,180,7,,,,994.1,,TRUE,TRUE,,,,,,,,,,,,,,,,0.7,,,,,,,,,,,METAR,89.0
CWDK 180300Z AUTO 28011KT 03/M10 RMK AO1 SLP167 T00331096 52011,CWDK,2021-01-18T03:00:00Z,50.02,-113.62,3.3,-9.6,280,11,,,,1016.7,,TRUE,TRUE,,,,,,,,,,,,,,,,1.1,,,,,,,,,,,METAR,1014.0
CWDJ 180300Z AUTO 32006KT M08/M10 RMK AO1 SOG 01 0004 SLP123 T10781102,CWDJ,2021-01-18T03:00:00Z,50.4,-104.58,-7.8,-10.2,320,6,,,,1012.3,,TRUE,TRUE,,,,,,,,,,,,,,,,,,,,,,,,,,,METAR,576.0
CWDC 180300Z AUTO M18/M20 RMK AO1 SOG 61 0002 SLP171 T11791204,CWDC,2021-01-18T03:00:00Z,59.57,-108.48,-17.9,-20.4,,,,,,1017.1,,TRUE,TRUE,,,,,,,,,,,,,,,,,,,,,,,,,,,METAR,311.0
CWCT 180300Z AUTO 32020G27KT 01/M00 RMK AO1 PK WND 32027/0251 SLP148 T00051004 53018,CWCT,2021-01-18T03:00:00Z,52.07,-111.43,0.5,-0.4,320,20,27,,,1014.8,,TRUE,TRUE,,,,,,,,,,,,,,,,1.8,,,,,,,,,,,METAR,793.0
CWCO 180300Z AUTO 36007KT M02/M05 RMK AO1 SLP048 T10211048 50002,CWCO,2021-01-18T03:00:00Z,44.5,-80.22,-2.1,-4.8,360,7,,,,1004.8,,TRUE,TRUE,,,,,,,,,,,,,,,,0.2,,,,,,,,,,,METAR,182.0
CWCJ 180300Z AUTO 05003KT M14/M18 RMK AO1 SOG 20 1010 SLP102 T11431184,CWCJ,2021-01-18T03:00:00Z,48.6,-86.28,-14.3,-18.4,50,3,,,,1010.2,,TRUE,TRUE,,,,,,,,,,,,,,,,,,,,,,,,,,,METAR,207.0
CWCF 180300Z AUTO 03004KT M19/M21 RMK AO1 SOG 31 3009 SLP166 T11871211,CWCF,2021-01-18T03:00:00Z,52.35,-97.03,-18.7,-21.1,30,4,,,,1016.6,,TRUE,TRUE,,,,,,,,,,,,,,,,,,,,,,,,,,,METAR,219.0
CWBZ 180300Z AUTO 27010G16KT M04/M07 RMK AO1 PK WND 26017/0221 SLP014 T10401072 51012,CWBZ,2021-01-18T03:00:00Z,45.12,-74.28,-4.0,-7.2,270,10,16,,,1001.4,,TRUE,TRUE,,,,,,,,,,,,,,,,1.2,,,,,,,,,,,METAR,49.0
CWBY 180300Z AUTO 13006KT 00/M00 RMK AO1 4PAST HR SOG 01 6003 SLP795 P0002 T00001002 50005,CWBY,2021-01-18T03:00:00Z,49.83,-64.28,0.0,-0.2,130,6,,,,979.5,,TRUE,TRUE,,,,,,,,,,,,,,,,0.5,,,,,0.02,,,,,,METAR,56.0
CWBV 180300Z AUTO 24030G35KT 04/01 RMK AO1 PK WND 23038/0213 T00440013,CWBV,2021-01-18T03:00:00Z,44.82,-62.33,4.4,1.3,240,30,35,,,,,TRUE,TRUE,,,,,,,,,,,,,,,,,,,,,,,,,,,METAR,16.0
CWBU 180300Z AUTO 04010KT M16/M18 RMK AO1 SOG 23 2012 SLP157 T11601175,CWBU,2021-01-18T03:00:00Z,53.33,-104.02,-16.0,-17.5,40,10,,,,1015.7,,TRUE,TRUE,,,,,,,,,,,,,,,,,,,,,,,,,,,SPECI,369.0
CWBT 180300Z AUTO 09006KT 01/01 RMK AO1 8008 SLP798 T00100006 50001,CWBT,2021-01-18T03:00:00Z,50.27,-64.23,1.0,0.6,90,6,,,,979.8,,TRUE,TRUE,,,,,,,,,,,,,,,,0.1,,,,,,,,,,,METAR,12.0
CWBS 180300Z AUTO 24022KT M02/M06 RMK AO1 PK WND 25024/0259 T10211055,CWBS,2021-01-18T03:00:00Z,46.18,-72.92,-2.1,-5.5,240,22,,,,,,TRUE,TRUE,,,,,,,,,,,,,,,,,,,,,,,,,,,METAR,3.0
CWBK 180300Z AUTO 22010G16KT 02/M00 RMK AO1 SLP915 T00151001 51022,CWBK,2021-01-18T03:00:00Z,45.77,-62.67,1.5,-0.1,220,10,16,,,991.5,,TRUE,TRUE,,,,,,,,,,,,,,,,2.2,,,,,,,,,,,METAR,2.0
CWBE 180300Z AUTO 04004KT M08/M11 RMK AO1 SLP066 T10761111 51006,CWBE,2021-01-18T03:00:00Z,45.98,-81.48,-7.6,-11.1,40,4,,,,1006.6,,TRUE,TRUE,,,,,,,,,,,,,,,,0.6,,,,,,,,,,,METAR,188.0
CWBA 180300Z AUTO 35008KT M09/M12 RMK AO1 SOG 33 T10941120,CWBA,2021-01-18T03:00:00Z,46.72,-79.1,-9.4,-12.0,350,8,,,,,,TRUE,TRUE,,,,,,,,,,,,,,,,,,,,,,,,,,,METAR,181.0
CWAV 180300Z AUTO 32004KT M00/M01 RMK AO1 SOG 11 3031 PK WND 01020/0207 SLP206 T10041010,CWAV,2021-01-18T03:00:00Z,51.77,-114.67,-0.4,-1.0,320,4,,,,1020.6,,TRUE,TRUE,,,,,,,,,,,,,,,,,,,,,,,,,,,METAR,1115.0
CWAQ 180300Z AUTO 30004KT M05/ RMK AO1 SLP119 T1049 50005,CWAQ,2021-01-18T03:00:00Z,49.05,-105.48,-4.9,,300,4,,,,1011.9,,TRUE,TRUE,,,,,,,,,,,,,,,,0.5,,,,,,,,,,,METAR,761.0
CWAJ 180300Z AUTO 24008KT 01/M00 RMK AO1 SLP048 T00081001 58003,CWAJ,2021-01-18T03:00:00Z,42.25,-81.9,0.8,-0.1,240,8,,,,1004.8,,TRUE,TRUE,,,,,,,,,,,,,,,,-0.3,,,,,,,,,,,METAR,177.0
CWAF 180300Z AUTO 27017KT 01/M03 RMK AO1 PK WND 28024/0231 T00061030,CWAF,2021-01-18T03:00:00Z,48.07,-69.55,0.6,-3.0,270,17,,,,,,TRUE,TRUE,,,,,,,,,,,,,,,,,,,,,,,,,,,METAR,6.0
CTNK 180300Z AUTO 28001KT M08/M09 RMK AO1 SOG 39 1007 SLP040 T10781093,CTNK,2021-01-18T03:00:00Z,45.53,-78.27,-7.8,-9.3,280,1,,,,1004.0,,TRUE,TRUE,,,,,,,,,,,,,,,,,,,,,,,,,,,METAR,405.0
CTCK 180300Z AUTO 26005KT M05/M07 RMK AO1 SOG 24 1012 SLP022 T10541069,CTCK,2021-01-18T03:00:00Z,45.25,-74.97,-5.4,-6.9,260,5,,,,1002.2,,TRUE,TRUE,,,,,,,,,,,,,,,,,,,,,,,,,,,METAR,84.0
CPXL 180300Z AUTO 27002KT 02/M03 RMK AO1 T00181031,CPXL,2021-01-18T03:00:00Z,49.87,-111.38,1.8,-3.1,270,2,,,,,,TRUE,TRUE,,,,,,,,,,,,,,,,,,,,,,,,,,,METAR,801.0
CPSV 180300Z AUTO 26010KT 02/M02 RMK AO1 T00201023,CPSV,2021-01-18T03:00:00Z,49.92,-110.92,2.0,-2.3,260,10,,,,,,TRUE,TRUE,,,,,,,,,,,,,,,,,,,,,,,,,,,METAR,766.0
CPST 180300Z AUTO 34012KT M00/M00 RMK AO1 PK WND 02024/0200 T10021001,CPST,2021-01-18T03:00:00Z,51.03,-113.28,-0.2,-0.1,340,12,,,,,,TRUE,TRUE,,,,,,,,,,,,,,,,,,,,,,,,,,,METAR,1005.0
CPRY 180300Z AUTO 27013KT 02/M06 RMK AO1 T00151056,CPRY,2021-01-18T03:00:00Z,49.48,-112.68,1.5,-5.6,270,13,,,,,,TRUE,TRUE,,,,,,,,,,,,,,,,,,,,,,,,,,,METAR,947.0
CPRO 180300Z AUTO 30017KT 02/01 RMK AO1 PK WND 33028/0203 T00150006,CPRO,2021-01-18T03:00:00Z,50.83,-112.05,1.5,0.6,300,17,,,,,,TRUE,TRUE,,,,,,,,,,,,,,,,,,,,,,,,,,,METAR,733.0
CPIR 180300Z AUTO 30014KT 02/M07 RMK AO1 PK WND 33018/0257 T00181073,CPIR,2021-01-18T03:00:00Z,49.9,-112.73,1.8,-7.3,300,14,,,,,,TRUE,TRUE,,,,,,,,,,,,,,,,,,,,,,,,,,,METAR,895.0
CPFI 180300Z AUTO 28008KT 03/M04 RMK AO1 T00261035,CPFI,2021-01-18T03:00:00Z,49.8,-112.03,2.6,-3.5,280,8,,,,,,TRUE,TRUE,,,,,,,,,,,,,,,,,,,,,,,,,,,METAR,804.0
CPEH 180300Z AUTO 33013KT 02/M05 RMK AO1 PK WND 33019/0255 T00201052,CPEH,2021-01-18T03:00:00Z,50.18,-112.43,2.0,-5.2,330,13,,,,,,TRUE,TRUE,,,,,,,,,,,,,,,,,,,,,,,,,,,METAR,814.0
CPBT 180300Z AUTO 29015KT 03/M07 RMK AO1 PK WND 29019/0259 T00301073,CPBT,2021-01-18T03:00:00Z,49.53,-113.05,3.0,-7.3,290,15,,,,,,TRUE,TRUE,,,,,,,,,,,,,,,,,,,,,,,,,,,METAR,998.0
CMGB 180300Z AUTO 24008KT M04/M05 RMK AO1 SOG 21 1016 SLP995 T10391053,CMGB,2021-01-18T03:00:00Z,45.37,-72.77,-3.9,-5.3,240,8,,,,999.5,,TRUE,TRUE,,,,,,,,,,,,,,,,,,,,,,,,,,,SPECI,87.0
CMFM 180300Z AUTO 28004KT M05/M08 RMK AO1 SOG 37 3010 SLP896 T10541075,CMFM,2021-01-18T03:00:00Z,47.32,-71.15,-5.4,-7.5,280,4,,,,989.6,,TRUE,TRUE,,,,,,,,,,,,,,,,,,,,,,,,,,,SPECI,663.0
CERM 180300Z AUTO 27005KT M01/M03 RMK AO1 SOG 23 3022 SLP880 T10101032 50003,CERM,2021-01-18T03:00:00Z,47.42,-68.32,-1.0,-3.2,270,5,,,,988.0,,TRUE,TRUE,,,,,,,,,,,,,,,,0.3,,,,,,,,,,,METAR,151.0
CBBC 180300Z AUTO /////KT 5SM BR FEW022 OVC065 07/06 A3058 RMK WND MISG SLP356,CBBC,2021-01-18T03:00:00Z,52.18,-128.15,7.0,6.0,,,,5.0,30.578741,1035.6,,TRUE,,,,,,,BR,FEW,2200,OVC,6500,,,,,MVFR,,,,,,,,,,,,METAR,36.0
CAHR 180300Z AUTO 23014G26KT 02/M03 RMK AO1 SOG 04 1024 PK WND 25026/0252 SLP892 T00201028,CAHR,2021-01-18T03:00:00Z,46.35,-63.17,2.0,-2.8,230,14,26,,,989.2,,TRUE,TRUE,,,,,,,,,,,,,,,,,,,,,,,,,,,METAR,52.0
BKPR 180300Z VRB03KT 9999 SCT030 BKN050 M06/M10 Q1019 NOSIG RMK 17190095,BKPR,2021-01-18T03:00:00Z,42.58,21.03,-6.0,-10.0,0,3,,6.21,30.088583,,,,,,TRUE,,,,,SCT,3000,BKN,5000,,,,,VFR,,,,,,,,,,,,METAR,545.0
BIRK 180300Z 31005KT 9999 VCSH FEW015 SCT020 OVC044 01/M00 Q1001,BIRK,2021-01-18T03:00:00Z,64.13,-21.93,1.0,0.0,310,5,,6.21,29.557087,,,,,,,,,,VCSH,FEW,1500,SCT,2000,OVC,4400,,,VFR,,,,,,,,,,,,METAR,12.0
BIKF 180300Z 30005KT 270V340 9999 VCSH SCT010 BKN039 BKN056 01/01 Q1001,BIKF,2021-01-18T03:00:00Z,63.98,-22.6,1.0,1.0,300,5,,6.21,29.557087,,,,,,,,,,VCSH,SCT,1000,BKN,3900,BKN,5600,,,VFR,,,,,,,,,,,,METAR,49.0
BIEG 180300Z 01005KT 9999 SCT015 OVC035 01/00 Q0995 R04/290195,BIEG,2021-01-18T03:00:00Z,65.27,-14.4,1.0,0.0,10,5,,6.21,29.379921,,,,,,,,,,,SCT,1500,OVC,3500,,,,,VFR,,,,,,,,,,,,METAR,20.0
BIAR 180300Z 34003KT 7000 -PE BKN002 OVC009 00/00 Q1000,BIAR,2021-01-18T03:00:00Z,65.67,-18.07,0.0,0.0,340,3,,4.35,29.52756,,,,,,,,,,-PE,BKN,200,OVC,900,,,,,LIFR,,,,,,,,,,,,METAR,1.0
AYPY 180300Z 21011KT 9999 FEW025 SCT035CB 33/25 Q1006,AYPY,2021-01-18T03:00:00Z,-9.43,147.22,33.0,25.0,210,11,,6.21,29.704725,,,,,,,,,,,FEW,2500,SCT,3500,,,,,VFR,,,,,,,,,,,,METAR,44.0
AYNZ 180300Z 23005G10KT 9999 SCT030 SCT050 32/23 Q1007,AYNZ,2021-01-18T03:00:00Z,-6.57,146.72,32.0,23.0,230,5,10,6.21,29.734253,,,,,,,,,,,SCT,3000,SCT,5000,,,,,VFR,,,,,,,,,,,,METAR,74.0
AGGM 180300Z 36010KT 9999 SCT018 FEW019CB SCT090 30/26 Q1006,AGGM,2021-01-18T03:00:00Z,-8.32,157.27,30.0,26.0,360,10,,6.21,29.704725,,,,,,,,,,,SCT,1800,FEW,1900,SCT,9000,,,VFR,,,,,,,,,,,,METAR,6.0
"AGGH 180300Z 05008KT 9999 SCT020 FEW021CB BKN100 32/25 Q1006 RMK: CB ASSW SH TO SSE,S",AGGH,2021-01-18T03:00:00Z,-9.42,160.05,32.0,25.0,50,8,,6.21,29.704725,,,,,,,,,,,SCT,2000,FEW,2100,BKN,10000,,,VFR,,,,,,,,,,,,METAR,6.0
AGGA 180300Z 09004KT 9999 SCT018 33/26 Q1005,AGGA,2021-01-18T03:00:00Z,-8.7,160.68,33.0,26.0,90,4,,6.21,29.675198,,,,,,,,,,,SCT,1800,,,,,,,VFR,,,,,,,,,,,,METAR,2.0
MUCF 180259Z AUTO 07006KT 040V100 20/19 Q1018,MUCF,2021-01-18T02:59:00Z,22.15,-80.4,20.0,19.0,70,6,,,30.059055,,,TRUE,,,,,,,,,,,,,,,,,,,,,,,,,,,,METAR,35.0
MTPP 180259Z AUTO 11007KT 9000 ////// 24/19 Q1015 A2999 NOSIG,MTPP,2021-01-18T02:59:00Z,18.57,-72.3,24.0,19.0,110,7,,5.59,29.970472,,,TRUE,,,TRUE,,,,,,,,,,,,,,,,,,,,,,,,,METAR,36.0
KSBD 180259Z 00000KT 7SM CLR 20/M05 A2996,KSBD,2021-01-18T02:59:00Z,34.08,-117.25,20.0,-5.0,0,0,,7.0,29.958662,,,,,,,,,,,CLR,,,,,,,,VFR,,,,,,,,,,,,METAR,353.0
KP92 180259Z AUTO 00000KT 08/07 A3010 RMK AO1 SLP193 T00780067 51015,KP92,2021-01-18T02:59:00Z,29.57,-91.53,7.8,6.7,0,0,,,30.100393,1019.3,,TRUE,TRUE,,,,,,,,,,,,,,,,1.5,,,,,,,,,,,METAR,1.0
KNGU 180259Z 21006KT 10SM SCT065 BKN220 05/M02 A2987 RMK AO2 SLP114 T00501017 53000 $,KNGU,2021-01-18T02:59:00Z,36.93,-76.27,5.0,-1.7,210,6,,10.0,29.870079,1011.4,,,TRUE,TRUE,,,,,,SCT,6500,BKN,22000,,,,,VFR,0.0,,,,,,,,,,,METAR,3.0
KMGG 180259Z AUTO 00000KT 10SM M06/M07 A2982 RMK AO2,KMGG,2021-01-18T02:59:00Z,45.23,-93.98,-6.0,-7.0,0,0,,10.0,29.819881,,,TRUE,TRUE,,,,,,,,,,,,,,,,,,,,,,,,,,,METAR,310.0
EHGR 180259Z AUTO 22004KT 9999 FEW014 SCT024 OVC030 03/03 Q1023 WHT,EHGR,2021-01-18T02:59:00Z,51.55,4.93,3.0,3.0,220,4,,6.21,30.206694,,,TRUE,,,,,,,,FEW,1400,SCT,2400,OVC,3000,,,MVFR,,,,,,,,,,,,SPECI,12.0
RKSY 180258Z AUTO 00000KT 9999 FEW009 SCT014 BKN046 OVC060 M01/M02 A3004 RMK AO2 SNE10SNB39E57 SLP176 P0000 60000 58001 $,RKSY,2021-01-18T02:58:00Z,37.52,126.97,-1.0,-2.0,0,0,,6.21,30.041338,1017.6,,TRUE,TRUE,TRUE,,,,,,FEW,900,SCT,1400,BKN,4600,OVC,6000,VFR,-0.1,,,,,0.005,,,,,,SPECI,16.0
RKSO 180258Z 27004KT 3SM BR FEW042 SCT065 01/00 A3004 RMK AO2A SLP176 P0003 60003 T00050004 57014 $,RKSO,2021-01-18T02:58:00Z,37.08,127.02,0.5,0.4,270,4,,3.0,30.041338,1017.6,,,TRUE,TRUE,,,,,BR,FEW,4200,SCT,6500,,,,,MVFR,-1.4,,,,,0.03,,,,,,SPECI,10.0
PWAK 180258Z AUTO 08007KT 9999 CLR 28/21 A2999 RMK AO2 SLP162 60000 T02790207 $,PWAK,2021-01-18T02:58:00Z,19.28,166.62,27.9,20.7,80,7,,6.21,29.991142,1016.2,,TRUE,TRUE,TRUE,,,,,,CLR,,,,,,,,VFR,,,,,,,0.005,,,,,METAR,7.0
PTTP 180258Z 06006KT 12SM -SHRA BKN017TCU OVC130 26/24 A2978 RMK TCU ALQDS SLP085 60005 8/27/ T02610241 57010,PTTP,2021-01-18T02:58:00Z,6.97,158.22,26.1,24.1,60,6,,12.0,29.778543,1008.5,,,,,,,,,-SHRA,BKN,1700,OVC,13000,,,,,MVFR,-1.0,,,,,,0.05,,,,,METAR,36.0
PHSF 180258Z AUTO 24011KT 10SM CLR 16/12 A3026 RMK AO2 SLP150 T01580117 53005 $,PHSF,2021-01-18T02:58:00Z,19.77,-155.55,15.8,11.7,240,11,,10.0,30.259842,1015.0,,TRUE,TRUE,TRUE,,,,,,CLR,,,,,,,,VFR,0.5,,,,,,,,,,,METAR,1863.0
PGWT 180258Z 10010KT 7SM FEW020 29/23 A2985,PGWT,2021-01-18T02:58:00Z,14.98,145.62,29.0,23.0,100,10,,7.0,29.84941,,,,,,,,,,,FEW,2000,,,,,,,VFR,,,,,,,,,,,,METAR,84.0
PASY 180258Z AUTO 20016KT 1 3/4SM HZ FEW018 BKN110 02/M01 A2920 RMK AO2 PK WND 19027/0158 VIS 1 3/4V2 1/4 SLP892 T00191007 57019 PNO FZRANO $,PASY,2021-01-18T02:58:00Z,52.72,174.12,1.9,-0.7,200,16,,1.75,29.199802,989.2,,TRUE,TRUE,TRUE,,,TRUE,,HZ,FEW,1800,BKN,11000,,,,,IFR,-1.9,,,,,,,,,,,SPECI,6.0
PAFR 180258Z AUTO 02006KT 10SM FEW070 OVC120 M01/M03 A2969 RMK AO2 SLP064 T10101034 52040 FZRANO $,PAFR,2021-01-18T02:58:00Z,61.27,-149.65,-1.0,-3.4,20,6,,10.0,29.68996,1006.4,,TRUE,TRUE,TRUE,,,TRUE,,,FEW,7000,OVC,12000,,,,,VFR,4.0,,,,,,,,,,,METAR,106.0
PAFB 180258Z AUTO 00000KT 10SM CLR M18/M20 A2964 RMK AO2 SLP052 T11771200 52010 $,PAFB,2021-01-18T02:58:00Z,64.83,-147.62,-17.7,-20.0,0,0,,10.0,29.639763,1005.2,,TRUE,TRUE,TRUE,,,,,,CLR,,,,,,,,VFR,1.0,,,,,,,,,,,SPECI,137.0
OKAS 180258Z 27010KT 9999 CLR 10/02 A2999 RMK AO2A SLP155 T01000023 53016 $,OKAS,2021-01-18T02:58:00Z,29.35,47.52,10.0,2.3,270,10,,6.21,29.991142,1015.5,,,TRUE,TRUE,,,,,,CLR,,,,,,,,VFR,1.6,,,,,,,,,,,METAR,144.0
OAIX 180258Z 21003KT 8000 HZ FEW170 M02/M06 A3014 RMK AO2A SLP183 T10161062 52020 $,OAIX,2021-01-18T02:58:00Z,34.95,69.27,-1.6,-6.2,210,3,,4.97,30.138779,1018.3,,,TRUE,TRUE,,,,,HZ,FEW,17000,,,,,,,MVFR,2.0,,,,,,,,,,,METAR,1480.0
KVBG 180258Z AUTO 00000KT 9SM CLR 13/05 A2996 RMK AO2 SLP149 T01300053 50002,KVBG,2021-01-18T02:58:00Z,34.73,-120.58,13.0,5.3,0,0,,9.0,29.958662,1014.9,,TRUE,TRUE,,,,,,,CLR,,,,,,,,VFR,0.2,,,,,,,,,,,METAR,96.0
KTCM 180258Z 00000KT 3SM BR OVC042 05/04 A3052 RMK VIS 3/4 RWY34 SLP341 T00470044 $,KTCM,2021-01-18T02:58:00Z,47.13,-122.47,4.7,4.4,0,0,,3.0,30.519686,1034.1,,,,TRUE,,,,,BR,OVC,4200,,,,,,,MVFR,,,,,,,,,,,,METAR,87.0
KT70 180258Z AUTO 16004KT 10SM CLR M A3002 RMK AO2 SLPNO 52008 $,KT70,2021-01-18T02:58:00Z,29.12,-100.48,,,160,4,,10.0,30.02067,,,TRUE,TRUE,TRUE,,,,,,CLR,,,,,,,,VFR,0.8,,,,,,,,,,,METAR,296.0
KSXS 180258Z AUTO 23006KT 10SM CLR 07/01 A2999 RMK AO2 SLP159 T00710008 52010,KSXS,2021-01-18T02:58:00Z,31.37,-85.85,7.1,0.8,230,6,,10.0,29.991142,1015.9,,TRUE,TRUE,,,,,,,CLR,,,,,,,,VFR,1.0,,,,,,,,,,,METAR,120.0
KSUU 180258Z AUTO 00000KT 10SM CLR 11/05 A3001 RMK AO2 SLP169 T01120049 57004 $,KSUU,2021-01-18T02:58:00Z,38.27,-121.93,11.2,4.9,0,0,,10.0,30.008858,1016.9,,TRUE,TRUE,TRUE,,,,,,CLR,,,,,,,,VFR,-0.4,,,,,,,,,,,METAR,9.0
KSLI 180258Z AUTO 00000KT 10SM CLR 17/07 A2992 RMK AO2 SLP135 T01650066 53004,KSLI,2021-01-18T02:58:00Z,33.78,-118.03,16.5,6.6,0,0,,10.0,29.920275,1013.5,,TRUE,TRUE,,,,,,,CLR,,,,,,,,VFR,0.4,,,,,,,,,,,METAR,8.0
KSKA 180258Z 23005KT 10SM OVC004 00/00 A3031 RMK AO2A SLP290 T00000000 50003 $,KSKA,2021-01-18T02:58:00Z,47.62,-117.67,0.0,0.0,230,5,,10.0,30.31004,1029.0,,,TRUE,TRUE,,,,,,OVC,400,,,,,,,LIFR,0.3,,,,,,,,,,,METAR,754.0
KSEQ 180258Z AUTO 07004KT 10SM CLR 10/M02 A3015 RMK AO2 SLP212 T01041020 52015,KSEQ,2021-01-18T02:58:00Z,29.57,-97.9,10.4,-2.0,70,4,,10.0,30.15059,1021.2,,TRUE,TRUE,,,,,,,CLR,,,,,,,,VFR,1.5,,,,,,,,,,,METAR,160.0
KROG 180258Z AUTO 23006KT 10SM CLR 02/M06 A2998 RMK AO2 SLP159 6//// T00221056 51006,KROG,2021-01-18T02:58:00Z,36.37,-94.1,2.2,-5.6,230,6,,10.0,29.97933,1015.9,,TRUE,TRUE,,,,,,,CLR,,,,,,,,VFR,0.6,,,,,,,,,,,METAR,407.0
KRIV 180258Z AUTO 00000KT 10SM CLR 18/M06 A2996 RMK AO2 SLP139 T01791061 53000,KRIV,2021-01-18T02:58:00Z,33.87,-117.23,17.9,-6.1,0,0,,10.0,29.958662,1013.9,,TRUE,TRUE,,,,,,,CLR,,,,,,,,VFR,0.0,,,,,,,,,,,METAR,454.0
KPRN 180258Z AUTO 22007KT 10SM CLR 08/M02 A2998 RMK AO2 SLP102 T00781017 53008,KPRN,2021-01-18T02:58:00Z,31.85,-86.62,7.8,-1.7,220,7,,10.0,29.97933,1010.2,,TRUE,TRUE,,,,,,,CLR,,,,,,,,VFR,0.8,,,,,,,,,,,SPECI,137.0
KPOE 180258Z AUTO 00000KT 10SM CLR 05/M02 A3013 RMK AO2 SLP207 T00501017 52015,KPOE,2021-01-18T02:58:00Z,31.05,-93.2,5.0,-1.7,0,0,,10.0,30.129921,1020.7,,TRUE,TRUE,,,,,,,CLR,,,,,,,,VFR,1.5,,,,,,,,,,,METAR,98.0
KMUO 180258Z AUTO 30012KT 10SM CLR 01/ A3028 RMK AO2 SLP282 50001 $,KMUO,2021-01-18T02:58:00Z,43.03,-115.87,1.0,,300,12,,10.0,30.280512,1028.2,,TRUE,TRUE,TRUE,,,,,,CLR,,,,,,,,VFR,0.1,,,,,,,,,,,METAR,915.0
KMRH 180258Z AUTO 27009KT 10SM CLR 07/01 A2992 RMK AO2 SLP133 I1000 I3/// T00720006 51007 TSNO,KMRH,2021-01-18T02:58:00Z,34.73,-76.65,7.2,0.6,270,9,,10.0,29.920275,1013.3,,TRUE,TRUE,,,TRUE,,,,CLR,,,,,,,,VFR,0.7,,,,,,,,,,,METAR,2.0
KMEI 180258Z 26003KT 10SM CLR 07/M06 A3004 RMK AO2 SLP174 I1000 I3/// T00721056 51021 $,KMEI,2021-01-18T02:58:00Z,32.33,-88.75,7.2,-5.6,260,3,,10.0,30.041338,1017.4,,,TRUE,TRUE,,,,,,CLR,,,,,,,,VFR,2.1,,,,,,,,,,,METAR,90.0
KLUF 180258Z AUTO 34005KT 10SM CLR 13/M05 A2993 RMK AO2 SLP135 T01291047 55002 $,KLUF,2021-01-18T02:58:00Z,33.53,-112.37,12.9,-4.7,340,5,,10.0,29.929134,1013.5,,TRUE,TRUE,TRUE,,,,,,CLR,,,,,,,,VFR,-0.2,,,,,,,,,,,METAR,333.0
KLSV 180258Z AUTO 01004KT 10SM CLR 12/M07 A3001 RMK AO2 SLP163 T01161068 57008 $,KLSV,2021-01-18T02:58:00Z,36.23,-115.05,11.6,-6.8,10,4,,10.0,30.008858,1016.3,,TRUE,TRUE,TRUE,,,,,,CLR,,,,,,,,VFR,-0.8,,,,,,,,,,,METAR,563.0
KLOR 180258Z AUTO 21003KT 10SM CLR 05/01 A3001 RMK AO2 SLP147 T00510012 52012,KLOR,2021-01-18T02:58:00Z,31.35,-85.75,5.1,1.2,210,3,,10.0,30.008858,1014.7,,TRUE,TRUE,,,,,,,CLR,,,,,,,,VFR,1.2,,,,,,,,,,,METAR,92.0
KLGF 180258Z AUTO 36019KT M M M M M RMK AO2 SLPNO $,KLGF,2021-01-18T02:58:00Z,32.87,-114.4,,,360,19,,,,,,TRUE,TRUE,TRUE,,,,,,,,,,,,,,,,,,,,,,,,,,METAR,118.0
KINS 180258Z AUTO 00000KT 10SM CLR 09/M18 A3005 RMK AO2 SLP174 T00941177 55005 $,KINS,2021-01-18T02:58:00Z,36.58,-115.68,9.4,-17.7,0,0,,10.0,30.050198,1017.4,,TRUE,TRUE,TRUE,,,,,,CLR,,,,,,,,VFR,-0.5,,,,,,,,,,,METAR,954.0
KHUA 180258Z AUTO 31008KT 10SM CLR 06/M05 A2993 RMK AO2 SLP139 T00561050 52016,KHUA,2021-01-18T02:58:00Z,34.68,-86.68,5.6,-5.0,310,8,,10.0,29.929134,1013.9,,TRUE,TRUE,,,,,,,CLR,,,,,,,,VFR,1.6,,,,,,,,,,,SPECI,200.0
KHMN 180258Z AUTO 10005KT 10SM CLR 07/M18 A3005 RMK AO2 SLP174 T00651176 50000 $,KHMN,2021-01-18T02:58:00Z,32.85,-106.1,6.5,-17.6,100,5,,10.0,30.050198,1017.4,,TRUE,TRUE,TRUE,,,,,,CLR,,,,,,,,VFR,0.0,,,,,,,,,,,METAR,1240.0
KHLR 180258Z AUTO 00000KT 10SM CLR 09/M03 A3011 RMK AO2 SLP198 T00881029 52006,KHLR,2021-01-18T02:58:00Z,31.13,-97.72,8.8,-2.9,0,0,,10.0,30.109253,1019.8,,TRUE,TRUE,,,,,,,CLR,,,,,,,,VFR,0.6,,,,,,,,,,,METAR,271.0
KHIF 180258Z AUTO 00000KT 10SM OVC055 04/M02 A3014 RMK AO2 SLP214 T00391021 57014,KHIF,2021-01-18T02:58:00Z,41.12,-111.97,3.9,-2.1,0,0,,10.0,30.138779,1021.4,,TRUE,TRUE,,,,,,,OVC,5500,,,,,,,VFR,-1.4,,,,,,,,,,,METAR,1461.0
KHEY 180258Z AUTO 21004KT 8SM SCT140 06/02 A3000 RMK AO2 SLP163 T00640016 52011,KHEY,2021-01-18T02:58:00Z,31.35,-85.65,6.4,1.6,210,4,,8.0,30.0,1016.3,,TRUE,TRUE,,,,,,,SCT,14000,,,,,,,VFR,1.1,,,,,,,,,,,METAR,95.0
KGXF 180258Z AUTO 15008KT 10SM CLR 13/M16 A2993 RMK AO2 SLP133 T01331156 55002,KGXF,2021-01-18T02:58:00Z,32.88,-112.72,13.3,-15.6,150,8,,10.0,29.929134,1013.3,,TRUE,TRUE,,,,,,,CLR,,,,,,,,VFR,-0.2,,,,,,,,,,,METAR,261.0
KGUR 180258Z AUTO 00000KT 9SM CLR 01/M06 A2983 RMK AO2 SLP141 T00051065 55005,KGUR,2021-01-18T02:58:00Z,42.25,-104.72,0.5,-6.5,0,0,,9.0,29.828741,1014.1,,TRUE,TRUE,,,,,,,CLR,,,,,,,,VFR,-0.5,,,,,,,,,,,METAR,1341.0
KGRK 180258Z AUTO 00000KT 10SM CLR 09/M02 A3010 RMK AO2 SLP195 T00871022 52007 $,KGRK,2021-01-18T02:58:00Z,31.07,-97.83,8.7,-2.2,0,0,,10.0,30.100393,1019.5,,TRUE,TRUE,TRUE,,,,,,CLR,,,,,,,,VFR,0.7,,,,,,,,,,,SPECI,311.0
KGRF 180258Z 00000KT 1/4SM FG BKN000 OVC040 04/04 A3051 RMK AO2A FG BKN000 SLP338 T00430043 52008 RVRNO $,KGRF,2021-01-18T02:58:00Z,47.07,-122.57,4.3,4.3,0,0,,0.25,30.510826,1033.8,,,TRUE,TRUE,,,,,FG,BKN,0,OVC,4000,,,,,LIFR,0.8,,,,,,,,,,,METAR,91.0
KGFA 180258Z AUTO 28004KT 10SM BKN065 03/M06 A3000 RMK AO2 SLP184 T00281063 51014 $,KGFA,2021-01-18T02:58:00Z,47.5,-111.18,2.8,-6.3,280,4,,10.0,30.0,1018.4,,TRUE,TRUE,TRUE,,,,,,BKN,6500,,,,,,,VFR,1.4,,,,,,,,,,,METAR,1058.0
KFHU 180258Z AUTO 22009KT 10SM CLR 12/M20 A3009 RMK AO2 SLP163 T01191201 53000,KFHU,2021-01-18T02:58:00Z,31.58,-110.35,11.9,-20.1,220,9,,10.0,30.088583,1016.3,,TRUE,TRUE,,,,,,,CLR,,,,,,,,VFR,0.0,,,,,,,,,,,METAR,1424.0
KFEW 180258Z AUTO 28013KT 10SM FEW060 BKN080 BKN190 04/M07 A2983 RMK AO2 SLP108 T00441068 57003 $,KFEW,2021-01-18T02:58:00Z,41.13,-104.87,4.4,-6.8,280,13,,10.0,29.828741,1010.8,,TRUE,TRUE,TRUE,,,,,,FEW,6000,BKN,8000,BKN,19000,,,VFR,-0.3,,,,,,,,,,,METAR,1877.0
KFCS 180258Z AUTO 03004KT 10SM BKN180 M02/M08 A2984 RMK AO2 SLP164 T10201085 57023 $,KFCS,2021-01-18T02:58:00Z,38.67,-104.77,-2.0,-8.5,30,4,,10.0,29.840551,1016.4,,TRUE,TRUE,TRUE,,,,,,BKN,18000,,,,,,,VFR,-2.3,,,,,,,,,,,METAR,1789.0
KEUF 180258Z AUTO 19003KT 10SM CLR 05/M01 A3000 RMK AO2 SLP158 I1000 I3/// T00501011 51009,KEUF,2021-01-18T02:58:00Z,31.95,-85.13,5.0,-1.1,190,3,,10.0,30.0,1015.8,,TRUE,TRUE,,,,,,,CLR,,,,,,,,VFR,0.9,,,,,,,,,,,METAR,87.0
KEDW 180258Z AUTO 18003KT 10SM CLR 11/M06 A3003 RMK AO2 SLP174 T01121057 55005,KEDW,2021-01-18T02:58:00Z,34.9,-117.87,11.2,-5.7,180,3,,10.0,30.029528,1017.4,,TRUE,TRUE,,,,,,,CLR,,,,,,,,VFR,-0.5,,,,,,,,,,,SPECI,698.0
KDMA 180258Z AUTO 00000KT 10SM CLR 14/M13 A2999 RMK AO2 SLP137 T01401131 50001 FZRANO $,KDMA,2021-01-18T02:58:00Z,32.17,-110.88,14.0,-13.1,0,0,,10.0,29.991142,1013.7,,TRUE,TRUE,TRUE,,,TRUE,,,CLR,,,,,,,,VFR,0.1,,,,,,,,,,,METAR,804.0
KCWN 180258Z AUTO 14006KT 10SM SCT170 M01/M09 A2979 RMK AO2 SLP032 T10061091 58022 PWINO FZRANO $,KCWN,2021-01-18T02:58:00Z,38.75,-104.85,-0.6,-9.1,140,6,,10.0,29.790354,1003.2,,TRUE,TRUE,TRUE,,,TRUE,TRUE,,SCT,17000,,,,,,,VFR,-2.2,,,,,,,,,,,METAR,2040.0
KCVS 180258Z AUTO 14006KT 10SM CLR 00/M05 A3003 RMK AO2 SLP185 T10051053 58005 $,KCVS,2021-01-18T02:58:00Z,34.37,-103.32,-0.5,-5.3,140,6,,10.0,30.029528,1018.5,,TRUE,TRUE,TRUE,,,,,,CLR,,,,,,,,VFR,-0.5,,,,,,,,,,,METAR,1305.0
KBYS 180258Z AUTO 03008KT 10SM CLR 11/M11 A3004 RMK AO2 SLP174 T01061115 57007 $,KBYS,2021-01-18T02:58:00Z,35.28,-116.63,10.6,-11.5,30,8,,10.0,30.041338,1017.4,,TRUE,TRUE,TRUE,,,,,,CLR,,,,,,,,VFR,-0.7,,,,,,,,,,,METAR,717.0
KBKF 180258Z 26003KT 10SM FEW080 BKN120 BKN200 07/M06 A2980 RMK AO2A SLP085 T00731061 57016,KBKF,2021-01-18T02:58:00Z,39.72,-104.75,7.3,-6.1,260,3,,10.0,29.799213,1008.5,,,TRUE,,,,,,,FEW,8000,BKN,12000,BKN,20000,,,VFR,-1.6,,,,,,,,,,,SPECI,1703.0
KBIF 180258Z AUTO 12006KT 10SM CLR 12/M12 A3004 RMK AO2 SLP161 T01191124 50000 $,KBIF,2021-01-18T02:58:00Z,31.85,-106.38,11.9,-12.4,120,6,,10.0,30.041338,1016.1,,TRUE,TRUE,TRUE,,,,,,CLR,,,,,,,,VFR,0.0,,,,,,,,,,,METAR,1201.0
KBAB 180258Z AUTO 11003KT 10SM CLR 13/08 A3000 RMK AO2 SLP162 T01250082 57004 $,KBAB,2021-01-18T02:58:00Z,39.13,-121.43,12.5,8.2,110,3,,10.0,30.0,1016.2,,TRUE,TRUE,TRUE,,,,,,CLR,,,,,,,,VFR,-0.4,,,,,,,,,,,METAR,31.0
KAPG 180258Z AUTO 00000KT 9SM R22/5500FT BKN075 OVC090 03/M01 A2977 RMK AO2 SLP085 T00311013 56002 $,KAPG,2021-01-18T02:58:00Z,39.47,-76.17,3.1,-1.3,0,0,,9.0,29.769686,1008.5,,TRUE,TRUE,TRUE,,,,,,BKN,7500,OVC,9000,,,,,VFR,-0.2,,,,,,,,,,,SPECI,18.0
KAFF 180258Z AUTO 00000KT 10SM CLR M01/M10 A2983 RMK AO2 SLP136 T10061098 57020,KAFF,2021-01-18T02:58:00Z,38.97,-104.82,-0.6,-9.8,0,0,,10.0,29.828741,1013.6,,TRUE,TRUE,,,,,,,CLR,,,,,,,,VFR,-2.0,,,,,,,,,,,SPECI,2003.0
KABH 180258Z AUTO 00000KT 10SM BKN240 M01/M09 A2988 RMK AO2 SLP165 T10061093 57017,KABH,2021-01-18T02:58:00Z,38.75,-104.3,-0.6,-9.3,0,0,,10.0,29.878937,1016.5,,TRUE,TRUE,,,,,,,BKN,24000,,,,,,,VFR,-1.7,,,,,,,,,,,METAR,1838.0
K9L2 180258Z AUTO 30009KT 7SM CLR 11/M07 A3004 RMK AO2 SLP178 60000 T01061067 55004 $,K9L2,2021-01-18T02:58:00Z,34.98,-117.87,10.6,-6.7,300,9,,7.0,30.041338,1017.8,,TRUE,TRUE,TRUE,,,,,,CLR,,,,,,,,VFR,-0.4,,,,,,0.005,,,,,METAR,697.0
K4MR 180258Z AUTO 21005KT 10SM CLR 02/M06 A3003 RMK AO2 SLP181 T00171057 58003 $,K4MR,2021-01-18T02:58:00Z,34.3,-103.8,1.7,-5.7,210,5,,10.0,30.029528,1018.1,,TRUE,TRUE,TRUE,,,,,,CLR,,,,,,,,VFR,-0.3,,,,,,,,,,,METAR,1339.0
K1YT 180258Z AUTO 07004KT 10SM CLR 05/M03 A3036 RMK AO2 SLPNO T00481032 52010 $,K1YT,2021-01-18T02:58:00Z,46.67,-120.45,4.8,-3.2,70,4,,10.0,30.360237,,,TRUE,TRUE,TRUE,,,,,,CLR,,,,,,,,VFR,1.0,,,,,,,,,,,METAR,423.0
K1OW 180258Z AUTO 00000KT 10SM OVC055 02/M06 A2981 RMK AO2 SLP128 T00151065 57012 $,K1OW,2021-01-18T02:58:00Z,40.88,-104.0,1.5,-6.5,0,0,,10.0,29.811024,1012.8,,TRUE,TRUE,TRUE,,,,,,OVC,5500,,,,,,,VFR,-1.2,,,,,,,,,,,METAR,1650.0
K1OM 180258Z AUTO 29021KT 10SM SCT008 BKN065 BKN090 00/00 A2991 RMK AO2 PK WND 30030/0158 SHSNE09SNB09E10SNB24E28 SLP158 T00041004 52022 $,K1OM,2021-01-18T02:58:00Z,47.33,-108.93,0.4,-0.4,290,21,,10.0,29.911417,1015.8,,TRUE,TRUE,TRUE,,,,,,SCT,800,BKN,6500,BKN,9000,,,VFR,2.2,,,,,,,,,,,METAR,1088.0
K1NW 180258Z AUTO 00000KT 10SM OVC070 03/M08 A2981 RMK AO2 SLP110 T00341080 57014 $,K1NW,2021-01-18T02:58:00Z,40.63,-103.83,3.4,-8.0,0,0,,10.0,29.811024,1011.0,,TRUE,TRUE,TRUE,,,,,,OVC,7000,,,,,,,VFR,-1.4,,,,,,,,,,,METAR,1461.0
K1LW 180258Z AUTO 29013G21KT 10SM BKN049 04/M07 A2983 RMK AO2 SLP127 T00361075 57011 $,K1LW,2021-01-18T02:58:00Z,40.92,-103.7,3.6,-7.5,290,13,21,10.0,29.828741,1012.7,,TRUE,TRUE,TRUE,,,,,,BKN,4900,,,,,,,VFR,-1.1,,,,,,,,,,,METAR,1514.0
K1LM 180258Z AUTO 35016KT 2 1/4SM -SN OVC002 M01/M02 A2994 RMK AO2 VIS 2 1/4V2 3/4 SLP176 P0001 60001 T10151020 51019 $,K1LM,2021-01-18T02:58:00Z,46.7,-109.73,-1.5,-2.0,350,16,,2.25,29.940945,1017.6,,TRUE,TRUE,TRUE,,,,,-SN,OVC,200,,,,,,,LIFR,1.9,,,,,0.01,0.01,,,,,METAR,1417.0
K1KW 180258Z AUTO 27009KT 10SM BKN049 05/M05 A2978 RMK AO2 SLP105 T00511050 55011 $,K1KW,2021-01-18T02:58:00Z,41.13,-103.48,5.1,-5.0,270,9,,10.0,29.778543,1010.5,,TRUE,TRUE,TRUE,,,,,,BKN,4900,,,,,,,VFR,-1.1,,,,,,,,,,,METAR,1443.0
K1KM 180258Z AUTO 27022G28KT 10SM BKN042 01/M03 A2996 RMK AO2 PK WND 26028/47 SLP174 T00121032 52025 $,K1KM,2021-01-18T02:58:00Z,46.45,-109.8,1.2,-3.2,270,22,28,10.0,29.958662,1017.4,,TRUE,TRUE,TRUE,,,,,,BKN,4200,,,,,,,VFR,2.5,,,,,,,,,,,METAR,1332.0
K1J0 180258Z AUTO 23006KT 10SM CLR 08/03 A3005 RMK AO2 SLP160 T00830028 51013,K1J0,2021-01-18T02:58:00Z,30.85,-85.6,8.3,2.8,230,6,,10.0,30.050198,1016.0,,TRUE,TRUE,,,,,,,CLR,,,,,,,,VFR,1.3,,,,,,,,,,,SPECI,26.0
K1IM 180258Z AUTO 29014KT 10SM BKN070 04/M06 A2999 RMK AO2 SLP186 T00361060 51008 $,K1IM,2021-01-18T02:58:00Z,47.32,-111.47,3.6,-6.0,290,14,,10.0,29.991142,1018.6,,TRUE,TRUE,TRUE,,,,,,BKN,7000,,,,,,,VFR,0.8,,,,,,,,,,,METAR,1110.0
K1HW 180258Z AUTO 26010KT 10SM OVC070 05/M05 A2979 RMK AO2 SLP112 T00461050 55013 $,K1HW,2021-01-18T02:58:00Z,41.32,-102.83,4.6,-5.0,260,10,,10.0,29.790354,1011.2,,TRUE,TRUE,TRUE,,,,,,OVC,7000,,,,,,,VFR,-1.3,,,,,,,,,,,METAR,1265.0
K1HM 180258Z AUTO 25006KT 10SM BKN085 02/M07 A2997 RMK AO2 SLP170 T00181072 51009 $,K1HM,2021-01-18T02:58:00Z,47.7,-111.95,1.8,-7.2,250,6,,10.0,29.970472,1017.0,,TRUE,TRUE,TRUE,,,,,,BKN,8500,,,,,,,VFR,0.9,,,,,,,,,,,METAR,1181.0
K1GM 180258Z AUTO 30015KT 10SM BKN120 00/M06 A2998 RMK AO2 SLP182 T00021056 51010 $,K1GM,2021-01-18T02:58:00Z,47.33,-112.1,0.2,-5.6,300,15,,10.0,29.97933,1018.2,,TRUE,TRUE,TRUE,,,,,,BKN,12000,,,,,,,VFR,1.0,,,,,,,,,,,METAR,1317.0
K1FW 180258Z AUTO 29010KT 10SM BKN070 04/M05 A2978 RMK AO2 PK WND 30028/12 RAB10E19SHRAB19E31 SLP100 T00421048 55015 $,K1FW,2021-01-18T02:58:00Z,41.37,-103.48,4.2,-4.8,290,10,,10.0,29.778543,1010.0,,TRUE,TRUE,TRUE,,,,,,BKN,7000,,,,,,,VFR,-1.5,,,,,,,,,,,METAR,1451.0
K1EM 180258Z AUTO 27011KT 1SM SN OVC002 00/ A2993 RMK AO2 SHSNE03SNB03 SLP174 P0001 60003 51014 $,K1EM,2021-01-18T02:58:00Z,47.45,-109.42,0.0,,270,11,,1.0,29.929134,1017.4,,TRUE,TRUE,TRUE,,,,,SN,OVC,200,,,,,,,LIFR,1.4,,,,,0.01,0.03,,,,,METAR,1118.0
K1DM 180258Z AUTO 30009KT 7SM -SHSN BKN014 OVC046 00/00 A2993 RMK AO2 SNE02SHSNB02 SLP175 P0001 T00031003 52015 $,K1DM,2021-01-18T02:58:00Z,47.37,-109.8,0.3,-0.3,300,9,,7.0,29.929134,1017.5,,TRUE,TRUE,TRUE,,,,,-SHSN,BKN,1400,OVC,4600,,,,,MVFR,1.5,,,,,0.01,,,,,,METAR,1093.0
K1CW 180258Z AUTO 30005KT 10SM OVC070 06/M07 A2982 RMK AO2 SLP106 T00551072 57012 $,K1CW,2021-01-18T02:58:00Z,41.58,-103.57,5.5,-7.2,300,5,,10.0,29.819881,1010.6,,TRUE,TRUE,TRUE,,,,,,OVC,7000,,,,,,,VFR,-1.2,,,,,,,,,,,METAR,1370.0
K1CM 180258Z AUTO 30015KT 5SM -SN OVC028 00/M02 A2997 RMK AO2 SNE18FZRAB18E18SNB18 SLP180 P0001 T10051020 52016 $,K1CM,2021-01-18T02:58:00Z,47.1,-110.17,-0.5,-2.0,300,15,,5.0,29.970472,1018.0,,TRUE,TRUE,TRUE,,,,,-SN,OVC,2800,,,,,,,MVFR,1.6,,,,,0.01,,,,,,METAR,1338.0
K1BW 180258Z AUTO 30015KT 10SM OVC075 06/M06 A2981 RMK AO2 SLP113 T00581063 57010 $,K1BW,2021-01-18T02:58:00Z,41.52,-104.0,5.8,-6.3,300,15,,10.0,29.811024,1011.3,,TRUE,TRUE,TRUE,,,,,,OVC,7500,,,,,,,VFR,-1.0,,,,,,,,,,,METAR,1606.0
K1BM 180258Z AUTO 29015KT 2 3/4SM -SHSN BKN023 OVC050 00/M02 A2999 RMK AO2 SHSNE19SHRAB19E22SHRAB37E39SHSNB39E39SHRAB39E41SHSNB41 SLP187 T00011018 52020 $,K1BM,2021-01-18T02:58:00Z,47.28,-110.37,0.1,-1.8,290,15,,2.75,29.991142,1018.7,,TRUE,TRUE,TRUE,,,,,-SHSN,BKN,2300,OVC,5000,,,,,IFR,2.0,,,,,,,,,,,METAR,1234.0
K1AM 180258Z AUTO 27010G19KT 10SM -SHRASN BKN020 02/M05 A3001 RMK AO2 RAB00E01RAB29E33SHRAB33E42 CIG 020V027 SLP138 T00241053 52025 $,K1AM,2021-01-18T02:58:00Z,47.28,-110.8,2.4,-5.3,270,10,19,10.0,30.008858,1013.8,,TRUE,TRUE,TRUE,,,,,-SHRA -SHSN,BKN,2000,,,,,,,MVFR,2.5,,,,,,,,,,,METAR,1228.0
KRDR 180257Z 03007KT 10SM FEW008 OVC014 M10/M12 A2987 RMK A02A SLP137 T11021117 58001 $,KRDR,2021-01-18T02:57:00Z,47.93,-97.4,-10.2,-11.7,30,7,,10.0,29.870079,1013.7,,,TRUE,TRUE,,,,,,FEW,800,OVC,1400,,,,,MVFR,-0.1,,,,,,,,,,,METAR,276.0
KP58 180257Z AUTO 36004KT 00/M03 A2965 RMK AO1 SLP051 T00001028 58001,KP58,2021-01-18T02:57:00Z,44.02,-82.8,0.0,-2.8,360,4,,,29.648623,1005.1,,TRUE,TRUE,,,,,,,,,,,,,,,,-0.1,,,,,,,,,,,SPECI,180.0
KNYL 180257Z AUTO 01004KT 10SM CLR 19/M06 A2993 RMK AO2 SLP135 T01941056 56005 $,KNYL,2021-01-18T02:57:00Z,32.65,-114.62,19.4,-5.6,10,4,,10.0,29.929134,1013.5,,TRUE,TRUE,TRUE,,,,,,CLR,,,,,,,,VFR,-0.5,,,,,,,,,,,SPECI,58.0
KNJW 180257Z AUTO 23005KT 10SM CLR 04/M05 A3003 RMK AO2 SLP973 T00441050 51014 $,KNJW,2021-01-18T02:57:00Z,32.78,-88.82,4.4,-5.0,230,5,,10.0,30.029528,997.3,,TRUE,TRUE,TRUE,,,,,,CLR,,,,,,,,VFR,1.4,,,,,,,,,,,SPECI,165.0
KNJM 180257Z AUTO 26007KT 10SM CLR 07/M01 A2994 RMK AO2 SLP142 T00671011 53007 $,KNJM,2021-01-18T02:57:00Z,34.68,-77.02,6.7,-1.1,260,7,,10.0,29.940945,1014.2,,TRUE,TRUE,TRUE,,,,,,CLR,,,,,,,,VFR,0.7,,,,,,,,,,,METAR,5.0
KFLG 180257Z AUTO 00000KT 10SM CLR M01/M21 A3015 RMK AO2 SLP235 T10111211 58001 TSNO,KFLG,2021-01-18T02:57:00Z,35.13,-111.67,-1.1,-21.1,0,0,,10.0,30.15059,1023.5,,TRUE,TRUE,,,TRUE,,,,CLR,,,,,,,,VFR,-0.1,,,,,,,,,,,METAR,2134.0
KARB 180257Z AUTO 25005KT 3SM -SN BR BKN010 OVC014 M01/M01 A2967 RMK AO2 P0000 T10061011 $,KARB,2021-01-18T02:57:00Z,42.22,-83.73,-0.6,-1.1,250,5,,3.0,29.66929,,,TRUE,TRUE,TRUE,,,,,-SN BR,BKN,1000,OVC,1400,,,,,MVFR,,,,,,0.005,,,,,,METAR,251.0
KAQV 180257Z AUTO 00000KT 10SM CLR 03/M02 A3010 RMK AO2 SLP194 T00331022 51016 $,KAQV,2021-01-18T02:57:00Z,31.4,-93.3,3.3,-2.2,0,0,,10.0,30.100393,1019.4,,TRUE,TRUE,TRUE,,,,,,CLR,,,,,,,,VFR,1.6,,,,,,,,,,,METAR,123.0
BGTL 180257Z AUTO 10015KT 5000 BR CLR M21/M21 A2994 RMK AO2 SNE56 SLP130 TSNO $,BGTL,2021-01-18T02:57:00Z,76.53,-68.75,-21.0,-21.0,100,15,,3.11,29.940945,1013.0,,TRUE,TRUE,TRUE,,TRUE,,,BR,CLR,,,,,,,,MVFR,,,,,,,,,,,,METAR,79.0
TJSJ 180256Z 11004KT 10SM FEW030 SCT070 24/23 A3003 RMK AO2 RAB12E20 SLP169 P0000 60000 T02440228 50005,TJSJ,2021-01-18T02:56:00Z,18.43,-66.02,24.4,22.8,110,4,,10.0,30.029528,1016.9,,,TRUE,,,,,,,FEW,3000,SCT,7000,,,,,VFR,0.5,,,,,0.005,0.005,,,,,METAR,3.0
ROTM 180256Z 01010KT 9999 BKN040 BKN055 16/04 A3021 RMK SLP217 T01560039 58010,ROTM,2021-01-18T02:56:00Z,26.27,127.75,15.6,3.9,10,10,,6.21,30.209646,1021.7,,,,,,,,,,BKN,4000,BKN,5500,,,,,VFR,-1.0,,,,,,,,,,,SPECI,80.0
RODN 180256Z AUTO 36011KT 10SM BKN038 OVC050 16/08 A3019 RMK AO2 SLP231 T01600077 58009 $,RODN,2021-01-18T02:56:00Z,26.35,127.77,16.0,7.7,360,11,,10.0,30.188976,1023.1,,TRUE,TRUE,TRUE,,,,,,BKN,3800,OVC,5000,,,,,VFR,-0.9,,,,,,,,,,,SPECI,38.0
RKSG 180256Z COR 25007KT 3SM HZ BKN040 02/M02 A3004 RMK AO2A SLP177 60000 T00171021 57016 $ COR 0317,RKSG,2021-01-18T02:56:00Z,36.97,127.02,1.7,-2.1,250,7,,3.0,30.041338,1017.7,TRUE,,TRUE,TRUE,,,,,HZ,BKN,4000,,,,,,,MVFR,-1.6,,,,,,0.005,,,,,METAR,12.0
RKJK 180256Z 27009KT 4SM BR FEW020 04/M00 A3009 RMK AO2A SLP194 60002 T00361004 58003 FZRANO $,RKJK,2021-01-18T02:56:00Z,35.9,126.62,3.6,-0.4,270,9,,4.0,30.088583,1019.4,,,TRUE,TRUE,,,TRUE,,BR,FEW,2000,,,,,,,MVFR,-0.3,,,,,,,,,,,SPECI,8.0
PMDY 180256Z AUTO 08015KT 7SM OVC040 18/09 A3032 RMK AO2 SLP268 T01780089 56016,PMDY,2021-01-18T02:56:00Z,28.22,-177.37,17.8,8.9,80,15,,7.0,30.318897,1026.8,,TRUE,TRUE,,,,,,,OVC,4000,,,,,,,VFR,-1.6,,,,,,,,,,,SPECI,6.0
PHHI 180256Z AUTO 23006KT 10SM CLR 24/18 A2995 RMK AO2 SLP134 T02380180 53003 $,PHHI,2021-01-18T02:56:00Z,21.48,-158.05,23.8,18.0,230,6,,10.0,29.949802,1013.4,,TRUE,TRUE,TRUE,,,,,,CLR,,,,,,,,VFR,0.3,,,,,,,,,,,SPECI,246.0
PFYU 180256Z 00000KT 8SM CLR M26/M29 A2979 RMK AO2 SLP114 6//// T12611289 52018,PFYU,2021-01-18T02:56:00Z,66.57,-145.23,-26.1,-28.9,0,0,,8.0,29.790354,1011.4,,,TRUE,,,,,,,CLR,,,,,,,,VFR,1.8,,,,,,,,,,,METAR,130.0
PFSH 180256Z AUTO 03008KT 10SM BKN031 M12/M13 A2959 RMK AO2 SLP021 T11171128 53007 FZRANO,PFSH,2021-01-18T02:56:00Z,64.37,-161.22,-11.7,-12.8,30,8,,10.0,29.589567,1002.1,,TRUE,TRUE,,,,TRUE,,,BKN,3100,,,,,,,VFR,0.7,,,,,,,,,,,METAR,6.0
PFNO 180256Z AUTO 15008KT 8SM -SN OVC085 M10/M12 A2963 RMK AO2 SNB50 SLP120 P0000 60000 T11001122 53009 FZRANO,PFNO,2021-01-18T02:56:00Z,66.82,-161.02,-10.0,-12.2,150,8,,8.0,29.630905,1012.0,,TRUE,TRUE,,,,TRUE,,-SN,OVC,8500,,,,,,,VFR,0.9,,,,,0.005,0.005,,,,,METAR,14.0
PFKW 180256Z AUTO 30005KT 8SM -SN SCT025 BKN035 OVC046 M10/M12 A2957 RMK AO2 SLP012 P0000 60000 T11001117 52007 FZRANO,PFKW,2021-01-18T02:56:00Z,60.8,-161.43,-10.0,-11.7,300,5,,8.0,29.568897,1001.2,,TRUE,TRUE,,,,TRUE,,-SN,SCT,2500,BKN,3500,OVC,4600,,,VFR,0.7,,,,,0.005,0.005,,,,,METAR,4.0
PFKT 180256Z AUTO 36034G46KT 1SM -SN BR OVC037 M14/M17 A2963 RMK AO2 PK WND 36046/0252 SLP033 P0000 60000 T11441167 53006 FZRANO,PFKT,2021-01-18T02:56:00Z,65.33,-166.47,-14.4,-16.7,360,34,46,1.0,29.630905,1003.3,,TRUE,TRUE,,,,TRUE,,-SN BR,OVC,3700,,,,,,,IFR,0.6,,,,,0.005,0.005,,,,,METAR,8.0
PFEL 180256Z AUTO 36005KT 10SM CLR M10/M14 A2958 RMK AO2 SLP022 T11001139 53010 FZRANO,PFEL,2021-01-18T02:56:00Z,64.62,-162.27,-10.0,-13.9,360,5,,10.0,29.58071,1002.2,,TRUE,TRUE,,,,TRUE,,,CLR,,,,,,,,VFR,1.0,,,,,,,,,,,METAR,50.0
PAZK 180256Z AUTO 01005KT 10SM FEW049 BKN085 M11/M13 A2964 RMK AO2 SLPNO 6//// T11111128 FZRANO,PAZK,2021-01-18T02:56:00Z,61.93,-147.17,-11.1,-12.8,10,5,,10.0,29.639763,,,TRUE,TRUE,,,,TRUE,,,FEW,4900,BKN,8500,,,,,VFR,,,,,,,,,,,,METAR,1002.0
PAWS 180256Z AUTO 32003KT 10SM -RA BKN033 BKN044 OVC070 01/00 A2974 RMK AO2 SLP078 P0001 60001 T00110000 53038 FZRANO,PAWS,2021-01-18T02:56:00Z,61.57,-149.53,1.1,0.0,320,3,,10.0,29.740158,1007.8,,TRUE,TRUE,,,,TRUE,,-RA,BKN,3300,BKN,4400,OVC,7000,,,VFR,3.8,,,,,0.01,0.01,,,,,METAR,102.0
PAWN 180256Z AUTO 02007KT 4SM -SN OVC027 M10/M13 A2962 RMK AO2 SLP044 P0000 60000 T11001128 53004 FZRANO,PAWN,2021-01-18T02:56:00Z,67.57,-162.98,-10.0,-12.8,20,7,,4.0,29.619095,1004.4,,TRUE,TRUE,,,,TRUE,,-SN,OVC,2700,,,,,,,MVFR,0.4,,,,,0.005,0.005,,,,,METAR,26.0
PAWM 180256Z AUTO 35011KT 7SM -SN FEW024 BKN090 M13/M15 A2959 RMK AO2 SLP028 P0000 60000 T11281150 53005 FZRANO,PAWM,2021-01-18T02:56:00Z,64.68,-163.42,-12.8,-15.0,350,11,,7.0,29.589567,1002.8,,TRUE,TRUE,,,,TRUE,,-SN,FEW,2400,BKN,9000,,,,,VFR,0.5,,,,,0.005,0.005,,,,,METAR,80.0
PAWG 180256Z 12007KT 10SM BKN050 OVC075 05/03 A3043,PAWG,2021-01-18T02:56:00Z,56.48,-132.37,5.0,3.0,120,7,,10.0,30.431103,,,,,,,,,,,BKN,5000,OVC,7500,,,,,VFR,,,,,,,,,,,,METAR,6.0
PAVD 180256Z 00000KT 10SM -RA FEW008 SCT027 OVC036 01/01 A3001 RMK AO2 SLP163 PCPN VRY LGT P0004 60010 T00110011 53050,PAVD,2021-01-18T02:56:00Z,61.13,-146.25,1.1,1.1,0,0,,10.0,30.008858,1016.3,,,TRUE,,,,,,-RA,FEW,800,SCT,2700,OVC,3600,,,VFR,5.0,,,,,0.04,0.1,,,,,METAR,21.0
PAVA 180256Z AUTO 33003KT 8SM -SN BKN019 M13/M14 A2966 RMK AO2 SLP050 P0000 60000 T11281144 53000 FZRANO,PAVA,2021-01-18T02:56:00Z,61.53,-165.6,-12.8,-14.4,330,3,,8.0,29.660433,1005.0,,TRUE,TRUE,,,,TRUE,,-SN,BKN,1900,,,,,,,MVFR,0.0,,,,,0.005,0.005,,,,,METAR,14.0
PAUN 180256Z AUTO 12004KT 9SM -SN OVC027 M09/M11 A2958 RMK AO2 SNB39 SLP020 P0000 60000 T10891111 53005 FZRANO,PAUN,2021-01-18T02:56:00Z,63.88,-160.8,-8.9,-11.1,120,4,,9.0,29.58071,1002.0,,TRUE,TRUE,,,,TRUE,,-SN,OVC,2700,,,,,,,MVFR,0.5,,,,,0.005,0.005,,,,,METAR,4.0
PATQ 180256Z AUTO 08013KT 9SM CLR M22/M24 A2988 RMK AO2 SNE46 SLP125 6//// T12221244 58002 FZRANO TSNO PNO $,PATQ,2021-01-18T02:56:00Z,70.47,-157.43,-22.2,-24.4,80,13,,9.0,29.878937,1012.5,,TRUE,TRUE,TRUE,,TRUE,TRUE,,,CLR,,,,,,,,VFR,-0.2,,,,,,,,,,,METAR,28.0
PASX 180256Z AUTO 00000KT 10SM FEW095 BKN110 M03/M04 A2974 RMK AO2 SLP080 T10281039 51030 FZRANO,PASX,2021-01-18T02:56:00Z,60.48,-151.05,-2.8,-3.9,0,0,,10.0,29.740158,1008.0,,TRUE,TRUE,,,,TRUE,,,FEW,9500,BKN,11000,,,,,VFR,3.0,,,,,,,,,,,METAR,28.0
PASM 180256Z AUTO 31005KT 9SM -SN BKN060 BKN070 OVC110 M13/M14 A2959 RMK AO2 SLP035 P0000 60000 T11281144 53004 FZRANO,PASM,2021-01-18T02:56:00Z,62.07,-163.3,-12.8,-14.4,310,5,,9.0,29.589567,1003.5,,TRUE,TRUE,,,,TRUE,,-SN,BKN,6000,BKN,7000,OVC,11000,,,VFR,0.4,,,,,0.005,0.005,,,,,METAR,108.0
PASK 180256Z AUTO 01003KT 10SM OVC080 M11/M13 A2965 RMK AO2 SNE06 SLP036 P0000 60000 T11111128 53008 FZRANO,PASK,2021-01-18T02:56:00Z,66.6,-160.0,-11.1,-12.8,10,3,,10.0,29.648623,1003.6,,TRUE,TRUE,,,,TRUE,,,OVC,8000,,,,,,,VFR,0.8,,,,,0.005,0.005,,,,,METAR,3.0
PASD 180256Z 34022G25KT 10SM -SN SCT024 BKN036 OVC043 M02/M06 A2954 RMK AO2 PK WND 32026/0237 SNB47 SLP005 6//// T10221061 53002 PNO $,PASD,2021-01-18T02:56:00Z,55.33,-160.52,-2.2,-6.1,340,22,25,10.0,29.53937,1000.5,,,TRUE,TRUE,,,,,-SN,SCT,2400,BKN,3600,OVC,4300,,,VFR,0.2,,,,,,,,,,,METAR,6.0
PASA 180256Z AUTO 34014KT 9SM -SN OVC014 M16/M18 A2985 RMK AO2 SLP108 P0000 60000 T11611183 53000 FZRANO,PASA,2021-01-18T02:56:00Z,63.68,-170.5,-16.1,-18.3,340,14,,9.0,29.84941,1010.8,,TRUE,TRUE,,,,TRUE,,-SN,OVC,1400,,,,,,,MVFR,0.0,,,,,0.005,0.005,,,,,METAR,9.0
PARS 180256Z AUTO 00000KT 10SM BKN046 OVC060 M10/M11 A2955 RMK AO2 SLP009 T11001111 51008 PWINO FZRANO $,PARS,2021-01-18T02:56:00Z,61.77,-161.32,-10.0,-11.1,0,0,,10.0,29.551182,1000.9,,TRUE,TRUE,TRUE,,,TRUE,TRUE,,BKN,4600,OVC,6000,,,,,VFR,0.8,,,,,,,,,,,METAR,15.0
PARC 180256Z AUTO 00000KT 10SM BKN060 OVC080 M16/M18 A2960 RMK AO2 SLP113 T11611178 53007 FZRANO,PARC,2021-01-18T02:56:00Z,68.12,-145.58,-16.1,-17.8,0,0,,10.0,29.601377,1011.3,,TRUE,TRUE,,,,TRUE,,,BKN,6000,OVC,8000,,,,,VFR,0.7,,,,,,,,,,,METAR,626.0
PAQT 180256Z 03014KT 9SM OVC013 M21/M23 A2989 RMK (SCC FSS),PAQT,2021-01-18T02:56:00Z,70.22,-151.0,-21.0,-23.0,30,14,,9.0,29.890747,,,,,,,,,,,OVC,1300,,,,,,,MVFR,,,,,,,,,,,,METAR,11.0
PAPN 180256Z AUTO 22018KT 9SM OVC041 M02/M03 A2932 RMK AO2 PK WND 23026/0223 SLP942 T10171028 51020 FZRANO,PAPN,2021-01-18T02:56:00Z,57.58,-157.57,-1.7,-2.8,220,18,,9.0,29.320866,994.2,,TRUE,TRUE,,,,TRUE,,,OVC,4100,,,,,,,VFR,2.0,,,,,,,,,,,METAR,19.0
PAPG 180256Z 00000KT 10SM FEW017 SCT034 BKN065 03/03 A3041 RMK AO2 SLP301 60000 T00330033 51026,PAPG,2021-01-18T02:56:00Z,56.82,-132.93,3.3,3.3,0,0,,10.0,30.410433,1030.1,,,TRUE,,,,,,,FEW,1700,SCT,3400,BKN,6500,,,VFR,2.6,,,,,,0.005,,,,,METAR,24.0
PAOU 180256Z AUTO 01016G25KT 1 3/4SM -SN BR BKN016 OVC024 M03/M06 A2960 RMK AO2 VIS 1 1/4V3 SLP024 P0000 60000 T10331056 53007 FZRANO,PAOU,2021-01-18T02:56:00Z,56.0,-161.17,-3.3,-5.6,10,16,25,1.75,29.601377,1002.4,,TRUE,TRUE,,,,TRUE,,-SN BR,BKN,1600,OVC,2400,,,,,IFR,0.7,,,,,0.005,0.005,,,,,METAR,3.0
PAMK 180256Z AUTO 30005KT 9SM -SN OVC011 M09/M11 A2958 RMK AO2 SNB34 SLP019 P0000 60000 T10941111 53006 FZRANO,PAMK,2021-01-18T02:56:00Z,63.48,-162.12,-9.4,-11.1,300,5,,9.0,29.58071,1001.9,,TRUE,TRUE,,,,TRUE,,-SN,OVC,1100,,,,,,,MVFR,0.6,,,,,0.005,0.005,,,,,METAR,31.0
PAMH 180256Z AUTO 00000KT 10SM CLR M16/M17 A2960 RMK AO2 SLP037 T11561172 52010 FZRANO,PAMH,2021-01-18T02:56:00Z,63.9,-152.28,-15.6,-17.2,0,0,,10.0,29.601377,1003.7,,TRUE,TRUE,,,,TRUE,,,CLR,,,,,,,,VFR,1.0,,,,,,,,,,,METAR,200.0
PAKP 180256Z AUTO 17009KT 9SM -SN SCT039 BKN050 OVC065 M13/M14 A2953 RMK AO2 SNB38 SLP078 P0000 60000 T11281144 53002 FZRANO,PAKP,2021-01-18T02:56:00Z,68.13,-151.73,-12.8,-14.4,170,9,,9.0,29.530512,1007.8,,TRUE,TRUE,,,,TRUE,,-SN,SCT,3900,BKN,5000,OVC,6500,,,VFR,0.2,,,,,0.005,0.005,,,,,METAR,649.0
PAKK 180256Z AUTO 34010G14KT 10SM OVC038 M11/M13 A2953 RMK AO2 SLP012 T11061133 53008 FZRANO,PAKK,2021-01-18T02:56:00Z,64.93,-161.15,-10.6,-13.3,340,10,14,10.0,29.530512,1001.2,,TRUE,TRUE,,,,TRUE,,,OVC,3800,,,,,,,VFR,0.8,,,,,,,,,,,METAR,56.0
PAKI 180256Z AUTO 10SM CLR A2966 RMK AO2 SNE21B41E50 SLPNO P0000 60000 53003 FZRANO $,PAKI,2021-01-18T02:56:00Z,59.93,-164.03,,,,,,10.0,29.660433,,,TRUE,TRUE,TRUE,,,TRUE,,,CLR,,,,,,,,VFR,0.3,,,,,0.005,0.005,,,,,METAR,4.0
PAKH 180256Z AUTO 10SM OVC038 A2962 RMK AO2 RAE06 SLPNO P0000 60001 51020 FZRANO $,PAKH,2021-01-18T02:56:00Z,56.93,-154.18,,,,,,10.0,29.619095,,,TRUE,TRUE,TRUE,,,TRUE,,,OVC,3800,,,,,,,VFR,2.0,,,,,0.005,0.01,,,,,METAR,15.0
PAJZ 180256Z AUTO 07008KT 7SM -RA FEW009 BKN016 OVC023 01/00 A2952 RMK AO2 UPB33E48 SLP002 P0000 60001 T00060000 51008 FZRANO $,PAJZ,2021-01-18T02:56:00Z,59.73,-157.27,0.6,0.0,70,8,,7.0,29.518702,1000.2,,TRUE,TRUE,TRUE,,,TRUE,,-RA,FEW,900,BKN,1600,OVC,2300,,,MVFR,0.8,,,,,0.005,0.01,,,,,METAR,80.0
PAIN 180256Z AUTO 15005KT 10SM SCT041 02/M04 A2960 RMK AO2 SLP050 T00221039 53018 FZRANO,PAIN,2021-01-18T02:56:00Z,63.73,-148.92,2.2,-3.9,150,5,,10.0,29.601377,1005.0,,TRUE,TRUE,,,,TRUE,,,SCT,4100,,,,,,,VFR,1.8,,,,,,,,,,,METAR,525.0
PAIK 180256Z AUTO 10006KT 9SM -SN SCT041 OVC050 M10/M13 A2964 RMK AO2 SNB20 SLP042 P0000 60000 T11001133 53009 FZRANO,PAIK,2021-01-18T02:56:00Z,66.98,-160.43,-10.0,-13.3,100,6,,9.0,29.639763,1004.2,,TRUE,TRUE,,,,TRUE,,-SN,SCT,4100,OVC,5000,,,,,VFR,0.9,,,,,0.005,0.005,,,,,METAR,49.0
PAIG 180256Z AUTO 06007KT BKN045 OVC060 02/M01 A2949 RMK AO2 SLP994 T00171006 53019 PWINO FZRANO $,PAIG,2021-01-18T02:56:00Z,59.32,-155.9,1.7,-0.6,60,7,,,29.489174,999.4,,TRUE,TRUE,TRUE,,,TRUE,TRUE,,BKN,4500,OVC,6000,,,,,,1.9,,,,,,,,,,,METAR,24.0
PAHY 180256Z AUTO 6SM BR BKN009 OVC019 07/06 A3042 RMK AO2 RAE39 SLP298 6//// T00670056 51020 PNO $,PAHY,2021-01-18T02:56:00Z,55.2,-132.83,6.7,5.6,,,,6.0,30.41929,1029.8,,TRUE,TRUE,TRUE,,,,,BR,BKN,900,OVC,1900,,,,,IFR,2.0,,,,,,,,,,,METAR,0.0
PAHL 180256Z AUTO 06006KT 10SM OVC033 M07/M10 A2960 RMK AO2 SLP029 T10721100 53007 FZRANO,PAHL,2021-01-18T02:56:00Z,65.7,-156.35,-7.2,-10.0,60,6,,10.0,29.601377,1002.9,,TRUE,TRUE,,,,TRUE,,,OVC,3300,,,,,,,VFR,0.7,,,,,,,,,,,METAR,49.0
PAGS 180256Z AUTO 09004KT 10SM CLR 04/02 A3032 RMK AO2 RAE39 SLP268 P0000 60006 T00390022 51039,PAGS,2021-01-18T02:56:00Z,58.42,-135.7,3.9,2.2,90,4,,10.0,30.318897,1026.8,,TRUE,TRUE,,,,,,,CLR,,,,,,,,VFR,3.9,,,,,0.005,0.06,,,,,METAR,9.0
PAGN 180256Z AUTO 00000KT 10SM SCT004 OVC035 04/04 A3037 RMK AO2 SLP274 60001 T00440044 51029 $,PAGN,2021-01-18T02:56:00Z,57.5,-134.58,4.4,4.4,0,0,,10.0,30.369095,1027.4,,TRUE,TRUE,TRUE,,,,,,SCT,400,OVC,3500,,,,,VFR,2.9,,,,,,0.01,,,,,METAR,2.0
PAGH 180256Z AUTO 10010KT 10SM BKN060 M08/M10 A2963 RMK AO2 SLP041 60000 T10781100 53005 FZRANO,PAGH,2021-01-18T02:56:00Z,66.88,-157.17,-7.8,-10.0,100,10,,10.0,29.630905,1004.1,,TRUE,TRUE,,,,TRUE,,,BKN,6000,,,,,,,VFR,0.5,,,,,,0.005,,,,,METAR,56.0
PAGA 180256Z AUTO 00000KT 9SM -SN OVC024 M11/M13 A2960 RMK AO2 SNB45 SLP028 P0000 60000 T11061128 53007 FZRANO,PAGA,2021-01-18T02:56:00Z,64.73,-156.93,-10.6,-12.8,0,0,,9.0,29.601377,1002.8,,TRUE,TRUE,,,,TRUE,,-SN,OVC,2400,,,,,,,MVFR,0.7,,,,,0.005,0.005,,,,,METAR,39.0
PAFM 180256Z AUTO 03010KT 10SM OVC047 M11/M15 A2965 RMK AO2 SNE29 SLP050 P0000 60000 T11111150 53005 FZRANO,PAFM,2021-01-18T02:56:00Z,67.1,-157.85,-11.1,-15.0,30,10,,10.0,29.648623,1005.0,,TRUE,TRUE,,,,TRUE,,,OVC,4700,,,,,,,VFR,0.5,,,,,0.005,0.005,,,,,METAR,79.0
PAFE 180256Z AUTO 08006KT 10SM OVC048 04/03 A3040 RMK AO2 RAB12E25 SLP307 P0000 60000 T00440028 51029 $,PAFE,2021-01-18T02:56:00Z,56.97,-133.92,4.4,2.8,80,6,,10.0,30.398623,1030.7,,TRUE,TRUE,TRUE,,,,,,OVC,4800,,,,,,,VFR,2.9,,,,,0.005,0.005,,,,,METAR,1.0
PAEI 180256Z AUTO 00000KT 10SM CLR M18/M21 A2962 RMK AO2 SLP047 T11761206 52011 $,PAEI,2021-01-18T02:56:00Z,64.67,-147.1,-17.6,-20.6,0,0,,10.0,29.619095,1004.7,,TRUE,TRUE,TRUE,,,,,,CLR,,,,,,,,VFR,1.1,,,,,,,,,,,METAR,166.0
PAED 180256Z 04004KT 10SM SCT060 BKN110 M00/M02 A2972 RMK AO2A SLP062 60000 T10031022 52038 $,PAED,2021-01-18T02:56:00Z,61.25,-149.83,-0.3,-2.2,40,4,,10.0,29.719488,1006.2,,,TRUE,TRUE,,,,,,SCT,6000,BKN,11000,,,,,VFR,3.8,,,,,,0.005,,,,,METAR,54.0
PADU 180256Z 03017G31KT 350V070 10SM -SN FEW027 BKN042 OVC050 M01/M08 A2978 RMK AO2 PK WND 34033/0246 SLP090 OBS PK WND 33040/02445 BLK WTR NE NW P0000 60000 T10111083 58004,PADU,2021-01-18T02:56:00Z,53.9,-166.53,-1.1,-8.3,30,17,31,10.0,29.778543,1009.0,,,TRUE,,,,,,-SN,FEW,2700,BKN,4200,OVC,5000,,,VFR,-0.4,,,,,0.005,0.005,,,,,METAR,4.0
PADK 180256Z AUTO 17016G21KT 10SM OVC035 01/M04 A2982 RMK AO2 SLP097 T00061044 57044 FZRANO,PADK,2021-01-18T02:56:00Z,51.88,-176.65,0.6,-4.4,170,16,21,10.0,29.819881,1009.7,,TRUE,TRUE,,,,TRUE,,,OVC,3500,,,,,,,VFR,-4.4,,,,,,,,,,,METAR,3.0
PACM 180256Z AUTO 27017KT 9SM -SN OVC013 M12/M13 A2968 RMK AO2 SLP047 6//// T11171128 56002 FZRANO PNO $,PACM,2021-01-18T02:56:00Z,61.85,-165.57,-11.7,-12.8,270,17,,9.0,29.681103,1004.7,,TRUE,TRUE,TRUE,,,TRUE,,-SN,OVC,1300,,,,,,,MVFR,-0.2,,,,,,,,,,,METAR,3.0
PABV 180256Z AUTO 13005KT 10SM OVC075 01/M02 A2974 RMK AO2 UPB31E40RAB40E49 SLP079 P0000 60000 T00061022 51040 FZRANO,PABV,2021-01-18T02:56:00Z,61.42,-149.52,0.6,-2.2,130,5,,10.0,29.740158,1007.9,,TRUE,TRUE,,,,TRUE,,,OVC,7500,,,,,,,VFR,4.0,,,,,0.005,0.005,,,,,METAR,21.0
PABL 180256Z AUTO 30009KT 9SM -SN OVC048 M12/M14 A2963 RMK AO2 SLP037 P0000 60000 T11221139 53003 FZRANO,PABL,2021-01-18T02:56:00Z,65.98,-161.15,-12.2,-13.9,300,9,,9.0,29.630905,1003.7,,TRUE,TRUE,,,,TRUE,,-SN,OVC,4800,,,,,,,VFR,0.3,,,,,0.005,0.005,,,,,METAR,7.0
PAAK 180256Z AUTO 09003KT BKN032 M02/M06 A2995 RMK AO2 SLP144 T10171061 58025 PWINO FZRANO $,PAAK,2021-01-18T02:56:00Z,52.22,-174.2,-1.7,-6.1,90,3,,,29.949802,1014.4,,TRUE,TRUE,TRUE,,,TRUE,TRUE,,BKN,3200,,,,,,,,-2.5,,,,,,,,,,,METAR,11.0
OTBH 180256Z 30003KT 9999 CLR 15/11 A2999 RMK AO2A SLP157 T01480112 52016 $,OTBH,2021-01-18T02:56:00Z,25.12,51.32,14.8,11.2,300,3,,6.21,29.991142,1015.7,,,TRUE,TRUE,,,,,,CLR,,,,,,,,VFR,1.6,,,,,,,,,,,METAR,40.0
OEPS 180256Z 16004KT 6000 DU CLR 13/M02 A3018 RMK AO2A SLP205 WND DATA ESTMD T01271017 52013,OEPS,2021-01-18T02:56:00Z,24.07,47.58,12.7,-1.7,160,4,,3.73,30.180119,1020.5,,,TRUE,,,,,,DU,CLR,,,,,,,,MVFR,1.3,,,,,,,,,,,SPECI,503.0
KYKN 180256Z AUTO 00000KT 10SM CLR M02/M04 A2984 RMK AO2 SLP134 T10221039 57002 FZRANO,KYKN,2021-01-18T02:56:00Z,42.92,-97.37,-2.2,-3.9,0,0,,10.0,29.840551,1013.4,,TRUE,TRUE,,,,TRUE,,,CLR,,,,,,,,VFR,-0.2,,,,,,,,,,,METAR,388.0
KY50 180256Z AUTO 32004KT 10SM OVC023 M03/M07 A2975 RMK AO2 SLP084 6//// T10281067 51005 FZRANO $,KY50,2021-01-18T02:56:00Z,44.03,-89.3,-2.8,-6.7,320,4,,10.0,29.749016,1008.4,,TRUE,TRUE,TRUE,,,TRUE,,,OVC,2300,,,,,,,MVFR,0.5,,,,,,,,,,,METAR,261.0
KXMR 180256Z AUTO 25005KT 10SM SCT044 BKN200 13/09 A3005 RMK AO2 SLP179 T01310090 53001 $,KXMR,2021-01-18T02:56:00Z,28.47,-80.57,13.1,9.0,250,5,,10.0,30.050198,1017.9,,TRUE,TRUE,TRUE,,,,,,SCT,4400,BKN,20000,,,,,VFR,0.1,,,,,,,,,,,METAR,5.0
KWWD 180256Z AUTO 22011KT 10SM BKN060 OVC075 06/00 A2979 RMK AO2 SLP091 T00610000 58001 $,KWWD,2021-01-18T02:56:00Z,39.02,-74.92,6.1,0.0,220,11,,10.0,29.790354,1009.1,,TRUE,TRUE,TRUE,,,,,,BKN,6000,OVC,7500,,,,,VFR,-0.1,,,,,,,,,,,METAR,4.0
KWVL 180256Z AUTO 27006KT 10SM OVC034 01/M04 A2941 RMK AO2 SLP990 T00111039 51021 FZRANO,KWVL,2021-01-18T02:56:00Z,44.52,-69.67,1.1,-3.9,270,6,,10.0,29.409449,999.0,,TRUE,TRUE,,,,TRUE,,,OVC,3400,,,,,,,VFR,2.1,,,,,,,,,,,METAR,87.0
KWRI 180256Z AUTO 20005KT 10SM BKN055 OVC070 03/M02 A2974 RMK AO2 SLP072 T00321023 50001 $,KWRI,2021-01-18T02:56:00Z,40.02,-74.58,3.2,-2.3,200,5,,10.0,29.740158,1007.2,,TRUE,TRUE,TRUE,,,,,,BKN,5500,OVC,7000,,,,,VFR,0.1,,,,,,,,,,,METAR,35.0
KWRB 180256Z 21006KT 10SM CLR 05/M01 A2997 RMK AO2A SLP153 T00521006 52009,KWRB,2021-01-18T02:56:00Z,32.63,-83.58,5.2,-0.6,210,6,,10.0,29.970472,1015.3,,,TRUE,,,,,,,CLR,,,,,,,,VFR,0.9,,,,,,,,,,,METAR,82.0
KWMC 180256Z AUTO 34004KT 10SM CLR 03/M02 A3026 RMK AO2 SLP267 T00281022 53002 $,KWMC,2021-01-18T02:56:00Z,40.9,-117.8,2.8,-2.2,340,4,,10.0,30.259842,1026.7,,TRUE,TRUE,TRUE,,,,,,CLR,,,,,,,,VFR,0.2,,,,,,,,,,,METAR,1311.0
KWJF 180256Z 24005KT 10SM CLR 12/M06 A3005 RMK AO2 SLP186 T01171061 55004,KWJF,2021-01-18T02:56:00Z,34.73,-118.22,11.7,-6.1,240,5,,10.0,30.050198,1018.6,,,TRUE,,,,,,,CLR,,,,,,,,VFR,-0.4,,,,,,,,,,,METAR,712.0
KVPZ 180256Z AUTO 26006KT 3SM -SN BR OVC006 M02/M03 A2974 RMK AO2 SLP080 P0000 60000 T10171033 51003,KVPZ,2021-01-18T02:56:00Z,41.45,-87.0,-1.7,-3.3,260,6,,3.0,29.740158,1008.0,,TRUE,TRUE,,,,,,-SN BR,OVC,600,,,,,,,IFR,0.3,,,,,0.005,0.005,,,,,METAR,235.0
KVPS 180256Z 27006KT 10SM CLR 09/02 A3001 RMK SLP189 WND DATA ESTMD ALSTG/SLP ESTMD,KVPS,2021-01-18T02:56:00Z,30.47,-86.52,9.0,2.0,270,6,,10.0,30.008858,1018.9,,,,,,,,,,CLR,,,,,,,,VFR,,,,,,,,,,,,METAR,21.0
KVIS 180256Z AUTO 23004KT 7SM CLR 14/08 A3002 RMK AO2 SLP174 T01440083 58009,KVIS,2021-01-18T02:56:00Z,36.32,-119.4,14.4,8.3,230,4,,7.0,30.02067,1017.4,,TRUE,TRUE,,,,,,,CLR,,,,,,,,VFR,-0.9,,,,,,,,,,,METAR,92.0
KVBT 180256Z AUTO 22004KT 10SM CLR 01/M05 A2999 RMK AO2 SLP171 6//// T00111050 51007 FZRANO TSNO PNO $,KVBT,2021-01-18T02:56:00Z,36.35,-94.22,1.1,-5.0,220,4,,10.0,29.991142,1017.1,,TRUE,TRUE,TRUE,,TRUE,TRUE,,,CLR,,,,,,,,VFR,0.7,,,,,,,,,,,METAR,390.0
KVAD 180256Z AUTO 20007KT 10SM CLR 05/01 A3001 RMK AO2 SLP166 T00510010 51005 $,KVAD,2021-01-18T02:56:00Z,30.97,-83.2,5.1,1.0,200,7,,10.0,30.008858,1016.6,,TRUE,TRUE,TRUE,,,,,,CLR,,,,,,,,VFR,0.5,,,,,,,,,,,METAR,70.0
KUKI 180256Z AUTO 00000KT 10SM CLR 15/08 A3002 RMK AO2 SLP163 T01500083 56004,KUKI,2021-01-18T02:56:00Z,39.12,-123.2,15.0,8.3,0,0,,10.0,30.02067,1016.3,,TRUE,TRUE,,,,,,,CLR,,,,,,,,VFR,-0.4,,,,,,,,,,,METAR,183.0
KUDG 180256Z AUTO 23004KT 10SM CLR 03/M01 A2994 RMK AO2 SLP142 T00281006 51009,KUDG,2021-01-18T02:56:00Z,34.45,-79.88,2.8,-0.6,230,4,,10.0,29.940945,1014.2,,TRUE,TRUE,,,,,,,CLR,,,,,,,,VFR,0.9,,,,,,,,,,,METAR,57.0
KUCP 180256Z AUTO 23004KT 10SM OVC012 00/M01 RMK AO2 SLPNO T00001011 PWINO FZRANO $,KUCP,2021-01-18T02:56:00Z,41.03,-80.42,0.0,-1.1,230,4,,10.0,,,,TRUE,TRUE,TRUE,,,TRUE,TRUE,,OVC,1200,,,,,,,MVFR,,,,,,,,,,,,METAR,313.0
KTVF 180256Z AUTO 31007KT 8SM -SN OVC013 M11/M13 A2985 RMK AO2 SLP133 P0000 60000 T11061128 50001 FZRANO,KTVF,2021-01-18T02:56:00Z,48.07,-96.17,-10.6,-12.8,310,7,,8.0,29.84941,1013.3,,TRUE,TRUE,,,,TRUE,,-SN,OVC,1300,,,,,,,MVFR,0.1,,,,,0.005,0.005,,,,,METAR,339.0
KTTS 180256Z AUTO 27003KT 10SM BKN210 12/09 A3005 RMK AO2 SLP180 T01200088 50003 $,KTTS,2021-01-18T02:56:00Z,28.58,-80.67,12.0,8.8,270,3,,10.0,30.050198,1018.0,,TRUE,TRUE,TRUE,,,,,,BKN,21000,,,,,,,VFR,0.3,,,,,,,,,,,METAR,1.0
KTPH 180256Z AUTO 35004KT 10SM CLR 09/M07 A3017 RMK AO2 SLP212 T00941072 56003,KTPH,2021-01-18T02:56:00Z,38.05,-117.08,9.4,-7.2,350,4,,10.0,30.171259,1021.2,,TRUE,TRUE,,,,,,,CLR,,,,,,,,VFR,-0.3,,,,,,,,,,,METAR,1647.0
KTIK 180256Z AUTO 18005KT 10SM CLR 04/M08 A3002 RMK AO2 SLP179 T00441084 58002 $,KTIK,2021-01-18T02:56:00Z,35.4,-97.38,4.4,-8.4,180,5,,10.0,30.02067,1017.9,,TRUE,TRUE,TRUE,,,,,,CLR,,,,,,,,VFR,-0.2,,,,,,,,,,,METAR,387.0
KTDR 180256Z AUTO 27009KT 10SM CLR 12/07 A3006 RMK AO2 SLP183 T01230065 53009 $,KTDR,2021-01-18T02:56:00Z,30.05,-85.52,12.3,6.5,270,9,,10.0,30.059055,1018.3,,TRUE,TRUE,TRUE,,,,,,CLR,,,,,,,,VFR,0.9,,,,,,,,,,,METAR,4.0
KTBN 180256Z AUTO 28006KT 10SM OVC046 03/M03 A2988 RMK AO2 SLP130 T00301031 50001 $,KTBN,2021-01-18T02:56:00Z,37.73,-92.13,3.0,-3.1,280,6,,10.0,29.878937,1013.0,,TRUE,TRUE,TRUE,,,,,,OVC,4600,,,,,,,VFR,0.1,,,,,,,,,,,METAR,349.0
KSZL 180256Z AUTO 25004KT 10SM SCT050 00/M04 A2987 RMK AO2 SLP126 T00031042 50003 $,KSZL,2021-01-18T02:56:00Z,38.73,-93.53,0.3,-4.2,250,4,,10.0,29.870079,1012.6,,TRUE,TRUE,TRUE,,,,,,SCT,5000,,,,,,,VFR,0.3,,,,,,,,,,,SPECI,259.0
KSVN 180256Z AUTO 22006KT 10SM CLR 07/M00 A2998 RMK AO2 SLP156 T00701002 53008 $,KSVN,2021-01-18T02:56:00Z,32.02,-81.12,7.0,-0.2,220,6,,10.0,29.97933,1015.6,,TRUE,TRUE,TRUE,,,,,,CLR,,,,,,,,VFR,0.8,,,,,,,,,,,METAR,13.0
KSUE 180256Z AUTO 35006KT 10SM FEW030 BKN034 OVC085 M02/M04 A2972 RMK AO2 UPB10E14SNE10B17E29 SLP073 P0000 60000 T10171044 57001 FZRANO,KSUE,2021-01-18T02:56:00Z,44.85,-87.42,-1.7,-4.4,350,6,,10.0,29.719488,1007.3,,TRUE,TRUE,,,,TRUE,,,FEW,3000,BKN,3400,OVC,8500,,,VFR,-0.1,,,,,0.005,0.005,,,,,METAR,215.0
KSSC 180256Z AUTO 22007KT 10SM CLR 02/M03 A2995 RMK AO2 SLP145 T00171026 52009 $,KSSC,2021-01-18T02:56:00Z,33.97,-80.47,1.7,-2.6,220,7,,10.0,29.949802,1014.5,,TRUE,TRUE,TRUE,,,,,,CLR,,,,,,,,VFR,0.9,,,,,,,,,,,METAR,71.0
KSRC 180256Z AUTO 00000KT 10SM CLR 01/M03 A2999 RMK AO2 SLP158 T00061033 52011 FZRANO,KSRC,2021-01-18T02:56:00Z,35.22,-91.73,0.6,-3.3,0,0,,10.0,29.991142,1015.8,,TRUE,TRUE,,,,TRUE,,,CLR,,,,,,,,VFR,1.1,,,,,,,,,,,METAR,80.0
KSQI 180256Z 28013KT 10SM OVC032 M04/M06 A2979 RMK AO2 UPE13 SLP959 P0000 60000 T10391056 51001 FZRANO,KSQI,2021-01-18T02:56:00Z,41.75,-89.67,-3.9,-5.6,280,13,,10.0,29.790354,995.9,,,TRUE,,,,TRUE,,,OVC,3200,,,,,,,VFR,0.1,,,,,0.005,0.005,,,,,METAR,196.0
KSPD 180256Z AUTO 19012KT 00/M07 A2988 RMK AO1 SLP127 T00001067 58024,KSPD,2021-01-18T02:56:00Z,37.28,-102.62,0.0,-6.7,190,12,,,29.878937,1012.7,,TRUE,TRUE,,,,,,,,,,,,,,,,-2.4,,,,,,,,,,,METAR,1340.0
KSOP 180256Z AUTO 22009KT 10SM CLR 02/M02 A2991 RMK AO2 SLP136 6//// T00171022 51005 FZRANO PNO $,KSOP,2021-01-18T02:56:00Z,35.23,-79.4,1.7,-2.2,220,9,,10.0,29.911417,1013.6,,TRUE,TRUE,TRUE,,,TRUE,,,CLR,,,,,,,,VFR,0.5,,,,,,,,,,,METAR,135.0
KSMP 180256Z AUTO VRB06KT 1/4SM FG VV002 01/M01 A3039 RMK AO2 SNE00 SLP312 P0000 60000 I1000 I3000 T00061006 53004,KSMP,2021-01-18T02:56:00Z,47.28,-121.33,0.6,-0.6,0,6,,0.25,30.389763,1031.2,,TRUE,TRUE,,,,,,FG,OVX,0,,,,,,,LIFR,0.4,,,,,0.005,0.005,,,,200,METAR,1206.0
KSMN 180256Z AUTO 15004KT 10SM BKN050 OVC080 M04/M07 A3021 RMK AO2 SNE47 SLP282 P0000 60000 T10441067 50006 FZRANO,KSMN,2021-01-18T02:56:00Z,45.12,-113.87,-4.4,-6.7,150,4,,10.0,30.209646,1028.2,,TRUE,TRUE,,,,TRUE,,,BKN,5000,OVC,8000,,,,,VFR,0.6,,,,,0.005,0.005,,,,,METAR,1228.0
KSLG 180256Z AUTO 24005KT 10SM CLR 03/M05 A2999 RMK AO2 SLP165 T00281050 51006 TSNO,KSLG,2021-01-18T02:56:00Z,36.2,-94.48,2.8,-5.0,240,5,,10.0,29.991142,1016.5,,TRUE,TRUE,,,TRUE,,,,CLR,,,,,,,,VFR,0.6,,,,,,,,,,,METAR,361.0
KSKX 180256Z AUTO 13003KT 10SM CLR M01/M08 A3007 RMK AO2 SLP233 T10111083 58004 FZRANO,KSKX,2021-01-18T02:56:00Z,36.45,-105.67,-1.1,-8.3,130,3,,10.0,30.070866,1023.3,,TRUE,TRUE,,,,TRUE,,,CLR,,,,,,,,VFR,-0.4,,,,,,,,,,,METAR,2163.0
KSKF 180256Z AUTO 06007KT 10SM CLR 13/02 A3008 RMK AO2 SLP186 T01260024 52009 $,KSKF,2021-01-18T02:56:00Z,29.38,-98.57,12.6,2.4,60,7,,10.0,30.079725,1018.6,,TRUE,TRUE,TRUE,,,,,,CLR,,,,,,,,VFR,0.9,,,,,,,,,,,METAR,214.0
KSHV 180256Z 24006KT 10SM CLR 04/M03 A3009 RMK AO2 SLP190 T00391033 51008 $,KSHV,2021-01-18T02:56:00Z,32.45,-93.83,3.9,-3.3,240,6,,10.0,30.088583,1019.0,,,TRUE,TRUE,,,,,,CLR,,,,,,,,VFR,0.8,,,,,,,,,,,METAR,70.0
KSGU 180256Z AUTO 00000KT 10SM CLR 08/M09 A3006 RMK AO2 SLP185 T00831094 58006,KSGU,2021-01-18T02:56:00Z,37.03,-113.52,8.3,-9.4,0,0,,10.0,30.059055,1018.5,,TRUE,TRUE,,,,,,,CLR,,,,,,,,VFR,-0.6,,,,,,,,,,,METAR,877.0
KSGT 180256Z AUTO 26008KT 10SM CLR 05/M02 A3001 RMK AO2 SLP163 6//// T00501017 51009 PNO $,KSGT,2021-01-18T02:56:00Z,34.6,-91.57,5.0,-1.7,260,8,,10.0,30.008858,1016.3,,TRUE,TRUE,TRUE,,,,,,CLR,,,,,,,,VFR,0.9,,,,,,,,,,,METAR,67.0
KSGJ 180256Z AUTO 26006KT 10SM CLR 10/04 A3006 RMK AO2 SLP177 T01000044 52007 $,KSGJ,2021-01-18T02:56:00Z,29.97,-81.33,10.0,4.4,260,6,,10.0,30.059055,1017.7,,TRUE,TRUE,TRUE,,,,,,CLR,,,,,,,,VFR,0.7,,,,,,,,,,,METAR,2.0
KSGH 180256Z AUTO 27008KT 10SM BKN018 OVC039 M01/M02 A2975 RMK AO2 SNE14 SLP086 P0000 60000 T10111017 53005,KSGH,2021-01-18T02:56:00Z,39.83,-83.83,-1.1,-1.7,270,8,,10.0,29.749016,1008.6,,TRUE,TRUE,,,,,,,BKN,1800,OVC,3900,,,,,MVFR,0.5,,,,,0.005,0.005,,,,,METAR,318.0
KSFZ 180256Z AUTO 25006KT 10SM OVC055 03/M03 A2963 RMK AO2 SLP982 6//// T00331033 51013 PNO $,KSFZ,2021-01-18T02:56:00Z,41.92,-71.5,3.3,-3.3,250,6,,10.0,29.630905,998.2,,TRUE,TRUE,TRUE,,,,,,OVC,5500,,,,,,,VFR,1.3,,,,,,,,,,,METAR,129.0
KSFO 180256Z 30006KT 10SM CLR 14/08 A3000 RMK AO2 SLP159 T01440083 56005,KSFO,2021-01-18T02:56:00Z,37.62,-122.37,14.4,8.3,300,6,,10.0,30.0,1015.9,,,TRUE,,,,,,,CLR,,,,,,,,VFR,-0.5,,,,,,,,,,,METAR,2.0
KSFM 180256Z AUTO 25008KT 10SM 03/M03 A2951 RMK AO2 SLP998 T00331033 51019 $,KSFM,2021-01-18T02:56:00Z,43.38,-70.72,3.3,-3.3,250,8,,10.0,29.509842,999.8,,TRUE,TRUE,TRUE,,,,,,,,,,,,,,,1.9,,,,,,,,,,,METAR,70.0
KSDY 180256Z AUTO 00000KT 9SM -SN OVC033 M02/M03 A2979 RMK AO2 UPB06E51SNE06B51 SLP120 P0000 60000 T10171028 53002 FZRANO,KSDY,2021-01-18T02:56:00Z,47.7,-104.2,-1.7,-2.8,0,0,,9.0,29.790354,1012.0,,TRUE,TRUE,,,,TRUE,,-SN,OVC,3300,,,,,,,VFR,0.2,,,,,0.005,0.005,,,,,METAR,600.0
KSDF 180256Z 26006KT 9SM -SN SCT014 BKN060 OVC080 01/M02 A2985 RMK AO2 SLP112 PCPN VERY LGT P0000 60000 T00061017 51004,KSDF,2021-01-18T02:56:00Z,38.18,-85.73,0.6,-1.7,260,6,,9.0,29.84941,1011.2,,,TRUE,,,,,,-SN,SCT,1400,BKN,6000,OVC,8000,,,VFR,0.4,,,,,0.005,0.005,,,,,METAR,146.0
KSBP 180256Z 00000KT 10SM CLR 16/07 A2996 RMK AO2 SLP143 T01610072 53002,KSBP,2021-01-18T02:56:00Z,35.23,-120.63,16.1,7.2,0,0,,10.0,29.958662,1014.3,,,TRUE,,,,,,,CLR,,,,,,,,VFR,0.2,,,,,,,,,,,METAR,52.0
KRYM 180256Z AUTO 35007KT 10SM OVC017 M05/M08 A2980 RMK AO2 SLP114 T10531081 52003 $,KRYM,2021-01-18T02:56:00Z,46.08,-94.37,-5.3,-8.1,350,7,,10.0,29.799213,1011.4,,TRUE,TRUE,TRUE,,,,,,OVC,1700,,,,,,,MVFR,0.3,,,,,,,,,,,METAR,344.0
KRUT 180256Z AUTO 28011KT 10SM OVC037 01/M04 A2955 RMK AO2 SLP007 T00111044 51011 FZRANO $,KRUT,2021-01-18T02:56:00Z,43.53,-72.95,1.1,-4.4,280,11,,10.0,29.551182,1000.7,,TRUE,TRUE,TRUE,,,TRUE,,,OVC,3700,,,,,,,VFR,1.1,,,,,,,,,,,METAR,238.0
KRND 180256Z AUTO 03006KT 10SM CLR 12/M03 A3009 RMK AO2 SLP190 T01181028 52015 $,KRND,2021-01-18T02:56:00Z,29.53,-98.27,11.8,-2.8,30,6,,10.0,30.088583,1019.0,,TRUE,TRUE,TRUE,,,,,,CLR,,,,,,,,VFR,1.5,,,,,,,,,,,METAR,224.0
KRKD 180256Z AUTO 25009KT 10SM OVC043 02/M03 A2946 RMK AO2 SLP977 T00221033 51024 FZRANO,KRKD,2021-01-18T02:56:00Z,44.07,-69.1,2.2,-3.3,250,9,,10.0,29.459646,997.7,,TRUE,TRUE,,,,TRUE,,,OVC,4300,,,,,,,VFR,2.4,,,,,,,,,,,METAR,15.0
KRDM 180256Z 00000KT 10SM CLR 03/M04 A3038 RMK AO2 SLP305 T00281044 50008,KRDM,2021-01-18T02:56:00Z,44.25,-121.15,2.8,-4.4,0,0,,10.0,30.380905,1030.5,,,TRUE,,,,,,,CLR,,,,,,,,VFR,0.8,,,,,,,,,,,METAR,930.0
KRCA 180256Z 36006KT 7SM -SN BKN032 01/M01 A2976 RMK AO2A SLP114 T00071008 58004 PWINO PNO $,KRCA,2021-01-18T02:56:00Z,44.15,-103.12,0.7,-0.8,360,6,,7.0,29.760826,1011.4,,,TRUE,TRUE,,,,TRUE,-SN,BKN,3200,,,,,,,VFR,-0.4,,,,,,,,,,,METAR,993.0
KQVF 180256Z AUTO 09005KT 9000 /// /// CLR 26/23 A2983 RMK AO2 SLP104 WND DATA ESTMD T02550230,KQVF,2021-01-18T02:56:00Z,,,25.5,23.0,90,5,,5.59,29.828741,1010.4,,TRUE,TRUE,,,,,,,CLR,,,,,,,,VFR,,,,,,,,,,,,METAR,
KQRH 180256Z AUTO 00000KT 9000 HZ CLR 22/19 A2991 RMK AO2 SLP131 WND DATA ESTMD T02180188,KQRH,2021-01-18T02:56:00Z,,,21.8,18.8,0,0,,5.59,29.911417,1013.1,,TRUE,TRUE,,,,,,HZ,CLR,,,,,,,,VFR,,,,,,,,,,,,METAR,
KQN3 180256Z AUTO 00000KT 9999 CLR 21/M02 A2989 RMK AO2 SLP112 WND DATA ESTMD T02141023,KQN3,2021-01-18T02:56:00Z,,,21.4,-2.3,0,0,,6.21,29.890747,1011.2,,TRUE,TRUE,,,,,,,CLR,,,,,,,,VFR,,,,,,,,,,,,METAR,
KQHY 180256Z AUTO 28004KT 10SM CLR 10/04 A3005 RMK AO2 SLPNO T00980040 52011,KQHY,2021-01-18T02:56:00Z,,,9.8,4.0,280,4,,10.0,30.050198,,,TRUE,TRUE,,,,,,,CLR,,,,,,,,VFR,1.1,,,,,,,,,,,METAR,
KQDG 180256Z AUTO 21010KT 9999 BKN046 M00/M09 A2996 RMK AO2 SLP147 T10021092 58018 $,KQDG,2021-01-18T02:56:00Z,,,-0.2,-9.2,210,10,,6.21,29.958662,1014.7,,TRUE,TRUE,TRUE,,,,,,BKN,4600,,,,,,,VFR,-1.8,,,,,,,,,,,METAR,
KQD3 180256Z AUTO VRB03KT 9000 HZ CLR 22/19 A2993 RMK AO2 SLP120 WND DATA ESTMD T02150192,KQD3,2021-01-18T02:56:00Z,,,21.5,19.2,0,3,,5.59,29.929134,1012.0,,TRUE,TRUE,,,,,,HZ,CLR,,,,,,,,VFR,,,,,,,,,,,,METAR,
KQAZ 180256Z 08016G25KT 8000 HZ CLR 21/M06 A2998 RMK AO2A SLP121 WND DATA ESTMD T02051063,KQAZ,2021-01-18T02:56:00Z,,,20.5,-6.3,80,16,25,4.97,29.97933,1012.1,,,TRUE,,,,,,HZ,CLR,,,,,,,,MVFR,,,,,,,,,,,,METAR,
KQAJ 180256Z 24006KT 9999 CLR 10/02 A3001 RMK AO2A SLP176 WND DATA ESTMD T00950017 53021,KQAJ,2021-01-18T02:56:00Z,,,9.5,1.7,240,6,,6.21,30.008858,1017.6,,,TRUE,,,,,,,CLR,,,,,,,,VFR,2.1,,,,,,,,,,,METAR,
KPWT 180256Z AUTO 00000KT 10SM OVC047 07/06 A3052 RMK AO2 SLP341 T00670061 53006 $,KPWT,2021-01-18T02:56:00Z,47.5,-122.77,6.7,6.1,0,0,,10.0,30.519686,1034.1,,TRUE,TRUE,TRUE,,,,,,OVC,4700,,,,,,,VFR,0.6,,,,,,,,,,,METAR,143.0
KPWG 180256Z AUTO 10SM CLR 07/M02 A3012 RMK AO2 SLP200 T00671022 53004 $,KPWG,2021-01-18T02:56:00Z,31.48,-97.32,6.7,-2.2,,,,10.0,30.121063,1020.0,,TRUE,TRUE,TRUE,,,,,,CLR,,,,,,,,VFR,0.4,,,,,,,,,,,METAR,178.0
KPVU 180256Z 00000KT 10SM OVC100 02/M03 A3018 RMK AO2 SLP247 T00171033 56009,KPVU,2021-01-18T02:56:00Z,40.22,-111.72,1.7,-3.3,0,0,,10.0,30.180119,1024.7,,,TRUE,,,,,,,OVC,10000,,,,,,,VFR,-0.9,,,,,,,,,,,METAR,1370.0
KPVC 180256Z AUTO 25017G24KT 10SM OVC046 05/M01 A2962 RMK AO2 PK WND 24026/0234 SLP029 6//// T00501011 51013 PNO $,KPVC,2021-01-18T02:56:00Z,42.07,-70.22,5.0,-1.1,250,17,24,10.0,29.619095,1002.9,,TRUE,TRUE,TRUE,,,,,,OVC,4600,,,,,,,VFR,1.3,,,,,,,,,,,METAR,1.0
KPTV 180256Z AUTO 12004KT 7SM CLR 12/08 A3002 RMK AO2 SLP166 T01220078 58009,KPTV,2021-01-18T02:56:00Z,36.02,-119.07,12.2,7.8,120,4,,7.0,30.02067,1016.6,,TRUE,TRUE,,,,,,,CLR,,,,,,,,VFR,-0.9,,,,,,,,,,,METAR,132.0
KPTN 180256Z AUTO 00000KT 10SM CLR 08/05 A3012 RMK AO2 SLP199 6//// T00780050 51016 $,KPTN,2021-01-18T02:56:00Z,29.72,-91.33,7.8,5.0,0,0,,10.0,30.121063,1019.9,,TRUE,TRUE,TRUE,,,,,,CLR,,,,,,,,VFR,1.6,,,,,,,,,,,METAR,2.0
KPSM 180256Z 25008KT 10SM BKN048 04/M05 A2952 RMK AO2A SLP000 T00391046 52020 RVRNO $,KPSM,2021-01-18T02:56:00Z,43.08,-70.82,3.9,-4.6,250,8,,10.0,29.518702,1000.0,,,TRUE,TRUE,,,,,,BKN,4800,,,,,,,VFR,2.0,,,,,,,,,,,METAR,34.0
KPRX 180256Z AUTO 24005KT 10SM CLR 04/M05 A3008 RMK AO2 SLP204 T00391050 51009,KPRX,2021-01-18T02:56:00Z,33.63,-95.45,3.9,-5.0,240,5,,10.0,30.079725,1020.4,,TRUE,TRUE,,,,,,,CLR,,,,,,,,VFR,0.9,,,,,,,,,,,METAR,165.0
KPQI 180256Z AUTO 23008KT 10SM BKN024 OVC065 M02/M03 A2922 RMK AO2 SLP928 60000 T10171033 53025,KPQI,2021-01-18T02:56:00Z,46.68,-68.05,-1.7,-3.3,230,8,,10.0,29.220472,992.8,,TRUE,TRUE,,,,,,,BKN,2400,OVC,6500,,,,,MVFR,2.5,,,,,,0.005,,,,,METAR,154.0
KPOB 180256Z AUTO 00000KT 10SM CLR 01/M01 A2991 RMK AO2 SLP133 T00081014 51007 $,KPOB,2021-01-18T02:56:00Z,35.17,-79.02,0.8,-1.4,0,0,,10.0,29.911417,1013.3,,TRUE,TRUE,TRUE,,,,,,CLR,,,,,,,,VFR,0.7,,,,,,,,,,,METAR,57.0
KPIB 180256Z AUTO 31004KT 10SM SCT100 10/M03 A3007 RMK AO2 SLP182 T01001028 53019,KPIB,2021-01-18T02:56:00Z,31.47,-89.33,10.0,-2.8,310,4,,10.0,30.070866,1018.2,,TRUE,TRUE,,,,,,,SCT,10000,,,,,,,VFR,1.9,,,,,,,,,,,METAR,91.0
KPAM 180256Z AUTO 26012KT 10SM CLR 13/05 A3005 RMK AO2 SLP179 T01300054 52009 $,KPAM,2021-01-18T02:56:00Z,30.07,-85.57,13.0,5.4,260,12,,10.0,30.050198,1017.9,,TRUE,TRUE,TRUE,,,,,,CLR,,,,,,,,VFR,0.9,,,,,,,,,,,METAR,4.0
KP60 180256Z AUTO 28005KT M06/M08 A3004 RMK AO1 SLP209 T10611083 53012,KP60,2021-01-18T02:56:00Z,44.55,-110.42,-6.1,-8.3,280,5,,,30.041338,1020.9,,TRUE,TRUE,,,,,,,,,,,,,,,,1.2,,,,,,,,,,,METAR,2377.0
KP53 180256Z AUTO 21003KT M03/M05 A2971 RMK AO1 SLP069 T10331050 50001 $,KP53,2021-01-18T02:56:00Z,46.42,-86.65,-3.3,-5.0,210,3,,,29.71063,1006.9,,TRUE,TRUE,TRUE,,,,,,,,,,,,,,,0.1,,,,,,,,,,,SPECI,185.0
KP28 180256Z AUTO 00000KT M02/M09 A2996 RMK AO1 SLP156 T10221094 58010 $,KP28,2021-01-18T02:56:00Z,37.28,-98.55,-2.2,-9.4,0,0,,,29.958662,1015.6,,TRUE,TRUE,TRUE,,,,,,,,,,,,,,,-1.0,,,,,,,,,,,METAR,469.0
KOZR 180256Z AUTO 20005KT 10SM BKN130 06/02 A3001 RMK AO2 SLP166 T00640015 52011,KOZR,2021-01-18T02:56:00Z,31.28,-85.72,6.4,1.5,200,5,,10.0,30.008858,1016.6,,TRUE,TRUE,,,,,,,BKN,13000,,,,,,,VFR,1.1,,,,,,,,,,,METAR,90.0
KOWB 180256Z 27007KT 5SM -SN BR FEW014 BKN039 OVC047 01/00 A2988 RMK AO2 RAB04E30UPB30E31SNB31 SLP123 P0000 60000 T00060000 51006,KOWB,2021-01-18T02:56:00Z,37.72,-87.17,0.6,0.0,270,7,,5.0,29.878937,1012.3,,,TRUE,,,,,,-SN BR,FEW,1400,BKN,3900,OVC,4700,,,MVFR,0.6,,,,,0.005,0.005,,,,,METAR,121.0
KOTH 180256Z 01007KT 9SM CLR 09/09 A3044 RMK AO2 SLP306 T00940089 50001,KOTH,2021-01-18T02:56:00Z,43.42,-124.25,9.4,8.9,10,7,,9.0,30.43996,1030.6,,,TRUE,,,,,,,CLR,,,,,,,,VFR,0.1,,,,,,,,,,,METAR,3.0
KOTG 180256Z AUTO 34013KT 10SM SCT007 OVC023 M03/M04 A2982 RMK AO2 SNB14E24 SLP122 P0000 60000 T10331039 51006 FZRANO,KOTG,2021-01-18T02:56:00Z,43.65,-95.57,-3.3,-3.9,340,13,,10.0,29.819881,1012.2,,TRUE,TRUE,,,,TRUE,,,SCT,700,OVC,2300,,,,,MVFR,0.6,,,,,0.005,0.005,,,,,METAR,478.0
KOLU 180256Z AUTO 32004KT 10SM CLR M04/M06 A2987 RMK AO2 SLP133 T10391056 57004 FZRANO,KOLU,2021-01-18T02:56:00Z,41.45,-97.33,-3.9,-5.6,320,4,,10.0,29.870079,1013.3,,TRUE,TRUE,,,,TRUE,,,CLR,,,,,,,,VFR,-0.4,,,,,,,,,,,METAR,438.0
KOKK 180256Z AUTO 26010KT 9SM -SN OVC013 M02/M03 A2976 RMK AO2 SLP088 P0000 60000 T10171033 52000 FZRANO,KOKK,2021-01-18T02:56:00Z,40.53,-86.07,-1.7,-3.3,260,10,,9.0,29.760826,1008.8,,TRUE,TRUE,,,,TRUE,,-SN,OVC,1300,,,,,,,MVFR,0.0,,,,,0.005,0.005,,,,,METAR,251.0
KOFK 180256Z AUTO 00000KT 10SM CLR M03/M06 A2984 RMK AO2 SLP124 T10281061 58001,KOFK,2021-01-18T02:56:00Z,41.98,-97.43,-2.8,-6.1,0,0,,10.0,29.840551,1012.4,,TRUE,TRUE,,,,,,,CLR,,,,,,,,VFR,-0.1,,,,,,,,,,,METAR,476.0
KOFF 180256Z AUTO 26003KT 10SM CLR M02/M05 A2987 RMK AO2 SLP130 T10181053 57007 $,KOFF,2021-01-18T02:56:00Z,41.12,-95.92,-1.8,-5.3,260,3,,10.0,29.870079,1013.0,,TRUE,TRUE,TRUE,,,,,,CLR,,,,,,,,VFR,-0.7,,,,,,,,,,,METAR,308.0
KOCH 180256Z AUTO 00000KT 10SM CLR 03/M01 A3012 RMK AO2 SLP207 T00281011 51010,KOCH,2021-01-18T02:56:00Z,31.57,-94.72,2.8,-1.1,0,0,,10.0,30.121063,1020.7,,TRUE,TRUE,,,,,,,CLR,,,,,,,,VFR,1.0,,,,,,,,,,,METAR,105.0
KOAJ 180256Z AUTO 22003KT 10SM CLR 03/M01 A2994 RMK AO2 SLP141 T00281006 53008 $,KOAJ,2021-01-18T02:56:00Z,34.82,-77.62,2.8,-0.6,220,3,,10.0,29.940945,1014.1,,TRUE,TRUE,TRUE,,,,,,CLR,,,,,,,,VFR,0.8,,,,,,,,,,,METAR,26.0
KNYG 180256Z AUTO 23006KT 10SM OVC080 06/M02 A2980 RMK AO2 SLP092 T00611022 58002,KNYG,2021-01-18T02:56:00Z,38.5,-77.3,6.1,-2.2,230,6,,10.0,29.799213,1009.2,,TRUE,TRUE,,,,,,,OVC,8000,,,,,,,VFR,-0.2,,,,,,,,,,,METAR,2.0
KNXP 180256Z AUTO 25006KT 10SM CLR 13/M10 A3008 RMK AO2 SLP169 T01331100 58004,KNXP,2021-01-18T02:56:00Z,34.28,-116.13,13.3,-10.0,250,6,,10.0,30.079725,1016.9,,TRUE,TRUE,,,,,,,CLR,,,,,,,,VFR,-0.4,,,,,,,,,,,METAR,610.0
KNUW 180256Z 02005KT 10SM FEW030 BKN046 BKN250 07/04 A3057 RMK AO2 SLP351 T00720044 53011 $,KNUW,2021-01-18T02:56:00Z,48.35,-122.65,7.2,4.4,20,5,,10.0,30.569881,1035.1,,,TRUE,TRUE,,,,,,FEW,3000,BKN,4600,BKN,25000,,,VFR,1.1,,,,,,,,,,,METAR,14.0
KNUC 180256Z AUTO 20008KT 16/ A2995 RMK AO2 SLP139 T0161 53000 $,KNUC,2021-01-18T02:56:00Z,33.02,-118.57,16.1,,200,8,,,29.949802,1013.9,,TRUE,TRUE,TRUE,,,,,,,,,,,,,,,0.0,,,,,,,,,,,METAR,52.0
KNTU 180256Z 21003KT 10SM BKN200 04/M03 A2986 RMK AO2 SLP113 T00391028 53000,KNTU,2021-01-18T02:56:00Z,36.82,-76.02,3.9,-2.8,210,3,,10.0,29.861221,1011.3,,,TRUE,,,,,,,BKN,20000,,,,,,,VFR,0.0,,,,,,,,,,,METAR,6.0
KNRS 180256Z AUTO 3SM BR CLR A2995 RMK AO2 SLP143 54000 $,KNRS,2021-01-18T02:56:00Z,32.57,-117.12,,,,,,3.0,29.949802,1014.3,,TRUE,TRUE,TRUE,,,,,BR,CLR,,,,,,,,MVFR,,,,,,,,,,,,METAR,15.0
KNQI 180256Z AUTO 14006KT 10SM CLR 13/11 A3010 RMK AO2 SLP188 T01330106 51011 $,KNQI,2021-01-18T02:56:00Z,27.5,-97.82,13.3,10.6,140,6,,10.0,30.100393,1018.8,,TRUE,TRUE,TRUE,,,,,,CLR,,,,,,,,VFR,1.1,,,,,,,,,,,METAR,15.0
KNOG 180256Z AUTO 16004KT 10SM CLR A3011 RMK AO2 SLPNO 6//// 52017 PNO $,KNOG,2021-01-18T02:56:00Z,27.9,-98.05,,,160,4,,10.0,30.109253,,,TRUE,TRUE,TRUE,,,,,,CLR,,,,,,,,VFR,1.7,,,,,,,,,,,METAR,72.0
KNMM 180256Z AUTO 25004KT 10SM CLR 06/M04 A3004 RMK AO2 SLP183 T00611044 51020,KNMM,2021-01-18T02:56:00Z,32.53,-88.53,6.1,-4.4,250,4,,10.0,30.041338,1018.3,,TRUE,TRUE,,,,,,,CLR,,,,,,,,VFR,2.0,,,,,,,,,,,METAR,94.0
KNLC 180256Z 15003KT 5SM HZ CLR 12/06 A3001 RMK AO2 SLP163 T01220056 58010,KNLC,2021-01-18T02:56:00Z,36.32,-119.95,12.2,5.6,150,3,,5.0,30.008858,1016.3,,,TRUE,,,,,,HZ,CLR,,,,,,,,MVFR,-1.0,,,,,,,,,,,METAR,69.0
KNID 180256Z AUTO 29006KT 10SM CLR 12/M07 A3005 RMK AO2 SLP180 T01221072 55001 $,KNID,2021-01-18T02:56:00Z,35.68,-117.68,12.2,-7.2,290,6,,10.0,30.050198,1018.0,,TRUE,TRUE,TRUE,,,,,,CLR,,,,,,,,VFR,-0.1,,,,,,,,,,,METAR,682.0
KNGP 180256Z AUTO 15008KT 10SM CLR 15/12 A3010 RMK AO2 SLP192 T01500122 51008,KNGP,2021-01-18T02:56:00Z,27.68,-97.28,15.0,12.2,150,8,,10.0,30.100393,1019.2,,TRUE,TRUE,,,,,,,CLR,,,,,,,,VFR,0.8,,,,,,,,,,,SPECI,5.0
KNFL 180256Z AUTO 00000KT 10SM CLR 03/M02 A3022 RMK AO2 SLP195 T00281022 56003,KNFL,2021-01-18T02:56:00Z,39.42,-118.7,2.8,-2.2,0,0,,10.0,30.221457,1019.5,,TRUE,TRUE,,,,,,,CLR,,,,,,,,VFR,-0.3,,,,,,,,,,,METAR,1199.0
KNFE 180256Z AUTO 00000KT 10SM CLR 01/M02 A2987 RMK AO2 SLP117 T00111017 53001 $,KNFE,2021-01-18T02:56:00Z,36.7,-76.13,1.1,-1.7,0,0,,10.0,29.870079,1011.7,,TRUE,TRUE,TRUE,,,,,,CLR,,,,,,,,VFR,0.1,,,,,,,,,,,METAR,4.0
KNDZ 180256Z VRB03KT 10SM CLR 08/02 A3004 RMK SLP161 T00830022 51010,KNDZ,2021-01-18T02:56:00Z,30.7,-87.02,8.3,2.2,0,3,,10.0,30.041338,1016.1,,,,,,,,,,CLR,,,,,,,,VFR,1.0,,,,,,,,,,,METAR,51.0
KNCA 180256Z AUTO 24004KT 10SM CLR 04/M02 A2993 RMK AO2 SLP139 T00441017 53009 $,KNCA,2021-01-18T02:56:00Z,34.72,-77.45,4.4,-1.7,240,4,,10.0,29.929134,1013.9,,TRUE,TRUE,TRUE,,,,,,CLR,,,,,,,,VFR,0.9,,,,,,,,,,,METAR,9.0
KNBT 180256Z AUTO 22004KT 10SM CLR 04/00 A2992 RMK AO2 SLP135 T00440000 51006,KNBT,2021-01-18T02:56:00Z,35.02,-76.47,4.4,0.0,220,4,,10.0,29.920275,1013.5,,TRUE,TRUE,,,,,,,CLR,,,,,,,,VFR,0.6,,,,,,,,,,,METAR,5.0
KNBC 180256Z AUTO 19003KT 10SM CLR 07/01 A3000 RMK AO2 SLP158 T00670011 53007 $,KNBC,2021-01-18T02:56:00Z,32.47,-80.72,6.7,1.1,190,3,,10.0,30.0,1015.8,,TRUE,TRUE,TRUE,,,,,,CLR,,,,,,,,VFR,0.7,,,,,,,,,,,METAR,9.0
KMYR 180256Z 21005KT 10SM CLR 07/01 A2997 RMK AO2 SLP147 T00720006 53006,KMYR,2021-01-18T02:56:00Z,33.68,-78.92,7.2,0.6,210,5,,10.0,29.970472,1014.7,,,TRUE,,,,,,,CLR,,,,,,,,VFR,0.6,,,,,,,,,,,METAR,7.0
KMXF 180256Z AUTO 25003KT 10SM OVC080 08/M00 A2998 RMK AO2 SLP156 T00841001 51012 $,KMXF,2021-01-18T02:56:00Z,32.38,-86.37,8.4,-0.1,250,3,,10.0,29.97933,1015.6,,TRUE,TRUE,TRUE,,,,,,OVC,8000,,,,,,,VFR,1.2,,,,,,,,,,,METAR,47.0
KMVN 180256Z AUTO 28005KT 5SM -SN BR BKN010 BKN024 OVC070 00/M01 A2989 RMK AO2 UPB45E49SNE45B49 CIG 007V012 SLP132 P0000 60000 T00001006 51009 FZRANO,KMVN,2021-01-18T02:56:00Z,38.32,-88.87,0.0,-0.6,280,5,,5.0,29.890747,1013.2,,TRUE,TRUE,,,,TRUE,,-SN BR,BKN,1000,BKN,2400,OVC,7000,,,MVFR,0.9,,,,,0.005,0.005,,,,,METAR,145.0
KMUI 180256Z AUTO 23004KT 10SM SCT075 BKN095 03/M03 A2972 RMK AO2 SLP071 60000 T00251030 50001,KMUI,2021-01-18T02:56:00Z,40.43,-76.57,2.5,-3.0,230,4,,10.0,29.719488,1007.1,,TRUE,TRUE,,,,,,,SCT,7500,BKN,9500,,,,,VFR,0.1,,,,,,0.005,,,,,METAR,146.0
KMTW 180256Z AUTO 29007KT 9SM -SN OVC036 M02/M04 A2973 RMK AO2 SLP075 P0000 60000 T10171044 50003 FZRANO,KMTW,2021-01-18T02:56:00Z,44.12,-87.67,-1.7,-4.4,290,7,,9.0,29.731298,1007.5,,TRUE,TRUE,,,,TRUE,,-SN,OVC,3600,,,,,,,VFR,0.3,,,,,0.005,0.005,,,,,METAR,197.0
KMTC 180256Z 27003KT 7SM -SN BKN006 OVC021 00/00 A2966 RMK AO2A SLP054 P0000 60001 T00040004 51003 $,KMTC,2021-01-18T02:56:00Z,42.62,-82.83,0.4,0.4,270,3,,7.0,29.660433,1005.4,,,TRUE,TRUE,,,,,-SN,BKN,600,OVC,2100,,,,,IFR,0.3,,,,,0.005,,,,,,SPECI,177.0
KMSV 180256Z AUTO 25006KT 10SM BKN046 OVC060 01/M03 A2963 RMK AO2 SLP046 T00061033 51004 FZRANO,KMSV,2021-01-18T02:56:00Z,41.7,-74.78,0.6,-3.3,250,6,,10.0,29.630905,1004.6,,TRUE,TRUE,,,,TRUE,,,BKN,4600,OVC,6000,,,,,VFR,0.4,,,,,,,,,,,METAR,427.0
KMRF 180256Z AUTO 05003KT 10SM CLR 03/M15 A3013 RMK AO2 SLP206 T00281150 51004,KMRF,2021-01-18T02:56:00Z,30.37,-104.02,2.8,-15.0,50,3,,10.0,30.129921,1020.6,,TRUE,TRUE,,,,,,,CLR,,,,,,,,VFR,0.4,,,,,,,,,,,METAR,1476.0
KMQY 180256Z AUTO 30005KT 10SM BKN100 03/M05 A2992 RMK AO2 SLP142 6//// T00281050 51013 PNO $,KMQY,2021-01-18T02:56:00Z,36.02,-86.52,2.8,-5.0,300,5,,10.0,29.920275,1014.2,,TRUE,TRUE,TRUE,,,,,,BKN,10000,,,,,,,VFR,1.3,,,,,,,,,,,METAR,156.0
KMOB 180256Z 23005KT 10SM CLR 07/03 A3005 RMK AO2 SLP175 T00720033 53010,KMOB,2021-01-18T02:56:00Z,30.68,-88.25,7.2,3.3,230,5,,10.0,30.050198,1017.5,,,TRUE,,,,,,,CLR,,,,,,,,VFR,1.0,,,,,,,,,,,METAR,67.0
KMMT 180256Z AUTO 00000KT 10SM CLR M00/M01 A2994 RMK AO2 SLP143 T10041007 51009 $,KMMT,2021-01-18T02:56:00Z,33.92,-80.8,-0.4,-0.7,0,0,,10.0,29.940945,1014.3,,TRUE,TRUE,TRUE,,,,,,CLR,,,,,,,,VFR,0.9,,,,,,,,,,,METAR,76.0
KMML 180256Z AUTO 32006KT 10SM OVC031 M03/M06 A2984 RMK AO2 SNB36E46 SLP123 P0000 60000 T10331056 50004 FZRANO,KMML,2021-01-18T02:56:00Z,44.45,-95.82,-3.3,-5.6,320,6,,10.0,29.840551,1012.3,,TRUE,TRUE,,,,TRUE,,,OVC,3100,,,,,,,VFR,0.4,,,,,0.005,0.005,,,,,METAR,358.0
KMLP 180256Z AUTO VRB06KT 1 3/4SM BR OVC001 M04/M07 A3016 RMK AO2 T10441067 $,KMLP,2021-01-18T02:56:00Z,47.45,-115.67,-4.4,-6.7,0,6,,1.75,30.159449,,,TRUE,TRUE,TRUE,,,,,BR,OVC,100,,,,,,,LIFR,,,,,,,,,,,,METAR,1837.0
KMKY 180256Z AUTO 00000KT 10SM FEW080 BKN110 15/14 A3008 RMK AO2 SLP186 T01500139 50005 TSNO $,KMKY,2021-01-18T02:56:00Z,26.0,-81.67,15.0,13.9,0,0,,10.0,30.079725,1018.6,,TRUE,TRUE,TRUE,,TRUE,,,,FEW,8000,BKN,11000,,,,,VFR,0.5,,,,,,,,,,,METAR,2.0
KMKT 180256Z AUTO 30008KT 9SM -SN OVC010 M04/M04 A2982 RMK AO2 CIG 008V013 SLP116 P0000 60000 T10391044 53008 FZRANO,KMKT,2021-01-18T02:56:00Z,44.22,-93.92,-3.9,-4.4,300,8,,9.0,29.819881,1011.6,,TRUE,TRUE,,,,TRUE,,-SN,OVC,1000,,,,,,,MVFR,0.8,,,,,0.005,0.005,,,,,METAR,309.0
KMJX 180256Z AUTO 20004KT 10SM SCT075 OVC120 03/M02 A2976 RMK AO2 SLP083 T00331022 51002,KMJX,2021-01-18T02:56:00Z,39.93,-74.3,3.3,-2.2,200,4,,10.0,29.760826,1008.3,,TRUE,TRUE,,,,,,,SCT,7500,OVC,12000,,,,,VFR,0.2,,,,,,,,,,,METAR,22.0
KMIB 180256Z AUTO 11003KT 10SM CLR M05/M07 A2978 RMK AO2 SLP117 T10501070 56003,KMIB,2021-01-18T02:56:00Z,48.42,-101.35,-5.0,-7.0,110,3,,10.0,29.778543,1011.7,,TRUE,TRUE,,,,,,,CLR,,,,,,,,VFR,-0.3,,,,,,,,,,,METAR,505.0
KMHS 180256Z AUTO VRB04KT 10SM CLR 07/01 A3027 RMK AO2 SLP280 T00720006 53005,KMHS,2021-01-18T02:56:00Z,41.32,-122.32,7.2,0.6,0,4,,10.0,30.268702,1028.0,,TRUE,TRUE,,,,,,,CLR,,,,,,,,VFR,0.5,,,,,,,,,,,METAR,1080.0
KMGE 180256Z 24004KT 10SM BKN080 05/M02 A2990 RMK AO2A SLP131 T00491024 51005 $,KMGE,2021-01-18T02:56:00Z,33.92,-84.52,4.9,-2.4,240,4,,10.0,29.899607,1013.1,,,TRUE,TRUE,,,,,,BKN,8000,,,,,,,VFR,0.5,,,,,,,,,,,METAR,309.0
KMDT 180256Z 25005KT 10SM SCT090 BKN100 OVC130 05/M03 A2973 RMK AO2 SLP069 T00501028 50001,KMDT,2021-01-18T02:56:00Z,40.2,-76.77,5.0,-2.8,250,5,,10.0,29.731298,1006.9,,,TRUE,,,,,,,SCT,9000,BKN,10000,OVC,13000,,,VFR,0.1,,,,,,,,,,,METAR,91.0
KMCF 180256Z AUTO 00000KT 10SM BKN060 13/10 A3008 RMK AO2 SLP189 T01290095 53009 FZRANO VISNO RWY05 $,KMCF,2021-01-18T02:56:00Z,27.85,-82.52,12.9,9.5,0,0,,10.0,30.079725,1018.9,,TRUE,TRUE,TRUE,,,TRUE,,,BKN,6000,,,,,,,VFR,0.9,,,,,,,,,,,METAR,3.0
KMBL 180256Z AUTO 00000KT 9SM OVC049 M03/M04 A2970 RMK AO2 SLP064 P0001 60003 T10331039 53003 FZRANO,KMBL,2021-01-18T02:56:00Z,44.27,-86.25,-3.3,-3.9,0,0,,9.0,29.698818,1006.4,,TRUE,TRUE,,,,TRUE,,,OVC,4900,,,,,,,VFR,0.3,,,,,0.01,0.03,,,,,METAR,187.0
KM19 180256Z AUTO 23007KT 10SM OVC080 06/M03 A2997 RMK AO2 SLP148 T00611033 51010,KM19,2021-01-18T02:56:00Z,35.65,-91.17,6.1,-3.3,230,7,,10.0,29.970472,1014.8,,TRUE,TRUE,,,,,,,OVC,8000,,,,,,,VFR,1.0,,,,,,,,,,,METAR,72.0
KLZU 180256Z 22006KT 10SM CLR 03/M03 A2990 RMK AO2 SLP143 T00281028 51003,KLZU,2021-01-18T02:56:00Z,33.98,-83.97,2.8,-2.8,220,6,,10.0,29.899607,1014.3,,,TRUE,,,,,,,CLR,,,,,,,,VFR,0.3,,,,,,,,,,,METAR,316.0
KLWS 180256Z 16003KT 10SM CLR 04/02 A3036 RMK AO2 SLP292 T00390017 53013,KLWS,2021-01-18T02:56:00Z,46.37,-117.02,3.9,1.7,160,3,,10.0,30.360237,1029.2,,,TRUE,,,,,,,CLR,,,,,,,,VFR,1.3,,,,,,,,,,,METAR,435.0
KLTS 180256Z AUTO 23008KT 10SM CLR 05/M23 A3004 RMK AO2 SLP178 T00521229 58005 $,KLTS,2021-01-18T02:56:00Z,34.67,-99.27,5.2,-22.9,230,8,,10.0,30.041338,1017.8,,TRUE,TRUE,TRUE,,,,,,CLR,,,,,,,,VFR,-0.5,,,,,,,,,,,METAR,416.0
KLSF 180256Z AUTO 12005KT 10SM FEW180 01/M02 A2996 RMK AO2 SLP152 T00101019 52007 $,KLSF,2021-01-18T02:56:00Z,32.32,-84.97,1.0,-1.9,120,5,,10.0,29.958662,1015.2,,TRUE,TRUE,TRUE,,,,,,FEW,18000,,,,,,,VFR,0.7,,,,,,,,,,,METAR,68.0
KLRF 180256Z AUTO 28003KT 10SM CLR 01/M05 A2999 RMK AO2 SLP161 T00081046 52009,KLRF,2021-01-18T02:56:00Z,34.92,-92.12,0.8,-4.6,280,3,,10.0,29.991142,1016.1,,TRUE,TRUE,,,,,,,CLR,,,,,,,,VFR,0.9,,,,,,,,,,,METAR,85.0
KLRD 180256Z 00000KT 10SM CLR 13/09 A3007 RMK AO2 SLP184 T01330089 53008,KLRD,2021-01-18T02:56:00Z,27.55,-99.47,13.3,8.9,0,0,,10.0,30.070866,1018.4,,,TRUE,,,,,,,CLR,,,,,,,,VFR,0.8,,,,,,,,,,,METAR,150.0
KLPC 180256Z AUTO 07004KT 10SM 13/06 A2996 RMK AO2 SLP148 T01330056 50005 $,KLPC,2021-01-18T02:56:00Z,34.67,-120.47,13.3,5.6,70,4,,10.0,29.958662,1014.8,,TRUE,TRUE,TRUE,,,,,,,,,,,,,,,0.5,,,,,,,,,,,METAR,26.0
KLNR 180256Z AUTO 29006KT 10SM OVC022 M02/M06 A2977 RMK AO2 SLP084 T10171056 51003,KLNR,2021-01-18T02:56:00Z,43.22,-90.18,-1.7,-5.6,290,6,,10.0,29.769686,1008.4,,TRUE,TRUE,,,,,,,OVC,2200,,,,,,,MVFR,0.3,,,,,,,,,,,METAR,218.0
KLHW 180256Z AUTO 21004KT 10SM CLR 05/01 A2998 RMK AO2 SLP155 T00520008 52006 $,KLHW,2021-01-18T02:56:00Z,31.88,-81.57,5.2,0.8,210,4,,10.0,29.97933,1015.5,,TRUE,TRUE,TRUE,,,,,,CLR,,,,,,,,VFR,0.6,,,,,,,,,,,METAR,14.0
KLGD 180256Z AUTO 33006KT 10SM FEW027 02/00 A3036 RMK AO2 SLP300 T00170000 53003 FZRANO,KLGD,2021-01-18T02:56:00Z,45.28,-118.0,1.7,0.0,330,6,,10.0,30.360237,1030.0,,TRUE,TRUE,,,,TRUE,,,FEW,2700,,,,,,,VFR,0.3,,,,,,,,,,,METAR,827.0
KLFI 180256Z AUTO 20004KT 10SM OVC065 06/01 A2985 RMK AO2 SLP115 T00560006 55001 $,KLFI,2021-01-18T02:56:00Z,37.08,-76.33,5.6,0.6,200,4,,10.0,29.84941,1011.5,,TRUE,TRUE,TRUE,,,,,,OVC,6500,,,,,,,VFR,-0.1,,,,,,,,,,,METAR,2.0
KLEW 180256Z AUTO 25004KT 10SM OVC046 02/M05 A2947 RMK AO2 SLP988 T00171050 53021 FZRANO,KLEW,2021-01-18T02:56:00Z,44.03,-70.28,1.7,-5.0,250,4,,10.0,29.471457,998.8,,TRUE,TRUE,,,,TRUE,,,OVC,4600,,,,,,,VFR,2.1,,,,,,,,,,,METAR,81.0
KLCI 180256Z AUTO 25013G21KT 10SM OVC046 02/M04 A2950 RMK AO2 SLP996 T00171044 51018 FZRANO,KLCI,2021-01-18T02:56:00Z,43.57,-71.42,1.7,-4.4,250,13,21,10.0,29.500984,999.6,,TRUE,TRUE,,,,TRUE,,,OVC,4600,,,,,,,VFR,1.8,,,,,,,,,,,METAR,166.0
KLBL 180256Z AUTO 23008KT 10SM CLR M01/M07 A2995 RMK AO2 SLP159 T10061072 58016 FZRANO,KLBL,2021-01-18T02:56:00Z,37.03,-100.97,-0.6,-7.2,230,8,,10.0,29.949802,1015.9,,TRUE,TRUE,,,,TRUE,,,CLR,,,,,,,,VFR,-1.6,,,,,,,,,,,METAR,877.0
KLAS 180256Z 00000KT 10SM CLR 14/M07 A3002 RMK AO2 SLP164 T01441067 56009 $,KLAS,2021-01-18T02:56:00Z,36.07,-115.17,14.4,-6.7,0,0,,10.0,30.02067,1016.4,,,TRUE,TRUE,,,,,,CLR,,,,,,,,VFR,-0.9,,,,,,,,,,,METAR,662.0
KJXN 180256Z AUTO 24007KT 3SM BR OVC006 M01/M02 A2967 RMK AO2 SNE06B19E55 SLP057 P0000 60002 T10061022 50001,KJXN,2021-01-18T02:56:00Z,42.27,-84.47,-0.6,-2.2,240,7,,3.0,29.66929,1005.7,,TRUE,TRUE,,,,,,BR,OVC,600,,,,,,,IFR,0.1,,,,,0.005,0.02,,,,,METAR,303.0
KJRB 180256Z AUTO 27012KT 10SM OVC075 06/M02 A2974 RMK AO2 SLP069 T00561022 51002,KJRB,2021-01-18T02:56:00Z,40.7,-74.02,5.6,-2.2,270,12,,10.0,29.740158,1006.9,,TRUE,TRUE,,,,,,,OVC,7500,,,,,,,VFR,0.2,,,,,,,,,,,METAR,2.0
KJMS 180256Z AUTO 00000KT 10SM BKN070 M06/M08 A2982 RMK AO2 SLP119 T10611083 50001,KJMS,2021-01-18T02:56:00Z,46.93,-98.67,-6.1,-8.3,0,0,,10.0,29.819881,1011.9,,TRUE,TRUE,,,,,,,BKN,7000,,,,,,,VFR,0.1,,,,,,,,,,,METAR,455.0
KJHW 180256Z AUTO 25008KT 4SM -SN BR BKN007 OVC028 M02/M02 A2962 RMK AO2 CIG 004V010 SLP052 P0000 60000 T10171022 58004 FZRANO,KJHW,2021-01-18T02:56:00Z,42.15,-79.27,-1.7,-2.2,250,8,,4.0,29.619095,1005.2,,TRUE,TRUE,,,,TRUE,,-SN BR,BKN,700,OVC,2800,,,,,IFR,-0.4,,,,,0.005,0.005,,,,,METAR,520.0
KJAX 180256Z 24007KT 10SM BKN250 08/03 A3003 RMK AO2 SLP169 T00780033 51010,KJAX,2021-01-18T02:56:00Z,30.5,-81.68,7.8,3.3,240,7,,10.0,30.029528,1016.9,,,TRUE,,,,,,,BKN,25000,,,,,,,VFR,1.0,,,,,,,,,,,METAR,8.0
KJAC 180256Z 04009KT 10SM SCT047 M02/M04 A3004 RMK AO2 SLP229 T10171044 53002,KJAC,2021-01-18T02:56:00Z,43.62,-110.73,-1.7,-4.4,40,9,,10.0,30.041338,1022.9,,,TRUE,,,,,,,SCT,4700,,,,,,,VFR,0.2,,,,,,,,,,,METAR,1967.0
KIWD 180256Z AUTO 00000KT 9SM OVC017 M06/M07 A2973 RMK AO2 SNE01B25E55 SLP088 P0000 60000 T10561072 58003 FZRANO,KIWD,2021-01-18T02:56:00Z,46.52,-90.12,-5.6,-7.2,0,0,,9.0,29.731298,1008.8,,TRUE,TRUE,,,,TRUE,,,OVC,1700,,,,,,,MVFR,-0.3,,,,,0.005,0.005,,,,,METAR,373.0
KISP 180256Z 22007KT 10SM OVC060 05/M03 A2971 RMK AO2 SLP062 T00501033 50006,KISP,2021-01-18T02:56:00Z,40.8,-73.1,5.0,-3.3,220,7,,10.0,29.71063,1006.2,,,TRUE,,,,,,,OVC,6000,,,,,,,VFR,0.6,,,,,,,,,,,METAR,25.0
KISM 180256Z AUTO 00000KT 10SM SCT060 12/10 A3008 RMK AO2 SLP187 6//// T01170100 53000 PNO $,KISM,2021-01-18T02:56:00Z,28.28,-81.43,11.7,10.0,0,0,,10.0,30.079725,1018.7,,TRUE,TRUE,TRUE,,,,,,SCT,6000,,,,,,,VFR,0.0,,,,,,,,,,,METAR,25.0
KINW 180256Z AUTO 22006KT 10SM CLR M01/M20 A3010 RMK AO2 SLP226 T10111200 58004 TSNO,KINW,2021-01-18T02:56:00Z,35.03,-110.72,-1.1,-20.0,220,6,,10.0,30.100393,1022.6,,TRUE,TRUE,,,TRUE,,,,CLR,,,,,,,,VFR,-0.4,,,,,,,,,,,METAR,1492.0
KILE 180256Z AUTO 00000KT 10SM CLR 07/M01 A3012 RMK AO2 SLP197 T00671006 53006,KILE,2021-01-18T02:56:00Z,31.08,-97.68,6.7,-0.6,0,0,,10.0,30.121063,1019.7,,TRUE,TRUE,,,,,,,CLR,,,,,,,,VFR,0.6,,,,,,,,,,,METAR,256.0
KIAB 180256Z AUTO 25008KT 10SM CLR 03/M08 A2994 RMK AO2 SLP150 T00281083 57007 $,KIAB,2021-01-18T02:56:00Z,37.62,-97.27,2.8,-8.3,250,8,,10.0,29.940945,1015.0,,TRUE,TRUE,TRUE,,,,,,CLR,,,,,,,,VFR,-0.7,,,,,,,,,,,METAR,413.0
KHYS 180256Z AUTO 00000KT 10SM SCT100 M01/M11 A2990 RMK AO2 SLP145 T10111111 58014 FZRANO,KHYS,2021-01-18T02:56:00Z,38.85,-99.27,-1.1,-11.1,0,0,,10.0,29.899607,1014.5,,TRUE,TRUE,,,,TRUE,,,SCT,10000,,,,,,,VFR,-1.4,,,,,,,,,,,METAR,607.0
KHYI 180256Z AUTO 03005KT 10SM CLR 09/M02 A3012 RMK AO2 SLP198 T00891017 51014,KHYI,2021-01-18T02:56:00Z,29.88,-97.87,8.9,-1.7,30,5,,10.0,30.121063,1019.8,,TRUE,TRUE,,,,,,,CLR,,,,,,,,VFR,1.4,,,,,,,,,,,METAR,180.0
KHYA 180256Z 24014G20KT 10SM SCT050 05/M02 A2963 RMK AO2 PK WND 27027/0200 SLP035 T00501017 53014,KHYA,2021-01-18T02:56:00Z,41.67,-70.27,5.0,-1.7,240,14,20,10.0,29.630905,1003.5,,,TRUE,,,,,,,SCT,5000,,,,,,,VFR,1.4,,,,,,,,,,,METAR,11.0
KHWV 180256Z AUTO 23006KT 10SM OVC055 06/M04 A2972 RMK AO2 SLP065 T00561039 51007,KHWV,2021-01-18T02:56:00Z,40.82,-72.87,5.6,-3.9,230,6,,10.0,29.719488,1006.5,,TRUE,TRUE,,,,,,,OVC,5500,,,,,,,VFR,0.7,,,,,,,,,,,METAR,20.0
KHST 180256Z AUTO 00000KT 10SM SCT130 OVC160 15/10 A3007 RMK AO2 SLP186 T01540095 50009,KHST,2021-01-18T02:56:00Z,25.48,-80.37,15.4,9.5,0,0,,10.0,30.070866,1018.6,,TRUE,TRUE,,,,,,,SCT,13000,OVC,16000,,,,,VFR,0.9,,,,,,,,,,,METAR,1.0
KHRT 180256Z AUTO 25003KT 10SM CLR 10/03 A3004 RMK AO2 SLP174 T00950028 52011 $,KHRT,2021-01-18T02:56:00Z,30.42,-86.68,9.5,2.8,250,3,,10.0,30.041338,1017.4,,TRUE,TRUE,TRUE,,,,,,CLR,,,,,,,,VFR,1.1,,,,,,,,,,,METAR,10.0
KHPN 180256Z 24010KT 10SM BKN060 04/M04 A2969 RMK AO2 SLP057 T00441044 51005,KHPN,2021-01-18T02:56:00Z,41.07,-73.7,4.4,-4.4,240,10,,10.0,29.68996,1005.7,,,TRUE,,,,,,,BKN,6000,,,,,,,VFR,0.5,,,,,,,,,,,METAR,113.0
KHND 180256Z 17009KT 10SM CLR 12/M09 A3005 RMK AO2 SLP196 T01221094 56009,KHND,2021-01-18T02:56:00Z,35.98,-115.13,12.2,-9.4,170,9,,10.0,30.050198,1019.6,,,TRUE,,,,,,,CLR,,,,,,,,VFR,-0.9,,,,,,,,,,,METAR,740.0
KHFF 180256Z AUTO 00000KT 10SM CLR M01/M03 A2991 RMK AO2 SLP147 T10111026 51007 $,KHFF,2021-01-18T02:56:00Z,35.03,-79.5,-1.1,-2.6,0,0,,10.0,29.911417,1014.7,,TRUE,TRUE,TRUE,,,,,,CLR,,,,,,,,VFR,0.7,,,,,,,,,,,METAR,100.0
KHEZ 180256Z AUTO 31008KT 10SM CLR 09/M04 A3010 RMK AO2 SLP194 T00891044 53021,KHEZ,2021-01-18T02:56:00Z,31.62,-91.3,8.9,-4.4,310,8,,10.0,30.100393,1019.4,,TRUE,TRUE,,,,,,,CLR,,,,,,,,VFR,2.1,,,,,,,,,,,METAR,82.0
KHEF 180256Z 19003KT 10SM OVC085 02/M02 A2978 RMK AO2 SLP092 T00171022 58002 FZRANO,KHEF,2021-01-18T02:56:00Z,38.72,-77.52,1.7,-2.2,190,3,,10.0,29.778543,1009.2,,,TRUE,,,,TRUE,,,OVC,8500,,,,,,,VFR,-0.2,,,,,,,,,,,METAR,53.0
KHDN 180256Z AUTO 07007KT 10SM OVC055 M01/M04 A3002 RMK AO2 SLP191 T10061039 58014 FZRANO,KHDN,2021-01-18T02:56:00Z,40.48,-107.22,-0.6,-3.9,70,7,,10.0,30.02067,1019.1,,TRUE,TRUE,,,,TRUE,,,OVC,5500,,,,,,,VFR,-1.4,,,,,,,,,,,METAR,2012.0
KGXY 180256Z AUTO 02004KT 10SM OVC110 03/M07 A2982 RMK AO2 SLP129 T00281072 56012,KGXY,2021-01-18T02:56:00Z,40.43,-104.62,2.8,-7.2,20,4,,10.0,29.819881,1012.9,,TRUE,TRUE,,,,,,,OVC,11000,,,,,,,VFR,-1.2,,,,,,,,,,,METAR,1420.0
KGUC 180256Z AUTO 34006KT 10SM CLR M04/M09 A3008 RMK AO2 SLP240 T10391094 58004 FZRANO,KGUC,2021-01-18T02:56:00Z,38.52,-106.93,-3.9,-9.4,340,6,,10.0,30.079725,1024.0,,TRUE,TRUE,,,,TRUE,,,CLR,,,,,,,,VFR,-0.4,,,,,,,,,,,METAR,2337.0
KGTU 180256Z 00000KT 10SM CLR 06/M02 A3013 RMK AO2 SLP209 T00561017 51008,KGTU,2021-01-18T02:56:00Z,30.68,-97.68,5.6,-1.7,0,0,,10.0,30.129921,1020.9,,,TRUE,,,,,,,CLR,,,,,,,,VFR,0.8,,,,,,,,,,,METAR,232.0
KGTR 180256Z AUTO 22006KT 10SM CLR 03/M03 A3001 RMK AO2 SLP172 T00281028 51014,KGTR,2021-01-18T02:56:00Z,33.45,-88.58,2.8,-2.8,220,6,,10.0,30.008858,1017.2,,TRUE,TRUE,,,,,,,CLR,,,,,,,,VFR,1.4,,,,,,,,,,,METAR,80.0
KGTB 180256Z 28003KT 10SM OVC017 M02/M05 A2958 RMK AO2A UPB09E35 SLP024 P0000 60000 T10221047 50004,KGTB,2021-01-18T02:56:00Z,44.07,-75.72,-2.2,-4.7,280,3,,10.0,29.58071,1002.4,,,TRUE,,,,,,,OVC,1700,,,,,,,MVFR,0.4,,,,,0.005,0.005,,,,,METAR,206.0
KGSB 180256Z AUTO 22004KT 10SM CLR 04/M03 A2990 RMK AO2 SLP129 T00371027 52009 $,KGSB,2021-01-18T02:56:00Z,35.33,-77.93,3.7,-2.7,220,4,,10.0,29.899607,1012.9,,TRUE,TRUE,TRUE,,,,,,CLR,,,,,,,,VFR,0.9,,,,,,,,,,,METAR,33.0
KGRD 180256Z AUTO 19006KT 10SM FEW065 03/M02 A2993 RMK AO2 SLP137 T00281022 53003,KGRD,2021-01-18T02:56:00Z,34.25,-82.15,2.8,-2.2,190,6,,10.0,29.929134,1013.7,,TRUE,TRUE,,,,,,,FEW,6500,,,,,,,VFR,0.3,,,,,,,,,,,METAR,188.0
KGPZ 180256Z AUTO 32007KT 9SM -SN SCT008 BKN017 OVC022 M07/M08 A2977 RMK AO2 SNB25 SLP110 P0000 60000 T10721083 52001 FZRANO,KGPZ,2021-01-18T02:56:00Z,47.22,-93.52,-7.2,-8.3,320,7,,9.0,29.769686,1011.0,,TRUE,TRUE,,,,TRUE,,-SN,SCT,800,BKN,1700,OVC,2200,,,MVFR,0.1,,,,,0.005,0.005,,,,,METAR,410.0
KGON 180256Z 25013G21KT 10SM OVC060 06/M01 A2968 RMK AO2 SLP049 T00561011 51009,KGON,2021-01-18T02:56:00Z,41.33,-72.05,5.6,-1.1,250,13,21,10.0,29.681103,1004.9,,,TRUE,,,,,,,OVC,6000,,,,,,,VFR,0.9,,,,,,,,,,,METAR,2.0
KGNR 180256Z AUTO VRB06KT M03/M07 A2930 RMK AO1 SLP938 T10281072 53027,KGNR,2021-01-18T02:56:00Z,45.47,-69.55,-2.8,-7.2,0,6,,,29.300198,993.8,,TRUE,TRUE,,,,,,,,,,,,,,,,2.7,,,,,,,,,,,SPECI,426.0
KGNA 180256Z AUTO 33007KT M06/M11 A2976 RMK AO1 SLP093 T10561106 58002,KGNA,2021-01-18T02:56:00Z,47.75,-90.35,-5.6,-10.6,330,7,,,29.760826,1009.3,,TRUE,TRUE,,,,,,,,,,,,,,,,-0.2,,,,,,,,,,,METAR,186.0
KGBD 180256Z AUTO 23008KT 10SM CLR M01/M09 A2993 RMK AO2 SLP151 T10111094 58010 FZRANO,KGBD,2021-01-18T02:56:00Z,38.35,-98.87,-1.1,-9.4,230,8,,10.0,29.929134,1015.1,,TRUE,TRUE,,,,TRUE,,,CLR,,,,,,,,VFR,-1.0,,,,,,,,,,,METAR,573.0
KGAI 180256Z AUTO 23003KT 10SM OVC090 04/M02 A2976 RMK AO2 SLP095 T00441022 50001,KGAI,2021-01-18T02:56:00Z,39.17,-77.17,4.4,-2.2,230,3,,10.0,29.760826,1009.5,,TRUE,TRUE,,,,,,,OVC,9000,,,,,,,VFR,0.1,,,,,,,,,,,METAR,151.0
KGAD 180256Z AUTO 27008KT 10SM FEW070 07/M03 A2995 RMK AO2 SLP147 60000 T00671028 53012,KGAD,2021-01-18T02:56:00Z,33.97,-86.08,6.7,-2.8,270,8,,10.0,29.949802,1014.7,,TRUE,TRUE,,,,,,,FEW,7000,,,,,,,VFR,1.2,,,,,,0.005,,,,,METAR,169.0
KFTK 180256Z AUTO 25005KT 10SM FEW030 SCT045 OVC055 00/M02 A2985 RMK AO2 SLP118 60000 T10021020 52003,KFTK,2021-01-18T02:56:00Z,37.9,-85.97,-0.2,-2.0,250,5,,10.0,29.84941,1011.8,,TRUE,TRUE,,,,,,,FEW,3000,SCT,4500,OVC,5500,,,VFR,0.3,,,,,,0.005,,,,,METAR,225.0
KFSI 180256Z AUTO 00000KT 10SM CLR 03/M07 A3003 RMK AO2 SLP172 T00321068 58002 $,KFSI,2021-01-18T02:56:00Z,34.65,-98.4,3.2,-6.8,0,0,,10.0,30.029528,1017.2,,TRUE,TRUE,TRUE,,,,,,CLR,,,,,,,,VFR,-0.2,,,,,,,,,,,METAR,360.0
KFSD 180256Z 00000KT 10SM FEW036 BKN180 M03/M05 A2982 RMK AO2 SLP117 T10281050 58003 $,KFSD,2021-01-18T02:56:00Z,43.58,-96.75,-2.8,-5.0,0,0,,10.0,29.819881,1011.7,,,TRUE,TRUE,,,,,,FEW,3600,BKN,18000,,,,,VFR,-0.3,,,,,,,,,,,METAR,433.0
KFRM 180256Z AUTO 33011KT 9SM -SN OVC012 M03/M04 A2982 RMK AO2 SLP116 P0000 60000 T10281039 53006 FZRANO,KFRM,2021-01-18T02:56:00Z,43.63,-94.42,-2.8,-3.9,330,11,,9.0,29.819881,1011.6,,TRUE,TRUE,,,,TRUE,,-SN,OVC,1200,,,,,,,MVFR,0.6,,,,,0.005,0.005,,,,,METAR,353.0
KFRI 180256Z AUTO 00000KT 10SM CLR M02/M07 A2990 RMK AO2 SLP133 T10181075 57004,KFRI,2021-01-18T02:56:00Z,39.05,-96.77,-1.8,-7.5,0,0,,10.0,29.899607,1013.3,,TRUE,TRUE,,,,,,,CLR,,,,,,,,VFR,-0.4,,,,,,,,,,,METAR,232.0
KFNL 180256Z AUTO 28007KT 10SM CLR 00/M06 A2982 RMK AO2 SLP116 T00001061 55013 FZRANO,KFNL,2021-01-18T02:56:00Z,40.45,-105.02,0.0,-6.1,280,7,,10.0,29.819881,1011.6,,TRUE,TRUE,,,,TRUE,,,CLR,,,,,,,,VFR,-1.3,,,,,,,,,,,METAR,1529.0
KFLP 180256Z AUTO 26006KT 10SM CLR 03/M04 A2995 RMK AO2 SLP147 T00331039 51007,KFLP,2021-01-18T02:56:00Z,36.28,-92.58,3.3,-3.9,260,6,,10.0,29.949802,1014.7,,TRUE,TRUE,,,,,,,CLR,,,,,,,,VFR,0.7,,,,,,,,,,,METAR,215.0
KFKL 180256Z AUTO 24005KT 2SM -SN BR OVC004 M01/M02 A2966 RMK AO2 CIG 003V008 SLP059 P0001 60003 T10061017 57004 FZRANO,KFKL,2021-01-18T02:56:00Z,41.37,-79.87,-0.6,-1.7,240,5,,2.0,29.660433,1005.9,,TRUE,TRUE,,,,TRUE,,-SN BR,OVC,400,,,,,,,LIFR,-0.4,,,,,0.01,0.03,,,,,METAR,468.0
KFFO 180256Z 26005KT 10SM SCT019 OVC044 00/M04 A2976 RMK AO2A SLP088 P0000 60000 T10051039 52004,KFFO,2021-01-18T02:56:00Z,39.83,-84.03,-0.5,-3.9,260,5,,10.0,29.760826,1008.8,,,TRUE,,,,,,,SCT,1900,OVC,4400,,,,,VFR,0.4,,,,,0.005,,,,,,SPECI,250.0
KFCI 180256Z AUTO 00000KT 10SM FEW070 BKN085 04/M02 A2983 RMK AO2 SLP114 6//// T00441017 58002 PNO $,KFCI,2021-01-18T02:56:00Z,37.4,-77.52,4.4,-1.7,0,0,,10.0,29.828741,1011.4,,TRUE,TRUE,TRUE,,,,,,FEW,7000,BKN,8500,,,,,VFR,-0.2,,,,,,,,,,,METAR,63.0
KFBG 180256Z AUTO 00000KT 10SM CLR 01/01 A2990 RMK AO2 SLP130 T00060005 51008,KFBG,2021-01-18T02:56:00Z,35.12,-78.92,0.6,0.5,0,0,,10.0,29.899607,1013.0,,TRUE,TRUE,,,,,,,CLR,,,,,,,,VFR,0.8,,,,,,,,,,,METAR,69.0
KFAM 180256Z AUTO 28004KT 10SM -RA BKN035 OVC042 01/M01 A2989 RMK AO2 RAE07B24 SLP142 P0000 60000 T00111006 50003 FZRANO,KFAM,2021-01-18T02:56:00Z,37.77,-90.42,1.1,-0.6,280,4,,10.0,29.890747,1014.2,,TRUE,TRUE,,,,TRUE,,-RA,BKN,3500,OVC,4200,,,,,VFR,0.3,,,,,0.005,0.005,,,,,METAR,276.0
KFAF 180256Z AUTO 20003KT 10SM OVC060 06/00 A2983 RMK AO2 SLP105 T00560002 55000 $,KFAF,2021-01-18T02:56:00Z,37.13,-76.62,5.6,0.2,200,3,,10.0,29.828741,1010.5,,TRUE,TRUE,TRUE,,,,,,OVC,6000,,,,,,,VFR,0.0,,,,,,,,,,,METAR,3.0
KEWK 180256Z AUTO 23007KT 10SM CLR 01/M08 A2994 RMK AO2 SLP146 T00061083 58008 FZRANO,KEWK,2021-01-18T02:56:00Z,38.05,-97.27,0.6,-8.3,230,7,,10.0,29.940945,1014.6,,TRUE,TRUE,,,,TRUE,,,CLR,,,,,,,,VFR,-0.8,,,,,,,,,,,METAR,468.0
KEUL 180256Z AUTO 23003KT 10SM CLR 02/01 A3033 RMK AO2 SLP294 T00220011 55000 FZRANO,KEUL,2021-01-18T02:56:00Z,43.63,-116.62,2.2,1.1,230,3,,10.0,30.33071,1029.4,,TRUE,TRUE,,,,TRUE,,,CLR,,,,,,,,VFR,0.0,,,,,,,,,,,METAR,741.0
KESC 180256Z AUTO 32004KT 10SM OVC070 M04/M07 A2973 RMK AO2 SLP080 T10391067 50005 FZRANO,KESC,2021-01-18T02:56:00Z,45.72,-87.08,-3.9,-6.7,320,4,,10.0,29.731298,1008.0,,TRUE,TRUE,,,,TRUE,,,OVC,7000,,,,,,,VFR,0.5,,,,,,,,,,,METAR,180.0
KENV 180256Z AUTO 16005KT 10SM FEW075 01/M06 A3017 RMK AO2 SLP256 6//// T00111056 58003 FZRANO PNO $,KENV,2021-01-18T02:56:00Z,40.72,-114.02,1.1,-5.6,160,5,,10.0,30.171259,1025.6,,TRUE,TRUE,TRUE,,,TRUE,,,FEW,7500,,,,,,,VFR,-0.3,,,,,,,,,,,METAR,1291.0
KEND 180256Z AUTO 23008KT 10SM CLR M02/M08 A2998 RMK AO2 SLP164 T10171078 57008 $,KEND,2021-01-18T02:56:00Z,36.33,-97.92,-1.7,-7.8,230,8,,10.0,29.97933,1016.4,,TRUE,TRUE,TRUE,,,,,,CLR,,,,,,,,VFR,-0.8,,,,,,,,,,,METAR,392.0
KEKY 180256Z AUTO 29007KT 10SM CLR 07/M04 A2998 RMK AO2 SLP002 6//// T00671039 53019 PNO $,KEKY,2021-01-18T02:56:00Z,33.32,-86.93,6.7,-3.9,290,7,,10.0,29.97933,1000.2,,TRUE,TRUE,TRUE,,,,,,CLR,,,,,,,,VFR,1.9,,,,,,,,,,,METAR,213.0
KEKQ 180256Z AUTO 27010G17KT 10SM OVC070 02/M03 A2989 RMK AO2 SLP125 T00221028 53013,KEKQ,2021-01-18T02:56:00Z,36.85,-84.85,2.2,-2.8,270,10,17,10.0,29.890747,1012.5,,TRUE,TRUE,,,,,,,OVC,7000,,,,,,,VFR,1.3,,,,,,,,,,,METAR,291.0
KEKO 180256Z AUTO 18008KT 10SM FEW070 03/M03 A3024 RMK AO2 SLP263 T00331028 53004,KEKO,2021-01-18T02:56:00Z,40.82,-115.78,3.3,-2.8,180,8,,10.0,30.239174,1026.3,,TRUE,TRUE,,,,,,,FEW,7000,,,,,,,VFR,0.4,,,,,,,,,,,METAR,1541.0
KEHR 180256Z AUTO 25009KT 10SM -RA BKN010 BKN020 OVC025 01/M01 A2989 RMK AO2 RAE20B36SNB20E36 CIG 008V014 SLP125 P0000 60000 T00061006 51006 FZRANO,KEHR,2021-01-18T02:56:00Z,37.82,-87.67,0.6,-0.6,250,9,,10.0,29.890747,1012.5,,TRUE,TRUE,,,,TRUE,,-RA,BKN,1000,BKN,2000,OVC,2500,,,MVFR,0.6,,,,,0.005,0.005,,,,,METAR,117.0
KEGE 180256Z AUTO 24012KT 10SM OVC090 04/M11 A3005 RMK AO2 SLP204 6//// T00391106 55007 PNO $,KEGE,2021-01-18T02:56:00Z,39.63,-106.92,3.9,-10.6,240,12,,10.0,30.050198,1020.4,,TRUE,TRUE,TRUE,,,,,,OVC,9000,,,,,,,VFR,-0.7,,,,,,,,,,,METAR,1993.0
KEEN 180256Z AUTO 26008KT 10SM BKN042 BKN060 03/M04 A2956 RMK AO2 SLP018 T00281039 51010 $,KEEN,2021-01-18T02:56:00Z,42.88,-72.27,2.8,-3.9,260,8,,10.0,29.56004,1001.8,,TRUE,TRUE,TRUE,,,,,,BKN,4200,BKN,6000,,,,,VFR,1.0,,,,,,,,,,,METAR,143.0
KEAU 180256Z AUTO 30006KT 10SM OVC019 M04/M07 A2976 RMK AO2 SLP091 T10441072 53002,KEAU,2021-01-18T02:56:00Z,44.87,-91.48,-4.4,-7.2,300,6,,10.0,29.760826,1009.1,,TRUE,TRUE,,,,,,,OVC,1900,,,,,,,MVFR,0.2,,,,,,,,,,,METAR,271.0
KEAR 180256Z AUTO 26003KT 10SM OVC100 02/M09 A2986 RMK AO2 SLP128 T00171089 56007 FZRANO,KEAR,2021-01-18T02:56:00Z,40.72,-99.0,1.7,-8.9,260,3,,10.0,29.861221,1012.8,,TRUE,TRUE,,,,TRUE,,,OVC,10000,,,,,,,VFR,-0.7,,,,,,,,,,,METAR,649.0
KDYS 180256Z AUTO 00000KT 10SM CLR 01/M04 A3009 RMK AO2 SLP202 T00091043 53002,KDYS,2021-01-18T02:56:00Z,32.42,-99.83,0.9,-4.3,0,0,,10.0,30.088583,1020.2,,TRUE,TRUE,,,,,,,CLR,,,,,,,,VFR,0.2,,,,,,,,,,,METAR,544.0
KDYR 180256Z AUTO 28006KT 10SM FEW060 07/M02 A2993 RMK AO2 SLP145 6//// T00671022 51008 PNO $,KDYR,2021-01-18T02:56:00Z,36.0,-89.4,6.7,-2.2,280,6,,10.0,29.929134,1014.5,,TRUE,TRUE,TRUE,,,,,,FEW,6000,,,,,,,VFR,0.8,,,,,,,,,,,METAR,98.0
KDWU 180256Z AUTO 24004KT 10SM FEW028 BKN037 OVC075 01/00 A2983 RMK AO2 RAB02E39UPB15E17 SLP104 P0000 60000 T00060000 53004 FZRANO,KDWU,2021-01-18T02:56:00Z,38.55,-82.73,0.6,0.0,240,4,,10.0,29.828741,1010.4,,TRUE,TRUE,,,,TRUE,,,FEW,2800,BKN,3700,OVC,7500,,,VFR,0.4,,,,,0.005,0.005,,,,,METAR,165.0
KDVL 180256Z AUTO 07006KT 10SM OVC011 M07/M09 A2983 RMK AO2 SLP689 60000 T10671089 58001 FZRANO,KDVL,2021-01-18T02:56:00Z,48.12,-98.92,-6.7,-8.9,70,6,,10.0,29.828741,968.9,,TRUE,TRUE,,,,TRUE,,,OVC,1100,,,,,,,MVFR,-0.1,,,,,,0.005,,,,,METAR,439.0
KDOV 180256Z AUTO 19007KT 10SM OVC080 05/M01 A2978 RMK AO2 SLP088 T00511009 55001 $,KDOV,2021-01-18T02:56:00Z,39.12,-75.47,5.1,-0.9,190,7,,10.0,29.778543,1008.8,,TRUE,TRUE,TRUE,,,,,,OVC,8000,,,,,,,VFR,-0.1,,,,,,,,,,,METAR,6.0
KDLF 180256Z AUTO 15003KT 10SM CLR 10/M02 A3006 RMK AO2 SLP182 T00971017 51005 $,KDLF,2021-01-18T02:56:00Z,29.37,-100.78,9.7,-1.7,150,3,,10.0,30.059055,1018.2,,TRUE,TRUE,TRUE,,,,,,CLR,,,,,,,,VFR,0.5,,,,,,,,,,,METAR,328.0
KDIK 180256Z AUTO 14003KT 1 1/2SM -SN BR OVC019 M02/M03 A2973 RMK AO2 SLP102 P0000 60000 T10171033 58008,KDIK,2021-01-18T02:56:00Z,46.8,-102.8,-1.7,-3.3,140,3,,1.5,29.731298,1010.2,,TRUE,TRUE,,,,,,-SN BR,OVC,1900,,,,,,,IFR,-0.8,,,,,0.005,0.005,,,,,METAR,788.0
KDAY 180256Z 24005KT 10SM BKN016 BKN070 OVC130 M01/M03 A2976 RMK AO2 SNB27E38 SLP086 P0000 60000 T10111028 53002 $,KDAY,2021-01-18T02:56:00Z,39.9,-84.22,-1.1,-2.8,240,5,,10.0,29.760826,1008.6,,,TRUE,TRUE,,,,,,BKN,1600,BKN,7000,OVC,13000,,,MVFR,0.2,,,,,0.005,0.005,,,,,METAR,303.0
KDAA 180256Z AUTO 00000KT 10SM FEW070 FEW085 04/M03 A2978 RMK AO2 SLP088 T00411030 58001 $,KDAA,2021-01-18T02:56:00Z,38.72,-77.17,4.1,-3.0,0,0,,10.0,29.778543,1008.8,,TRUE,TRUE,TRUE,,,,,,FEW,7000,FEW,8500,,,,,VFR,-0.1,,,,,,,,,,,METAR,17.0
KD07 180256Z AUTO 30005KT M01/M04 A2976 RMK AO1 SLP112 T10061039 56010,KD07,2021-01-18T02:56:00Z,45.03,-102.02,-0.6,-3.9,300,5,,,29.760826,1011.2,,TRUE,TRUE,,,,,,,,,,,,,,,,-1.0,,,,,,,,,,,METAR,786.0
KCXY 180256Z AUTO 00000KT 10SM BKN100 04/M03 A2973 RMK AO2 SLP072 T00441033 50002,KCXY,2021-01-18T02:56:00Z,40.22,-76.85,4.4,-3.3,0,0,,10.0,29.731298,1007.2,,TRUE,TRUE,,,,,,,BKN,10000,,,,,,,VFR,0.2,,,,,,,,,,,METAR,102.0
KCWI 180256Z AUTO 28011KT 10SM OVC029 M06/M07 A2980 RMK AO2 SLP105 T10561067 50001 FZRANO,KCWI,2021-01-18T02:56:00Z,41.82,-90.32,-5.6,-6.7,280,11,,10.0,29.799213,1010.5,,TRUE,TRUE,,,,TRUE,,,OVC,2900,,,,,,,MVFR,0.1,,,,,,,,,,,METAR,212.0
KCVO 180256Z AUTO 32004KT 10SM CLR 08/06 A3049 RMK AO2 SLP326 T00780061 50008,KCVO,2021-01-18T02:56:00Z,44.5,-123.28,7.8,6.1,320,4,,10.0,30.490158,1032.6,,TRUE,TRUE,,,,,,,CLR,,,,,,,,VFR,0.8,,,,,,,,,,,METAR,75.0
KCVN 180256Z AUTO 18008KT 10SM CLR M01/M06 A3003 RMK AO2 SLP194 T10111056 58005 FZRANO,KCVN,2021-01-18T02:56:00Z,34.42,-103.07,-1.1,-5.6,180,8,,10.0,30.029528,1019.4,,TRUE,TRUE,,,,TRUE,,,CLR,,,,,,,,VFR,-0.5,,,,,,,,,,,METAR,1278.0
KCTB 180256Z AUTO 27018KT 10SM SCT095 01/M06 A2995 RMK AO2 SLP164 T00111061 50004,KCTB,2021-01-18T02:56:00Z,48.6,-112.37,1.1,-6.1,270,18,,10.0,29.949802,1016.4,,TRUE,TRUE,,,,,,,SCT,9500,,,,,,,VFR,0.4,,,,,,,,,,,METAR,1172.0
KCOF 180256Z AUTO 24005KT 10SM FEW039 14/08 A3006 RMK AO2 SLP184 T01420077 53001 $,KCOF,2021-01-18T02:56:00Z,28.23,-80.6,14.2,7.7,240,5,,10.0,30.059055,1018.4,,TRUE,TRUE,TRUE,,,,,,FEW,3900,,,,,,,VFR,0.1,,,,,,,,,,,METAR,1.0
KCOE 180256Z AUTO 22006KT 10SM OVC012 01/00 A3033 RMK AO2 SLP310 T00110000 51008 FZRANO,KCOE,2021-01-18T02:56:00Z,47.77,-116.82,1.1,0.0,220,6,,10.0,30.33071,1031.0,,TRUE,TRUE,,,,TRUE,,,OVC,1200,,,,,,,MVFR,0.8,,,,,,,,,,,METAR,693.0
KCOD 180256Z AUTO 28006KT 10SM FEW120 02/M06 A2993 RMK AO2 SLP152 T00171056 51019 FZRANO,KCOD,2021-01-18T02:56:00Z,44.52,-109.02,1.7,-5.6,280,6,,10.0,29.929134,1015.2,,TRUE,TRUE,,,,TRUE,,,FEW,12000,,,,,,,VFR,1.9,,,,,,,,,,,METAR,1550.0
KCIU 180256Z AUTO 35003KT 10SM OVC090 M06/M07 A2969 RMK AO2 SLP067 T10611072 53004 FZRANO,KCIU,2021-01-18T02:56:00Z,46.25,-84.47,-6.1,-7.2,350,3,,10.0,29.68996,1006.7,,TRUE,TRUE,,,,TRUE,,,OVC,9000,,,,,,,VFR,0.4,,,,,,,,,,,METAR,242.0
KCHS 180256Z 22005KT 10SM FEW200 05/01 A2998 RMK AO2 SLP152 T00500011 53006,KCHS,2021-01-18T02:56:00Z,32.9,-80.03,5.0,1.1,220,5,,10.0,29.97933,1015.2,,,TRUE,,,,,,,FEW,20000,,,,,,,VFR,0.6,,,,,,,,,,,METAR,12.0
KCGZ 180256Z AUTO 26006KT 10SM CLR 14/M13 A2997 RMK AO2 SLP150 6//// T01391128 55002,KCGZ,2021-01-18T02:56:00Z,32.95,-111.77,13.9,-12.8,260,6,,10.0,29.970472,1015.0,,TRUE,TRUE,,,,,,,CLR,,,,,,,,VFR,-0.2,,,,,,,,,,,METAR,444.0
KCEF 180256Z 23007KT 10SM OVC050 04/M04 A2961 RMK AO2A SLP034 T00371038 52009,KCEF,2021-01-18T02:56:00Z,42.2,-72.52,3.7,-3.8,230,7,,10.0,29.610237,1003.4,,,TRUE,,,,,,,OVC,5000,,,,,,,VFR,0.9,,,,,,,,,,,SPECI,72.0
KCEC 180256Z AUTO 35012G19KT 6SM HZ CLR 12/08 A3025 RMK AO2 SLP243 T01170083 53006,KCEC,2021-01-18T02:56:00Z,41.78,-124.23,11.7,8.3,350,12,19,6.0,30.250984,1024.3,,TRUE,TRUE,,,,,,HZ,CLR,,,,,,,,VFR,0.6,,,,,,,,,,,METAR,17.0
KCBM 180256Z AUTO 24004KT 10SM CLR 03/M04 A2999 RMK AO2 SLP160 T00341041 52016 $,KCBM,2021-01-18T02:56:00Z,33.65,-88.45,3.4,-4.1,240,4,,10.0,29.991142,1016.0,,TRUE,TRUE,TRUE,,,,,,CLR,,,,,,,,VFR,1.6,,,,,,,,,,,METAR,59.0
KCAE 180256Z 00000KT 10SM CLR 02/M02 A2994 RMK AO2 SLP140 T00171017 51007,KCAE,2021-01-18T02:56:00Z,33.93,-81.12,1.7,-1.7,0,0,,10.0,29.940945,1014.0,,,TRUE,,,,,,,CLR,,,,,,,,VFR,0.7,,,,,,,,,,,METAR,69.0
KBZN 180256Z 28011KT 10SM BKN110 02/M08 A3007 RMK AO2 SLP211 60001 T00171078 51009,KBZN,2021-01-18T02:56:00Z,45.78,-111.17,1.7,-7.8,280,11,,10.0,30.070866,1021.1,,,TRUE,,,,,,,BKN,11000,,,,,,,VFR,0.9,,,,,,0.01,,,,,METAR,1349.0
KBVX 180256Z AUTO 25005KT 10SM BKN075 05/M04 A2996 RMK AO2 SLP151 T00501044 51009,KBVX,2021-01-18T02:56:00Z,35.73,-91.65,5.0,-4.4,250,5,,10.0,29.958662,1015.1,,TRUE,TRUE,,,,,,,BKN,7500,,,,,,,VFR,0.9,,,,,,,,,,,METAR,137.0
KBTP 180256Z AUTO 22008KT 10SM UP OVC009 00/M01 A2969 RMK AO2 UPB31SNE31 CIG 006V011 SLP071 P0000 60002 T00001011 56005 FZRANO,KBTP,2021-01-18T02:56:00Z,40.77,-79.95,0.0,-1.1,220,8,,10.0,29.68996,1007.1,,TRUE,TRUE,,,,TRUE,,UP,OVC,900,,,,,,,IFR,-0.5,,,,,0.005,0.02,,,,,METAR,375.0
KBOK 180256Z AUTO 02003KT 10SM CLR 17/M06 A3027 RMK AO2 SLP248 T01671056 53003,KBOK,2021-01-18T02:56:00Z,42.07,-124.28,16.7,-5.6,20,3,,10.0,30.268702,1024.8,,TRUE,TRUE,,,,,,,CLR,,,,,,,,VFR,0.3,,,,,,,,,,,METAR,140.0
KBMI 180256Z 27011KT 7SM -SN OVC010 M03/M04 A2982 RMK AO2 SLP104 P0000 60000 T10331044 51007,KBMI,2021-01-18T02:56:00Z,40.47,-88.92,-3.3,-4.4,270,11,,7.0,29.819881,1010.4,,,TRUE,,,,,,-SN,OVC,1000,,,,,,,MVFR,0.7,,,,,0.005,0.005,,,,,METAR,262.0
KBLV 180256Z 27005KT 10SM BKN016 OVC031 00/00 A2988 RMK AO2A SNE45 SLP126 P0000 60001 T00030003 51005 $,KBLV,2021-01-18T02:56:00Z,38.53,-89.83,0.3,0.3,270,5,,10.0,29.878937,1012.6,,,TRUE,TRUE,,,,,,BKN,1600,OVC,3100,,,,,MVFR,0.5,,,,,0.005,0.01,,,,,METAR,134.0
KBLM 180256Z AUTO 21004KT 10SM FEW050 OVC070 05/M03 A2976 RMK AO2 SLP079 T00501028 51005,KBLM,2021-01-18T02:56:00Z,40.17,-74.12,5.0,-2.8,210,4,,10.0,29.760826,1007.9,,TRUE,TRUE,,,,,,,FEW,5000,OVC,7000,,,,,VFR,0.5,,,,,,,,,,,METAR,45.0
KBIX 180256Z AUTO 24006KT 10SM CLR 09/05 A3005 RMK AO2 SLP179 T00930053 52013,KBIX,2021-01-18T02:56:00Z,30.42,-88.92,9.3,5.3,240,6,,10.0,30.050198,1017.9,,TRUE,TRUE,,,,,,,CLR,,,,,,,,VFR,1.3,,,,,,,,,,,METAR,4.0
KBIH 180256Z AUTO 32008KT 10SM CLR 14/M11 A3009 RMK AO2 SLP172 T01391111 58000,KBIH,2021-01-18T02:56:00Z,37.37,-118.35,13.9,-11.1,320,8,,10.0,30.088583,1017.2,,TRUE,TRUE,,,,,,,CLR,,,,,,,,VFR,0.0,,,,,,,,,,,METAR,1252.0
KBID 180256Z AUTO 25017G23KT 10SM OVC050 05/M03 A2969 RMK AO2 SLP055 T00501033 51009,KBID,2021-01-18T02:56:00Z,41.17,-71.58,5.0,-3.3,250,17,23,10.0,29.68996,1005.5,,TRUE,TRUE,,,,,,,OVC,5000,,,,,,,VFR,0.9,,,,,,,,,,,METAR,32.0
KBHB 180256Z AUTO 24007KT 10SM CLR 02/M04 A2943 RMK AO2 SLP968 T00171044 51028 FZRANO,KBHB,2021-01-18T02:56:00Z,44.45,-68.37,1.7,-4.4,240,7,,10.0,29.430119,996.8,,TRUE,TRUE,,,,TRUE,,,CLR,,,,,,,,VFR,2.8,,,,,,,,,,,METAR,21.0
KBAD 180256Z AUTO 00000KT 10SM CLR 02/M03 A3008 RMK AO2 SLP190 T00161031 52007,KBAD,2021-01-18T02:56:00Z,32.5,-93.67,1.6,-3.1,0,0,,10.0,30.079725,1019.0,,TRUE,TRUE,,,,,,,CLR,,,,,,,,VFR,0.7,,,,,,,,,,,METAR,49.0
KAUO 180256Z AUTO 20005KT 10SM CLR 05/M02 A2997 RMK AO2 SLP174 6//// T00501017 51004,KAUO,2021-01-18T02:56:00Z,32.62,-85.43,5.0,-1.7,200,5,,10.0,29.970472,1017.4,,TRUE,TRUE,,,,,,,CLR,,,,,,,,VFR,0.4,,,,,,,,,,,METAR,231.0
KASH 180256Z AUTO 26007KT 240V300 10SM SCT050 04/M03 A2958 RMK AO2 SLP023 T00391033 53020,KASH,2021-01-18T02:56:00Z,42.78,-71.52,3.9,-3.3,260,7,,10.0,29.58071,1002.3,,TRUE,TRUE,,,,,,,SCT,5000,,,,,,,VFR,2.0,,,,,,,,,,,METAR,56.0
KART 180256Z AUTO 31005KT 10SM OVC024 M01/M05 A2961 RMK AO2 SLP032 T10111050 51004,KART,2021-01-18T02:56:00Z,43.98,-76.03,-1.1,-5.0,310,5,,10.0,29.610237,1003.2,,TRUE,TRUE,,,,,,,OVC,2400,,,,,,,MVFR,0.4,,,,,,,,,,,METAR,100.0
KARG 180256Z AUTO 25006KT 10SM FEW060 OVC080 06/M02 A2994 RMK AO2 SLP143 T00611022 51006,KARG,2021-01-18T02:56:00Z,36.12,-90.92,6.1,-2.2,250,6,,10.0,29.940945,1014.3,,TRUE,TRUE,,,,,,,FEW,6000,OVC,8000,,,,,VFR,0.6,,,,,,,,,,,METAR,82.0
KAND 180256Z AUTO 21009KT 10SM BKN090 05/M02 A2989 RMK AO2 SLP123 T00501022 53001,KAND,2021-01-18T02:56:00Z,34.5,-82.72,5.0,-2.2,210,9,,10.0,29.890747,1012.3,,TRUE,TRUE,,,,,,,BKN,9000,,,,,,,VFR,0.1,,,,,,,,,,,METAR,233.0
KALK 180256Z AUTO 21008KT 10SM CLR 13/M18 A3010 RMK AO2 SLP142 T01331183 50003,KALK,2021-01-18T02:56:00Z,31.6,-110.43,13.3,-18.3,210,8,,10.0,30.100393,1014.2,,TRUE,TRUE,,,,,,,CLR,,,,,,,,VFR,0.3,,,,,,,,,,,METAR,1451.0
KAJO 180256Z AUTO 10SM CLR RMK AO2 SLPNO 6//// FZRANO $,KAJO,2021-01-18T02:56:00Z,33.9,-117.6,,,,,,10.0,,,,TRUE,TRUE,TRUE,,,TRUE,,,CLR,,,,,,,,VFR,,,,,,,,,,,,METAR,161.0
KAIZ 180256Z AUTO 30006KT 10SM OVC037 04/M02 A2991 RMK AO2 SLP135 T00441022 51001,KAIZ,2021-01-18T02:56:00Z,38.1,-92.53,4.4,-2.2,300,6,,10.0,29.911417,1013.5,,TRUE,TRUE,,,,,,,OVC,3700,,,,,,,VFR,0.1,,,,,,,,,,,METAR,263.0
KAFJ 180256Z AUTO 21006KT 4SM -SN BR OVC010 01/00 A2974 RMK AO2 SLP080 P0000 60001 T00060000 55003 FZRANO,KAFJ,2021-01-18T02:56:00Z,40.13,-80.28,0.6,0.0,210,6,,4.0,29.740158,1008.0,,TRUE,TRUE,,,,TRUE,,-SN BR,OVC,1000,,,,,,,MVFR,-0.3,,,,,0.005,0.01,,,,,METAR,360.0
KADW 180256Z AUTO 21006KT 10SM FEW080 SCT110 04/M02 A2976 RMK AO2 SLP086 T00371025 58002 $,KADW,2021-01-18T02:56:00Z,38.82,-76.87,3.7,-2.5,210,6,,10.0,29.760826,1008.6,,TRUE,TRUE,TRUE,,,,,,FEW,8000,SCT,11000,,,,,VFR,-0.2,,,,,,,,,,,METAR,87.0
KADF 180256Z AUTO 18003KT 10SM CLR 01/M02 A3005 RMK AO2 SLP176 T00061022 51013 FZRANO,KADF,2021-01-18T02:56:00Z,34.1,-93.07,0.6,-2.2,180,3,,10.0,30.050198,1017.6,,TRUE,TRUE,,,,TRUE,,,CLR,,,,,,,,VFR,1.3,,,,,,,,,,,METAR,54.0
K8D3 180256Z AUTO 00000KT M03/M06 A2983 RMK AO1 SLP123 T10331061 58002,K8D3,2021-01-18T02:56:00Z,45.67,-96.98,-3.3,-6.1,0,0,,,29.828741,1012.3,,TRUE,TRUE,,,,,,,,,,,,,,,,-0.2,,,,,,,,,,,METAR,535.0
K7N0 180256Z AUTO 20004KT 10SM CLR 12/01 A3010 RMK AO2 SLP192 T01170006 53016,K7N0,2021-01-18T02:56:00Z,29.95,-90.07,11.7,0.6,200,4,,10.0,30.100393,1019.2,,TRUE,TRUE,,,,,,,CLR,,,,,,,,VFR,1.6,,,,,,,,,,,METAR,0.0
K79J 180256Z AUTO 21005KT 10SM CLR 08/00 A3001 RMK AO2 SLP161 T00830000 51011,K79J,2021-01-18T02:56:00Z,31.32,-86.4,8.3,0.0,210,5,,10.0,30.008858,1016.1,,TRUE,TRUE,,,,,,,CLR,,,,,,,,VFR,1.1,,,,,,,,,,,METAR,93.0
K2WX 180256Z AUTO 22003KT 00/M02 A2970 RMK AO1 SLP093 P0001 60001 T00001022 58014,K2WX,2021-01-18T02:56:00Z,45.6,-103.55,0.0,-2.2,220,3,,,29.698818,1009.3,,TRUE,TRUE,,,,,,,,,,,,,,,,-1.4,,,,,0.01,,,,,,SPECI,925.0
K2DP 180256Z AUTO 24006KT 10SM BKN180 BKN220 04/02 A2990 RMK AO2 SLPNO T00440022 51005 $,K2DP,2021-01-18T02:56:00Z,35.68,-75.9,4.4,2.2,240,6,,10.0,29.899607,,,TRUE,TRUE,TRUE,,,,,,BKN,18000,BKN,22000,,,,,VFR,0.5,,,,,,,,,,,METAR,1.0
K1M4 180256Z AUTO 26003KT 10SM CLR 03/M05 A2998 RMK AO2 SLP709 T00331050 51017,K1M4,2021-01-18T02:56:00Z,34.28,-87.6,3.3,-5.0,260,3,,10.0,29.97933,970.9,,TRUE,TRUE,,,,,,,CLR,,,,,,,,VFR,1.7,,,,,,,,,,,METAR,283.0
ETIK 180256Z AUTO 26012KT 9999 -RA OVC008 01/01 A3018 RMK AO2 RAE16RAB25E35DZB35E45RAB45 SLP240 P0000 60000 T00120012 53003,ETIK,2021-01-18T02:56:00Z,49.47,10.38,1.2,1.2,260,12,,6.21,30.180119,1024.0,,TRUE,TRUE,,,,,,-RA,OVC,800,,,,,,,IFR,0.3,,,,,0.005,0.005,,,,,METAR,326.0
ETIC 180256Z AUTO 00000KT 3200 -RA OVC013 M A3011 RMK AO2 SNE49UPB49E53RAB53 SLPNO ALSTG ESTMD P0000 60001 56003 $,ETIC,2021-01-18T02:56:00Z,49.7,11.93,,,0,0,,1.99,30.109253,,,TRUE,TRUE,TRUE,,,,,-RA,OVC,1300,,,,,,,IFR,-0.3,,,,,0.005,0.01,,,,,METAR,414.0
ETEB 180256Z AUTO 27011KT 9000 -SN BR OVC005 01/01 A3016 RMK AO2 UPB17E20SNB20 SLP256 P0000 60000 T00050005 50003 FZRANO $,ETEB,2021-01-18T02:56:00Z,49.32,10.63,0.5,0.5,270,11,,5.59,30.159449,1025.6,,TRUE,TRUE,TRUE,,,TRUE,,-SN BR,OVC,500,,,,,,,IFR,0.3,,,,,0.005,0.005,,,,,METAR,466.0
ETAR 180256Z 24004KT 9999 OVC019 02/02 A3026 RMK AO2A SLP262 T00200020 53005 FZRANO,ETAR,2021-01-18T02:56:00Z,49.43,7.58,2.0,2.0,240,4,,6.21,30.259842,1026.2,,,TRUE,,,,TRUE,,,OVC,1900,,,,,,,MVFR,0.5,,,,,,,,,,,SPECI,231.0
EGVA 180256Z AUTO 22005KT 9999 SCT008 02/02 A3023 RMK AO2 SLP244 T00180018 57016 FZRANO $,EGVA,2021-01-18T02:56:00Z,51.67,-1.78,1.8,1.8,220,5,,6.21,30.230314,1024.4,,TRUE,TRUE,TRUE,,,TRUE,,,SCT,800,,,,,,,VFR,-1.6,,,,,,,,,,,SPECI,84.0
EGUN 180256Z AUTO 23009KT 9999 BKN090 03/03 A3018 RMK AO2 SLP223 T00250025 57017 FZRANO,EGUN,2021-01-18T02:56:00Z,52.37,0.48,2.5,2.5,230,9,,6.21,30.180119,1022.3,,TRUE,TRUE,,,,TRUE,,,BKN,9000,,,,,,,VFR,-1.7,,,,,,,,,,,METAR,10.0
EGUL 180256Z AUTO 21008KT 9999 FEW090 02/02 A3018 RMK AO2 SLP224 T00240024 57015 $,EGUL,2021-01-18T02:56:00Z,52.42,0.57,2.4,2.4,210,8,,6.21,30.180119,1022.4,,TRUE,TRUE,TRUE,,,,,,FEW,9000,,,,,,,VFR,-1.5,,,,,,,,,,,SPECI,8.0
TXKF 180255Z 24008KT 9999 VCSH SCT033 BKN055 BKN250 19/13 Q1017 ,TXKF,2021-01-18T02:55:00Z,32.37,-64.68,19.0,13.0,240,8,,6.21,30.029528,,,,,,,,,,VCSH,SCT,3300,BKN,5500,BKN,25000,,,VFR,,,,,,,,,,,,METAR,4.0
TNCE 180255Z AUTO 07013KT 040V100 //// // ///////// 25/19 Q1017 RE//,TNCE,2021-01-18T02:55:00Z,17.48,-62.97,25.0,19.0,70,13,,,30.029528,,,TRUE,,,,,,,,,,,,,,,,,,,,,,,,,,,,METAR,38.0
TNCB 180255Z AUTO 08010KT 050V110 9999 NCD 25/21 Q1013,TNCB,2021-01-18T02:55:00Z,12.13,-68.28,25.0,21.0,80,10,,6.21,29.911417,,,TRUE,,,,,,,,CLR,,,,,,,,VFR,,,,,,,,,,,,METAR,6.0
RJOI 180255Z 20006KT 9999 FEW025 SCT040 SCT060 08/M06 A3011 RMK SLP197 T00781056 58027,RJOI,2021-01-18T02:55:00Z,34.13,132.23,7.8,-5.6,200,6,,6.21,30.109253,1019.7,,,,,,,,,,FEW,2500,SCT,4000,SCT,6000,,,VFR,-2.7,,,,,,,,,,,SPECI,2.0
PATC 180255Z AUTO 01037G44KT 1/4SM -SN OVC007 M18/M20 A2966 RMK AO2 PK WND 01044/0156 SNB0055 SLP053 P0000 60000 T11841199 50001,PATC,2021-01-18T02:55:00Z,65.57,-167.92,-18.4,-19.9,10,37,44,0.25,29.660433,1005.3,,TRUE,TRUE,,,,,,-SN,OVC,700,,,,,,,LIFR,0.1,,,,,0.005,0.005,,,,,METAR,77.0
PASV 180255Z AUTO 00000KT 10SM BKN055 00/00 A2946 RMK AO2 SHRAB0134E0218 SLP994 60002 T00020006 53014 $,PASV,2021-01-18T02:55:00Z,61.1,-155.57,0.2,0.6,0,0,,10.0,29.459646,999.4,,TRUE,TRUE,TRUE,,,,,,BKN,5500,,,,,,,VFR,1.4,,,,,,0.02,,,,,METAR,462.0
PANW 180255Z AUTO 05004KT 8SM -SN FEW008 SCT015 OVC035 00/00 A2947 RMK AO2 UPB07E10SNE07B10 SLP988 P0001 60001 T00000000 53011 FZRANO,PANW,2021-01-18T02:55:00Z,59.45,-157.32,0.0,0.0,50,4,,8.0,29.471457,998.8,,TRUE,TRUE,,,,TRUE,,-SN,FEW,800,SCT,1500,OVC,3500,,,VFR,1.1,,,,,0.01,0.01,,,,,METAR,100.0
PAEH 180255Z AUTO 35025KT 3SM -SN BKN008 OVC036 M10/M11 A2954 RMK AO2 PK WND 30031/0155 SNB0155 SLP018 P0000 60000 T10971109 53009,PAEH,2021-01-18T02:55:00Z,58.65,-162.07,-9.7,-10.9,350,25,,3.0,29.53937,1001.8,,TRUE,TRUE,,,,,,-SN,BKN,800,OVC,3600,,,,,IFR,0.9,,,,,0.005,0.005,,,,,METAR,101.0
PACZ 180255Z AUTO 02017KT 10SM -SN OVC008 M12/M12 A2961 RMK AO2 SNB0147 SLP043 P0000 60000 T11241125 54001,PACZ,2021-01-18T02:55:00Z,61.78,-166.03,-12.4,-12.5,20,17,,10.0,29.610237,1004.3,,TRUE,TRUE,,,,,,-SN,OVC,800,,,,,,,IFR,,,,,,0.005,0.005,,,,,METAR,129.0
OPLA 180255Z 13006KT 0800 FG VV/// 07/05 Q1017 BECMG 1000 BR RMK QFE990 RMK 30.06,OPLA,2021-01-18T02:55:00Z,31.52,74.4,7.0,5.0,130,6,,0.5,30.029528,,,,,,,,,,FG,OVX,0,,,,,,,LIFR,,,,,,,,,,,,METAR,217.0
OPIS 180255Z 00000KT 1500 R28L/1600U RMID/1700U R10R/P2000 BR NSC 05/05 Q1019 BECMG 2000,OPIS,2021-01-18T02:55:00Z,33.55,72.83,5.0,5.0,0,0,,0.93,30.088583,,,,,,,,,,BR,CLR,,,,,,,,LIFR,,,,,,,,,,,,METAR,542.0
OPFA 180255Z 05002KT 0800 BR SCT040 BKN100 08/06 Q1019 BECMG 0600,OPFA,2021-01-18T02:55:00Z,31.37,73.0,8.0,6.0,50,2,,0.5,30.088583,,,,,,,,,,BR,SCT,4000,BKN,10000,,,,,LIFR,,,,,,,,,,,,METAR,185.0
OAHR 180255Z VRB02KT 9999 SCT090 05/M09 Q1014 RMK A2996 BLU,OAHR,2021-01-18T02:55:00Z,34.22,62.22,5.0,-9.0,0,2,,6.21,29.940945,,,,,,,,,,,SCT,9000,,,,,,,VFR,,,,,,,,,,,,SPECI,964.0
NZFX 180255Z 00000KT 9999 FEW020 FEW100 M00/M04 A2949 RMK SLP980 RCRNR SDG/HDG,NZFX,2021-01-18T02:55:00Z,-77.95,166.77,0.0,-4.0,0,0,,6.21,29.489174,998.0,,,,,,,,,,FEW,2000,FEW,10000,,,,,VFR,,,,,,,,,,,,METAR,10.0
MUHA 180255Z 08002KT 9000 SCT040 BKN140 19/17 Q1019,MUHA,2021-01-18T02:55:00Z,22.98,-82.42,19.0,17.0,80,2,,5.59,30.088583,,,,,,,,,,,SCT,4000,BKN,14000,,,,,VFR,,,,,,,,,,,,METAR,61.0
LIVR 180255Z 30017G27KT CAVOK M07/M13 Q1013 RMK SCT SCT060 MON LIB VIS MIN 9999,LIVR,2021-01-18T02:55:00Z,46.28,11.78,-7.0,-13.0,300,17,27,6.21,29.911417,,,,,,,,,,,CAVOK,,,,,,,,VFR,,,,,,,,,,,,METAR,1997.0
LIVP 180255Z 36007KT CAVOK M09/M15 Q1012 RMK SKC MON LIB VAL NIL VIS MIN 9999,LIVP,2021-01-18T02:55:00Z,46.15,11.03,-9.0,-15.0,360,7,,6.21,29.88189,,,,,,,,,,,CAVOK,,,,,,,,VFR,,,,,,,,,,,,METAR,2099.0
LIVM 180255Z AUTO 29006KT 260V320 //// 01/M02 Q1021,LIVM,2021-01-18T02:55:00Z,44.45,12.3,1.0,-2.0,290,6,,,30.147638,,,TRUE,,,,,,,,,,,,,,,,,,,,,,,,,,,,METAR,6.0
LIVF 180255Z 26003KT 3000 BR SCT015 BKN020 00/M01 Q1017 RMK OVC MON INVIS VAL INVIS VIS MIN 3000,LIVF,2021-01-18T02:55:00Z,43.52,12.72,0.0,-1.0,260,3,,1.86,30.029528,,,,,,,,,,BR,SCT,1500,BKN,2000,,,,,IFR,,,,,,,,,,,,METAR,549.0
LIVE 180255Z 06006KT 6000 OVC020 M04/M07 Q1016 RMK OVC VIS MIN 6000,LIVE,2021-01-18T02:55:00Z,46.82,10.5,-4.0,-7.0,60,6,,3.73,30.0,,,,,,,,,,,OVC,2000,,,,,,,MVFR,,,,,,,,,,,,METAR,1684.0
LIVC 180255Z AUTO 01010KT //// M07/M13 Q1015,LIVC,2021-01-18T02:55:00Z,44.2,10.68,-7.0,-13.0,10,10,,,29.970472,,,TRUE,,,,,,,,,,,,,,,,,,,,,,,,,,,,METAR,2139.0
LIRT 180255Z 02013KT 0000 FZFG VV/// M02/M03 Q1011 RMK MON INVIS VAL INVIS VIS MIN 0000,LIRT,2021-01-18T02:55:00Z,41.03,15.22,-2.0,-3.0,20,13,,0.0,29.852362,,,,,,,,,,FZFG,OVX,0,,,,,,,LIFR,,,,,,,,,,,,METAR,1058.0
LIRS 180255Z 35005KT CAVOK 03/01 Q1019 RMK SKC VIS MIN 9999 WIND THR03 05003KT WIND THR21 06002KT BLU,LIRS,2021-01-18T02:55:00Z,42.75,11.07,3.0,1.0,350,5,,6.21,30.088583,,,,,,,,,,,CAVOK,,,,,,,,VFR,,,,,,,,,,,,METAR,3.0
LIRK 180255Z AUTO 09019G29KT 010V130 //// M07/M09 Q1011,LIRK,2021-01-18T02:55:00Z,42.47,12.97,-7.0,-9.0,90,19,29,,29.852362,,,TRUE,,,,,,,,,,,,,,,,,,,,,,,,,,,,METAR,1721.0
LIRE 180255Z 04011KT CAVOK 02/M00 Q1017 RMK SCT SCT180 VIS MIN 9999 WIND THR13 04011KT WIND THR31 /////KT BLU,LIRE,2021-01-18T02:55:00Z,41.65,12.43,2.0,0.0,40,11,,6.21,30.029528,,,,,,,,,,,CAVOK,,,,,,,,VFR,,,,,,,,,,,,METAR,16.0
LIPS 180255Z 04005KT CAVOK M01/M03 Q1020 RMK SKC VIS MIN 9999 WIND THR26 01005KT WIND THR08 03005KT BLU,LIPS,2021-01-18T02:55:00Z,45.68,12.1,-1.0,-3.0,40,5,,6.21,30.11811,,,,,,,,,,,CAVOK,,,,,,,,VFR,,,,,,,,,,,,METAR,42.0
LIPL 180255Z 10002KT 6000 NSC M03/M03 Q1020 RMK SKC VIS MIN 6000 WIND THR31 06002KT WIND THR13 01001KT WHT,LIPL,2021-01-18T02:55:00Z,45.42,10.27,-3.0,-3.0,100,2,,3.73,30.11811,,,,,,,,,,,CLR,,,,,,,,MVFR,,,,,,,,,,,,METAR,96.0
LIPC 180255Z 26006KT 4000 BR BKN050 02/M00 Q1021 RMK BKN VIS MIN 4000 WIND THR11 25006KT WIND THR29 /////KT GRN,LIPC,2021-01-18T02:55:00Z,44.22,12.3,2.0,0.0,260,6,,2.49,30.147638,,,,,,,,,,BR,BKN,5000,,,,,,,IFR,,,,,,,,,,,,METAR,10.0
LIMU 180255Z 29004KT CAVOK 10/M01 Q1019 RMK SKC QUK / QUL / VIS MAR 30 KM VIS MIN 9999,LIMU,2021-01-18T02:55:00Z,43.95,8.17,10.0,-1.0,290,4,,6.21,30.088583,,,,,,,,,,,CAVOK,,,,,,,,VFR,,,,,,,,,,,,METAR,215.0
LIMK 180255Z 00000KT CAVOK 01/M08 Q1018 RMK SKC VAL FOSCHIA VIS MIN 9999,LIMK,2021-01-18T02:55:00Z,45.02,7.72,1.0,-8.0,0,0,,6.21,30.059055,,,,,,,,,,,CAVOK,,,,,,,,VFR,,,,,,,,,,,,METAR,693.0
LIMH 180255Z 04031G43KT CAVOK M18/M18 Q1010 RMK SKC MON LIB VAL NIL VIS MIN 9999,LIMH,2021-01-18T02:55:00Z,45.93,7.7,-18.0,-18.0,40,31,43,6.21,29.822834,,,,,,,,,,,CAVOK,,,,,,,,VFR,,,,,,,,,,,,METAR,3473.0
LIED 180255Z 32008KT CAVOK 09/08 Q1017 RMK SKC VIS MIN 9999 WIND THR35 /////KT WIND THR17 32007KT BLU,LIED,2021-01-18T02:55:00Z,39.35,8.97,9.0,8.0,320,8,,6.21,30.029528,,,,,,,,,,,CAVOK,,,,,,,,VFR,,,,,,,,,,,,METAR,26.0
LIEB 180255Z 33017G28KT 9999 SCT040 12/M00 Q1016 RMK SCT QUK / QUL / VIS MAR 20 KM MON INVIS VIS MIN 9999,LIEB,2021-01-18T02:55:00Z,39.93,9.72,12.0,0.0,330,17,28,6.21,30.0,,,,,,,,,,,SCT,4000,,,,,,,VFR,,,,,,,,,,,,METAR,126.0
LICZ 180255Z 26009KT 9999 BKN080 12/12 Q1012 RMK BKN VIS MIN 9999 WIND THR28 26012KT WIND THR10 26010KT A2991 BLU,LICZ,2021-01-18T02:55:00Z,37.4,14.92,12.0,12.0,260,9,,6.21,29.88189,,,,,,,,,,,BKN,8000,,,,,,,VFR,,,,,,,,,,,,METAR,22.0
LICT 180255Z 01014KT 9999 -RA BKN025 11/11 Q1004 RMK BKN BKN080 VIS MIN 9999 WIND THR13 01014KT BLU,LICT,2021-01-18T02:55:00Z,37.92,12.5,11.0,11.0,10,14,,6.21,29.64567,,,,,,,,,,-RA,BKN,2500,,,,,,,MVFR,,,,,,,,,,,,METAR,4.0
LICF 180255Z 31006KT 9999 BKN026 11/06 Q1011 RMK BKN BKN080 QUK / QUL / VIS MAR 15 KM MON INVIS NC VIS MIN 9999,LICF,2021-01-18T02:55:00Z,38.2,15.55,11.0,6.0,310,6,,6.21,29.852362,,,,,,,,,,,BKN,2600,,,,,,,MVFR,,,,,,,,,,,,METAR,66.0
LIBV 180255Z 33007KT 6000 SCT004 02/02 Q1014 RMK OVC BKN070 VIS MIN 6000 WIND THR32 36009KT WIND THR14 34010KT WHT,LIBV,2021-01-18T02:55:00Z,40.77,16.93,2.0,2.0,330,7,,3.73,29.940945,,,,,,,,,,,SCT,400,,,,,,,MVFR,,,,,,,,,,,,METAR,344.0
LIBN 180255Z 33005KT 9999 SCT040 02/02 Q1015 RMK BKN BKN100 VIS MIN 9999 WIND THR14 33005KT WIND THR32 34006KT BLU,LIBN,2021-01-18T02:55:00Z,40.23,18.13,2.0,2.0,330,5,,6.21,29.970472,,,,,,,,,,,SCT,4000,,,,,,,VFR,,,,,,,,,,,,METAR,46.0
LIBA 180255Z 27006KT 9999 FEW035 02/01 Q1018 RMK BKN SCT070 BKN110 VIS MIN 9999 WIND THR11 29007KT WIND THR29 /////KT BLU,LIBA,2021-01-18T02:55:00Z,41.53,15.72,2.0,1.0,270,6,,6.21,30.059055,,,,,,,,,,,FEW,3500,,,,,,,VFR,,,,,,,,,,,,METAR,55.0
KWHP 180255Z 00000KT 10SM SKC 22/M05 A2998,KWHP,2021-01-18T02:55:00Z,34.25,-118.42,22.0,-5.0,0,0,,10.0,29.97933,,,,,,,,,,,SKC,,,,,,,,VFR,,,,,,,,,,,,METAR,302.0
KTVK 180255Z AUTO 10SM BKN047 M02/M02 A2986 RMK AO2,KTVK,2021-01-18T02:55:00Z,40.68,-92.9,-2.0,-2.0,,,,10.0,29.861221,,,TRUE,TRUE,,,,,,,BKN,4700,,,,,,,VFR,,,,,,,,,,,,SPECI,311.0
KSCK 180255Z AUTO 00000KT 8SM CLR 15/08 A3000 RMK AO2 SLP158 T01500078 56005,KSCK,2021-01-18T02:55:00Z,37.88,-121.22,15.0,7.8,0,0,,8.0,30.0,1015.8,,TRUE,TRUE,,,,,,,CLR,,,,,,,,VFR,-0.5,,,,,,,,,,,METAR,8.0
KSCF 180255Z AUTO 25010KT 10SM CLR 13/08 A3012 RMK A01,KSCF,2021-01-18T02:55:00Z,29.12,-91.87,13.0,8.0,250,10,,10.0,30.121063,,,TRUE,TRUE,,,,,,,CLR,,,,,,,,VFR,,,,,,,,,,,,SPECI,22.0
KRNO 180255Z 33004KT 10SM FEW220 08/M03 A3023 RMK AO2 SLP236 T00831028 53004 $,KRNO,2021-01-18T02:55:00Z,39.5,-119.77,8.3,-2.8,330,4,,10.0,30.230314,1023.6,,,TRUE,TRUE,,,,,,FEW,22000,,,,,,,VFR,0.4,,,,,,,,,,,METAR,1344.0
KQTZ 180255Z 20004KT 9999 SKC 11/07 A2996 RMK SLP148 53014,KQTZ,2021-01-18T02:55:00Z,,,11.0,7.0,200,4,,6.21,29.958662,1014.8,,,,,,,,,,SKC,,,,,,,,VFR,1.4,,,,,,,,,,,METAR,
KPHP 180255Z AUTO 01007KT 10SM SCT050 OVC070 03/M05 A2978 RMK AO2 SLP104 T00281050 58007,KPHP,2021-01-18T02:55:00Z,44.05,-101.6,2.8,-5.0,10,7,,10.0,29.778543,1010.4,,TRUE,TRUE,,,,,,,SCT,5000,OVC,7000,,,,,VFR,-0.7,,,,,,,,,,,METAR,673.0
KNKX 180255Z 08005KT 10SM CLR 13/M02 A2994 RMK AO2 SLP136 T01281022 50001 $,KNKX,2021-01-18T02:55:00Z,32.87,-117.13,12.8,-2.2,80,5,,10.0,29.940945,1013.6,,,TRUE,TRUE,,,,,,CLR,,,,,,,,VFR,0.1,,,,,,,,,,,SPECI,138.0
KNFG 180255Z AUTO 00000KT 10SM CLR 15/M05 A2993 RMK AO2 SLP135 T01501050 53006,KNFG,2021-01-18T02:55:00Z,33.3,-117.35,15.0,-5.0,0,0,,10.0,29.929134,1013.5,,TRUE,TRUE,,,,,,,CLR,,,,,,,,VFR,0.6,,,,,,,,,,,METAR,21.0
KNBG 180255Z AUTO 25005KT 10SM CLR 11/03 A3009 RMK AO2 SLP188 T01060033 51018 $,KNBG,2021-01-18T02:55:00Z,29.83,-90.02,10.6,3.3,250,5,,10.0,30.088583,1018.8,,TRUE,TRUE,TRUE,,,,,,CLR,,,,,,,,VFR,1.8,,,,,,,,,,,METAR,0.0
KMKG 180255Z 00000KT 10SM BKN035 OVC043 M01/M03 A2971 RMK AO2 SLP067 60000 T10061033 50002,KMKG,2021-01-18T02:55:00Z,43.17,-86.23,-0.6,-3.3,0,0,,10.0,29.71063,1006.7,,,TRUE,,,,,,,BKN,3500,OVC,4300,,,,,VFR,0.2,,,,,,0.005,,,,,METAR,190.0
KMDS 180255Z AUTO 00000KT 10SM CLR M04/M04 A2980 RMK AO2,KMDS,2021-01-18T02:55:00Z,44.02,-97.08,-4.0,-4.0,0,0,,10.0,29.799213,,,TRUE,TRUE,,,,,,,CLR,,,,,,,,VFR,,,,,,,,,,,,METAR,524.0
KLLJ 180255Z AUTO 30003KT 10SM FEW060 M01/M08 A3015 RMK AO2 SLP246 T10111083 51009,KLLJ,2021-01-18T02:55:00Z,44.52,-114.22,-1.1,-8.3,300,3,,10.0,30.15059,1024.6,,TRUE,TRUE,,,,,,,FEW,6000,,,,,,,VFR,0.9,,,,,,,,,,,METAR,1535.0
KLIC 180255Z AUTO 17005KT 10SM FEW120 02/M09 A2984 RMK AO2 SLP113 T00171094 58013 $,KLIC,2021-01-18T02:55:00Z,39.27,-103.67,1.7,-9.4,170,5,,10.0,29.840551,1011.3,,TRUE,TRUE,TRUE,,,,,,FEW,12000,,,,,,,VFR,-1.3,,,,,,,,,,,METAR,1635.0
KLCK 180255Z AUTO 31004KT 10SM -SN SCT008 OVC014 00/M01 A2975 RMK AO2 T00001007,KLCK,2021-01-18T02:55:00Z,39.82,-82.92,0.0,-0.7,310,4,,10.0,29.749016,,,TRUE,TRUE,,,,,,-SN,SCT,800,OVC,1400,,,,,MVFR,,,,,,,,,,,,METAR,225.0
KLCG 180255Z AUTO 18003KT 10SM CLR M02/M04 A2984 RMK AO2 T10251040,KLCG,2021-01-18T02:55:00Z,42.25,-96.98,-2.5,-4.0,180,3,,10.0,29.840551,,,TRUE,TRUE,,,,,,,CLR,,,,,,,,VFR,,,,,,,,,,,,METAR,434.0
KIWA 180255Z 00000KT 10SM FEW250 14/M09 A2996,KIWA,2021-01-18T02:55:00Z,33.3,-111.65,14.0,-9.0,0,0,,10.0,29.958662,,,,,,,,,,,FEW,25000,,,,,,,VFR,,,,,,,,,,,,METAR,420.0
KIRK 180255Z AUTO 29009KT 10SM OVC019 M01/M04 A2986 RMK AO2 SLP126 T10061044 51000,KIRK,2021-01-18T02:55:00Z,40.1,-92.55,-0.6,-4.4,290,9,,10.0,29.861221,1012.6,,TRUE,TRUE,,,,,,,OVC,1900,,,,,,,MVFR,0.0,,,,,,,,,,,METAR,292.0
KHON 180255Z AUTO 00000KT CLR M04/M07 A2983 RMK AO2 SLP118 T10441067 58003 $,KHON,2021-01-18T02:55:00Z,44.38,-98.23,-4.4,-6.7,0,0,,,29.828741,1011.8,,TRUE,TRUE,TRUE,,,,,,CLR,,,,,,,,,-0.3,,,,,,,,,,,METAR,391.0
KGPI 180255Z 17003KT 10SM OVC055 02/M01 A3013 RMK AO2 SLP228 T00171006 51008,KGPI,2021-01-18T02:55:00Z,48.32,-114.25,1.7,-0.6,170,3,,10.0,30.129921,1022.8,,,TRUE,,,,,,,OVC,5500,,,,,,,VFR,0.8,,,,,,,,,,,METAR,903.0
KEDJ 180255Z AUTO 28006KT 10SM SCT010 M02/M02 A2974 RMK AO1,KEDJ,2021-01-18T02:55:00Z,40.37,-83.82,-2.0,-2.0,280,6,,10.0,29.740158,,,TRUE,TRUE,,,,,,,SCT,1000,,,,,,,VFR,,,,,,,,,,,,METAR,341.0
KEBS 180255Z AUTO 30004KT 10SM BKN018 BKN026 OVC042 M01/M01 A2980 RMK AO2,KEBS,2021-01-18T02:55:00Z,42.43,-93.87,-1.0,-1.0,300,4,,10.0,29.799213,,,TRUE,TRUE,,,,,,,BKN,1800,BKN,2600,OVC,4200,,,MVFR,,,,,,,,,,,,METAR,340.0
KEAT 180255Z AUTO 00000KT 10SM CLR 06/M02 A3038 RMK AO2 SLP296 T00561017 53017,KEAT,2021-01-18T02:55:00Z,47.4,-120.2,5.6,-1.7,0,0,,10.0,30.380905,1029.6,,TRUE,TRUE,,,,,,,CLR,,,,,,,,VFR,1.7,,,,,,,,,,,METAR,375.0
KDLH 180255Z COR 31005KT 7SM -SN BKN007 OVC012 10/M09 A2972 RMK AO2 SNB34 SLP080 P0000 60000 T01001089 56004 $,KDLH,2021-01-18T02:55:00Z,46.85,-92.2,10.0,-8.9,310,5,,7.0,29.719488,1008.0,TRUE,,TRUE,TRUE,,,,,-SN,BKN,700,OVC,1200,,,,,IFR,-0.4,,,,,0.005,,,,,,SPECI,434.0
KCNW 180255Z 00000KT 10SM SKC 05/M01 A3012,KCNW,2021-01-18T02:55:00Z,31.63,-97.07,5.0,-1.0,0,0,,10.0,30.121063,,,,,,,,,,,SKC,,,,,,,,VFR,,,,,,,,,,,,METAR,139.0
KCNK 180255Z AUTO 23006KT 10SM CLR 02/M08 A2988 RMK AO2 SLP129 T00171083 58011,KCNK,2021-01-18T02:55:00Z,39.55,-97.65,1.7,-8.3,230,6,,10.0,29.878937,1012.9,,TRUE,TRUE,,,,,,,CLR,,,,,,,,VFR,-1.1,,,,,,,,,,,METAR,445.0
KCMA 180255Z AUTO 00000KT 10SM CLR 18/03 A2994 RMK AO2 SLP147 T01830033 53004,KCMA,2021-01-18T02:55:00Z,34.22,-119.1,18.3,3.3,0,0,,10.0,29.940945,1014.7,,TRUE,TRUE,,,,,,,CLR,,,,,,,,VFR,0.4,,,,,,,,,,,METAR,20.0
KCAO 180255Z AUTO 23013KT 10SM CLR M01/M08 A2993 RMK AO2 SLP153 T10061078 58018,KCAO,2021-01-18T02:55:00Z,36.45,-103.15,-0.6,-7.8,230,13,,10.0,29.929134,1015.3,,TRUE,TRUE,,,,,,,CLR,,,,,,,,VFR,-1.8,,,,,,,,,,,METAR,1517.0
KAST 180255Z AUTO 32007KT 7SM SCT019 OVC025 07/06 A3055 RMK AO2 CIG 020 RWY 08 SLP343 T00720061 53013,KAST,2021-01-18T02:55:00Z,46.15,-123.88,7.2,6.1,320,7,,7.0,30.549213,1034.3,,TRUE,TRUE,,,,,,,SCT,1900,OVC,2500,,,,,MVFR,1.3,,,,,,,,,,,METAR,3.0
KANJ 180255Z AUTO 04004KT 10SM OVC090 M04/M12 A2971 RMK AO2 SLP071 T10441117 53018,KANJ,2021-01-18T02:55:00Z,46.47,-84.37,-4.4,-11.7,40,4,,10.0,29.71063,1007.1,,TRUE,TRUE,,,,,,,OVC,9000,,,,,,,VFR,1.8,,,,,,,,,,,METAR,220.0
KAAT 180255Z AUTO 01011KT 10SM CLR 07/M01 A3031 RMK AO2 SLP276 T00721011 53010 $,KAAT,2021-01-18T02:55:00Z,41.48,-120.57,7.2,-1.1,10,11,,10.0,30.31004,1027.6,,TRUE,TRUE,TRUE,,,,,,CLR,,,,,,,,VFR,1.0,,,,,,,,,,,METAR,1336.0
FJDG 180255Z 26012KT 9999 FEW018 BKN080 BKN220 28/26 A2981 RMK SLP091 8/172 T02790256 53017,FJDG,2021-01-18T02:55:00Z,-7.32,72.42,27.9,25.6,260,12,,6.21,29.811024,1009.1,,,,,,,,,,FEW,1800,BKN,8000,BKN,22000,,,VFR,1.7,,,,,,,,,,,SPECI,3.0
EHWO 180255Z AUTO 23005KT 8000 BR BKN032 BKN038 OVC230 03/03 Q1023 BLU,EHWO,2021-01-18T02:55:00Z,51.45,4.33,3.0,3.0,230,5,,4.97,30.206694,,,TRUE,,,,,,,BR,BKN,3200,BKN,3800,OVC,23000,,,MVFR,,,,,,,,,,,,METAR,15.0
EHSC 180255Z AUTO 28017KT 9999 ///////// 07/04 Q1023 W07/H14,EHSC,2021-01-18T02:55:00Z,51.93,3.67,7.0,4.0,280,17,,6.21,30.206694,,,TRUE,,,,,,,,,,,,,,,,,,,,,,,,,,,,METAR,19.0
EHSA 180255Z AUTO 26019KT 9999 ///////// 07/04 Q1023 W06/H13,EHSA,2021-01-18T02:55:00Z,52.0,3.28,7.0,4.0,260,19,,6.21,30.206694,,,TRUE,,,,,,,,,,,,,,,,,,,,,,,,,,,,METAR,18.0
EHRD 180255Z AUTO 22006KT 9999 FEW015 SCT030 BKN036 03/02 Q1022 NOSIG,EHRD,2021-01-18T02:55:00Z,51.95,4.45,3.0,2.0,220,6,,6.21,30.177166,,,TRUE,,,TRUE,,,,,FEW,1500,SCT,3000,BKN,3600,,,VFR,,,,,,,,,,,,METAR,-4.0
EHQE 180255Z AUTO 24019KT 9999 FEW009 BKN011 BKN014 07/04 Q1020,EHQE,2021-01-18T02:55:00Z,52.92,4.15,7.0,4.0,240,19,,6.21,30.11811,,,TRUE,,,,,,,,FEW,900,BKN,1100,BKN,1400,,,MVFR,,,,,,,,,,,,METAR,41.0
EHPG 180255Z AUTO 27019KT 200V010 9999 FEW012 07/04 Q1021,EHPG,2021-01-18T02:55:00Z,52.37,3.35,7.0,4.0,270,19,,6.21,30.147638,,,TRUE,,,,,,,,FEW,1200,,,,,,,VFR,,,,,,,,,,,,METAR,24.0
EHMG 180255Z AUTO 26019KT 9999 FEW010 SCT020 BKN024 07/04 Q1019,EHMG,2021-01-18T02:55:00Z,53.62,4.97,7.0,4.0,260,19,,6.21,30.088583,,,TRUE,,,,,,,,FEW,1000,SCT,2000,BKN,2400,,,MVFR,,,,,,,,,,,,METAR,30.0
EHMA 180255Z AUTO 25013KT 9999 FEW018 SCT029 04/03 Q1019,EHMA,2021-01-18T02:55:00Z,53.5,5.95,4.0,3.0,250,13,,6.21,30.088583,,,TRUE,,,,,,,,FEW,1800,SCT,2900,,,,,VFR,,,,,,,,,,,,METAR,27.0
EHLE 180255Z AUTO 22007KT 9999 NSC 02/01 Q1021,EHLE,2021-01-18T02:55:00Z,52.45,5.52,2.0,1.0,220,7,,6.21,30.147638,,,TRUE,,,,,,,,CLR,,,,,,,,VFR,,,,,,,,,,,,METAR,-3.0
EHKV 180255Z AUTO 28026KT 9999 FEW009 07/05 Q1019,EHKV,2021-01-18T02:55:00Z,53.27,3.63,7.0,5.0,280,26,,6.21,30.088583,,,TRUE,,,,,,,,FEW,900,,,,,,,VFR,,,,,,,,,,,,METAR,28.0
EHJR 180255Z AUTO ///24KT //// // ///////// 07/04 Q1020 RE// W08/H15,EHJR,2021-01-18T02:55:00Z,53.22,3.22,7.0,4.0,,,,,30.11811,,,TRUE,,,,,,,,,,,,,,,,,,,,,,,,,,,,METAR,31.0
EHJA 180255Z AUTO 24028KT 9999 FEW009/// SCT010/// 06/04 Q1018,EHJA,2021-01-18T02:55:00Z,53.82,2.95,6.0,4.0,240,28,,6.21,30.059055,,,TRUE,,,,,,,,FEW,900,SCT,1000,,,,,VFR,,,,,,,,,,,,METAR,34.0
EHHW 180255Z AUTO 28014KT 220V300 9999 SCT016/// SCT020/// BKN023/// 07/03 Q1018,EHHW,2021-01-18T02:55:00Z,54.03,6.03,7.0,3.0,280,14,,6.21,30.059055,,,TRUE,,,,,,,,SCT,1600,SCT,2000,BKN,2300,,,MVFR,,,,,,,,,,,,METAR,10.0
EHGG 180255Z AUTO 22007KT 9000 NSC M01/M01 Q1020,EHGG,2021-01-18T02:55:00Z,53.12,6.57,-1.0,-1.0,220,7,,5.59,30.11811,,,TRUE,,,,,,,,CLR,,,,,,,,VFR,,,,,,,,,,,,METAR,2.0
EHFS 180255Z AUTO 24011KT 9999 NSC 05/04 Q1023,EHFS,2021-01-18T02:55:00Z,51.45,3.6,5.0,4.0,240,11,,6.21,30.206694,,,TRUE,,,,,,,,CLR,,,,,,,,VFR,,,,,,,,,,,,METAR,1.0
EHFD 180255Z AUTO /////KT 9999 // FEW005/// SCT012/// BKN015/// 06/05 Q1015 RE//,EHFD,2021-01-18T02:55:00Z,54.85,4.7,6.0,5.0,,,,6.21,29.970472,,,TRUE,,,,,,,,FEW,500,SCT,1200,BKN,1500,,,MVFR,,,,,,,,,,,,METAR,24.0
EHDV 180255Z AUTO 26022KT 9999 FEW048/// 07/04 Q1017,EHDV,2021-01-18T02:55:00Z,54.32,2.93,7.0,4.0,260,22,,6.21,30.029528,,,TRUE,,,,,,,,FEW,4800,,,,,,,VFR,,,,,,,,,,,,METAR,36.0
EHDL 180255Z AUTO 23007KT 180V280 8000 BR OVC033 02/01 Q1022 BLU,EHDL,2021-01-18T02:55:00Z,52.07,5.88,2.0,1.0,230,7,,4.97,30.177166,,,TRUE,,,,,,,BR,OVC,3300,,,,,,,MVFR,,,,,,,,,,,,METAR,49.0
EHBK 180255Z AUTO 25005KT 210V290 9999 FEW007 OVC037 04/03 Q1023,EHBK,2021-01-18T02:55:00Z,50.92,5.77,4.0,3.0,250,5,,6.21,30.206694,,,TRUE,,,,,,,,FEW,700,OVC,3700,,,,,VFR,,,,,,,,,,,,METAR,112.0
EHAM 180255Z 22009KT 9999 FEW016 03/02 Q1022 NOSIG,EHAM,2021-01-18T02:55:00Z,52.32,4.78,3.0,2.0,220,9,,6.21,30.177166,,,,,,TRUE,,,,,FEW,1600,,,,,,,VFR,,,,,,,,,,,,METAR,-2.0
EHAK 180255Z AUTO 25018KT 7000 DZ FEW007/// SCT011/// BKN016/// 06/05 Q1014,EHAK,2021-01-18T02:55:00Z,55.38,3.82,6.0,5.0,250,18,,4.35,29.940945,,,TRUE,,,,,,,DZ,FEW,700,SCT,1100,BKN,1600,,,MVFR,,,,,,,,,,,,METAR,33.0
EBFS 180255Z AUTO 25007KT 9999 BKN035/// 02/01 Q1024 BLU,EBFS,2021-01-18T02:55:00Z,50.23,4.65,2.0,1.0,250,7,,6.21,30.236221,,,TRUE,,,,,,,,BKN,3500,,,,,,,VFR,,,,,,,,,,,,METAR,276.0
EBFN 180255Z AUTO 23006KT 9999 NCD 02/01 Q1025 BLU,EBFN,2021-01-18T02:55:00Z,51.08,2.65,2.0,1.0,230,6,,6.21,30.265747,,,TRUE,,,,,,,,CLR,,,,,,,,VFR,,,,,,,,,,,,METAR,9.0
EBDT 180255Z AUTO 24006KT 9999 FEW013/// SCT045/// BKN110/// 04/02 Q1024 BLU,EBDT,2021-01-18T02:55:00Z,51.02,5.07,4.0,2.0,240,6,,6.21,30.236221,,,TRUE,,,,,,,,FEW,1300,SCT,4500,BKN,11000,,,VFR,,,,,,,,,,,,METAR,25.0
EBCV 180255Z AUTO 22007KT 9999 FEW031/// 01/00 Q1025 BLU,EBCV,2021-01-18T02:55:00Z,50.57,3.82,1.0,0.0,220,7,,6.21,30.265747,,,TRUE,,,,,,,,FEW,3100,,,,,,,VFR,,,,,,,,,,,,METAR,56.0
EBBL 180255Z AUTO 23008KT 9999 BKN043/// 04/03 Q1023 BLU,EBBL,2021-01-18T02:55:00Z,51.17,5.47,4.0,3.0,230,8,,6.21,30.206694,,,TRUE,,,,,,,,BKN,4300,,,,,,,VFR,,,,,,,,,,,,METAR,50.0
EBBE 180255Z AUTO 24006KT 9999 FEW017/// BKN038/// 03/02 Q1024 BLU,EBBE,2021-01-18T02:55:00Z,50.75,4.77,3.0,2.0,240,6,,6.21,30.236221,,,TRUE,,,,,,,,FEW,1700,BKN,3800,,,,,VFR,,,,,,,,,,,,METAR,127.0
PTYA 180254Z VRB05KT 12SM SCT016 BKN130 OVC300 30/26 A2979 RMK SLP088 60009 8/178 T02980257 57012,PTYA,2021-01-18T02:54:00Z,9.48,138.08,29.8,25.7,0,5,,12.0,29.790354,1008.8,,,,,,,,,,SCT,1600,BKN,13000,OVC,30000,,,VFR,-1.2,,,,,,0.09,,,,,METAR,4.0
PGSN 180254Z 10011KT 10SM FEW025 29/24 A2986 RMK AO2 SLP132 T02890239 58018 $,PGSN,2021-01-18T02:54:00Z,15.12,145.72,28.9,23.9,100,11,,10.0,29.861221,1013.2,,,TRUE,TRUE,,,,,,FEW,2500,,,,,,,VFR,-1.8,,,,,,,,,,,METAR,65.0
PAHN 180254Z AUTO 11011G21KT 7SM -RA BKN050 OVC070 04/02 A3022 RMK AO2 SLP237 P0001 60003 T00440022 51039 TSNO,PAHN,2021-01-18T02:54:00Z,59.25,-135.52,4.4,2.2,110,11,21,7.0,30.221457,1023.7,,TRUE,TRUE,,,TRUE,,,-RA,BKN,5000,OVC,7000,,,,,VFR,3.9,,,,,0.01,0.03,,,,,METAR,15.0
KWLD 180254Z AUTO 23004KT 10SM CLR M02/M07 A2998 RMK AO2 SLP162 T10221067 56005,KWLD,2021-01-18T02:54:00Z,37.17,-97.03,-2.2,-6.7,230,4,,10.0,29.97933,1016.2,,TRUE,TRUE,,,,,,,CLR,,,,,,,,VFR,-0.5,,,,,,,,,,,METAR,351.0
KWAL 180254Z AUTO 23006KT 10SM OVC075 06/M01 A2983 RMK AO2 SLP098 T00561006 55001,KWAL,2021-01-18T02:54:00Z,37.93,-75.47,5.6,-0.6,230,6,,10.0,29.828741,1009.8,,TRUE,TRUE,,,,,,,OVC,7500,,,,,,,VFR,-0.1,,,,,,,,,,,METAR,10.0
KVTA 180254Z AUTO 23006KT 10SM FEW012 BKN018 OVC024 01/M01 A2973 RMK AO2 SNE21 SLP074 P0001 60002 I3000 T00111011 53002,KVTA,2021-01-18T02:54:00Z,40.02,-82.47,1.1,-1.1,230,6,,10.0,29.731298,1007.4,,TRUE,TRUE,,,,,,,FEW,1200,BKN,1800,OVC,2400,,,MVFR,0.2,,,,,0.01,0.02,,,,,METAR,268.0
KVSF 180254Z AUTO 24007G16KT 180V310 10SM OVC042 02/M05 A2955 RMK AO2 SLP011 T00221050 51014,KVSF,2021-01-18T02:54:00Z,43.35,-72.52,2.2,-5.0,240,7,16,10.0,29.551182,1001.1,,TRUE,TRUE,,,,,,,OVC,4200,,,,,,,VFR,1.4,,,,,,,,,,,METAR,176.0
KVAY 180254Z AUTO 21003KT 10SM FEW060 BKN085 04/M02 A2975 RMK AO2 SLP076 T00441017 50000,KVAY,2021-01-18T02:54:00Z,39.93,-74.83,4.4,-1.7,210,3,,10.0,29.749016,1007.6,,TRUE,TRUE,,,,,,,FEW,6000,BKN,8500,,,,,VFR,0.0,,,,,,,,,,,METAR,15.0
KUZA 180254Z AUTO 20005KT 10SM CLR 01/M03 A2990 RMK AO2 SLP133 T00111028 53006,KUZA,2021-01-18T02:54:00Z,34.98,-81.05,1.1,-2.8,200,5,,10.0,29.899607,1013.3,,TRUE,TRUE,,,,,,,CLR,,,,,,,,VFR,0.6,,,,,,,,,,,METAR,198.0
KUIN 180254Z AUTO 28009KT 10SM OVC025 00/M04 A2985 RMK AO2 SLP114 T00001039 58001,KUIN,2021-01-18T02:54:00Z,39.95,-91.2,0.0,-3.9,280,9,,10.0,29.84941,1011.4,,TRUE,TRUE,,,,,,,OVC,2500,,,,,,,MVFR,-0.1,,,,,,,,,,,METAR,233.0
KTQE 180254Z AUTO 02005KT 10SM OVC055 00/M03 A2986 RMK AO2 SLP117 T00001033 56003 $,KTQE,2021-01-18T02:54:00Z,41.77,-96.18,0.0,-3.3,20,5,,10.0,29.861221,1011.7,,TRUE,TRUE,TRUE,,,,,,OVC,5500,,,,,,,VFR,-0.3,,,,,,,,,,,METAR,312.0
KTAD 180254Z AUTO 25010KT 10SM CLR 04/M07 A2987 RMK AO2 SLP129 T00391072 58018 $,KTAD,2021-01-18T02:54:00Z,37.27,-104.33,3.9,-7.2,250,10,,10.0,29.870079,1012.9,,TRUE,TRUE,TRUE,,,,,,CLR,,,,,,,,VFR,-1.8,,,,,,,,,,,METAR,1751.0
KSYR 180254Z 28004KT 9SM -SN BKN025 OVC060 02/M01 A2962 RMK AO2 SLP030 P0000 60000 T00171006 58002 $,KSYR,2021-01-18T02:54:00Z,43.12,-76.1,1.7,-0.6,280,4,,9.0,29.619095,1003.0,,,TRUE,TRUE,,,,,-SN,BKN,2500,OVC,6000,,,,,MVFR,-0.2,,,,,0.005,0.005,,,,,METAR,125.0
KSUS 180254Z AUTO 27004KT 10SM FEW020 OVC036 01/M02 A2988 RMK AO2 SLP127 60000 T00111017 50002,KSUS,2021-01-18T02:54:00Z,38.65,-90.65,1.1,-1.7,270,4,,10.0,29.878937,1012.7,,TRUE,TRUE,,,,,,,FEW,2000,OVC,3600,,,,,VFR,0.2,,,,,,0.005,,,,,METAR,140.0
KSLC 180254Z 19004KT 10SM BKN075 BKN095 06/M03 A3014 RMK AO2 SLP215 T00611033 56011,KSLC,2021-01-18T02:54:00Z,40.77,-111.97,6.1,-3.3,190,4,,10.0,30.138779,1021.5,,,TRUE,,,,,,,BKN,7500,BKN,9500,,,,,VFR,-1.1,,,,,,,,,,,METAR,1286.0
KSJN 180254Z AUTO 16005KT 10SM CLR 01/M16 A3011 RMK AO2 SLP213 T00061161 58004,KSJN,2021-01-18T02:54:00Z,34.52,-109.38,0.6,-16.1,160,5,,10.0,30.109253,1021.3,,TRUE,TRUE,,,,,,,CLR,,,,,,,,VFR,-0.4,,,,,,,,,,,METAR,1747.0
KSBY 180254Z 20005KT 10SM OVC080 04/01 A2981 RMK AO2 SLP097 T00390006 56001 $,KSBY,2021-01-18T02:54:00Z,38.33,-75.5,3.9,0.6,200,5,,10.0,29.811024,1009.7,,,TRUE,TRUE,,,,,,OVC,8000,,,,,,,VFR,-0.1,,,,,,,,,,,METAR,14.0
KRST 180254Z 34008KT 10SM OVC007 M07/M08 A2977 RMK AO2 CIG 006V010 SLP103 T10671083 55000,KRST,2021-01-18T02:54:00Z,43.9,-92.5,-6.7,-8.3,340,8,,10.0,29.769686,1010.3,,,TRUE,,,,,,,OVC,700,,,,,,,IFR,0.0,,,,,,,,,,,METAR,398.0
KRSP 180254Z AUTO 26009KT 220V300 10SM -SN FEW029 BKN045 OVC100 01/M04 A2969 RMK AO2 SNE00B53 SLP075 6//// T00111039 53008 TSNO PNO $,KRSP,2021-01-18T02:54:00Z,39.65,-77.47,1.1,-3.9,260,9,,10.0,29.68996,1007.5,,TRUE,TRUE,TRUE,,TRUE,,,-SN,FEW,2900,BKN,4500,OVC,10000,,,VFR,0.8,,,,,,,,,,,METAR,555.0
KROC 180254Z 27005KT 10SM OVC040 01/M02 A2962 RMK AO2 SLP040 T00061022 58002,KROC,2021-01-18T02:54:00Z,43.12,-77.68,0.6,-2.2,270,5,,10.0,29.619095,1004.0,,,TRUE,,,,,,,OVC,4000,,,,,,,VFR,-0.2,,,,,,,,,,,METAR,166.0
KROA 180254Z 21003KT 10SM OVC070 04/M03 A2982 RMK AO2 SLP102 T00441033 57001,KROA,2021-01-18T02:54:00Z,37.32,-79.97,4.4,-3.3,210,3,,10.0,29.819881,1010.2,,,TRUE,,,,,,,OVC,7000,,,,,,,VFR,-0.1,,,,,,,,,,,METAR,349.0
KRKS 180254Z AUTO 26019G28KT 10SM OVC036 02/M06 A3001 RMK AO2 PK WND 25033/0201 SLP178 T00171061 58001 $,KRKS,2021-01-18T02:54:00Z,41.6,-109.07,1.7,-6.1,260,19,28,10.0,30.008858,1017.8,,TRUE,TRUE,TRUE,,,,,,OVC,3600,,,,,,,VFR,-0.1,,,,,,,,,,,METAR,2062.0
KRIC 180254Z 21005KT 10SM BKN085 03/M02 A2982 RMK AO2 SLP103 T00331017 58002,KRIC,2021-01-18T02:54:00Z,37.52,-77.32,3.3,-1.7,210,5,,10.0,29.819881,1010.3,,,TRUE,,,,,,,BKN,8500,,,,,,,VFR,-0.2,,,,,,,,,,,METAR,51.0
KRDG 180254Z 23006KT 10SM SCT070 OVC090 05/M03 A2972 RMK AO2 SLP070 T00501028 58002,KRDG,2021-01-18T02:54:00Z,40.37,-75.97,5.0,-2.8,230,6,,10.0,29.719488,1007.0,,,TRUE,,,,,,,SCT,7000,OVC,9000,,,,,VFR,-0.2,,,,,,,,,,,METAR,101.0
KRBL 180254Z AUTO 34017G26KT 10SM CLR 22/02 A3004 RMK AO2 PK WND 35028/0240 SLP169 T02170017 53000,KRBL,2021-01-18T02:54:00Z,40.15,-122.25,21.7,1.7,340,17,26,10.0,30.041338,1016.9,,TRUE,TRUE,,,,,,,CLR,,,,,,,,VFR,0.0,,,,,,,,,,,METAR,107.0
KPTW 180254Z AUTO 24006KT 10SM FEW065 OVC085 04/M03 A2975 RMK AO2 SLP073 T00391033 50000,KPTW,2021-01-18T02:54:00Z,40.23,-75.55,3.9,-3.3,240,6,,10.0,29.749016,1007.3,,TRUE,TRUE,,,,,,,FEW,6500,OVC,8500,,,,,VFR,0.0,,,,,,,,,,,METAR,88.0
KPSF 180254Z AUTO 25008G16KT 10SM SCT038 OVC048 02/M04 A2957 RMK AO2 SLP020 T00171039 51007,KPSF,2021-01-18T02:54:00Z,42.43,-73.28,1.7,-3.9,250,8,16,10.0,29.568897,1002.0,,TRUE,TRUE,,,,,,,SCT,3800,OVC,4800,,,,,VFR,0.7,,,,,,,,,,,METAR,352.0
KPNE 180254Z AUTO 23005KT 10SM BKN055 OVC070 06/M02 A2976 RMK AO2 SLP077 T00611022 58000 $,KPNE,2021-01-18T02:54:00Z,40.08,-75.02,6.1,-2.2,230,5,,10.0,29.760826,1007.7,,TRUE,TRUE,TRUE,,,,,,BKN,5500,OVC,7000,,,,,VFR,0.0,,,,,,,,,,,METAR,32.0
KPLN 180254Z AUTO 36004KT 10SM OVC090 M03/M07 A2970 RMK AO2 SLP067 60000 T10281067 52004,KPLN,2021-01-18T02:54:00Z,45.57,-84.8,-2.8,-6.7,360,4,,10.0,29.698818,1006.7,,TRUE,TRUE,,,,,,,OVC,9000,,,,,,,VFR,0.4,,,,,,0.005,,,,,METAR,215.0
KPIA 180254Z 29006KT 10SM FEW025 FEW070 M03/M07 A2983 RMK AO2 SLP110 60000 T10331067 50003 $,KPIA,2021-01-18T02:54:00Z,40.67,-89.68,-3.3,-6.7,290,6,,10.0,29.828741,1011.0,,,TRUE,TRUE,,,,,,FEW,2500,FEW,7000,,,,,VFR,0.3,,,,,,0.005,,,,,METAR,200.0
KPHL 180254Z 22008KT 10SM FEW060 OVC085 06/M02 A2976 RMK AO2 SLP077 T00561017 58002,KPHL,2021-01-18T02:54:00Z,39.87,-75.23,5.6,-1.7,220,8,,10.0,29.760826,1007.7,,,TRUE,,,,,,,FEW,6000,OVC,8500,,,,,VFR,-0.2,,,,,,,,,,,METAR,2.0
KPHF 180254Z AUTO 22005KT 10SM OVC065 04/01 A2985 RMK AO2 SLP109 T00440006 56000,KPHF,2021-01-18T02:54:00Z,37.13,-76.5,4.4,0.6,220,5,,10.0,29.84941,1010.9,,TRUE,TRUE,,,,,,,OVC,6500,,,,,,,VFR,0.0,,,,,,,,,,,METAR,12.0
KORH 180254Z AUTO 24014KT 10SM OVC041 02/M04 A2957 RMK AO2 SLP024 T00221044 53015,KORH,2021-01-18T02:54:00Z,42.27,-71.87,2.2,-4.4,240,14,,10.0,29.568897,1002.4,,TRUE,TRUE,,,,,,,OVC,4100,,,,,,,VFR,1.5,,,,,,,,,,,METAR,306.0
KOLS 180254Z AUTO 15003KT 10SM CLR 12/M12 A3004 RMK AO2 SLP152 T01171122 50005,KOLS,2021-01-18T02:54:00Z,31.42,-110.85,11.7,-12.2,150,3,,10.0,30.041338,1015.2,,TRUE,TRUE,,,,,,,CLR,,,,,,,,VFR,0.5,,,,,,,,,,,METAR,1194.0
KOLM 180254Z 00000KT 10SM OVC045 06/05 A3052 RMK AO2 SLP338 T00560050 53010,KOLM,2021-01-18T02:54:00Z,46.97,-122.9,5.6,5.0,0,0,,10.0,30.519686,1033.8,,,TRUE,,,,,,,OVC,4500,,,,,,,VFR,1.0,,,,,,,,,,,METAR,58.0
KOFP 180254Z AUTO 19005KT 10SM BKN080 05/M01 A2982 RMK AO2 SLP099 T00501011 58002,KOFP,2021-01-18T02:54:00Z,37.7,-77.43,5.0,-1.1,190,5,,10.0,29.819881,1009.9,,TRUE,TRUE,,,,,,,BKN,8000,,,,,,,VFR,-0.2,,,,,,,,,,,METAR,63.0
KNKT 180254Z 23005KT 10SM CLR 04/M01 A2994 RMK AO2 SLP133 T00441006 53007,KNKT,2021-01-18T02:54:00Z,34.9,-76.88,4.4,-0.6,230,5,,10.0,29.940945,1013.3,,,TRUE,,,,,,,CLR,,,,,,,,VFR,0.7,,,,,,,,,,,METAR,8.0
KNAK 180254Z AUTO 00000KT 10SM OVC085 06/M02 A2977 RMK AO2 SLP082 T00561022 58003,KNAK,2021-01-18T02:54:00Z,38.98,-76.48,5.6,-2.2,0,0,,10.0,29.769686,1008.2,,TRUE,TRUE,,,,,,,OVC,8500,,,,,,,VFR,-0.3,,,,,,,,,,,METAR,2.0
KMVL 180254Z AUTO VRB06KT 9SM -SN BKN022 OVC028 M01/M04 A2951 RMK AO2 SNB0155 SLP003 P0000 60000 T10111044 53011,KMVL,2021-01-18T02:54:00Z,44.53,-72.62,-1.1,-4.4,0,6,,9.0,29.509842,1000.3,,TRUE,TRUE,,,,,,-SN,BKN,2200,OVC,2800,,,,,MVFR,1.1,,,,,0.005,0.005,,,,,METAR,226.0
KMTP 180254Z AUTO 24009G16KT 06/M03 A2970 RMK AO1 SLP058 T00611028 51009 $,KMTP,2021-01-18T02:54:00Z,41.07,-71.92,6.1,-2.8,240,9,16,,29.698818,1005.8,,TRUE,TRUE,TRUE,,,,,,,,,,,,,,,0.9,,,,,,,,,,,METAR,2.0
KMRY 180254Z AUTO 00000KT 10SM CLR 14/07 A3002 RMK AO2 SLP176 T01390072 53003,KMRY,2021-01-18T02:54:00Z,36.58,-121.85,13.9,7.2,0,0,,10.0,30.02067,1017.6,,TRUE,TRUE,,,,,,,CLR,,,,,,,,VFR,0.3,,,,,,,,,,,METAR,51.0
KMOT 180254Z 09003KT 10SM OVC070 M04/M07 A2978 RMK AO2 SLP113 T10391072 58005,KMOT,2021-01-18T02:54:00Z,48.25,-101.27,-3.9,-7.2,90,3,,10.0,29.778543,1011.3,,,TRUE,,,,,,,OVC,7000,,,,,,,VFR,-0.5,,,,,,,,,,,METAR,507.0
KMKC 180254Z 00000KT 10SM CLR 00/M05 A2991 RMK AO2 SLP136 T00001050 58002,KMKC,2021-01-18T02:54:00Z,39.12,-94.6,0.0,-5.0,0,0,,10.0,29.911417,1013.6,,,TRUE,,,,,,,CLR,,,,,,,,VFR,-0.2,,,,,,,,,,,METAR,228.0
KMIV 180254Z AUTO 23004KT 10SM OVC080 06/M01 A2977 RMK AO2 SLP081 T00561011 58001,KMIV,2021-01-18T02:54:00Z,39.37,-75.08,5.6,-1.1,230,4,,10.0,29.769686,1008.1,,TRUE,TRUE,,,,,,,OVC,8000,,,,,,,VFR,-0.1,,,,,,,,,,,METAR,18.0
KMGJ 180254Z AUTO 23009KT 10SM OVC065 03/M03 A2966 RMK AO2 SLP045 T00281028 51004,KMGJ,2021-01-18T02:54:00Z,41.52,-74.27,2.8,-2.8,230,9,,10.0,29.660433,1004.5,,TRUE,TRUE,,,,,,,OVC,6500,,,,,,,VFR,0.4,,,,,,,,,,,METAR,106.0
KMFI 180254Z AUTO 00000KT 10SM SCT013 BKN020 OVC029 M03/M06 A2972 RMK AO2 SLP081 I1000 I3000 T10331061 51002,KMFI,2021-01-18T02:54:00Z,44.63,-90.18,-3.3,-6.1,0,0,,10.0,29.719488,1008.1,,TRUE,TRUE,,,,,,,SCT,1300,BKN,2000,OVC,2900,,,MVFR,0.2,,,,,,,,,,,METAR,383.0
KMEM 180254Z 27004KT 10SM FEW065 06/M04 A2996 RMK AO2 SLP148 T00611039 53010 $,KMEM,2021-01-18T02:54:00Z,35.07,-89.98,6.1,-3.9,270,4,,10.0,29.958662,1014.8,,,TRUE,TRUE,,,,,,FEW,6500,,,,,,,VFR,1.0,,,,,,,,,,,METAR,78.0
KLYH 180254Z 22003KT 10SM OVC080 04/M03 A2981 RMK AO2 SLP097 T00391028 55003,KLYH,2021-01-18T02:54:00Z,37.32,-79.2,3.9,-2.8,220,3,,10.0,29.811024,1009.7,,,TRUE,,,,,,,OVC,8000,,,,,,,VFR,-0.3,,,,,,,,,,,METAR,282.0
KLWM 180254Z 26011G20KT 10SM BKN047 04/M03 A2958 RMK AO2 PK WND 24027/0242 SLPNO T00441033 51020,KLWM,2021-01-18T02:54:00Z,42.72,-71.13,4.4,-3.3,260,11,20,10.0,29.58071,,,,TRUE,,,,,,,BKN,4700,,,,,,,VFR,2.0,,,,,,,,,,,METAR,42.0
KLNK 180254Z 00000KT 10SM CLR M02/M07 A2989 RMK AO2 SLP133 T10221067 58006,KLNK,2021-01-18T02:54:00Z,40.85,-96.77,-2.2,-6.7,0,0,,10.0,29.890747,1013.3,,,TRUE,,,,,,,CLR,,,,,,,,VFR,-0.6,,,,,,,,,,,METAR,357.0
KLEX 180254Z 25007KT 10SM SCT055 BKN070 OVC090 M01/M03 A2983 RMK AO2 SLP108 60000 T10061033 51006,KLEX,2021-01-18T02:54:00Z,38.03,-84.6,-0.6,-3.3,250,7,,10.0,29.828741,1010.8,,,TRUE,,,,,,,SCT,5500,BKN,7000,OVC,9000,,,VFR,0.6,,,,,,0.005,,,,,METAR,294.0
KJAN 180254Z 00000KT 10SM CLR 07/M04 A3005 RMK AO2 SLP176 T00671039 51015,KJAN,2021-01-18T02:54:00Z,32.32,-90.08,6.7,-3.9,0,0,,10.0,30.050198,1017.6,,,TRUE,,,,,,,CLR,,,,,,,,VFR,1.5,,,,,,,,,,,METAR,92.0
KIZG 180254Z AUTO VRB03KT 10SM OVC040 01/M06 A2948 RMK AO2 SLP987 T00111056 53021,KIZG,2021-01-18T02:54:00Z,43.98,-70.95,1.1,-5.6,0,3,,10.0,29.480314,998.7,,TRUE,TRUE,,,,,,,OVC,4000,,,,,,,VFR,2.1,,,,,,,,,,,METAR,138.0
KISW 180254Z AUTO 00000KT 10SM OVC024 M03/M07 A2974 RMK AO2 SLP085 T10281067 50001,KISW,2021-01-18T02:54:00Z,44.37,-89.83,-2.8,-6.7,0,0,,10.0,29.740158,1008.5,,TRUE,TRUE,,,,,,,OVC,2400,,,,,,,MVFR,0.1,,,,,,,,,,,METAR,311.0
KIPT 180254Z 29006KT 10SM BKN045 OVC055 02/M01 A2970 RMK AO2 SLP060 T00221011 50002,KIPT,2021-01-18T02:54:00Z,41.25,-76.92,2.2,-1.1,290,6,,10.0,29.698818,1006.0,,,TRUE,,,,,,,BKN,4500,OVC,5500,,,,,VFR,0.2,,,,,,,,,,,METAR,160.0
KINT 180254Z AUTO 18005KT 10SM FEW065 OVC085 04/M03 A2985 RMK AO2 SLP110 T00441033 58002 $,KINT,2021-01-18T02:54:00Z,36.13,-80.22,4.4,-3.3,180,5,,10.0,29.84941,1011.0,,TRUE,TRUE,TRUE,,,,,,FEW,6500,OVC,8500,,,,,VFR,-0.2,,,,,,,,,,,METAR,292.0
KINL 180254Z AUTO 28004KT 3SM -SN BR OVC028 M08/M11 A2975 RMK AO2 SLP101 P0001 60001 T10831106 50001,KINL,2021-01-18T02:54:00Z,48.57,-93.4,-8.3,-10.6,280,4,,3.0,29.749016,1010.1,,TRUE,TRUE,,,,,,-SN BR,OVC,2800,,,,,,,MVFR,0.1,,,,,0.01,0.01,,,,,METAR,353.0
KIND 180254Z 24011KT 9SM -SN OVC015 M02/M04 A2978 RMK AO2 SLP093 P0000 60000 T10171039 50001 $,KIND,2021-01-18T02:54:00Z,39.72,-86.27,-1.7,-3.9,240,11,,9.0,29.778543,1009.3,,,TRUE,TRUE,,,,,-SN,OVC,1500,,,,,,,MVFR,0.1,,,,,0.005,0.005,,,,,METAR,242.0
KHWD 180254Z 07004KT 10SM CLR 16/06 A2999 RMK AO2 SLP166 T01560056 58009,KHWD,2021-01-18T02:54:00Z,37.67,-122.12,15.6,5.6,70,4,,10.0,29.991142,1016.6,,,TRUE,,,,,,,CLR,,,,,,,,VFR,-0.9,,,,,,,,,,,METAR,9.0
KGSO 180254Z 20005KT 10SM SCT055 BKN080 02/M03 A2984 RMK AO2 SLP108 T00221033 53000 $,KGSO,2021-01-18T02:54:00Z,36.1,-79.95,2.2,-3.3,200,5,,10.0,29.840551,1010.8,,,TRUE,TRUE,,,,,,SCT,5500,BKN,8000,,,,,VFR,0.0,,,,,,,,,,,METAR,275.0
KGED 180254Z AUTO 20004KT 10SM SCT080 03/M02 A2980 RMK AO2 SLP090 T00331017 58001,KGED,2021-01-18T02:54:00Z,38.68,-75.37,3.3,-1.7,200,4,,10.0,29.799213,1009.0,,TRUE,TRUE,,,,,,,SCT,8000,,,,,,,VFR,-0.1,,,,,,,,,,,METAR,15.0
KGCN 180254Z AUTO 00000KT 10SM CLR M03/M22 A3014 RMK AO2 SLP250 T10331217 58004 TSNO,KGCN,2021-01-18T02:54:00Z,35.95,-112.15,-3.3,-21.7,0,0,,10.0,30.138779,1025.0,,TRUE,TRUE,,,TRUE,,,,CLR,,,,,,,,VFR,-0.4,,,,,,,,,,,METAR,1993.0
KGCK 180254Z 22006KT 10SM CLR M01/M10 A2991 RMK AO2 SLP145 T10061100 58015,KGCK,2021-01-18T02:54:00Z,37.92,-100.72,-0.6,-10.0,220,6,,10.0,29.911417,1014.5,,,TRUE,,,,,,,CLR,,,,,,,,VFR,-1.5,,,,,,,,,,,METAR,877.0
KFWA 180254Z 25009KT 10SM -SN OVC020 M01/M04 A2973 RMK AO2 SLP076 P0000 60000 T10111039 50000 $,KFWA,2021-01-18T02:54:00Z,40.98,-85.2,-1.1,-3.9,250,9,,10.0,29.731298,1007.6,,,TRUE,TRUE,,,,,-SN,OVC,2000,,,,,,,MVFR,0.0,,,,,0.005,0.005,,,,,METAR,243.0
KFFZ 180254Z 05003KT 10SM CLR 14/M08 A2994 RMK AO2 SLP127 T01441078 56003,KFFZ,2021-01-18T02:54:00Z,33.47,-111.72,14.4,-7.8,50,3,,10.0,29.940945,1012.7,,,TRUE,,,,,,,CLR,,,,,,,,VFR,-0.3,,,,,,,,,,,METAR,420.0
KEWN 180254Z AUTO 24004KT 10SM CLR 04/M01 A2993 RMK AO2 SLP136 T00441011 53008,KEWN,2021-01-18T02:54:00Z,35.07,-77.05,4.4,-1.1,240,4,,10.0,29.929134,1013.6,,TRUE,TRUE,,,,,,,CLR,,,,,,,,VFR,0.8,,,,,,,,,,,METAR,3.0
KEVV 180254Z 25008KT 2 1/2SM -SN BR FEW007 BKN014 OVC036 01/M02 A2988 RMK AO2 SLP122 P0001 60001 T00061017 51005,KEVV,2021-01-18T02:54:00Z,38.05,-87.52,0.6,-1.7,250,8,,2.5,29.878937,1012.2,,,TRUE,,,,,,-SN BR,FEW,700,BKN,1400,OVC,3600,,,IFR,0.5,,,,,0.01,0.01,,,,,METAR,123.0
KEUG 180254Z 36013KT 10SM FEW020 SCT220 BKN300 08/06 A3046 RMK AO2 SLP317 T00830061 50006,KEUG,2021-01-18T02:54:00Z,44.13,-123.22,8.3,6.1,360,13,,10.0,30.46063,1031.7,,,TRUE,,,,,,,FEW,2000,SCT,22000,BKN,30000,,,VFR,0.6,,,,,,,,,,,METAR,109.0
KECG 180254Z 20005KT 10SM CLR 05/02 A2988 RMK AO2 SLP118 T00500017 53002,KECG,2021-01-18T02:54:00Z,36.27,-76.18,5.0,1.7,200,5,,10.0,29.878937,1011.8,,,TRUE,,,,,,,CLR,,,,,,,,VFR,0.2,,,,,,,,,,,METAR,2.0
KDYL 180254Z AUTO 20003KT 10SM SCT060 OVC070 04/M02 A2973 RMK AO2 SLP071 T00391022 50001,KDYL,2021-01-18T02:54:00Z,40.33,-75.12,3.9,-2.2,200,3,,10.0,29.731298,1007.1,,TRUE,TRUE,,,,,,,SCT,6000,OVC,7000,,,,,VFR,0.1,,,,,,,,,,,METAR,121.0
KDEC 180254Z 28010KT 10SM BKN016 OVC021 M02/M03 A2984 RMK A02 SNE34 SLP112,KDEC,2021-01-18T02:54:00Z,39.83,-88.87,-2.0,-3.0,280,10,,10.0,29.840551,1011.2,,,TRUE,,,,,,,BKN,1600,OVC,2100,,,,,MVFR,,,,,,,,,,,,METAR,205.0
KDDH 180254Z AUTO 22005KT 10SM OVC026 01/M02 A2959 RMK AO2 SLP026 T00111022 51005,KDDH,2021-01-18T02:54:00Z,42.9,-73.25,1.1,-2.2,220,5,,10.0,29.589567,1002.6,,TRUE,TRUE,,,,,,,OVC,2600,,,,,,,MVFR,0.5,,,,,,,,,,,METAR,241.0
KCRW 180254Z 23004KT 6SM BR FEW019 BKN026 BKN080 01/00 A2979 RMK AO2 SNE49 SLP093 P0000 60000 T00110000 58003 $,KCRW,2021-01-18T02:54:00Z,38.38,-81.58,1.1,0.0,230,4,,6.0,29.790354,1009.3,,,TRUE,TRUE,,,,,BR,FEW,1900,BKN,2600,BKN,8000,,,MVFR,-0.3,,,,,0.005,0.005,,,,,METAR,278.0
KCOS 180254Z 07003KT 10SM FEW120 SCT170 BKN240 01/M09 A2986 RMK AO2 SLP143 T00061094 58021,KCOS,2021-01-18T02:54:00Z,38.82,-104.68,0.6,-9.4,70,3,,10.0,29.861221,1014.3,,,TRUE,,,,,,,FEW,12000,SCT,17000,BKN,24000,,,VFR,-2.1,,,,,,,,,,,METAR,1886.0
KCEU 180254Z AUTO VRB04KT 10SM FEW070 BKN090 05/M03 A2988 RMK AO2 RAB43E53 SLP122 P0000 60000 T00501028 55001,KCEU,2021-01-18T02:54:00Z,34.67,-82.88,5.0,-2.8,0,4,,10.0,29.878937,1012.2,,TRUE,TRUE,,,,,,,FEW,7000,BKN,9000,,,,,VFR,-0.1,,,,,0.005,0.005,,,,,METAR,270.0
KCAR 180254Z AUTO 25012KT 10SM FEW024 SCT070 BKN090 M01/M04 A2918 RMK AO2 SLP891 T10111044 51023,KCAR,2021-01-18T02:54:00Z,46.87,-68.02,-1.1,-4.4,250,12,,10.0,29.179134,989.1,,TRUE,TRUE,,,,,,,FEW,2400,SCT,7000,BKN,9000,,,VFR,2.3,,,,,,,,,,,METAR,189.0
KBWI 180254Z 22003KT 10SM BKN085 BKN120 06/M02 A2976 RMK AO2 SLP077 T00561022 58002,KBWI,2021-01-18T02:54:00Z,39.17,-76.68,5.6,-2.2,220,3,,10.0,29.760826,1007.7,,,TRUE,,,,,,,BKN,8500,BKN,12000,,,,,VFR,-0.2,,,,,,,,,,,METAR,42.0
KBUY 180254Z AUTO 19004KT 10SM SCT065 OVC080 03/M03 A2986 RMK AO2 SLP112 T00331033 51002,KBUY,2021-01-18T02:54:00Z,36.05,-79.47,3.3,-3.3,190,4,,10.0,29.861221,1011.2,,TRUE,TRUE,,,,,,,SCT,6500,OVC,8000,,,,,VFR,0.2,,,,,,,,,,,METAR,185.0
KBTV 180254Z 29008KT 10SM OVC026 01/M05 A2954 RMK AO2 SLP007 T00061050 51011,KBTV,2021-01-18T02:54:00Z,44.47,-73.15,0.6,-5.0,290,8,,10.0,29.53937,1000.7,,,TRUE,,,,,,,OVC,2600,,,,,,,MVFR,1.1,,,,,,,,,,,METAR,101.0
KBOS 180254Z 24013KT 10SM OVC044 04/M03 A2961 RMK AO2 SLP025 T00441033 53019,KBOS,2021-01-18T02:54:00Z,42.37,-71.02,4.4,-3.3,240,13,,10.0,29.610237,1002.5,,,TRUE,,,,,,,OVC,4400,,,,,,,VFR,1.9,,,,,,,,,,,METAR,4.0
KBKB 180254Z AUTO 00000KT 10SM CLR 06/M03 A3009 RMK AO2 SLP219 6//// T00561033 52016 PNO,KBKB,2021-01-18T02:54:00Z,31.02,-92.92,5.6,-3.3,0,0,,10.0,30.088583,1021.9,,TRUE,TRUE,,,,,,,CLR,,,,,,,,VFR,1.6,,,,,,,,,,,METAR,74.0
KBFL 180254Z 00000KT 7SM CLR 13/04 A3002 RMK AO2 SLP165 T01330039 58000,KBFL,2021-01-18T02:54:00Z,35.43,-119.05,13.3,3.9,0,0,,7.0,30.02067,1016.5,,,TRUE,,,,,,,CLR,,,,,,,,VFR,0.0,,,,,,,,,,,METAR,146.0
KAVP 180254Z AUTO 22009KT 10SM OVC070 03/M03 A2966 RMK AO2 SLP050 T00281033 52001,KAVP,2021-01-18T02:54:00Z,41.33,-75.72,2.8,-3.3,220,9,,10.0,29.660433,1005.0,,TRUE,TRUE,,,,,,,OVC,7000,,,,,,,VFR,0.1,,,,,,,,,,,METAR,290.0
KAVL 180254Z 00000KT 10SM FEW055 SCT070 02/M04 A2984 RMK AO2 SLP109 T00171039 51004,KAVL,2021-01-18T02:54:00Z,35.43,-82.53,1.7,-3.9,0,0,,10.0,29.840551,1010.9,,,TRUE,,,,,,,FEW,5500,SCT,7000,,,,,VFR,0.4,,,,,,,,,,,METAR,646.0
KAPC 180254Z 06004KT 10SM CLR 12/06 A3001 RMK AO2 SLP153 T01220061 55004,KAPC,2021-01-18T02:54:00Z,38.2,-122.28,12.2,6.1,60,4,,10.0,30.008858,1015.3,,,TRUE,,,,,,,CLR,,,,,,,,VFR,-0.4,,,,,,,,,,,METAR,5.0
KALO 180254Z AUTO 00000KT 9SM OVC010 M03/M06 A2980 RMK AO2 SLP104 T10331061 55001,KALO,2021-01-18T02:54:00Z,42.55,-92.4,-3.3,-6.1,0,0,,9.0,29.799213,1010.4,,TRUE,TRUE,,,,,,,OVC,1000,,,,,,,MVFR,-0.1,,,,,,,,,,,METAR,264.0
KAKR 180254Z AUTO 24006KT 9SM FEW008 OVC019 01/M02 A2968 RMK AO2 SNE44 SLP058 P0000 60000 T00111017 58002,KAKR,2021-01-18T02:54:00Z,41.03,-81.47,1.1,-1.7,240,6,,9.0,29.681103,1005.8,,TRUE,TRUE,,,,,,,FEW,800,OVC,1900,,,,,MVFR,-0.2,,,,,0.005,0.005,,,,,METAR,319.0
KAKQ 180254Z AUTO 00000KT 10SM OVC060 04/01 A2986 RMK AO2 SLP113 T00390011 53003 $,KAKQ,2021-01-18T02:54:00Z,36.98,-77.0,3.9,1.1,0,0,,10.0,29.861221,1011.3,,TRUE,TRUE,TRUE,,,,,,OVC,6000,,,,,,,VFR,0.3,,,,,,,,,,,METAR,34.0
KAKH 180254Z AUTO 22004KT 10SM FEW090 06/M03 A2987 RMK AO2 SLP120 T00561033 51004,KAKH,2021-01-18T02:54:00Z,35.2,-81.15,5.6,-3.3,220,4,,10.0,29.870079,1012.0,,TRUE,TRUE,,,,,,,FEW,9000,,,,,,,VFR,0.4,,,,,,,,,,,METAR,242.0
KACY 180254Z 21005KT 10SM OVC080 05/M01 A2977 RMK AO2 SLP082 T00501011 58001,KACY,2021-01-18T02:54:00Z,39.45,-74.57,5.0,-1.1,210,5,,10.0,29.769686,1008.2,,,TRUE,,,,,,,OVC,8000,,,,,,,VFR,-0.1,,,,,,,,,,,METAR,18.0
KAAO 180254Z AUTO 23007KT 10SM CLR 02/M08 A2995 RMK AO2 SLP151 T00221078 56007,KAAO,2021-01-18T02:54:00Z,37.75,-97.22,2.2,-7.8,230,7,,10.0,29.949802,1015.1,,TRUE,TRUE,,,,,,,CLR,,,,,,,,VFR,-0.7,,,,,,,,,,,METAR,429.0
K1V4 180254Z AUTO M01/M05 A2948 RMK AO1 SLP992 T10061050 53012,K1V4,2021-01-18T02:54:00Z,44.42,-72.02,-0.6,-5.0,,,,,29.480314,999.2,,TRUE,TRUE,,,,,,,,,,,,,,,,1.2,,,,,,,,,,,METAR,213.0
K12N 180254Z AUTO 20005KT 03/M03 A2970 RMK AO1 SLP065 T00331033 51004,K12N,2021-01-18T02:54:00Z,41.02,-74.73,3.3,-3.3,200,5,,,29.698818,1006.5,,TRUE,TRUE,,,,,,,,,,,,,,,,0.4,,,,,,,,,,,METAR,178.0
TJNR 180253Z AUTO 32003KT 10SM BKN049 OVC055 23/22 A3004 RMK AO2 RAB12E24 SLP173 P0001 60001 T02330217 50006,TJNR,2021-01-18T02:53:00Z,18.25,-65.63,23.3,21.7,320,3,,10.0,30.041338,1017.3,,TRUE,TRUE,,,,,,,BKN,4900,OVC,5500,,,,,VFR,0.6,,,,,0.01,0.01,,,,,METAR,7.0
TISX 180253Z AUTO 06005KT 10SM FEW050 24/22 A3002 RMK AO2 SLP166 T02440217 50005,TISX,2021-01-18T02:53:00Z,17.7,-64.8,24.4,21.7,60,5,,10.0,30.02067,1016.6,,TRUE,TRUE,,,,,,,FEW,5000,,,,,,,VFR,0.5,,,,,,,,,,,METAR,16.0
TIST 180253Z AUTO 08007KT 10SM CLR 25/21 A3002 RMK AO2 SLP165 60000 T02500211 51004,TIST,2021-01-18T02:53:00Z,18.33,-64.98,25.0,21.1,80,7,,10.0,30.02067,1016.5,,TRUE,TRUE,,,,,,,CLR,,,,,,,,VFR,0.4,,,,,,0.005,,,,,METAR,5.0
PHTO 180253Z 09005KT 10SM FEW020 SCT030 BKN055 25/20 A2997 RMK AO2 SLP147 T02500200 51006,PHTO,2021-01-18T02:53:00Z,19.72,-155.05,25.0,20.0,90,5,,10.0,29.970472,1014.7,,,TRUE,,,,,,,FEW,2000,SCT,3000,BKN,5500,,,VFR,0.6,,,,,,,,,,,METAR,9.0
PHNL 180253Z 22007KT 10SM FEW025 FEW050 FEW100 26/19 A2995 RMK AO2 SLP140 T02610194 53003 $,PHNL,2021-01-18T02:53:00Z,21.33,-157.93,26.1,19.4,220,7,,10.0,29.949802,1014.0,,,TRUE,TRUE,,,,,,FEW,2500,FEW,5000,FEW,10000,,,VFR,0.3,,,,,,,,,,,METAR,2.0
PHLI 180253Z 31017G21KT 10SM BKN032 BKN039 OVC080 23/19 A2996 RMK AO2 SLP143 T02330194 53017,PHLI,2021-01-18T02:53:00Z,21.97,-159.33,23.3,19.4,310,17,21,10.0,29.958662,1014.3,,,TRUE,,,,,,,BKN,3200,BKN,3900,OVC,8000,,,VFR,1.7,,,,,,,,,,,METAR,32.0
PHKO 180253Z 17012KT 10SM SCT040 BKN070 27/20 A2996 RMK AO2 SLP143 T02670200 53006,PHKO,2021-01-18T02:53:00Z,19.73,-156.05,26.7,20.0,170,12,,10.0,29.958662,1014.3,,,TRUE,,,,,,,SCT,4000,BKN,7000,,,,,VFR,0.6,,,,,,,,,,,METAR,11.0
PHJR 180253Z 21007KT 10SM CLR 26/20 A2996 RMK AO2 SLP150 T02610200 53002,PHJR,2021-01-18T02:53:00Z,21.32,-158.07,26.1,20.0,210,7,,10.0,29.958662,1015.0,,,TRUE,,,,,,,CLR,,,,,,,,VFR,0.2,,,,,,,,,,,METAR,9.0
PATK 180253Z AUTO 04003KT 10SM -RA FEW019 OVC025 01/M03 A2972 RMK AO2 RAB12SNE20 SLP068 P0003 60003 I1000 I3000 T00111028 53034 TSNO,PATK,2021-01-18T02:53:00Z,62.32,-150.1,1.1,-2.8,40,3,,10.0,29.719488,1006.8,,TRUE,TRUE,,,TRUE,,,-RA,FEW,1900,OVC,2500,,,,,MVFR,3.4,,,,,0.03,0.03,,,,,METAR,107.0
PASC 180253Z 00000KT 10SM OVC011 M23/M26 A2987 RMK AO2 SLP118 T12281261 51004 $,PASC,2021-01-18T02:53:00Z,70.2,-148.47,-22.8,-26.1,0,0,,10.0,29.870079,1011.8,,,TRUE,TRUE,,,,,,OVC,1100,,,,,,,MVFR,0.4,,,,,,,,,,,METAR,17.0
PAPB 180253Z AUTO 01010KT 10SM FEW033 M04/M08 A2981 RMK AO2 SNB08E32 SLP084 P0000 60000 T10391078 55003 TSNO,PAPB,2021-01-18T02:53:00Z,56.58,-169.67,-3.9,-7.8,10,10,,10.0,29.811024,1008.4,,TRUE,TRUE,,,TRUE,,,,FEW,3300,,,,,,,VFR,-0.3,,,,,0.005,0.005,,,,,METAR,33.0
PAOR 180253Z 00000KT 10SM FEW120 FEW150 SCT200 M20/M23 A2980 RMK AO2 SLP160 T12001228 53025,PAOR,2021-01-18T02:53:00Z,62.97,-141.93,-20.0,-22.8,0,0,,10.0,29.799213,1016.0,,,TRUE,,,,,,,FEW,12000,FEW,15000,SCT,20000,,,VFR,2.5,,,,,,,,,,,METAR,524.0
PAOM 180253Z 36005KT 10SM OVC070 M12/M15 A2961 RMK AO2 SLP027 T11221150 53006 $,PAOM,2021-01-18T02:53:00Z,64.5,-165.43,-12.2,-15.0,360,5,,10.0,29.610237,1002.7,,,TRUE,TRUE,,,,,,OVC,7000,,,,,,,VFR,0.6,,,,,,,,,,,METAR,6.0
PANN 180253Z AUTO 00000KT 10SM CLR M17/M20 A2962 RMK AO2 SLP046 T11721200 51011 TSNO,PANN,2021-01-18T02:53:00Z,64.55,-149.08,-17.2,-20.0,0,0,,10.0,29.619095,1004.6,,TRUE,TRUE,,,TRUE,,,,CLR,,,,,,,,VFR,1.1,,,,,,,,,,,METAR,110.0
PANC 180253Z 17005G18KT 10SM FEW015 SCT070 BKN220 03/M01 A2972 RMK AO2 RAE06 SLP066 P0000 60000 T00331006 53038,PANC,2021-01-18T02:53:00Z,61.17,-150.02,3.3,-0.6,170,5,18,10.0,29.719488,1006.6,,,TRUE,,,,,,,FEW,1500,SCT,7000,BKN,22000,,,VFR,3.8,,,,,0.005,0.005,,,,,METAR,39.0
PAMR 180253Z 06005KT 10SM FEW120 01/M03 A2972 RMK AO2 SLP066 T00061033 53038 $,PAMR,2021-01-18T02:53:00Z,61.22,-149.85,0.6,-3.3,60,5,,10.0,29.719488,1006.6,,,TRUE,TRUE,,,,,,FEW,12000,,,,,,,VFR,3.8,,,,,,,,,,,SPECI,43.0
PAMC 180253Z AUTO 00000KT 10SM OVC023 M11/M12 A2957 RMK AO2 SLP025 60000 T11061117 51009 TSNO $,PAMC,2021-01-18T02:53:00Z,62.97,-155.62,-10.6,-11.7,0,0,,10.0,29.568897,1002.5,,TRUE,TRUE,TRUE,,TRUE,,,,OVC,2300,,,,,,,MVFR,0.9,,,,,,0.005,,,,,METAR,101.0
PALH 180253Z 00000KT 10SM CLR 01/M02 A2973 RMK AO2 SLP068 T00061022 53038,PALH,2021-01-18T02:53:00Z,61.18,-149.97,0.6,-2.2,0,0,,10.0,29.731298,1006.8,,,TRUE,,,,,,,CLR,,,,,,,,VFR,3.8,,,,,,,,,,,SPECI,26.0
PAKT 180253Z 14007KT 5SM -RA BR OVC006 06/06 A3045 RMK AO2 RAB06 SLP310 HARBOR WIND 10010KT P0006 60006 T00610061 51018,PAKT,2021-01-18T02:53:00Z,55.35,-131.72,6.1,6.1,140,7,,5.0,30.448818,1031.0,,,TRUE,,,,,,-RA BR,OVC,600,,,,,,,IFR,1.8,1.0,,,,0.06,,,,,,SPECI,27.0
PAJN 180253Z 05003KT 9SM -RA FEW009 BKN032 OVC042 05/03 A3034 RMK AO2 RAB01 SLP273 P0000 60000 T00500028 51041,PAJN,2021-01-18T02:53:00Z,58.35,-134.55,5.0,2.8,50,3,,9.0,30.339567,1027.3,,,TRUE,,,,,,-RA,FEW,900,BKN,3200,OVC,4200,,,VFR,4.1,,,,,0.005,0.005,,,,,METAR,6.0
PAIL 180253Z 09013KT 10SM SCT029 OVC065 03/00 A2954 RMK AO2 SLP007 T00280000 53021,PAIL,2021-01-18T02:53:00Z,59.75,-154.92,2.8,0.0,90,13,,10.0,29.53937,1000.7,,,TRUE,,,,,,,SCT,2900,OVC,6500,,,,,VFR,2.1,,,,,,,,,,,SPECI,44.0
PAHO 180253Z 13009G16KT 10SM BKN036 BKN050 04/M01 A2971 RMK AO2 SLP061 60000 T00391006 51026,PAHO,2021-01-18T02:53:00Z,59.63,-151.48,3.9,-0.6,130,9,16,10.0,29.71063,1006.1,,,TRUE,,,,,,,BKN,3600,BKN,5000,,,,,VFR,2.6,,,,,,0.005,,,,,METAR,6.0
PAFA 180253Z 00000KT 10SM FEW060 FEW110 SCT200 M18/M21 A2963 RMK AO2 SLP048 T11831211 51012,PAFA,2021-01-18T02:53:00Z,64.8,-147.87,-18.3,-21.1,0,0,,10.0,29.630905,1004.8,,,TRUE,,,,,,,FEW,6000,FEW,11000,SCT,20000,,,VFR,1.2,,,,,,,,,,,METAR,130.0
PAEN 180253Z 06003KT 10SM BKN075 OVC090 M01/M02 A2972 RMK AO2 SLP065 T10061017 51033 $,PAEN,2021-01-18T02:53:00Z,60.57,-151.25,-0.6,-1.7,60,3,,10.0,29.719488,1006.5,,,TRUE,TRUE,,,,,,BKN,7500,OVC,9000,,,,,VFR,3.3,,,,,,,,,,,METAR,30.0
PAEG 180253Z AUTO 21003KT 10SM CLR M11/M13 A2977 RMK AO2 SLP101 T11061128 53023 TSNO,PAEG,2021-01-18T02:53:00Z,64.78,-141.15,-10.6,-12.8,210,3,,10.0,29.769686,1010.1,,TRUE,TRUE,,,TRUE,,,,CLR,,,,,,,,VFR,2.3,,,,,,,,,,,SPECI,273.0
PADQ 180253Z 15011KT 10SM FEW027 BKN035 BKN042 03/M02 A2964 RMK AO2 SLP037 60000 T00281017 53019 $,PADQ,2021-01-18T02:53:00Z,57.75,-152.5,2.8,-1.7,150,11,,10.0,29.639763,1003.7,,,TRUE,TRUE,,,,,,FEW,2700,BKN,3500,BKN,4200,,,VFR,1.9,,,,,,0.005,,,,,METAR,5.0
PACD 180253Z AUTO 33023KT 4SM BLSN BKN021 OVC029 M04/M07 A2964 RMK AO2 PK WND 31029/0242 UPB02E37SNE02 SLP039 P0000 60001 T10391072 53002 TSNO $,PACD,2021-01-18T02:53:00Z,55.22,-162.72,-3.9,-7.2,330,23,,4.0,29.639763,1003.9,,TRUE,TRUE,TRUE,,TRUE,,,BLSN,BKN,2100,OVC,2900,,,,,MVFR,0.2,,,,,0.005,0.01,,,,,METAR,23.0
PABT 180253Z 00000KT 8SM -SN OVC045 M11/M14 A2967 RMK AO2 SLP067 60000 T11061144 53012 PNO,PABT,2021-01-18T02:53:00Z,66.92,-151.52,-10.6,-14.4,0,0,,8.0,29.66929,1006.7,,,TRUE,,,,,,-SN,OVC,4500,,,,,,,VFR,1.2,,,,,,0.005,,,,,METAR,195.0
PABR 180253Z 07013KT 10SM CLR M20/M23 A2993 RMK AO2 SLP137 T12001233 56002,PABR,2021-01-18T02:53:00Z,71.28,-156.78,-20.0,-23.3,70,13,,10.0,29.929134,1013.7,,,TRUE,,,,,,,CLR,,,,,,,,VFR,-0.2,,,,,,,,,,,METAR,6.0
PABI 180253Z 11018KT 10SM FEW060 SCT130 BKN200 M06/M11 A2964 RMK AO2 PK WND 10026/0207 SLP066 SHSN DSNT S-SW T10561106 53013 $,PABI,2021-01-18T02:53:00Z,64.0,-145.72,-5.6,-10.6,110,18,,10.0,29.639763,1006.6,,,TRUE,TRUE,,,,,,FEW,6000,SCT,13000,BKN,20000,,,VFR,1.3,,,,,,,,,,,METAR,388.0
PAAQ 180253Z 34008KT 10SM BKN070 OVC085 02/M05 A2971 RMK AO2 SLP066 T00221050 53034,PAAQ,2021-01-18T02:53:00Z,61.6,-149.08,2.2,-5.0,340,8,,10.0,29.71063,1006.6,,,TRUE,,,,,,,BKN,7000,OVC,8500,,,,,VFR,3.4,,,,,,,,,,,METAR,68.0
KZZV 180253Z AUTO 22005KT 10SM BKN011 OVC070 01/00 A2974 RMK AO2 SNE08 SLP076 P0000 60001 T00060000 53001,KZZV,2021-01-18T02:53:00Z,39.95,-81.9,0.6,0.0,220,5,,10.0,29.740158,1007.6,,TRUE,TRUE,,,,,,,BKN,1100,OVC,7000,,,,,MVFR,0.1,,,,,0.005,0.01,,,,,METAR,268.0
KYKM 180253Z 29003KT 9SM CLR 03/00 A3039 RMK AO2 SLP302 T00330000 53008,KYKM,2021-01-18T02:53:00Z,46.57,-120.53,3.3,0.0,290,3,,9.0,30.389763,1030.2,,,TRUE,,,,,,,CLR,,,,,,,,VFR,0.8,,,,,,,,,,,METAR,319.0
KYIP 180253Z 23005KT 5SM HZ SCT009 BKN027 OVC055 01/M02 A2968 RMK AO2 SNE21 SLP055 P0000 60000 T00111017 55002,KYIP,2021-01-18T02:53:00Z,42.23,-83.53,1.1,-1.7,230,5,,5.0,29.681103,1005.5,,,TRUE,,,,,,HZ,SCT,900,BKN,2700,OVC,5500,,,MVFR,-0.2,,,,,0.005,0.005,,,,,METAR,215.0
KXNA 180253Z 25005KT 10SM CLR 01/M06 A2998 RMK AO2 SLP160 T00061061 51006,KXNA,2021-01-18T02:53:00Z,36.28,-94.3,0.6,-6.1,250,5,,10.0,29.97933,1016.0,,,TRUE,,,,,,,CLR,,,,,,,,VFR,0.6,,,,,,,,,,,METAR,390.0
KWVI 180253Z AUTO 33003KT 10SM CLR 16/08 A3000 RMK AO2 SLP159 T01560083 55000,KWVI,2021-01-18T02:53:00Z,36.93,-121.78,15.6,8.3,330,3,,10.0,30.0,1015.9,,TRUE,TRUE,,,,,,,CLR,,,,,,,,VFR,0.0,,,,,,,,,,,METAR,47.0
KWST 180253Z AUTO 25012G18KT 10SM OVC055 04/M02 A2967 RMK AO2 SLP049 T00441017 51009,KWST,2021-01-18T02:53:00Z,41.35,-71.8,4.4,-1.7,250,12,18,10.0,29.66929,1004.9,,TRUE,TRUE,,,,,,,OVC,5500,,,,,,,VFR,0.9,,,,,,,,,,,METAR,20.0
KWRL 180253Z AUTO 00000KT 10SM BKN047 BKN060 OVC090 01/M07 A2991 RMK AO2 SLP168 T00061067 53020,KWRL,2021-01-18T02:53:00Z,43.97,-107.95,0.6,-6.7,0,0,,10.0,29.911417,1016.8,,TRUE,TRUE,,,,,,,BKN,4700,BKN,6000,OVC,9000,,,VFR,2.0,,,,,,,,,,,METAR,1281.0
KVUO 180253Z AUTO 00000KT 9SM OVC043 08/06 A3049 RMK AO2 SLP324 T00780056 50001,KVUO,2021-01-18T02:53:00Z,45.62,-122.65,7.8,5.6,0,0,,9.0,30.490158,1032.4,,TRUE,TRUE,,,,,,,OVC,4300,,,,,,,VFR,0.1,,,,,,,,,,,METAR,7.0
KVRB 180253Z AUTO 22003KT 9SM CLR 13/09 A3008 RMK AO2 SLP183 T01330094 53001,KVRB,2021-01-18T02:53:00Z,27.65,-80.42,13.3,9.4,220,3,,9.0,30.079725,1018.3,,TRUE,TRUE,,,,,,,CLR,,,,,,,,VFR,0.1,,,,,,,,,,,METAR,7.0
KVPC 180253Z AUTO VRB04G14KT 10SM FEW021 BKN080 OVC100 07/00 A2993 RMK AO2 RAB36E48 SLP131 P0000 60000 T00720000 53008,KVPC,2021-01-18T02:53:00Z,34.1,-84.85,7.2,0.0,0,4,14,10.0,29.929134,1013.1,,TRUE,TRUE,,,,,,,FEW,2100,BKN,8000,OVC,10000,,,VFR,0.8,,,,,0.005,0.005,,,,,METAR,234.0
KVLD 180253Z AUTO 21003KT 10SM CLR 07/02 A3003 RMK AO2 SLP177 T00720022 51004,KVLD,2021-01-18T02:53:00Z,30.78,-83.27,7.2,2.2,210,3,,10.0,30.029528,1017.7,,TRUE,TRUE,,,,,,,CLR,,,,,,,,VFR,0.4,,,,,,,,,,,METAR,59.0
KVIH 180253Z AUTO 26004KT 10SM OVC032 02/M02 A2988 RMK AO2 SLP128 T00171022 50001,KVIH,2021-01-18T02:53:00Z,38.13,-91.77,1.7,-2.2,260,4,,10.0,29.878937,1012.8,,TRUE,TRUE,,,,,,,OVC,3200,,,,,,,VFR,0.1,,,,,,,,,,,METAR,342.0
KVGT 180253Z 29007KT 10SM CLR 14/M06 A2999 RMK AO2 SLP169 T01441056 56009,KVGT,2021-01-18T02:53:00Z,36.22,-115.2,14.4,-5.6,290,7,,10.0,29.991142,1016.9,,,TRUE,,,,,,,CLR,,,,,,,,VFR,-0.9,,,,,,,,,,,METAR,664.0
KVEL 180253Z AUTO 00000KT 7SM CLR M07/M09 A3005 RMK AO2 SLP229 T10671089 56008,KVEL,2021-01-18T02:53:00Z,40.45,-109.52,-6.7,-8.9,0,0,,7.0,30.050198,1022.9,,TRUE,TRUE,,,,,,,CLR,,,,,,,,VFR,-0.8,,,,,,,,,,,METAR,1604.0
KVCB 180253Z AUTO 00000KT 10SM CLR 11/06 A3002 RMK AO2 SLP165 T01110061 56004 $,KVCB,2021-01-18T02:53:00Z,38.38,-121.95,11.1,6.1,0,0,,10.0,30.02067,1016.5,,TRUE,TRUE,TRUE,,,,,,CLR,,,,,,,,VFR,-0.4,,,,,,,,,,,METAR,30.0
KUUU 180253Z AUTO VRB04KT 10SM OVC055 05/M02 A2966 RMK AO2 SLP042 T00501017 51010,KUUU,2021-01-18T02:53:00Z,41.53,-71.28,5.0,-1.7,0,4,,10.0,29.660433,1004.2,,TRUE,TRUE,,,,,,,OVC,5500,,,,,,,VFR,1.0,,,,,,,,,,,METAR,45.0
KUTS 180253Z AUTO 00000KT 10SM CLR 08/M01 A3011 RMK AO2 SLP197 T00781011 51010,KUTS,2021-01-18T02:53:00Z,30.75,-95.58,7.8,-1.1,0,0,,10.0,30.109253,1019.7,,TRUE,TRUE,,,,,,,CLR,,,,,,,,VFR,1.0,,,,,,,,,,,METAR,103.0
KUNO 180253Z AUTO 28004KT 10SM OVC060 03/M03 A2991 RMK AO2 SLP136 T00331028 51006,KUNO,2021-01-18T02:53:00Z,36.88,-91.9,3.3,-2.8,280,4,,10.0,29.911417,1013.6,,TRUE,TRUE,,,,,,,OVC,6000,,,,,,,VFR,0.6,,,,,,,,,,,METAR,376.0
KUIL 180253Z AUTO 00000KT 4SM BR FEW023 BKN033 06/04 A3056 RMK AO2 SLP349 T00560044 53014,KUIL,2021-01-18T02:53:00Z,47.93,-124.55,5.6,4.4,0,0,,4.0,30.561024,1034.9,,TRUE,TRUE,,,,,,BR,FEW,2300,BKN,3300,,,,,MVFR,1.4,,,,,,,,,,,METAR,58.0
KUAO 180253Z 00000KT 6SM BR CLR 06/05 A3050 RMK AO2 SLP328 T00610050 50001,KUAO,2021-01-18T02:53:00Z,45.25,-122.77,6.1,5.0,0,0,,6.0,30.499016,1032.8,,,TRUE,,,,,,BR,CLR,,,,,,,,VFR,0.1,,,,,,,,,,,METAR,60.0
KTYS 180253Z 26007KT 10SM BKN060 BKN075 OVC100 06/M02 A2984 RMK AO2 RAB20E51 SLP109 P0000 60000 T00561017 53005,KTYS,2021-01-18T02:53:00Z,35.82,-83.98,5.6,-1.7,260,7,,10.0,29.840551,1010.9,,,TRUE,,,,,,,BKN,6000,BKN,7500,OVC,10000,,,VFR,0.5,,,,,0.005,0.005,,,,,METAR,300.0
KTYR 180253Z 00000KT 10SM CLR 07/M03 A3010 RMK AO2 SLP191 T00721033 51008,KTYR,2021-01-18T02:53:00Z,32.37,-95.4,7.2,-3.3,0,0,,10.0,30.100393,1019.1,,,TRUE,,,,,,,CLR,,,,,,,,VFR,0.8,,,,,,,,,,,METAR,161.0
KTXK 180253Z 22006KT 10SM CLR 06/M03 A3006 RMK AO2 SLP179 T00561028 51009,KTXK,2021-01-18T02:53:00Z,33.45,-93.98,5.6,-2.8,220,6,,10.0,30.059055,1017.9,,,TRUE,,,,,,,CLR,,,,,,,,VFR,0.9,,,,,,,,,,,METAR,118.0
KTWF 180253Z AUTO 25017G23KT 10SM CLR 03/M01 A3022 RMK AO2 SLP237 T00281011 50001,KTWF,2021-01-18T02:53:00Z,42.48,-114.48,2.8,-1.1,250,17,23,10.0,30.221457,1023.7,,TRUE,TRUE,,,,,,,CLR,,,,,,,,VFR,0.1,,,,,,,,,,,METAR,1269.0
KTVR 180253Z AUTO 00000KT 10SM CLR 06/M03 A3008 RMK AO2 SLP192 T00561033 51016,KTVR,2021-01-18T02:53:00Z,32.35,-91.03,5.6,-3.3,0,0,,10.0,30.079725,1019.2,,TRUE,TRUE,,,,,,,CLR,,,,,,,,VFR,1.6,,,,,,,,,,,METAR,25.0
KTVL 180253Z AUTO 18004KT 10SM CLR 01/M03 A3023 RMK AO2 SLP243 T00111033 58005,KTVL,2021-01-18T02:53:00Z,38.9,-120.0,1.1,-3.3,180,4,,10.0,30.230314,1024.3,,TRUE,TRUE,,,,,,,CLR,,,,,,,,VFR,-0.5,,,,,,,,,,,METAR,1907.0
KTVC 180253Z AUTO 00000KT 8SM -SN FEW015 OVC023 M02/M03 A2968 RMK AO2 SLP058 P0000 60001 T10171033 53002,KTVC,2021-01-18T02:53:00Z,44.73,-85.58,-1.7,-3.3,0,0,,8.0,29.681103,1005.8,,TRUE,TRUE,,,,,,-SN,FEW,1500,OVC,2300,,,,,MVFR,0.2,,,,,0.005,0.01,,,,,METAR,188.0
KTUS 180253Z 00000KT 10SM CLR 17/M13 A3001 RMK AO2 SLP144 T01671128 50003,KTUS,2021-01-18T02:53:00Z,32.13,-110.95,16.7,-12.8,0,0,,10.0,30.008858,1014.4,,,TRUE,,,,,,,CLR,,,,,,,,VFR,0.3,,,,,,,,,,,METAR,776.0
KTUP 180253Z 24003KT 10SM CLR 04/M03 A2998 RMK AO2 SLP152 T00441033 51009 $,KTUP,2021-01-18T02:53:00Z,34.27,-88.77,4.4,-3.3,240,3,,10.0,29.97933,1015.2,,,TRUE,TRUE,,,,,,CLR,,,,,,,,VFR,0.9,,,,,,,,,,,SPECI,107.0
KTUL 180253Z 24005KT 10SM CLR 04/M05 A3000 RMK AO2 SLP161 T00391050 50001,KTUL,2021-01-18T02:53:00Z,36.2,-95.88,3.9,-5.0,240,5,,10.0,30.0,1016.1,,,TRUE,,,,,,,CLR,,,,,,,,VFR,0.1,,,,,,,,,,,METAR,196.0
KTTN 180253Z 22003KT 10SM OVC075 04/M03 A2973 RMK AO2 SLP063 T00441028 50000,KTTN,2021-01-18T02:53:00Z,40.28,-74.82,4.4,-2.8,220,3,,10.0,29.731298,1006.3,,,TRUE,,,,,,,OVC,7500,,,,,,,VFR,0.0,,,,,,,,,,,METAR,58.0
KTTD 180253Z 00000KT 10SM OVC041 08/08 A3049 RMK AO2 SLP324 T00830083 50001,KTTD,2021-01-18T02:53:00Z,45.55,-122.42,8.3,8.3,0,0,,10.0,30.490158,1032.4,,,TRUE,,,,,,,OVC,4100,,,,,,,VFR,0.1,,,,,,,,,,,METAR,8.0
KTRL 180253Z AUTO 00000KT 10SM CLR 03/M03 A3010 RMK AO2 SLP193 T00331033 50005,KTRL,2021-01-18T02:53:00Z,32.72,-96.27,3.3,-3.3,0,0,,10.0,30.100393,1019.3,,TRUE,TRUE,,,,,,,CLR,,,,,,,,VFR,0.5,,,,,,,,,,,METAR,144.0
KTRI 180253Z 00000KT 10SM BKN050 OVC090 03/M01 A2982 RMK AO2 SLP094 T00281011 58002,KTRI,2021-01-18T02:53:00Z,36.48,-82.4,2.8,-1.1,0,0,,10.0,29.819881,1009.4,,,TRUE,,,,,,,BKN,5000,OVC,9000,,,,,VFR,-0.2,,,,,,,,,,,SPECI,456.0
KTPA 180253Z 04003KT 10SM FEW050 OVC240 14/08 A3009 RMK AO2 SLP189 T01390083 53009,KTPA,2021-01-18T02:53:00Z,27.97,-82.53,13.9,8.3,40,3,,10.0,30.088583,1018.9,,,TRUE,,,,,,,FEW,5000,OVC,24000,,,,,VFR,0.9,,,,,,,,,,,METAR,2.0
KTOR 180253Z AUTO 32005KT FEW075 SCT090 03/M05 A2977 RMK AO2 SLP101 T00281050 56008,KTOR,2021-01-18T02:53:00Z,42.07,-104.15,2.8,-5.0,320,5,,,29.769686,1010.1,,TRUE,TRUE,,,,,,,FEW,7500,SCT,9000,,,,,,-0.8,,,,,,,,,,,METAR,1285.0
KTOP 180253Z AUTO 00000KT 10SM CLR M02/M06 A2991 RMK AO2 SLP137 T10171061 58002,KTOP,2021-01-18T02:53:00Z,39.07,-95.63,-1.7,-6.1,0,0,,10.0,29.911417,1013.7,,TRUE,TRUE,,,,,,,CLR,,,,,,,,VFR,-0.2,,,,,,,,,,,METAR,268.0
KTOI 180253Z AUTO 22004KT 10SM CLR 06/M01 A2999 RMK AO2 SLP155 T00611011 51006,KTOI,2021-01-18T02:53:00Z,31.85,-86.02,6.1,-1.1,220,4,,10.0,29.991142,1015.5,,TRUE,TRUE,,,,,,,CLR,,,,,,,,VFR,0.6,,,,,,,,,,,METAR,120.0
KTMB 180253Z 19003KT 10SM CLR 17/11 A3009 RMK AO2 SLP189 T01720106 51008,KTMB,2021-01-18T02:53:00Z,25.65,-80.43,17.2,10.6,190,3,,10.0,30.088583,1018.9,,,TRUE,,,,,,,CLR,,,,,,,,VFR,0.8,,,,,,,,,,,METAR,2.0
KTLH 180253Z 00000KT 10SM FEW250 06/02 A3004 RMK AO2 SLP173 T00560017 53007,KTLH,2021-01-18T02:53:00Z,30.4,-84.35,5.6,1.7,0,0,,10.0,30.041338,1017.3,,,TRUE,,,,,,,FEW,25000,,,,,,,VFR,0.7,,,,,,,,,,,SPECI,17.0
KTKI 180253Z 00000KT 10SM CLR 03/M05 A3009 RMK AO2 SLP204 T00281050 50006,KTKI,2021-01-18T02:53:00Z,33.18,-96.58,2.8,-5.0,0,0,,10.0,30.088583,1020.4,,,TRUE,,,,,,,CLR,,,,,,,,VFR,0.6,,,,,,,,,,,METAR,173.0
KTIW 180253Z 34003KT 10SM SCT018 OVC042 06/06 A3052 RMK AO2 SLP339 T00610056 53010,KTIW,2021-01-18T02:53:00Z,47.27,-122.58,6.1,5.6,340,3,,10.0,30.519686,1033.9,,,TRUE,,,,,,,SCT,1800,OVC,4200,,,,,VFR,1.0,,,,,,,,,,,METAR,89.0
KTHV 180253Z AUTO 23005KT 10SM OVC060 04/M03 A2974 RMK AO2 SLP076 T00391033 51004,KTHV,2021-01-18T02:53:00Z,39.92,-76.88,3.9,-3.3,230,5,,10.0,29.740158,1007.6,,TRUE,TRUE,,,,,,,OVC,6000,,,,,,,VFR,0.4,,,,,,,,,,,METAR,141.0
KTDZ 180253Z AUTO 25011KT 8SM FEW011 OVC034 M01/M02 A2972 RMK AO2 SNE22 SLP069 P0000 60000 T10061022 51005 $,KTDZ,2021-01-18T02:53:00Z,41.57,-83.48,-0.6,-2.2,250,11,,8.0,29.719488,1006.9,,TRUE,TRUE,TRUE,,,,,,FEW,1100,OVC,3400,,,,,VFR,0.5,,,,,0.005,0.005,,,,,METAR,189.0
KTCS 180253Z AUTO 32007KT 10SM CLR 09/M15 A3004 RMK AO2 SLP151 T00891150 52001,KTCS,2021-01-18T02:53:00Z,33.23,-107.27,8.9,-15.0,320,7,,10.0,30.041338,1015.1,,TRUE,TRUE,,,,,,,CLR,,,,,,,,VFR,0.1,,,,,,,,,,,METAR,1471.0
KTCL 180253Z AUTO 27005KT 10SM CLR 07/M04 A3001 RMK AO2 SLP161 T00721039 51022,KTCL,2021-01-18T02:53:00Z,33.22,-87.62,7.2,-3.9,270,5,,10.0,30.008858,1016.1,,TRUE,TRUE,,,,,,,CLR,,,,,,,,VFR,2.2,,,,,,,,,,,METAR,48.0
KTCC 180253Z AUTO 00000KT 10SM CLR 01/M07 A2997 RMK AO2 SLP161 T00111067 58007,KTCC,2021-01-18T02:53:00Z,35.18,-103.6,1.1,-6.7,0,0,,10.0,29.970472,1016.1,,TRUE,TRUE,,,,,,,CLR,,,,,,,,VFR,-0.7,,,,,,,,,,,METAR,1233.0
KSWO 180253Z 23003KT 10SM CLR 02/M06 A3000 RMK AO2 SLP162 T00171061 58004,KSWO,2021-01-18T02:53:00Z,36.17,-97.08,1.7,-6.1,230,3,,10.0,30.0,1016.2,,,TRUE,,,,,,,CLR,,,,,,,,VFR,-0.4,,,,,,,,,,,METAR,293.0
KSTS 180253Z 00000KT 10SM CLR 13/08 A3001 RMK AO2 SLP155 T01330083 55001,KSTS,2021-01-18T02:53:00Z,38.5,-122.82,13.3,8.3,0,0,,10.0,30.008858,1015.5,,,TRUE,,,,,,,CLR,,,,,,,,VFR,-0.1,,,,,,,,,,,METAR,35.0
KSTP 180253Z AUTO 32007KT 10SM FEW015 SCT031 OVC065 M06/M09 A2982 RMK AO2 SLP108 T10561089 53003,KSTP,2021-01-18T02:53:00Z,44.93,-93.05,-5.6,-8.9,320,7,,10.0,29.819881,1010.8,,TRUE,TRUE,,,,,,,FEW,1500,SCT,3100,OVC,6500,,,VFR,0.3,,,,,,,,,,,METAR,213.0
KSTJ 180253Z AUTO 18003KT 10SM CLR M01/M04 A2991 RMK AO2 SLP136 T10111039 58003,KSTJ,2021-01-18T02:53:00Z,39.77,-94.92,-1.1,-3.9,180,3,,10.0,29.911417,1013.6,,TRUE,TRUE,,,,,,,CLR,,,,,,,,VFR,-0.3,,,,,,,,,,,METAR,247.0
KSTC 180253Z 00000KT 10SM OVC025 M07/M08 A2980 RMK AO2 SLP116 60000 T10671083 51002,KSTC,2021-01-18T02:53:00Z,45.55,-94.05,-6.7,-8.3,0,0,,10.0,29.799213,1011.6,,,TRUE,,,,,,,OVC,2500,,,,,,,MVFR,0.2,,,,,,0.005,,,,,METAR,302.0
KSSF 180253Z 07007KT 10SM CLR 13/01 A3008 RMK AO2 SLP189 T01280006 53012,KSSF,2021-01-18T02:53:00Z,29.33,-98.47,12.8,0.6,70,7,,10.0,30.079725,1018.9,,,TRUE,,,,,,,CLR,,,,,,,,VFR,1.2,,,,,,,,,,,METAR,175.0
KSRQ 180253Z AUTO 00000KT 10SM BKN038 BKN048 BKN060 15/13 A3005 RMK AO2 SLP175 T01500128 53008,KSRQ,2021-01-18T02:53:00Z,27.4,-82.57,15.0,12.8,0,0,,10.0,30.050198,1017.5,,TRUE,TRUE,,,,,,,BKN,3800,BKN,4800,BKN,6000,,,VFR,0.8,,,,,,,,,,,METAR,5.0
KSPW 180253Z AUTO 35009KT 10SM BKN016 OVC023 M01/M03 A2982 RMK AO2 SLP113 T10061033 53004,KSPW,2021-01-18T02:53:00Z,43.17,-95.22,-0.6,-3.3,350,9,,10.0,29.819881,1011.3,,TRUE,TRUE,,,,,,,BKN,1600,OVC,2300,,,,,MVFR,0.4,,,,,,,,,,,METAR,407.0
KSPG 180253Z AUTO 33003KT 10SM SCT047 OVC060 14/12 A3007 RMK AO2 SLP181 T01440117 53009,KSPG,2021-01-18T02:53:00Z,27.77,-82.63,14.4,11.7,330,3,,10.0,30.070866,1018.1,,TRUE,TRUE,,,,,,,SCT,4700,OVC,6000,,,,,VFR,0.9,,,,,,,,,,,METAR,1.0
KSPB 180253Z AUTO 31004KT 10SM OVC041 07/06 A3049 RMK AO2 SLP324 T00670061 51002,KSPB,2021-01-18T02:53:00Z,45.77,-122.87,6.7,6.1,310,4,,10.0,30.490158,1032.4,,TRUE,TRUE,,,,,,,OVC,4100,,,,,,,VFR,0.2,,,,,,,,,,,METAR,15.0
KSNY 180253Z AUTO 28016G25KT 10SM -RA BKN041 BKN055 BKN085 06/M02 A2979 RMK AO2 PK WND 25029/0219 RAB36 SLP104 P0000 60000 T00561017 58013 $,KSNY,2021-01-18T02:53:00Z,41.1,-102.98,5.6,-1.7,280,16,25,10.0,29.790354,1010.4,,TRUE,TRUE,TRUE,,,,,-RA,BKN,4100,BKN,5500,BKN,8500,,,VFR,-1.3,,,,,0.005,0.005,,,,,METAR,1307.0
KSNS 180253Z AUTO 34006KT 10SM CLR 16/08 A3000 RMK AO2 SLP168 T01610083 53006,KSNS,2021-01-18T02:53:00Z,36.67,-121.6,16.1,8.3,340,6,,10.0,30.0,1016.8,,TRUE,TRUE,,,,,,,CLR,,,,,,,,VFR,0.6,,,,,,,,,,,METAR,20.0
KSNA 180253Z 00000KT 10SM CLR 20/03 A2992 RMK AO2 SLP130 T02000033 57000,KSNA,2021-01-18T02:53:00Z,33.67,-117.87,20.0,3.3,0,0,,10.0,29.920275,1013.0,,,TRUE,,,,,,,CLR,,,,,,,,VFR,0.0,,,,,,,,,,,METAR,14.0
KSMQ 180253Z AUTO 20003KT 10SM OVC065 03/M03 A2972 RMK AO2 SLP064 T00331033 50004,KSMQ,2021-01-18T02:53:00Z,40.62,-74.67,3.3,-3.3,200,3,,10.0,29.719488,1006.4,,TRUE,TRUE,,,,,,,OVC,6500,,,,,,,VFR,0.4,,,,,,,,,,,METAR,30.0
KSMF 180253Z 20003KT 10SM CLR 14/07 A3000 RMK AO2 SLP160 T01390072 56002,KSMF,2021-01-18T02:53:00Z,38.7,-121.6,13.9,7.2,200,3,,10.0,30.0,1016.0,,,TRUE,,,,,,,CLR,,,,,,,,VFR,-0.2,,,,,,,,,,,METAR,7.0
KSLN 180253Z 23009KT 10SM CLR 00/M08 A2992 RMK AO2 SLP142 T00001078 58008 $,KSLN,2021-01-18T02:53:00Z,38.8,-97.65,0.0,-7.8,230,9,,10.0,29.920275,1014.2,,,TRUE,TRUE,,,,,,CLR,,,,,,,,VFR,-0.8,,,,,,,,,,,METAR,377.0
KSJC 180253Z 00000KT 10SM FEW060 FEW100 17/06 A3000 RMK AO2 SLP159 T01720056 56001,KSJC,2021-01-18T02:53:00Z,37.37,-121.92,17.2,5.6,0,0,,10.0,30.0,1015.9,,,TRUE,,,,,,,FEW,6000,FEW,10000,,,,,VFR,-0.1,,,,,,,,,,,METAR,13.0
KSIY 180253Z AUTO 00000KT 10SM OVC004 03/02 A3034 RMK AO2 SLP297 T00330022 51001,KSIY,2021-01-18T02:53:00Z,41.77,-122.47,3.3,2.2,0,0,,10.0,30.339567,1029.7,,TRUE,TRUE,,,,,,,OVC,400,,,,,,,LIFR,0.1,,,,,,,,,,,METAR,807.0
KSHR 180253Z AUTO 33027G38KT 10SM BKN065 05/M04 A2986 RMK AO2 PK WND 33049/0232 SLP135 60000 T00501044 53012,KSHR,2021-01-18T02:53:00Z,44.77,-106.97,5.0,-4.4,330,27,38,10.0,29.861221,1013.5,,TRUE,TRUE,,,,,,,BKN,6500,,,,,,,VFR,1.2,,,,,,0.005,,,,,METAR,1212.0
KSGR 180253Z 00000KT 10SM CLR 09/00 A3011 RMK AO2 SLP198 T00940000 51013,KSGR,2021-01-18T02:53:00Z,29.62,-95.65,9.4,0.0,0,0,,10.0,30.109253,1019.8,,,TRUE,,,,,,,CLR,,,,,,,,VFR,1.3,,,,,,,,,,,METAR,22.0
KSFF 180253Z 24004KT 10SM OVC013 02/M01 A3035 RMK AO2 SLP290 T00221006 51007,KSFF,2021-01-18T02:53:00Z,47.68,-117.32,2.2,-0.6,240,4,,10.0,30.351377,1029.0,,,TRUE,,,,,,,OVC,1300,,,,,,,MVFR,0.7,,,,,,,,,,,METAR,593.0
KSFB 180253Z 23005KT 10SM CLR 12/07 A3007 RMK AO2 SLP181 T01170067 53004,KSFB,2021-01-18T02:53:00Z,28.77,-81.23,11.7,6.7,230,5,,10.0,30.070866,1018.1,,,TRUE,,,,,,,CLR,,,,,,,,VFR,0.4,,,,,,,,,,,METAR,16.0
KSEG 180253Z AUTO 00000KT 10SM BKN050 OVC090 02/M01 A2972 RMK AO2 SLP068 T00221011 50000,KSEG,2021-01-18T02:53:00Z,40.82,-76.87,2.2,-1.1,0,0,,10.0,29.719488,1006.8,,TRUE,TRUE,,,,,,,BKN,5000,OVC,9000,,,,,VFR,0.0,,,,,,,,,,,METAR,136.0
KSEA 180253Z 00000KT 10SM FEW025 SCT048 08/06 A3051 RMK AO2 SLP342 T00780061 53007,KSEA,2021-01-18T02:53:00Z,47.45,-122.32,7.8,6.1,0,0,,10.0,30.510826,1034.2,,,TRUE,,,,,,,FEW,2500,SCT,4800,,,,,VFR,0.7,,,,,,,,,,,METAR,115.0
KSDM 180253Z 00000KT 10SM CLR 18/M01 A2995 RMK AO2 SLP139 T01831011 53001,KSDM,2021-01-18T02:53:00Z,32.58,-117.0,18.3,-1.1,0,0,,10.0,29.949802,1013.9,,,TRUE,,,,,,,CLR,,,,,,,,VFR,0.1,,,,,,,,,,,METAR,161.0
KSDL 180253Z 36004KT 10SM CLR 16/M08 A2996 RMK AO2 SLP136 T01561083 56004 $,KSDL,2021-01-18T02:53:00Z,33.62,-111.92,15.6,-8.3,360,4,,10.0,29.958662,1013.6,,,TRUE,TRUE,,,,,,CLR,,,,,,,,VFR,-0.4,,,,,,,,,,,METAR,438.0
KSDB 180253Z AUTO 05008KT 10SM CLR 15/M08 A3012 RMK AO2 SLP160 T01501078 56007 $,KSDB,2021-01-18T02:53:00Z,34.75,-118.72,15.0,-7.8,50,8,,10.0,30.121063,1016.0,,TRUE,TRUE,TRUE,,,,,,CLR,,,,,,,,VFR,-0.7,,,,,,,,,,,METAR,1377.0
KSBM 180253Z AUTO 29005KT 10SM OVC032 M02/M05 A2972 RMK AO2 SLP074 T10221050 51003,KSBM,2021-01-18T02:53:00Z,43.78,-87.85,-2.2,-5.0,290,5,,10.0,29.719488,1007.4,,TRUE,TRUE,,,,,,,OVC,3200,,,,,,,VFR,0.3,,,,,,,,,,,METAR,225.0
KSBA 180253Z 26003KT 10SM CLR 18/09 A2993 RMK AO2 SLP133 T01780089 53000,KSBA,2021-01-18T02:53:00Z,34.43,-119.85,17.8,8.9,260,3,,10.0,29.929134,1013.3,,,TRUE,,,,,,,CLR,,,,,,,,VFR,0.0,,,,,,,,,,,METAR,2.0
KSAV 180253Z 21006KT 10SM FEW250 07/01 A3001 RMK AO2 SLP161 T00720006 53007,KSAV,2021-01-18T02:53:00Z,32.12,-81.2,7.2,0.6,210,6,,10.0,30.008858,1016.1,,,TRUE,,,,,,,FEW,25000,,,,,,,VFR,0.7,,,,,,,,,,,METAR,10.0
KSAF 180253Z 34003KT 10SM CLR 03/M13 A3005 RMK AO2 SLP168 T00331128 50004,KSAF,2021-01-18T02:53:00Z,35.62,-106.1,3.3,-12.8,340,3,,10.0,30.050198,1016.8,,,TRUE,,,,,,,CLR,,,,,,,,VFR,0.4,,,,,,,,,,,METAR,1918.0
KSAC 180253Z 00000KT 8SM CLR 12/08 A3001 RMK AO2 SLP160 T01220078 56004,KSAC,2021-01-18T02:53:00Z,38.5,-121.5,12.2,7.8,0,0,,8.0,30.008858,1016.0,,,TRUE,,,,,,,CLR,,,,,,,,VFR,-0.4,,,,,,,,,,,METAR,5.0
KRWL 180253Z AUTO 25027G40KT 9SM -SN CLR 02/M06 A2989 RMK AO2 PK WND 25044/0205 SLP135 P0000 60000 T00171056 51001,KRWL,2021-01-18T02:53:00Z,41.8,-107.2,1.7,-5.6,250,27,40,9.0,29.890747,1013.5,,TRUE,TRUE,,,,,,-SN,CLR,,,,,,,,VFR,0.1,,,,,0.005,0.005,,,,,METAR,2066.0
KRWI 180253Z AUTO 19003KT 10SM CLR 03/M02 A2990 RMK AO2 SLP124 T00331017 50008,KRWI,2021-01-18T02:53:00Z,35.85,-77.9,3.3,-1.7,190,3,,10.0,29.899607,1012.4,,TRUE,TRUE,,,,,,,CLR,,,,,,,,VFR,0.8,,,,,,,,,,,METAR,46.0
KRWF 180253Z AUTO 33008KT 10SM SCT039 BKN046 OVC055 M04/M07 A2983 RMK AO2 SLP116 T10391067 51008,KRWF,2021-01-18T02:53:00Z,44.55,-95.08,-3.9,-6.7,330,8,,10.0,29.828741,1011.6,,TRUE,TRUE,,,,,,,SCT,3900,BKN,4600,OVC,5500,,,VFR,0.8,,,,,,,,,,,METAR,312.0
KRVS 180253Z 00000KT 10SM CLR 01/M04 A3001 RMK AO2 SLP171 T00061044 50001,KRVS,2021-01-18T02:53:00Z,36.05,-95.98,0.6,-4.4,0,0,,10.0,30.008858,1017.1,,,TRUE,,,,,,,CLR,,,,,,,,VFR,0.1,,,,,,,,,,,METAR,191.0
KRUE 180253Z AUTO 00000KT 10SM CLR M01/M04 A2999 RMK AO2 SLP155 T10111044 51009,KRUE,2021-01-18T02:53:00Z,35.25,-93.1,-1.1,-4.4,0,0,,10.0,29.991142,1015.5,,TRUE,TRUE,,,,,,,CLR,,,,,,,,VFR,0.9,,,,,,,,,,,METAR,119.0
KRTN 180253Z AUTO 19005KT 10SM CLR M02/M10 A2997 RMK AO2 SLP172 T10171100 58005,KRTN,2021-01-18T02:53:00Z,36.73,-104.5,-1.7,-10.0,190,5,,10.0,29.970472,1017.2,,TRUE,TRUE,,,,,,,CLR,,,,,,,,VFR,-0.5,,,,,,,,,,,METAR,1939.0
KRSW 180253Z 00000KT 10SM CLR 15/11 A3006 RMK AO2 SLP176 T01500111 50003,KRSW,2021-01-18T02:53:00Z,26.53,-81.75,15.0,11.1,0,0,,10.0,30.059055,1017.6,,,TRUE,,,,,,,CLR,,,,,,,,VFR,0.3,,,,,,,,,,,METAR,8.0
KRSL 180253Z AUTO 21005KT 10SM FEW110 M01/M12 A2989 RMK AO2 SLP140 T10111117 58010 $,KRSL,2021-01-18T02:53:00Z,38.87,-98.82,-1.1,-11.7,210,5,,10.0,29.890747,1014.0,,TRUE,TRUE,TRUE,,,,,,FEW,11000,,,,,,,VFR,-1.0,,,,,,,,,,,METAR,569.0
KRQE 180253Z AUTO 23003KT 10SM CLR 04/M16 A3012 RMK AO2 SLP206 T00441161 58006 TSNO,KRQE,2021-01-18T02:53:00Z,35.65,-109.07,4.4,-16.1,230,3,,10.0,30.121063,1020.6,,TRUE,TRUE,,,TRUE,,,,CLR,,,,,,,,VFR,-0.6,,,,,,,,,,,METAR,2056.0
KRNM 180253Z AUTO 06003KT 10SM CLR 12/M02 A2998 RMK AO2 SLP147 T01221017 51006,KRNM,2021-01-18T02:53:00Z,33.03,-116.92,12.2,-1.7,60,3,,10.0,29.97933,1014.7,,TRUE,TRUE,,,,,,,CLR,,,,,,,,VFR,0.6,,,,,,,,,,,METAR,423.0
KRMG 180253Z AUTO 22004KT 10SM SCT080 OVC095 07/M02 A2990 RMK AO2 SLP124 T00671022 53007,KRMG,2021-01-18T02:53:00Z,34.35,-85.17,6.7,-2.2,220,4,,10.0,29.899607,1012.4,,TRUE,TRUE,,,,,,,SCT,8000,OVC,9500,,,,,VFR,0.7,,,,,,,,,,,METAR,196.0
KRKP 180253Z AUTO 13005KT 8SM CLR 13/12 A3010 RMK AO2 SLP195 T01330117 51012,KRKP,2021-01-18T02:53:00Z,28.08,-97.05,13.3,11.7,130,5,,8.0,30.100393,1019.5,,TRUE,TRUE,,,,,,,CLR,,,,,,,,VFR,1.2,,,,,,,,,,,METAR,8.0
KRIW 180253Z AUTO 30028G47KT 10SM CLR 05/M07 A2986 RMK AO2 PK WND 31051/0154 SLP141 T00501067 53009,KRIW,2021-01-18T02:53:00Z,43.07,-108.43,5.0,-6.7,300,28,47,10.0,29.861221,1014.1,,TRUE,TRUE,,,,,,,CLR,,,,,,,,VFR,0.9,,,,,,,,,,,METAR,1662.0
KRIL 180253Z AUTO 00000KT 10SM OVC075 01/M04 A3008 RMK AO2 SLP205 T00111044 56005,KRIL,2021-01-18T02:53:00Z,39.53,-107.73,1.1,-4.4,0,0,,10.0,30.079725,1020.5,,TRUE,TRUE,,,,,,,OVC,7500,,,,,,,VFR,-0.5,,,,,,,,,,,METAR,1683.0
KRHI 180253Z AUTO 32003KT 10SM FEW015 OVC021 M06/M08 A2970 RMK AO2 SLP081 T10611083 50000,KRHI,2021-01-18T02:53:00Z,45.63,-89.48,-6.1,-8.3,320,3,,10.0,29.698818,1008.1,,TRUE,TRUE,,,,,,,FEW,1500,OVC,2100,,,,,MVFR,0.0,,,,,,,,,,,METAR,493.0
KRDD 180253Z 34010KT 10SM CLR 21/M01 A3007 RMK AO2 SLP179 T02061006 51004,KRDD,2021-01-18T02:53:00Z,40.52,-122.3,20.6,-0.6,340,10,,10.0,30.070866,1017.9,,,TRUE,,,,,,,CLR,,,,,,,,VFR,0.4,,,,,,,,,,,METAR,152.0
KRBG 180253Z AUTO 34005KT 10SM OVC018 11/07 A3042 RMK AO2 SLP304 T01060067 51011,KRBG,2021-01-18T02:53:00Z,43.23,-123.35,10.6,6.7,340,5,,10.0,30.41929,1030.4,,TRUE,TRUE,,,,,,,OVC,1800,,,,,,,MVFR,1.1,,,,,,,,,,,METAR,152.0
KRBD 180253Z AUTO 35003KT 10SM CLR 08/M04 A3009 RMK AO2 SLP188 T00781044 51008,KRBD,2021-01-18T02:53:00Z,32.68,-96.87,7.8,-4.4,350,3,,10.0,30.088583,1018.8,,TRUE,TRUE,,,,,,,CLR,,,,,,,,VFR,0.8,,,,,,,,,,,METAR,200.0
KRAL 180253Z AUTO 00000KT 10SM CLR 23/M07 A2994 RMK AO2 SLP126 T02281072 53002 $,KRAL,2021-01-18T02:53:00Z,33.95,-117.45,22.8,-7.2,0,0,,10.0,29.940945,1012.6,,TRUE,TRUE,TRUE,,,,,,CLR,,,,,,,,VFR,0.2,,,,,,,,,,,METAR,254.0
KRAC 180253Z AUTO 30006KT 10SM OVC038 M02/M04 A2975 RMK AO2 SNB0159E29 SLP083 P0000 60000 T10171039 51006,KRAC,2021-01-18T02:53:00Z,42.77,-87.82,-1.7,-3.9,300,6,,10.0,29.749016,1008.3,,TRUE,TRUE,,,,,,,OVC,3800,,,,,,,VFR,0.6,,,,,0.005,0.005,,,,,METAR,203.0
KPWA 180253Z 19005KT 10SM CLR 00/M08 A3002 RMK AO2 SLP173 T00001078 58002,KPWA,2021-01-18T02:53:00Z,35.53,-97.65,0.0,-7.8,190,5,,10.0,30.02067,1017.3,,,TRUE,,,,,,,CLR,,,,,,,,VFR,-0.2,,,,,,,,,,,METAR,390.0
KPUW 180253Z AUTO 08004KT 5SM BR CLR M01/M02 A3034 RMK AO2 SLP298 T10111022 51005,KPUW,2021-01-18T02:53:00Z,46.75,-117.12,-1.1,-2.2,80,4,,5.0,30.339567,1029.8,,TRUE,TRUE,,,,,,BR,CLR,,,,,,,,MVFR,0.5,,,,,,,,,,,METAR,774.0
KPUC 180253Z AUTO 11004KT 10SM CLR 02/M06 A3008 RMK AO2 SLP217 T00171061 58008,KPUC,2021-01-18T02:53:00Z,39.62,-110.75,1.7,-6.1,110,4,,10.0,30.079725,1021.7,,TRUE,TRUE,,,,,,,CLR,,,,,,,,VFR,-0.8,,,,,,,,,,,METAR,1777.0
KPUB 180253Z 21003KT 10SM CLR M01/M09 A2985 RMK AO2 SLP136 T10061089 58023,KPUB,2021-01-18T02:53:00Z,38.28,-104.5,-0.6,-8.9,210,3,,10.0,29.84941,1013.6,,,TRUE,,,,,,,CLR,,,,,,,,VFR,-2.3,,,,,,,,,,,METAR,1441.0
KPTK 180253Z 28003KT 4SM -SN BR FEW006 OVC042 M01/M02 A2965 RMK AO2 SLP050 P0000 60003 T10111022 50002 $,KPTK,2021-01-18T02:53:00Z,42.67,-83.42,-1.1,-2.2,280,3,,4.0,29.648623,1005.0,,,TRUE,TRUE,,,,,-SN BR,FEW,600,OVC,4200,,,,,MVFR,0.2,,,,,0.005,0.03,,,,,METAR,295.0
KPSP 180253Z VRB03KT 10SM CLR 22/M03 A2996 RMK AO2 SLP146 T02221028 53002,KPSP,2021-01-18T02:53:00Z,33.82,-116.5,22.2,-2.8,0,3,,10.0,29.958662,1014.6,,,TRUE,,,,,,,CLR,,,,,,,,VFR,0.2,,,,,,,,,,,METAR,123.0
KPSC 180253Z 00000KT 6SM HZ CLR 01/M01 A3040 RMK AO2 SLP298 T00061006 53006,KPSC,2021-01-18T02:53:00Z,46.27,-119.12,0.6,-0.6,0,0,,6.0,30.398623,1029.8,,,TRUE,,,,,,HZ,CLR,,,,,,,,VFR,0.6,,,,,,,,,,,METAR,121.0
KPRC 180253Z 20005KT 10SM CLR 05/M18 A3008 RMK AO2 SLP182 T00501183 58003,KPRC,2021-01-18T02:53:00Z,34.65,-112.42,5.0,-18.3,200,5,,10.0,30.079725,1018.2,,,TRUE,,,,,,,CLR,,,,,,,,VFR,-0.3,,,,,,,,,,,METAR,1528.0
KPRB 180253Z AUTO 12007KT 10SM CLR 14/06 A3000 RMK AO2 SLP156 T01440061 55000,KPRB,2021-01-18T02:53:00Z,35.67,-120.63,14.4,6.1,120,7,,10.0,30.0,1015.6,,TRUE,TRUE,,,,,,,CLR,,,,,,,,VFR,0.0,,,,,,,,,,,METAR,249.0
KPQL 180253Z AUTO 00000KT 10SM CLR 07/06 A3006 RMK AO2 SLP180 T00670056 51011,KPQL,2021-01-18T02:53:00Z,30.47,-88.53,6.7,5.6,0,0,,10.0,30.059055,1018.0,,TRUE,TRUE,,,,,,,CLR,,,,,,,,VFR,1.1,,,,,,,,,,,METAR,4.0
KPOU 180253Z 22006KT 10SM OVC070 04/M03 A2966 RMK AO2 SLP042 T00441033 50007,KPOU,2021-01-18T02:53:00Z,41.63,-73.88,4.4,-3.3,220,6,,10.0,29.660433,1004.2,,,TRUE,,,,,,,OVC,7000,,,,,,,VFR,0.7,,,,,,,,,,,METAR,45.0
KPOF 180253Z AUTO 29004KT 10SM OVC075 05/M03 A2992 RMK AO2 SLP136 T00501033 51010,KPOF,2021-01-18T02:53:00Z,36.77,-90.32,5.0,-3.3,290,4,,10.0,29.920275,1013.6,,TRUE,TRUE,,,,,,,OVC,7500,,,,,,,VFR,1.0,,,,,,,,,,,SPECI,99.0
KPNS 180253Z AUTO 24005KT 10SM CLR 09/03 A3004 RMK AO2 SLP177 T00890033 51009,KPNS,2021-01-18T02:53:00Z,30.48,-87.18,8.9,3.3,240,5,,10.0,30.041338,1017.7,,TRUE,TRUE,,,,,,,CLR,,,,,,,,VFR,0.9,,,,,,,,,,,METAR,34.0
KPNC 180253Z AUTO 00000KT 10SM CLR 01/M07 A2999 RMK AO2 SLP160 T00061067 58006,KPNC,2021-01-18T02:53:00Z,36.73,-97.1,0.6,-6.7,0,0,,10.0,29.991142,1016.0,,TRUE,TRUE,,,,,,,CLR,,,,,,,,VFR,-0.6,,,,,,,,,,,METAR,304.0
KPMP 180253Z AUTO 00000KT 10SM CLR 16/11 A3007 RMK AO2 SLP183 T01610106 51004,KPMP,2021-01-18T02:53:00Z,26.25,-80.12,16.1,10.6,0,0,,10.0,30.070866,1018.3,,TRUE,TRUE,,,,,,,CLR,,,,,,,,VFR,0.4,,,,,,,,,,,METAR,4.0
KPMD 180253Z 00000KT 10SM CLR 12/M06 A3006 RMK AO2 SLP178 T01171061 55004,KPMD,2021-01-18T02:53:00Z,34.63,-118.08,11.7,-6.1,0,0,,10.0,30.059055,1017.8,,,TRUE,,,,,,,CLR,,,,,,,,VFR,-0.4,,,,,,,,,,,METAR,764.0
KPKD 180253Z AUTO 32012KT 10SM OVC013 M08/M09 A2978 RMK AO2 SLP112 60000 T10831094 53003,KPKD,2021-01-18T02:53:00Z,46.9,-95.07,-8.3,-9.4,320,12,,10.0,29.778543,1011.2,,TRUE,TRUE,,,,,,,OVC,1300,,,,,,,MVFR,0.3,,,,,,0.005,,,,,METAR,439.0
KPIR 180253Z AUTO 05004KT 10SM OVC085 M02/M07 A2979 RMK AO2 SLP107 T10221067 58009,KPIR,2021-01-18T02:53:00Z,44.38,-100.28,-2.2,-6.7,50,4,,10.0,29.790354,1010.7,,TRUE,TRUE,,,,,,,OVC,8500,,,,,,,VFR,-0.9,,,,,,,,,,,METAR,524.0
KPIL 180253Z AUTO 11006KT 10SM CLR 15/13 A3009 RMK AO2 SLP187 T01500133 53007 TSNO,KPIL,2021-01-18T02:53:00Z,26.17,-97.33,15.0,13.3,110,6,,10.0,30.088583,1018.7,,TRUE,TRUE,,,TRUE,,,,CLR,,,,,,,,VFR,0.7,,,,,,,,,,,METAR,5.0
KPIH 180253Z 25014KT 10SM OVC013 02/M02 A3019 RMK AO2 SLP243 T00171017 53008,KPIH,2021-01-18T02:53:00Z,42.92,-112.57,1.7,-1.7,250,14,,10.0,30.188976,1024.3,,,TRUE,,,,,,,OVC,1300,,,,,,,MVFR,0.8,,,,,,,,,,,METAR,1357.0
KPIE 180253Z 03004KT 10SM BKN048 14/11 A3008 RMK AO2 SLP186 T01390106 53007,KPIE,2021-01-18T02:53:00Z,27.92,-82.68,13.9,10.6,30,4,,10.0,30.079725,1018.6,,,TRUE,,,,,,,BKN,4800,,,,,,,VFR,0.7,,,,,,,,,,,METAR,1.0
KPGD 180253Z AUTO 00000KT 10SM CLR 14/12 A3008 RMK AO2 SLP186 T01390117 51007,KPGD,2021-01-18T02:53:00Z,26.92,-82.0,13.9,11.7,0,0,,10.0,30.079725,1018.6,,TRUE,TRUE,,,,,,,CLR,,,,,,,,VFR,0.7,,,,,,,,,,,METAR,7.0
KPGA 180253Z AUTO 20003KT 10SM CLR 06/M09 A3007 RMK AO2 SLP185 T00561094 58005 TSNO,KPGA,2021-01-18T02:53:00Z,36.92,-111.45,5.6,-9.4,200,3,,10.0,30.070866,1018.5,,TRUE,TRUE,,,TRUE,,,,CLR,,,,,,,,VFR,-0.5,,,,,,,,,,,METAR,1310.0
KPEO 180253Z AUTO 20005KT 10SM FEW023 SCT045 OVC055 01/M01 A2962 RMK AO2 SLP038 60000 T00111006 57003,KPEO,2021-01-18T02:53:00Z,42.65,-77.05,1.1,-0.6,200,5,,10.0,29.619095,1003.8,,TRUE,TRUE,,,,,,,FEW,2300,SCT,4500,OVC,5500,,,VFR,-0.3,,,,,,0.005,,,,,METAR,268.0
KPDX 180253Z 00000KT 10SM OVC043 08/07 A3049 RMK AO2 SLP325 T00830067 50001,KPDX,2021-01-18T02:53:00Z,45.6,-122.62,8.3,6.7,0,0,,10.0,30.490158,1032.5,,,TRUE,,,,,,,OVC,4300,,,,,,,VFR,0.1,,,,,,,,,,,METAR,7.0
KPDT 180253Z 22007KT 10SM CLR 06/02 A3037 RMK AO2 SLP287 T00560022 53004,KPDT,2021-01-18T02:53:00Z,45.7,-118.83,5.6,2.2,220,7,,10.0,30.369095,1028.7,,,TRUE,,,,,,,CLR,,,,,,,,VFR,0.4,,,,,,,,,,,METAR,453.0
KPDK 180253Z AUTO 22006KT 10SM CLR 04/M02 A2991 RMK AO2 SLP138 T00441017 51004,KPDK,2021-01-18T02:53:00Z,33.88,-84.3,4.4,-1.7,220,6,,10.0,29.911417,1013.8,,TRUE,TRUE,,,,,,,CLR,,,,,,,,VFR,0.4,,,,,,,,,,,METAR,299.0
KPBI 180253Z 00000KT 10SM BKN049 BKN160 16/09 A3008 RMK AO2 SLP186 T01610094 51005 $,KPBI,2021-01-18T02:53:00Z,26.68,-80.1,16.1,9.4,0,0,,10.0,30.079725,1018.6,,,TRUE,TRUE,,,,,,BKN,4900,BKN,16000,,,,,VFR,0.5,,,,,,,,,,,METAR,4.0
KPBG 180253Z AUTO 26007G18KT 240V300 10SM OVC030 00/M06 A2953 RMK AO2 SLP003 T00001056 50006,KPBG,2021-01-18T02:53:00Z,44.65,-73.47,0.0,-5.6,260,7,18,10.0,29.530512,1000.3,,TRUE,TRUE,,,,,,,OVC,3000,,,,,,,MVFR,0.6,,,,,,,,,,,METAR,61.0
KPBF 180253Z AUTO 00000KT 10SM CLR 05/M06 A3002 RMK AO2 SLP166 T00501056 51010,KPBF,2021-01-18T02:53:00Z,34.18,-91.93,5.0,-5.6,0,0,,10.0,30.02067,1016.6,,TRUE,TRUE,,,,,,,CLR,,,,,,,,VFR,1.0,,,,,,,,,,,METAR,63.0
KPAH 180253Z 29008KT 10SM SCT030 BKN038 OVC055 03/M01 A2991 RMK AO2 RAB15E25 SLP130 P0000 60000 T00281011 51012,KPAH,2021-01-18T02:53:00Z,37.07,-88.77,2.8,-1.1,290,8,,10.0,29.911417,1013.0,,,TRUE,,,,,,,SCT,3000,BKN,3800,OVC,5500,,,VFR,1.2,,,,,0.005,0.005,,,,,METAR,125.0
KPAE 180253Z 27004KT 10SM BKN035 OVC047 07/05 A3052 RMK AO2 SLP337 T00720050 51007,KPAE,2021-01-18T02:53:00Z,47.92,-122.28,7.2,5.0,270,4,,10.0,30.519686,1033.7,,,TRUE,,,,,,,BKN,3500,OVC,4700,,,,,VFR,0.7,,,,,,,,,,,METAR,166.0
KP68 180253Z AUTO 12004KT M03/M06 A3023 RMK AO1 SLP270 T10331061 56003,KP68,2021-01-18T02:53:00Z,39.6,-116.0,-3.3,-6.1,120,4,,,30.230314,1027.0,,TRUE,TRUE,,,,,,,,,,,,,,,,-0.3,,,,,,,,,,,METAR,1813.0
KOXB 180253Z AUTO 23005KT 10SM OVC080 05/00 A2982 RMK AO2 SLP097 T00500000 58002,KOXB,2021-01-18T02:53:00Z,38.32,-75.12,5.0,0.0,230,5,,10.0,29.819881,1009.7,,TRUE,TRUE,,,,,,,OVC,8000,,,,,,,VFR,-0.2,,,,,,,,,,,METAR,2.0
KOWD 180253Z AUTO 25009KT 10SM OVC045 06/M04 A2962 RMK AO2 SLP028 T00611039 52018,KOWD,2021-01-18T02:53:00Z,42.18,-71.17,6.1,-3.9,250,9,,10.0,29.619095,1002.8,,TRUE,TRUE,,,,,,,OVC,4500,,,,,,,VFR,1.8,,,,,,,,,,,METAR,14.0
KOVS 180253Z AUTO 26006KT 10SM OVC020 M02/M05 A2978 RMK AO2 SLP095 T10171050 51003,KOVS,2021-01-18T02:53:00Z,43.15,-90.68,-1.7,-5.0,260,6,,10.0,29.778543,1009.5,,TRUE,TRUE,,,,,,,OVC,2000,,,,,,,MVFR,0.3,,,,,,,,,,,METAR,205.0
KOVE 180253Z AUTO 11005KT 10SM CLR 16/08 A3001 RMK AO2 SLP163 T01610078 58004,KOVE,2021-01-18T02:53:00Z,39.5,-121.62,16.1,7.8,110,5,,10.0,30.008858,1016.3,,TRUE,TRUE,,,,,,,CLR,,,,,,,,VFR,-0.4,,,,,,,,,,,METAR,56.0
KOTM 180253Z AUTO 27008KT 10SM BKN022 OVC050 M02/M04 A2983 RMK AO2 SLP112 T10171044 50000 $,KOTM,2021-01-18T02:53:00Z,41.1,-92.45,-1.7,-4.4,270,8,,10.0,29.828741,1011.2,,TRUE,TRUE,TRUE,,,,,,BKN,2200,OVC,5000,,,,,MVFR,0.0,,,,,,,,,,,METAR,254.0
KOSU 180253Z 27005KT 10SM BKN033 OVC042 00/M02 A2974 RMK AO2 SLP077 60000 T00001022 51004,KOSU,2021-01-18T02:53:00Z,40.08,-83.08,0.0,-2.2,270,5,,10.0,29.740158,1007.7,,,TRUE,,,,,,,BKN,3300,OVC,4200,,,,,VFR,0.4,,,,,,0.005,,,,,METAR,276.0
KOSH 180253Z 30004KT 10SM FEW037 SCT050 OVC060 M03/M06 A2973 RMK AO2 SLP082 60000 T10281061 50002,KOSH,2021-01-18T02:53:00Z,43.98,-88.55,-2.8,-6.1,300,4,,10.0,29.731298,1008.2,,,TRUE,,,,,,,FEW,3700,SCT,5000,OVC,6000,,,VFR,0.2,,,,,,0.005,,,,,METAR,239.0
KORL 180253Z AUTO 25003KT 10SM CLR 13/08 A3006 RMK AO2 SLP186 T01280078 53002,KORL,2021-01-18T02:53:00Z,28.55,-81.33,12.8,7.8,250,3,,10.0,30.059055,1018.6,,TRUE,TRUE,,,,,,,CLR,,,,,,,,VFR,0.2,,,,,,,,,,,METAR,32.0
KOQT 180253Z AUTO 23003KT 10SM FEW043 SCT055 BKN100 06/M02 A2986 RMK AO2 RAB0154E04 SLP121 P0000 60000 T00561022 51006,KOQT,2021-01-18T02:53:00Z,36.02,-84.23,5.6,-2.2,230,3,,10.0,29.861221,1012.1,,TRUE,TRUE,,,,,,,FEW,4300,SCT,5500,BKN,10000,,,VFR,0.6,,,,,0.005,0.005,,,,,METAR,276.0
KOPF 180253Z 00000KT 10SM CLR 17/11 A3009 RMK AO2 SLP190 T01670106 53010,KOPF,2021-01-18T02:53:00Z,25.92,-80.28,16.7,10.6,0,0,,10.0,30.088583,1019.0,,,TRUE,,,,,,,CLR,,,,,,,,VFR,1.0,,,,,,,,,,,METAR,1.0
KONT 180253Z 23004KT 10SM CLR 22/M03 A2995 RMK AO2 SLP133 T02171028 53002,KONT,2021-01-18T02:53:00Z,34.05,-117.58,21.7,-2.8,230,4,,10.0,29.949802,1013.3,,,TRUE,,,,,,,CLR,,,,,,,,VFR,0.2,,,,,,,,,,,METAR,279.0
KONO 180253Z AUTO 00000KT 10SM CLR 03/00 A3035 RMK AO2 SLP296 T00280000 55001,KONO,2021-01-18T02:53:00Z,44.02,-117.02,2.8,0.0,0,0,,10.0,30.351377,1029.6,,TRUE,TRUE,,,,,,,CLR,,,,,,,,VFR,-0.1,,,,,,,,,,,METAR,668.0
KOMK 180253Z AUTO 00000KT 10SM CLR M02/M03 A3038 RMK AO2 SLP303 T10171033 51011,KOMK,2021-01-18T02:53:00Z,48.47,-119.52,-1.7,-3.3,0,0,,10.0,30.380905,1030.3,,TRUE,TRUE,,,,,,,CLR,,,,,,,,VFR,1.1,,,,,,,,,,,METAR,395.0
KOJC 180253Z 00000KT 10SM CLR M01/M05 A2991 RMK AO2 SLP138 T10111050 58002 $,KOJC,2021-01-18T02:53:00Z,38.85,-94.73,-1.1,-5.0,0,0,,10.0,29.911417,1013.8,,,TRUE,TRUE,,,,,,CLR,,,,,,,,VFR,-0.2,,,,,,,,,,,METAR,328.0
KOGD 180253Z 00000KT 10SM OVC065 04/M03 A3013 RMK AO2 SLP211 T00391028 58015 $,KOGD,2021-01-18T02:53:00Z,41.2,-112.02,3.9,-2.8,0,0,,10.0,30.129921,1021.1,,,TRUE,TRUE,,,,,,OVC,6500,,,,,,,VFR,-1.5,,,,,,,,,,,METAR,1356.0
KOGB 180253Z AUTO 00000KT 10SM CLR 02/00 A2997 RMK AO2 SLP147 T00170000 51011,KOGB,2021-01-18T02:53:00Z,33.47,-80.85,1.7,0.0,0,0,,10.0,29.970472,1014.7,,TRUE,TRUE,,,,,,,CLR,,,,,,,,VFR,1.1,,,,,,,,,,,METAR,59.0
KODX 180253Z AUTO 22003KT 10SM OVC110 M02/M06 A2983 RMK AO2 SLP123 T10171061 56007,KODX,2021-01-18T02:53:00Z,41.62,-98.95,-1.7,-6.1,220,3,,10.0,29.828741,1012.3,,TRUE,TRUE,,,,,,,OVC,11000,,,,,,,VFR,-0.7,,,,,,,,,,,METAR,628.0
KODO 180253Z AUTO 10008KT 10SM CLR 07/ A3007 RMK AO2 SLP177 T0067 55001 $,KODO,2021-01-18T02:53:00Z,31.92,-102.4,6.7,,100,8,,10.0,30.070866,1017.7,,TRUE,TRUE,TRUE,,,,,,CLR,,,,,,,,VFR,-0.1,,,,,,,,,,,METAR,912.0
KOAK 180253Z 00000KT 10SM FEW250 18/07 A3000 RMK AO2 SLP160 T01780072 56007,KOAK,2021-01-18T02:53:00Z,37.72,-122.23,17.8,7.2,0,0,,10.0,30.0,1016.0,,,TRUE,,,,,,,FEW,25000,,,,,,,VFR,-0.7,,,,,,,,,,,METAR,3.0
KNUI 180253Z AUTO 19008KT 10SM OVC075 08/00 A2980 RMK AO2 SLP089 T00780000 58002 $,KNUI,2021-01-18T02:53:00Z,38.15,-76.43,7.8,0.0,190,8,,10.0,29.799213,1008.9,,TRUE,TRUE,TRUE,,,,,,OVC,7500,,,,,,,VFR,-0.2,,,,,,,,,,,METAR,4.0
KNSI 180253Z AUTO 30004KT 10SM CLR 21/M03 A2994 RMK AO2 SLP134 T02061033 55002,KNSI,2021-01-18T02:53:00Z,33.23,-119.45,20.6,-3.3,300,4,,10.0,29.940945,1013.4,,TRUE,TRUE,,,,,,,CLR,,,,,,,,VFR,-0.2,,,,,,,,,,,METAR,161.0
KNQX 180253Z 00000KT 10SM CLR 18/15 A3010 RMK AO2 SLP190 T01830150 52011,KNQX,2021-01-18T02:53:00Z,24.57,-81.67,18.3,15.0,0,0,,10.0,30.100393,1019.0,,,TRUE,,,,,,,CLR,,,,,,,,VFR,1.1,,,,,,,,,,,METAR,2.0
KNIP 180253Z 26009KT 10SM BKN250 10/03 A3005 RMK AO2 SLP171 T01000028 51010,KNIP,2021-01-18T02:53:00Z,30.23,-81.67,10.0,2.8,260,9,,10.0,30.050198,1017.1,,,TRUE,,,,,,,BKN,25000,,,,,,,VFR,1.0,,,,,,,,,,,METAR,3.0
KNEW 180253Z 23009KT 10SM CLR 12/01 A3009 RMK AO2 SLP181 T01220011 53014,KNEW,2021-01-18T02:53:00Z,30.05,-90.03,12.2,1.1,230,9,,10.0,30.088583,1018.1,,,TRUE,,,,,,,CLR,,,,,,,,VFR,1.4,,,,,,,,,,,METAR,1.0
KMYV 180253Z AUTO 20003KT 10SM CLR 12/06 A3001 RMK AO2 SLP164 T01220061 56004,KMYV,2021-01-18T02:53:00Z,39.1,-121.57,12.2,6.1,200,3,,10.0,30.008858,1016.4,,TRUE,TRUE,,,,,,,CLR,,,,,,,,VFR,-0.4,,,,,,,,,,,METAR,18.0
KMYF 180253Z 00000KT 10SM CLR 17/01 A2995 RMK AO2 SLP140 T01720006 51003,KMYF,2021-01-18T02:53:00Z,32.82,-117.13,17.2,0.6,0,0,,10.0,29.949802,1014.0,,,TRUE,,,,,,,CLR,,,,,,,,VFR,0.3,,,,,,,,,,,METAR,128.0
KMWT 180253Z AUTO 29003KT 10SM CLR 03/M06 A3000 RMK AO2 SLP167 T00331056 51012,KMWT,2021-01-18T02:53:00Z,34.55,-93.58,3.3,-5.6,290,3,,10.0,30.0,1016.7,,TRUE,TRUE,,,,,,,CLR,,,,,,,,VFR,1.2,,,,,,,,,,,METAR,220.0
KMWL 180253Z AUTO 00000KT 10SM CLR 07/M04 A3009 RMK AO2 SLP189 T00721044 51006,KMWL,2021-01-18T02:53:00Z,32.78,-98.07,7.2,-4.4,0,0,,10.0,30.088583,1018.9,,TRUE,TRUE,,,,,,,CLR,,,,,,,,VFR,0.6,,,,,,,,,,,METAR,288.0
KMVY 180253Z AUTO 24009KT 10SM FEW055 06/M02 A2967 RMK AO2 SLP046 T00561022 51013,KMVY,2021-01-18T02:53:00Z,41.4,-70.62,5.6,-2.2,240,9,,10.0,29.66929,1004.6,,TRUE,TRUE,,,,,,,FEW,5500,,,,,,,VFR,1.3,,,,,,,,,,,METAR,18.0
KMTO 180253Z AUTO 29012KT 10SM OVC020 M01/M04 A2983 RMK AO2 SLP108 60000 T10111039 51006,KMTO,2021-01-18T02:53:00Z,39.47,-88.27,-1.1,-3.9,290,12,,10.0,29.828741,1010.8,,TRUE,TRUE,,,,,,,OVC,2000,,,,,,,MVFR,0.6,,,,,,0.005,,,,,METAR,216.0
KMTJ 180253Z AUTO 14005KT 10SM CLR M02/M06 A3011 RMK AO2 SLP205 T10171061 58001,KMTJ,2021-01-18T02:53:00Z,38.5,-107.9,-1.7,-6.1,140,5,,10.0,30.109253,1020.5,,TRUE,TRUE,,,,,,,CLR,,,,,,,,VFR,-0.1,,,,,,,,,,,METAR,1755.0
KMTH 180253Z AUTO 00000KT 10SM BKN060 17/13 A3009 RMK AO2 SLP187 T01720128 53010 $,KMTH,2021-01-18T02:53:00Z,24.73,-81.05,17.2,12.8,0,0,,10.0,30.088583,1018.7,,TRUE,TRUE,TRUE,,,,,,BKN,6000,,,,,,,VFR,1.0,,,,,,,,,,,METAR,1.0
KMSY 180253Z 24006KT 10SM CLR 11/M01 A3009 RMK AO2 SLP191 T01061006 53015,KMSY,2021-01-18T02:53:00Z,30.0,-90.25,10.6,-0.6,240,6,,10.0,30.088583,1019.1,,,TRUE,,,,,,,CLR,,,,,,,,VFR,1.5,,,,,,,,,,,METAR,0.0
KMSO 180253Z 34005KT 10SM BKN050 BKN060 BKN090 01/M02 A3019 RMK AO2 SLP252 T00111022 51010,KMSO,2021-01-18T02:53:00Z,46.92,-114.1,1.1,-2.2,340,5,,10.0,30.188976,1025.2,,,TRUE,,,,,,,BKN,5000,BKN,6000,BKN,9000,,,VFR,1.0,,,,,,,,,,,METAR,974.0
KMSL 180253Z AUTO 26006KT 10SM CLR 04/M06 A2995 RMK AO2 SLP141 T00441056 51014,KMSL,2021-01-18T02:53:00Z,34.75,-87.6,4.4,-5.6,260,6,,10.0,29.949802,1014.1,,TRUE,TRUE,,,,,,,CLR,,,,,,,,VFR,1.4,,,,,,,,,,,METAR,170.0
KMRB 180253Z AUTO 00000KT 10SM FEW046 OVC060 02/M03 A2974 RMK AO2 SLP073 T00221028 58002,KMRB,2021-01-18T02:53:00Z,39.4,-77.98,2.2,-2.8,0,0,,10.0,29.740158,1007.3,,TRUE,TRUE,,,,,,,FEW,4600,OVC,6000,,,,,VFR,-0.2,,,,,,,,,,,METAR,165.0
KMOD 180253Z 00000KT 10SM CLR 13/07 A3000 RMK AO2 SLP160 T01280067 55005,KMOD,2021-01-18T02:53:00Z,37.62,-120.95,12.8,6.7,0,0,,10.0,30.0,1016.0,,,TRUE,,,,,,,CLR,,,,,,,,VFR,-0.5,,,,,,,,,,,METAR,25.0
KMMK 180253Z AUTO 21004KT 10SM OVC060 05/M04 A2967 RMK AO2 SLP047 T00501044 51008,KMMK,2021-01-18T02:53:00Z,41.52,-72.83,5.0,-4.4,210,4,,10.0,29.66929,1004.7,,TRUE,TRUE,,,,,,,OVC,6000,,,,,,,VFR,0.8,,,,,,,,,,,METAR,30.0
KMLU 180253Z 26007KT 10SM CLR 06/M03 A3009 RMK AO2 SLP189 T00611028 51013,KMLU,2021-01-18T02:53:00Z,32.52,-92.03,6.1,-2.8,260,7,,10.0,30.088583,1018.9,,,TRUE,,,,,,,CLR,,,,,,,,VFR,1.3,,,,,,,,,,,SPECI,22.0
KMLT 180253Z AUTO 27005KT 10SM OVC034 01/M04 A2933 RMK AO2 SLP941 T00061044 51024,KMLT,2021-01-18T02:53:00Z,45.65,-68.7,0.6,-4.4,270,5,,10.0,29.329725,994.1,,TRUE,TRUE,,,,,,,OVC,3400,,,,,,,VFR,2.4,,,,,,,,,,,METAR,121.0
KMLS 180253Z AUTO 31017G22KT 9SM OVC011 01/M01 A2981 RMK AO2 RAB25E35UPB48E51SNE25B35E48 SLP121 P0001 60002 T00111006 53009,KMLS,2021-01-18T02:53:00Z,46.43,-105.88,1.1,-0.6,310,17,22,9.0,29.811024,1012.1,,TRUE,TRUE,,,,,,,OVC,1100,,,,,,,MVFR,0.9,,,,,0.01,0.02,,,,,METAR,800.0
KMLC 180253Z AUTO 00000KT 10SM FEW090 M01/M06 A3005 RMK AO2 SLP178 T10061061 51005,KMLC,2021-01-18T02:53:00Z,34.88,-95.78,-0.6,-6.1,0,0,,10.0,30.050198,1017.8,,TRUE,TRUE,,,,,,,FEW,9000,,,,,,,VFR,0.5,,,,,,,,,,,METAR,231.0
KMLB 180253Z 26003KT 10SM CLR 13/10 A3006 RMK AO2 SLP179 T01280100 53002,KMLB,2021-01-18T02:53:00Z,28.1,-80.65,12.8,10.0,260,3,,10.0,30.059055,1017.9,,,TRUE,,,,,,,CLR,,,,,,,,VFR,0.2,,,,,,,,,,,METAR,7.0
KMKO 180253Z AUTO 27006KT 10SM CLR 04/M06 A3003 RMK AO2 SLP172 T00391056 50003,KMKO,2021-01-18T02:53:00Z,35.65,-95.37,3.9,-5.6,270,6,,10.0,30.029528,1017.2,,TRUE,TRUE,,,,,,,CLR,,,,,,,,VFR,0.3,,,,,,,,,,,METAR,184.0
KMKL 180253Z AUTO 24006KT 10SM SCT070 BKN100 03/M03 A2994 RMK AO2 SLP139 60000 T00331033 53005,KMKL,2021-01-18T02:53:00Z,35.6,-88.92,3.3,-3.3,240,6,,10.0,29.940945,1013.9,,TRUE,TRUE,,,,,,,SCT,7000,BKN,10000,,,,,VFR,0.5,,,,,,0.005,,,,,METAR,130.0
KMIW 180253Z AUTO 30007KT 10SM OVC018 M03/M05 A2981 RMK AO2 SLP107 T10281050 58001 $,KMIW,2021-01-18T02:53:00Z,42.12,-92.92,-2.8,-5.0,300,7,,10.0,29.811024,1010.7,,TRUE,TRUE,TRUE,,,,,,OVC,1800,,,,,,,MVFR,-0.1,,,,,,,,,,,METAR,296.0
KMIC 180253Z 33005KT 9SM OVC027 M06/M09 A2980 RMK AO2 SNB39E49 SLP107 P0000 60000 T10611089 53004,KMIC,2021-01-18T02:53:00Z,45.07,-93.35,-6.1,-8.9,330,5,,9.0,29.799213,1010.7,,,TRUE,,,,,,,OVC,2700,,,,,,,MVFR,0.4,,,,,0.005,0.005,,,,,METAR,263.0
KMIA 180253Z 20003KT 10SM FEW050 BKN140 OVC180 18/11 A3009 RMK AO2 SLP188 T01780106 51009 $,KMIA,2021-01-18T02:53:00Z,25.8,-80.32,17.8,10.6,200,3,,10.0,30.088583,1018.8,,,TRUE,TRUE,,,,,,FEW,5000,BKN,14000,OVC,18000,,,VFR,0.9,,,,,,,,,,,METAR,1.0
KMHT 180253Z 25010KT 10SM OVC046 05/M04 A2954 RMK AO2 SLP021 T00501044 51018,KMHT,2021-01-18T02:53:00Z,42.93,-71.43,5.0,-4.4,250,10,,10.0,29.53937,1002.1,,,TRUE,,,,,,,OVC,4600,,,,,,,VFR,1.8,,,,,,,,,,,METAR,68.0
KMHE 180253Z AUTO 34003KT 10SM CLR M02/M06 A2984 RMK AO2 SLP120 T10171056 58005 TSNO,KMHE,2021-01-18T02:53:00Z,43.77,-98.03,-1.7,-5.6,340,3,,10.0,29.840551,1012.0,,TRUE,TRUE,,,TRUE,,,,CLR,,,,,,,,VFR,-0.5,,,,,,,,,,,METAR,397.0
KMGW 180253Z 23006KT 9SM -SN BKN013 OVC019 01/M01 A2974 RMK AO2 SLP082 P0000 60001 T00111011 53001,KMGW,2021-01-18T02:53:00Z,39.65,-79.92,1.1,-1.1,230,6,,9.0,29.740158,1008.2,,,TRUE,,,,,,-SN,BKN,1300,OVC,1900,,,,,MVFR,0.1,,,,,0.005,0.01,,,,,METAR,375.0
KMGM 180253Z 24008KT 10SM FEW080 08/M01 A2999 RMK AO2 SLP155 T00831006 53011,KMGM,2021-01-18T02:53:00Z,32.3,-86.4,8.3,-0.6,240,8,,10.0,29.991142,1015.5,,,TRUE,,,,,,,FEW,8000,,,,,,,VFR,1.1,,,,,,,,,,,SPECI,64.0
KMFR 180253Z 00000KT 8SM CLR 06/04 A3038 RMK AO2 SLP293 T00560039 53007,KMFR,2021-01-18T02:53:00Z,42.38,-122.87,5.6,3.9,0,0,,8.0,30.380905,1029.3,,,TRUE,,,,,,,CLR,,,,,,,,VFR,0.7,,,,,,,,,,,METAR,397.0
KMFE 180253Z 09006KT 10SM CLR 17/13 A3009 RMK AO2 SLP189 T01720128 53014 $,KMFE,2021-01-18T02:53:00Z,26.18,-98.25,17.2,12.8,90,6,,10.0,30.088583,1018.9,,,TRUE,TRUE,,,,,,CLR,,,,,,,,VFR,1.4,,,,,,,,,,,METAR,29.0
KMDW 180253Z 29006KT 8SM -SN FEW032 BKN042 OVC050 M01/M04 A2976 RMK AO2 SLP088 P0000 60000 T10061044 52007,KMDW,2021-01-18T02:53:00Z,41.78,-87.75,-0.6,-4.4,290,6,,8.0,29.760826,1008.8,,,TRUE,,,,,,-SN,FEW,3200,BKN,4200,OVC,5000,,,VFR,0.7,,,,,0.005,0.005,,,,,METAR,186.0
KMCW 180253Z AUTO 30008KT 10SM OVC013 M03/M06 A2980 RMK AO2 SLP103 T10331061 56000,KMCW,2021-01-18T02:53:00Z,43.15,-93.33,-3.3,-6.1,300,8,,10.0,29.799213,1010.3,,TRUE,TRUE,,,,,,,OVC,1300,,,,,,,MVFR,0.0,,,,,,,,,,,METAR,363.0
KMCO 180253Z 00000KT 10SM FEW060 BKN180 12/08 A3007 RMK AO2 SLP180 T01170078 53001,KMCO,2021-01-18T02:53:00Z,28.42,-81.33,11.7,7.8,0,0,,10.0,30.070866,1018.0,,,TRUE,,,,,,,FEW,6000,BKN,18000,,,,,VFR,0.1,,,,,,,,,,,METAR,27.0
KMCN 180253Z AUTO 25003KT 10SM CLR 05/M02 A2997 RMK AO2 SLP150 T00501022 53010,KMCN,2021-01-18T02:53:00Z,32.68,-83.65,5.0,-2.2,250,3,,10.0,29.970472,1015.0,,TRUE,TRUE,,,,,,,CLR,,,,,,,,VFR,1.0,,,,,,,,,,,SPECI,104.0
KMCK 180253Z AUTO VRB03KT 10SM BKN090 OVC100 02/M11 A2985 RMK AO2 SLP132 T00171106 56010,KMCK,2021-01-18T02:53:00Z,40.2,-100.58,1.7,-10.6,0,3,,10.0,29.84941,1013.2,,TRUE,TRUE,,,,,,,BKN,9000,OVC,10000,,,,,VFR,-1.0,,,,,,,,,,,METAR,780.0
KMCI 180253Z 29004KT 10SM SCT180 02/M04 A2990 RMK AO2 SLP134 T00171039 58002,KMCI,2021-01-18T02:53:00Z,39.3,-94.73,1.7,-3.9,290,4,,10.0,29.899607,1013.4,,,TRUE,,,,,,,SCT,18000,,,,,,,VFR,-0.2,,,,,,,,,,,METAR,308.0
KMCE 180253Z AUTO 00000KT 4SM HZ CLR 13/08 A3001 RMK AO2 SLP162 T01330083 55005,KMCE,2021-01-18T02:53:00Z,37.28,-120.5,13.3,8.3,0,0,,4.0,30.008858,1016.2,,TRUE,TRUE,,,,,,HZ,CLR,,,,,,,,MVFR,-0.5,,,,,,,,,,,METAR,49.0
KMCB 180253Z AUTO 31006KT 10SM OVC100 10/M03 A3007 RMK AO2 SLP182 T01001028 53018,KMCB,2021-01-18T02:53:00Z,31.18,-90.47,10.0,-2.8,310,6,,10.0,30.070866,1018.2,,TRUE,TRUE,,,,,,,OVC,10000,,,,,,,VFR,1.8,,,,,,,,,,,METAR,124.0
KMBS 180253Z 27005KT 3SM -SN BR FEW043 OVC060 M01/M03 A2968 RMK AO2 SLP058 P0000 60000 T10111028 50001 $,KMBS,2021-01-18T02:53:00Z,43.53,-84.08,-1.1,-2.8,270,5,,3.0,29.681103,1005.8,,,TRUE,TRUE,,,,,-SN BR,FEW,4300,OVC,6000,,,,,MVFR,0.1,,,,,0.005,0.005,,,,,METAR,201.0
KMAI 180253Z AUTO 22006KT 10SM CLR 07/01 A3003 RMK AO2 SLP169 T00670011 53013,KMAI,2021-01-18T02:53:00Z,30.83,-85.18,6.7,1.1,220,6,,10.0,30.029528,1016.9,,TRUE,TRUE,,,,,,,CLR,,,,,,,,VFR,1.3,,,,,,,,,,,METAR,33.0
KMAF 180253Z 09006KT 10SM CLR 06/M04 A3007 RMK AO2 SLP180 T00561039 58001,KMAF,2021-01-18T02:53:00Z,31.95,-102.2,5.6,-3.9,90,6,,10.0,30.070866,1018.0,,,TRUE,,,,,,,CLR,,,,,,,,VFR,-0.1,,,,,,,,,,,METAR,874.0
KMAE 180253Z AUTO 00000KT 5SM HZ CLR 14/07 A3002 RMK AO2 SLP167 T01440072 55007,KMAE,2021-01-18T02:53:00Z,36.98,-120.12,14.4,7.2,0,0,,5.0,30.02067,1016.7,,TRUE,TRUE,,,,,,HZ,CLR,,,,,,,,MVFR,-0.7,,,,,,,,,,,METAR,77.0
KLXV 180253Z AUTO 32009G21KT 300V360 10SM FEW120 M02/M12 A3001 RMK AO2 SLP125 T10221117 58014,KLXV,2021-01-18T02:53:00Z,39.23,-106.32,-2.2,-11.7,320,9,21,10.0,30.008858,1012.5,,TRUE,TRUE,,,,,,,FEW,12000,,,,,,,VFR,-1.4,,,,,,,,,,,METAR,3027.0
KLXT 180253Z AUTO 30003KT 10SM CLR 02/M04 A2991 RMK AO2 SLP139 T00171044 57000,KLXT,2021-01-18T02:53:00Z,38.97,-94.37,1.7,-4.4,300,3,,10.0,29.911417,1013.9,,TRUE,TRUE,,,,,,,CLR,,,,,,,,VFR,0.0,,,,,,,,,,,METAR,306.0
KLWV 180253Z AUTO 27007KT 10SM FEW013 OVC090 M01/M02 A2986 RMK AO2 SLP117 60000 T10061022 51004,KLWV,2021-01-18T02:53:00Z,38.77,-87.6,-0.6,-2.2,270,7,,10.0,29.861221,1011.7,,TRUE,TRUE,,,,,,,FEW,1300,OVC,9000,,,,,VFR,0.4,,,,,,0.005,,,,,METAR,128.0
KLWD 180253Z AUTO 25004KT 10SM OVC046 M01/M04 A2985 RMK AO2 SLP123 T10111039 58002,KLWD,2021-01-18T02:53:00Z,40.63,-93.9,-1.1,-3.9,250,4,,10.0,29.84941,1012.3,,TRUE,TRUE,,,,,,,OVC,4600,,,,,,,VFR,-0.2,,,,,,,,,,,METAR,345.0
KLVS 180253Z AUTO 17009KT 10SM CLR M01/M11 A3000 RMK AO2 SLP157 T10111106 50000,KLVS,2021-01-18T02:53:00Z,35.65,-105.13,-1.1,-10.6,170,9,,10.0,30.0,1015.7,,TRUE,TRUE,,,,,,,CLR,,,,,,,,VFR,0.0,,,,,,,,,,,METAR,2095.0
KLVM 180253Z AUTO 27021G29KT 10SM OVC090 03/M09 A3000 RMK AO2 PK WND 27034/0157 SLP170 T00331089 53008,KLVM,2021-01-18T02:53:00Z,45.7,-110.43,3.3,-8.9,270,21,29,10.0,30.0,1017.0,,TRUE,TRUE,,,,,,,OVC,9000,,,,,,,VFR,0.8,,,,,,,,,,,METAR,1418.0
KLVK 180253Z 00000KT 10SM CLR 14/03 A3001 RMK AO2 SLP163 T01440028 55002,KLVK,2021-01-18T02:53:00Z,37.7,-121.82,14.4,2.8,0,0,,10.0,30.008858,1016.3,,,TRUE,,,,,,,CLR,,,,,,,,VFR,-0.2,,,,,,,,,,,METAR,120.0
KLVJ 180253Z AUTO VRB03KT 9SM CLR 08/01 A3013 RMK AO2 SLP202 T00830011 51016,KLVJ,2021-01-18T02:53:00Z,29.52,-95.25,8.3,1.1,0,3,,9.0,30.129921,1020.2,,TRUE,TRUE,,,,,,,CLR,,,,,,,,VFR,1.6,,,,,,,,,,,METAR,11.0
KLSE 180253Z 30007KT 10SM OVC024 M02/M07 A2978 RMK AO2 SLP097 T10171067 51000,KLSE,2021-01-18T02:53:00Z,43.88,-91.25,-1.7,-6.7,300,7,,10.0,29.778543,1009.7,,,TRUE,,,,,,,OVC,2400,,,,,,,MVFR,0.0,,,,,,,,,,,METAR,198.0
KLPR 180253Z AUTO 26008KT 3SM -SN BKN010 OVC030 00/M03 A2970 RMK AO2 SLP064 P0000 60002 T00001028 58002,KLPR,2021-01-18T02:53:00Z,41.35,-82.18,0.0,-2.8,260,8,,3.0,29.698818,1006.4,,TRUE,TRUE,,,,,,-SN,BKN,1000,OVC,3000,,,,,MVFR,-0.2,,,,,0.005,0.02,,,,,METAR,241.0
KLOZ 180253Z AUTO 27006KT 10SM FEW029 BKN039 OVC050 01/M02 A2984 RMK AO2 SNB19E45 SLP112 P0000 60000 T00111017 53008,KLOZ,2021-01-18T02:53:00Z,37.08,-84.07,1.1,-1.7,270,6,,10.0,29.840551,1011.2,,TRUE,TRUE,,,,,,,FEW,2900,BKN,3900,OVC,5000,,,VFR,0.8,,,,,0.005,0.005,,,,,METAR,361.0
KLOL 180253Z AUTO 06005KT 10SM CLR 01/M04 A3023 RMK AO2 SLP267 T00111039 55001,KLOL,2021-01-18T02:53:00Z,40.07,-118.57,1.1,-3.9,60,5,,10.0,30.230314,1026.7,,TRUE,TRUE,,,,,,,CLR,,,,,,,,VFR,-0.1,,,,,,,,,,,METAR,1191.0
KLNS 180253Z 25004KT 10SM BKN060 OVC095 04/M03 A2973 RMK AO2 SLP071 T00391033 58000,KLNS,2021-01-18T02:53:00Z,40.12,-76.3,3.9,-3.3,250,4,,10.0,29.731298,1007.1,,,TRUE,,,,,,,BKN,6000,OVC,9500,,,,,VFR,0.0,,,,,,,,,,,METAR,122.0
KLND 180253Z AUTO 24007KT 10SM FEW080 SCT090 02/M05 A2988 RMK AO2 SLP145 T00171050 53015,KLND,2021-01-18T02:53:00Z,42.82,-108.73,1.7,-5.0,240,7,,10.0,29.878937,1014.5,,TRUE,TRUE,,,,,,,FEW,8000,SCT,9000,,,,,VFR,1.5,,,,,,,,,,,METAR,1700.0
KLMT 180253Z 00000KT 10SM CLR 03/00 A3033 RMK AO2 SLP286 T00280000 53005,KLMT,2021-01-18T02:53:00Z,42.15,-121.72,2.8,0.0,0,0,,10.0,30.33071,1028.6,,,TRUE,,,,,,,CLR,,,,,,,,VFR,0.5,,,,,,,,,,,METAR,1246.0
KLLQ 180253Z AUTO 24006KT 10SM CLR 06/M03 A3003 RMK AO2 SLP171 T00611033 51013,KLLQ,2021-01-18T02:53:00Z,33.63,-91.75,6.1,-3.3,240,6,,10.0,30.029528,1017.1,,TRUE,TRUE,,,,,,,CLR,,,,,,,,VFR,1.3,,,,,,,,,,,METAR,86.0
KLKV 180253Z AUTO 36008KT 10SM CLR 03/M03 A3035 RMK AO2 SLP312 T00331028 53009 $,KLKV,2021-01-18T02:53:00Z,42.17,-120.4,3.3,-2.8,360,8,,10.0,30.351377,1031.2,,TRUE,TRUE,TRUE,,,,,,CLR,,,,,,,,VFR,0.9,,,,,,,,,,,METAR,1440.0
KLIT 180253Z 24005KT 10SM CLR 05/M04 A3001 RMK AO2 SLP164 T00501044 51010,KLIT,2021-01-18T02:53:00Z,34.73,-92.23,5.0,-4.4,240,5,,10.0,30.008858,1016.4,,,TRUE,,,,,,,CLR,,,,,,,,VFR,1.0,,,,,,,,,,,SPECI,77.0
KLHX 180253Z AUTO 03005KT 10SM CLR M01/M08 A2986 RMK AO2 SLP126 T10061078 58025,KLHX,2021-01-18T02:53:00Z,38.05,-103.52,-0.6,-7.8,30,5,,10.0,29.861221,1012.6,,TRUE,TRUE,,,,,,,CLR,,,,,,,,VFR,-2.5,,,,,,,,,,,METAR,1289.0
KLGB 180253Z 00000KT 10SM CLR 20/01 A2992 RMK AO2 SLP131 T02000006 53004 $,KLGB,2021-01-18T02:53:00Z,33.82,-118.15,20.0,0.6,0,0,,10.0,29.920275,1013.1,,,TRUE,TRUE,,,,,,CLR,,,,,,,,VFR,0.4,,,,,,,,,,,METAR,10.0
KLFT 180253Z 00000KT 10SM CLR 08/03 A3011 RMK AO2 SLP196 T00830028 52019,KLFT,2021-01-18T02:53:00Z,30.2,-91.97,8.3,2.8,0,0,,10.0,30.109253,1019.6,,,TRUE,,,,,,,CLR,,,,,,,,VFR,1.9,,,,,,,,,,,METAR,9.0
KLFK 180253Z AUTO 00000KT 10SM CLR 04/M02 A3012 RMK AO2 SLP198 T00441022 53010 $,KLFK,2021-01-18T02:53:00Z,31.23,-94.75,4.4,-2.2,0,0,,10.0,30.121063,1019.8,,TRUE,TRUE,TRUE,,,,,,CLR,,,,,,,,VFR,1.0,,,,,,,,,,,METAR,87.0
KLEE 180253Z AUTO 27004KT 10SM CLR 11/08 A3007 RMK AO2 SLP183 T01110078 53002,KLEE,2021-01-18T02:53:00Z,28.82,-81.82,11.1,7.8,270,4,,10.0,30.070866,1018.3,,TRUE,TRUE,,,,,,,CLR,,,,,,,,VFR,0.2,,,,,,,,,,,METAR,21.0
KLEB 180253Z 27006KT 10SM OVC036 02/M04 A2953 RMK AO2 SLP005 T00171044 51015,KLEB,2021-01-18T02:53:00Z,43.63,-72.3,1.7,-4.4,270,6,,10.0,29.530512,1000.5,,,TRUE,,,,,,,OVC,3600,,,,,,,VFR,1.5,,,,,,,,,,,METAR,169.0
KLCH 180253Z 00000KT 10SM CLR 06/04 A3012 RMK AO2 SLP205 T00610044 51019,KLCH,2021-01-18T02:53:00Z,30.13,-93.22,6.1,4.4,0,0,,10.0,30.121063,1020.5,,,TRUE,,,,,,,CLR,,,,,,,,VFR,1.9,,,,,,,,,,,METAR,2.0
KLBF 180253Z AUTO 17003KT 10SM OVC070 02/M08 A2983 RMK AO2 SLP125 T00221083 55009,KLBF,2021-01-18T02:53:00Z,41.12,-100.67,2.2,-8.3,170,3,,10.0,29.828741,1012.5,,TRUE,TRUE,,,,,,,OVC,7000,,,,,,,VFR,-0.9,,,,,,,,,,,METAR,843.0
KLBB 180253Z 17008KT 10SM FEW200 SCT250 04/M04 A3005 RMK AO2 SLP178 T00441039 58010,KLBB,2021-01-18T02:53:00Z,33.67,-101.82,4.4,-3.9,170,8,,10.0,30.050198,1017.8,,,TRUE,,,,,,,FEW,20000,SCT,25000,,,,,VFR,-1.0,,,,,,,,,,,METAR,996.0
KLAX 180253Z 26006KT 10SM CLR 18/05 A2993 RMK AO2 SLP133 T01830050 55002,KLAX,2021-01-18T02:53:00Z,33.93,-118.38,18.3,5.0,260,6,,10.0,29.929134,1013.3,,,TRUE,,,,,,,CLR,,,,,,,,VFR,-0.2,,,,,,,,,,,METAR,30.0
KLAW 180253Z AUTO 00000KT 10SM CLR 01/M06 A3005 RMK AO2 SLP180 T00061056 58000,KLAW,2021-01-18T02:53:00Z,34.55,-98.42,0.6,-5.6,0,0,,10.0,30.050198,1018.0,,TRUE,TRUE,,,,,,,CLR,,,,,,,,VFR,0.0,,,,,,,,,,,METAR,328.0
KLAR 180253Z AUTO 28025G35KT 10SM BKN090 02/M07 A2982 RMK AO2 PK WND 27036/0242 SLP100 T00171072 56014 $,KLAR,2021-01-18T02:53:00Z,41.32,-105.67,1.7,-7.2,280,25,35,10.0,29.819881,1010.0,,TRUE,TRUE,TRUE,,,,,,BKN,9000,,,,,,,VFR,-1.4,,,,,,,,,,,METAR,2217.0
KLAA 180253Z AUTO VRB05KT 10SM CLR 00/M09 A2986 RMK AO2 SLP127 T00001094 58022,KLAA,2021-01-18T02:53:00Z,38.07,-102.68,0.0,-9.4,0,5,,10.0,29.861221,1012.7,,TRUE,TRUE,,,,,,,CLR,,,,,,,,VFR,-2.2,,,,,,,,,,,METAR,1129.0
KJLN 180253Z 00000KT 10SM CLR 02/M05 A2996 RMK AO2 SLP151 T00221050 50002,KJLN,2021-01-18T02:53:00Z,37.15,-94.5,2.2,-5.0,0,0,,10.0,29.958662,1015.1,,,TRUE,,,,,,,CLR,,,,,,,,VFR,0.2,,,,,,,,,,,METAR,297.0
KJKL 180253Z AUTO VRB03KT 7SM 01/M02 A2981 RMK AO2 SNB11E52 SLP101 P0001 60001 T00061017 56000 $,KJKL,2021-01-18T02:53:00Z,37.6,-83.32,0.6,-1.7,0,3,,7.0,29.811024,1010.1,,TRUE,TRUE,TRUE,,,,,,,,,,,,,,,0.0,,,,,0.01,0.01,,,,,METAR,414.0
KJER 180253Z AUTO 27021G31KT 10SM CLR 02/M01 A3019 RMK AO2 PK WND 28031/0252 SLP243 T00171006 56003,KJER,2021-01-18T02:53:00Z,42.72,-114.45,1.7,-0.6,270,21,31,10.0,30.188976,1024.3,,TRUE,TRUE,,,,,,,CLR,,,,,,,,VFR,-0.3,,,,,,,,,,,METAR,1226.0
KJEF 180253Z 32003KT 10SM OVC034 03/M02 A2990 RMK AO2 SLP121 T00331022 51000,KJEF,2021-01-18T02:53:00Z,38.6,-92.15,3.3,-2.2,320,3,,10.0,29.899607,1012.1,,,TRUE,,,,,,,OVC,3400,,,,,,,VFR,0.0,,,,,,,,,,,METAR,167.0
KJBR 180253Z AUTO 26004KT 10SM OVC085 07/M04 A2995 RMK AO2 SLP142 T00671039 51010 TSNO $,KJBR,2021-01-18T02:53:00Z,35.83,-90.65,6.7,-3.9,260,4,,10.0,29.949802,1014.2,,TRUE,TRUE,TRUE,,TRUE,,,,OVC,8500,,,,,,,VFR,1.0,,,,,,,,,,,METAR,79.0
KIXD 180253Z 00000KT 10SM CLR M02/M06 A2991 RMK AO2 SLP139 T10171056 58003,KIXD,2021-01-18T02:53:00Z,38.82,-94.88,-1.7,-5.6,0,0,,10.0,29.911417,1013.9,,,TRUE,,,,,,,CLR,,,,,,,,VFR,-0.3,,,,,,,,,,,METAR,322.0
KIWI 180253Z AUTO 00000KT 10SM SCT047 OVC060 01/M03 A2948 RMK AO2 SLP984 T00061028 53022,KIWI,2021-01-18T02:53:00Z,43.97,-69.72,0.6,-2.8,0,0,,10.0,29.480314,998.4,,TRUE,TRUE,,,,,,,SCT,4700,OVC,6000,,,,,VFR,2.2,,,,,,,,,,,METAR,16.0
KITR 180253Z AUTO 24008KT 10SM CLR 02/M09 A2987 RMK AO2 SLP126 T00171089 58011 $,KITR,2021-01-18T02:53:00Z,39.23,-102.28,1.7,-8.9,240,8,,10.0,29.870079,1012.6,,TRUE,TRUE,TRUE,,,,,,CLR,,,,,,,,VFR,-1.1,,,,,,,,,,,METAR,1285.0
KIPL 180253Z AUTO 00000KT 10SM CLR 18/M01 A2992 RMK AO2 SLP130 T01831006 56007 $,KIPL,2021-01-18T02:53:00Z,32.83,-115.58,18.3,-0.6,0,0,,10.0,29.920275,1013.0,,TRUE,TRUE,TRUE,,,,,,CLR,,,,,,,,VFR,-0.7,,,,,,,,,,,METAR,-16.0
KINK 180253Z AUTO 13005KT 10SM CLR 07/M06 A3005 RMK AO2 SLP171 T00721061 51005,KINK,2021-01-18T02:53:00Z,31.78,-103.2,7.2,-6.1,130,5,,10.0,30.050198,1017.1,,TRUE,TRUE,,,,,,,CLR,,,,,,,,VFR,0.5,,,,,,,,,,,METAR,857.0
KIML 180253Z AUTO 26007KT 10SM BKN080 OVC095 04/M07 A2983 RMK AO2 SLP126 T00391067 56009,KIML,2021-01-18T02:53:00Z,40.52,-101.62,3.9,-6.7,260,7,,10.0,29.828741,1012.6,,TRUE,TRUE,,,,,,,BKN,8000,OVC,9500,,,,,VFR,-0.9,,,,,,,,,,,METAR,997.0
KILM 180253Z 25008KT 10SM CLR 07/M01 A2995 RMK AO2 SLP141 T00671006 53007,KILM,2021-01-18T02:53:00Z,34.27,-77.9,6.7,-0.6,250,8,,10.0,29.949802,1014.1,,,TRUE,,,,,,,CLR,,,,,,,,VFR,0.7,,,,,,,,,,,METAR,9.0
KIDA 180253Z 00000KT 6SM BR OVC004 M03/M04 A3017 RMK AO2 SLP257 I3000 T10331039 51008,KIDA,2021-01-18T02:53:00Z,43.52,-112.07,-3.3,-3.9,0,0,,6.0,30.171259,1025.7,,,TRUE,,,,,,BR,OVC,400,,,,,,,LIFR,0.8,,,,,,,,,,,METAR,1444.0
KICT 180253Z 24007KT 10SM CLR M01/M08 A2995 RMK AO2 SLP151 T10111078 56006,KICT,2021-01-18T02:53:00Z,37.65,-97.43,-1.1,-7.8,240,7,,10.0,29.949802,1015.1,,,TRUE,,,,,,,CLR,,,,,,,,VFR,-0.6,,,,,,,,,,,METAR,428.0
KICR 180253Z AUTO 12004KT 10SM OVC110 M02/M08 A2979 RMK AO2 SLP112 T10221083 58011,KICR,2021-01-18T02:53:00Z,43.38,-99.85,-2.2,-8.3,120,4,,10.0,29.790354,1011.2,,TRUE,TRUE,,,,,,,OVC,11000,,,,,,,VFR,-1.1,,,,,,,,,,,METAR,618.0
KIAH 180253Z 00000KT 10SM CLR 09/00 A3011 RMK AO2 SLP198 T00890000 51015 $,KIAH,2021-01-18T02:53:00Z,30.0,-95.37,8.9,0.0,0,0,,10.0,30.109253,1019.8,,,TRUE,TRUE,,,,,,CLR,,,,,,,,VFR,1.5,,,,,,,,,,,METAR,27.0
KIAG 180253Z 25008KT 10SM BKN048 OVC080 01/M02 A2963 RMK AO2 SLP045 T00061017 50000 $,KIAG,2021-01-18T02:53:00Z,43.12,-78.93,0.6,-1.7,250,8,,10.0,29.630905,1004.5,,,TRUE,TRUE,,,,,,BKN,4800,OVC,8000,,,,,VFR,0.0,,,,,,,,,,,METAR,179.0
KHYR 180253Z AUTO 00000KT 10SM OVC014 M04/M08 A2974 RMK AO2 SLP088 T10441083 57001 $,KHYR,2021-01-18T02:53:00Z,46.02,-91.45,-4.4,-8.3,0,0,,10.0,29.740158,1008.8,,TRUE,TRUE,TRUE,,,,,,OVC,1400,,,,,,,MVFR,-0.1,,,,,,,,,,,METAR,369.0
KHWO 180253Z AUTO 00000KT 10SM CLR 17/10 A3010 RMK AO2 SLP191 T01670100 53009,KHWO,2021-01-18T02:53:00Z,26.0,-80.23,16.7,10.0,0,0,,10.0,30.100393,1019.1,,TRUE,TRUE,,,,,,,CLR,,,,,,,,VFR,0.9,,,,,,,,,,,METAR,2.0
KHVR 180253Z AUTO 23011KT 10SM SCT110 02/M01 A2992 RMK AO2 SLP156 T00171011 51010,KHVR,2021-01-18T02:53:00Z,48.55,-109.77,1.7,-1.1,230,11,,10.0,29.920275,1015.6,,TRUE,TRUE,,,,,,,SCT,11000,,,,,,,VFR,1.0,,,,,,,,,,,METAR,789.0
KHVN 180253Z 23008KT 10SM BKN065 06/M02 A2968 RMK AO2 SLP051 T00611017 51007,KHVN,2021-01-18T02:53:00Z,41.27,-72.88,6.1,-1.7,230,8,,10.0,29.681103,1005.1,,,TRUE,,,,,,,BKN,6500,,,,,,,VFR,0.7,,,,,,,,,,,METAR,4.0
KHTL 180253Z AUTO 03006KT 10SM OVC019 M03/M06 A2966 RMK AO2 SLP058 60000 T10281056 53002,KHTL,2021-01-18T02:53:00Z,44.35,-84.67,-2.8,-5.6,30,6,,10.0,29.660433,1005.8,,TRUE,TRUE,,,,,,,OVC,1900,,,,,,,MVFR,0.2,,,,,,0.005,,,,,METAR,350.0
KHSV 180253Z 30006KT 10SM FEW090 05/M04 A2994 RMK AO2 SLP140 T00501044 53017,KHSV,2021-01-18T02:53:00Z,34.65,-86.78,5.0,-4.4,300,6,,10.0,29.940945,1014.0,,,TRUE,,,,,,,FEW,9000,,,,,,,VFR,1.7,,,,,,,,,,,SPECI,190.0
KHSI 180253Z AUTO 25004KT 10SM SCT120 01/M07 A2986 RMK AO2 SLP129 T00061072 58009,KHSI,2021-01-18T02:53:00Z,40.6,-98.43,0.6,-7.2,250,4,,10.0,29.861221,1012.9,,TRUE,TRUE,,,,,,,SCT,12000,,,,,,,VFR,-0.9,,,,,,,,,,,METAR,592.0
KHRO 180253Z AUTO 28007KT 10SM CLR 04/M06 A2994 RMK AO2 SLP144 T00391056 51008,KHRO,2021-01-18T02:53:00Z,36.27,-93.15,3.9,-5.6,280,7,,10.0,29.940945,1014.4,,TRUE,TRUE,,,,,,,CLR,,,,,,,,VFR,0.8,,,,,,,,,,,METAR,417.0
KHRI 180253Z AUTO 21007KT 10SM CLR 05/02 A3037 RMK AO2 SLP288 T00500017 52005 $,KHRI,2021-01-18T02:53:00Z,45.83,-119.27,5.0,1.7,210,7,,10.0,30.369095,1028.8,,TRUE,TRUE,TRUE,,,,,,CLR,,,,,,,,VFR,0.5,,,,,,,,,,,METAR,194.0
KHQM 180253Z AUTO 31005KT 9SM BKN031 08/05 A3054 RMK AO2 SLP345 T00780050 53010,KHQM,2021-01-18T02:53:00Z,46.97,-123.93,7.8,5.0,310,5,,9.0,30.540354,1034.5,,TRUE,TRUE,,,,,,,BKN,3100,,,,,,,VFR,1.0,,,,,,,,,,,METAR,4.0
KHOU 180253Z 00000KT 10SM CLR 13/M02 A3011 RMK AO2 SLP202 T01331022 51016,KHOU,2021-01-18T02:53:00Z,29.63,-95.28,13.3,-2.2,0,0,,10.0,30.109253,1020.2,,,TRUE,,,,,,,CLR,,,,,,,,VFR,1.6,,,,,,,,,,,METAR,13.0
KHOT 180253Z AUTO 00000KT 10SM CLR 05/M04 A3002 RMK AO2 SLP167 T00501044 51010,KHOT,2021-01-18T02:53:00Z,34.48,-93.1,5.0,-4.4,0,0,,10.0,30.02067,1016.7,,TRUE,TRUE,,,,,,,CLR,,,,,,,,VFR,1.0,,,,,,,,,,,METAR,153.0
KHLN 180253Z AUTO VRB05G18KT 10SM FEW047 03/M06 A3004 RMK AO2 PK WND 26027/0202 SLP206 T00331061 53011,KHLN,2021-01-18T02:53:00Z,46.6,-111.98,3.3,-6.1,0,5,18,10.0,30.041338,1020.6,,TRUE,TRUE,,,,,,,FEW,4700,,,,,,,VFR,1.1,,,,,,,,,,,METAR,1178.0
KHLG 180253Z AUTO 22008KT 7SM BKN007 BKN012 OVC031 01/M01 A2970 RMK AO2 SNE53 CIG 004V009 SLP072 P0000 60000 T00061011 58003 TSNO,KHLG,2021-01-18T02:53:00Z,40.17,-80.65,0.6,-1.1,220,8,,7.0,29.698818,1007.2,,TRUE,TRUE,,,TRUE,,,,BKN,700,BKN,1200,OVC,3100,,,IFR,-0.3,,,,,0.005,0.005,,,,,METAR,365.0
KHLC 180253Z AUTO 00000KT 10SM BKN100 M02/M11 A2989 RMK AO2 SLP142 T10171111 $,KHLC,2021-01-18T02:53:00Z,39.37,-99.83,-1.7,-11.1,0,0,,10.0,29.890747,1014.2,,TRUE,TRUE,TRUE,,,,,,BKN,10000,,,,,,,VFR,,,,,,,,,,,,SPECI,667.0
KHKY 180253Z AUTO 20007KT 10SM OVC090 04/M03 A2983 RMK AO2 SLP097 T00441033 51003,KHKY,2021-01-18T02:53:00Z,35.75,-81.38,4.4,-3.3,200,7,,10.0,29.828741,1009.7,,TRUE,TRUE,,,,,,,OVC,9000,,,,,,,VFR,0.3,,,,,,,,,,,METAR,357.0
KHKS 180253Z AUTO 00000KT 10SM CLR 05/M04 A3006 RMK AO2 SLP174 T00501039 51015,KHKS,2021-01-18T02:53:00Z,32.33,-90.22,5.0,-3.9,0,0,,10.0,30.059055,1017.4,,TRUE,TRUE,,,,,,,CLR,,,,,,,,VFR,1.5,,,,,,,,,,,METAR,103.0
KHKA 180253Z AUTO 29006KT 10SM OVC085 06/M02 A2993 RMK AO2 SLP137 T00611017 51009 $,KHKA,2021-01-18T02:53:00Z,35.93,-89.83,6.1,-1.7,290,6,,10.0,29.929134,1013.7,,TRUE,TRUE,TRUE,,,,,,OVC,8500,,,,,,,VFR,0.9,,,,,,,,,,,METAR,78.0
KHJO 180253Z AUTO 18003KT 5SM HZ CLR 12/08 A3002 RMK AO2 SLP167 T01220083 56009,KHJO,2021-01-18T02:53:00Z,36.32,-119.62,12.2,8.3,180,3,,5.0,30.02067,1016.7,,TRUE,TRUE,,,,,,HZ,CLR,,,,,,,,MVFR,-0.9,,,,,,,,,,,METAR,73.0
KHIO 180253Z 32004KT 10SM R13R/2400V4000FT SCT030 04/04 A3049 RMK AO2 SLP326 T00390039 51003,KHIO,2021-01-18T02:53:00Z,45.55,-122.95,3.9,3.9,320,4,,10.0,30.490158,1032.6,,,TRUE,,,,,,,SCT,3000,,,,,,,VFR,0.3,,,,,,,,,,,METAR,62.0
KHIB 180253Z AUTO 33005KT 10SM OVC007 M08/M11 A2974 RMK AO2 SNB0156E21 SLP098 P0000 60000 T10831106 58002,KHIB,2021-01-18T02:53:00Z,47.38,-92.83,-8.3,-10.6,330,5,,10.0,29.740158,1009.8,,TRUE,TRUE,,,,,,,OVC,700,,,,,,,IFR,-0.2,,,,,0.005,0.005,,,,,METAR,409.0
KHHR 180253Z 00000KT 10SM CLR 19/02 A2992 RMK AO2 SLP132 T01940017 55001 $,KHHR,2021-01-18T02:53:00Z,33.92,-118.33,19.4,1.7,0,0,,10.0,29.920275,1013.2,,,TRUE,TRUE,,,,,,CLR,,,,,,,,VFR,-0.1,,,,,,,,,,,METAR,21.0
KHGR 180253Z 27004KT 10SM FEW049 OVC065 04/M02 A2974 RMK AO2 SLP084 T00391022 58001,KHGR,2021-01-18T02:53:00Z,39.7,-77.73,3.9,-2.2,270,4,,10.0,29.740158,1008.4,,,TRUE,,,,,,,FEW,4900,OVC,6500,,,,,VFR,-0.1,,,,,,,,,,,METAR,206.0
KHFD 180253Z 22007KT 10SM OVC065 06/M04 A2965 RMK AO2 SLP041 T00561039 51007,KHFD,2021-01-18T02:53:00Z,41.73,-72.65,5.6,-3.9,220,7,,10.0,29.648623,1004.1,,,TRUE,,,,,,,OVC,6500,,,,,,,VFR,0.7,,,,,,,,,,,METAR,3.0
KHBR 180253Z AUTO 20005KT 10SM CLR 06/M07 A3003 RMK AO2 SLP174 T00561072 58007,KHBR,2021-01-18T02:53:00Z,34.98,-99.05,5.6,-7.2,200,5,,10.0,30.029528,1017.4,,TRUE,TRUE,,,,,,,CLR,,,,,,,,VFR,-0.7,,,,,,,,,,,METAR,475.0
KHBG 180253Z AUTO 31003KT 10SM FEW090 BKN110 07/00 A3006 RMK AO2 SLP179 T00720000 53017,KHBG,2021-01-18T02:53:00Z,31.27,-89.25,7.2,0.0,310,3,,10.0,30.059055,1017.9,,TRUE,TRUE,,,,,,,FEW,9000,BKN,11000,,,,,VFR,1.7,,,,,,,,,,,METAR,45.0
KGZH 180253Z AUTO 22007KT 10SM CLR 09/01 A3001 RMK AO2 SLP162 T00890011 52010,KGZH,2021-01-18T02:53:00Z,31.42,-87.05,8.9,1.1,220,7,,10.0,30.008858,1016.2,,TRUE,TRUE,,,,,,,CLR,,,,,,,,VFR,1.0,,,,,,,,,,,METAR,77.0
KGWO 180253Z AUTO 19004KT 10SM CLR 01/M02 A3002 RMK AO2 SLP167 T00111022 53009,KGWO,2021-01-18T02:53:00Z,33.5,-90.08,1.1,-2.2,190,4,,10.0,30.02067,1016.7,,TRUE,TRUE,,,,,,,CLR,,,,,,,,VFR,0.9,,,,,,,,,,,METAR,42.0
KGVL 180253Z AUTO 23005KT 10SM CLR 06/M03 A2990 RMK AO2 SLP126 T00561033 51003,KGVL,2021-01-18T02:53:00Z,34.27,-83.83,5.6,-3.3,230,5,,10.0,29.899607,1012.6,,TRUE,TRUE,,,,,,,CLR,,,,,,,,VFR,0.3,,,,,,,,,,,METAR,387.0
KGUY 180253Z AUTO 20006KT 10SM CLR 00/M07 A2995 RMK AO2 SLP148 T00001067 58017,KGUY,2021-01-18T02:53:00Z,36.68,-101.5,0.0,-6.7,200,6,,10.0,29.949802,1014.8,,TRUE,TRUE,,,,,,,CLR,,,,,,,,VFR,-1.7,,,,,,,,,,,METAR,950.0
KGUP 180253Z AUTO 00000KT 10SM CLR 00/M16 A3013 RMK AO2 SLP271 T00001156 58003,KGUP,2021-01-18T02:53:00Z,35.52,-108.8,0.0,-15.6,0,0,,10.0,30.129921,1027.1,,TRUE,TRUE,,,,,,,CLR,,,,,,,,VFR,-0.3,,,,,,,,,,,METAR,1972.0
KGTF 180253Z 32004KT 10SM FEW070 OVC095 01/M08 A2998 RMK AO2 SLP184 T00111078 51013 $,KGTF,2021-01-18T02:53:00Z,47.47,-111.38,1.1,-7.8,320,4,,10.0,29.97933,1018.4,,,TRUE,TRUE,,,,,,FEW,7000,OVC,9500,,,,,VFR,1.3,,,,,,,,,,,METAR,1117.0
KGSP 180253Z 20004KT 10SM BKN055 BKN090 03/M03 A2988 RMK AO2 SLP121 T00281033 51001,KGSP,2021-01-18T02:53:00Z,34.9,-82.22,2.8,-3.3,200,4,,10.0,29.878937,1012.1,,,TRUE,,,,,,,BKN,5500,BKN,9000,,,,,VFR,0.1,,,,,,,,,,,METAR,285.0
KGRR 180253Z 33006KT 10SM SCT008 OVC017 M01/M02 A2970 RMK AO2 SNE23 SLP065 P0000 60002 T10061017 51006 $,KGRR,2021-01-18T02:53:00Z,42.88,-85.52,-0.6,-1.7,330,6,,10.0,29.698818,1006.5,,,TRUE,TRUE,,,,,,SCT,800,OVC,1700,,,,,MVFR,0.6,,,,,0.005,0.02,,,,,METAR,239.0
KGRI 180253Z AUTO 24004KT 10SM SCT110 M01/M06 A2986 RMK AO2 SLP133 T10111061 56008 $,KGRI,2021-01-18T02:53:00Z,40.97,-98.32,-1.1,-6.1,240,4,,10.0,29.861221,1013.3,,TRUE,TRUE,TRUE,,,,,,SCT,11000,,,,,,,VFR,-0.8,,,,,,,,,,,METAR,562.0
KGRB 180253Z 31008KT 10SM OVC035 M01/M06 A2973 RMK AO2 SLP077 T10111061 51006,KGRB,2021-01-18T02:53:00Z,44.48,-88.13,-1.1,-6.1,310,8,,10.0,29.731298,1007.7,,,TRUE,,,,,,,OVC,3500,,,,,,,VFR,0.6,,,,,,,,,,,METAR,209.0
KGPT 180253Z 24003KT 10SM CLR 06/01 A3006 RMK AO2 SLP178 T00610006 53012 $,KGPT,2021-01-18T02:53:00Z,30.42,-89.08,6.1,0.6,240,3,,10.0,30.059055,1017.8,,,TRUE,TRUE,,,,,,CLR,,,,,,,,VFR,1.2,,,,,,,,,,,METAR,5.0
KGOK 180253Z AUTO 18005KT 10SM CLR 01/M07 A3002 RMK AO2 SLP174 T00061072 58003,KGOK,2021-01-18T02:53:00Z,35.85,-97.4,0.6,-7.2,180,5,,10.0,30.02067,1017.4,,TRUE,TRUE,,,,,,,CLR,,,,,,,,VFR,-0.3,,,,,,,,,,,METAR,326.0
KGNV 180253Z AUTO 26006KT 10SM CLR 06/02 A3008 RMK AO2 SLP188 T00610022 51011,KGNV,2021-01-18T02:53:00Z,29.7,-82.28,6.1,2.2,260,6,,10.0,30.079725,1018.8,,TRUE,TRUE,,,,,,,CLR,,,,,,,,VFR,1.1,,,,,,,,,,,METAR,41.0
KGMU 180253Z AUTO 22005KT 10SM FEW055 BKN090 06/M03 A2988 RMK AO2 SLP123 T00561028 53001,KGMU,2021-01-18T02:53:00Z,34.85,-82.35,5.6,-2.8,220,5,,10.0,29.878937,1012.3,,TRUE,TRUE,,,,,,,FEW,5500,BKN,9000,,,,,VFR,0.1,,,,,,,,,,,METAR,309.0
KGLR 180253Z AUTO 00000KT 10SM BKN014 OVC080 M03/M06 A2964 RMK AO2 SNE13 SLP054 P0000 60000 T10281056 56000,KGLR,2021-01-18T02:53:00Z,45.02,-84.68,-2.8,-5.6,0,0,,10.0,29.639763,1005.4,,TRUE,TRUE,,,,,,,BKN,1400,OVC,8000,,,,,MVFR,0.0,,,,,0.005,0.005,,,,,METAR,403.0
KGLH 180253Z AUTO 24007KT 10SM CLR 07/M02 A3002 RMK AO2 SLP176 T00671022 53013,KGLH,2021-01-18T02:53:00Z,33.47,-90.98,6.7,-2.2,240,7,,10.0,30.02067,1017.6,,TRUE,TRUE,,,,,,,CLR,,,,,,,,VFR,1.3,,,,,,,,,,,METAR,40.0
KGLD 180253Z AUTO 25008KT 10SM SCT100 01/M08 A2986 RMK AO2 SLP128 T00111083 56012 $,KGLD,2021-01-18T02:53:00Z,39.37,-101.7,1.1,-8.3,250,8,,10.0,29.861221,1012.8,,TRUE,TRUE,TRUE,,,,,,SCT,10000,,,,,,,VFR,-1.2,,,,,,,,,,,METAR,1111.0
KGKY 180253Z AUTO 00000KT 10SM CLR 04/M03 A3010 RMK AO2 SLP193 T00441033 51008,KGKY,2021-01-18T02:53:00Z,32.67,-97.1,4.4,-3.3,0,0,,10.0,30.100393,1019.3,,TRUE,TRUE,,,,,,,CLR,,,,,,,,VFR,0.8,,,,,,,,,,,METAR,189.0
KGKJ 180253Z AUTO 23005KT 1SM -SN BR OVC003 M01/M02 A2964 RMK AO2 SLP050 P0001 60004 T10111017 58004 $,KGKJ,2021-01-18T02:53:00Z,41.63,-80.22,-1.1,-1.7,230,5,,1.0,29.639763,1005.0,,TRUE,TRUE,TRUE,,,,,-SN BR,OVC,300,,,,,,,LIFR,-0.4,,,,,0.01,0.04,,,,,METAR,428.0
KGJT 180253Z 07005KT 10SM CLR M03/M07 A3009 RMK AO2 SLP218 T10281072 56005,KGJT,2021-01-18T02:53:00Z,39.13,-108.53,-2.8,-7.2,70,5,,10.0,30.088583,1021.8,,,TRUE,,,,,,,CLR,,,,,,,,VFR,-0.5,,,,,,,,,,,METAR,1475.0
KGIF 180253Z AUTO 32003KT 10SM CLR 12/09 A3009 RMK AO2 SLP187 T01170089 53005,KGIF,2021-01-18T02:53:00Z,28.07,-81.75,11.7,8.9,320,3,,10.0,30.088583,1018.7,,TRUE,TRUE,,,,,,,CLR,,,,,,,,VFR,0.5,,,,,,,,,,,METAR,44.0
KGGW 180253Z AUTO 32006KT 10SM SCT120 M03/M04 A2981 RMK AO2 SLP129 60000 I1000 I3000 T10331044 53016,KGGW,2021-01-18T02:53:00Z,48.22,-106.62,-3.3,-4.4,320,6,,10.0,29.811024,1012.9,,TRUE,TRUE,,,,,,,SCT,12000,,,,,,,VFR,1.6,,,,,,0.005,,,,,METAR,698.0
KGGG 180253Z 00000KT CLR 03/M03 A3010 RMK AO2 SLP195 T00281028 51009 RVRNO,KGGG,2021-01-18T02:53:00Z,32.38,-94.72,2.8,-2.8,0,0,,,30.100393,1019.5,,,TRUE,,,,,,,CLR,,,,,,,,,0.9,,,,,,,,,,,METAR,107.0
KGFL 180253Z AUTO 23007KT 10SM FEW040 SCT055 01/M04 A2958 RMK AO2 SLP022 T00111044 50005,KGFL,2021-01-18T02:53:00Z,43.33,-73.62,1.1,-4.4,230,7,,10.0,29.58071,1002.2,,TRUE,TRUE,,,,,,,FEW,4000,SCT,5500,,,,,VFR,0.5,,,,,,,,,,,METAR,99.0
KGEY 180253Z AUTO 34011KT 10SM OVC075 04/M04 A2990 RMK AO2 RAE03 SLP157 P0000 60000 T00391044 51015,KGEY,2021-01-18T02:53:00Z,44.52,-108.08,3.9,-4.4,340,11,,10.0,29.899607,1015.7,,TRUE,TRUE,,,,,,,OVC,7500,,,,,,,VFR,1.5,,,,,0.005,0.005,,,,,METAR,1191.0
KGEG 180253Z 22004KT 9SM OVC006 01/M01 A3032 RMK AO2 SLP288 T00061011 50006,KGEG,2021-01-18T02:53:00Z,47.62,-117.53,0.6,-1.1,220,4,,9.0,30.318897,1028.8,,,TRUE,,,,,,,OVC,600,,,,,,,IFR,0.6,,,,,,,,,,,METAR,718.0
KGCC 180253Z AUTO 28009KT 10SM FEW010 M01/M02 A2979 RMK AO2 SLP115 60001 T10061017 58005 $,KGCC,2021-01-18T02:53:00Z,44.33,-105.55,-0.6,-1.7,280,9,,10.0,29.790354,1011.5,,TRUE,TRUE,TRUE,,,,,,FEW,1000,,,,,,,VFR,-0.5,,,,,,0.01,,,,,METAR,1328.0
KFYV 180253Z 25006KT 10SM CLR 05/M05 A2999 RMK AO2 SLP161 T00501050 51006,KFYV,2021-01-18T02:53:00Z,36.02,-94.17,5.0,-5.0,250,6,,10.0,29.991142,1016.1,,,TRUE,,,,,,,CLR,,,,,,,,VFR,0.6,,,,,,,,,,,METAR,377.0
KFXE 180253Z 00000KT 10SM CLR 17/10 A3007 RMK AO2 SLP185 T01670100 53004,KFXE,2021-01-18T02:53:00Z,26.2,-80.18,16.7,10.0,0,0,,10.0,30.070866,1018.5,,,TRUE,,,,,,,CLR,,,,,,,,VFR,0.4,,,,,,,,,,,METAR,3.0
KFWN 180253Z AUTO 21006KT 10SM FEW055 OVC070 04/M03 A2968 RMK AO2 SLP054 T00391028 51005 $,KFWN,2021-01-18T02:53:00Z,41.2,-74.63,3.9,-2.8,210,6,,10.0,29.681103,1005.4,,TRUE,TRUE,TRUE,,,,,,FEW,5500,OVC,7000,,,,,VFR,0.5,,,,,,,,,,,METAR,129.0
KFVE 180253Z AUTO 26012KT 10SM FEW026 OVC090 M02/M04 A2913 RMK AO2 SLP874 60000 T10221039 53019,KFVE,2021-01-18T02:53:00Z,47.28,-68.3,-2.2,-3.9,260,12,,10.0,29.128937,987.4,,TRUE,TRUE,,,,,,,FEW,2600,OVC,9000,,,,,VFR,1.9,,,,,,0.005,,,,,METAR,299.0
KFUL 180253Z 00000KT 10SM CLR 21/02 A2991 RMK AO2 SLP128 T02110017 51005,KFUL,2021-01-18T02:53:00Z,33.87,-117.98,21.1,1.7,0,0,,10.0,29.911417,1012.8,,,TRUE,,,,,,,CLR,,,,,,,,VFR,0.5,,,,,,,,,,,METAR,23.0
KFTY 180253Z 24003KT 10SM FEW085 04/M02 A2992 RMK AO2 SLP134 T00391022 51005,KFTY,2021-01-18T02:53:00Z,33.78,-84.52,3.9,-2.2,240,3,,10.0,29.920275,1013.4,,,TRUE,,,,,,,FEW,8500,,,,,,,VFR,0.5,,,,,,,,,,,METAR,245.0
KFTW 180253Z 00000KT 10SM CLR 07/M06 A3010 RMK AO2 SLP192 T00721056 51008,KFTW,2021-01-18T02:53:00Z,32.83,-97.37,7.2,-5.6,0,0,,10.0,30.100393,1019.2,,,TRUE,,,,,,,CLR,,,,,,,,VFR,0.8,,,,,,,,,,,METAR,213.0
KFST 180253Z AUTO 17009KT 10SM CLR 08/M03 A3006 RMK AO2 SLP166 T00781028 50003,KFST,2021-01-18T02:53:00Z,30.92,-102.92,7.8,-2.8,170,9,,10.0,30.059055,1016.6,,TRUE,TRUE,,,,,,,CLR,,,,,,,,VFR,0.3,,,,,,,,,,,METAR,917.0
KFSM 180253Z 27005KT 10SM CLR 03/M05 A3002 RMK AO2 SLP168 T00331050 51008,KFSM,2021-01-18T02:53:00Z,35.33,-94.37,3.3,-5.0,270,5,,10.0,30.02067,1016.8,,,TRUE,,,,,,,CLR,,,,,,,,VFR,0.8,,,,,,,,,,,METAR,136.0
KFRG 180253Z AUTO 26008KT 10SM SCT065 06/M03 A2972 RMK AO2 SLP063 T00561028 50003,KFRG,2021-01-18T02:53:00Z,40.73,-73.42,5.6,-2.8,260,8,,10.0,29.719488,1006.3,,TRUE,TRUE,,,,,,,SCT,6500,,,,,,,VFR,0.3,,,,,,,,,,,METAR,23.0
KFPR 180253Z AUTO 00000KT 10SM CLR 12/10 A3008 RMK AO2 SLP185 T01220100 53005,KFPR,2021-01-18T02:53:00Z,27.5,-80.38,12.2,10.0,0,0,,10.0,30.079725,1018.5,,TRUE,TRUE,,,,,,,CLR,,,,,,,,VFR,0.5,,,,,,,,,,,METAR,7.0
KFOK 180253Z 23006KT 10SM OVC060 04/M03 A2973 RMK AO2 SLP067 T00441028 51009,KFOK,2021-01-18T02:53:00Z,40.85,-72.62,4.4,-2.8,230,6,,10.0,29.731298,1006.7,,,TRUE,,,,,,,OVC,6000,,,,,,,VFR,0.9,,,,,,,,,,,METAR,13.0
KFOE 180253Z 00000KT 10SM CLR M03/M06 A2990 RMK AO2 SLP135 T10281056 58003,KFOE,2021-01-18T02:53:00Z,38.93,-95.65,-2.8,-5.6,0,0,,10.0,29.899607,1013.5,,,TRUE,,,,,,,CLR,,,,,,,,VFR,-0.3,,,,,,,,,,,METAR,315.0
KFNT 180253Z 30003KT 6SM BR BKN005 BKN011 OVC014 00/M02 A2968 RMK AO2 SNE49 SLP058 P0002 60003 T00001017 55000 $,KFNT,2021-01-18T02:53:00Z,42.97,-83.75,0.0,-1.7,300,3,,6.0,29.681103,1005.8,,,TRUE,TRUE,,,,,BR,BKN,500,BKN,1100,OVC,1400,,,IFR,0.0,,,,,0.02,0.03,,,,,METAR,235.0
KFNB 180253Z AUTO 28006KT 10SM CLR M01/M04 A2989 RMK AO2 SLP132 T10061044 58003,KFNB,2021-01-18T02:53:00Z,40.07,-95.58,-0.6,-4.4,280,6,,10.0,29.890747,1013.2,,TRUE,TRUE,,,,,,,CLR,,,,,,,,VFR,-0.3,,,,,,,,,,,METAR,301.0
KFMY 180253Z AUTO 00000KT 10SM CLR 15/12 A3006 RMK AO2 SLP181 T01500117 52004,KFMY,2021-01-18T02:53:00Z,26.58,-81.87,15.0,11.7,0,0,,10.0,30.059055,1018.1,,TRUE,TRUE,,,,,,,CLR,,,,,,,,VFR,0.4,,,,,,,,,,,METAR,4.0
KFMN 180253Z 28006KT 10SM CLR 07/M14 A3005 RMK AO2 SLP188 T00671139 56002,KFMN,2021-01-18T02:53:00Z,36.75,-108.23,6.7,-13.9,280,6,,10.0,30.050198,1018.8,,,TRUE,,,,,,,CLR,,,,,,,,VFR,-0.2,,,,,,,,,,,METAR,1677.0
KFLO 180253Z 20004KT 10SM CLR 02/M01 A2995 RMK AO2 SLP141 T00221011 51012,KFLO,2021-01-18T02:53:00Z,34.18,-79.73,2.2,-1.1,200,4,,10.0,29.949802,1014.1,,,TRUE,,,,,,,CLR,,,,,,,,VFR,1.2,,,,,,,,,,,METAR,43.0
KFLL 180253Z 00000KT 10SM SCT100 18/10 A3007 RMK AO2 SLP181 T01780100 53005,KFLL,2021-01-18T02:53:00Z,26.07,-80.15,17.8,10.0,0,0,,10.0,30.070866,1018.1,,,TRUE,,,,,,,SCT,10000,,,,,,,VFR,0.5,,,,,,,,,,,METAR,1.0
KFLD 180253Z AUTO 25004KT 10SM SCT043 OVC075 M03/M05 A2973 RMK AO2 SNE22 SLP079 P0000 60000 T10281050 50003,KFLD,2021-01-18T02:53:00Z,43.77,-88.48,-2.8,-5.0,250,4,,10.0,29.731298,1007.9,,TRUE,TRUE,,,,,,,SCT,4300,OVC,7500,,,,,VFR,0.3,,,,,0.005,0.005,,,,,METAR,242.0
KFHR 180253Z AUTO 29003KT 5SM BR CLR 05/04 A3054 RMK AO2 SLP341 T00500044 53010 TSNO,KFHR,2021-01-18T02:53:00Z,48.52,-123.03,5.0,4.4,290,3,,5.0,30.540354,1034.1,,TRUE,TRUE,,,TRUE,,,BR,CLR,,,,,,,,MVFR,1.0,,,,,,,,,,,METAR,34.0
KFFC 180253Z AUTO 00000KT 10SM CLR 03/M02 A2994 RMK AO2 SLP144 T00281017 51004,KFFC,2021-01-18T02:53:00Z,33.35,-84.57,2.8,-1.7,0,0,,10.0,29.940945,1014.4,,TRUE,TRUE,,,,,,,CLR,,,,,,,,VFR,0.4,,,,,,,,,,,METAR,242.0
KFDY 180253Z AUTO 26009KT 10SM SCT020 OVC065 M01/M03 A2971 RMK AO2 SNE11 SLP064 P0000 60000 T10061028 51002,KFDY,2021-01-18T02:53:00Z,41.02,-83.67,-0.6,-2.8,260,9,,10.0,29.71063,1006.4,,TRUE,TRUE,,,,,,,SCT,2000,OVC,6500,,,,,VFR,0.2,,,,,0.005,0.005,,,,,METAR,247.0
KFDR 180253Z AUTO 22005KT 10SM CLR 04/M04 A3002 RMK AO2 SLP167 T00391044 58004 $,KFDR,2021-01-18T02:53:00Z,34.35,-98.98,3.9,-4.4,220,5,,10.0,30.02067,1016.7,,TRUE,TRUE,TRUE,,,,,,CLR,,,,,,,,VFR,-0.4,,,,,,,,,,,METAR,378.0
KFCM 180253Z AUTO 33004KT 4SM -SN BR OVC009 M05/M07 A2980 RMK AO2 SNB0157E19B38 SLP107 P0000 60000 T10501072 53004,KFCM,2021-01-18T02:53:00Z,44.83,-93.47,-5.0,-7.2,330,4,,4.0,29.799213,1010.7,,TRUE,TRUE,,,,,,-SN BR,OVC,900,,,,,,,IFR,0.4,,,,,0.005,0.005,,,,,METAR,276.0
KFAY 180253Z 21007KT 10SM CLR 03/M02 A2991 RMK AO2 SLP125 T00281017 51008,KFAY,2021-01-18T02:53:00Z,34.98,-78.88,2.8,-1.7,210,7,,10.0,29.911417,1012.5,,,TRUE,,,,,,,CLR,,,,,,,,VFR,0.8,,,,,,,,,,,METAR,57.0
KFAT 180253Z 00000KT 5SM HZ CLR 16/08 A3001 RMK AO2 SLP163 T01560083 57008,KFAT,2021-01-18T02:53:00Z,36.78,-119.72,15.6,8.3,0,0,,5.0,30.008858,1016.3,,,TRUE,,,,,,HZ,CLR,,,,,,,,MVFR,-0.8,,,,,,,,,,,METAR,102.0
KFAR 180253Z 02008KT 10SM OVC023 M08/M11 A2986 RMK AO2 SLP127 T10781106 50001,KFAR,2021-01-18T02:53:00Z,46.9,-96.82,-7.8,-10.6,20,8,,10.0,29.861221,1012.7,,,TRUE,,,,,,,OVC,2300,,,,,,,MVFR,0.1,,,,,,,,,,,METAR,276.0
KEYW 180253Z AUTO 11004KT 10SM CLR 18/14 A3010 RMK AO2 SLP192 T01830144 51012,KEYW,2021-01-18T02:53:00Z,24.55,-81.75,18.3,14.4,110,4,,10.0,30.100393,1019.2,,TRUE,TRUE,,,,,,,CLR,,,,,,,,VFR,1.2,,,,,,,,,,,METAR,1.0
KEYE 180253Z AUTO 24005KT 10SM OVC013 M01/M04 A2977 RMK AO2 SLP089 T10111039 50001,KEYE,2021-01-18T02:53:00Z,39.83,-86.3,-1.1,-3.9,240,5,,10.0,29.769686,1008.9,,TRUE,TRUE,,,,,,,OVC,1300,,,,,,,MVFR,0.1,,,,,,,,,,,METAR,248.0
KEWB 180253Z 24011KT 10SM CLR 05/M04 A2964 RMK AO2 SLP037 T00501039 51012,KEWB,2021-01-18T02:53:00Z,41.68,-70.95,5.0,-3.9,240,11,,10.0,29.639763,1003.7,,,TRUE,,,,,,,CLR,,,,,,,,VFR,1.2,,,,,,,,,,,METAR,22.0
KEVW 180253Z AUTO 24016KT 10SM BKN040 01/M08 A3010 RMK AO2 SLP205 T00061078 58010,KEVW,2021-01-18T02:53:00Z,41.27,-111.03,0.6,-7.8,240,16,,10.0,30.100393,1020.5,,TRUE,TRUE,,,,,,,BKN,4000,,,,,,,VFR,-1.0,,,,,,,,,,,METAR,2178.0
KESF 180253Z AUTO 00000KT 10SM FEW100 06/M02 A3011 RMK AO2 SLP195 T00561022 51018,KESF,2021-01-18T02:53:00Z,31.4,-92.28,5.6,-2.2,0,0,,10.0,30.109253,1019.5,,TRUE,TRUE,,,,,,,FEW,10000,,,,,,,VFR,1.8,,,,,,,,,,,METAR,27.0
KEQY 180253Z AUTO 22007KT 10SM CLR 03/M02 A2989 RMK AO2 SLP141 T00331022 53004 $,KEQY,2021-01-18T02:53:00Z,35.02,-80.62,3.3,-2.2,220,7,,10.0,29.890747,1014.1,,TRUE,TRUE,TRUE,,,,,,CLR,,,,,,,,VFR,0.4,,,,,,,,,,,METAR,205.0
KEPH 180253Z AUTO 00000KT 7SM CLR M01/M02 A3036 RMK AO2 SLP295 T10061017 53014,KEPH,2021-01-18T02:53:00Z,47.3,-119.52,-0.6,-1.7,0,0,,7.0,30.360237,1029.5,,TRUE,TRUE,,,,,,,CLR,,,,,,,,VFR,1.4,,,,,,,,,,,METAR,382.0
KENW 180253Z 30005KT 8SM OVC050 M01/M04 A2974 RMK AO2 SNB21E26 SLP079 P0000 60000 T10111044 51005 $,KENW,2021-01-18T02:53:00Z,42.6,-87.93,-1.1,-4.4,300,5,,8.0,29.740158,1007.9,,,TRUE,TRUE,,,,,,OVC,5000,,,,,,,VFR,0.5,,,,,0.005,0.005,,,,,METAR,222.0
KEMP 180253Z AUTO 25008KT 10SM CLR 00/M07 A2992 RMK AO2 SLP141 T00001067 58003,KEMP,2021-01-18T02:53:00Z,38.33,-96.2,0.0,-6.7,250,8,,10.0,29.920275,1014.1,,TRUE,TRUE,,,,,,,CLR,,,,,,,,VFR,-0.3,,,,,,,,,,,SPECI,366.0
KELY 180253Z AUTO 10SM CLR 03/M09 A3018 RMK AO2 SLP239 T00331089 55004 $,KELY,2021-01-18T02:53:00Z,39.3,-114.85,3.3,-8.9,,,,10.0,30.180119,1023.9,,TRUE,TRUE,TRUE,,,,,,CLR,,,,,,,,VFR,-0.4,,,,,,,,,,,METAR,1906.0
KELN 180253Z AUTO 32017G27KT 10SM CLR 07/M01 A3037 RMK AO2 PK WND 32033/0200 SLP295 T00671006 53005,KELN,2021-01-18T02:53:00Z,47.03,-120.53,6.7,-0.6,320,17,27,10.0,30.369095,1029.5,,TRUE,TRUE,,,,,,,CLR,,,,,,,,VFR,0.5,,,,,,,,,,,METAR,532.0
KELM 180253Z 24008KT 9SM -SN FEW034 OVC060 02/M02 A2963 RMK AO2 SNB49 SLP040 P0000 60000 T00221017 51002,KELM,2021-01-18T02:53:00Z,42.15,-76.9,2.2,-1.7,240,8,,9.0,29.630905,1004.0,,,TRUE,,,,,,-SN,FEW,3400,OVC,6000,,,,,VFR,0.2,,,,,0.005,0.005,,,,,METAR,287.0
KELD 180253Z AUTO 22004KT 10SM CLR 04/M03 A3007 RMK AO2 SLP181 T00441033 51012,KELD,2021-01-18T02:53:00Z,33.22,-92.82,4.4,-3.3,220,4,,10.0,30.070866,1018.1,,TRUE,TRUE,,,,,,,CLR,,,,,,,,VFR,1.2,,,,,,,,,,,METAR,76.0
KEET 180253Z AUTO 30007KT 10SM CLR 07/M03 A2997 RMK AO2 SLP149 T00671033 53016,KEET,2021-01-18T02:53:00Z,33.18,-86.78,6.7,-3.3,300,7,,10.0,29.970472,1014.9,,TRUE,TRUE,,,,,,,CLR,,,,,,,,VFR,1.6,,,,,,,,,,,METAR,172.0
KEEO 180253Z AUTO 25003KT 10SM OVC075 02/M06 A3004 RMK AO2 SLP188 T00171056 58008,KEEO,2021-01-18T02:53:00Z,40.05,-107.88,1.7,-5.6,250,3,,10.0,30.041338,1018.8,,TRUE,TRUE,,,,,,,OVC,7500,,,,,,,VFR,-0.8,,,,,,,,,,,METAR,1957.0
KECP 180253Z 00000KT 10SM CLR 05/03 A3004 RMK AO2 SLP186 T00500033 53010,KECP,2021-01-18T02:53:00Z,30.35,-85.8,5.0,3.3,0,0,,10.0,30.041338,1018.6,,,TRUE,,,,,,,CLR,,,,,,,,VFR,1.0,,,,,,,,,,,METAR,17.0
KDXR 180253Z 23008KT 10SM OVC065 04/M04 A2968 RMK AO2 SLP050 T00391044 50006,KDXR,2021-01-18T02:53:00Z,41.37,-73.48,3.9,-4.4,230,8,,10.0,29.681103,1005.0,,,TRUE,,,,,,,OVC,6500,,,,,,,VFR,0.6,,,,,,,,,,,METAR,138.0
KDWH 180253Z AUTO 00000KT 10SM CLR 08/01 A3011 RMK AO2 SLP197 T00780006 51013,KDWH,2021-01-18T02:53:00Z,30.07,-95.55,7.8,0.6,0,0,,10.0,30.109253,1019.7,,TRUE,TRUE,,,,,,,CLR,,,,,,,,VFR,1.3,,,,,,,,,,,METAR,46.0
KDVT 180253Z 00000KT 10SM CLR 13/M11 A2996 RMK AO2 SLP137 T01281111 55003,KDVT,2021-01-18T02:53:00Z,33.68,-112.07,12.8,-11.1,0,0,,10.0,29.958662,1013.7,,,TRUE,,,,,,,CLR,,,,,,,,VFR,-0.3,,,,,,,,,,,METAR,454.0
KDTS 180253Z VRB04KT 10SM CLR 12/05 A3005 RMK AO2 SLP174 T01220050 51013,KDTS,2021-01-18T02:53:00Z,30.4,-86.47,12.2,5.0,0,4,,10.0,30.050198,1017.4,,,TRUE,,,,,,,CLR,,,,,,,,VFR,1.3,,,,,,,,,,,METAR,5.0
KDTO 180253Z 00000KT 10SM CLR 03/M06 A3010 RMK AO2 SLP194 T00281056 50006,KDTO,2021-01-18T02:53:00Z,33.2,-97.2,2.8,-5.6,0,0,,10.0,30.100393,1019.4,,,TRUE,,,,,,,CLR,,,,,,,,VFR,0.6,,,,,,,,,,,METAR,199.0
KDTN 180253Z 25004KT 10SM CLR 07/M02 A3010 RMK AO2 SLP191 T00721022 51008,KDTN,2021-01-18T02:53:00Z,32.55,-93.75,7.2,-2.2,250,4,,10.0,30.100393,1019.1,,,TRUE,,,,,,,CLR,,,,,,,,VFR,0.8,,,,,,,,,,,METAR,53.0
KDRT 180253Z AUTO 00000KT 10SM CLR 10/00 A3006 RMK AO2 SLP178 T01000000 51007,KDRT,2021-01-18T02:53:00Z,29.37,-100.92,10.0,0.0,0,0,,10.0,30.059055,1017.8,,TRUE,TRUE,,,,,,,CLR,,,,,,,,VFR,0.7,,,,,,,,,,,METAR,303.0
KDRO 180253Z AUTO 05005KT 10SM CLR M02/M08 A3007 RMK AO2 SLP235 T10171078 56004 $,KDRO,2021-01-18T02:53:00Z,37.15,-107.77,-1.7,-7.8,50,5,,10.0,30.070866,1023.5,,TRUE,TRUE,TRUE,,,,,,CLR,,,,,,,,VFR,-0.4,,,,,,,,,,,METAR,2021.0
KDRA 180253Z AUTO 06005KT 10SM CLR 12/M18 A3007 RMK AO2 SLP165 T01171183 55001 $,KDRA,2021-01-18T02:53:00Z,36.62,-116.03,11.7,-18.3,60,5,,10.0,30.070866,1016.5,,TRUE,TRUE,TRUE,,,,,,CLR,,,,,,,,VFR,-0.1,,,,,,,,,,,METAR,988.0
KDNL 180253Z AUTO 00000KT 10SM CLR 05/M02 A2995 RMK AO2 SLP143 T00501017 51005,KDNL,2021-01-18T02:53:00Z,33.47,-82.03,5.0,-1.7,0,0,,10.0,29.949802,1014.3,,TRUE,TRUE,,,,,,,CLR,,,,,,,,VFR,0.5,,,,,,,,,,,METAR,126.0
KDMO 180253Z AUTO 30007KT 10SM FEW037 BKN055 02/M03 A2991 RMK AO2 SLP138 T00171033 53003,KDMO,2021-01-18T02:53:00Z,38.72,-93.17,1.7,-3.3,300,7,,10.0,29.911417,1013.8,,TRUE,TRUE,,,,,,,FEW,3700,BKN,5500,,,,,VFR,0.3,,,,,,,,,,,METAR,271.0
KDMN 180253Z AUTO 29006KT 10SM CLR 09/M16 A3006 RMK AO2 SLP169 T00941156 50000 $,KDMN,2021-01-18T02:53:00Z,32.27,-107.72,9.4,-15.6,290,6,,10.0,30.059055,1016.9,,TRUE,TRUE,TRUE,,,,,,CLR,,,,,,,,VFR,0.0,,,,,,,,,,,METAR,1310.0
KDLS 180253Z AUTO 31013KT 10SM CLR 09/03 A3042 RMK AO2 SLP303 T00890033 51007,KDLS,2021-01-18T02:53:00Z,45.62,-121.17,8.9,3.3,310,13,,10.0,30.41929,1030.3,,TRUE,TRUE,,,,,,,CLR,,,,,,,,VFR,0.7,,,,,,,,,,,METAR,71.0
KDLN 180253Z AUTO VRB03KT 10SM CLR M01/M08 A3009 RMK AO2 SLP216 T10111078 51012,KDLN,2021-01-18T02:53:00Z,45.25,-112.55,-1.1,-7.8,0,3,,10.0,30.088583,1021.6,,TRUE,TRUE,,,,,,,CLR,,,,,,,,VFR,1.2,,,,,,,,,,,METAR,1586.0
KDHT 180253Z AUTO 22008KT 10SM CLR M02/M08 A2998 RMK AO2 SLP168 T10221078 58017,KDHT,2021-01-18T02:53:00Z,36.02,-102.55,-2.2,-7.8,220,8,,10.0,29.97933,1016.8,,TRUE,TRUE,,,,,,,CLR,,,,,,,,VFR,-1.7,,,,,,,,,,,METAR,1217.0
KDHN 180253Z AUTO 22009KT 10SM CLR 08/02 A3004 RMK AO2 SLP172 T00780017 51011 $,KDHN,2021-01-18T02:53:00Z,31.32,-85.45,7.8,1.7,220,9,,10.0,30.041338,1017.2,,TRUE,TRUE,TRUE,,,,,,CLR,,,,,,,,VFR,1.1,,,,,,,,,,,METAR,113.0
KDGW 180253Z AUTO 34018G26KT 10SM FEW075 BKN110 03/M04 A2982 RMK AO2 PK WND 33026/0251 SLP135 T00331039 53006,KDGW,2021-01-18T02:53:00Z,42.8,-105.38,3.3,-3.9,340,18,26,10.0,29.819881,1013.5,,TRUE,TRUE,,,,,,,FEW,7500,BKN,11000,,,,,VFR,0.6,,,,,,,,,,,METAR,1503.0
KDFW 180253Z 35003KT 10SM CLR 09/M06 A3008 RMK AO2 SLP185 T00941061 51007,KDFW,2021-01-18T02:53:00Z,32.9,-97.02,9.4,-6.1,350,3,,10.0,30.079725,1018.5,,,TRUE,,,,,,,CLR,,,,,,,,VFR,0.7,,,,,,,,,,,METAR,168.0
KDFI 180253Z AUTO VRB04KT 10SM OVC019 M01/M04 A2973 RMK AO2 SLP073 T10061044 51002,KDFI,2021-01-18T02:53:00Z,41.33,-84.43,-0.6,-4.4,0,4,,10.0,29.731298,1007.3,,TRUE,TRUE,,,,,,,OVC,1900,,,,,,,MVFR,0.2,,,,,,,,,,,METAR,215.0
KDEW 180253Z AUTO 00000KT 10SM OVC010 01/M01 A3033 RMK AO2 SLP293 T00061011 51009,KDEW,2021-01-18T02:53:00Z,47.97,-117.43,0.6,-1.1,0,0,,10.0,30.33071,1029.3,,TRUE,TRUE,,,,,,,OVC,1000,,,,,,,MVFR,0.9,,,,,,,,,,,METAR,672.0
KDEQ 180253Z AUTO 00000KT 10SM CLR 01/M03 A3004 RMK AO2 SLP174 T00061028 51013,KDEQ,2021-01-18T02:53:00Z,34.05,-94.4,0.6,-2.8,0,0,,10.0,30.041338,1017.4,,TRUE,TRUE,,,,,,,CLR,,,,,,,,VFR,1.3,,,,,,,,,,,METAR,107.0
KDEN 180253Z 30009KT 10SM BKN130 BKN160 07/M07 A2981 RMK AO2 SLP085 T00721067 56013 $,KDEN,2021-01-18T02:53:00Z,39.85,-104.65,7.2,-6.7,300,9,,10.0,29.811024,1008.5,,,TRUE,TRUE,,,,,,BKN,13000,BKN,16000,,,,,VFR,-1.3,,,,,,,,,,,METAR,1656.0
KDCU 180253Z AUTO 28008KT 10SM CLR 06/M04 A2995 RMK AO2 SLP143 T00561044 51017 $,KDCU,2021-01-18T02:53:00Z,34.65,-86.95,5.6,-4.4,280,8,,10.0,29.949802,1014.3,,TRUE,TRUE,TRUE,,,,,,CLR,,,,,,,,VFR,1.7,,,,,,,,,,,METAR,180.0
KDAN 180253Z AUTO 23004KT 10SM OVC085 03/M03 A2985 RMK AO2 SLP105 T00331028 51002,KDAN,2021-01-18T02:53:00Z,36.57,-79.33,3.3,-2.8,230,4,,10.0,29.84941,1010.5,,TRUE,TRUE,,,,,,,OVC,8500,,,,,,,VFR,0.2,,,,,,,,,,,METAR,170.0
KDAL 180253Z 00000KT 10SM CLR 07/M04 A3009 RMK AO2 SLP190 T00671039 51007,KDAL,2021-01-18T02:53:00Z,32.85,-96.85,6.7,-3.9,0,0,,10.0,30.088583,1019.0,,,TRUE,,,,,,,CLR,,,,,,,,VFR,0.7,,,,,,,,,,,METAR,148.0
KDAB 180253Z 23005KT 10SM OVC150 10/06 A3006 RMK AO2 SLP177 T01000061 53002,KDAB,2021-01-18T02:53:00Z,29.18,-81.07,10.0,6.1,230,5,,10.0,30.059055,1017.7,,,TRUE,,,,,,,OVC,15000,,,,,,,VFR,0.2,,,,,,,,,,,METAR,8.0
KCYS 180253Z 27021G30KT 10SM FEW060 SCT080 BKN100 06/M06 A2980 RMK AO2 PK WND 28030/0248 SLP087 T00561061 56011 $,KCYS,2021-01-18T02:53:00Z,41.15,-104.8,5.6,-6.1,270,21,30,10.0,29.799213,1008.7,,,TRUE,TRUE,,,,,,FEW,6000,SCT,8000,BKN,10000,,,VFR,-1.1,,,,,,,,,,,METAR,1868.0
KCXO 180253Z AUTO 00000KT 10SM CLR 05/M01 A3012 RMK AO2 SLP200 T00501011 51012,KCXO,2021-01-18T02:53:00Z,30.35,-95.42,5.0,-1.1,0,0,,10.0,30.121063,1020.0,,TRUE,TRUE,,,,,,,CLR,,,,,,,,VFR,1.2,,,,,,,,,,,METAR,69.0
KCUT 180253Z AUTO VRB04KT 10SM SCT018 OVC095 M02/M05 A2973 RMK AO2 SLP104 T10171050 57004,KCUT,2021-01-18T02:53:00Z,43.73,-103.62,-1.7,-5.0,0,4,,10.0,29.731298,1010.4,,TRUE,TRUE,,,,,,,SCT,1800,OVC,9500,,,,,VFR,-0.4,,,,,,,,,,,METAR,1700.0
KCUB 180253Z AUTO 00000KT 10SM CLR 02/M01 A2996 RMK AO2 SLP144 T00221006 51008,KCUB,2021-01-18T02:53:00Z,33.97,-81.0,2.2,-0.6,0,0,,10.0,29.958662,1014.4,,TRUE,TRUE,,,,,,,CLR,,,,,,,,VFR,0.8,,,,,,,,,,,METAR,55.0
KCSV 180253Z AUTO 27010KT 10SM FEW060 BKN075 OVC100 03/M06 A2984 RMK AO2 SLP114 T00281056 51007,KCSV,2021-01-18T02:53:00Z,35.95,-85.08,2.8,-5.6,270,10,,10.0,29.840551,1011.4,,TRUE,TRUE,,,,,,,FEW,6000,BKN,7500,OVC,10000,,,VFR,0.7,,,,,,,,,,,METAR,569.0
KCSM 180253Z AUTO 20006KT 10SM CLR 02/M08 A3002 RMK AO2 SLP172 T00221078 58009,KCSM,2021-01-18T02:53:00Z,35.35,-99.2,2.2,-7.8,200,6,,10.0,30.02067,1017.2,,TRUE,TRUE,,,,,,,CLR,,,,,,,,VFR,-0.9,,,,,,,,,,,METAR,586.0
KCRS 180253Z AUTO 18004KT 10SM CLR 09/M03 A3011 RMK AO2 SLP195 T00941033 50003,KCRS,2021-01-18T02:53:00Z,32.03,-96.4,9.4,-3.3,180,4,,10.0,30.109253,1019.5,,TRUE,TRUE,,,,,,,CLR,,,,,,,,VFR,0.3,,,,,,,,,,,METAR,136.0
KCRQ 180253Z 15003KT 10SM CLR 19/M02 A2993 RMK AO2 SLP132 T01941017 54000,KCRQ,2021-01-18T02:53:00Z,33.13,-117.28,19.4,-1.7,150,3,,10.0,29.929134,1013.2,,,TRUE,,,,,,,CLR,,,,,,,,VFR,,,,,,,,,,,,METAR,96.0
KCRG 180253Z 26008KT 10SM CLR 11/04 A3004 RMK AO2 SLP171 T01110039 51010,KCRG,2021-01-18T02:53:00Z,30.33,-81.52,11.1,3.9,260,8,,10.0,30.041338,1017.1,,,TRUE,,,,,,,CLR,,,,,,,,VFR,1.0,,,,,,,,,,,METAR,12.0
KCRE 180253Z AUTO 24007KT 10SM CLR 07/01 A2995 RMK AO1 SLP143 T00720006 53006,KCRE,2021-01-18T02:53:00Z,33.82,-78.72,7.2,0.6,240,7,,10.0,29.949802,1014.3,,TRUE,TRUE,,,,,,,CLR,,,,,,,,VFR,0.6,,,,,,,,,,,METAR,9.0
KCQC 180253Z AUTO 29013KT 10SM CLR 01/M17 A3006 RMK AO2 PK WND 29028/0157 SLP190 T00111167 50001,KCQC,2021-01-18T02:53:00Z,35.0,-105.67,1.1,-16.7,290,13,,10.0,30.059055,1019.0,,TRUE,TRUE,,,,,,,CLR,,,,,,,,VFR,0.1,,,,,,,,,,,METAR,2163.0
KCPR 180253Z 32007KT 10SM OVC085 01/M05 A2983 RMK AO2 SLP126 T00061050 53007,KCPR,2021-01-18T02:53:00Z,42.9,-106.47,0.6,-5.0,320,7,,10.0,29.828741,1012.6,,,TRUE,,,,,,,OVC,8500,,,,,,,VFR,0.7,,,,,,,,,,,METAR,1623.0
KCOT 180253Z AUTO 05004KT 10SM CLR 14/06 A3008 RMK AO2 SLP182 T01390061 51010,KCOT,2021-01-18T02:53:00Z,28.45,-99.22,13.9,6.1,50,4,,10.0,30.079725,1018.2,,TRUE,TRUE,,,,,,,CLR,,,,,,,,VFR,1.0,,,,,,,,,,,METAR,144.0
KCNY 180253Z AUTO 00000KT 10SM CLR M01/M04 A3009 RMK AO2 SLP227 T10111044 55002,KCNY,2021-01-18T02:53:00Z,38.77,-109.75,-1.1,-4.4,0,0,,10.0,30.088583,1022.7,,TRUE,TRUE,,,,,,,CLR,,,,,,,,VFR,-0.2,,,,,,,,,,,METAR,1392.0
KCNO 180253Z 00000KT 10SM CLR 22/M01 A2995 RMK AO2 SLP137 LAST T02221011 53003,KCNO,2021-01-18T02:53:00Z,33.98,-117.62,22.2,-1.1,0,0,,10.0,29.949802,1013.7,,,TRUE,,,,,,,CLR,,,,,,,,VFR,0.3,,,,,,,,,,,METAR,191.0
KCNM 180253Z AUTO 19010KT 10SM CLR 06/M07 A3003 RMK AO2 SLP167 T00561067 50004,KCNM,2021-01-18T02:53:00Z,32.33,-104.25,5.6,-6.7,190,10,,10.0,30.029528,1016.7,,TRUE,TRUE,,,,,,,CLR,,,,,,,,VFR,0.4,,,,,,,,,,,METAR,993.0
KCMX 180253Z AUTO 00000KT 10SM OVC018 M05/M08 A2972 RMK AO2 SLP080 T10501078 50002,KCMX,2021-01-18T02:53:00Z,47.17,-88.48,-5.0,-7.8,0,0,,10.0,29.719488,1008.0,,TRUE,TRUE,,,,,,,OVC,1800,,,,,,,MVFR,0.2,,,,,,,,,,,METAR,326.0
KCMI 180253Z 28010KT 10SM SCT016 OVC080 M02/M04 A2981 RMK AO2 SLP103 60000 T10171039 51007,KCMI,2021-01-18T02:53:00Z,40.03,-88.27,-1.7,-3.9,280,10,,10.0,29.811024,1010.3,,,TRUE,,,,,,,SCT,1600,OVC,8000,,,,,VFR,0.7,,,,,,0.005,,,,,METAR,227.0
KCLM 180253Z AUTO 25004KT 7SM CLR 04/03 A3054 RMK AO2 SLP345 T00440033 53010,KCLM,2021-01-18T02:53:00Z,48.12,-123.5,4.4,3.3,250,4,,7.0,30.540354,1034.5,,TRUE,TRUE,,,,,,,CLR,,,,,,,,VFR,1.0,,,,,,,,,,,METAR,81.0
KCLL 180253Z AUTO 36003KT 10SM CLR 08/M03 A3011 RMK AO2 SLP197 T00831028 51008,KCLL,2021-01-18T02:53:00Z,30.58,-96.37,8.3,-2.8,360,3,,10.0,30.109253,1019.7,,TRUE,TRUE,,,,,,,CLR,,,,,,,,VFR,0.8,,,,,,,,,,,METAR,96.0
KCKB 180253Z 22008KT 4SM -SN BR FEW008 BKN013 OVC034 01/M01 A2975 RMK AO2 SLP080 P0000 60002 T00061006 50002,KCKB,2021-01-18T02:53:00Z,39.3,-80.22,0.6,-0.6,220,8,,4.0,29.749016,1008.0,,,TRUE,,,,,,-SN BR,FEW,800,BKN,1300,OVC,3400,,,MVFR,0.2,,,,,0.005,0.02,,,,,METAR,368.0
KCHO 180253Z 00000KT 10SM FEW075 04/M03 A2978 RMK AO2 SLP087 T00391028 55003,KCHO,2021-01-18T02:53:00Z,38.13,-78.45,3.9,-2.8,0,0,,10.0,29.778543,1008.7,,,TRUE,,,,,,,FEW,7500,,,,,,,VFR,-0.3,,,,,,,,,,,METAR,193.0
KCHA 180253Z 24006KT 10SM SCT065 SCT080 BKN100 09/M04 A2989 RMK AO2 SLP121 T00891044 53005,KCHA,2021-01-18T02:53:00Z,35.03,-85.2,8.9,-4.4,240,6,,10.0,29.890747,1012.1,,,TRUE,,,,,,,SCT,6500,SCT,8000,BKN,10000,,,VFR,0.5,,,,,,,,,,,METAR,203.0
KCGI 180253Z AUTO 33005KT 10SM FEW046 SCT080 OVC095 03/M02 A2991 RMK AO2 SLP132 T00281017 51009,KCGI,2021-01-18T02:53:00Z,37.23,-89.58,2.8,-1.7,330,5,,10.0,29.911417,1013.2,,TRUE,TRUE,,,,,,,FEW,4600,SCT,8000,OVC,9500,,,VFR,0.9,,,,,,,,,,,METAR,103.0
KCEZ 180253Z AUTO 06008KT 10SM CLR M02/M10 A3009 RMK AO2 SLP215 T10221100 58001,KCEZ,2021-01-18T02:53:00Z,37.3,-108.63,-2.2,-10.0,60,8,,10.0,30.088583,1021.5,,TRUE,TRUE,,,,,,,CLR,,,,,,,,VFR,-0.1,,,,,,,,,,,METAR,1801.0
KCEW 180253Z AUTO 23004KT 10SM CLR 06/01 A3005 RMK AO2 SLP176 T00610011 51012,KCEW,2021-01-18T02:53:00Z,30.78,-86.52,6.1,1.1,230,4,,10.0,30.050198,1017.6,,TRUE,TRUE,,,,,,,CLR,,,,,,,,VFR,1.2,,,,,,,,,,,METAR,47.0
KCDW 180253Z 24005KT 10SM OVC070 06/M04 A2972 RMK AO2 SLP071 T00561039 51004,KCDW,2021-01-18T02:53:00Z,40.88,-74.28,5.6,-3.9,240,5,,10.0,29.719488,1007.1,,,TRUE,,,,,,,OVC,7000,,,,,,,VFR,0.4,,,,,,,,,,,METAR,52.0
KCDS 180253Z AUTO 21010KT 10SM CLR 05/M06 A3005 RMK AO2 SLP181 T00501056 58006,KCDS,2021-01-18T02:53:00Z,34.43,-100.28,5.0,-5.6,210,10,,10.0,30.050198,1018.1,,TRUE,TRUE,,,,,,,CLR,,,,,,,,VFR,-0.6,,,,,,,,,,,METAR,595.0
KCDR 180253Z AUTO 26004KT 10SM OVC065 02/M08 A2979 RMK AO2 SLP123 T00171078 55000,KCDR,2021-01-18T02:53:00Z,42.83,-103.1,1.7,-7.8,260,4,,10.0,29.790354,1012.3,,TRUE,TRUE,,,,,,,OVC,6500,,,,,,,VFR,0.0,,,,,,,,,,,METAR,1002.0
KCDC 180253Z AUTO 00000KT 10SM CLR 02/M12 A3014 RMK AO2 SLP225 T00171122 58003,KCDC,2021-01-18T02:53:00Z,37.7,-113.1,1.7,-12.2,0,0,,10.0,30.138779,1022.5,,TRUE,TRUE,,,,,,,CLR,,,,,,,,VFR,-0.3,,,,,,,,,,,METAR,1703.0
KCCR 180253Z 22003KT 10SM CLR 15/06 A3001 RMK AO2 SLP147 T01500061 56005,KCCR,2021-01-18T02:53:00Z,38.0,-122.05,15.0,6.1,220,3,,10.0,30.008858,1014.7,,,TRUE,,,,,,,CLR,,,,,,,,VFR,-0.5,,,,,,,,,,,METAR,6.0
KCAG 180253Z AUTO 15004KT 10SM BKN060 OVC080 M01/M03 A3000 RMK AO2 SLP201 T10061033 58014 $,KCAG,2021-01-18T02:53:00Z,40.5,-107.52,-0.6,-3.3,150,4,,10.0,30.0,1020.1,,TRUE,TRUE,TRUE,,,,,,BKN,6000,OVC,8000,,,,,VFR,-1.4,,,,,,,,,,,METAR,1888.0
KBYI 180253Z AUTO 25014G23KT 10SM CLR 03/M02 A3018 RMK AO2 PK WND 25029/0203 SLP238 T00281017 53001,KBYI,2021-01-18T02:53:00Z,42.55,-113.77,2.8,-1.7,250,14,23,10.0,30.180119,1023.8,,TRUE,TRUE,,,,,,,CLR,,,,,,,,VFR,0.1,,,,,,,,,,,METAR,1263.0
KBYG 180253Z AUTO 34021G36KT 10SM BKN080 03/M05 A2981 RMK AO2 PK WND 34036/0253 SLP110 60000 T00331050 55001,KBYG,2021-01-18T02:53:00Z,44.38,-106.72,3.3,-5.0,340,21,36,10.0,29.811024,1011.0,,TRUE,TRUE,,,,,,,BKN,8000,,,,,,,VFR,-0.1,,,,,,0.005,,,,,METAR,1503.0
KBWG 180253Z AUTO 23004KT 10SM SCT044 OVC065 03/M04 A2989 RMK AO2 SLP123 T00281044 51006,KBWG,2021-01-18T02:53:00Z,36.97,-86.42,2.8,-4.4,230,4,,10.0,29.890747,1012.3,,TRUE,TRUE,,,,,,,SCT,4400,OVC,6500,,,,,VFR,0.6,,,,,,,,,,,METAR,159.0
KBVY 180253Z AUTO 25014KT 10SM BKN045 05/M03 A2957 RMK AO2 SLP008 T00501033 52017 $,KBVY,2021-01-18T02:53:00Z,42.58,-70.92,5.0,-3.3,250,14,,10.0,29.568897,1000.8,,TRUE,TRUE,TRUE,,,,,,BKN,4500,,,,,,,VFR,1.7,,,,,,,,,,,METAR,28.0
KBVO 180253Z AUTO 00000KT 10SM CLR M01/M06 A3000 RMK AO2 SLP159 T10111061 58002,KBVO,2021-01-18T02:53:00Z,36.77,-96.02,-1.1,-6.1,0,0,,10.0,30.0,1015.9,,TRUE,TRUE,,,,,,,CLR,,,,,,,,VFR,-0.2,,,,,,,,,,,METAR,210.0
KBUR 180253Z 00000KT 10SM CLR 22/M04 A2993 RMK AO2 SLP126 T02171044 53002 $,KBUR,2021-01-18T02:53:00Z,34.2,-118.37,21.7,-4.4,0,0,,10.0,29.929134,1012.6,,,TRUE,TRUE,,,,,,CLR,,,,,,,,VFR,0.2,,,,,,,,,,,METAR,221.0
KBTR 180253Z 30005KT 10SM CLR 11/M03 A3009 RMK AO2 SLP188 T01111028 53016,KBTR,2021-01-18T02:53:00Z,30.53,-91.15,11.1,-2.8,300,5,,10.0,30.088583,1018.8,,,TRUE,,,,,,,CLR,,,,,,,,VFR,1.6,,,,,,,,,,,METAR,20.0
KBTM 180253Z AUTO 33014G20KT 10SM SCT065 OVC085 M01/M08 A3010 RMK AO2 SLP228 T10061078 53004,KBTM,2021-01-18T02:53:00Z,45.97,-112.5,-0.6,-7.8,330,14,20,10.0,30.100393,1022.8,,TRUE,TRUE,,,,,,,SCT,6500,OVC,8500,,,,,VFR,0.4,,,,,,,,,,,METAR,1680.0
KBTL 180253Z 24008KT 7SM OVC009 M01/M03 A2969 RMK AO2 SNE00 SLP063 P0000 60000 T10111028 50001,KBTL,2021-01-18T02:53:00Z,42.32,-85.25,-1.1,-2.8,240,8,,7.0,29.68996,1006.3,,,TRUE,,,,,,,OVC,900,,,,,,,IFR,0.1,,,,,0.005,0.005,,,,,METAR,282.0
KBRO 180253Z 12005KT 10SM BKN037 18/14 A3008 RMK AO2 SLP186 T01780144 51010,KBRO,2021-01-18T02:53:00Z,25.92,-97.42,17.8,14.4,120,5,,10.0,30.079725,1018.6,,,TRUE,,,,,,,BKN,3700,,,,,,,VFR,1.0,,,,,,,,,,,METAR,6.0
KBRL 180253Z AUTO 29008G16KT 10SM OVC020 M01/M05 A2983 RMK AO2 SLP109 T10111050 58002,KBRL,2021-01-18T02:53:00Z,40.77,-91.13,-1.1,-5.0,290,8,16,10.0,29.828741,1010.9,,TRUE,TRUE,,,,,,,OVC,2000,,,,,,,MVFR,-0.2,,,,,,,,,,,METAR,208.0
KBRD 180253Z AUTO 31006KT 10SM OVC016 M06/M09 A2978 RMK AO2 SLP107 T10611089 52002,KBRD,2021-01-18T02:53:00Z,46.4,-94.13,-6.1,-8.9,310,6,,10.0,29.778543,1010.7,,TRUE,TRUE,,,,,,,OVC,1600,,,,,,,MVFR,0.2,,,,,,,,,,,METAR,372.0
KBPT 180253Z 26004KT 10SM CLR 08/03 A3011 RMK AO2 SLP197 T00780028 51018,KBPT,2021-01-18T02:53:00Z,29.95,-94.03,7.8,2.8,260,4,,10.0,30.109253,1019.7,,,TRUE,,,,,,,CLR,,,,,,,,VFR,1.8,,,,,,,,,,,METAR,6.0
KBPK 180253Z AUTO 26003KT 10SM CLR 04/M05 A2993 RMK AO2 SLP140 T00441050 51006,KBPK,2021-01-18T02:53:00Z,36.37,-92.47,4.4,-5.0,260,3,,10.0,29.929134,1014.0,,TRUE,TRUE,,,,,,,CLR,,,,,,,,VFR,0.6,,,,,,,,,,,METAR,279.0
KBPI 180253Z AUTO 03011G20KT 10SM OVC039 00/M05 A3001 RMK AO2 SLP195 T00001050 58003,KBPI,2021-01-18T02:53:00Z,42.58,-110.1,0.0,-5.0,30,11,20,10.0,30.008858,1019.5,,TRUE,TRUE,,,,,,,OVC,3900,,,,,,,VFR,-0.3,,,,,,,,,,,METAR,2120.0
KBOI 180253Z 27005KT 9SM CLR 02/01 A3030 RMK AO2 SLP282 T00170006 53001,KBOI,2021-01-18T02:53:00Z,43.57,-116.23,1.7,0.6,270,5,,9.0,30.301182,1028.2,,,TRUE,,,,,,,CLR,,,,,,,,VFR,0.1,,,,,,,,,,,METAR,860.0
KBNO 180253Z AUTO 28005KT 10SM 01/M03 A3033 RMK AO2 SLP296 T00111028 51005 $,KBNO,2021-01-18T02:53:00Z,43.6,-118.95,1.1,-2.8,280,5,,10.0,30.33071,1029.6,,TRUE,TRUE,TRUE,,,,,,,,,,,,,,,0.5,,,,,,,,,,,METAR,1263.0
KBNA 180253Z 00000KT 10SM FEW060 SCT080 BKN100 04/M07 A2991 RMK AO2 SLP131 T00441067 51014,KBNA,2021-01-18T02:53:00Z,36.12,-86.68,4.4,-6.7,0,0,,10.0,29.911417,1013.1,,,TRUE,,,,,,,FEW,6000,SCT,8000,BKN,10000,,,VFR,1.4,,,,,,,,,,,METAR,168.0
KBMQ 180253Z AUTO 02003KT 10SM CLR 09/M02 A3013 RMK AO2 SLP201 T00941017 51008,KBMQ,2021-01-18T02:53:00Z,30.73,-98.23,9.4,-1.7,20,3,,10.0,30.129921,1020.1,,TRUE,TRUE,,,,,,,CLR,,,,,,,,VFR,0.8,,,,,,,,,,,METAR,387.0
KBLI 180253Z 00000KT 10SM BKN017 OVC026 07/06 A3053 RMK AO2 SLP345 T00720056 53010,KBLI,2021-01-18T02:53:00Z,48.8,-122.53,7.2,5.6,0,0,,10.0,30.528543,1034.5,,,TRUE,,,,,,,BKN,1700,OVC,2600,,,,,MVFR,1.0,,,,,,,,,,,METAR,46.0
KBKV 180253Z 17003KT 10SM CLR 08/07 A3009 RMK AO2 SLP189 T00830067 53007,KBKV,2021-01-18T02:53:00Z,28.47,-82.45,8.3,6.7,170,3,,10.0,30.088583,1018.9,,,TRUE,,,,,,,CLR,,,,,,,,VFR,0.7,,,,,,,,,,,METAR,21.0
KBKL 180253Z 23008KT 5SM -SN BR BKN008 BKN013 OVC021 01/M01 A2969 RMK AO2 SLP059 P0000 60002 T00111006 58001,KBKL,2021-01-18T02:53:00Z,41.53,-81.67,1.1,-0.6,230,8,,5.0,29.68996,1005.9,,,TRUE,,,,,,-SN BR,BKN,800,BKN,1300,OVC,2100,,,IFR,-0.1,,,,,0.005,0.02,,,,,METAR,177.0
KBKE 180253Z AUTO 33004KT 10SM CLR 02/M02 A3034 RMK AO2 SLP296 T00221022 53005,KBKE,2021-01-18T02:53:00Z,44.85,-117.82,2.2,-2.2,330,4,,10.0,30.339567,1029.6,,TRUE,TRUE,,,,,,,CLR,,,,,,,,VFR,0.5,,,,,,,,,,,METAR,1025.0
KBIV 180253Z AUTO 35004KT 10SM BKN042 OVC100 M01/M03 A2971 RMK AO2 SNE37 SLP068 P0000 60001 T10061033 51007,KBIV,2021-01-18T02:53:00Z,42.75,-86.1,-0.6,-3.3,350,4,,10.0,29.71063,1006.8,,TRUE,TRUE,,,,,,,BKN,4200,OVC,10000,,,,,VFR,0.7,,,,,0.005,0.01,,,,,METAR,207.0
KBIL 180253Z 33019G29KT 10SM FEW035 SCT050 BKN080 02/M02 A2994 RMK AO2 PK WND 31037/0154 RAB02E07SNB02E23 SLP159 P0000 60000 T00221017 51032,KBIL,2021-01-18T02:53:00Z,45.8,-108.55,2.2,-1.7,330,19,29,10.0,29.940945,1015.9,,,TRUE,,,,,,,FEW,3500,SCT,5000,BKN,8000,,,VFR,3.2,,,,,0.005,0.005,,,,,METAR,1089.0
KBHM 180253Z 27007KT 10SM FEW080 07/M04 A2998 RMK AO2 SLP153 T00721044 53018,KBHM,2021-01-18T02:53:00Z,33.57,-86.75,7.2,-4.4,270,7,,10.0,29.97933,1015.3,,,TRUE,,,,,,,FEW,8000,,,,,,,VFR,1.8,,,,,,,,,,,METAR,191.0
KBGR 180253Z 26008KT 10SM OVC050 02/M06 A2941 RMK AO2 SLP962 BINOVC T00171056 52030,KBGR,2021-01-18T02:53:00Z,44.8,-68.82,1.7,-5.6,260,8,,10.0,29.409449,996.2,,,TRUE,,,,,,,OVC,5000,,,,,,,VFR,3.0,,,,,,,,,,,METAR,45.0
KBGM 180253Z AUTO 25008KT 10SM BKN035 BKN046 OVC065 00/M03 A2959 RMK AO2 SNB04E13 SLP037 P0000 60000 T00001033 50001,KBGM,2021-01-18T02:53:00Z,42.22,-75.98,0.0,-3.3,250,8,,10.0,29.589567,1003.7,,TRUE,TRUE,,,,,,,BKN,3500,BKN,4600,OVC,6500,,,VFR,0.1,,,,,0.005,0.005,,,,,METAR,485.0
KBFM 180253Z AUTO 23005KT 10SM CLR 08/04 A3006 RMK AO2 SLP179 T00830039 51010,KBFM,2021-01-18T02:53:00Z,30.62,-88.07,8.3,3.9,230,5,,10.0,30.059055,1017.9,,TRUE,TRUE,,,,,,,CLR,,,,,,,,VFR,1.0,,,,,,,,,,,METAR,7.0
KBFI 180253Z 00000KT 10SM SCT050 08/06 A3052 RMK AO2 SLP336 T00780056 53008,KBFI,2021-01-18T02:53:00Z,47.55,-122.32,7.8,5.6,0,0,,10.0,30.519686,1033.6,,,TRUE,,,,,,,SCT,5000,,,,,,,VFR,0.8,,,,,,,,,,,METAR,7.0
KBFF 180253Z AUTO 02005KT 10SM OVC080 03/M06 A2977 RMK AO2 SLP104 T00331061 56012,KBFF,2021-01-18T02:53:00Z,41.87,-103.6,3.3,-6.1,20,5,,10.0,29.769686,1010.4,,TRUE,TRUE,,,,,,,OVC,8000,,,,,,,VFR,-1.2,,,,,,,,,,,METAR,1204.0
KBDE 180253Z AUTO 32009KT 10SM OVC014 M11/M13 A2980 RMK AO2 SNE0155 SLP116 P0000 60000 T11111128 53004,KBDE,2021-01-18T02:53:00Z,48.73,-94.62,-11.1,-12.8,320,9,,10.0,29.799213,1011.6,,TRUE,TRUE,,,,,,,OVC,1400,,,,,,,MVFR,0.4,,,,,0.005,0.005,,,,,METAR,330.0
KBCT 180253Z 00000KT 10SM CLR 16/10 A3007,KBCT,2021-01-18T02:53:00Z,26.38,-80.1,16.0,10.0,0,0,,10.0,30.070866,,,,,,,,,,,CLR,,,,,,,,VFR,,,,,,,,,,,,METAR,3.0
KBCE 180253Z AUTO 31012KT 10SM CLR 01/M13 A3017 RMK AO2 SLP213 T00111128 58006 $,KBCE,2021-01-18T02:53:00Z,37.7,-112.15,1.1,-12.8,310,12,,10.0,30.171259,1021.3,,TRUE,TRUE,TRUE,,,,,,CLR,,,,,,,,VFR,-0.6,,,,,,,,,,,METAR,2311.0
KBBW 180253Z AUTO 00000KT 10SM OVC070 00/M07 A2984 RMK AO2 SLP125 T00001067 56005,KBBW,2021-01-18T02:53:00Z,41.43,-99.63,0.0,-6.7,0,0,,10.0,29.840551,1012.5,,TRUE,TRUE,,,,,,,OVC,7000,,,,,,,VFR,-0.5,,,,,,,,,,,METAR,771.0
KBAF 180253Z 21007KT 10SM OVC060 03/M03 A2962 RMK AO2 SLP034 T00331028 50008,KBAF,2021-01-18T02:53:00Z,42.17,-72.72,3.3,-2.8,210,7,,10.0,29.619095,1003.4,,,TRUE,,,,,,,OVC,6000,,,,,,,VFR,0.8,,,,,,,,,,,METAR,80.0
KAZO 180253Z 22006KT 6SM BR OVC008 M01/M03 A2970 RMK AO2 SNB15E28 CIG 007V012 SLP066 P0000 60000 T10111028 50002,KAZO,2021-01-18T02:53:00Z,42.23,-85.55,-1.1,-2.8,220,6,,6.0,29.698818,1006.6,,,TRUE,,,,,,BR,OVC,800,,,,,,,IFR,0.2,,,,,0.005,0.005,,,,,METAR,264.0
KAWM 180253Z AUTO VRB03KT 10SM CLR 05/M03 A2996 RMK AO2 SLP146 T00501028 53012,KAWM,2021-01-18T02:53:00Z,35.13,-90.23,5.0,-2.8,0,3,,10.0,29.958662,1014.6,,TRUE,TRUE,,,,,,,CLR,,,,,,,,VFR,1.2,,,,,,,,,,,METAR,64.0
KAUS 180253Z 00000KT 10SM FEW250 07/M01 A3011 RMK AO2 SLP199 T00671006 51010,KAUS,2021-01-18T02:53:00Z,30.18,-97.68,6.7,-0.6,0,0,,10.0,30.109253,1019.9,,,TRUE,,,,,,,FEW,25000,,,,,,,VFR,1.0,,,,,,,,,,,METAR,148.0
KAUG 180253Z AUTO 28009G18KT 250V310 10SM BKN037 OVC048 02/M05 A2944 RMK AO2 SLP974 T00171050 51017,KAUG,2021-01-18T02:53:00Z,44.32,-69.8,1.7,-5.0,280,9,18,10.0,29.438976,997.4,,TRUE,TRUE,,,,,,,BKN,3700,OVC,4800,,,,,VFR,1.7,,,,,,,,,,,METAR,107.0
KATY 180253Z AUTO 01003KT 10SM OVC032 M04/M04 A2980 RMK AO2 SLP114 T10391044 58002,KATY,2021-01-18T02:53:00Z,44.9,-97.15,-3.9,-4.4,10,3,,10.0,29.799213,1011.4,,TRUE,TRUE,,,,,,,OVC,3200,,,,,,,VFR,-0.2,,,,,,,,,,,METAR,531.0
KASX 180253Z AUTO 19003KT 10SM FEW013 OVC020 M04/M05 A2976 RMK AO2 SLP092 I1001 I3001 T10441050 58003,KASX,2021-01-18T02:53:00Z,46.55,-90.92,-4.4,-5.0,190,3,,10.0,29.760826,1009.2,,TRUE,TRUE,,,,,,,FEW,1300,OVC,2000,,,,,MVFR,-0.3,,,,,,,,,,,METAR,249.0
KASE 180253Z 22003KT 10SM OVC080 M02/M08 A3005 RMK AO2 SLP164 T10171083 56011,KASE,2021-01-18T02:53:00Z,39.23,-106.87,-1.7,-8.3,220,3,,10.0,30.050198,1016.4,,,TRUE,,,,,,,OVC,8000,,,,,,,VFR,-1.1,,,,,,,,,,,METAR,2384.0
KASD 180253Z AUTO 00000KT 10SM CLR 06/02 A3007 RMK AO2 SLP182 T00560017 53013,KASD,2021-01-18T02:53:00Z,30.35,-89.82,5.6,1.7,0,0,,10.0,30.070866,1018.2,,TRUE,TRUE,,,,,,,CLR,,,,,,,,VFR,1.3,,,,,,,,,,,METAR,8.0
KARA 180253Z AUTO 34003KT 10SM CLR 08/03 A3012 RMK AO2 SLP197 T00780028 51019,KARA,2021-01-18T02:53:00Z,30.03,-91.88,7.8,2.8,340,3,,10.0,30.121063,1019.7,,TRUE,TRUE,,,,,,,CLR,,,,,,,,VFR,1.9,,,,,,,,,,,METAR,5.0
KAPF 180253Z AUTO 13004KT 10SM FEW085 BKN110 16/12 A3006 RMK AO2 SLP178 T01560122 50005 $,KAPF,2021-01-18T02:53:00Z,26.15,-81.77,15.6,12.2,130,4,,10.0,30.059055,1017.8,,TRUE,TRUE,TRUE,,,,,,FEW,8500,BKN,11000,,,,,VFR,0.5,,,,,,,,,,,METAR,2.0
KAPA 180253Z 16008KT 10SM BKN110 BKN220 04/M08 A2980 RMK AO2 SLP106 T00441083 58017,KAPA,2021-01-18T02:53:00Z,39.57,-104.85,4.4,-8.3,160,8,,10.0,29.799213,1010.6,,,TRUE,,,,,,,BKN,11000,BKN,22000,,,,,VFR,-1.7,,,,,,,,,,,METAR,1791.0
KAOO 180253Z AUTO 21008KT 10SM FEW024 BKN036 00/M03 A2969 RMK AO2 SLP066 T00001033 57005,KAOO,2021-01-18T02:53:00Z,40.3,-78.32,0.0,-3.3,210,8,,10.0,29.68996,1006.6,,TRUE,TRUE,,,,,,,FEW,2400,BKN,3600,,,,,VFR,-0.5,,,,,,,,,,,METAR,450.0
KANB 180253Z AUTO 00000KT 10SM BKN080 03/M02 A2994 RMK AO2 SLP147 T00281022 53008,KANB,2021-01-18T02:53:00Z,33.58,-85.85,2.8,-2.2,0,0,,10.0,29.940945,1014.7,,TRUE,TRUE,,,,,,,BKN,8000,,,,,,,VFR,0.8,,,,,,,,,,,METAR,187.0
KAMW 180253Z AUTO 27007KT 10SM FEW026 BKN031 OVC050 M01/M04 A2982 RMK AO2 SLP107 T10111039 58002,KAMW,2021-01-18T02:53:00Z,41.98,-93.62,-1.1,-3.9,270,7,,10.0,29.819881,1010.7,,TRUE,TRUE,,,,,,,FEW,2600,BKN,3100,OVC,5000,,,VFR,-0.2,,,,,,,,,,,METAR,282.0
KAMG 180253Z AUTO 00000KT 10SM CLR 03/01 A3000 RMK AO2 SLP160 T00330006 51006,KAMG,2021-01-18T02:53:00Z,31.53,-82.5,3.3,0.6,0,0,,10.0,30.0,1016.0,,TRUE,TRUE,,,,,,,CLR,,,,,,,,VFR,0.6,,,,,,,,,,,METAR,61.0
KAMA 180253Z 20010KT 10SM CLR 00/M08 A2999 RMK AO2 SLP169 T00001078 58013,KAMA,2021-01-18T02:53:00Z,35.22,-101.72,0.0,-7.8,200,10,,10.0,29.991142,1016.9,,,TRUE,,,,,,,CLR,,,,,,,,VFR,-1.3,,,,,,,,,,,METAR,1102.0
KALW 180253Z AUTO 15005KT 10SM CLR 06/03 A3037 RMK AO2 SLP294 T00560028 53006,KALW,2021-01-18T02:53:00Z,46.1,-118.28,5.6,2.8,150,5,,10.0,30.369095,1029.4,,TRUE,TRUE,,,,,,,CLR,,,,,,,,VFR,0.6,,,,,,,,,,,METAR,355.0
KAKO 180253Z AUTO 17006KT 10SM OVC080 03/M07 A2981 RMK AO2 SLP115 T00281072 58016 $,KAKO,2021-01-18T02:53:00Z,40.17,-103.22,2.8,-7.2,170,6,,10.0,29.811024,1011.5,,TRUE,TRUE,TRUE,,,,,,OVC,8000,,,,,,,VFR,-1.6,,,,,,,,,,,METAR,1431.0
KAIA 180253Z AUTO 23005KT 10SM BKN075 OVC095 01/M06 A2977 RMK AO2 SLP114 6//// T00111061 58009 PNO,KAIA,2021-01-18T02:53:00Z,42.05,-102.8,1.1,-6.1,230,5,,10.0,29.769686,1011.4,,TRUE,TRUE,,,,,,,BKN,7500,OVC,9500,,,,,VFR,-0.9,,,,,,,,,,,METAR,1198.0
KAGS 180253Z 00000KT 10SM CLR 00/M02 A2996 RMK AO2 SLP144 T00001017 51007,KAGS,2021-01-18T02:53:00Z,33.37,-81.97,0.0,-1.7,0,0,,10.0,29.958662,1014.4,,,TRUE,,,,,,,CLR,,,,,,,,VFR,0.7,,,,,,,,,,,METAR,40.0
KAFW 180253Z 00000KT 10SM CLR 08/M06 A3009 RMK AO2 SLP194 T00781056 51005,KAFW,2021-01-18T02:53:00Z,32.97,-97.32,7.8,-5.6,0,0,,10.0,30.088583,1019.4,,,TRUE,,,,,,,CLR,,,,,,,,VFR,0.5,,,,,,,,,,,METAR,208.0
KAEX 180253Z 00000KT 10SM CLR 06/M02 A3010 RMK AO2 SLP196 T00611017 51017,KAEX,2021-01-18T02:53:00Z,31.33,-92.57,6.1,-1.7,0,0,,10.0,30.100393,1019.6,,,TRUE,,,,,,,CLR,,,,,,,,VFR,1.7,,,,,,,,,,,METAR,25.0
KACV 180253Z AUTO 36004KT 3SM BR FEW008 11/08 A3015 RMK AO2 SLP215 T01060083 50000,KACV,2021-01-18T02:53:00Z,40.98,-124.1,10.6,8.3,360,4,,3.0,30.15059,1021.5,,TRUE,TRUE,,,,,,BR,FEW,800,,,,,,,MVFR,0.0,,,,,,,,,,,METAR,63.0
KACK 180253Z AUTO 25015KT 10SM CLR 06/M01 A2968 RMK AO2 SLP049 T00561011 51014,KACK,2021-01-18T02:53:00Z,41.25,-70.07,5.6,-1.1,250,15,,10.0,29.681103,1004.9,,TRUE,TRUE,,,,,,,CLR,,,,,,,,VFR,1.4,,,,,,,,,,,METAR,12.0
KABY 180253Z AUTO 20005KT 10SM CLR 04/01 A3003 RMK AO2 SLP170 T00440006 53008,KABY,2021-01-18T02:53:00Z,31.53,-84.2,4.4,0.6,200,5,,10.0,30.029528,1017.0,,TRUE,TRUE,,,,,,,CLR,,,,,,,,VFR,0.8,,,,,,,,,,,METAR,60.0
KABR 180253Z AUTO 32006KT 10SM CLR M04/M08 A2984 RMK AO2 SLP120 T10441083 58003,KABR,2021-01-18T02:53:00Z,45.45,-98.42,-4.4,-8.3,320,6,,10.0,29.840551,1012.0,,TRUE,TRUE,,,,,,,CLR,,,,,,,,VFR,-0.3,,,,,,,,,,,METAR,397.0
KAAF 180253Z AUTO 23003KT 10SM CLR 08/07 A3005 RMK AO2 SLP175 T00830072 51005,KAAF,2021-01-18T02:53:00Z,29.73,-85.03,8.3,7.2,230,3,,10.0,30.050198,1017.5,,TRUE,TRUE,,,,,,,CLR,,,,,,,,VFR,0.5,,,,,,,,,,,METAR,5.0
PTRO 180252Z 15008KT 13SM SCT015CB BKN110 OVC280 27/24 A2981 RMK CB ALQDS,PTRO,2021-01-18T02:52:00Z,7.37,134.55,27.0,24.0,150,8,,13.0,29.811024,,,,,,,,,,,SCT,1500,BKN,11000,OVC,28000,,,VFR,,,,,,,,,,,,METAR,30.0
PATA 180252Z 08005KT 10SM OVC090 M11/M15 A2966 RMK AO2 SLP051 T11061150 51012,PATA,2021-01-18T02:52:00Z,65.17,-152.1,-10.6,-15.0,80,5,,10.0,29.660433,1005.1,,,TRUE,,,,,,,OVC,9000,,,,,,,VFR,1.2,,,,,,,,,,,METAR,62.0
PABA 180252Z AUTO 08020KT 10SM OVC012 M18/M21 A2986 RMK AO2 SLP119 T11831206 58003 FZRANO,PABA,2021-01-18T02:52:00Z,70.13,-143.58,-18.3,-20.6,80,20,,10.0,29.861221,1011.9,,TRUE,TRUE,,,,TRUE,,,OVC,1200,,,,,,,MVFR,-0.3,,,,,,,,,,,METAR,1.0
MMTO 180252Z 12004KT 7SM FEW015 SCT070 BKN200 09/03 A3036 RMK SLP151 52010 901 8/438,MMTO,2021-01-18T02:52:00Z,19.35,-99.57,9.0,3.0,120,4,,7.0,30.360237,1015.1,,,,,,,,,,FEW,1500,SCT,7000,BKN,20000,,,VFR,1.0,,,,,,,,,,,SPECI,2582.0
MMML 180252Z 27004KT 10SM SKC 20/M05 A2994 RMK SLP139 57003 913,MMML,2021-01-18T02:52:00Z,32.62,-115.23,20.0,-5.0,270,4,,10.0,29.940945,1013.9,,,,,,,,,,SKC,,,,,,,,VFR,-0.3,,,,,,,,,,,METAR,21.0
KVTN 180252Z AUTO 23004KT 10SM OVC080 01/M07 A2980 RMK AO2 SLP117 T00061067 58006,KVTN,2021-01-18T02:52:00Z,42.87,-100.55,0.6,-6.7,230,4,,10.0,29.799213,1011.7,,TRUE,TRUE,,,,,,,OVC,8000,,,,,,,VFR,-0.6,,,,,,,,,,,METAR,790.0
KTRM 180252Z AUTO 03003KT 10SM CLR 14/M02 A2992 RMK AO2 SLP133 T01391017 56000,KTRM,2021-01-18T02:52:00Z,33.63,-116.17,13.9,-1.7,30,3,,10.0,29.920275,1013.3,,TRUE,TRUE,,,,,,,CLR,,,,,,,,VFR,0.0,,,,,,,,,,,METAR,-39.0
KTOL 180252Z 26011KT 10SM OVC031 M01/M02 A2971 RMK AO2 SNE21 SLP067 P0000 60004 T10061022 51004 $,KTOL,2021-01-18T02:52:00Z,41.58,-83.8,-0.6,-2.2,260,11,,10.0,29.71063,1006.7,,,TRUE,TRUE,,,,,,OVC,3100,,,,,,,VFR,0.4,,,,,0.005,0.04,,,,,METAR,206.0
KTAN 180252Z AUTO 25007KT 10SM BKN055 05/M04 A2963 RMK AO2 SLP034 T00501039 52015,KTAN,2021-01-18T02:52:00Z,41.88,-71.02,5.0,-3.9,250,7,,10.0,29.630905,1003.4,,TRUE,TRUE,,,,,,,BKN,5500,,,,,,,VFR,1.5,,,,,,,,,,,METAR,8.0
KSUX 180252Z AUTO 23004KT 10SM OVC050 M03/M04 A2986 RMK AO2 SLP123 T10281044 50000,KSUX,2021-01-18T02:52:00Z,42.38,-96.38,-2.8,-4.4,230,4,,10.0,29.861221,1012.3,,TRUE,TRUE,,,,,,,OVC,5000,,,,,,,VFR,0.0,,,,,,,,,,,METAR,332.0
KSPS 180252Z 23009KT 10SM CLR 04/M04 A3006 RMK AO2 SLP182 T00441044 58001,KSPS,2021-01-18T02:52:00Z,33.98,-98.5,4.4,-4.4,230,9,,10.0,30.059055,1018.2,,,TRUE,,,,,,,CLR,,,,,,,,VFR,-0.1,,,,,,,,,,,METAR,310.0
KSGF 180252Z 30004KT 10SM CLR 02/M04 A2992 RMK AO2 SLP142 T00221039 52008,KSGF,2021-01-18T02:52:00Z,37.23,-93.38,2.2,-3.9,300,4,,10.0,29.920275,1014.2,,,TRUE,,,,,,,CLR,,,,,,,,VFR,0.8,,,,,,,,,,,METAR,387.0
KREO 180252Z AUTO 09007KT 02/M02 A3030 RMK AO1 SLP289 T00221022 50006,KREO,2021-01-18T02:52:00Z,42.58,-117.87,2.2,-2.2,90,7,,,30.301182,1028.9,,TRUE,TRUE,,,,,,,,,,,,,,,,0.6,,,,,,,,,,,METAR,1237.0
KRAP 180252Z 02008KT 10SM OVC055 01/M02 A2977 RMK AO2 SLP116 T00061017 58004,KRAP,2021-01-18T02:52:00Z,44.05,-103.05,0.6,-1.7,20,8,,10.0,29.769686,1011.6,,,TRUE,,,,,,,OVC,5500,,,,,,,VFR,-0.4,,,,,,,,,,,METAR,965.0
KPYM 180252Z AUTO 23015KT 10SM OVC050 04/M03 A2962 RMK AO2 SLP032 T00441033 51017,KPYM,2021-01-18T02:52:00Z,41.92,-70.73,4.4,-3.3,230,15,,10.0,29.619095,1003.2,,TRUE,TRUE,,,,,,,OVC,5000,,,,,,,VFR,1.7,,,,,,,,,,,METAR,42.0
KPWK 180252Z 29005KT 10SM OVC040 M01/M03 A2976 RMK AO2 SLP085 T10061033 51006,KPWK,2021-01-18T02:52:00Z,42.12,-87.9,-0.6,-3.3,290,5,,10.0,29.760826,1008.5,,,TRUE,,,,,,,OVC,4000,,,,,,,VFR,0.6,,,,,,,,,,,METAR,194.0
KPSX 180252Z AUTO 04005KT 10SM CLR 08/06 A3013 RMK AO2 SLP201 T00780061 53015 $,KPSX,2021-01-18T02:52:00Z,28.72,-96.25,7.8,6.1,40,5,,10.0,30.129921,1020.1,,TRUE,TRUE,TRUE,,,,,,CLR,,,,,,,,VFR,1.5,,,,,,,,,,,METAR,4.0
KPPF 180252Z AUTO A2996 RMK AO2 SLPNO 58003 PWINO FZRANO TSNO $,KPPF,2021-01-18T02:52:00Z,37.33,-95.5,,,,,,,29.958662,,,TRUE,TRUE,TRUE,,TRUE,TRUE,TRUE,,,,,,,,,,,-0.3,,,,,,,,,,,METAR,265.0
KP69 180252Z AUTO 33004KT 02/01 A3037 RMK AO1 SLP305 T00170011 53008,KP69,2021-01-18T02:52:00Z,46.15,-115.6,1.7,1.1,330,4,,,30.369095,1030.5,,TRUE,TRUE,,,,,,,,,,,,,,,,0.8,,,,,,,,,,,METAR,447.0
KORE 180252Z AUTO 23008KT 10SM OVC040 03/M03 A2959 RMK AO2 SLP025 T00331028 51014,KORE,2021-01-18T02:52:00Z,42.57,-72.28,3.3,-2.8,230,8,,10.0,29.589567,1002.5,,TRUE,TRUE,,,,,,,OVC,4000,,,,,,,VFR,1.4,,,,,,,,,,,METAR,165.0
KOMA 180252Z 00000KT 10SM SCT055 M02/M04 A2986 RMK AO2 SLP122 T10171044 57008,KOMA,2021-01-18T02:52:00Z,41.32,-95.9,-1.7,-4.4,0,0,,10.0,29.861221,1012.2,,,TRUE,,,,,,,SCT,5500,,,,,,,VFR,-0.8,,,,,,,,,,,METAR,299.0
KOKC 180252Z 00000KT 10SM CLR 01/M09 A3002 RMK AO2 SLP172 T00111089 58004,KOKC,2021-01-18T02:52:00Z,35.38,-97.6,1.1,-8.9,0,0,,10.0,30.02067,1017.2,,,TRUE,,,,,,,CLR,,,,,,,,VFR,-0.4,,,,,,,,,,,METAR,391.0
KOKB 180252Z AUTO 00000KT 10SM CLR 12/01 A2993 RMK AO2 SLP133 T01170006 53004,KOKB,2021-01-18T02:52:00Z,33.22,-117.35,11.7,0.6,0,0,,10.0,29.929134,1013.3,,TRUE,TRUE,,,,,,,CLR,,,,,,,,VFR,0.4,,,,,,,,,,,METAR,7.0
KNZY 180252Z 00000KT 10SM CLR 14/12 A2994 RMK AO2 SLP138 T01440117 53003,KNZY,2021-01-18T02:52:00Z,32.7,-117.22,14.4,11.7,0,0,,10.0,29.940945,1013.8,,,TRUE,,,,,,,CLR,,,,,,,,VFR,0.3,,,,,,,,,,,METAR,4.0
KNTD 180252Z AUTO 35004KT 10SM CLR 16/07 A2994 RMK AO2 SLP141 T01610067 53001 VISNO N $,KNTD,2021-01-18T02:52:00Z,34.12,-119.12,16.1,6.7,350,4,,10.0,29.940945,1014.1,,TRUE,TRUE,TRUE,,,,,,CLR,,,,,,,,VFR,0.1,,,,,,,,,,,METAR,1.0
KNRB 180252Z AUTO 24007KT 10SM CLR 11/04 A3003 RMK AO2 SLP169 T01110044 51009,KNRB,2021-01-18T02:52:00Z,30.38,-81.42,11.1,4.4,240,7,,10.0,30.029528,1016.9,,TRUE,TRUE,,,,,,,CLR,,,,,,,,VFR,0.9,,,,,,,,,,,METAR,4.0
KNHK 180252Z AUTO 20006KT 10SM BKN075 A2980 RMK AO2 SLP093 54000 $,KNHK,2021-01-18T02:52:00Z,38.28,-76.4,,,200,6,,10.0,29.799213,1009.3,,TRUE,TRUE,TRUE,,,,,,BKN,7500,,,,,,,VFR,,,,,,,,,,,,SPECI,5.0
KNFW 180252Z AUTO 33003KT 10SM CLR 07/M02 A3011 RMK AO2 SLP177 T00671022 51008 VISNO S $,KNFW,2021-01-18T02:52:00Z,32.78,-97.43,6.7,-2.2,330,3,,10.0,30.109253,1017.7,,TRUE,TRUE,TRUE,,,,,,CLR,,,,,,,,VFR,0.8,,,,,,,,,,,METAR,188.0
KN60 180252Z AUTO 00000KT M03/M06 A2978 RMK AO1 SLP113 T10281056 56005,KN60,2021-01-18T02:52:00Z,47.65,-101.43,-2.8,-5.6,0,0,,,29.778543,1011.3,,TRUE,TRUE,,,,,,,,,,,,,,,,-0.5,,,,,,,,,,,METAR,582.0
KMWH 180252Z 00000KT 9SM CLR 02/00 A3037 RMK AO2 SLP296 T00220000 53010,KMWH,2021-01-18T02:52:00Z,47.2,-119.32,2.2,0.0,0,0,,9.0,30.369095,1029.6,,,TRUE,,,,,,,CLR,,,,,,,,VFR,1.0,,,,,,,,,,,METAR,355.0
KMLI 180252Z 28005KT 10SM OVC029 M04/M08 A2981 RMK AO2 SLP104 T10441078 55003,KMLI,2021-01-18T02:52:00Z,41.45,-90.52,-4.4,-7.8,280,5,,10.0,29.811024,1010.4,,,TRUE,,,,,,,OVC,2900,,,,,,,MVFR,-0.3,,,,,,,,,,,METAR,174.0
KMLF 180252Z AUTO 36005KT 10SM CLR M02/M05 A3015 RMK AO2 SLP245 T10171050 58005,KMLF,2021-01-18T02:52:00Z,38.42,-113.02,-1.7,-5.0,360,5,,10.0,30.15059,1024.5,,TRUE,TRUE,,,,,,,CLR,,,,,,,,VFR,-0.5,,,,,,,,,,,METAR,1537.0
KMKE 180252Z 30006KT 9SM -SN BKN045 OVC080 M01/M05 A2974 RMK AO2 SLP078 P0000 60000 T10111050 51006,KMKE,2021-01-18T02:52:00Z,42.95,-87.9,-1.1,-5.0,300,6,,9.0,29.740158,1007.8,,,TRUE,,,,,,-SN,BKN,4500,OVC,8000,,,,,VFR,0.6,,,,,0.005,0.005,,,,,METAR,203.0
KMHK 180252Z 00000KT 10SM CLR M03/M08 A2991 RMK AO2 SLP138 T10331083 58003,KMHK,2021-01-18T02:52:00Z,39.13,-96.68,-3.3,-8.3,0,0,,10.0,29.911417,1013.8,,,TRUE,,,,,,,CLR,,,,,,,,VFR,-0.3,,,,,,,,,,,SPECI,320.0
KMEB 180252Z AUTO 23004KT 10SM CLR 03/M01 A2993 RMK AO2 SLP135 T00281006 50008,KMEB,2021-01-18T02:52:00Z,34.78,-79.37,2.8,-0.6,230,4,,10.0,29.929134,1013.5,,TRUE,TRUE,,,,,,,CLR,,,,,,,,VFR,0.8,,,,,,,,,,,METAR,65.0
KMBG 180252Z AUTO 07008KT 10SM BKN085 OVC100 M01/M06 A2978 RMK AO2 SLP104 T10061061 58005,KMBG,2021-01-18T02:52:00Z,45.55,-100.42,-0.6,-6.1,70,8,,10.0,29.778543,1010.4,,TRUE,TRUE,,,,,,,BKN,8500,OVC,10000,,,,,VFR,-0.5,,,,,,,,,,,METAR,515.0
KLWC 180252Z AUTO 00000KT 10SM CLR M04/M06 A2992 RMK AO1 SLP139 T10391056 58002,KLWC,2021-01-18T02:52:00Z,39.02,-95.22,-3.9,-5.6,0,0,,10.0,29.920275,1013.9,,TRUE,TRUE,,,,,,,CLR,,,,,,,,VFR,-0.2,,,,,,,,,,,METAR,252.0
KIOW 180252Z AUTO 00000KT 10SM OVC017 M03/M06 A2983 RMK AO2 SLP110 T10281056 58003,KIOW,2021-01-18T02:52:00Z,41.63,-91.55,-2.8,-5.6,0,0,,10.0,29.828741,1011.0,,TRUE,TRUE,,,,,,,OVC,1700,,,,,,,MVFR,-0.3,,,,,,,,,,,METAR,199.0
KIJD 180252Z AUTO 23006KT 10SM FEW060 04/M04 A2965 RMK AO2 SLP040 T00441039 51008,KIJD,2021-01-18T02:52:00Z,41.75,-72.18,4.4,-3.9,230,6,,10.0,29.648623,1004.0,,TRUE,TRUE,,,,,,,FEW,6000,,,,,,,VFR,0.8,,,,,,,,,,,METAR,73.0
KIEN 180252Z AUTO 26003KT 10SM OVC060 04/M06 A2977 RMK AO2 SLP114 T00391056 58005,KIEN,2021-01-18T02:52:00Z,43.03,-102.52,3.9,-5.6,260,3,,10.0,29.769686,1011.4,,TRUE,TRUE,,,,,,,OVC,6000,,,,,,,VFR,-0.5,,,,,,,,,,,METAR,1002.0
KIAD 180252Z 22005KT 10SM BKN080 BKN140 03/M02 A2976 RMK AO2 SLP081 T00331022 58002,KIAD,2021-01-18T02:52:00Z,38.93,-77.45,3.3,-2.2,220,5,,10.0,29.760826,1008.1,,,TRUE,,,,,,,BKN,8000,BKN,14000,,,,,VFR,-0.2,,,,,,,,,,,METAR,90.0
KHUT 180252Z 00000KT 10SM CLR M03/M09 A2993 RMK AO2 SLP142 T10281094 58006,KHUT,2021-01-18T02:52:00Z,38.07,-97.87,-2.8,-9.4,0,0,,10.0,29.929134,1014.2,,,TRUE,,,,,,,CLR,,,,,,,,VFR,-0.6,,,,,,,,,,,METAR,464.0
KHRL 180252Z 10006KT 10SM CLR 14/13 A3008 RMK AO2 SLP186 T01390128 53008,KHRL,2021-01-18T02:52:00Z,26.23,-97.65,13.9,12.8,100,6,,10.0,30.079725,1018.6,,,TRUE,,,,,,,CLR,,,,,,,,VFR,0.8,,,,,,,,,,,METAR,9.0
KHIE 180252Z AUTO 25009KT 10SM OVC024 M02/M04 A2946 RMK AO2 SLP990 T10171044 51008,KHIE,2021-01-18T02:52:00Z,44.37,-71.55,-1.7,-4.4,250,9,,10.0,29.459646,999.0,,TRUE,TRUE,,,,,,,OVC,2400,,,,,,,MVFR,0.8,,,,,,,,,,,METAR,321.0
KGLS 180252Z AUTO 21005KT 10SM CLR 13/08 A3013 RMK AO2 SLP203 T01280083 53013,KGLS,2021-01-18T02:52:00Z,29.27,-94.87,12.8,8.3,210,5,,10.0,30.129921,1020.3,,TRUE,TRUE,,,,,,,CLR,,,,,,,,VFR,1.3,,,,,,,,,,,METAR,2.0
KFIT 180252Z AUTO VRB06G18KT 10SM OVC043 04/M03 A2959 RMK AO2 SLP023 T00441028 51019,KFIT,2021-01-18T02:52:00Z,42.55,-71.75,4.4,-2.8,0,6,18,10.0,29.589567,1002.3,,TRUE,TRUE,,,,,,,OVC,4300,,,,,,,VFR,1.9,,,,,,,,,,,METAR,102.0
KDVN 180252Z AUTO 29008KT 10SM OVC026 M05/M08 A2982 RMK AO2 SLP106 T10501078 50000,KDVN,2021-01-18T02:52:00Z,41.62,-90.58,-5.0,-7.8,290,8,,10.0,29.819881,1010.6,,TRUE,TRUE,,,,,,,OVC,2600,,,,,,,MVFR,0.0,,,,,,,,,,,METAR,227.0
KDPA 180252Z 30008KT 10SM OVC038 M02/M04 A2975 RMK AO2 SLP082 T10171044 51005,KDPA,2021-01-18T02:52:00Z,41.88,-88.25,-1.7,-4.4,300,8,,10.0,29.749016,1008.2,,,TRUE,,,,,,,OVC,3800,,,,,,,VFR,0.5,,,,,,,,,,,METAR,228.0
KDDC 180252Z AUTO 20006KT 10SM CLR M02/M12 A2993 RMK AO2 SLP152 T10171117 58013 $,KDDC,2021-01-18T02:52:00Z,37.77,-99.97,-1.7,-11.7,200,6,,10.0,29.929134,1015.2,,TRUE,TRUE,TRUE,,,,,,CLR,,,,,,,,VFR,-1.3,,,,,,,,,,,METAR,786.0
KDCA 180252Z 21007KT 10SM OVC085 05/M02 A2978 RMK AO2 SLP085 T00501017 50000,KDCA,2021-01-18T02:52:00Z,38.85,-77.03,5.0,-1.7,210,7,,10.0,29.778543,1008.5,,,TRUE,,,,,,,OVC,8500,,,,,,,VFR,0.0,,,,,,,,,,,METAR,4.0
KCQX 180252Z AUTO 24010G16KT 10SM OVC050 05/M03 A2966 RMK AO2 SLP044 T00501033 51017,KCQX,2021-01-18T02:52:00Z,41.68,-70.0,5.0,-3.3,240,10,16,10.0,29.660433,1004.4,,TRUE,TRUE,,,,,,,OVC,5000,,,,,,,VFR,1.7,,,,,,,,,,,METAR,17.0
KCQT 180252Z AUTO 00000KT 10SM CLR 20/02 A2991 RMK AO2 SLP128 T02000022 55000,KCQT,2021-01-18T02:52:00Z,34.02,-118.28,20.0,2.2,0,0,,10.0,29.911417,1012.8,,TRUE,TRUE,,,,,,,CLR,,,,,,,,VFR,0.0,,,,,,,,,,,METAR,51.0
KCNU 180252Z AUTO 24005KT 10SM CLR M01/M06 A2995 RMK AO2 SLP147 T10061061 58003,KCNU,2021-01-18T02:52:00Z,37.67,-95.48,-0.6,-6.1,240,5,,10.0,29.949802,1014.7,,TRUE,TRUE,,,,,,,CLR,,,,,,,,VFR,-0.3,,,,,,,,,,,SPECI,301.0
KCLT 180252Z 23008KT 10SM FEW080 04/M02 A2988 RMK AO2 SLP121 T00441022 53003,KCLT,2021-01-18T02:52:00Z,35.22,-80.95,4.4,-2.2,230,8,,10.0,29.878937,1012.1,,,TRUE,,,,,,,FEW,8000,,,,,,,VFR,0.3,,,,,,,,,,,METAR,223.0
KCKV 180252Z AUTO 29007KT 10SM SCT045 OVC060 03/M03 A2990 RMK AO2 SLP128 T00331033 53005,KCKV,2021-01-18T02:52:00Z,36.62,-87.42,3.3,-3.3,290,7,,10.0,29.899607,1012.8,,TRUE,TRUE,,,,,,,SCT,4500,OVC,6000,,,,,VFR,0.5,,,,,,,,,,,METAR,166.0
KCID 180252Z 30006KT 8SM OVC014 M04/M06 A2980 RMK AO2 SLP102 T10391056 58002,KCID,2021-01-18T02:52:00Z,41.88,-91.72,-3.9,-5.6,300,6,,8.0,29.799213,1010.2,,,TRUE,,,,,,,OVC,1400,,,,,,,MVFR,-0.2,,,,,,,,,,,METAR,257.0
KCFV 180252Z AUTO 21004KT 10SM CLR 01/M06 A2996 RMK AO2 SLP152 T00061061 58001,KCFV,2021-01-18T02:52:00Z,37.08,-95.57,0.6,-6.1,210,4,,10.0,29.958662,1015.2,,TRUE,TRUE,,,,,,,CLR,,,,,,,,VFR,-0.1,,,,,,,,,,,METAR,228.0
KCDJ 180252Z AUTO 00000KT 00/M03 A2991 RMK AO1 SLP142 T00001033 53002,KCDJ,2021-01-18T02:52:00Z,39.77,-93.48,0.0,-3.3,0,0,,,29.911417,1014.2,,TRUE,TRUE,,,,,,,,,,,,,,,,0.2,,,,,,,,,,,METAR,236.0
KBML 180252Z AUTO 10SM OVC020 M01/M06 A2943 RMK AO2 SLP978 60000 T10111056 53014 $,KBML,2021-01-18T02:52:00Z,44.58,-71.18,-1.1,-5.6,,,,10.0,29.430119,997.8,,TRUE,TRUE,TRUE,,,,,,OVC,2000,,,,,,,MVFR,1.4,,,,,,0.005,,,,,METAR,344.0
KBLU 180252Z AUTO VRB05KT 10SM CLR 12/M03 A3017 RMK AO2 SLP171 T01221028 58008,KBLU,2021-01-18T02:52:00Z,39.28,-120.7,12.2,-2.8,0,5,,10.0,30.171259,1017.1,,TRUE,TRUE,,,,,,,CLR,,,,,,,,VFR,-0.8,,,,,,,,,,,METAR,1605.0
KBLH 180252Z AUTO 35003KT 10SM CLR 17/M10 A2995 RMK AO2 SLP141 T01671100 56003,KBLH,2021-01-18T02:52:00Z,33.62,-114.72,16.7,-10.0,350,3,,10.0,29.949802,1014.1,,TRUE,TRUE,,,,,,,CLR,,,,,,,,VFR,-0.3,,,,,,,,,,,METAR,119.0
KBLF 180252Z AUTO 26010G17KT 8SM -SN SCT046 OVC060 M01/M04 A2975 RMK AO2 SNB48 SLP093 P0000 60000 T10061039 58001,KBLF,2021-01-18T02:52:00Z,37.3,-81.2,-0.6,-3.9,260,10,17,8.0,29.749016,1009.3,,TRUE,TRUE,,,,,,-SN,SCT,4600,OVC,6000,,,,,VFR,-0.1,,,,,0.005,0.005,,,,,METAR,871.0
KBIS 180252Z AUTO 12003KT 10SM OVC070 M03/M06 A2981 RMK AO2 SLP120 T10331061 55004,KBIS,2021-01-18T02:52:00Z,46.77,-100.75,-3.3,-6.1,120,3,,10.0,29.811024,1012.0,,TRUE,TRUE,,,,,,,OVC,7000,,,,,,,VFR,-0.4,,,,,,,,,,,METAR,506.0
KBDR 180252Z 23008KT 10SM OVC065 06/M01 A2969 RMK AO2 SLP054 T00561011 51008,KBDR,2021-01-18T02:52:00Z,41.17,-73.13,5.6,-1.1,230,8,,10.0,29.68996,1005.4,,,TRUE,,,,,,,OVC,6500,,,,,,,VFR,0.8,,,,,,,,,,,METAR,5.0
KBAN 180252Z AUTO 00000KT 10SM CLR 02/M07 A3024 RMK AO2 SLP256 T00171072 53001 FZRANO $,KBAN,2021-01-18T02:52:00Z,38.35,-119.52,1.7,-7.2,0,0,,10.0,30.239174,1025.6,,TRUE,TRUE,TRUE,,,TRUE,,,CLR,,,,,,,,VFR,0.1,,,,,,,,,,,METAR,2067.0
KATL 180252Z 22005KT 10SM FEW025 FEW060 FEW100 04/M03 A2992 RMK AO2 SLP137 T00441028 51004,KATL,2021-01-18T02:52:00Z,33.63,-84.45,4.4,-2.8,220,5,,10.0,29.920275,1013.7,,,TRUE,,,,,,,FEW,2500,FEW,6000,FEW,10000,,,VFR,0.4,,,,,,,,,,,METAR,309.0
KARR 180252Z AUTO 27010KT 10SM OVC038 M02/M04 A2976 RMK AO2 SLP086 T10221044 51007,KARR,2021-01-18T02:52:00Z,41.77,-88.48,-2.2,-4.4,270,10,,10.0,29.760826,1008.6,,TRUE,TRUE,,,,,,,OVC,3800,,,,,,,VFR,0.7,,,,,,,,,,,METAR,213.0
KAQW 180252Z AUTO 28009KT 10SM BKN024 BKN029 OVC039 02/M02 A2959 RMK AO2 SLP027 T00221017 51007,KAQW,2021-01-18T02:52:00Z,42.7,-73.17,2.2,-1.7,280,9,,10.0,29.589567,1002.7,,TRUE,TRUE,,,,,,,BKN,2400,BKN,2900,OVC,3900,,,MVFR,0.7,,,,,,,,,,,METAR,196.0
KALS 180252Z AUTO 19006KT 10SM CLR M06/M12 A3001 RMK AO2 SLP221 T10561117 58009,KALS,2021-01-18T02:52:00Z,37.43,-105.87,-5.6,-11.7,190,6,,10.0,30.008858,1022.1,,TRUE,TRUE,,,,,,,CLR,,,,,,,,VFR,-0.9,,,,,,,,,,,METAR,2299.0
KAFN 180252Z AUTO 25011G19KT 10SM FEW048 02/M04 A2954 RMK AO2 SLP015 T00221044 51013,KAFN,2021-01-18T02:52:00Z,42.8,-72.0,2.2,-4.4,250,11,19,10.0,29.53937,1001.5,,TRUE,TRUE,,,,,,,FEW,4800,,,,,,,VFR,1.3,,,,,,,,,,,METAR,308.0
KABQ 180252Z 19004KT 10SM CLR 09/M14 A3008 RMK AO2 SLP175 T00891139 50004,KABQ,2021-01-18T02:52:00Z,35.05,-106.62,8.9,-13.9,190,4,,10.0,30.079725,1017.5,,,TRUE,,,,,,,CLR,,,,,,,,VFR,0.4,,,,,,,,,,,METAR,1620.0
KABI 180252Z 00000KT 10SM CLR 07/M04 A3011 RMK AO2 SLP196 T00721044 51003,KABI,2021-01-18T02:52:00Z,32.42,-99.68,7.2,-4.4,0,0,,10.0,30.109253,1019.6,,,TRUE,,,,,,,CLR,,,,,,,,VFR,0.3,,,,,,,,,,,METAR,543.0
SBNF 180251Z 34004KT 9999 FEW013 26/25 Q1006,SBNF,2021-01-18T02:51:00Z,-26.88,-48.65,26.0,25.0,340,4,,6.21,29.704725,,,,,,,,,,,FEW,1300,,,,,,,VFR,,,,,,,,,,,,SPECI,5.0
PKMR 180251Z 09007KT 15SM FEW015 SCT050 BKN300 29/24 A2977 RMK SLP083 8/801 T02890244 57024,PKMR,2021-01-18T02:51:00Z,7.08,171.38,28.9,24.4,90,7,,15.0,29.769686,1008.3,,,,,,,,,,FEW,1500,SCT,5000,BKN,30000,,,VFR,-2.4,,,,,,,,,,,METAR,7.0
PAMD 180251Z AUTO 16014KT 9SM CLR 04/01 A2996 RMK AO2 SLP133 60000 T00390006 53040,PAMD,2021-01-18T02:51:00Z,59.43,-146.3,3.9,0.6,160,14,,9.0,29.958662,1013.3,,TRUE,TRUE,,,,,,,CLR,,,,,,,,VFR,4.0,,,,,,0.005,,,,,METAR,20.0
MUGM 180251Z 35004KT 10SM FEW030 BKN250 23/21 A3002 RMK AO2 SLP166 T02280206 51012 $,MUGM,2021-01-18T02:51:00Z,19.9,-75.2,22.8,20.6,350,4,,10.0,30.02067,1016.6,,,TRUE,TRUE,,,,,,FEW,3000,BKN,25000,,,,,VFR,1.2,,,,,,,,,,,METAR,21.0
KYNG 180251Z 25008KT 3SM -SN BR SCT007 BKN011 OVC031 00/M02 A2967 RMK AO2 SLP057 P0001 60003 T00001022 58003 $,KYNG,2021-01-18T02:51:00Z,41.25,-80.67,0.0,-2.2,250,8,,3.0,29.66929,1005.7,,,TRUE,TRUE,,,,,-SN BR,SCT,700,BKN,1100,OVC,3100,,,MVFR,-0.3,,,,,0.01,0.03,,,,,METAR,356.0
KXWA 180251Z AUTO 23004KT 10SM OVC060 M03/M07 A2976 RMK AO2 SLP121 T10281067 55002,KXWA,2021-01-18T02:51:00Z,48.27,-103.75,-2.8,-6.7,230,4,,10.0,29.760826,1012.1,,TRUE,TRUE,,,,,,,OVC,6000,,,,,,,VFR,-0.2,,,,,,,,,,,METAR,717.0
KVNY 180251Z 36007KT 10SM CLR 24/M07 A2993 RMK AO2 SLP128 T02391067 53003,KVNY,2021-01-18T02:51:00Z,34.22,-118.48,23.9,-6.7,360,7,,10.0,29.929134,1012.8,,,TRUE,,,,,,,CLR,,,,,,,,VFR,0.3,,,,,,,,,,,METAR,241.0
KVCT 180251Z 04008KT 10SM BKN070 10/03 A3013 RMK AO2 SLP201 T01000033 53021,KVCT,2021-01-18T02:51:00Z,28.87,-96.93,10.0,3.3,40,8,,10.0,30.129921,1020.1,,,TRUE,,,,,,,BKN,7000,,,,,,,VFR,2.1,,,,,,,,,,,METAR,33.0
KTPL 180251Z AUTO 00000KT 10SM CLR 05/M02 A3012 RMK AO2 SLP199 T00501017 53005,KTPL,2021-01-18T02:51:00Z,31.15,-97.4,5.0,-1.7,0,0,,10.0,30.121063,1019.9,,TRUE,TRUE,,,,,,,CLR,,,,,,,,VFR,0.5,,,,,,,,,,,METAR,206.0
KTEB 180251Z 23009KT 10SM OVC075 05/M03 A2971 RMK AO2 SLP060 T00501033 51003,KTEB,2021-01-18T02:51:00Z,40.87,-74.05,5.0,-3.3,230,9,,10.0,29.71063,1006.0,,,TRUE,,,,,,,OVC,7500,,,,,,,VFR,0.3,,,,,,,,,,,SPECI,3.0
KSTL 180251Z 30007KT 9SM -SN SCT018 OVC030 01/M02 A2988 RMK AO2 SLP129 P0000 60001 T00111017 50003,KSTL,2021-01-18T02:51:00Z,38.75,-90.37,1.1,-1.7,300,7,,9.0,29.878937,1012.9,,,TRUE,,,,,,-SN,SCT,1800,OVC,3000,,,,,MVFR,0.3,,,,,0.005,0.01,,,,,METAR,163.0
KSNT 180251Z AUTO VRB03KT M03/M08 A3020 RMK AO1 SLP239 T10281083 53005,KSNT,2021-01-18T02:51:00Z,44.17,-114.93,-2.8,-8.3,0,3,,,30.200787,1023.9,,TRUE,TRUE,,,,,,,,,,,,,,,,0.5,,,,,,,,,,,METAR,1980.0
KSMX 180251Z 19003KT 10SM CLR 15/06 A2996 RMK AO2 PK WND 31027/0243 SLP149 T01500056 50002,KSMX,2021-01-18T02:51:00Z,34.9,-120.45,15.0,5.6,190,3,,10.0,29.958662,1014.9,,,TRUE,,,,,,,CLR,,,,,,,,VFR,0.2,,,,,,,,,,,METAR,73.0
KSMO 180251Z AUTO 00000KT 10SM CLR 17/07 A2992 RMK AO2 SLP132 T01720067 55001 $,KSMO,2021-01-18T02:51:00Z,34.02,-118.45,17.2,6.7,0,0,,10.0,29.920275,1013.2,,TRUE,TRUE,TRUE,,,,,,CLR,,,,,,,,VFR,-0.1,,,,,,,,,,,METAR,56.0
KSLK 180251Z AUTO 24006KT 10SM OVC011 M04/M06 A2950 RMK AO2 SLP009 T10441061 51010,KSLK,2021-01-18T02:51:00Z,44.4,-74.2,-4.4,-6.1,240,6,,10.0,29.500984,1000.9,,TRUE,TRUE,,,,,,,OVC,1100,,,,,,,MVFR,1.0,,,,,,,,,,,METAR,502.0
KSJT 180251Z AUTO 00000KT 10SM CLR 03/M04 A3009 RMK AO2 SLP200 T00331044 51008,KSJT,2021-01-18T02:51:00Z,31.37,-100.5,3.3,-4.4,0,0,,10.0,30.088583,1020.0,,TRUE,TRUE,,,,,,,CLR,,,,,,,,VFR,0.8,,,,,,,,,,,METAR,582.0
KSAT 180251Z 04003KT 10SM FEW250 12/M02 A3011 RMK AO2 SLP186 T01221022 53014,KSAT,2021-01-18T02:51:00Z,29.53,-98.48,12.2,-2.2,40,3,,10.0,30.109253,1018.6,,,TRUE,,,,,,,FEW,25000,,,,,,,VFR,1.4,,,,,,,,,,,METAR,246.0
KSAN 180251Z 00000KT 10SM CLR 17/12 A2996 RMK AO2 SLP144 T01720117 53003,KSAN,2021-01-18T02:51:00Z,32.73,-117.18,17.2,11.7,0,0,,10.0,29.958662,1014.4,,,TRUE,,,,,,,CLR,,,,,,,,VFR,0.3,,,,,,,,,,,METAR,3.0
KSAD 180251Z AUTO 09005KT 10SM CLR 10/M12 A3002 RMK AO2 SLP160 T01001122 56002,KSAD,2021-01-18T02:51:00Z,32.85,-109.63,10.0,-12.2,90,5,,10.0,30.02067,1016.0,,TRUE,TRUE,,,,,,,CLR,,,,,,,,VFR,-0.2,,,,,,,,,,,SPECI,937.0
KROW 180251Z 22010KT 10SM CLR 06/M09 A3001 RMK AO2 SLP161 T00561094 58002,KROW,2021-01-18T02:51:00Z,33.3,-104.5,5.6,-9.4,220,10,,10.0,30.008858,1016.1,,,TRUE,,,,,,,CLR,,,,,,,,VFR,-0.2,,,,,,,,,,,METAR,1105.0
KRDU 180251Z 22005KT 10SM SCT250 01/M03 A2989 RMK AO2 SLP122 T00111028 51008,KRDU,2021-01-18T02:51:00Z,35.9,-78.78,1.1,-2.8,220,5,,10.0,29.890747,1012.2,,,TRUE,,,,,,,SCT,25000,,,,,,,VFR,0.8,,,,,,,,,,,METAR,121.0
KPWM 180251Z 25015G20KT 10SM OVC046 03/M04 A2949 RMK AO2 SLP986 T00281039 51016,KPWM,2021-01-18T02:51:00Z,43.65,-70.3,2.8,-3.9,250,15,20,10.0,29.489174,998.6,,,TRUE,,,,,,,OVC,4600,,,,,,,VFR,1.6,,,,,,,,,,,METAR,15.0
KPVD 180251Z 22008KT 10SM OVC055 04/M04 A2965 RMK AO2 SLP041 T00441039 51013,KPVD,2021-01-18T02:51:00Z,41.72,-71.43,4.4,-3.9,220,8,,10.0,29.648623,1004.1,,,TRUE,,,,,,,OVC,5500,,,,,,,VFR,1.3,,,,,,,,,,,METAR,15.0
KPIT 180251Z 24006KT 9SM -SN BKN009 OVC015 01/M01 A2969 RMK AO2 SLP073 P0000 60000 T00061011 56005,KPIT,2021-01-18T02:51:00Z,40.47,-80.2,0.6,-1.1,240,6,,9.0,29.68996,1007.3,,,TRUE,,,,,,-SN,BKN,900,OVC,1500,,,,,IFR,-0.5,,,,,0.005,0.005,,,,,METAR,339.0
KPHX 180251Z 00000KT 10SM FEW250 17/M10 A2993 RMK AO2 SLP127 T01721100 57004 $,KPHX,2021-01-18T02:51:00Z,33.43,-112.02,17.2,-10.0,0,0,,10.0,29.929134,1012.7,,,TRUE,TRUE,,,,,,FEW,25000,,,,,,,VFR,-0.4,,,,,,,,,,,METAR,338.0
KP59 180251Z AUTO 02006KT M03/M07 A2974 RMK AO1 SLP085 T10281072 51001,KP59,2021-01-18T02:51:00Z,47.47,-87.88,-2.8,-7.2,20,6,,,29.740158,1008.5,,TRUE,TRUE,,,,,,,,,,,,,,,,0.1,,,,,,,,,,,METAR,185.0
KOXR 180251Z 00000KT 10SM CLR 16/08 A2994 RMK AO2 SLP137 T01610083 53003,KOXR,2021-01-18T02:51:00Z,34.2,-119.2,16.1,8.3,0,0,,10.0,29.940945,1013.7,,,TRUE,,,,,,,CLR,,,,,,,,VFR,0.3,,,,,,,,,,,SPECI,12.0
KOXC 180251Z AUTO 24006KT 10SM OVC060 03/M03 A2966 RMK AO2 SLP060 T00331033 51009,KOXC,2021-01-18T02:51:00Z,41.47,-73.13,3.3,-3.3,240,6,,10.0,29.660433,1006.0,,TRUE,TRUE,,,,,,,OVC,6000,,,,,,,VFR,0.9,,,,,,,,,,,METAR,211.0
KORF 180251Z 20006KT 10SM CLR 03/M02 A2986 RMK AO2 SLP109 T00331017 55000,KORF,2021-01-18T02:51:00Z,36.9,-76.2,3.3,-1.7,200,6,,10.0,29.861221,1010.9,,,TRUE,,,,,,,CLR,,,,,,,,VFR,0.0,,,,,,,,,,,METAR,5.0
KORD 180251Z 29005KT 10SM BKN040 OVC060 M01/M04 A2974 RMK AO2 SLP079 60000 T10111039 51008,KORD,2021-01-18T02:51:00Z,41.95,-87.93,-1.1,-3.9,290,5,,10.0,29.740158,1007.9,,,TRUE,,,,,,,BKN,4000,OVC,6000,,,,,VFR,0.8,,,,,,0.005,,,,,METAR,202.0
KOCF 180251Z AUTO 20003KT 10SM CLR 07/04 A3008 RMK AO2 SLP186 6//// T00720044 53007 $,KOCF,2021-01-18T02:51:00Z,29.17,-82.22,7.2,4.4,200,3,,10.0,30.079725,1018.6,,TRUE,TRUE,TRUE,,,,,,CLR,,,,,,,,VFR,0.7,,,,,,,,,,,METAR,24.0
KNYC 180251Z AUTO VRB04KT 10SM OVC075 06/M04 A2974 RMK AO2 SLP062 T00561039 51003 $,KNYC,2021-01-18T02:51:00Z,40.78,-73.97,5.6,-3.9,0,4,,10.0,29.740158,1006.2,,TRUE,TRUE,TRUE,,,,,,OVC,7500,,,,,,,VFR,0.3,,,,,,,,,,,METAR,33.0
KMQE 180251Z AUTO 24011G21KT 03/M04 A2958 RMK AO1 PK WND 25026/0225 SLP032 T00331039 53019,KMQE,2021-01-18T02:51:00Z,42.22,-71.12,3.3,-3.9,240,11,21,,29.58071,1003.2,,TRUE,TRUE,,,,,,,,,,,,,,,,1.9,,,,,,,,,,,METAR,192.0
KMPV 180251Z AUTO 24003KT 10SM OVC019 M02/M04 A2953 RMK AO2 SLP015 T10171039 51013,KMPV,2021-01-18T02:51:00Z,44.2,-72.57,-1.7,-3.9,240,3,,10.0,29.530512,1001.5,,TRUE,TRUE,,,,,,,OVC,1900,,,,,,,MVFR,1.3,,,,,,,,,,,METAR,336.0
KLGU 180251Z AUTO 00000KT 7SM OVC050 01/M02 A3016 RMK AO2 SLP245 T00111017 55007,KLGU,2021-01-18T02:51:00Z,41.78,-111.85,1.1,-1.7,0,0,,7.0,30.159449,1024.5,,TRUE,TRUE,,,,,,,OVC,5000,,,,,,,VFR,-0.7,,,,,,,,,,,METAR,1359.0
KLGA 180251Z 25014KT 10SM BKN075 07/M05 A2972 RMK AO2 SLP063 T00721050 51003,KLGA,2021-01-18T02:51:00Z,40.78,-73.88,7.2,-5.0,250,14,,10.0,29.719488,1006.3,,,TRUE,,,,,,,BKN,7500,,,,,,,VFR,0.3,,,,,,,,,,,METAR,9.0
KJFK 180251Z 24013KT 10SM BKN070 05/M02 A2974 RMK AO2 SLP069 T00501017 51003,KJFK,2021-01-18T02:51:00Z,40.63,-73.77,5.0,-1.7,240,13,,10.0,29.740158,1006.9,,,TRUE,,,,,,,BKN,7000,,,,,,,VFR,0.3,,,,,,,,,,,METAR,3.0
KJCT 180251Z AUTO 00000KT 10SM CLR 07/M02 A3010 RMK AO2 SLP183 T00671017 51009,KJCT,2021-01-18T02:51:00Z,30.5,-99.77,6.7,-1.7,0,0,,10.0,30.100393,1018.3,,TRUE,TRUE,,,,,,,CLR,,,,,,,,VFR,0.9,,,,,,,,,,,METAR,522.0
KILG 180251Z AUTO 20005KT 10SM OVC080 04/M02 A2976 RMK AO2 SLP080 T00441022 58001 $,KILG,2021-01-18T02:51:00Z,39.67,-75.6,4.4,-2.2,200,5,,10.0,29.760826,1008.0,,TRUE,TRUE,TRUE,,,,,,OVC,8000,,,,,,,VFR,-0.1,,,,,,,,,,,METAR,22.0
KIGM 180251Z AUTO 11006KT 10SM CLR 07/M12 A3005 RMK AO2 SLP157 T00721117 58009,KIGM,2021-01-18T02:51:00Z,35.25,-113.93,7.2,-11.7,110,6,,10.0,30.050198,1015.7,,TRUE,TRUE,,,,,,,CLR,,,,,,,,VFR,-0.9,,,,,,,,,,,METAR,1045.0
KHTS 180251Z 24007KT 10SM BKN070 01/M02 A2980 RMK AO2 SLP097 60005 T00061017 52002,KHTS,2021-01-18T02:51:00Z,38.37,-82.55,0.6,-1.7,240,7,,10.0,29.799213,1009.7,,,TRUE,,,,,,,BKN,7000,,,,,,,VFR,0.2,,,,,,0.05,,,,,METAR,252.0
KHSE 180251Z AUTO 27008G14KT 10SM CLR 08/02 A2991 RMK AO2 SLP127 T00780017 51007,KHSE,2021-01-18T02:51:00Z,35.23,-75.62,7.8,1.7,270,8,14,10.0,29.911417,1012.7,,TRUE,TRUE,,,,,,,CLR,,,,,,,,VFR,0.7,,,,,,,,,,,METAR,4.0
KHDO 180251Z AUTO 09003KT 10SM CLR 09/01 A3008 RMK AO2 SLP183 T00890006 51007,KHDO,2021-01-18T02:51:00Z,29.37,-99.17,8.9,0.6,90,3,,10.0,30.079725,1018.3,,TRUE,TRUE,,,,,,,CLR,,,,,,,,VFR,0.7,,,,,,,,,,,METAR,280.0
KGDP 180251Z AUTO 26018KT 10SM CLR 10/ A3010 RMK AO2 SLP173 T0100 51007,KGDP,2021-01-18T02:51:00Z,31.83,-104.82,10.0,,260,18,,10.0,30.100393,1017.3,,TRUE,TRUE,,,,,,,CLR,,,,,,,,VFR,0.7,,,,,,,,,,,METAR,1664.0
KEWR 180251Z 24010KT 10SM OVC075 05/M03 A2973 RMK AO2 SLP067 T00501033 53003,KEWR,2021-01-18T02:51:00Z,40.68,-74.17,5.0,-3.3,240,10,,10.0,29.731298,1006.7,,,TRUE,,,,,,,OVC,7500,,,,,,,VFR,0.3,,,,,,,,,,,METAR,2.0
KELP 180251Z 17005KT 10SM FEW250 12/M12 A3005 RMK AO2 SLP158 T01171122 58001,KELP,2021-01-18T02:51:00Z,31.82,-106.35,11.7,-12.2,170,5,,10.0,30.050198,1015.8,,,TRUE,,,,,,,FEW,25000,,,,,,,VFR,-0.1,,,,,,,,,,,METAR,1205.0
KDAW 180251Z AUTO 27008KT 240V360 10SM OVC045 04/M05 A2951 RMK AO2 SLP991 T00391050 51018 $,KDAW,2021-01-18T02:51:00Z,43.28,-70.92,3.9,-5.0,270,8,,10.0,29.509842,999.1,,TRUE,TRUE,TRUE,,,,,,OVC,4500,,,,,,,VFR,1.8,,,,,,,,,,,METAR,100.0
KCSG 180251Z AUTO 00000KT 10SM CLR 03/M01 A2997 RMK AO2 SLP150 T00331011 51007,KCSG,2021-01-18T02:51:00Z,32.52,-84.95,3.3,-1.1,0,0,,10.0,29.970472,1015.0,,TRUE,TRUE,,,,,,,CLR,,,,,,,,VFR,0.7,,,,,,,,,,,METAR,120.0
KCRP 180251Z 14007KT 10SM FEW028 FEW250 13/09 A3010 RMK AO2 SLP191 T01280094 51008,KCRP,2021-01-18T02:51:00Z,27.77,-97.5,12.8,9.4,140,7,,10.0,30.100393,1019.1,,,TRUE,,,,,,,FEW,2800,FEW,25000,,,,,VFR,0.8,,,,,,,,,,,METAR,11.0
KCON 180251Z AUTO 26004KT 10SM OVC046 03/M04 A2953 RMK AO2 SLP003 T00331044 51019,KCON,2021-01-18T02:51:00Z,43.2,-71.5,3.3,-4.4,260,4,,10.0,29.530512,1000.3,,TRUE,TRUE,,,,,,,OVC,4600,,,,,,,VFR,1.9,,,,,,,,,,,SPECI,102.0
KCMH 180251Z 27008KT 10SM FEW015 BKN026 OVC040 00/M01 A2974 RMK AO2 SLP078 60001 T00001011 52003,KCMH,2021-01-18T02:51:00Z,40.0,-82.88,0.0,-1.1,270,8,,10.0,29.740158,1007.8,,,TRUE,,,,,,,FEW,1500,BKN,2600,OVC,4000,,,MVFR,0.3,,,,,,0.01,,,,,METAR,257.0
KCLE 180251Z 25009KT 2 1/2SM -SN BR BKN007 OVC012 00/M01 A2968 RMK AO2 SLP073 P0001 60004 T00001011 58003,KCLE,2021-01-18T02:51:00Z,41.42,-81.85,0.0,-1.1,250,9,,2.5,29.681103,1007.3,,,TRUE,,,,,,-SN BR,BKN,700,OVC,1200,,,,,IFR,-0.3,,,,,0.01,0.04,,,,,METAR,237.0
KBHK 180251Z AUTO 00000KT 1 1/2SM -SN BR FEW007 OVC010 M01/M03 A2973 RMK AO2 SLP101 P0003 60007 T10061028 56013,KBHK,2021-01-18T02:51:00Z,46.35,-104.25,-0.6,-2.8,0,0,,1.5,29.731298,1010.1,,TRUE,TRUE,,,,,,-SN BR,FEW,700,OVC,1000,,,,,IFR,-1.3,,,,,0.03,0.07,,,,,METAR,904.0
KBGD 180251Z AUTO 19008KT 10SM CLR 06/M08 A2999 RMK AO2 SLP160 T00611078 58014,KBGD,2021-01-18T02:51:00Z,35.7,-101.4,6.1,-7.8,190,8,,10.0,29.991142,1016.0,,TRUE,TRUE,,,,,,,CLR,,,,,,,,VFR,-1.4,,,,,,,,,,,METAR,928.0
KBED 180251Z 25011G16KT 10SM OVC045 05/M03 A2959 RMK AO2 SLP033 T00501028 53019,KBED,2021-01-18T02:51:00Z,42.47,-71.3,5.0,-2.8,250,11,16,10.0,29.589567,1003.3,,,TRUE,,,,,,,OVC,4500,,,,,,,VFR,1.9,,,,,,,,,,,METAR,39.0
KBDL 180251Z 22011KT 10SM BKN060 04/M03 A2963 RMK AO2 SLP036 T00391033 50006,KBDL,2021-01-18T02:51:00Z,41.93,-72.68,3.9,-3.3,220,11,,10.0,29.630905,1003.6,,,TRUE,,,,,,,BKN,6000,,,,,,,VFR,0.6,,,,,,,,,,,SPECI,52.0
KBAZ 180251Z AUTO 04004KT 10SM CLR 11/M02 A3011 RMK AO2 SLP194 T01061017 52016,KBAZ,2021-01-18T02:51:00Z,29.72,-98.05,10.6,-1.7,40,4,,10.0,30.109253,1019.4,,TRUE,TRUE,,,,,,,CLR,,,,,,,,VFR,1.6,,,,,,,,,,,METAR,199.0
KAVX 180251Z AUTO 26004KT 10SM CLR 23/M07 A2999 RMK AO2 SLP132 T02281067 55001,KAVX,2021-01-18T02:51:00Z,33.4,-118.42,22.8,-6.7,260,4,,10.0,29.991142,1013.2,,TRUE,TRUE,,,,,,,CLR,,,,,,,,VFR,-0.1,,,,,,,,,,,METAR,482.0
KATT 180251Z AUTO 00000KT 10SM CLR 11/ A3012 RMK AO2 SLP203 T0106 51010 $,KATT,2021-01-18T02:51:00Z,30.32,-97.77,10.6,,0,0,,10.0,30.121063,1020.3,,TRUE,TRUE,TRUE,,,,,,CLR,,,,,,,,VFR,1.0,,,,,,,,,,,METAR,203.0
KALB 180251Z 11003KT 10SM BKN032 OVC055 00/M01 A2962 RMK AO2 SLP034 T00001011 51006,KALB,2021-01-18T02:51:00Z,42.75,-73.8,0.0,-1.1,110,3,,10.0,29.619095,1003.4,,,TRUE,,,,,,,BKN,3200,OVC,5500,,,,,VFR,0.6,,,,,,,,,,,SPECI,82.0
KAHN 180251Z AUTO 22005KT 10SM CLR 06/M03 A2991 RMK AO2 SLP133 T00561028 53004,KAHN,2021-01-18T02:51:00Z,33.95,-83.33,5.6,-2.8,220,5,,10.0,29.911417,1013.3,,TRUE,TRUE,,,,,,,CLR,,,,,,,,VFR,0.4,,,,,,,,,,,METAR,241.0
KACT 180251Z 21004KT 10SM CLR 02/M02 A3011 RMK AO2 SLP198 T00171017 51005,KACT,2021-01-18T02:51:00Z,31.62,-97.23,1.7,-1.7,210,4,,10.0,30.109253,1019.8,,,TRUE,,,,,,,CLR,,,,,,,,VFR,0.5,,,,,,,,,,,METAR,150.0
KABE 180251Z AUTO 23006KT 10SM FEW043 SCT050 OVC060 03/M03 A2972 RMK AO2 SLP068 T00331028 53002,KABE,2021-01-18T02:51:00Z,40.65,-75.45,3.3,-2.8,230,6,,10.0,29.719488,1006.8,,TRUE,TRUE,,,,,,,FEW,4300,SCT,5000,OVC,6000,,,VFR,0.2,,,,,,,,,,,SPECI,117.0
K6R6 180251Z AUTO 07004KT 09/M04 A3008 RMK AO1 SLP179 T00941039 51010,K6R6,2021-01-18T02:51:00Z,30.05,-102.22,9.4,-3.9,70,4,,,30.079725,1017.9,,TRUE,TRUE,,,,,,,,,,,,,,,,1.0,,,,,,,,,,,METAR,702.0
PTKK 180250Z VRB05KT 4SM SHRA BKN008CB OVC100 26/25 A2978 RMK CB ALQDS SLP084 60052 8/32/ T02620248 57010,PTKK,2021-01-18T02:50:00Z,7.47,151.85,26.2,24.8,0,5,,4.0,29.778543,1008.4,,,,,,,,,SHRA,BKN,800,OVC,10000,,,,,IFR,-1.0,,,,,,0.52,,,,,METAR,3.0
PGRO 180250Z 09013KT 7SM SCT016 29/23 A2984,PGRO,2021-01-18T02:50:00Z,14.18,145.25,29.0,23.0,90,13,,7.0,29.840551,,,,,,,,,,,SCT,1600,,,,,,,VFR,,,,,,,,,,,,METAR,181.0
OOSH 180250Z AUTO 24005KT //// ////// 18/05 Q1013 RMK 1009,OOSH,2021-01-18T02:50:00Z,24.38,56.62,18.0,5.0,240,5,,,29.911417,,,TRUE,,,,,,,,,,,,,,,,,,,,,,,,,,,,METAR,35.0
OOSA 180250Z 06003KT CAVOK 17/M04 Q1014 NOSIG,OOSA,2021-01-18T02:50:00Z,17.03,54.1,17.0,-4.0,60,3,,6.21,29.940945,,,,,,TRUE,,,,,CAVOK,,,,,,,,VFR,,,,,,,,,,,,METAR,20.0
OOMS 180250Z 22003KT CAVOK 16/09 Q1014 NOSIG,OOMS,2021-01-18T02:50:00Z,23.58,58.28,16.0,9.0,220,3,,6.21,29.940945,,,,,,TRUE,,,,,CAVOK,,,,,,,,VFR,,,,,,,,,,,,METAR,8.0
OODQ 180250Z AUTO 28008KT 8000 NCD 15/14 Q1014 NOSIG RMK RH91? 0,OODQ,2021-01-18T02:50:00Z,19.52,57.65,15.0,14.0,280,8,,4.97,29.940945,,,TRUE,,,TRUE,,,,,CLR,,,,,,,,MVFR,,,,,,,,,,,,METAR,116.0
OAMS 180250Z 19003KT 9999 SCT160 06/01 Q1010 BLU+BLU+,OAMS,2021-01-18T02:50:00Z,36.7,67.2,6.0,1.0,190,3,,6.21,29.822834,,,,,,,,,,,SCT,16000,,,,,,,VFR,,,,,,,,,,,,METAR,382.0
OAKB 180250Z VRB03KT 8000 4000SE HZ NSC 01/M06 Q1022 RMK A3018 BLU BLU,OAKB,2021-01-18T02:50:00Z,34.55,69.22,1.0,-6.0,0,3,,4.97,30.177166,,,,,,,,,,HZ,CLR,,,,,,,,MVFR,,,,,,,,,,,,SPECI,1786.0
MUVR 180250Z 12004KT 9000 SCT040 19/17 Q1019,MUVR,2021-01-18T02:50:00Z,23.03,-81.43,19.0,17.0,120,4,,5.59,30.088583,,,,,,,,,,,SCT,4000,,,,,,,VFR,,,,,,,,,,,,METAR,65.0
MUSC 180250Z 06006KT 9000 BKN025 20/18 Q1018,MUSC,2021-01-18T02:50:00Z,22.5,-79.92,20.0,18.0,60,6,,5.59,30.059055,,,,,,,,,,,BKN,2500,,,,,,,MVFR,,,,,,,,,,,,METAR,97.0
MUHG 180250Z 01003KT 9000 SKC 22/21 Q1017,MUHG,2021-01-18T02:50:00Z,20.78,-76.32,22.0,21.0,10,3,,5.59,30.029528,,,,,,,,,,,SKC,,,,,,,,VFR,,,,,,,,,,,,METAR,100.0
MUCU 180250Z 34006KT 9000 FEW020 SCT060 23/20 Q1016,MUCU,2021-01-18T02:50:00Z,19.97,-75.83,23.0,20.0,340,6,,5.59,30.0,,,,,,,,,,,FEW,2000,SCT,6000,,,,,VFR,,,,,,,,,,,,METAR,70.0
MUCM 180250Z 36007KT 9000 FEW020 21/19 Q1017,MUCM,2021-01-18T02:50:00Z,21.42,-77.85,21.0,19.0,360,7,,5.59,30.029528,,,,,,,,,,,FEW,2000,,,,,,,VFR,,,,,,,,,,,,METAR,125.0
MUCC 180250Z 04008KT 9000 BKN020 22/19 Q1017,MUCC,2021-01-18T02:50:00Z,22.47,-78.33,22.0,19.0,40,8,,5.59,30.029528,,,,,,,,,,,BKN,2000,,,,,,,MVFR,,,,,,,,,,,,METAR,7.0
MSLP 180250Z 04002KT CAVOK 24/22 Q1012 A2990 NOSIG,MSLP,2021-01-18T02:50:00Z,13.43,-89.05,24.0,22.0,40,2,,6.21,29.88189,,,,,,TRUE,,,,,CAVOK,,,,,,,,VFR,,,,,,,,,,,,METAR,25.0
MMQT 180250Z 08008KT 7SM FEW025 SCT250 15/02 A3027 RMK 8/505,MMQT,2021-01-18T02:50:00Z,20.62,-100.18,15.0,2.0,80,8,,7.0,30.268702,,,,,,,,,,,FEW,2500,SCT,25000,,,,,VFR,,,,,,,,,,,,SPECI,1909.0
MMMX 180250Z 22007KT 12SM FEW020 BKN220 12/07 A3032 NOSIG RMK SLP144 52008 915 8/408 ISOL AC,MMMX,2021-01-18T02:50:00Z,19.43,-99.08,12.0,7.0,220,7,,12.0,30.318897,1014.4,,,,,TRUE,,,,,FEW,2000,BKN,22000,,,,,VFR,0.8,,,,,,,,,,,SPECI,2224.0
MMMD 180250Z 00000KT 7SM BKN020 BKN300 20/14 A3011 RMK SLP204 52028 907 8/708 OCNL DROPS,MMMD,2021-01-18T02:50:00Z,20.95,-89.65,20.0,14.0,0,0,,7.0,30.109253,1020.4,,,,,,,,,,BKN,2000,BKN,30000,,,,,MVFR,2.8,,,,,,,,,,,METAR,10.0
LXGB 180250Z AUTO 25008KT 9999 NCD 11/08 Q1025,LXGB,2021-01-18T02:50:00Z,36.15,-5.33,11.0,8.0,250,8,,6.21,30.265747,,,TRUE,,,,,,,,CLR,,,,,,,,VFR,,,,,,,,,,,,METAR,5.0
LTFM 180250Z 29010KT 3200 -SHSN SCT008 FEW017CB BKN025 M04/M05 Q1019 R35R/SNOCLO R34L/4///94 R36/4///94 NOSIG RMK RWY17L 27010KT RWY34L 28010KT RWY16R 25007KT RWY36 28008KT RWY18 28008KT,LTFM,2021-01-18T02:50:00Z,41.27,28.75,-4.0,-5.0,290,10,,1.99,30.088583,,,,,,TRUE,,,,-SHSN SN,SCT,800,FEW,1700,BKN,2500,,,IFR,,,,,,,,,,,,METAR,99.0
LTFJ 180250Z VRB05KT 9999 SCT040 M04/M07 Q1018 R062///95 NOSIG,LTFJ,2021-01-18T02:50:00Z,40.9,29.3,-4.0,-7.0,0,5,,6.21,30.059055,,,,,,TRUE,,,,,SCT,4000,,,,,,,VFR,,,,,,,,,,,,SPECI,83.0
LTFH 180250Z 30019KT 9999 SCT010 BKN028 BKN080 03/01 Q1013 BECMG 24007KT,LTFH,2021-01-18T02:50:00Z,41.27,36.57,3.0,1.0,300,19,,6.21,29.911417,,,,,,,,,,,SCT,1000,BKN,2800,BKN,8000,,,MVFR,,,,,,,,,,,,SPECI,7.0
LTFG 180250Z 08005KT CAVOK 05/01 Q1012,LTFG,2021-01-18T02:50:00Z,36.3,32.3,5.0,1.0,80,5,,6.21,29.88189,,,,,,,,,,,CAVOK,,,,,,,,VFR,,,,,,,,,,,,METAR,26.0
LTFE 180250Z 12005KT 9999 SCT035 BKN070 02/01 Q1015 NOSIG RMK RWY10 14004KT,LTFE,2021-01-18T02:50:00Z,37.25,27.67,2.0,1.0,120,5,,6.21,29.970472,,,,,,TRUE,,,,,SCT,3500,BKN,7000,,,,,VFR,,,,,,,,,,,,METAR,6.0
LTFD 180250Z 09010KT 9999 SCT035 BKN100 00/M06 Q1019,LTFD,2021-01-18T02:50:00Z,39.55,27.02,0.0,-6.0,90,10,,6.21,30.088583,,,,,,,,,,,SCT,3500,BKN,10000,,,,,VFR,,,,,,,,,,,,METAR,15.0
LTFC 180250Z 36005KT 9999 BKN035 M02/M05 Q1011 RMK RWY23 36006KT,LTFC,2021-01-18T02:50:00Z,37.87,30.38,-2.0,-5.0,360,5,,6.21,29.852362,,,,,,,,,,,BKN,3500,,,,,,,VFR,,,,,,,,,,,,SPECI,862.0
LTDA 180250Z 21012KT 9999 FEW035 SCT120 10/05 Q1008 NOSIG,LTDA,2021-01-18T02:50:00Z,36.37,36.28,10.0,5.0,210,12,,6.21,29.763779,,,,,,TRUE,,,,,FEW,3500,SCT,12000,,,,,VFR,,,,,,,,,,,,METAR,80.0
LTCS 180250Z 21009KT 9999 FEW020 BKN040 04/04 Q1008 RMK RWY22 20014KT 2ST020 7SC040,LTCS,2021-01-18T02:50:00Z,37.45,38.9,4.0,4.0,210,9,,6.21,29.763779,,,,,,,,,,,FEW,2000,BKN,4000,,,,,VFR,,,1.4,,,,,,,,,METAR,825.0
LTCN 180250Z 12005KT 9999 -SHRA SCT030 BKN090 05/05 Q1007 NOSIG,LTCN,2021-01-18T02:50:00Z,37.53,36.95,5.0,5.0,120,5,,6.21,29.734253,,,,,,TRUE,,,,-SHRA,SCT,3000,BKN,9000,,,,,VFR,,,,,,,,,,,,METAR,505.0
LTCJ 180250Z 21006KT 9999 BKN040 BKN100 07/07 Q1008 RMK RWY20 23004KT 5SC040 6AC100,LTCJ,2021-01-18T02:50:00Z,37.93,41.12,7.0,7.0,210,6,,6.21,29.763779,,,,,,,,,,,BKN,4000,BKN,10000,,,,,VFR,,,,,,,,,,,,METAR,559.0
LTCG 180250Z 22005KT 8000 -SHRA BKN014 BKN028 04/02 Q1013 NOSIG RMK RWY29 00000KT,LTCG,2021-01-18T02:50:00Z,41.0,39.77,4.0,2.0,220,5,,4.97,29.911417,,,,,,TRUE,,,,-SHRA,BKN,1400,BKN,2800,,,,,MVFR,,,,,,,,,,,,METAR,28.0
LTCF 180250Z 19016KT 9999 -SN BKN025 OVC070 M00/M02 Q1002,LTCF,2021-01-18T02:50:00Z,40.57,43.12,0.0,-2.0,190,16,,6.21,29.586615,,,,,,,,,,-SN,BKN,2500,OVC,7000,,,,,MVFR,,,,,,,,,,,,METAR,1794.0
LTCD 180250Z 27011KT 1700 SN BLSN VV006 M01/M03 Q1007 BECMG TL0400 NSW,LTCD,2021-01-18T02:50:00Z,39.72,39.52,-1.0,-3.0,270,11,,1.06,29.734253,,,,,,,,,,SN BLSN,OVX,0,,,,,,,LIFR,,,,,,,,,,,600,SPECI,1146.0
LTCC 180250Z 12004KT 090V160 9999 SCT035 BKN100 05/02 Q1007 NOSIG RMK RWY16 15004KT 090V180,LTCC,2021-01-18T02:50:00Z,37.88,40.2,5.0,2.0,120,4,,6.21,29.734253,,,,,,TRUE,,,,,SCT,3500,BKN,10000,,,,,VFR,,,,,,,,,,,,METAR,676.0
LTCB 180250Z 24005KT 8000 -SHRA BKN013 BKN025 04/03 Q1013,LTCB,2021-01-18T02:50:00Z,40.97,38.07,4.0,3.0,240,5,,4.97,29.911417,,,,,,,,,,-SHRA,BKN,1300,BKN,2500,,,,,MVFR,,,,,,,,,,,,METAR,5.0
LTCA 180250Z 19007KT 9999 SCT012 BKN033 OVC080 01/00 Q1007 RESN NOSIG,LTCA,2021-01-18T02:50:00Z,38.6,39.28,1.0,0.0,190,7,,6.21,29.734253,,,,,,TRUE,,,,,SCT,1200,BKN,3300,OVC,8000,,,VFR,,,,,,,,,,,,METAR,887.0
LTBY 180250Z 27008KT 8000 -SN SCT025 BKN100 M06/M09 Q1013,LTBY,2021-01-18T02:50:00Z,39.82,30.52,-6.0,-9.0,270,8,,4.97,29.911417,,,,,,,,,,-SN,SCT,2500,BKN,10000,,,,,MVFR,,,,,,,,,,,,METAR,788.0
LTBU 180250Z 34008KT CAVOK M07/M09 Q1019 RMK RWY22 33008KT,LTBU,2021-01-18T02:50:00Z,41.13,27.92,-7.0,-9.0,340,8,,6.21,30.088583,,,,,,,,,,,CAVOK,,,,,,,,VFR,,,,,,,,,,,,SPECI,165.0
LTBS 180250Z 35004KT CAVOK 01/M01 Q1015 NOSIG RMK RWY19 31006KT SKC,LTBS,2021-01-18T02:50:00Z,36.7,28.78,1.0,-1.0,350,4,,6.21,29.970472,,,,,,TRUE,,,,,CAVOK,,,,,,,,VFR,,,,,,,,,,,,METAR,2.0
LTBR 180250Z 00000KT 1400 R25/P1500D R07/P1500D BR FEW015 BKN025 BKN080 M05/M06 Q1018 NOSIG,LTBR,2021-01-18T02:50:00Z,40.25,29.57,-5.0,-6.0,0,0,,0.87,30.059055,,,,,,TRUE,,,,BR,FEW,1500,BKN,2500,BKN,8000,,,LIFR,,,,,,,,,,,,SPECI,233.0
LTBQ 180250Z 18003KT 8000 SCT014 BKN033 M04/M04 Q1019 NOSIG,LTBQ,2021-01-18T02:50:00Z,40.73,30.07,-4.0,-4.0,180,3,,4.97,30.088583,,,,,,TRUE,,,,,SCT,1400,BKN,3300,,,,,MVFR,,,,,,,,,,,,METAR,51.0
LTBJ 180250Z 35011KT 9999 FEW040 BKN100 01/M03 Q1015 NOSIG RMK RWY16 35008KT,LTBJ,2021-01-18T02:50:00Z,38.28,27.15,1.0,-3.0,350,11,,6.21,29.970472,,,,,,TRUE,,,,,FEW,4000,BKN,10000,,,,,VFR,,,,,,,,,,,,METAR,123.0
LTBH 180250Z 04008KT 9999 SCT035 BKN100 M02/M07 Q1020,LTBH,2021-01-18T02:50:00Z,40.13,26.42,-2.0,-7.0,40,8,,6.21,30.11811,,,,,,,,,,,SCT,3500,BKN,10000,,,,,VFR,,,,,,,,,,,,METAR,8.0
LTBF 180250Z 32005KT 9999 FEW015 SCT035 BKN100 M02/M06 Q1019 NOSIG,LTBF,2021-01-18T02:50:00Z,39.62,27.92,-2.0,-6.0,320,5,,6.21,30.088583,,,,,,TRUE,,,,,FEW,1500,SCT,3500,BKN,10000,,,VFR,,,,,,,,,,,,METAR,95.0
LTBA 180250Z 35013KT 9999 SCT040 M04/M07 Q1019 NOSIG RMK RWY23 34009KT,LTBA,2021-01-18T02:50:00Z,40.97,28.82,-4.0,-7.0,350,13,,6.21,30.088583,,,,,,TRUE,,,,,SCT,4000,,,,,,,VFR,,,,,,,,,,,,METAR,33.0
LTAZ 180250Z 24005KT 170V280 9999 FEW015 BKN030 M02/M05 Q1010 RMK RWY29 00000KT,LTAZ,2021-01-18T02:50:00Z,38.77,34.52,-2.0,-5.0,240,5,,6.21,29.822834,,,,,,,,,,,FEW,1500,BKN,3000,,,,,MVFR,,,,,,,,,,,,SPECI,944.0
LTAY 180250Z 23005KT 8000 BKN030 M05/M06 Q1012,LTAY,2021-01-18T02:50:00Z,37.78,29.7,-5.0,-6.0,230,5,,4.97,29.88189,,,,,,,,,,,BKN,3000,,,,,,,MVFR,,,,,,,,,,,,METAR,851.0
LTAU 180250Z 31004KT 9999 FEW015 BKN033 M05/M07 Q1009 NOSIG RMK RWY07 VRB02KT,LTAU,2021-01-18T02:50:00Z,38.77,35.48,-5.0,-7.0,310,4,,6.21,29.793306,,,,,,TRUE,,,,,FEW,1500,BKN,3300,,,,,VFR,,,,,,,,,,,,METAR,1053.0
LTAT 180250Z VRB02KT 9999 FEW020 SCT035 OVC090 01/M01 Q1009 NOSIG RMK RWY03 VRB02KT,LTAT,2021-01-18T02:50:00Z,38.43,38.08,1.0,-1.0,0,2,,6.21,29.793306,,,,,,TRUE,,,,,FEW,2000,SCT,3500,OVC,9000,,,VFR,,,,,,,,,,,,METAR,850.0
LTAP 180250Z 00000KT 7000 -SN FEW019 BKN035 OVC080 M01/M02 Q1010 NOSIG RMK RWY23 18002KT,LTAP,2021-01-18T02:50:00Z,40.83,35.52,-1.0,-2.0,0,0,,4.35,29.822834,,,,,,TRUE,,,,-SN,FEW,1900,BKN,3500,OVC,8000,,,MVFR,,,,,,,,,,,,METAR,536.0
LTAN 180250Z 03005KT 9999 FEW040 SCT180 M07/M09 Q1010 NOSIG,LTAN,2021-01-18T02:50:00Z,37.97,32.55,-7.0,-9.0,30,5,,6.21,29.822834,,,,,,TRUE,,,,,FEW,4000,SCT,18000,,,,,VFR,,,,,,,,,,,,METAR,1029.0
LTAJ 180250Z 23008KT 9999 BKN007 BKN040 05/04 Q1007 NOSIG RMK RWY10 21006KT 170V240 5ST007 7SC040,LTAJ,2021-01-18T02:50:00Z,36.95,37.48,5.0,4.0,230,8,,6.21,29.734253,,,,,,TRUE,,,,,BKN,700,BKN,4000,,,,,IFR,,,-0.6,,,,,,,,,METAR,684.0
LTAI 180250Z 35016KT 9999 SCT030 04/M05 Q1013 NOSIG RMK RWY18C 35014KT RWY36R 35016KT RWY18L 36013KT,LTAI,2021-01-18T02:50:00Z,36.9,30.8,4.0,-5.0,350,16,,6.21,29.911417,,,,,,TRUE,,,,,SCT,3000,,,,,,,VFR,,,,,,,,,,,,METAR,50.0
LTAG 180250Z 00000KT 9999 SCT035 BKN180 05/05 Q1008 NOSIG RMK 3CU035 6CI180,LTAG,2021-01-18T02:50:00Z,37.0,35.42,5.0,5.0,0,0,,6.21,29.763779,,,,,,TRUE,,,,,SCT,3500,BKN,18000,,,,,VFR,,,,,,,,,,,,SPECI,62.0
LTAF 180250Z VRB02KT 9999 FEW040 05/04 Q1008 NOSIG RMK RWY23 11004KT,LTAF,2021-01-18T02:50:00Z,36.98,35.28,5.0,4.0,0,2,,6.21,29.763779,,,,,,TRUE,,,,,FEW,4000,,,,,,,VFR,,-0.4,,,,,,,,,,METAR,19.0
LTAE 180250Z 28006KT 9999 SCT035 BKN090 M05/M08 Q1011 NOSIG RMK RWY21 VRB02KT,LTAE,2021-01-18T02:50:00Z,40.07,32.57,-5.0,-8.0,280,6,,6.21,29.852362,,,,,,TRUE,,,,,SCT,3500,BKN,9000,,,,,VFR,,,,,,,,,,,,METAR,836.0
LTAC 180250Z 17001KT 9999 -SN BKN030 BKN090 M07/M08 Q1009 NOSIG RMK RWY21L 33001KT RWY03L 17002KT RWY21R 00000KT,LTAC,2021-01-18T02:50:00Z,40.12,32.98,-7.0,-8.0,170,1,,6.21,29.793306,,,,,,TRUE,,,,-SN,BKN,3000,BKN,9000,,,,,MVFR,,,,,,,,,,,,SPECI,952.0
LSZL 180250Z AUTO 04001KT 4600NDV BR FEW100 M03/M03 Q1021 RMK,LSZL,2021-01-18T02:50:00Z,46.17,8.88,-3.0,-3.0,40,1,,,30.147638,,,TRUE,,,,,,,BR,FEW,10000,,,,,,,,,,,,,,,,,,,METAR,198.0
LSMP 180250Z AUTO 21002KT 9999NDV SCT040 BKN050 M00/M01 Q1027 RMK,LSMP,2021-01-18T02:50:00Z,46.83,6.92,0.0,-1.0,210,2,,,30.324802,,,TRUE,,,,,,,,SCT,4000,BKN,5000,,,,,,,,,,,,,,,,,METAR,490.0
LSMM 180250Z AUTO 26006KT 220V300 9999NDV FEW013 SCT023 OVC072 02/00 Q1025 RMK,LSMM,2021-01-18T02:50:00Z,46.75,8.12,2.0,0.0,260,6,,,30.265747,,,TRUE,,,,,,,,FEW,1300,SCT,2300,OVC,7200,,,,,,,,,,,,,,,METAR,570.0
LSME 180250Z AUTO 00000KT 6000NDV FEW020 BKN041 OVC086 00/00 Q1026 RMK,LSME,2021-01-18T02:50:00Z,47.1,8.3,0.0,0.0,0,0,,,30.295275,,,TRUE,,,,,,,,FEW,2000,BKN,4100,OVC,8600,,,,,,,,,,,,,,,METAR,427.0
LSMD 180250Z AUTO 29002KT 9999NDV FEW014 OVC060 01/M00 Q1026 RMK,LSMD,2021-01-18T02:50:00Z,47.4,8.65,1.0,0.0,290,2,,,30.295275,,,TRUE,,,,,,,,FEW,1400,OVC,6000,,,,,,,,,,,,,,,,,METAR,436.0
LSMA 180250Z AUTO 18003KT 4300NDV -RASN BR SCT003 BKN008 BKN037 00/M00 Q1026 RMK,LSMA,2021-01-18T02:50:00Z,46.95,8.28,0.0,0.0,180,3,,,30.295275,,,TRUE,,,,,,,SN -RA BR,SCT,300,BKN,800,BKN,3700,,,,,,,,,,,,,,,METAR,441.0
LOXZ 180250Z VRB01KT 10KM SCT045SC BKN060SC M10/M11 Q1018,LOXZ,2021-01-18T02:50:00Z,47.2,14.75,-10.0,-11.0,0,1,,6.21,30.059055,,,,,,,,,,,,,,,,,,,,,,,,,,,,,,,SPECI,678.0
LOWW 180250Z 01003KT 9999 FEW032 BKN034 M06/M10 Q1022 R88/19//95 NOSIG,LOWW,2021-01-18T02:50:00Z,48.12,16.57,-6.0,-10.0,10,3,,6.21,30.177166,,,,,,TRUE,,,,,FEW,3200,BKN,3400,,,,,VFR,,,,,,,,,,,,METAR,179.0
LOWS 180250Z AUTO 15003KT 3900 -SN BR FEW004 SCT009 BKN020 M02/M03 Q1022,LOWS,2021-01-18T02:50:00Z,47.78,13.02,-2.0,-3.0,150,3,,2.42,30.177166,,,TRUE,,,,,,,-SN BR,FEW,400,SCT,900,BKN,2000,,,IFR,,,,,,,,,,,,METAR,427.0
LOWL 180250Z AUTO 29006KT 4300 -SHSN FEW013 BKN016 M03/M05 Q1022,LOWL,2021-01-18T02:50:00Z,48.22,14.18,-3.0,-5.0,290,6,,2.67,30.177166,,,TRUE,,,,,,,-SHSN,FEW,1300,BKN,1600,,,,,IFR,,,,,,,,,,,,METAR,290.0
LOWK 180250Z AUTO VRB02KT 9999 FEW001 BKN015 M12/M13 Q1022,LOWK,2021-01-18T02:50:00Z,46.65,14.32,-12.0,-13.0,0,2,,6.21,30.177166,,,TRUE,,,,,,,,FEW,100,BKN,1500,,,,,MVFR,,,,,,,,,,,,METAR,450.0
LOWI 180250Z AUTO VRB01KT 7000 FEW004 BKN020 M04/M04 Q1023,LOWI,2021-01-18T02:50:00Z,47.27,11.33,-4.0,-4.0,0,1,,4.35,30.206694,,,TRUE,,,,,,,,FEW,400,BKN,2000,,,,,MVFR,,,,,,,,,,,,METAR,570.0
LOWG 180250Z AUTO 27003KT 230V310 8000 FEW009 BKN010 M04/M06 Q1021,LOWG,2021-01-18T02:50:00Z,47.0,15.43,-4.0,-6.0,270,3,,4.97,30.147638,,,TRUE,,,,,,,,FEW,900,BKN,1000,,,,,MVFR,,,,,,,,,,,,METAR,337.0
LIRZ 180250Z AUTO 33007KT 300V360 //// // NCD 03/M00 Q1020,LIRZ,2021-01-18T02:50:00Z,43.1,12.5,3.0,0.0,330,7,,,30.11811,,,TRUE,,,,,,,,CLR,,,,,,,,,,,,,,,,,,,,METAR,206.0
LIRQ 180250Z 32003KT 200V360 CAVOK 01/M02 Q1021,LIRQ,2021-01-18T02:50:00Z,43.8,11.2,1.0,-2.0,320,3,,6.21,30.147638,,,,,,,,,,,CAVOK,,,,,,,,VFR,,,,,,,,,,,,METAR,33.0
LIRN 180250Z 03015KT 9999 BKN030 06/00 Q1016 NOSIG,LIRN,2021-01-18T02:50:00Z,40.88,14.3,6.0,0.0,30,15,,6.21,30.0,,,,,,TRUE,,,,,BKN,3000,,,,,,,MVFR,,,,,,,,,,,,METAR,76.0
LIRF 180250Z 04007KT CAVOK 00/M01 Q1018 NOSIG,LIRF,2021-01-18T02:50:00Z,41.78,12.23,0.0,-1.0,40,7,,6.21,30.059055,,,,,,TRUE,,,,,CAVOK,,,,,,,,VFR,,,,,,,,,,,,METAR,2.0
LIRA 180250Z AUTO 04005KT 9999 NCD M01/M02 Q1017,LIRA,2021-01-18T02:50:00Z,41.8,12.58,-1.0,-2.0,40,5,,6.21,30.029528,,,TRUE,,,,,,,,CLR,,,,,,,,VFR,,,,,,,,,,,,METAR,101.0
LIPZ 180250Z 02007KT 9999 SCT046 M01/M05 Q1022 NOSIG,LIPZ,2021-01-18T02:50:00Z,45.5,12.35,-1.0,-5.0,20,7,,6.21,30.177166,,,,,,TRUE,,,,,SCT,4600,,,,,,,VFR,,,,,,,,,,,,METAR,3.0
LIPY 180250Z AUTO VRB02KT 9999 BKN027/// 03/03 Q1021,LIPY,2021-01-18T02:50:00Z,43.62,13.37,3.0,3.0,0,2,,6.21,30.147638,,,TRUE,,,,,,,,BKN,2700,,,,,,,MVFR,,,,,,,,,,,,METAR,11.0
LIPX 180250Z AUTO 34004KT 9999 SCT180/// M04/M07 Q1021,LIPX,2021-01-18T02:50:00Z,45.38,10.87,-4.0,-7.0,340,4,,6.21,30.147638,,,TRUE,,,,,,,,SCT,18000,,,,,,,VFR,,,,,,,,,,,,METAR,67.0
LIPR 180250Z AUTO 28009KT 9999 BKN032/// 03/M02 Q1022,LIPR,2021-01-18T02:50:00Z,44.02,12.62,3.0,-2.0,280,9,,6.21,30.177166,,,TRUE,,,,,,,,BKN,3200,,,,,,,VFR,,,,,,,,,,,,METAR,10.0
LIPQ 180250Z AUTO VRB01KT 9999 BKN045/// M01/M06 Q1021,LIPQ,2021-01-18T02:50:00Z,45.82,13.47,-1.0,-6.0,0,1,,6.21,30.147638,,,TRUE,,,,,,,,BKN,4500,,,,,,,VFR,,,,,,,,,,,,METAR,6.0
LIPO 180250Z AUTO 02004KT 7000 NCD M03/M04 Q1021,LIPO,2021-01-18T02:50:00Z,45.42,10.33,-3.0,-4.0,20,4,,4.35,30.147638,,,TRUE,,,,,,,,CLR,,,,,,,,MVFR,,,,,,,,,,,,METAR,104.0
LIPH 180250Z AUTO 02004KT 9999 NCD M01/M06 Q1022,LIPH,2021-01-18T02:50:00Z,45.63,12.18,-1.0,-6.0,20,4,,6.21,30.177166,,,TRUE,,,,,,,,CLR,,,,,,,,VFR,,,,,,,,,,,,METAR,10.0
LIPE 180250Z 21003KT 4000 BR NSC M02/M03 Q1022,LIPE,2021-01-18T02:50:00Z,44.52,11.3,-2.0,-3.0,210,3,,2.49,30.177166,,,,,,,,,,BR,CLR,,,,,,,,IFR,,,,,,,,,,,,METAR,37.0
LIMZ 180250Z AUTO 20005KT 9000 NCD M06/M07 Q1020,LIMZ,2021-01-18T02:50:00Z,44.53,7.62,-6.0,-7.0,200,5,,5.59,30.11811,,,TRUE,,,,,,,,CLR,,,,,,,,VFR,,,,,,,,,,,,METAR,377.0
LIML 180250Z VRB01KT 6000 R36/1000U NSC M03/M03 Q1022 NOSIG,LIML,2021-01-18T02:50:00Z,45.47,9.27,-3.0,-3.0,0,1,,3.73,30.177166,,,,,,TRUE,,,,,CLR,,,,,,,,MVFR,,,,,,,,,,,,METAR,109.0
LIMJ 180250Z 03007KT 330V080 CAVOK 06/M02 Q1020,LIMJ,2021-01-18T02:50:00Z,44.42,8.83,6.0,-2.0,30,7,,6.21,30.11811,,,,,,,,,,,CAVOK,,,,,,,,VFR,,,,,,,,,,,,METAR,3.0
LIMF 180250Z 30004KT 4000 BR NSC M03/M05 Q1021,LIMF,2021-01-18T02:50:00Z,45.22,7.65,-3.0,-5.0,300,4,,2.49,30.147638,,,,,,,,,,BR,CLR,,,,,,,,IFR,,,,,,,,,,,,METAR,295.0
LIME 180250Z 34002KT 7000 NSC M02/M03 Q1021 NOSIG,LIME,2021-01-18T02:50:00Z,45.67,9.7,-2.0,-3.0,340,2,,4.35,30.147638,,,,,,TRUE,,,,,CLR,,,,,,,,MVFR,,,,,,,,,,,,METAR,239.0
LIMC 180250Z 01004KT 3000 BR NSC M05/M06 Q1021 NOSIG,LIMC,2021-01-18T02:50:00Z,45.62,8.72,-5.0,-6.0,10,4,,1.86,30.147638,,,,,,TRUE,,,,BR,CLR,,,,,,,,IFR,,,,,,,,,,,,METAR,221.0
LIEO 180250Z VRB02KT 9999 SCT030 06/05 Q1020,LIEO,2021-01-18T02:50:00Z,40.88,9.52,6.0,5.0,0,2,,6.21,30.11811,,,,,,,,,,,SCT,3000,,,,,,,VFR,,,,,,,,,,,,METAR,8.0
LIEE 180250Z 34009KT CAVOK 10/07 Q1019,LIEE,2021-01-18T02:50:00Z,39.25,9.07,10.0,7.0,340,9,,6.21,30.088583,,,,,,,,,,,CAVOK,,,,,,,,VFR,,,,,,,,,,,,METAR,1.0
LIEA 180250Z 34003KT 9999 SCT030 08/06 Q1020,LIEA,2021-01-18T02:50:00Z,40.62,8.28,8.0,6.0,340,3,,6.21,30.11811,,,,,,,,,,,SCT,3000,,,,,,,VFR,,,,,,,,,,,,METAR,22.0
LICR 180250Z AUTO 35012KT 9999 FEW021/// BKN042/// 11/07 Q1011 RERA,LICR,2021-01-18T02:50:00Z,38.07,15.65,11.0,7.0,350,12,,6.21,29.852362,,,TRUE,,,,,,,,FEW,2100,BKN,4200,,,,,VFR,,,,,,,,,,,,METAR,16.0
LICJ 180250Z 02008KT 9999 RA BKN030 11/07 Q1014,LICJ,2021-01-18T02:50:00Z,38.17,13.08,11.0,7.0,20,8,,6.21,29.940945,,,,,,,,,,RA,BKN,3000,,,,,,,MVFR,,,,,,,,,,,,METAR,20.0
LICD 180250Z AUTO 28019G29KT 9999 NCD 14/08 Q1018,LICD,2021-01-18T02:50:00Z,35.5,12.62,14.0,8.0,280,19,29,6.21,30.059055,,,TRUE,,,,,,,,CLR,,,,,,,,VFR,,,,,,,,,,,,METAR,20.0
LICC 180250Z 24009KT 9999 BKN090 10/06 Q1011,LICC,2021-01-18T02:50:00Z,37.47,15.05,10.0,6.0,240,9,,6.21,29.852362,,,,,,,,,,,BKN,9000,,,,,,,VFR,,,,,,,,,,,,METAR,6.0
LICB 180250Z AUTO 26005KT 9999 NCD 06/06 Q1012,LICB,2021-01-18T02:50:00Z,37.0,14.62,6.0,6.0,260,5,,6.21,29.88189,,,TRUE,,,,,,,,CLR,,,,,,,,VFR,,,,,,,,,,,,METAR,212.0
LICA 180250Z AUTO 04010KT 9999 OVC053/// 07/04 Q1013,LICA,2021-01-18T02:50:00Z,38.9,16.25,7.0,4.0,40,10,,6.21,29.911417,,,TRUE,,,,,,,,OVC,5300,,,,,,,VFR,,,,,,,,,,,,METAR,7.0
LIBR 180250Z AUTO 34008KT 300V010 9999 -RA OVC015/// 04/03 Q1016,LIBR,2021-01-18T02:50:00Z,40.65,17.95,4.0,3.0,340,8,,6.21,30.0,,,TRUE,,,,,,,-RA,OVC,1500,,,,,,,MVFR,,,,,,,,,,,,METAR,5.0
LIBP 180250Z AUTO 25004KT 9999 BKN048/// 02/02 Q1021,LIBP,2021-01-18T02:50:00Z,42.42,14.18,2.0,2.0,250,4,,6.21,30.147638,,,TRUE,,,,,,,,BKN,4800,,,,,,,VFR,,,,,,,,,,,,METAR,10.0
LIBD 180250Z 26004KT 190V300 4000 RA FEW008 BKN015 03/02 Q1017 RESHRA,LIBD,2021-01-18T02:50:00Z,41.13,16.77,3.0,2.0,260,4,,2.49,30.029528,,,,,,,,,,RA,FEW,800,BKN,1500,,,,,IFR,,,,,,,,,,,,METAR,42.0
LGTS 180250Z 13004KT 9999 FEW020 M04/M06 Q1020 NOSIG,LGTS,2021-01-18T02:50:00Z,40.52,22.97,-4.0,-6.0,130,4,,6.21,30.11811,,,,,,TRUE,,,,,FEW,2000,,,,,,,VFR,,,,,,,,,,,,METAR,4.0
LGSO 180250Z AUTO 33011KT 290V350 //// // ////// 06/M04 Q1015 RE//,LGSO,2021-01-18T02:50:00Z,37.42,24.95,6.0,-4.0,330,11,,,29.970472,,,TRUE,,,,,,,,,,,,,,,,,,,,,,,,,,,,METAR,71.0
LGSM 180250Z 28005KT 8000 RA FEW016 BKN020 04/03 Q1015,LGSM,2021-01-18T02:50:00Z,37.68,26.92,4.0,3.0,280,5,,4.97,29.970472,,,,,,,,,,RA,FEW,1600,BKN,2000,,,,,MVFR,,,,,,,,,,,,METAR,5.0
LGSA 180250Z 24004KT 9999 FEW020 SCT025 BKN080 07/06 Q1013,LGSA,2021-01-18T02:50:00Z,35.53,24.13,7.0,6.0,240,4,,6.21,29.911417,,,,,,,,,,,FEW,2000,SCT,2500,BKN,8000,,,VFR,,,,,,,,,,,,METAR,122.0
LGRX 180250Z 11005KT 9999 SCT020 BKN070 05/M00 Q1014 RMK OVC180 BLU,LGRX,2021-01-18T02:50:00Z,38.17,21.42,5.0,0.0,110,5,,6.21,29.940945,,,,,,,,,,,SCT,2000,BKN,7000,,,,,VFR,,,,,,,,,,,,METAR,16.0
LGPZ 180250Z 07009KT 9999 SCT025 06/M02 Q1014 RMK SCT090 BKN180 BLU,LGPZ,2021-01-18T02:50:00Z,38.92,20.77,6.0,-2.0,70,9,,6.21,29.940945,,,,,,,,,,,SCT,2500,,,,,,,VFR,,,,,,,,,,,,METAR,3.0
LGPA 180250Z AUTO 01008KT //// // ////// 06/M01 Q1015 RE//,LGPA,2021-01-18T02:50:00Z,37.02,25.1,6.0,-1.0,10,8,,,29.970472,,,TRUE,,,,,,,,,,,,,,,,,,,,,,,,,,,,METAR,42.0
LGLM 180250Z 07010KT 9999 BKN006 OVC015 01/M03 Q1018,LGLM,2021-01-18T02:50:00Z,39.92,25.23,1.0,-3.0,70,10,,6.21,30.059055,,,,,,,,,,,BKN,600,OVC,1500,,,,,IFR,,,,,,,,,,,,METAR,4.0
LGKZ 180250Z AUTO 36006KT 310V020 //// // ////// M08/M14 Q1016 RE//,LGKZ,2021-01-18T02:50:00Z,40.28,21.83,-8.0,-14.0,360,6,,,30.0,,,TRUE,,,,,,,,,,,,,,,,,,,,,,,,,,,,METAR,615.0
LGKO 180250Z 35006KT 9999 FEW016TCU BKN020 05/03 Q1014,LGKO,2021-01-18T02:50:00Z,36.8,27.08,5.0,3.0,350,6,,6.21,29.940945,,,,,,,,,,,FEW,1600,BKN,2000,,,,,MVFR,,,,,,,,,,,,METAR,130.0
LGKL 180250Z AUTO 34008KT 300V020 //// -RA ////// 05/01 Q1013 RE//,LGKL,2021-01-18T02:50:00Z,37.07,22.02,5.0,1.0,340,8,,,29.911417,,,TRUE,,,,,,,-RA,,,,,,,,,,,,,,,,,,,,,METAR,4.0
LGIO 180250Z AUTO VRB03KT //// // ////// M02/M07 Q1013 RE//,LGIO,2021-01-18T02:50:00Z,39.7,20.82,-2.0,-7.0,0,3,,,29.911417,,,TRUE,,,,,,,,,,,,,,,,,,,,,,,,,,,,METAR,476.0
LGHI 180250Z 20003KT 8000 -SNRA SCT020 BKN040 02/01 Q1016,LGHI,2021-01-18T02:50:00Z,38.33,26.13,2.0,1.0,200,3,,4.97,30.0,,,,,,,,,,-SN -RA,SCT,2000,BKN,4000,,,,,MVFR,,,,,,,,,,,,METAR,6.0
LGEL 180250Z 32005KT 9999 FEW030 BKN070 02/M05 Q1016,LGEL,2021-01-18T02:50:00Z,38.07,23.55,2.0,-5.0,320,5,,6.21,30.0,,,,,,,,,,,FEW,3000,BKN,7000,,,,,VFR,,,,,,,,,,,,METAR,21.0
LGBL 180250Z 31004KT 9999 SCT030 SCT080 M00/M04 Q1019,LGBL,2021-01-18T02:50:00Z,39.22,22.8,0.0,-4.0,310,4,,6.21,30.088583,,,,,,,,,,,SCT,3000,SCT,8000,,,,,VFR,,,,,,,,,,,,METAR,13.0
LGAD 180250Z 08004KT 8000 -RA SCT025 BKN080 04/02 Q1014,LGAD,2021-01-18T02:50:00Z,37.92,21.28,4.0,2.0,80,4,,4.97,29.940945,,,,,,,,,,-RA,SCT,2500,BKN,8000,,,,,MVFR,,,,,,,,,,,,METAR,8.0
LCRA 180250Z 29008KT 9999 SCT035 10/07 Q1012 NOSIG,LCRA,2021-01-18T02:50:00Z,34.58,32.98,10.0,7.0,290,8,,6.21,29.88189,,,,,,TRUE,,,,,SCT,3500,,,,,,,VFR,,,,,,,,,,,,METAR,23.0
LCEN 180250Z 26007KT 9999 SCT020 SCT025 08/05 Q1011 NOSIG RMK RWY11 26005KT,LCEN,2021-01-18T02:50:00Z,35.15,33.5,8.0,5.0,260,7,,6.21,29.852362,,,,,,TRUE,,,,,SCT,2000,SCT,2500,,,,,VFR,,,,,,,,,,,,METAR,91.0
KRYY 180250Z 25004KT 10SM BKN070 OVC085 06/M03 A2992 RMK AO2 SLP855 T00561033 53006 $,KRYY,2021-01-18T02:50:00Z,34.02,-84.6,5.6,-3.3,250,4,,10.0,29.920275,985.5,,,TRUE,TRUE,,,,,,BKN,7000,OVC,8500,,,,,VFR,0.6,,,,,,,,,,,SPECI,306.0
KEFD 180250Z 00000KT 9SM CLR 11/01 A3011,KEFD,2021-01-18T02:50:00Z,29.6,-95.17,11.0,1.0,0,0,,9.0,30.109253,,,,,,,,,,,CLR,,,,,,,,VFR,,,,,,,,,,,,METAR,9.0
KCWF 180250Z 00000KT 10SM SKC 06/04 A3011,KCWF,2021-01-18T02:50:00Z,30.22,-93.15,6.0,4.0,0,0,,10.0,30.109253,,,,,,,,,,,SKC,,,,,,,,VFR,,,,,,,,,,,,METAR,4.0
KALN 180250Z 27007KT 7SM BKN027 OVC032 00/00 A2988,KALN,2021-01-18T02:50:00Z,38.88,-90.03,0.0,0.0,270,7,,7.0,29.878937,,,,,,,,,,,BKN,2700,OVC,3200,,,,,MVFR,,,,,,,,,,,,METAR,159.0
ETNH 180250Z 18004KT 1000 BR OVC001 M00/M01 Q1017 RED,ETNH,2021-01-18T02:50:00Z,54.32,9.55,0.0,-1.0,180,4,,0.62,30.029528,,,,,,,,,,BR,OVC,100,,,,,,,LIFR,,,,,,,,,,,,SPECI,6.0
ETNG 180250Z 24006KT 9999 FEW026 BKN042 04/03 Q1023,ETNG,2021-01-18T02:50:00Z,50.97,6.03,4.0,3.0,240,6,,6.21,30.206694,,,,,,,,,,,FEW,2600,BKN,4200,,,,,VFR,,,,,,,,,,,,METAR,76.0
ESUP 180250Z AUTO 27001KT 9999 // NCD M23/M26 Q1007,ESUP,2021-01-18T02:50:00Z,67.25,23.07,-23.0,-26.0,270,1,,6.21,29.734253,,,TRUE,,,,,,,,CLR,,,,,,,,VFR,,,,,,,,,,,,METAR,164.0
ESSV 180250Z AUTO 19006KT 9999 SG SCT025/// OVC036/// M02/M05 Q1017 RESN,ESSV,2021-01-18T02:50:00Z,57.67,18.35,-2.0,-5.0,190,6,,6.21,30.029528,,,TRUE,,,,,,,SG,SCT,2500,OVC,3600,,,,,VFR,,,,,,,,,,,,METAR,38.0
ESST 180250Z AUTO 00000KT 9999 OVC010/// M03/M04 Q1012,ESST,2021-01-18T02:50:00Z,60.15,12.98,-3.0,-4.0,0,0,,6.21,29.88189,,,TRUE,,,,,,,,OVC,1000,,,,,,,MVFR,,,,,,,,,,,,METAR,110.0
ESSP 180250Z AUTO VRB02KT 9999 OVC038/// M02/M05 Q1016,ESSP,2021-01-18T02:50:00Z,58.58,16.25,-2.0,-5.0,0,2,,6.21,30.0,,,TRUE,,,,,,,,OVC,3800,,,,,,,VFR,,,,,,,,,,,,METAR,3.0
ESSL 180250Z AUTO 21006KT 170V240 9999 OVC036/// M02/M05 Q1016,ESSL,2021-01-18T02:50:00Z,58.4,15.67,-2.0,-5.0,210,6,,6.21,30.0,,,TRUE,,,,,,,,OVC,3600,,,,,,,VFR,,,,,,,,,,,,METAR,51.0
ESSD 180250Z AUTO 22005KT 9999 OVC012/// M02/M04 Q1011,ESSD,2021-01-18T02:50:00Z,60.42,15.5,-2.0,-4.0,220,5,,6.21,29.852362,,,TRUE,,,,,,,,OVC,1200,,,,,,,MVFR,,,,,,,,,,,,METAR,151.0
ESSB 180250Z AUTO 22004KT 9999 OVC035/// M02/M03 Q1015,ESSB,2021-01-18T02:50:00Z,59.35,17.93,-2.0,-3.0,220,4,,6.21,29.970472,,,TRUE,,,,,,,,OVC,3500,,,,,,,VFR,,,,,,,,,,,,METAR,14.0
ESSA 180250Z 22006KT 9999 FEW010 OVC035 M02/M04 Q1014 R19L/510167 R08/510169 NOSIG,ESSA,2021-01-18T02:50:00Z,59.65,17.93,-2.0,-4.0,220,6,,6.21,29.940945,,,,,,TRUE,,,,,FEW,1000,OVC,3500,,,,,VFR,,,,,,,,,,,,METAR,36.0
ESPE 180250Z AUTO 00000KT 9999 BKN005/// OVC011/// M24/M26 Q1008,ESPE,2021-01-18T02:50:00Z,65.88,20.15,-24.0,-26.0,0,0,,6.21,29.763779,,,TRUE,,,,,,,,BKN,500,OVC,1100,,,,,IFR,,,,,,,,,,,,METAR,182.0
ESPA 180250Z AUTO 33003KT 9999 OVC023/// M15/M16 Q1010,ESPA,2021-01-18T02:50:00Z,65.53,22.12,-15.0,-16.0,330,3,,6.21,29.822834,,,TRUE,,,,,,,,OVC,2300,,,,,,,MVFR,,,,,,,,,,,,METAR,12.0
ESOW 180250Z AUTO 21006KT 9999 BKN022/// OVC037/// M02/M05 Q1015,ESOW,2021-01-18T02:50:00Z,59.58,16.63,-2.0,-5.0,210,6,,6.21,29.970472,,,TRUE,,,,,,,,BKN,2200,OVC,3700,,,,,MVFR,,,,,,,,,,,,METAR,7.0
ESOK 180250Z AUTO 21008KT 9999 OVC014/// M01/M02 Q1013 RESHUP REFZUP,ESOK,2021-01-18T02:50:00Z,59.45,13.33,-1.0,-2.0,210,8,,6.21,29.911417,,,TRUE,,,,,,,UP,OVC,1400,,,,,,,MVFR,,,,,,,,,,,,METAR,101.0
ESOH 180250Z AUTO 18006KT 9999 OVC004/// M03/M03 Q1012,ESOH,2021-01-18T02:50:00Z,60.02,13.58,-3.0,-3.0,180,6,,6.21,29.88189,,,TRUE,,,,,,,,OVC,400,,,,,,,LIFR,,,,,,,,,,,,METAR,145.0
ESOE 180250Z 20009KT 9999 SCT022 BKN033 M01/M02 Q1014,ESOE,2021-01-18T02:50:00Z,59.22,15.05,-1.0,-2.0,200,9,,6.21,29.940945,,,,,,,,,,,SCT,2200,BKN,3300,,,,,VFR,,,,,,,,,,,,METAR,57.0
ESNZ 180250Z AUTO 00000KT 9999 NCD M23/M25 Q1007,ESNZ,2021-01-18T02:50:00Z,63.18,14.5,-23.0,-25.0,0,0,,6.21,29.734253,,,TRUE,,,,,,,,CLR,,,,,,,,VFR,,,,,,,,,,,,METAR,360.0
ESNV 180250Z AUTO 00000KT 9999 VV003 M26/M29 Q1008,ESNV,2021-01-18T02:50:00Z,64.58,16.83,-26.0,-29.0,0,0,,6.21,29.763779,,,TRUE,,,,,,,,OVX,0,,,,,,,LIFR,,,,,,,,,,,300,METAR,348.0
ESNU 180250Z AUTO 32005KT 9999 NCD M16/M17 Q1010,ESNU,2021-01-18T02:50:00Z,63.78,20.28,-16.0,-17.0,320,5,,6.21,29.822834,,,TRUE,,,,,,,,CLR,,,,,,,,VFR,,,,,,,,,,,,METAR,8.0
ESNS 180250Z AUTO 26007KT 9999 BKN007/// OVC017/// M14/M15 Q1010,ESNS,2021-01-18T02:50:00Z,64.62,21.07,-14.0,-15.0,260,7,,6.21,29.822834,,,TRUE,,,,,,,,BKN,700,OVC,1700,,,,,IFR,,,,,,,,,,,,METAR,41.0
ESNQ 180250Z AUTO 21008KT 9999 NCD M16/M18 Q1004,ESNQ,2021-01-18T02:50:00Z,67.82,20.33,-16.0,-18.0,210,8,,6.21,29.64567,,,TRUE,,,,,,,,CLR,,,,,,,,VFR,,,,,,,,,,,,METAR,447.0
ESNO 180250Z AUTO 30004KT 9999 NCD M21/M23 Q1009,ESNO,2021-01-18T02:50:00Z,63.4,18.97,-21.0,-23.0,300,4,,6.21,29.793306,,,TRUE,,,,,,,,CLR,,,,,,,,VFR,,,,,,,,,,,,METAR,100.0
ESNN 180250Z AUTO 30005KT 270V340 9999 NCD M17/M19 Q1011,ESNN,2021-01-18T02:50:00Z,62.52,17.43,-17.0,-19.0,300,5,,6.21,29.852362,,,TRUE,,,,,,,,CLR,,,,,,,,VFR,,,,,,,,,,,,METAR,4.0
ESNK 180250Z AUTO 31006KT 9999 SCT009/// M22/M25 Q1012,ESNK,2021-01-18T02:50:00Z,63.03,17.77,-22.0,-25.0,310,6,,6.21,29.88189,,,TRUE,,,,,,,,SCT,900,,,,,,,VFR,,,,,,,,,,,,METAR,4.0
ESNG 180250Z AUTO 30004KT 9999 NCD M18/M20 Q1006,ESNG,2021-01-18T02:50:00Z,67.13,20.82,-18.0,-20.0,300,4,,6.21,29.704725,,,TRUE,,,,,,,,CLR,,,,,,,,VFR,,,,,,,,,,,,METAR,300.0
ESND 180250Z AUTO 27003KT 9999 NCD M23/M26 Q1009,ESND,2021-01-18T02:50:00Z,62.05,14.42,-23.0,-26.0,270,3,,6.21,29.793306,,,TRUE,,,,,,,,CLR,,,,,,,,VFR,,,,,,,,,,,,METAR,352.0
ESKS 180250Z AUTO 27002KT 4800 BR OVC002/// M09/M10 Q1009,ESKS,2021-01-18T02:50:00Z,61.17,12.83,-9.0,-10.0,270,2,,2.98,29.793306,,,TRUE,,,,,,,BR,OVC,200,,,,,,,LIFR,,,,,,,,,,,,METAR,503.0
ESKN 180250Z 24005KT 9999 BKN035 M03/M05 Q1015 R26/910195,ESKN,2021-01-18T02:50:00Z,58.78,16.92,-3.0,-5.0,240,5,,6.21,29.970472,,,,,,,,,,,BKN,3500,,,,,,,VFR,,,,,,,,,,,,METAR,41.0
ESKM 180250Z AUTO 25005KT 230V290 9999 OVC010/// M04/M04 Q1010,ESKM,2021-01-18T02:50:00Z,60.97,14.52,-4.0,-4.0,250,5,,6.21,29.822834,,,TRUE,,,,,,,,OVC,1000,,,,,,,MVFR,,,,,,,,,,,,METAR,184.0
ESIB 180250Z AUTO 20009KT 9999 -SN FEW024/// SCT032/// OVC044/// M01/M01 Q1015,ESIB,2021-01-18T02:50:00Z,58.42,12.7,-1.0,-1.0,200,9,,6.21,29.970472,,,TRUE,,,,,,,-SN,FEW,2400,SCT,3200,OVC,4400,,,VFR,,,,,,,,,,,,METAR,51.0
ESIA 180250Z AUTO 22003KT 9999 OVC041/// M02/M05 Q1015,ESIA,2021-01-18T02:50:00Z,58.52,14.5,-2.0,-5.0,220,3,,6.21,29.970472,,,TRUE,,,,,,,,OVC,4100,,,,,,,VFR,,,,,,,,,,,,METAR,94.0
ESDF 180250Z AUTO 00000KT 9999 OVC052/// M04/M04 Q1018,ESDF,2021-01-18T02:50:00Z,56.27,15.27,-4.0,-4.0,0,0,,6.21,30.059055,,,TRUE,,,,,,,,OVC,5200,,,,,,,VFR,,,,,,,,,,,,METAR,52.0
ESCM 180250Z AUTO 22008KT 9999 OVC037/// M02/M04 Q1014,ESCM,2021-01-18T02:50:00Z,59.88,17.6,-2.0,-4.0,220,8,,6.21,29.940945,,,TRUE,,,,,,,,OVC,3700,,,,,,,VFR,,,,,,,,,,,,METAR,21.0
ESCF 180250Z AUTO 20006KT 9999 OVC041/// M03/M05 Q1016,ESCF,2021-01-18T02:50:00Z,58.38,15.52,-3.0,-5.0,200,6,,6.21,30.0,,,TRUE,,,,,,,,OVC,4100,,,,,,,VFR,,,,,,,,,,,,METAR,86.0
ENZV 180250Z 12008KT 9999 FEW022 02/00 Q1010,ENZV,2021-01-18T02:50:00Z,58.88,5.63,2.0,0.0,120,8,,6.21,29.822834,,,,,,,,,,,FEW,2200,,,,,,,VFR,,,,,,,,,,,,METAR,7.0
ENWV 180250Z AUTO 25026KT 5000NDV -RA OVC012/// 07/06 Q1011 W///S4,ENWV,2021-01-18T02:50:00Z,56.28,3.4,7.0,6.0,250,26,,,29.852362,,,TRUE,,,,,,,-RA,OVC,1200,,,,,,,,,,,,,,,,,,,METAR,30.0
ENUN 180250Z AUTO 15018KT 9999NDV FEW014/// BKN017/// BKN068/// 06/03 Q1003 W07/S/,ENUN,2021-01-18T02:50:00Z,,,6.0,3.0,150,18,,,29.616142,,,TRUE,,,,,,,,FEW,1400,BKN,1700,BKN,6800,,,,,,,,,,,,,,,METAR,
ENUG 180250Z AUTO 33017G28KT 270V350 9999NDV BKN020/// BKN040/// 02/M02 Q1001 W///S4,ENUG,2021-01-18T02:50:00Z,71.3,22.25,2.0,-2.0,330,17,28,,29.557087,,,TRUE,,,,,,,,BKN,2000,BKN,4000,,,,,,,,,,,,,,,,,METAR,30.0
ENSL 180250Z AUTO 24024KT 9999NDV BKN016/// 07/04 Q1006 W06/S4,ENSL,2021-01-18T02:50:00Z,58.37,1.9,7.0,4.0,240,24,,,29.704725,,,TRUE,,,,,,,,BKN,1600,,,,,,,,,,,,,,,,,,,METAR,50.0
ENSF 180250Z AUTO 20024KT 9999NDV +SHRA BKN020/// BKN150/// 08/04 Q1000 W///S5,ENSF,2021-01-18T02:50:00Z,61.25,1.85,8.0,4.0,200,24,,,29.52756,,,TRUE,,,,,,,+SHRA,BKN,2000,BKN,15000,,,,,,,,,,,,,,,,,METAR,15.0
ENSE 180250Z AUTO 20031KT 9999NDV BKN014/// 06/05 Q1000 W///S5,ENSE,2021-01-18T02:50:00Z,61.45,2.15,6.0,5.0,200,31,,,29.52756,,,TRUE,,,,,,,,BKN,1400,,,,,,,,,,,,,,,,,,,METAR,10.0
ENQR 180250Z AUTO 18024G37KT 7000NDV SHRA OVC015/// 06/04 Q0999 W///S5,ENQR,2021-01-18T02:50:00Z,61.52,2.22,6.0,4.0,180,24,37,,29.498032,,,TRUE,,,,,,,SHRA,OVC,1500,,,,,,,,,,,,,,,,,,,METAR,10.0
ENQC 180250Z AUTO 16032KT 9999NDV -RA BKN021/// BKN082/// 07/03 Q1003 W///S5,ENQC,2021-01-18T02:50:00Z,60.88,3.62,7.0,3.0,160,32,,,29.616142,,,TRUE,,,,,,,-RA,BKN,2100,BKN,8200,,,,,,,,,,,,,,,,,METAR,20.0
ENQA 180250Z AUTO 17036KT 9999NDV -SHRA OVC021/// 06/03 Q1004 W05/S5,ENQA,2021-01-18T02:50:00Z,60.65,3.72,6.0,3.0,170,36,,,29.64567,,,TRUE,,,,,,,-SHRA,OVC,2100,,,,,,,,,,,,,,,,,,,METAR,90.0
ENOL 180250Z 12018KT 9999 FEW040 M02/M04 Q1007,ENOL,2021-01-18T02:50:00Z,63.7,9.6,-2.0,-4.0,120,18,,6.21,29.734253,,,,,,,,,,,FEW,4000,,,,,,,VFR,,,,,,,,,,,,METAR,9.0
ENOA 180250Z 18041KT 9999 -SHRA BKN018 07/03 Q1002 W///S5,ENOA,2021-01-18T02:50:00Z,60.5,2.83,7.0,3.0,180,41,,6.21,29.586615,,,,,,,,,,-SHRA,BKN,1800,,,,,,,MVFR,,,,,,,,,,,,METAR,5.0
ENNE 180250Z AUTO 14022KT 4500NDV BR OVC015/// 05/03 Q1004 W///S5,ENNE,2021-01-18T02:50:00Z,66.03,8.08,5.0,3.0,140,22,,,29.64567,,,TRUE,,,,,,,BR,OVC,1500,,,,,,,,,,,,,,,,,,,METAR,10.0
ENNA 180250Z AUTO 25008KT 200V310 9999 BKN029/// OVC046/// 03/M03 Q1003 RMK WIND 1800FT 28029KT,ENNA,2021-01-18T02:50:00Z,70.07,24.97,3.0,-3.0,250,8,,6.21,29.616142,,,TRUE,,,,,,,,BKN,2900,OVC,4600,,,,,MVFR,,,,,,,,,,,,METAR,12.0
ENML 180250Z AUTO 05007KT 9999NDV NCD M02/M04 Q1007,ENML,2021-01-18T02:50:00Z,62.75,7.27,-2.0,-4.0,50,7,,,29.734253,,,TRUE,,,,,,,,CLR,,,,,,,,,,,,,,,,,,,,METAR,3.0
ENLA 180250Z AUTO 23018KT 9999NDV SCT014/// BKN099/// 07/06 Q1009 W///S4,ENLA,2021-01-18T02:50:00Z,57.1,2.83,7.0,6.0,230,18,,,29.793306,,,TRUE,,,,,,,,SCT,1400,BKN,9900,,,,,,,,,,,,,,,,,METAR,10.0
ENKR 180250Z AUTO 25011KT 7000 -SN ///029/// M01/M02 Q1001 RMK WIND 731FT 26021KT,ENKR,2021-01-18T02:50:00Z,69.72,29.88,-1.0,-2.0,250,11,,4.35,29.557087,,,TRUE,,,,,,,-SN,,,,,,,,,,,,,,,,,,,,,METAR,86.0
ENKB 180250Z AUTO 08005KT 030V120 9999 SCT057/// 01/M04 Q1006 RMK WIND 745FT 13012KT,ENKB,2021-01-18T02:50:00Z,63.12,7.82,1.0,-4.0,80,5,,6.21,29.704725,,,TRUE,,,,,,,,SCT,5700,,,,,,,VFR,,,,,,,,,,,,METAR,62.0
ENHM 180250Z AUTO 20020KT 9999NDV -SHRA FEW015/// SCT025/// BKN034/// 06/05 Q1003 RESHRA W08/S5,ENHM,2021-01-18T02:50:00Z,59.57,2.23,6.0,5.0,200,20,,,29.616142,,,TRUE,,,,,,,-SHRA,FEW,1500,SCT,2500,BKN,3400,,,,,,,,,,,,,,,METAR,10.0
ENHF 180250Z VRB03KT 8000 -SN FEW007 BKN013 01/00 Q1002 RMK WIND 1254FT 29013KT,ENHF,2021-01-18T02:50:00Z,70.67,23.67,1.0,0.0,0,3,,4.97,29.586615,,,,,,,,,,-SN,FEW,700,BKN,1300,,,,,MVFR,,,,,,,,,,,,METAR,79.0
ENHE 180250Z 23018KT 9999 BKN018 06/03 Q1004 W///S5,ENHE,2021-01-18T02:50:00Z,65.33,2.33,6.0,3.0,230,18,,6.21,29.64567,,,,,,,,,,,BKN,1800,,,,,,,MVFR,,,,,,,,,,,,METAR,10.0
ENGM 180250Z 36004KT 9000 BKN004 M08/M09 Q1012,ENGM,2021-01-18T02:50:00Z,60.2,11.07,-8.0,-9.0,360,4,,5.59,29.88189,,,,,,,,,,,BKN,400,,,,,,,LIFR,,,,,,,,,,,,METAR,204.0
ENGC 180250Z 20025KT 9999 VCSH FEW020 BKN040 06/03 Q1000 W07/S5,ENGC,2021-01-18T02:50:00Z,61.02,2.02,6.0,3.0,200,25,,6.21,29.52756,,,,,,,,,,VCSH,FEW,2000,BKN,4000,,,,,VFR,,,,,,,,,,,,METAR,10.0
ENFL 180250Z AUTO 14017KT 9999NDV OVC022/// 05/01 Q1006,ENFL,2021-01-18T02:50:00Z,61.57,5.02,5.0,1.0,140,17,,,29.704725,,,TRUE,,,,,,,,OVC,2200,,,,,,,,,,,,,,,,,,,METAR,1.0
ENFB 180250Z AUTO 20026KT 5000NDV -SHRA BKN015/// ///// Q//// W///S5,ENFB,2021-01-18T02:50:00Z,61.2,1.83,,,200,26,,,,,,TRUE,,,,,,,-SHRA,BKN,1500,,,,,,,,,,,,,,,,,,,METAR,10.0
ENEV 180250Z AUTO 00000KT 9999 NCD M11/M12 Q1008 RMK WIND 1400FT 17005KT,ENEV,2021-01-18T02:50:00Z,68.48,16.67,-11.0,-12.0,0,0,,6.21,29.763779,,,TRUE,,,,,,,,CLR,,,,,,,,VFR,,,,,,,,,,,,METAR,26.0
ENDU 180250Z AUTO 00000KT 9999 BKN033/// M09/M11 Q1007 RMK WIND 1100FT 20005KT WIND 2200FT 25007KT,ENDU,2021-01-18T02:50:00Z,69.05,18.55,-9.0,-11.0,0,0,,6.21,29.734253,,,TRUE,,,,,,,,BKN,3300,,,,,,,VFR,,,0.5,,,,,,,,,METAR,65.0
ENBO 180250Z 09012KT 9999 SCT020 M04/M08 Q1008,ENBO,2021-01-18T02:50:00Z,67.27,14.37,-4.0,-8.0,90,12,,6.21,29.763779,,,,,,,,,,,SCT,2000,,,,,,,VFR,,,,,,,,,,,,METAR,13.0
ENBN 180250Z AUTO 10005KT 9999NDV NCD M05/M07 Q1008,ENBN,2021-01-18T02:50:00Z,65.47,12.22,-5.0,-7.0,100,5,,,29.763779,,,TRUE,,,,,,,,CLR,,,,,,,,,,,,,,,,,,,,METAR,3.0
ENAT 180250Z AUTO VRB02KT 9999 FEW031/// SCT039/// BKN051/// M02/M03 Q1004 RESHUP REFZUP RMK WIND 700FT 24007KT,ENAT,2021-01-18T02:50:00Z,69.97,23.37,-2.0,-3.0,0,2,,6.21,29.64567,,,TRUE,,,,,,,UP,FEW,3100,SCT,3900,BKN,5100,,,VFR,,,,,,,,,,,,METAR,3.0
ENAN 180250Z AUTO 18003KT 140V230 9999 ///023/// M00/M00 Q1007,ENAN,2021-01-18T02:50:00Z,69.3,16.13,0.0,0.0,180,3,,6.21,29.734253,,,TRUE,,,,,,,,,,,,,,,,,,,,,,,,,,,,METAR,13.0
ELLX 180250Z 28007KT 5000 BR SCT004 BKN035 01/00 Q1024 NOSIG,ELLX,2021-01-18T02:50:00Z,49.63,6.2,1.0,0.0,280,7,,3.11,30.236221,,,,,,TRUE,,,,BR,SCT,400,BKN,3500,,,,,MVFR,,,,,,,,,,,,METAR,374.0
EGYP 180250Z 30005KT 9999 BKN012 07/05 Q0998,EGYP,2021-01-18T02:50:00Z,-51.82,-58.45,7.0,5.0,300,5,,6.21,29.468504,,,,,,,,,,,BKN,1200,,,,,,,MVFR,,,,,,,,,,,,METAR,70.0
EGYM 180250Z 20007KT CAVOK 01/01 Q1022 BLU,EGYM,2021-01-18T02:50:00Z,52.63,0.57,1.0,1.0,200,7,,6.21,30.177166,,,,,,,,,,,CAVOK,,,,,,,,VFR,,,,,,,,,,,,METAR,25.0
EGYD 180250Z AUTO 25015KT 9999 // FEW080/// 03/01 Q1021,EGYD,2021-01-18T02:50:00Z,53.03,-0.5,3.0,1.0,250,15,,6.21,30.147638,,,TRUE,,,,,,,,FEW,8000,,,,,,,VFR,,,,,,,,,,,,METAR,65.0
EGXZ 180250Z AUTO 25013KT 9999 FEW032/// BKN190/// 06/03 Q1018,EGXZ,2021-01-18T02:50:00Z,54.2,-1.38,6.0,3.0,250,13,,6.21,30.059055,,,TRUE,,,,,,,,FEW,3200,BKN,19000,,,,,VFR,,,,,,,,,,,,METAR,24.0
EGXW 180250Z AUTO 24010KT 9999 SCT050/// 04/02 Q1020,EGXW,2021-01-18T02:50:00Z,53.18,-0.52,4.0,2.0,240,10,,6.21,30.11811,,,TRUE,,,,,,,,SCT,5000,,,,,,,VFR,,,,,,,,,,,,METAR,70.0
EGXV 180250Z AUTO 23012KT 9999 BKN023/// BKN100/// BKN210/// 05/03 Q1018,EGXV,2021-01-18T02:50:00Z,53.87,-0.45,5.0,3.0,230,12,,6.21,30.059055,,,TRUE,,,,,,,,BKN,2300,BKN,10000,BKN,21000,,,MVFR,,,,,,,,,,,,METAR,6.0
EGXU 180250Z AUTO 26010KT 9999 FEW021/// SCT060/// BKN190/// 06/04 Q1018,EGXU,2021-01-18T02:50:00Z,54.05,-1.25,6.0,4.0,260,10,,6.21,30.059055,,,TRUE,,,,,,,,FEW,2100,SCT,6000,BKN,19000,,,VFR,,,,,,,,,,,,METAR,14.0
EGXT 180250Z AUTO 23011KT 9999 NCD 03/02 Q1021,EGXT,2021-01-18T02:50:00Z,52.62,-0.47,3.0,2.0,230,11,,6.21,30.147638,,,TRUE,,,,,,,,CLR,,,,,,,,VFR,,,,,,,,,,,,METAR,74.0
EGXS 180250Z AUTO 21012KT 9999 // BKN120/// SCT220/// 04/02 Q1019,EGXS,2021-01-18T02:50:00Z,53.48,0.15,4.0,2.0,210,12,,6.21,30.088583,,,TRUE,,,,,,,,BKN,12000,SCT,22000,,,,,VFR,,,,,,,,,,,,METAR,6.0
EGXP 180250Z AUTO 24013KT 9999 // FEW028/// 03/02 Q1020,EGXP,2021-01-18T02:50:00Z,53.3,-0.55,3.0,2.0,240,13,,6.21,30.11811,,,TRUE,,,,,,,,FEW,2800,,,,,,,VFR,,,,,,,,,,,,METAR,58.0
EGXE 180250Z AUTO 22005KT 9999 BKN035/// BKN080/// 06/03 Q1018,EGXE,2021-01-18T02:50:00Z,54.28,-1.52,6.0,3.0,220,5,,6.21,30.059055,,,TRUE,,,,,,,,BKN,3500,BKN,8000,,,,,VFR,,,,,,,,,,,,METAR,30.0
EGXC 180250Z 22006KT CAVOK 02/01 Q1021 RMK BLU,EGXC,2021-01-18T02:50:00Z,53.1,-0.17,2.0,1.0,220,6,,6.21,30.147638,,,,,,,,,,,CAVOK,,,,,,,,VFR,,,,,,,,,,,,METAR,9.0
EGWU 180250Z AUTO 25007KT 9999 // SCT007/// 03/03 Q1024,EGWU,2021-01-18T02:50:00Z,51.55,-0.42,3.0,3.0,250,7,,6.21,30.236221,,,TRUE,,,,,,,,SCT,700,,,,,,,VFR,,,,,,,,,,,,METAR,33.0
EGVP 180250Z AUTO 20003KT 9999 NCD 03/02 Q1025,EGVP,2021-01-18T02:50:00Z,51.13,-1.57,3.0,2.0,200,3,,6.21,30.265747,,,TRUE,,,,,,,,CLR,,,,,,,,VFR,,,,,,,,,,,,METAR,80.0
EGVO 180250Z AUTO 23010KT 9999 NCD 03/02 Q1024,EGVO,2021-01-18T02:50:00Z,51.23,-0.95,3.0,2.0,230,10,,6.21,30.236221,,,TRUE,,,,,,,,CLR,,,,,,,,VFR,,,,,,,,,,,,METAR,118.0
EGVN 180250Z 24004KT 9999 BKN006 04/03 Q1024 BECMG FEW006,EGVN,2021-01-18T02:50:00Z,51.77,-1.58,4.0,3.0,240,4,,6.21,30.236221,,,,,,,,,,,BKN,600,,,,,,,IFR,,,,,,,,,,,,METAR,83.0
EGUW 180250Z AUTO 24009KT 9999 OVC140/// 02/01 Q1022,EGUW,2021-01-18T02:50:00Z,52.12,0.97,2.0,1.0,240,9,,6.21,30.177166,,,TRUE,,,,,,,,OVC,14000,,,,,,,VFR,,,,,,,,,,,,METAR,86.0
EGUB 180250Z AUTO 21006KT 9999 // NCD 02/02 Q1024,EGUB,2021-01-18T02:50:00Z,51.62,-1.08,2.0,2.0,210,6,,6.21,30.236221,,,TRUE,,,,,,,,CLR,,,,,,,,VFR,,,,,,,,,,,,METAR,56.0
EGSS 180250Z AUTO 22007KT 8000 NCD M00/M00 Q1023,EGSS,2021-01-18T02:50:00Z,51.88,0.22,0.0,0.0,220,7,,4.97,30.206694,,,TRUE,,,,,,,,CLR,,,,,,,,MVFR,,,,,,,,,,,,METAR,101.0
EGSH 180250Z AUTO 23007KT 190V250 9999 NCD 03/01 Q1022,EGSH,2021-01-18T02:50:00Z,52.68,1.28,3.0,1.0,230,7,,6.21,30.177166,,,TRUE,,,,,,,,CLR,,,,,,,,VFR,,,,,,,,,,,,METAR,21.0
EGQS 180250Z 24010KT 9999 FEW020 BKN035 03/02 Q1009 RMK BLU,EGQS,2021-01-18T02:50:00Z,57.72,-3.32,3.0,2.0,240,10,,6.21,29.793306,,,,,,,,,,,FEW,2000,BKN,3500,,,,,VFR,,,,,,,,,,,,METAR,6.0
EGQM 180250Z AUTO /////KT 9999 BKN027/// SCT130/// 06/03 Q1015,EGQM,2021-01-18T02:50:00Z,55.42,-1.6,6.0,3.0,,,,6.21,29.970472,,,TRUE,,,,,,,,BKN,2700,SCT,13000,,,,,MVFR,,,,,,,,,,,,METAR,24.0
EGQL 180250Z 27014KT 9999 VCSH FEW035 BKN070 06/03 Q1012 RERA BLU,EGQL,2021-01-18T02:50:00Z,56.38,-2.87,6.0,3.0,270,14,,6.21,29.88189,,,,,,,,,,VCSH,FEW,3500,BKN,7000,,,,,VFR,,,,,,,,,,,,METAR,11.0
EGQK 180250Z AUTO 25011KT 9999 FEW050/// BKN090/// 04/02 Q1009,EGQK,2021-01-18T02:50:00Z,57.65,-3.57,4.0,2.0,250,11,,6.21,29.793306,,,TRUE,,,,,,,,FEW,5000,BKN,9000,,,,,VFR,,,,,,,,,,,,METAR,5.0
EGPU 180250Z AUTO 29016KT 9999 FEW032/// 06/02 Q1013 RERA,EGPU,2021-01-18T02:50:00Z,56.5,-6.88,6.0,2.0,290,16,,6.21,29.911417,,,TRUE,,,,,,,,FEW,3200,,,,,,,VFR,,,,,,,,,,,,METAR,12.0
EGPO 180250Z AUTO 27009KT 9999 BKN030/// 03/M00 Q1008,EGPO,2021-01-18T02:50:00Z,58.22,-6.32,3.0,0.0,270,9,,6.21,29.763779,,,TRUE,,,,,,,,BKN,3000,,,,,,,MVFR,,,,,,,,,,,,METAR,10.0
EGPL 180250Z AUTO 29019KT 9999 FEW028/// 06/02 Q1011,EGPL,2021-01-18T02:50:00Z,57.47,-7.37,6.0,2.0,290,19,,6.21,29.852362,,,TRUE,,,,,,,,FEW,2800,,,,,,,VFR,,,,,,,,,,,,METAR,3.0
EGPK 180250Z 25020G30KT 7000 -RA SCT020 BKN024 OVC029 07/05 Q1015,EGPK,2021-01-18T02:50:00Z,55.5,-4.58,7.0,5.0,250,20,30,4.35,29.970472,,,,,,,,,,-RA,SCT,2000,BKN,2400,OVC,2900,,,MVFR,,,,,,,,,,,,METAR,14.0
EGPI 180250Z AUTO 28024G34KT //// RA SCT012/// BKN021/// 07/06 Q1016,EGPI,2021-01-18T02:50:00Z,55.68,-6.25,7.0,6.0,280,24,34,,30.0,,,TRUE,,,,,,,RA,SCT,1200,BKN,2100,,,,,,,,,,,,,,,,,METAR,17.0
EGPH 180250Z 25013KT 9000 -RA BKN014 BKN032 06/05 Q1013,EGPH,2021-01-18T02:50:00Z,55.95,-3.35,6.0,5.0,250,13,,5.59,29.911417,,,,,,,,,,-RA,BKN,1400,BKN,3200,,,,,MVFR,,,,,,,,,,,,METAR,29.0
EGPF 180250Z AUTO 25018KT 9999 -RA SCT018/// BKN024/// BKN030/// //////CB 06/04 Q1014,EGPF,2021-01-18T02:50:00Z,55.87,-4.42,6.0,4.0,250,18,,6.21,29.940945,,,TRUE,,,,,,,-RA,SCT,1800,BKN,2400,BKN,3000,,,MVFR,,,,,,,,,,,,METAR,8.0
EGPE 180250Z AUTO 22007KT 9999 BKN029/// 03/01 Q1010,EGPE,2021-01-18T02:50:00Z,57.53,-4.05,3.0,1.0,220,7,,6.21,29.822834,,,TRUE,,,,,,,,BKN,2900,,,,,,,MVFR,,,,,,,,,,,,METAR,7.0
EGPD 180250Z AUTO 27009KT 9999 NCD 04/00 Q1010,EGPD,2021-01-18T02:50:00Z,57.2,-2.22,4.0,0.0,270,9,,6.21,29.822834,,,TRUE,,,,,,,,CLR,,,,,,,,VFR,,,,,,,,,,,,METAR,65.0
EGPC 180250Z AUTO 26013KT 9999 NCD 02/M00 Q1006,EGPC,2021-01-18T02:50:00Z,58.45,-3.08,2.0,0.0,260,13,,6.21,29.704725,,,TRUE,,,,,,,,CLR,,,,,,,,VFR,,,,,,,,,,,,METAR,38.0
EGPB 180250Z AUTO 28016KT 9999 BKN024/// 06/02 Q1002,EGPB,2021-01-18T02:50:00Z,59.87,-1.3,6.0,2.0,280,16,,6.21,29.586615,,,TRUE,,,,,,,,BKN,2400,,,,,,,MVFR,,,,,,,,,,,,METAR,2.0
EGPA 180250Z AUTO 27020G30KT 9999 FEW016/// SCT031/// BKN040/// 04/00 Q1005,EGPA,2021-01-18T02:50:00Z,58.95,-2.9,4.0,0.0,270,20,30,6.21,29.675198,,,TRUE,,,,,,,,FEW,1600,SCT,3100,BKN,4000,,,VFR,,,,,,,,,,,,METAR,15.0
EGOV 180250Z AUTO 25015KT 9999 BKN032/// 07/04 Q1022,EGOV,2021-01-18T02:50:00Z,53.25,-4.53,7.0,4.0,250,15,,6.21,30.177166,,,TRUE,,,,,,,,BKN,3200,,,,,,,VFR,,,,,,,,,,,,METAR,11.0
EGOS 180250Z AUTO 25008KT 9999 SCT100/// 03/02 Q1022,EGOS,2021-01-18T02:50:00Z,52.8,-2.67,3.0,2.0,250,8,,6.21,30.177166,,,TRUE,,,,,,,,SCT,10000,,,,,,,VFR,,,,,,,,,,,,METAR,76.0
EGOM 180250Z AUTO 25023G33KT 9999 BKN005/// SCT025/// 04/03 Q1015,EGOM,2021-01-18T02:50:00Z,55.05,-2.55,4.0,3.0,250,23,33,6.21,29.970472,,,TRUE,,,,,,,,BKN,500,SCT,2500,,,,,IFR,,,,,,,,,,,,METAR,286.0
EGNX 180250Z 23014KT CAVOK 04/02 Q1021,EGNX,2021-01-18T02:50:00Z,52.82,-1.32,4.0,2.0,230,14,,6.21,30.147638,,,,,,,,,,,CAVOK,,,,,,,,VFR,,,,,,,,,,,,METAR,91.0
EGNT 180250Z AUTO 25016KT 9999 OVC018/// 06/03 Q1015,EGNT,2021-01-18T02:50:00Z,55.03,-1.7,6.0,3.0,250,16,,6.21,29.970472,,,TRUE,,,,,,,,OVC,1800,,,,,,,MVFR,,,,,,,,,,,,METAR,77.0
EGNS 180250Z 25015KT 9999 FEW013 BKN036 06/04 Q1019,EGNS,2021-01-18T02:50:00Z,54.08,-4.63,6.0,4.0,250,15,,6.21,30.088583,,,,,,,,,,,FEW,1300,BKN,3600,,,,,VFR,,,,,,,,,,,,METAR,18.0
EGNJ 180250Z AUTO 22014KT 9999 SCT022/// 05/03 Q1020,EGNJ,2021-01-18T02:50:00Z,53.57,-0.35,5.0,3.0,220,14,,6.21,30.11811,,,TRUE,,,,,,,,SCT,2200,,,,,,,VFR,,,,,,,,,,,,METAR,23.0
EGMD 180250Z AUTO 25008KT 9999 NCD 03/02 Q1026,EGMD,2021-01-18T02:50:00Z,50.95,0.93,3.0,2.0,250,8,,6.21,30.295275,,,TRUE,,,,,,,,CLR,,,,,,,,VFR,,,,,,,,,,,,METAR,4.0
EGMC 180250Z 26007KT CAVOK 02/01 Q1024,EGMC,2021-01-18T02:50:00Z,51.57,0.7,2.0,1.0,260,7,,6.21,30.236221,,,,,,,,,,,CAVOK,,,,,,,,VFR,,,,,,,,,,,,METAR,15.0
EGLL 180250Z AUTO 23006KT 9999 NCD 03/02 Q1025 NOSIG,EGLL,2021-01-18T02:50:00Z,51.48,-0.45,3.0,2.0,230,6,,6.21,30.265747,,,TRUE,,,TRUE,,,,,CLR,,,,,,,,VFR,,,,,,,,,,,,METAR,26.0
EGLF 180250Z AUTO 24003KT 9999 NCD 02/01 Q1025,EGLF,2021-01-18T02:50:00Z,51.28,-0.77,2.0,1.0,240,3,,6.21,30.265747,,,TRUE,,,,,,,,CLR,,,,,,,,VFR,,,,,,,,,,,,METAR,65.0
EGLC 180250Z AUTO 24009KT 9999 NCD 04/02 Q1025,EGLC,2021-01-18T02:50:00Z,51.5,0.05,4.0,2.0,240,9,,6.21,30.265747,,,TRUE,,,,,,,,CLR,,,,,,,,VFR,,,,,,,,,,,,METAR,10.0
EGKK 180250Z 22006KT CAVOK 02/02 Q1025,EGKK,2021-01-18T02:50:00Z,51.13,-0.18,2.0,2.0,220,6,,6.21,30.265747,,,,,,,,,,,CAVOK,,,,,,,,VFR,,,,,,,,,,,,METAR,58.0
EGJJ 180250Z AUTO 24010KT 9999 FEW026/// 07/05 Q1027,EGJJ,2021-01-18T02:50:00Z,49.22,-2.2,7.0,5.0,240,10,,6.21,30.324802,,,TRUE,,,,,,,,FEW,2600,,,,,,,VFR,,,,,,,,,,,,METAR,84.0
EGJB 180250Z 26006KT 9999 FEW025 06/03 Q1027,EGJB,2021-01-18T02:50:00Z,49.42,-2.6,6.0,3.0,260,6,,6.21,30.324802,,,,,,,,,,,FEW,2500,,,,,,,VFR,,,,,,,,,,,,METAR,102.0
EGHQ 180250Z AUTO 22005KT 200V280 9999 BKN044/// 05/04 Q1026,EGHQ,2021-01-18T02:50:00Z,50.43,-5.0,5.0,4.0,220,5,,6.21,30.295275,,,TRUE,,,,,,,,BKN,4400,,,,,,,VFR,,,,,,,,,,,,METAR,101.0
EGGW 180250Z AUTO 22006KT 9999 NCD 01/01 Q1023,EGGW,2021-01-18T02:50:00Z,51.87,-0.37,1.0,1.0,220,6,,6.21,30.206694,,,TRUE,,,,,,,,CLR,,,,,,,,VFR,,,,,,,,,,,,METAR,159.0
EGGP 180250Z AUTO 24004KT 9999 FEW030/// SCT035/// BKN045/// 04/02 Q1021,EGGP,2021-01-18T02:50:00Z,53.33,-2.85,4.0,2.0,240,4,,6.21,30.147638,,,TRUE,,,,,,,,FEW,3000,SCT,3500,BKN,4500,,,VFR,,,,,,,,,,,,METAR,23.0
EGGD 180250Z AUTO 24009KT 9999 SCT016 04/03 Q1024,EGGD,2021-01-18T02:50:00Z,51.37,-2.72,4.0,3.0,240,9,,6.21,30.236221,,,TRUE,,,,,,,,SCT,1600,,,,,,,VFR,,,,,,,,,,,,METAR,182.0
EGFF 180250Z AUTO 26009KT 9999 SCT011 SCT015 BKN020 06/05 Q1024,EGFF,2021-01-18T02:50:00Z,51.38,-3.35,6.0,5.0,260,9,,6.21,30.236221,,,TRUE,,,,,,,,SCT,1100,SCT,1500,BKN,2000,,,MVFR,,,,,,,,,,,,METAR,65.0
EGDY 180250Z AUTO 26004KT 9999 NCD 02/01 Q1025,EGDY,2021-01-18T02:50:00Z,51.0,-2.63,2.0,1.0,260,4,,6.21,30.265747,,,TRUE,,,,,,,,CLR,,,,,,,,VFR,,,,,,,,,,,,METAR,21.0
EGDR 180250Z AUTO 26007KT 9999 // SCT030/// BKN047/// 07/04 Q1026,EGDR,2021-01-18T02:50:00Z,50.08,-5.25,7.0,4.0,260,7,,6.21,30.295275,,,TRUE,,,,,,,,SCT,3000,BKN,4700,,,,,VFR,,,,,,,,,,,,METAR,74.0
EGDM 180250Z AUTO 24009KT 9999 NCD 03/02 Q1025,EGDM,2021-01-18T02:50:00Z,51.17,-1.75,3.0,2.0,240,9,,6.21,30.265747,,,TRUE,,,,,,,,CLR,,,,,,,,VFR,,,,,,,,,,,,METAR,122.0
EGCN 180250Z 21006KT 9999 FEW021 SCT027 03/02 Q1021,EGCN,2021-01-18T02:50:00Z,53.48,-1.0,3.0,2.0,210,6,,6.21,30.147638,,,,,,,,,,,FEW,2100,SCT,2700,,,,,VFR,,,,,,,,,,,,METAR,9.0
EGCK 180250Z AUTO 25016KT 9999 OVC041/// 07/04 Q1022,EGCK,2021-01-18T02:50:00Z,53.1,-4.33,7.0,4.0,250,16,,6.21,30.177166,,,TRUE,,,,,,,,OVC,4100,,,,,,,VFR,,,,,,,,,,,,METAR,6.0
EGCC 180250Z AUTO 17004KT 9999 FEW040/// //////TCU 02/02 Q1021 NOSIG,EGCC,2021-01-18T02:50:00Z,53.35,-2.27,2.0,2.0,170,4,,6.21,30.147638,,,TRUE,,,TRUE,,,,,FEW,4000,,,,,,,VFR,,,,,,,,,,,,METAR,78.0
EGBB 180250Z 17004KT 9999 SCT031 02/01 Q1023,EGBB,2021-01-18T02:50:00Z,52.47,-1.75,2.0,1.0,170,4,,6.21,30.206694,,,,,,,,,,,SCT,3100,,,,,,,VFR,,,,,,,,,,,,METAR,91.0
EGAC 180250Z AUTO 18011KT 9999 BKN011/// OVC015/// 05/03 Q1019,EGAC,2021-01-18T02:50:00Z,54.62,-5.87,5.0,3.0,180,11,,6.21,30.088583,,,TRUE,,,,,,,,BKN,1100,OVC,1500,,,,,MVFR,,,,,,,,,,,,METAR,2.0
EGAA 180250Z 22011KT 9999 FEW014 SCT043 04/03 Q1019,EGAA,2021-01-18T02:50:00Z,54.65,-6.22,4.0,3.0,220,11,,6.21,30.088583,,,,,,,,,,,FEW,1400,SCT,4300,,,,,VFR,,,,,,,,,,,,METAR,65.0
EETU 180250Z AUTO 23005KT 9999 FEW005/// OVC018/// M07/M09 Q1017,EETU,2021-01-18T02:50:00Z,58.32,26.68,-7.0,-9.0,230,5,,6.21,30.029528,,,TRUE,,,,,,,,FEW,500,OVC,1800,,,,,MVFR,,,,,,,,,,,,METAR,67.0
EEKE 180250Z AUTO 21003KT 9999NDV FEW010 M02/M02 Q1016,EEKE,2021-01-18T02:50:00Z,58.23,22.52,-2.0,-2.0,210,3,,,30.0,,,TRUE,,,,,,,,FEW,1000,,,,,,,,,,,,,,,,,,,METAR,4.0
EDXW 180250Z AUTO 23005KT 6000 // FEW035/// BKN043/// 02/01 Q1016,EDXW,2021-01-18T02:50:00Z,54.92,8.33,2.0,1.0,230,5,,3.73,30.0,,,TRUE,,,,,,,,FEW,3500,BKN,4300,,,,,MVFR,,,,,,,,,,,,METAR,8.0
EDVE 180250Z AUTO 25005KT 2400 // OVC002/// 00/M01 Q1019,EDVE,2021-01-18T02:50:00Z,52.32,10.55,0.0,-1.0,250,5,,1.49,30.088583,,,TRUE,,,,,,,,OVC,200,,,,,,,LIFR,,,,,,,,,,,,METAR,83.0
EDTY 180250Z AUTO 26009KT 9999 // OVC006/// 01/00 Q1023,EDTY,2021-01-18T02:50:00Z,49.12,9.78,1.0,0.0,260,9,,6.21,30.206694,,,TRUE,,,,,,,,OVC,600,,,,,,,IFR,,,,,,,,,,,,METAR,398.0
EDSB 180250Z AUTO 18010KT 9999 BKN015/// OVC020/// 02/00 Q1026,EDSB,2021-01-18T02:50:00Z,48.78,8.08,2.0,0.0,180,10,,6.21,30.295275,,,TRUE,,,,,,,,BKN,1500,OVC,2000,,,,,MVFR,,,,,,,,,,,,METAR,122.0
EDNY 180250Z AUTO VRB01KT 9999 // OVC012/// 01/M00 Q1025,EDNY,2021-01-18T02:50:00Z,47.67,9.52,1.0,0.0,0,1,,6.21,30.265747,,,TRUE,,,,,,,,OVC,1200,,,,,,,MVFR,,,,,,,,,,,,METAR,411.0
EDMO 180250Z AUTO 25011KT 9999 // BKN010/// OVC036/// 00/M01 Q1022,EDMO,2021-01-18T02:50:00Z,48.07,11.27,0.0,-1.0,250,11,,6.21,30.177166,,,TRUE,,,,,,,,BKN,1000,OVC,3600,,,,,MVFR,,,,,,,,,,,,METAR,587.0
EDMA 180250Z AUTO 25009KT 9999 // OVC013/// 01/M01 Q1022,EDMA,2021-01-18T02:50:00Z,48.42,10.92,1.0,-1.0,250,9,,6.21,30.177166,,,TRUE,,,,,,,,OVC,1300,,,,,,,MVFR,,,,,,,,,,,,SPECI,462.0
EDLW 180250Z AUTO 24006KT 7000 // OVC007/// 04/03 Q1021,EDLW,2021-01-18T02:50:00Z,51.52,7.62,4.0,3.0,240,6,,4.35,30.147638,,,TRUE,,,,,,,,OVC,700,,,,,,,IFR,,,,,,,,,,,,METAR,122.0
EDLN 180250Z AUTO 25004KT 220V280 9999 // FEW020/// OVC039/// 04/03 Q1023,EDLN,2021-01-18T02:50:00Z,51.23,6.5,4.0,3.0,250,4,,6.21,30.206694,,,TRUE,,,,,,,,FEW,2000,OVC,3900,,,,,VFR,,,,,,,,,,,,METAR,38.0
EDJA 180250Z AUTO 24012KT 9999 // BKN024/// OVC027/// M00/M01 Q1023,EDJA,2021-01-18T02:50:00Z,47.98,10.23,0.0,-1.0,240,12,,6.21,30.206694,,,TRUE,,,,,,,,BKN,2400,OVC,2700,,,,,MVFR,,,,,,,,,,,,SPECI,625.0
EDHK 180250Z AUTO 19006KT 6000 // OVC007/// M01/M02 Q1018,EDHK,2021-01-18T02:50:00Z,54.38,10.15,-1.0,-2.0,190,6,,3.73,30.059055,,,TRUE,,,,,,,,OVC,700,,,,,,,IFR,,,,,,,,,,,,METAR,24.0
EDFH 180250Z 28009KT 9999 FEW007 SCT018 00/M00 Q1022,EDFH,2021-01-18T02:50:00Z,49.95,7.27,0.0,0.0,280,9,,6.21,30.177166,,,,,,,,,,,FEW,700,SCT,1800,,,,,VFR,,,,,,,,,,,,METAR,494.0
EDAC 180250Z AUTO 20006KT 3100 // OVC014/// M02/M03 Q1019,EDAC,2021-01-18T02:50:00Z,50.98,12.5,-2.0,-3.0,200,6,,1.93,30.088583,,,TRUE,,,,,,,,OVC,1400,,,,,,,IFR,,,,,,,,,,,,METAR,193.0
EBOS 180250Z 21007KT 9999 FEW015 SCT045 02/01 Q1025 NOSIG,EBOS,2021-01-18T02:50:00Z,51.2,2.87,2.0,1.0,210,7,,6.21,30.265747,,,,,,TRUE,,,,,FEW,1500,SCT,4500,,,,,VFR,,,,,,,,,,,,METAR,5.0
EBLG 180250Z 23007KT 9999 BKN036 03/02 Q1024 NOSIG,EBLG,2021-01-18T02:50:00Z,50.63,5.45,3.0,2.0,230,7,,6.21,30.236221,,,,,,TRUE,,,,,BKN,3600,,,,,,,VFR,,,,,,,,,,,,METAR,187.0
EBCI 180250Z 24008KT 8000 SCT013 BKN030 02/01 Q1025 NOSIG,EBCI,2021-01-18T02:50:00Z,50.47,4.45,2.0,1.0,240,8,,4.97,30.265747,,,,,,TRUE,,,,,SCT,1300,BKN,3000,,,,,MVFR,,,,,,,,,,,,METAR,176.0
EBBR 180250Z 24009KT 9999 FEW017 SCT035 04/02 Q1024 NOSIG,EBBR,2021-01-18T02:50:00Z,50.9,4.52,4.0,2.0,240,9,,6.21,30.236221,,,,,,TRUE,,,,,FEW,1700,SCT,3500,,,,,VFR,,,,,,,,,,,,METAR,49.0
EBAW 180250Z AUTO 23007KT 9999 // FEW037/// 04/02 Q1024,EBAW,2021-01-18T02:50:00Z,51.2,4.47,4.0,2.0,230,7,,6.21,30.236221,,,TRUE,,,,,,,,FEW,3700,,,,,,,VFR,,,,,,,,,,,,METAR,7.0
BGSF 180250Z AUTO 06007KT 9999NDV NCD M14/M18 Q1020,BGSF,2021-01-18T02:50:00Z,67.0,-50.72,-14.0,-18.0,60,7,,,30.11811,,,TRUE,,,,,,,,CLR,,,,,,,,,,,,,,,,,,,,METAR,75.0
BGKK 180250Z AUTO 22003KT 9999NDV BKN021/// M06/M11 Q1015,BGKK,2021-01-18T02:50:00Z,65.57,-37.13,-6.0,-11.0,220,3,,,29.970472,,,TRUE,,,,,,,,BKN,2100,,,,,,,,,,,,,,,,,,,METAR,37.0
BGJN 180250Z AUTO 13011KT 9999NDV FEW050/// BKN085/// M07/M11 Q1020,BGJN,2021-01-18T02:50:00Z,69.25,-51.07,-7.0,-11.0,130,11,,,30.11811,,,TRUE,,,,,,,,FEW,5000,BKN,8500,,,,,,,,,,,,,,,,,METAR,22.0
BGGH 180250Z AUTO 10006KT 080V140 9999NDV BKN031/// M04/M07 Q1018,BGGH,2021-01-18T02:50:00Z,64.2,-51.68,-4.0,-7.0,100,6,,,30.059055,,,TRUE,,,,,,,,BKN,3100,,,,,,,,,,,,,,,,,,,METAR,76.0
BGBW 180250Z AUTO 27003KT 9999NDV BKN160/// M05/M12 Q1019,BGBW,2021-01-18T02:50:00Z,61.17,-45.42,-5.0,-12.0,270,3,,,30.088583,,,TRUE,,,,,,,,BKN,16000,,,,,,,,,,,,,,,,,,,METAR,49.0
RJOF 180249Z 20006KT 170V230 9999 -SHRA FEW010 BKN035 05/M01 Q1020 RMK 1CU010 7CU035 A3014,RJOF,2021-01-18T02:49:00Z,34.03,131.55,5.0,-1.0,200,6,,6.21,30.11811,,,,,,,,,,-SHRA,FEW,1000,BKN,3500,,,,,VFR,,,,,,,,,,,,METAR,2.0
PAKU 180249Z 08015KT 7SM R06/P6000FT BKN013 M20/M24 A2988,PAKU,2021-01-18T02:49:00Z,70.32,-149.6,-20.0,-24.0,80,15,,7.0,29.878937,,,,,,,,,,,BKN,1300,,,,,,,MVFR,,,,,,,,,,,,METAR,23.0
MMTG 180249Z 33013KT 7SM BKN080 22/17 A3002 RMK SLP139 52032 964 8/070,MMTG,2021-01-18T02:49:00Z,16.57,-93.03,22.0,17.0,330,13,,7.0,30.02067,1013.9,,,,,,,,,,BKN,8000,,,,,,,VFR,3.2,,,,,,,,,,,METAR,463.0
KMWN 180249Z 29063G67KT 1/16SM -SHSN FZFG BLSN VV001 M13/M13 RMK VRY LGT ICG,KMWN,2021-01-18T02:49:00Z,44.27,-71.3,-13.0,-13.0,290,63,67,0.06,,,,,,,,,,,-SHSN FZFG BLSN,OVX,0,,,,,,,LIFR,,,,,,,,,,,100,METAR,1911.0
KBAK 180249Z 27006KT 8SM -SN BKN016 BKN021 OVC032 M01/M03 A2982 RMK LAST,KBAK,2021-01-18T02:49:00Z,39.27,-85.9,-1.0,-3.0,270,6,,8.0,29.819881,,,,,,,,,,-SN,BKN,1600,BKN,2100,OVC,3200,,,MVFR,,,,,,,,,,,,SPECI,199.0
MMPR 180248Z 16003KT 15SM SKC 20/18 A2992 RMK SLP130 52026 956,MMPR,2021-01-18T02:48:00Z,20.67,-105.25,20.0,18.0,160,3,,15.0,29.920275,1013.0,,,,,,,,,,SKC,,,,,,,,VFR,2.6,,,,,,,,,,,SPECI,6.0
MMCL 180248Z 00000KT 10SM SKC 18/12 A2990 RMK SLP126 52039 957 HZY,MMCL,2021-01-18T02:48:00Z,24.77,-107.47,18.0,12.0,0,0,,10.0,29.899607,1012.6,,,,,,,,,,SKC,,,,,,,,VFR,3.9,,,,,,,,,,,METAR,35.0
KSQL 180248Z 00000KT 10SM SKC 14/10 A3001,KSQL,2021-01-18T02:48:00Z,37.52,-122.25,14.0,10.0,0,0,,10.0,30.008858,,,,,,,,,,,SKC,,,,,,,,VFR,,,,,,,,,,,,METAR,1.0
KJDN 180248Z AUTO 30016G24KT 02/M01 A2982 RMK AO1 SLP130 60002 T00221006 51016,KJDN,2021-01-18T02:48:00Z,47.33,-106.95,2.2,-0.6,300,16,24,,29.819881,1013.0,,TRUE,TRUE,,,,,,,,,,,,,,,,1.6,,,,,,,,,,,SPECI,802.0
KASG 180248Z 26006KT 10SM CLR 04/M05 A2999,KASG,2021-01-18T02:48:00Z,36.17,-94.12,4.0,-5.0,260,6,,10.0,29.991142,,,,,,,,,,,CLR,,,,,,,,VFR,,,,,,,,,,,,METAR,410.0
PALP 180247Z 06016KT 7SM OVC008 M20/M23 A2989 RMK LAST,PALP,2021-01-18T02:47:00Z,70.33,-150.93,-20.0,-23.0,60,16,,7.0,29.890747,,,,,,,,,,,OVC,800,,,,,,,IFR,,,,,,,,,,,,SPECI,4.0
MMVR 180247Z 00000KT 6SM BKN040 OVC070 20/18 A3008 RMK SLP174 52018 962 8/67/ -DZE20,MMVR,2021-01-18T02:47:00Z,19.15,-96.18,20.0,18.0,0,0,,6.0,30.079725,1017.4,,,,,,,,,,BKN,4000,OVC,7000,,,,,VFR,1.8,,,,,,,,,,,METAR,26.0
MMTC 180247Z 00000KT 10SM SKC 15/M08 A3012 RMK SLP170 50007 940,MMTC,2021-01-18T02:47:00Z,25.57,-103.4,15.0,-8.0,0,0,,10.0,30.121063,1017.0,,,,,,,,,,SKC,,,,,,,,VFR,0.7,,,,,,,,,,,SPECI,1128.0
KSUN 180247Z 31006KT 10SM SKC M04/M05 A3014,KSUN,2021-01-18T02:47:00Z,43.5,-114.28,-4.0,-5.0,310,6,,10.0,30.138779,,,,,,,,,,,SKC,,,,,,,,VFR,,,,,,,,,,,,METAR,1619.0
KRHV 180247Z 00000KT 10SM SKC 17/05 A3001,KRHV,2021-01-18T02:47:00Z,37.33,-121.82,17.0,5.0,0,0,,10.0,30.008858,,,,,,,,,,,SKC,,,,,,,,VFR,,,,,,,,,,,,METAR,37.0
KPOC 180247Z 00000KT 10SM CLR 18/M01 A2996,KPOC,2021-01-18T02:47:00Z,34.1,-117.77,18.0,-1.0,0,0,,10.0,29.958662,,,,,,,,,,,CLR,,,,,,,,VFR,,,,,,,,,,,,METAR,304.0
KOUN 180247Z 00000KT 10SM CLR 03/M07 A3002,KOUN,2021-01-18T02:47:00Z,35.25,-97.47,3.0,-7.0,0,0,,10.0,30.02067,,,,,,,,,,,CLR,,,,,,,,VFR,,,,,,,,,,,,METAR,359.0
KCWA 180247Z 33005KT 10SM OVC019 M04/M06 A2973,KCWA,2021-01-18T02:47:00Z,44.78,-89.67,-4.0,-6.0,330,5,,10.0,29.731298,,,,,,,,,,,OVC,1900,,,,,,,MVFR,,,,,,,,,,,,METAR,387.0
KCHD 180247Z 00000KT 10SM CLR 15/M07 A2995,KCHD,2021-01-18T02:47:00Z,33.27,-111.82,15.0,-7.0,0,0,,10.0,29.949802,,,,,,,,,,,CLR,,,,,,,,VFR,,,,,,,,,,,,METAR,378.0
KBJC 180247Z 30026G39KT 10SM SCT080 BKN120 09/M06 A2979,KBJC,2021-01-18T02:47:00Z,39.9,-105.1,9.0,-6.0,300,26,39,10.0,29.790354,,,,,,,,,,,SCT,8000,BKN,12000,,,,,VFR,,,,,,,,,,,,METAR,1694.0
KAEG 180247Z 22003KT 10SM CLR 02/M18 A3009,KAEG,2021-01-18T02:47:00Z,35.13,-106.8,2.0,-18.0,220,3,,10.0,30.088583,,,,,,,,,,,CLR,,,,,,,,VFR,,,,,,,,,,,,METAR,1771.0
MMSP 180246Z 27004KT 8SM SKC 13/M02 A3020 RMK SLP160 52006 904,MMSP,2021-01-18T02:46:00Z,22.25,-100.93,13.0,-2.0,270,4,,8.0,30.200787,1016.0,,,,,,,,,,SKC,,,,,,,,VFR,0.6,,,,,,,,,,,SPECI,1841.0
MMSL 180246Z 33005KT 7SM SKC 19/15 A2996,MMSL,2021-01-18T02:46:00Z,22.95,-109.93,19.0,15.0,330,5,,7.0,29.958662,,,,,,,,,,,SKC,,,,,,,,VFR,,,,,,,,,,,,METAR,205.0
MMLO 180246Z 04004KT 8SM SKC 13/M05 A3023 RMK SLP154 52010 904,MMLO,2021-01-18T02:46:00Z,21.0,-101.47,13.0,-5.0,40,4,,8.0,30.230314,1015.4,,,,,,,,,,SKC,,,,,,,,VFR,1.0,,,,,,,,,,,METAR,1805.0
PFWS 180245Z AUTO 20011KT 1 1/4SM -SN BR SCT008 OVC011 00/00 A2948 RMK AO2 RAE10SNB10 P0002 FZRANO,PFWS,2021-01-18T02:45:00Z,58.7,-157.0,0.0,0.0,200,11,,1.25,29.480314,,,TRUE,TRUE,,,,TRUE,,-SN BR,SCT,800,OVC,1100,,,,,IFR,,,,,,0.02,,,,,,SPECI,40.0
MMUN 180245Z 00000KT 6SM -RA BKN015 OVC080 18/17 A3010 RMK SLP195 52011 910 60005 8/77/,MMUN,2021-01-18T02:45:00Z,21.03,-86.85,18.0,17.0,0,0,,6.0,30.100393,1019.5,,,,,,,,,-RA,BKN,1500,OVC,8000,,,,,MVFR,1.1,,,,,,0.05,,,,,METAR,13.0
MMLP 180245Z 00000KT 10SM SKC 19/M01 A2996,MMLP,2021-01-18T02:45:00Z,24.07,-110.37,19.0,-1.0,0,0,,10.0,29.958662,,,,,,,,,,,SKC,,,,,,,,VFR,,,,,,,,,,,,METAR,16.0
MMCS 180245Z 24006KT 10SM SKC 11/M13 A3008 RMK SLP165 57001 955,MMCS,2021-01-18T02:45:00Z,31.63,-106.42,11.0,-13.0,240,6,,10.0,30.079725,1016.5,,,,,,,,,,SKC,,,,,,,,VFR,-0.1,,,,,,,,,,,METAR,1194.0
MMAA 180245Z 26004KT 7SM FEW015TCU SCT100 SCT300 26/22 A2988 RMK SLP113 52026 902 8/231 HZY,MMAA,2021-01-18T02:45:00Z,16.75,-99.75,26.0,22.0,260,4,,7.0,29.878937,1011.3,,,,,,,,,,FEW,1500,SCT,10000,SCT,30000,,,VFR,2.6,,,,,,,,,,,METAR,5.0
LIRP 180245Z 12004KT CAVOK 01/00 Q1021 NOSIG,LIRP,2021-01-18T02:45:00Z,43.68,10.38,1.0,0.0,120,4,,6.21,30.147638,,,,,,TRUE,,,,,CAVOK,,,,,,,,VFR,,,,,,,,,,,,METAR,1.0
LHSM 180245Z AUTO 27002KT 7000 OVC038 M04/M06 Q1023,LHSM,2021-01-18T02:45:00Z,46.68,17.17,-4.0,-6.0,270,2,,4.35,30.206694,,,TRUE,,,,,,,,OVC,3800,,,,,,,MVFR,,,,,,,,,,,,METAR,119.0
LHPR 180245Z AUTO 22003KT CAVOK M10/M12 Q1022 NOSIG,LHPR,2021-01-18T02:45:00Z,47.63,17.82,-10.0,-12.0,220,3,,6.21,30.177166,,,TRUE,,,TRUE,,,,,CAVOK,,,,,,,,VFR,,,,,,,,,,,,METAR,127.0
LHPA 180245Z 10006KT 8000 BKN037 M11/M12 Q1022 NOSIG RMK BLU,LHPA,2021-01-18T02:45:00Z,47.35,17.5,-11.0,-12.0,100,6,,4.97,30.177166,,,,,,TRUE,,,,,BKN,3700,,,,,,,MVFR,,,,,,,,,,,,METAR,143.0
KVCV 180245Z 00000KT 10SM SKC A3006,KVCV,2021-01-18T02:45:00Z,34.58,-117.38,,,0,0,,10.0,30.059055,,,,,,,,,,,SKC,,,,,,,,VFR,,,,,,,,,,,,METAR,871.0
KSWF 180245Z 25008G14KT 10SM OVC060 04/M02 A2966,KSWF,2021-01-18T02:45:00Z,41.5,-74.08,4.0,-2.0,250,8,14,10.0,29.660433,,,,,,,,,,,OVC,6000,,,,,,,VFR,,,,,,,,,,,,METAR,139.0
KRYN 180245Z 20007KT 10SM CLR 14/M15 A3001,KRYN,2021-01-18T02:45:00Z,32.15,-111.17,14.0,-15.0,200,7,,10.0,30.008858,,,,,,,,,,,CLR,,,,,,,,VFR,,,,,,,,,,,,METAR,731.0
KMHR 180245Z 00000KT 10SM SKC 12/09 A3000,KMHR,2021-01-18T02:45:00Z,38.55,-121.28,12.0,9.0,0,0,,10.0,30.0,,,,,,,,,,,SKC,,,,,,,,VFR,,,,,,,,,,,,METAR,30.0
KMER 180245Z 00000KT 3SM HZ CLR 11/11 A3002,KMER,2021-01-18T02:45:00Z,37.38,-120.57,11.0,11.0,0,0,,3.0,30.02067,,,,,,,,,,HZ,CLR,,,,,,,,MVFR,,,,,,,,,,,,METAR,58.0
KJVL 180245Z 27004KT 7SM -SN SCT023 OVC035 M02/M02 A2976 RMK LAST,KJVL,2021-01-18T02:45:00Z,42.62,-89.05,-2.0,-2.0,270,4,,7.0,29.760826,,,,,,,,,,-SN,SCT,2300,OVC,3500,,,,,VFR,,,,,,,,,,,,SPECI,244.0
KGYY 180245Z 25005KT 5SM -SN OVC048 M01/M02 A2976,KGYY,2021-01-18T02:45:00Z,41.62,-87.42,-1.0,-2.0,250,5,,5.0,29.760826,,,,,,,,,,-SN,OVC,4800,,,,,,,MVFR,,,,,,,,,,,,METAR,179.0
KGAG 180245Z 23003KT 10SM CLR 00/M08 A2998,KGAG,2021-01-18T02:45:00Z,36.3,-99.77,0.0,-8.0,230,3,,10.0,29.97933,,,,,,,,,,,CLR,,,,,,,,VFR,,,,,,,,,,,,METAR,670.0
KFMH 180245Z 25017G26KT 10SM BKN048 05/M03 A2963,KFMH,2021-01-18T02:45:00Z,41.65,-70.52,5.0,-3.0,250,17,26,10.0,29.630905,,,,,,,,,,,BKN,4800,,,,,,,VFR,,,,,,,,,,,,METAR,35.0
KEMT 180245Z 19004KT 10SM CLR 22/M01 A2992,KEMT,2021-01-18T02:45:00Z,34.08,-118.03,22.0,-1.0,190,4,,10.0,29.920275,,,,,,,,,,,CLR,,,,,,,,VFR,,,,,,,,,,,,METAR,84.0
KCGF 180245Z 25009KT 2 1/2SM -SN OVC007 00/M01 A2968,KCGF,2021-01-18T02:45:00Z,41.57,-81.47,0.0,-1.0,250,9,,2.5,29.681103,,,,,,,,,,-SN,OVC,700,,,,,,,IFR,,,,,,,,,,,,METAR,265.0
KATW 180245Z 31008KT 10SM OVC033 M03/M09 A2972,KATW,2021-01-18T02:45:00Z,44.27,-88.52,-3.0,-9.0,310,8,,10.0,29.719488,,,,,,,,,,,OVC,3300,,,,,,,VFR,,,,,,,,,,,,METAR,266.0
MMTM 180244Z 07003KT 7SM OVC004 19/19 A3008 RMK 8/5// RWY WET//,MMTM,2021-01-18T02:44:00Z,22.28,-97.87,19.0,19.0,70,3,,7.0,30.079725,,,,,,,,,,,OVC,400,,,,,,,LIFR,,,,,,,,,,,,METAR,21.0
MMPS 180243Z 00000KT 8SM FEW020 SCT070 25/22 A2993 RMK 8/130,MMPS,2021-01-18T02:43:00Z,15.87,-97.08,25.0,22.0,0,0,,8.0,29.929134,,,,,,,,,,,FEW,2000,SCT,7000,,,,,VFR,,,,,,,,,,,,METAR,65.0
RJCT 180242Z 18003KT 7000 FEW005 SCT200 M10/M13 Q1013 RMK 1ST005 3CI200 A2992,RJCT,2021-01-18T02:42:00Z,42.88,143.17,-10.0,-13.0,180,3,,4.35,29.911417,,,,,,,,,,,FEW,500,SCT,20000,,,,,MVFR,,,,,,,,,,,,METAR,84.0
MMVA 180242Z 06007KT 6SM BKN060 22/19 A3006 RMK SLP193 52027 961 8/030,MMVA,2021-01-18T02:42:00Z,18.0,-92.82,22.0,19.0,60,7,,6.0,30.059055,1019.3,,,,,,,,,,BKN,6000,,,,,,,VFR,2.7,,,,,,,,,,,METAR,13.0
MMMZ 180242Z 00000KT 10SM SKC 17/09 A2990 RMK SLP125 52010 955,MMMZ,2021-01-18T02:42:00Z,23.17,-106.27,17.0,9.0,0,0,,10.0,29.899607,1012.5,,,,,,,,,,SKC,,,,,,,,VFR,1.0,,,,,,,,,,,METAR,7.0
MMGL 180242Z 00000KT 10SM SCT300 15/M05 A3012 RMK SLP125 52010 956 8/008,MMGL,2021-01-18T02:42:00Z,20.52,-103.32,15.0,-5.0,0,0,,10.0,30.121063,1012.5,,,,,,,,,,SCT,30000,,,,,,,VFR,1.0,,,,,,,,,,,METAR,1531.0
RKTE 180241Z 16003KT 4800 -SN BR FEW005 BKN015 BKN030 M00/M01 A3004 RMK CIG015,RKTE,2021-01-18T02:41:00Z,36.57,127.5,0.0,-1.0,160,3,,2.98,30.041338,,,,,,,,,,-SN BR,FEW,500,BKN,1500,BKN,3000,,,IFR,,,,,,,,,,,,METAR,78.0
MMRX 180241Z 06006KT 8SM SKC 17/12 A3009 RMK HZY,MMRX,2021-01-18T02:41:00Z,26.02,-98.22,17.0,12.0,60,6,,8.0,30.088583,,,,,,,,,,,SKC,,,,,,,,VFR,,,,,,,,,,,,METAR,45.0
MMMY 180241Z 17006KT 12SM SKC 15/03 A3008 RMK SLP/// 5//// 9//,MMMY,2021-01-18T02:41:00Z,25.77,-100.1,15.0,3.0,170,6,,12.0,30.079725,,,,,,,,,,,SKC,,,,,,,,VFR,,,,,,,,,,,,METAR,382.0
MMCU 180241Z 28004KT 10SM SKC 12/M09 A3013 RMK SLP200 52006 931 ISOL CI,MMCU,2021-01-18T02:41:00Z,28.7,-105.97,12.0,-9.0,280,4,,10.0,30.129921,1020.0,,,,,,,,,,SKC,,,,,,,,VFR,0.6,,,,,,,,,,,METAR,1349.0
RKTF 180240Z 07001KT 4800 -SN BR BKN010 BKN030 00/M02 A3008 RMK CIG010,RKTF,2021-01-18T02:40:00Z,36.37,127.37,0.0,-2.0,70,1,,2.98,30.079725,,,,,,,,,,-SN BR,BKN,1000,BKN,3000,,,,,IFR,,,,,,,,,,,,METAR,65.0
MMZC 180240Z 00000KT 10SM SKC 11/M12 A3024,MMZC,2021-01-18T02:40:00Z,22.9,-102.68,11.0,-12.0,0,0,,10.0,30.239174,,,,,,,,,,,SKC,,,,,,,,VFR,,,,,,,,,,,,METAR,2175.0
MMTP 180240Z 00000KT 8SM FEW120 26/24 A2991 RMK SLP153 52028 909 8/030 HZY,MMTP,2021-01-18T02:40:00Z,14.78,-92.37,26.0,24.0,0,0,,8.0,29.911417,1015.3,,,,,,,,,,FEW,12000,,,,,,,VFR,2.8,,,,,,,,,,,METAR,27.0
MMTJ 180240Z 31004KT 7SM SKC 18/M02 A2998 RMK SLP167 54000 921,MMTJ,2021-01-18T02:40:00Z,32.53,-116.97,18.0,-2.0,310,4,,7.0,29.97933,1016.7,,,,,,,,,,SKC,,,,,,,,VFR,,,,,,,,,,,,METAR,150.0
MMSD 180240Z 29005KT 12SM SKC 17/11 A2995 RMK SLP129 52005 900,MMSD,2021-01-18T02:40:00Z,23.15,-109.72,17.0,11.0,290,5,,12.0,29.949802,1012.9,,,,,,,,,,SKC,,,,,,,,VFR,0.5,,,,,,,,,,,METAR,107.0
MMLM 180240Z 27005KT 10SM SKC 15/10 A2992 RMK HZY//,MMLM,2021-01-18T02:40:00Z,25.68,-109.08,15.0,10.0,270,5,,10.0,29.920275,,,,,,,,,,,SKC,,,,,,,,VFR,,,,,,,,,,,,METAR,6.0
MMHO 180240Z 00000KT 10SM SKC 20/M03 A2994 RMK SLP140 52005 953 HZY,MMHO,2021-01-18T02:40:00Z,29.08,-111.05,20.0,-3.0,0,0,,10.0,29.940945,1014.0,,,,,,,,,,SKC,,,,,,,,VFR,0.5,,,,,,,,,,,METAR,186.0
MMAS 180240Z 05006KT 10SM SKC 13/M12 A3020,MMAS,2021-01-18T02:40:00Z,21.7,-102.32,13.0,-12.0,50,6,,10.0,30.200787,,,,,,,,,,,SKC,,,,,,,,VFR,,,,,,,,,,,,METAR,1866.0
MMAN 180240Z 18004KT 15SM SKC 14/01 A3012 RMK SLP/// 5//// 9//,MMAN,2021-01-18T02:40:00Z,25.87,-100.23,14.0,1.0,180,4,,15.0,30.121063,,,,,,,,,,,SKC,,,,,,,,VFR,,,,,,,,,,,,METAR,447.0
KW31 180235Z AUTO 21005KT 10SM OVC080 04/M02 A2983 RMK AO1 T00351018,KW31,2021-01-18T02:35:00Z,36.95,-78.18,3.5,-1.8,210,5,,10.0,29.828741,,,TRUE,TRUE,,,,,,,OVC,8000,,,,,,,VFR,,,,,,,,,,,,METAR,159.0
KFYG 180235Z AUTO 00000KT 10SM BKN035 BKN075 01/00 A2989 RMK AO2,KFYG,2021-01-18T02:35:00Z,38.58,-91.0,1.0,0.0,0,0,,10.0,29.890747,,,TRUE,TRUE,,,,,,,BKN,3500,BKN,7500,,,,,VFR,,,,,,,,,,,,SPECI,147.0
RKTI 180231Z 32001KT 1600 -SN BR BKN015 OVC025 M02/M03 A3005 RMK CIG015,RKTI,2021-01-18T02:31:00Z,37.02,127.88,-2.0,-3.0,320,1,,0.99,30.050198,,,,,,,,,,-SN BR,BKN,1500,OVC,2500,,,,,LIFR,,,,,,,,,,,,SPECI,55.0
RKSP 180231Z 04006G016KT 9999 BKN030 M01/M06 A3009 RMK CIG030,RKSP,2021-01-18T02:31:00Z,37.97,124.67,-1.0,-6.0,40,6,16,6.21,30.088583,,,,,,,,,,,BKN,3000,,,,,,,MVFR,,,,,,,,,,,,METAR,171.0
VYMD 180230Z 32003KT 6000 NSC 20/13 Q1016,VYMD,2021-01-18T02:30:00Z,21.7,95.98,20.0,13.0,320,3,,3.73,30.0,,,,,,,,,,,CLR,,,,,,,,MVFR,,,,,,,,,,,,METAR,87.0
VILK 180230Z 00000KT 0000 R27/0100 FG VV/// 08/06 Q1017 NOSIG,VILK,2021-01-18T02:30:00Z,26.75,80.88,8.0,6.0,0,0,,0.0,30.029528,,,,,,TRUE,,,,FG,OVX,0,,,,,,,LIFR,,,,,,,,,,,,METAR,121.0
VIDP 180230Z 00000KT 0500 R28/1100 R29/1700 MIFG VV/// 11/11 Q1017 NOSIG,VIDP,2021-01-18T02:30:00Z,28.57,77.12,11.0,11.0,0,0,,0.31,30.029528,,,,,,TRUE,,,,MIFG,OVX,0,,,,,,,LIFR,,,,,,,,,,,,METAR,236.0
VDSV 180230Z 06010KT 9999 FEW017 28/14 Q1015,VDSV,2021-01-18T02:30:00Z,10.58,103.63,28.0,14.0,60,10,,6.21,29.970472,,,,,,,,,,,FEW,1700,,,,,,,VFR,,,,,,,,,,,,METAR,1.0
KNPA 180230Z 24004KT 10SM CLR 10/03 A3004 RMK LAST T01000028,KNPA,2021-01-18T02:30:00Z,30.35,-87.32,10.0,2.8,240,4,,10.0,30.041338,,,,,,,,,,,CLR,,,,,,,,VFR,,,,,,,,,,,,SPECI,6.0
FACV 180227Z AUTO 08005KT //// // ////// 15/09 Q1013,FACV,2021-01-18T02:27:00Z,-31.47,19.75,15.0,9.0,80,5,,,29.911417,,,TRUE,,,,,,,,,,,,,,,,,,,,,,,,,,,,METAR,977.0
K00U 180225Z AUTO 29027G37KT 10SM FEW013 SCT033 BKN060 04/M00 A2988 RMK A01,K00U,2021-01-18T02:25:00Z,45.75,-107.67,4.0,0.0,290,27,37,10.0,29.878937,,,TRUE,TRUE,,,,,,,FEW,1300,SCT,3300,BKN,6000,,,VFR,,,,,,,,,,,,METAR,922.0
RKSV 180224Z 02005KT 4800 BR OVC040 M04/M05 A2998 RMK CIG040,RKSV,2021-01-18T02:24:00Z,37.77,126.37,-4.0,-5.0,20,5,,2.98,29.97933,,,,,,,,,,BR,OVC,4000,,,,,,,IFR,,,,,,,,,,,,SPECI,250.0
RKTY 180222Z 00000KT 2400 -SN BR BKN015 OVC030 M04/M05 A3009 RMK CIG015 LSR16,RKTY,2021-01-18T02:22:00Z,36.62,128.33,-4.0,-5.0,0,0,,1.49,30.088583,,,,,,,,,,-SN BR,BKN,1500,OVC,3000,,,,,IFR,,,,,,,,,,,,METAR,108.0
RKNW 180222Z 23002KT 2400 -SN BR SCT015 OVC020 M02/M04 A3003 RMK CIG020,RKNW,2021-01-18T02:22:00Z,37.33,127.95,-2.0,-4.0,230,2,,1.49,30.029528,,,,,,,,,,-SN BR,SCT,1500,OVC,2000,,,,,IFR,,,,,,,,,,,,SPECI,152.0
RKNO 180221Z 28006KT 8000 -SN BR OVC040 01/M07 A2996 RMK CIG040,RKNO,2021-01-18T02:21:00Z,38.47,128.47,1.0,-7.0,280,6,,4.97,29.958662,,,,,,,,,,-SN BR,OVC,4000,,,,,,,MVFR,,,,,,,,,,,,SPECI,104.0
ETWM 180220Z AUTO 25005KT //// // ////// 02/01 Q1020 ///,ETWM,2021-01-18T02:20:00Z,52.72,7.33,2.0,1.0,250,5,,,30.11811,,,TRUE,,,,,,,,,,,,,,,,,,,,,,,,,,,,METAR,18.0
ETSN 180220Z 24005KT 7000 FEW004 BKN010 01/M00 Q1022 BLACKGRN,ETSN,2021-01-18T02:20:00Z,48.72,11.22,1.0,0.0,240,5,,4.35,30.177166,,,,,,,,,,,FEW,400,BKN,1000,,,,,MVFR,,,,,,,,,,,,METAR,378.0
ETSL 180220Z AUTO 23008KT 8000 // ////// 00/M01 Q1022 ///,ETSL,2021-01-18T02:20:00Z,48.17,10.87,0.0,-1.0,230,8,,4.97,30.177166,,,TRUE,,,,,,,,,,,,,,,,,,,,,,,,,,,,METAR,562.0
ETSI 180220Z AUTO 27008KT 4600 // ////// 01/M01 Q1021 ///,ETSI,2021-01-18T02:20:00Z,48.72,11.53,1.0,-1.0,270,8,,2.86,30.147638,,,TRUE,,,,,,,,,,,,,,,,,,,,,,,,,,,,METAR,366.0
ETSH 180220Z 15003KT 9999 BKN020 M05/M07 Q1020 BLACKWHT,ETSH,2021-01-18T02:20:00Z,51.77,13.17,-5.0,-7.0,150,3,,6.21,30.11811,,,,,,,,,,,BKN,2000,,,,,,,MVFR,,,,,,,,,,,,METAR,79.0
ETSB 180220Z AUTO 27008KT 5000 // ////// 01/M01 Q1022 ///,ETSB,2021-01-18T02:20:00Z,50.17,7.07,1.0,-1.0,270,8,,3.11,30.177166,,,TRUE,,,,,,,,,,,,,,,,,,,,,,,,,,,,METAR,477.0
ETNW 180220Z AUTO 29008KT 4500 // ////// 03/03 Q1019 ///,ETNW,2021-01-18T02:20:00Z,52.45,9.42,3.0,3.0,290,8,,2.8,30.088583,,,TRUE,,,,,,,,,,,,,,,,,,,,,,,,,,,,METAR,57.0
ETNT 180220Z AUTO 24003KT 4400 // ////// 02/01 Q1019 ///,ETNT,2021-01-18T02:20:00Z,53.53,7.67,2.0,1.0,240,3,,2.73,30.088583,,,TRUE,,,,,,,,,,,,,,,,,,,,,,,,,,,,METAR,5.0
ETNS 180220Z AUTO 19005KT 1100 // ////// M01/M01 Q1017 ///,ETNS,2021-01-18T02:20:00Z,54.47,9.52,-1.0,-1.0,190,5,,0.68,30.029528,,,TRUE,,,,,,,,,,,,,,,,,,,,,,,,,,,,METAR,22.0
ETNN 180220Z 23010KT 9999 SCT020 BKN044 03/02 Q1023 BLU,ETNN,2021-01-18T02:20:00Z,50.82,6.67,3.0,2.0,230,10,,6.21,30.206694,,,,,,,,,,,SCT,2000,BKN,4400,,,,,VFR,,,,,,,,,,,,METAR,108.0
ETNL 180220Z 19004KT 9999 SCT040 BKN070 M03/M05 Q1019 BLU,ETNL,2021-01-18T02:20:00Z,53.92,12.27,-3.0,-5.0,190,4,,6.21,30.088583,,,,,,,,,,,SCT,4000,BKN,7000,,,,,VFR,,,,,,,,,,,,METAR,40.0
ETMN 180220Z AUTO 22007KT 5000 // ////// 01/00 Q1018 ///,ETMN,2021-01-18T02:20:00Z,53.77,8.67,1.0,0.0,220,7,,3.11,30.059055,,,TRUE,,,,,,,,,,,,,,,,,,,,,,,,,,,,METAR,23.0
ETML 180220Z AUTO 19006KT //// // ////// M01/M02 Q1018 ///,ETML,2021-01-18T02:20:00Z,54.5,11.23,-1.0,-2.0,190,6,,,30.059055,,,TRUE,,,,,,,,,,,,,,,,,,,,,,,,,,,,METAR,9.0
ETHS 180220Z 23004KT 0900 FZFG VV001 M01/M02 Q1019 RED,ETHS,2021-01-18T02:20:00Z,52.92,10.18,-1.0,-2.0,230,4,,0.56,30.088583,,,,,,,,,,FZFG,OVX,0,,,,,,,LIFR,,,,,,,,,,,100,METAR,71.0
ETHN 180220Z 27013KT 0200 FG VV000 00/00 Q1021 RED,ETHN,2021-01-18T02:20:00Z,49.38,9.97,0.0,0.0,270,13,,0.12,30.147638,,,,,,,,,,FG,OVX,0,,,,,,,LIFR,,,,,,,,,,,0,METAR,466.0
ETHL 180220Z 22006KT 9999 -SN BKN014 M00/M01 Q1023 GRN,ETHL,2021-01-18T02:20:00Z,48.22,9.92,0.0,-1.0,220,6,,6.21,30.206694,,,,,,,,,,-SN,BKN,1400,,,,,,,MVFR,,,,,,,,,,,,METAR,536.0
ETHF 180220Z AUTO VRB02KT 5000 // ////// M01/M02 Q1021 ///,ETHF,2021-01-18T02:20:00Z,51.12,9.28,-1.0,-2.0,0,2,,3.11,30.147638,,,TRUE,,,,,,,,,,,,,,,,,,,,,,,,,,,,METAR,171.0
ETHC 180220Z 25005KT 0400 FG VV000 01/00 Q1019 RED,ETHC,2021-01-18T02:20:00Z,52.6,10.02,1.0,0.0,250,5,,0.25,30.088583,,,,,,,,,,FG,OVX,0,,,,,,,LIFR,,,,,,,,,,,0,METAR,35.0
ETHB 180220Z AUTO 29007KT 5000 // ////// 03/02 Q1020 ///,ETHB,2021-01-18T02:20:00Z,52.27,9.07,3.0,2.0,290,7,,3.11,30.11811,,,TRUE,,,,,,,,,,,,,,,,,,,,,,,,,,,,METAR,69.0
ETHA 180220Z AUTO 28013KT //// // ////// M01/M02 Q1022 ///,ETHA,2021-01-18T02:20:00Z,47.83,10.87,-1.0,-2.0,280,13,,,30.177166,,,TRUE,,,,,,,,,,,,,,,,,,,,,,,,,,,,METAR,738.0
ETGG 180220Z AUTO 20005KT 2800 // ////// M01/M01 Q1017 ///,ETGG,2021-01-18T02:20:00Z,54.83,9.5,-1.0,-1.0,200,5,,1.74,30.029528,,,TRUE,,,,,,,,,,,,,,,,,,,,,,,,,,,,METAR,33.0
ENLE 180220Z 23023KT 9999 -SHRA SCT012CB SCT040 06/05 Q1011 W07/S4,ENLE,2021-01-18T02:20:00Z,56.53,3.22,6.0,5.0,230,23,,6.21,29.852362,,,,,,,,,,-SHRA,SCT,1200,SCT,4000,,,,,VFR,,,,,,,,,,,,METAR,10.0
ENBR 180220Z 15011KT 9999 BKN011 03/01 Q1009 RMK WIND 1200FT 16024KT,ENBR,2021-01-18T02:20:00Z,60.28,5.22,3.0,1.0,150,11,,6.21,29.793306,,,,,,,,,,,BKN,1100,,,,,,,MVFR,,,,,,,,,,,,SPECI,49.0
RJOP 180217Z 31016G27KT 260V340 9999 FEW030 07/M06 Q1020 RMK 1CU030 A3013,RJOP,2021-01-18T02:17:00Z,34.0,134.62,7.0,-6.0,310,16,27,6.21,30.11811,,,,,,,,,,,FEW,3000,,,,,,,VFR,,,,,,,,,,,,SPECI,3.0
RKSU 180215Z 20007KT 4800 -SN BR SCT020 BKN030 M02/M02 A3008 RMK CIG030,RKSU,2021-01-18T02:15:00Z,37.42,127.62,-2.0,-2.0,200,7,,2.98,30.079725,,,,,,,,,,-SN BR,SCT,2000,BKN,3000,,,,,IFR,,,,,,,,,,,,METAR,43.0
KFGN 180215Z AUTO 33010KT M12/M14 A2981 RMK AO2 PWINO,KFGN,2021-01-18T02:15:00Z,49.32,-94.9,-12.0,-14.0,330,10,,,29.811024,,,TRUE,TRUE,,,,,TRUE,,,,,,,,,,,,,,,,,,,,,,METAR,327.0
K21D 180212Z AUTO 00000KT 10SM OVC008 M08/M09 A2980 RMK AO2,K21D,2021-01-18T02:12:00Z,45.0,-92.85,-8.0,-9.0,0,0,,10.0,29.799213,,,TRUE,TRUE,,,,,,,OVC,800,,,,,,,IFR,,,,,,,,,,,,METAR,281.0
LTAD 180210Z 28002KT 9999 SCT035 BKN100 M05/M06 Q1011 RESN NOSIG RMK RWY29 27002KT,LTAD,2021-01-18T02:10:00Z,39.95,32.67,-5.0,-6.0,280,2,,6.21,29.852362,,,,,,TRUE,,,,,SCT,3500,BKN,10000,,,,,VFR,,,,,,,,,,,,SPECI,806.0
