No errors
No warnings
331 ms
data source=metars
4678 results
raw_text,station_id,observation_time,latitude,longitude,temp_c,dewpoint_c,wind_dir_degrees,wind_speed_kt,wind_gust_kt,visibility_statute_mi,altim_in_hg,sea_level_pressure_mb,corrected,auto,auto_station,maintenance_indicator_on,no_signal,lightning_sensor_off,freezing_rain_sensor_off,present_weather_sensor_off,wx_string,sky_cover,cloud_base_ft_agl,sky_cover,cloud_base_ft_agl,sky_cover,cloud_base_ft_agl,sky_cover,cloud_base_ft_agl,flight_category,three_hr_pressure_tendency_mb,maxT_c,minT_c,maxT24hr_c,minT24hr_c,precip_in,pcp3hr_in,pcp6hr_in,pcp24hr_in,snow_in,vert_vis_ft,metar_type,elevation_m
ZMUB 140430Z VRB01MPS 6000NW NSC M23/M27 Q1010 NOSIG RMK QFE651.3 68 NW MO,ZMUB,2021-01-14T04:30:00Z,47.83,106.75,-23.0,-27.0,0,2,,3.73,29.822834,,,,,,TRUE,,,,,CLR,,,,,,,,MVFR,,,,,,,,,,,,METAR,1300.0
YPXM 140430Z AUTO 31006KT 9999 // BKN011 BKN018 OVC120 28/24 Q1011,YPXM,2021-01-14T04:30:00Z,-10.45,105.68,28.0,24.0,310,6,,6.21,29.852362,,,TRUE,,,,,,,,BKN,1100,BKN,1800,OVC,12000,,,MVFR,,,,,,,,,,,,SPECI,262.0
YPPH 140430Z 11015G25KT CAVOK 30/09 Q1016,YPPH,2021-01-14T04:30:00Z,-31.93,115.98,30.0,9.0,110,15,25,6.21,30.0,,,,,,,,,,,CAVOK,,,,,,,,VFR,,,,,,,,,,,,SPECI,16.0
YPGV 140430Z 31008KT 9999 -SHRA FEW015 BKN050 26/25 Q1006 RETS,YPGV,2021-01-14T04:30:00Z,-12.27,136.82,26.0,25.0,310,8,,6.21,29.704725,,,,,,,,,,-SHRA,FEW,1500,BKN,5000,,,,,VFR,,,,,,,,,,,,SPECI,53.0
YMEK 140430Z AUTO 11017G27KT 9999 // NCD 38/09 Q1011,YMEK,2021-01-14T04:30:00Z,-26.62,118.55,38.0,9.0,110,17,27,6.21,29.852362,,,TRUE,,,,,,,,CLR,,,,,,,,VFR,,,,,,,,,,,,SPECI,521.0
YBCS 140430Z AUTO 17010KT 9999 // SCT022 BKN030 28/25 Q1005 RESHRA,YBCS,2021-01-14T04:30:00Z,-16.87,145.75,28.0,25.0,170,10,,6.21,29.675198,,,TRUE,,,,,,,,SCT,2200,BKN,3000,,,,,MVFR,,,,,,,,,,,,SPECI,2.0
WIII 140430Z 34007G16KT 8000 BKN020 28/23 Q1011 NOSIG,WIII,2021-01-14T04:30:00Z,-6.13,106.67,28.0,23.0,340,7,16,4.97,29.852362,,,,,,TRUE,,,,,BKN,2000,,,,,,,MVFR,,,,,,,,,,,,METAR,9.0
WAMM 140430Z 32006KT 290V090 9999 SCT021 31/24 Q1008 NOSIG,WAMM,2021-01-14T04:30:00Z,1.55,124.92,31.0,24.0,320,6,,6.21,29.763779,,,,,,TRUE,,,,,SCT,2100,,,,,,,VFR,,,,,,,,,,,,METAR,86.0
WADL 140430Z 18007KT 140V200 8000 BKN016 30/25 Q1009 NOSIG,WADL,2021-01-14T04:30:00Z,-8.75,116.28,30.0,25.0,180,7,,4.97,29.793306,,,,,,TRUE,,,,,BKN,1600,,,,,,,MVFR,,,,,,,,,,,,METAR,97.0
WAAA 140430Z 30006KT 270V020 9999 SCT019 31/26 Q1007 NOSIG,WAAA,2021-01-14T04:30:00Z,-5.07,119.55,31.0,26.0,300,6,,6.21,29.734253,,,,,,TRUE,,,,,SCT,1900,,,,,,,VFR,,,,,,,,,,,,METAR,13.0
VOML 140430Z 10005KT 6000 FEW015 28/20 Q1011 NOSIG,VOML,2021-01-14T04:30:00Z,12.97,74.88,28.0,20.0,100,5,,3.73,29.852362,,,,,,TRUE,,,,,FEW,1500,,,,,,,MVFR,,,,,,,,,,,,METAR,100.0
VGHS 140430Z 04005KT 2500 BR NSC 19/14 Q1018 BECMG S/VIS 3000M,VGHS,2021-01-14T04:30:00Z,23.85,90.4,19.0,14.0,40,5,,1.55,30.059055,,,,,,,,,,BR,CLR,,,,,,,,IFR,,,,,,,,,,,,METAR,11.0
VECC 140430Z 00000KT 1600 BR NSC 20/13 Q1017 NOSIG,VECC,2021-01-14T04:30:00Z,22.65,88.43,20.0,13.0,0,0,,0.99,30.029528,,,,,,TRUE,,,,BR,CLR,,,,,,,,LIFR,,,,,,,,,,,,METAR,11.0
VAOZ 140430Z 05004KT 4000 HZ BKN300 22/15 Q1017 BECMG 5000 HZ,VAOZ,2021-01-14T04:30:00Z,20.12,73.92,22.0,15.0,50,4,,2.49,30.029528,,,,,,,,,,HZ,BKN,30000,,,,,,,IFR,,,,,,,,,,,,METAR,598.0
UBBB 140430Z 18020KT 2500 BR OVC002 08/07 Q1005 R88/CLRD// NOSIG,UBBB,2021-01-14T04:30:00Z,40.47,50.07,8.0,7.0,180,20,,1.55,29.675198,,,,,,TRUE,,,,BR,OVC,200,,,,,,,LIFR,,,,,,,,,,,,METAR,94.0
TFFR 140430Z AUTO VRB02KT 9999 FEW028 22/21 Q1015 NOSIG,TFFR,2021-01-14T04:30:00Z,16.27,-61.53,22.0,21.0,0,2,,6.21,29.970472,,,TRUE,,,TRUE,,,,,FEW,2800,,,,,,,VFR,,,,,,,,,,,,METAR,6.0
TFFF 140430Z AUTO 10008KT 9999 FEW026 25/22 Q1014 NOSIG,TFFF,2021-01-14T04:30:00Z,14.6,-61.0,25.0,22.0,100,8,,6.21,29.940945,,,TRUE,,,TRUE,,,,,FEW,2600,,,,,,,VFR,,,,,,,,,,,,METAR,3.0
SOCA 140430Z AUTO 05005KT CAVOK 26/23 Q1011,SOCA,2021-01-14T04:30:00Z,4.82,-52.37,26.0,23.0,50,5,,6.21,29.852362,,,TRUE,,,,,,,,CAVOK,,,,,,,,VFR,,,,,,,,,,,,METAR,7.0
OTBD 140430Z 25003KT 200V290 8000 NSC 15/09 Q1019 NOSIG,OTBD,2021-01-14T04:30:00Z,25.25,51.57,15.0,9.0,250,3,,4.97,30.088583,,,,,,TRUE,,,,,CLR,,,,,,,,MVFR,,,,,,,,,,,,METAR,13.0
OPPS 140430Z 00000KT 3000 HZ FEW100 BKN200 08/02 Q1018,OPPS,2021-01-14T04:30:00Z,33.98,71.52,8.0,2.0,0,0,,1.86,30.059055,,,,,,,,,,HZ,FEW,10000,BKN,20000,,,,,IFR,,,,,,,,,,,,METAR,356.0
OPMT 140430Z 05004KT 0100 FG VV/// 06/06 Q1017 TEMPO 0150,OPMT,2021-01-14T04:30:00Z,30.2,71.42,6.0,6.0,50,4,,0.06,30.029528,,,,,,,,,,FG,OVX,0,,,,,,,LIFR,,,,,,,,,,,,METAR,122.0
OPKC 140430Z 04003KT 3000 FU NSC 17/13 Q1015 NOSIG,OPKC,2021-01-14T04:30:00Z,24.9,67.13,17.0,13.0,40,3,,1.86,29.970472,,,,,,TRUE,,,,FU,CLR,,,,,,,,IFR,,,,,,,,,,,,METAR,20.0
OBBI 140430Z VRB02KT 8000 SKC 15/09 Q1019 NOSIG,OBBI,2021-01-14T04:30:00Z,26.27,50.63,15.0,9.0,0,2,,4.97,30.088583,,,,,,TRUE,,,,,SKC,,,,,,,,MVFR,,,,,,,,,,,,METAR,6.0
NWWW 140430Z AUTO 13012KT 9999 -RA SCT009/// BKN025/// BKN035/// ///TCU 26/24 Q1004 TEMPO 2000 +SHRA BKN013 SCT020CB OVC025,NWWW,2021-01-14T04:30:00Z,,,26.0,24.0,130,12,,6.21,29.64567,,,TRUE,,,,,,,-RA,SCT,900,BKN,2500,BKN,3500,,,MVFR,,,,,,,,,,,,METAR,
LZTT 140430Z 06003KT 030V090 9999 FEW010 M09/M11 Q1000,LZTT,2021-01-14T04:30:00Z,49.07,20.25,-9.0,-11.0,60,3,,6.21,29.52756,,,,,,,,,,,FEW,1000,,,,,,,VFR,,,,,,,,,,,,METAR,693.0
LZKZ 140430Z VRB01KT 3500 -SN BR BKN006 OVC040 M04/M04 Q1003,LZKZ,2021-01-14T04:30:00Z,48.67,21.23,-4.0,-4.0,0,1,,2.17,29.616142,,,,,,,,,,-SN BR,BKN,600,OVC,4000,,,,,IFR,,,,,,,,,,,,METAR,227.0
LZIB 140430Z 26007KT 230V300 9999 -SN FEW020 SCT029 BKN060 00/M00 Q1005 R13/590595,LZIB,2021-01-14T04:30:00Z,48.17,17.22,0.0,0.0,260,7,,6.21,29.675198,,,,,,,,,,-SN,FEW,2000,SCT,2900,BKN,6000,,,VFR,,,,,,,,,,,,METAR,129.0
LWSK 140430Z 13003KT CAVOK M05/M07 Q1013 NOSIG,LWSK,2021-01-14T04:30:00Z,41.97,21.63,-5.0,-7.0,130,3,,6.21,29.911417,,,,,,TRUE,,,,,CAVOK,,,,,,,,VFR,,,,,,,,,,,,METAR,232.0
LUKK 140430Z 31003KT 290V350 CAVOK M03/M05 Q1006 R26/CLRD// NOSIG,LUKK,2021-01-14T04:30:00Z,46.93,28.93,-3.0,-5.0,310,3,,6.21,29.704725,,,,,,TRUE,,,,,CAVOK,,,,,,,,VFR,,,,,,,,,,,,METAR,102.0
LHBP 140430Z 21008KT 9999 SCT043 OVC070 M00/M02 Q1005 R88/590195 NOSIG,LHBP,2021-01-14T04:30:00Z,47.43,19.27,0.0,-2.0,210,8,,6.21,29.675198,,,,,,TRUE,,,,,SCT,4300,OVC,7000,,,,,VFR,,,,,,,,,,,,METAR,141.0
LEMO 140430Z 13003KT CAVOK M01/M02 Q1028 NOSIG,LEMO,2021-01-14T04:30:00Z,37.17,-5.62,-1.0,-2.0,130,3,,6.21,30.35433,,,,,,TRUE,,,,,CAVOK,,,,,,,,VFR,,,,,,,,,,,,METAR,82.0
LEJR 140430Z 08003KT CAVOK 00/00 Q1029,LEJR,2021-01-14T04:30:00Z,36.75,-6.07,0.0,0.0,80,3,,6.21,30.383858,,,,,,,,,,,CAVOK,,,,,,,,VFR,,,,,,,,,,,,METAR,25.0
LDZD 140430Z 12005KT CAVOK M01/M07 Q1010,LDZD,2021-01-14T04:30:00Z,44.1,15.33,-1.0,-7.0,120,5,,6.21,29.822834,,,,,,,,,,,CAVOK,,,,,,,,VFR,,,,,,,,,,,,METAR,82.0
LDZA 140430Z 00000KT CAVOK M04/M05 Q1007 BECMG 29010KT,LDZA,2021-01-14T04:30:00Z,45.72,16.07,-4.0,-5.0,0,0,,6.21,29.734253,,,,,,,,,,,CAVOK,,,,,,,,VFR,,,,,,,,,,,,METAR,103.0
LDSP 140430Z AUTO 34005KT 320V030 CAVOK 02/M08 Q1012 NOSIG,LDSP,2021-01-14T04:30:00Z,43.53,16.3,2.0,-8.0,340,5,,6.21,29.88189,,,TRUE,,,TRUE,,,,,CAVOK,,,,,,,,VFR,,,,,,,,,,,,METAR,16.0
LDRI 140430Z 12005KT 9999 FEW050 05/M01 Q1009,LDRI,2021-01-14T04:30:00Z,45.22,14.57,5.0,-1.0,120,5,,6.21,29.793306,,,,,,,,,,,FEW,5000,,,,,,,VFR,,,,,,,,,,,,METAR,80.0
LDPL 140430Z 06003KT 9999 FEW024 M01/M02 Q1008,LDPL,2021-01-14T04:30:00Z,44.88,13.92,-1.0,-2.0,60,3,,6.21,29.763779,,,,,,,,,,,FEW,2400,,,,,,,VFR,,,,,,,,,,,,METAR,63.0
LDOS 140430Z 19008KT CAVOK M02/M04 Q1007,LDOS,2021-01-14T04:30:00Z,45.47,18.82,-2.0,-4.0,190,8,,6.21,29.734253,,,,,,,,,,,CAVOK,,,,,,,,VFR,,,,,,,,,,,,METAR,82.0
LDDU 140430Z 07008KT CAVOK 03/M12 Q1011 NOSIG,LDDU,2021-01-14T04:30:00Z,42.57,18.27,3.0,-12.0,70,8,,6.21,29.852362,,,,,,TRUE,,,,,CAVOK,,,,,,,,VFR,,,,,,,,,,,,METAR,156.0
LBWN 140430Z 27009KT CAVOK 00/M02 Q1009 NOSIG,LBWN,2021-01-14T04:30:00Z,43.22,27.82,0.0,-2.0,270,9,,6.21,29.793306,,,,,,TRUE,,,,,CAVOK,,,,,,,,VFR,,,,,,,,,,,,METAR,74.0
LBSF 140430Z 34003KT CAVOK M04/M06 Q1010 NOSIG,LBSF,2021-01-14T04:30:00Z,42.65,23.37,-4.0,-6.0,340,3,,6.21,29.822834,,,,,,TRUE,,,,,CAVOK,,,,,,,,VFR,,,,,,,,,,,,METAR,592.0
LBPD 140430Z AUTO 27014KT 9999 NCD 01/M08 Q1010 NOSIG,LBPD,2021-01-14T04:30:00Z,42.05,24.85,1.0,-8.0,270,14,,6.21,29.822834,,,TRUE,,,TRUE,,,,,CLR,,,,,,,,VFR,,,,,,,,,,,,METAR,182.0
LBGO 140430Z AUTO 05003KT 340V090 9999 NCD M01/M05 Q1011 NOSIG,LBGO,2021-01-14T04:30:00Z,43.15,25.72,-1.0,-5.0,50,3,,6.21,29.852362,,,TRUE,,,TRUE,,,,,CLR,,,,,,,,VFR,,,,,,,,,,,,METAR,84.0
LBBG 140430Z 27006KT 9999 FEW032 SCT048 02/M02 Q1010 NOSIG,LBBG,2021-01-14T04:30:00Z,42.57,27.52,2.0,-2.0,270,6,,6.21,29.822834,,,,,,TRUE,,,,,FEW,3200,SCT,4800,,,,,VFR,,,,,,,,,,,,METAR,41.0
KPO1 140430Z AUTO 28032G40KT 9SM 02/M03 A2957 ,KPO1,2021-01-14T04:30:00Z,48.13,-105.17,2.0,-3.0,280,32,40,9.0,29.568897,,,TRUE,,,,,,,,,,,,,,,,,,,,,,,,,,,,METAR,621.0
K3U3 140430Z AUTO 26023G31KT 10SM M02/M11 A3019 ,K3U3,2021-01-14T04:30:00Z,46.15,-112.87,-2.0,-11.0,260,23,31,10.0,30.188976,,,TRUE,,,,,,,,,,,,,,,,,,,,,,,,,,,,METAR,1534.0
K38S 140430Z AUTO 27020G26KT 10SM M01/M11 A3022 ,K38S,2021-01-14T04:30:00Z,46.38,-112.77,-1.0,-11.0,270,20,26,10.0,30.221457,,,TRUE,,,,,,,,,,,,,,,,,,,,,,,,,,,,METAR,1430.0
HSSS 140430Z 36008KT CAVOK 19/03 Q1013 NOSIG,HSSS,2021-01-14T04:30:00Z,15.58,32.55,19.0,3.0,360,8,,6.21,29.911417,,,,,,TRUE,,,,,CAVOK,,,,,,,,VFR,,,,,,,,,,,,METAR,387.0
HECA 140430Z 22007KT 6000 SCT025 BKN030 15/07 Q1013 NOSIG,HECA,2021-01-14T04:30:00Z,30.12,31.4,15.0,7.0,220,7,,3.73,29.911417,,,,,,TRUE,,,,,SCT,2500,BKN,3000,,,,,MVFR,,,,,,,,,,,,METAR,68.0
GOBD 140430Z 01016KT 8000 NSC 17/13 Q1014 NOSIG,GOBD,2021-01-14T04:30:00Z,14.67,-17.07,17.0,13.0,10,16,,4.97,29.940945,,,,,,TRUE,,,,,CLR,,,,,,,,MVFR,,,,,,,,,,,,METAR,90.0
GMTT 140430Z 06002KT CAVOK 04/03 Q1029 NOSIG,GMTT,2021-01-14T04:30:00Z,35.72,-5.9,4.0,3.0,60,2,,6.21,30.383858,,,,,,TRUE,,,,,CAVOK,,,,,,,,VFR,,,,,,,,,,,,METAR,19.0
GMMX 140430Z VRB02KT CAVOK 03/01 Q1028 NOSIG,GMMX,2021-01-14T04:30:00Z,31.62,-8.03,3.0,1.0,0,2,,6.21,30.35433,,,,,,TRUE,,,,,CAVOK,,,,,,,,VFR,,,,,,,,,,,,METAR,465.0
GMME 140430Z 16004KT 5000 NSC 06/05 Q1028 NOSIG,GMME,2021-01-14T04:30:00Z,34.05,-6.77,6.0,5.0,160,4,,3.11,30.35433,,,,,,TRUE,,,,,CLR,,,,,,,,MVFR,,,,,,,,,,,,METAR,84.0
GMFF 140430Z 36008KT CAVOK 02/M02 Q1029 NOSIG,GMFF,2021-01-14T04:30:00Z,33.92,-4.97,2.0,-2.0,360,8,,6.21,30.383858,,,,,,TRUE,,,,,CAVOK,,,,,,,,VFR,,,,,,,,,,,,METAR,575.0
GMAD 140430Z 06007KT CAVOK 07/05 Q1026 NOSIG,GMAD,2021-01-14T04:30:00Z,30.32,-9.42,7.0,5.0,60,7,,6.21,30.295275,,,,,,TRUE,,,,,CAVOK,,,,,,,,VFR,,,,,,,,,,,,METAR,66.0
FOOL 140430Z 08005KT 9000 FEW008 23/23 Q1011 NOSIG,FOOL,2021-01-14T04:30:00Z,0.45,9.42,23.0,23.0,80,5,,5.59,29.852362,,,,,,TRUE,,,,,FEW,800,,,,,,,VFR,,,,,,,,,,,,METAR,9.0
FMMI 140430Z 25004KT 190V300 9999 FEW010 BKN020 21/18 Q1018 NOSIG,FMMI,2021-01-14T04:30:00Z,-18.8,47.47,21.0,18.0,250,4,,6.21,30.059055,,,,,,TRUE,,,,,FEW,1000,BKN,2000,,,,,MVFR,,,,,,,,,,,,METAR,1269.0
FAOR 140430Z 01008KT 6000 SCT007 17/16 Q1021 NOSIG,FAOR,2021-01-14T04:30:00Z,-26.13,28.23,17.0,16.0,10,8,,3.73,30.147638,,,,,,TRUE,,,,,SCT,700,,,,,,,MVFR,,,,,,,,,,,,METAR,1684.0
CYZH 140430Z AUTO 27026G33KT 2 1/4SM -SN M01/M08 A2981 RMK VIS VRB 1 1/4-3 CLD MISG SLP130,CYZH,2021-01-14T04:30:00Z,55.28,-114.77,-1.0,-8.0,270,26,33,2.25,29.811024,1013.0,,TRUE,,,,,,,-SN,,,,,,,,,,,,,,,,,,,,,SPECI,583.0
CYSJ 140430Z VRB02KT 10SM -SN OVC040 M02/M03 A2991 RMK SC8 SLP134,CYSJ,2021-01-14T04:30:00Z,45.32,-65.88,-2.0,-3.0,0,2,,10.0,29.911417,1013.4,,,,,,,,,-SN,OVC,4000,,,,,,,VFR,,,,,,,,,,,,SPECI,89.0
CYEN 140430Z AUTO 24019G32KT 1SM -SN FEW005 BKN013 OVC017 00/M01 A2926 RMK ICG SLP935,CYEN,2021-01-14T04:30:00Z,49.22,-102.97,0.0,-1.0,240,19,32,1.0,29.258858,993.5,,TRUE,,,,,,,-SN,FEW,500,BKN,1300,OVC,1700,,,IFR,,,,,,,,,,,,SPECI,580.0
PAMB 140429Z AUTO 19005KT 8SM SCT012 BKN024 OVC041 M03/M04 A2957 RMK AO2 FZRANO $,PAMB,2021-01-14T04:29:00Z,58.98,-159.05,-3.0,-4.0,190,5,,8.0,29.568897,,,TRUE,TRUE,TRUE,,,TRUE,,,SCT,1200,BKN,2400,OVC,4100,,,MVFR,,,,,,,,,,,,SPECI,28.0
KXMR 140429Z AUTO 30007KT 10SM FEW011 BKN080 BKN100 13/10 A3006 RMK AO2 DZB12E16RAB16E23DZB23E29 SLP182 $,KXMR,2021-01-14T04:29:00Z,28.47,-80.57,13.0,10.0,300,7,,10.0,30.059055,1018.2,,TRUE,TRUE,TRUE,,,,,,FEW,1100,BKN,8000,BKN,10000,,,VFR,,,,,,,,,,,,SPECI,5.0
KMNM 140429Z AUTO 00000KT 2SM BR CLR M05/M06 A2967 RMK AO2 FZRANO $,KMNM,2021-01-14T04:29:00Z,45.12,-87.63,-5.0,-6.0,0,0,,2.0,29.66929,,,TRUE,TRUE,TRUE,,,TRUE,,BR,CLR,,,,,,,,IFR,,,,,,,,,,,,SPECI,188.0
KGMU 140429Z AUTO 25004KT 5SM BR BKN005 04/02 A2992 RMK AO2 T00390022,KGMU,2021-01-14T04:29:00Z,34.85,-82.35,3.9,2.2,250,4,,5.0,29.920275,,,TRUE,TRUE,,,,,,BR,BKN,500,,,,,,,IFR,,,,,,,,,,,,SPECI,309.0
KAND 140429Z AUTO 00000KT 1/4SM FG VV001 00/M01 A2994 RMK AO2 T00001011,KAND,2021-01-14T04:29:00Z,34.5,-82.72,0.0,-1.1,0,0,,0.25,29.940945,,,TRUE,TRUE,,,,,,FG,OVX,0,,,,,,,LIFR,,,,,,,,,,,100,SPECI,233.0
CYKP 140429Z AUTO 13003KT 100V160 9SM OVC004 M04/M04 A2964 RMK SLP051,CYKP,2021-01-14T04:29:00Z,51.67,-85.9,-4.0,-4.0,130,3,,9.0,29.639763,1005.1,,TRUE,,,,,,,,OVC,400,,,,,,,LIFR,,,,,,,,,,,,SPECI,181.0
CYEV 140429Z 00000KT 15SM -SN OVC003 M26/M29 A3002 RMK ST8 SLP179,CYEV,2021-01-14T04:29:00Z,68.32,-133.5,-26.0,-29.0,0,0,,15.0,30.02067,1017.9,,,,,,,,,-SN,OVC,300,,,,,,,LIFR,,,,,,,,,,,,SPECI,74.0
TISX 140428Z AUTO 06008KT 10SM FEW015 BKN030 24/23 A3000 RMK AO2 T02390228,TISX,2021-01-14T04:28:00Z,17.7,-64.8,23.9,22.8,60,8,,10.0,30.0,,,TRUE,TRUE,,,,,,,FEW,1500,BKN,3000,,,,,MVFR,,,,,,,,,,,,SPECI,16.0
PAJZ 140428Z AUTO 15010KT 1 1/4SM BR OVC002 M03/M03 A2964 RMK AO2 FZRANO $,PAJZ,2021-01-14T04:28:00Z,59.73,-157.27,-3.0,-3.0,150,10,,1.25,29.639763,,,TRUE,TRUE,TRUE,,,TRUE,,BR,OVC,200,,,,,,,LIFR,,,,,,,,,,,,SPECI,80.0
PACD 140428Z AUTO 32004KT 4SM BR FEW002 BKN042 M04/M06 A2946 RMK AO2 I1000 T10441056 TSNO,PACD,2021-01-14T04:28:00Z,55.22,-162.72,-4.4,-5.6,320,4,,4.0,29.459646,,,TRUE,TRUE,,,TRUE,,,BR,FEW,200,BKN,4200,,,,,MVFR,,,,,,,,,,,,SPECI,23.0
KY50 140428Z AUTO 00000KT 1 1/2SM BR CLR M04/M04 A2963 RMK AO2 FZRANO $,KY50,2021-01-14T04:28:00Z,44.03,-89.3,-4.0,-4.0,0,0,,1.5,29.630905,,,TRUE,TRUE,TRUE,,,TRUE,,BR,CLR,,,,,,,,IFR,,,,,,,,,,,,SPECI,261.0
KXWA 140428Z AUTO 27029G49KT 3SM -SN FEW012 BKN020 OVC025 01/M02 A2944 RMK AO2 PK WND 27053/0358 P0000 T00061022 $,KXWA,2021-01-14T04:28:00Z,48.27,-103.75,0.6,-2.2,270,29,49,3.0,29.438976,,,TRUE,TRUE,TRUE,,,,,-SN,FEW,1200,BKN,2000,OVC,2500,,,MVFR,,,,,,0.005,,,,,,SPECI,717.0
KXNO 140428Z AUTO 00000KT 1 5/8SM -DZ BR CLR 03/ A2997 RMK AO2 VIS 1 1/2V6 DZB18 SLP153 $,KXNO,2021-01-14T04:28:00Z,33.62,-81.07,3.0,,0,0,,1.63,29.970472,1015.3,,TRUE,TRUE,TRUE,,,,,-DZ BR,CLR,,,,,,,,IFR,,,,,,,,,,,,SPECI,94.0
KIOW 140428Z AUTO 00000KT 1 1/4SM BR CLR M03/M04 A2962 RMK AO2 I1000 T10331044,KIOW,2021-01-14T04:28:00Z,41.63,-91.55,-3.3,-4.4,0,0,,1.25,29.619095,,,TRUE,TRUE,,,,,,BR,CLR,,,,,,,,IFR,,,,,,,,,,,,SPECI,199.0
KHUA 140428Z AUTO 20007KT 10SM BKN005 M01/M01 A2999 RMK AO2 SLP162,KHUA,2021-01-14T04:28:00Z,34.68,-86.68,-1.0,-1.0,200,7,,10.0,29.991142,1016.2,,TRUE,TRUE,,,,,,,BKN,500,,,,,,,IFR,,,,,,,,,,,,SPECI,200.0
PATG 140427Z AUTO 02004KT 3SM UP BR BKN006 OVC011 M03/M03 A2955 RMK AO2 UPB26SNB02E26 CIG 004V009 P0000 FZRANO,PATG,2021-01-14T04:27:00Z,59.05,-160.38,-3.0,-3.0,20,4,,3.0,29.551182,,,TRUE,TRUE,,,,TRUE,,BR UP,BKN,600,OVC,1100,,,,,IFR,,,,,,0.005,,,,,,SPECI,1.0
KACY 140427Z AUTO 00000KT 1 1/2SM BR CLR M02/M03 A2991 RMK AO2 VIS 1/2V5 T10221028 TSNO,KACY,2021-01-14T04:27:00Z,39.45,-74.57,-2.2,-2.8,0,0,,1.5,29.911417,,,TRUE,TRUE,,,TRUE,,,BR,CLR,,,,,,,,IFR,,,,,,,,,,,,SPECI,18.0
EKYT 140427Z AUTO 02011KT 9999 OVC015/// M02/M04 Q1020 R08L/290195,EKYT,2021-01-14T04:27:00Z,57.1,9.87,-2.0,-4.0,20,11,,6.21,30.11811,,,TRUE,,,,,,,,OVC,1500,,,,,,,MVFR,,,,,,,,,,,,SPECI,2.0
CYWG 140427Z 18012KT 15SM -DZ FEW015 BKN031 OVC060 00/M01 A2931 RMK SC1SC4SC3 ICE ON INDICATOR SLP941,CYWG,2021-01-14T04:27:00Z,49.9,-97.23,0.0,-1.0,180,12,,15.0,29.309055,994.1,,,,,,,,,-DZ,FEW,1500,BKN,3100,OVC,6000,,,VFR,,,,,,,,,,,,SPECI,238.0
PAVD 140426Z 00000KT 3/4SM -SN BR OVC007 M01/M01 A2995 RMK AO2 P0000,PAVD,2021-01-14T04:26:00Z,61.13,-146.25,-1.0,-1.0,0,0,,0.75,29.949802,,,,TRUE,,,,,,-SN BR,OVC,700,,,,,,,LIFR,,,,,,0.005,,,,,,METAR,21.0
PAVC 140426Z AUTO 19008KT 10SM SCT028 OVC100 M01/M03 A2947 RMK AO2 FZRANO,PAVC,2021-01-14T04:26:00Z,55.12,-162.27,-1.0,-3.0,190,8,,10.0,29.471457,,,TRUE,TRUE,,,,TRUE,,,SCT,2800,OVC,10000,,,,,VFR,,,,,,,,,,,,SPECI,48.0
PAKW 140426Z AUTO VRB03KT 10SM FEW024 OVC033 02/01 A3020 RMK AO2 T00170006 TSNO,PAKW,2021-01-14T04:26:00Z,55.58,-133.07,1.7,0.6,0,3,,10.0,30.200787,,,TRUE,TRUE,,,TRUE,,,,FEW,2400,OVC,3300,,,,,VFR,,,,,,,,,,,,SPECI,7.0
PAKN 140426Z 00000KT 10SM SCT026 OVC031 M02/M03 A2956 RMK AO2 SNE06 P0000 T10221033,PAKN,2021-01-14T04:26:00Z,58.68,-156.65,-2.2,-3.3,0,0,,10.0,29.56004,,,,TRUE,,,,,,,SCT,2600,OVC,3100,,,,,VFR,,,,,,0.005,,,,,,SPECI,20.0
KTOR 140426Z AUTO 32009KT FEW013 SCT043 OVC095 01/00 A2986 RMK AO2 SNE12 P0000 T00060000 $,KTOR,2021-01-14T04:26:00Z,42.07,-104.15,0.6,0.0,320,9,,,29.861221,,,TRUE,TRUE,TRUE,,,,,,FEW,1300,SCT,4300,OVC,9500,,,,,,,,,0.005,,,,,,SPECI,1285.0
KMLB 140426Z AUTO 31012KT 10SM -RA BKN013 OVC080 13/12 A3006 RMK AO2 RAB15 P0000 T01330122,KMLB,2021-01-14T04:26:00Z,28.1,-80.65,13.3,12.2,310,12,,10.0,30.059055,,,TRUE,TRUE,,,,,,-RA,BKN,1300,OVC,8000,,,,,MVFR,,,,,,0.005,,,,,,SPECI,7.0
KFAY 140426Z 21005KT 5SM BR SCT007 OVC012 07/06 A2994 RMK AO2 T00720056,KFAY,2021-01-14T04:26:00Z,34.98,-78.88,7.2,5.6,210,5,,5.0,29.940945,,,,TRUE,,,,,,BR,SCT,700,OVC,1200,,,,,MVFR,,,,,,,,,,,,SPECI,57.0
KCOF 140426Z 30011KT 10SM -DZ BKN015 13/10 A3006 RMK AO2A RAE0359DZB0359 BKN V SCT SLP184 RVRNO $,KCOF,2021-01-14T04:26:00Z,28.23,-80.6,13.0,10.0,300,11,,10.0,30.059055,1018.4,,,TRUE,TRUE,,,,,-DZ,BKN,1500,,,,,,,MVFR,,,,,,,,,,,,SPECI,1.0
KCBM 140426Z AUTO 00000KT 3SM BR CLR M02/M03 A3002 RMK AO2 SLP171 $,KCBM,2021-01-14T04:26:00Z,33.65,-88.45,-2.0,-3.0,0,0,,3.0,30.02067,1017.1,,TRUE,TRUE,TRUE,,,,,BR,CLR,,,,,,,,MVFR,,,,,,,,,,,,SPECI,59.0
K2DP 140426Z AUTO 00000KT 7SM VV002 M00/00 A2995 RMK AO2 CIG 002V240 SLPNO $,K2DP,2021-01-14T04:26:00Z,35.68,-75.9,0.0,0.0,0,0,,7.0,29.949802,,,TRUE,TRUE,TRUE,,,,,,OVX,0,,,,,,,LIFR,,,,,,,,,,,200,SPECI,1.0
ETAD 140426Z AUTO 00000KT 6000 -SN BR FEW002 FEW007 BKN015 OVC025 00/00 A3000 RMK AO2 SLP168 TSNO $,ETAD,2021-01-14T04:26:00Z,49.98,6.7,0.0,0.0,0,0,,3.73,30.0,1016.8,,TRUE,TRUE,TRUE,,TRUE,,,-SN BR,FEW,200,FEW,700,BKN,1500,OVC,2500,MVFR,,,,,,,,,,,,SPECI,365.0
CYYN 140426Z AUTO 31034G46KT 3SM BR SCT026 BKN033 OVC095 M02/M04 A2964 RMK ICG PRESRR SLP063,CYYN,2021-01-14T04:26:00Z,50.28,-107.68,-2.0,-4.0,310,34,46,3.0,29.639763,1006.3,,TRUE,,,,,,,BR,SCT,2600,BKN,3300,OVC,9500,,,MVFR,,,,,,,,,,,,SPECI,814.0
CYJT 140426Z VRB02KT 3SM R27/4000VP6000FT/U -SN BKN008 OVC026 M01/M02 A2990 RMK SF5SC3 SLP128,CYJT,2021-01-14T04:26:00Z,48.55,-58.57,-1.0,-2.0,0,2,,3.0,29.899607,1012.8,,,,,,,,,-SN,BKN,800,OVC,2600,,,,,IFR,,,,,,,,,,,,SPECI,7.0
SBRP 140425Z 08003KT 040V110 9999 SCT010 OVC045 21/21 Q1014,SBRP,2021-01-14T04:25:00Z,-21.13,-47.77,21.0,21.0,80,3,,6.21,29.940945,,,,,,,,,,,SCT,1000,OVC,4500,,,,,VFR,,,,,,,,,,,,SPECI,550.0
PASO 140425Z AUTO 00000KT 7SM -RA BKN028 BKN033 BKN045 01/01 A2967 RMK AO2 P0001 T00110006 TSNO,PASO,2021-01-14T04:25:00Z,59.45,-151.7,1.1,0.6,0,0,,7.0,29.66929,,,TRUE,TRUE,,,TRUE,,,-RA,BKN,2800,BKN,3300,BKN,4500,,,MVFR,,,,,,0.01,,,,,,METAR,20.0
OPLA 140425Z 09004KT 1000 BR VV/// 08/07 Q1018 BECMG 1500 RMK QFE990 RMK A30.07,OPLA,2021-01-14T04:25:00Z,31.52,74.4,8.0,7.0,90,4,,0.62,30.059055,,,,,,,,,,BR,OVX,0,,,,,,,LIFR,,,,,,,,,,,,METAR,217.0
OPIS 140425Z 09009KT 0050 R28L/P0200 RMID/P0200 R10R/P0200 FG NSC 07/07 Q1018 NOSIG,OPIS,2021-01-14T04:25:00Z,33.55,72.83,7.0,7.0,90,9,,0.03,30.059055,,,,,,TRUE,,,,FG,CLR,,,,,,,,LIFR,,,,,,,,,,,,METAR,542.0
KS85 140425Z AUTO 27031G44KT 9SM 02/M02 A2952 RMK A01 Culbertson ,KS85,2021-01-14T04:25:00Z,48.15,-104.5,2.0,-2.0,270,31,44,9.0,29.518702,,,TRUE,TRUE,,,,,,,,,,,,,,,,,,,,,,,,,,,METAR,596.0
KPWD 140425Z AUTO 29039G50KT 3SM BR BKN020 OVC027 00/M02 A2938 RMK A01 Plentywood ,KPWD,2021-01-14T04:25:00Z,48.78,-104.52,0.0,-2.0,290,39,50,3.0,29.379921,,,TRUE,TRUE,,,,,,BR,BKN,2000,OVC,2700,,,,,MVFR,,,,,,,,,,,,METAR,690.0
KCII 140425Z AUTO 28023KT 10SM 01/M11 A3004 RMK A01 Choteau ,KCII,2021-01-14T04:25:00Z,47.83,-112.17,1.0,-11.0,280,23,,10.0,30.041338,,,TRUE,TRUE,,,,,,,,,,,,,,,,,,,,,,,,,,,METAR,1202.0
K7S6 140425Z AUTO 28024G29KT 10SM M02/M10 A3010 RMK A01 White Sulphur Spgs ,K7S6,2021-01-14T04:25:00Z,46.5,-110.92,-2.0,-10.0,280,24,29,10.0,30.100393,,,TRUE,TRUE,,,,,,,,,,,,,,,,,,,,,,,,,,,METAR,1543.0
K7S1 140425Z AUTO 09006KT 10SM CLR M01/M13 A3026 RMK AO2 Twin Bridges ,K7S1,2021-01-14T04:25:00Z,45.53,-112.3,-1.0,-13.0,90,6,,10.0,30.259842,,,TRUE,TRUE,,,,,,,CLR,,,,,,,,VFR,,,,,,,,,,,,METAR,1456.0
K7S0 140425Z AUTO 24008KT 10SM 01/M08 A3028 RMK A01 Ronan ,K7S0,2021-01-14T04:25:00Z,47.57,-114.1,1.0,-8.0,240,8,,10.0,30.280512,,,TRUE,TRUE,,,,,,,,,,,,,,,,,,,,,,,,,,,METAR,941.0
K6S8 140425Z AUTO 29019G32KT 10SM 03/M12 A3003 RMK A01 Laurel ,K6S8,2021-01-14T04:25:00Z,45.7,-108.77,3.0,-12.0,290,19,32,10.0,30.029528,,,TRUE,TRUE,,,,,,,,,,,,,,,,,,,,,,,,,,,METAR,1072.0
K6S5 140425Z AUTO 21008G14KT 10SM FEW044 BKN050 OVC065 M00/M05 A3034 RMK AO2 Hamilton ,K6S5,2021-01-14T04:25:00Z,46.25,-114.13,0.0,-5.0,210,8,14,10.0,30.339567,,,TRUE,TRUE,,,,,,,FEW,4400,BKN,5000,OVC,6500,,,VFR,,,,,,,,,,,,METAR,1112.0
K6S0 140425Z AUTO 27032G47KT 10SM SCT035 SCT041 00/M12 A3005 RMK A01 Big Timber ,K6S0,2021-01-14T04:25:00Z,45.8,-109.97,0.0,-12.0,270,32,47,10.0,30.050198,,,TRUE,TRUE,,,,,,,SCT,3500,SCT,4100,,,,,VFR,,,,,,,,,,,,METAR,1364.0
K4U6 140425Z AUTO 30032G49KT 10SM 02/M06 A2968 RMK A01 Circle ,K4U6,2021-01-14T04:25:00Z,47.42,-105.57,2.0,-6.0,300,32,49,10.0,29.681103,,,TRUE,TRUE,,,,,,,,,,,,,,,,,,,,,,,,,,,METAR,739.0
K00U 140425Z AUTO 29026G32KT 10SM OVC048 02/M08 A2999 RMK A01 Hardin ,K00U,2021-01-14T04:25:00Z,45.75,-107.67,2.0,-8.0,290,26,32,10.0,29.991142,,,TRUE,TRUE,,,,,,,OVC,4800,,,,,,,VFR,,,,,,,,,,,,METAR,922.0
ETHA 140425Z 29014KT 1000 SN BKN010 OVC025 M01/M02 Q1012 BLACKAMB,ETHA,2021-01-14T04:25:00Z,47.83,10.87,-1.0,-2.0,290,14,,0.62,29.88189,,,,,,,,,,SN,BKN,1000,OVC,2500,,,,,LIFR,,,,,,,,,,,,SPECI,738.0
EHWO 140425Z AUTO 09004KT 060V120 6000 -SN FEW002 FEW015CB SCT018 BKN022 00/00 Q1018 WHT,EHWO,2021-01-14T04:25:00Z,51.45,4.33,0.0,0.0,90,4,,3.73,30.059055,,,TRUE,,,,,,,-SN,FEW,200,FEW,1500,SCT,1800,BKN,2200,MVFR,,,,,,,,,,,,METAR,15.0
EHVL 140425Z AUTO 07005KT 9999 OVC150 02/M01 Q1018 BLU,EHVL,2021-01-14T04:25:00Z,53.28,5.08,2.0,-1.0,70,5,,6.21,30.059055,,,TRUE,,,,,,,,OVC,15000,,,,,,,VFR,,,,,,,,,,,,METAR,2.0
EHVK 140425Z AUTO 35002KT 9999 OVC087 01/M01 Q1018 BLU,EHVK,2021-01-14T04:25:00Z,51.65,5.7,1.0,-1.0,350,2,,6.21,30.059055,,,TRUE,,,,,,,,OVC,8700,,,,,,,VFR,,,,,,,,,,,,METAR,20.0
EHSC 140425Z AUTO 12006KT 080V140 9999 -DZ ///////// 03/01 Q1018 W07/H14,EHSC,2021-01-14T04:25:00Z,51.93,3.67,3.0,1.0,120,6,,6.21,30.059055,,,TRUE,,,,,,,-DZ,,,,,,,,,,,,,,,,,,,,,METAR,19.0
EHSA 140425Z AUTO 08014KT 9999 -RA ///////// 04/01 Q1018 RERA REDZ W06/H14,EHSA,2021-01-14T04:25:00Z,52.0,3.28,4.0,1.0,80,14,,6.21,30.059055,,,TRUE,,,,,,,-RA,,,,,,,,,,,,,,,,,,,,,METAR,18.0
EHRD 140425Z AUTO 08004KT 9999 NSC 03/00 Q1018 NOSIG,EHRD,2021-01-14T04:25:00Z,51.95,4.45,3.0,0.0,80,4,,6.21,30.059055,,,TRUE,,,TRUE,,,,,CLR,,,,,,,,VFR,,,,,,,,,,,,METAR,-4.0
EHQE 140425Z AUTO 05015KT 9999 FEW023 SCT036 05/M01 Q1018,EHQE,2021-01-14T04:25:00Z,52.92,4.15,5.0,-1.0,50,15,,6.21,30.059055,,,TRUE,,,,,,,,FEW,2300,SCT,3600,,,,,VFR,,,,,,,,,,,,METAR,41.0
EHPG 140425Z AUTO 10010KT 9999 FEW018CB SCT032 BKN036 05/00 Q1018,EHPG,2021-01-14T04:25:00Z,52.37,3.35,5.0,0.0,100,10,,6.21,30.059055,,,TRUE,,,,,,,,FEW,1800,SCT,3200,BKN,3600,,,VFR,,,,,,,,,,,,METAR,24.0
EHMG 140425Z AUTO 05013KT 9999 FEW026 05/M02 Q1019,EHMG,2021-01-14T04:25:00Z,53.62,4.97,5.0,-2.0,50,13,,6.21,30.088583,,,TRUE,,,,,,,,FEW,2600,,,,,,,VFR,,,,,,,,,,,,METAR,30.0
EHMA 140425Z AUTO 05013KT 9999 FEW026 SCT031 04/M02 Q1018,EHMA,2021-01-14T04:25:00Z,53.5,5.95,4.0,-2.0,50,13,,6.21,30.059055,,,TRUE,,,,,,,,FEW,2600,SCT,3100,,,,,VFR,,,,,,,,,,,,METAR,27.0
EHLW 140425Z AUTO 07003KT 9999 NCD 01/M01 Q1018 BLU,EHLW,2021-01-14T04:25:00Z,53.22,5.75,1.0,-1.0,70,3,,6.21,30.059055,,,TRUE,,,,,,,,CLR,,,,,,,,VFR,,,,,,,,,,,,METAR,1.0
EHLE 140425Z AUTO 03002KT 9999 NSC 00/M01 Q1018,EHLE,2021-01-14T04:25:00Z,52.45,5.52,0.0,-1.0,30,2,,6.21,30.059055,,,TRUE,,,,,,,,CLR,,,,,,,,VFR,,,,,,,,,,,,METAR,-3.0
EHKV 140425Z AUTO 09020KT 9999 FEW014 SCT035 05/01 Q1018,EHKV,2021-01-14T04:25:00Z,53.27,3.63,5.0,1.0,90,20,,6.21,30.059055,,,TRUE,,,,,,,,FEW,1400,SCT,3500,,,,,VFR,,,,,,,,,,,,METAR,28.0
EHKD 140425Z AUTO 07005KT 9999 OVC120 02/00 Q1018 BLU,EHKD,2021-01-14T04:25:00Z,52.92,4.77,2.0,0.0,70,5,,6.21,30.059055,,,TRUE,,,,,,,,OVC,12000,,,,,,,VFR,,,,,,,,,,,,METAR,1.0
EHJR 140425Z AUTO 09014KT //// // ///////// 05/M02 Q1019 RE// W08/H17,EHJR,2021-01-14T04:25:00Z,53.22,3.22,5.0,-2.0,90,14,,,30.088583,,,TRUE,,,,,,,,,,,,,,,,,,,,,,,,,,,,METAR,31.0
EHJA 140425Z AUTO 08015KT 9999 FEW030/// 06/M01 Q1018,EHJA,2021-01-14T04:25:00Z,53.82,2.95,6.0,-1.0,80,15,,6.21,30.059055,,,TRUE,,,,,,,,FEW,3000,,,,,,,VFR,,,,,,,,,,,,METAR,34.0
EHHW 140425Z AUTO 06018KT 9999 FEW032/// BKN037/// BKN042/// 04/M03 Q1018,EHHW,2021-01-14T04:25:00Z,54.03,6.03,4.0,-3.0,60,18,,6.21,30.059055,,,TRUE,,,,,,,,FEW,3200,BKN,3700,BKN,4200,,,VFR,,,,,,,,,,,,METAR,10.0
EHGR 140425Z AUTO 26001KT 9999 FEW015CB OVC061 01/01 Q1018 BLU,EHGR,2021-01-14T04:25:00Z,51.55,4.93,1.0,1.0,260,1,,6.21,30.059055,,,TRUE,,,,,,,,FEW,1500,OVC,6100,,,,,VFR,,,,,,,,,,,,METAR,12.0
EHGG 140425Z AUTO 01004KT 9999 FEW029 M03/M03 Q1018,EHGG,2021-01-14T04:25:00Z,53.12,6.57,-3.0,-3.0,10,4,,6.21,30.059055,,,TRUE,,,,,,,,FEW,2900,,,,,,,VFR,,,,,,,,,,,,METAR,2.0
EHFD 140425Z AUTO 00000KT 9999 // FEW018/// SCT031/// BKN045/// 04/M00 Q1019 RE//,EHFD,2021-01-14T04:25:00Z,54.85,4.7,4.0,0.0,0,0,,6.21,30.088583,,,TRUE,,,,,,,,FEW,1800,SCT,3100,BKN,4500,,,VFR,,,,,,,,,,,,METAR,24.0
EHEH 140425Z AUTO 23002KT 9999 OVC067 01/00 Q1018 BLU,EHEH,2021-01-14T04:25:00Z,51.45,5.38,1.0,0.0,230,2,,6.21,30.059055,,,TRUE,,,,,,,,OVC,6700,,,,,,,VFR,,,,,,,,,,,,METAR,20.0
EHDV 140425Z AUTO 35017KT 9999 SCT036/// 05/M03 Q1019,EHDV,2021-01-14T04:25:00Z,54.32,2.93,5.0,-3.0,350,17,,6.21,30.088583,,,TRUE,,,,,,,,SCT,3600,,,,,,,VFR,,,,,,,,,,,,METAR,36.0
EHDL 140425Z AUTO 35002KT 9999 OVC110 M01/M01 Q1018 BLU,EHDL,2021-01-14T04:25:00Z,52.07,5.88,-1.0,-1.0,350,2,,6.21,30.059055,,,TRUE,,,,,,,,OVC,11000,,,,,,,VFR,,,,,,,,,,,,METAR,49.0
EHBK 140425Z AUTO VRB01KT 9999 FEW015CB BKN033 OVC038 01/M00 Q1017 REDZ,EHBK,2021-01-14T04:25:00Z,50.92,5.77,1.0,0.0,0,1,,6.21,30.029528,,,TRUE,,,,,,,,FEW,1500,BKN,3300,OVC,3800,,,VFR,,,,,,,,,,,,METAR,112.0
EHAM 140425Z 03002KT CAVOK 02/M01 Q1018 NOSIG,EHAM,2021-01-14T04:25:00Z,52.32,4.78,2.0,-1.0,30,2,,6.21,30.059055,,,,,,TRUE,,,,,CAVOK,,,,,,,,VFR,,,,,,,,,,,,METAR,-2.0
EHAK 140425Z AUTO VRB08KT 9999 FEW018/// 04/M00 Q1020,EHAK,2021-01-14T04:25:00Z,55.38,3.82,4.0,0.0,0,8,,6.21,30.11811,,,TRUE,,,,,,,,FEW,1800,,,,,,,VFR,,,,,,,,,,,,METAR,33.0
CZUM 140425Z AUTO 21004KT 3SM -SN OVC034 M08/M10 A2959 RMK SLP058,CZUM,2021-01-14T04:25:00Z,53.55,-64.1,-8.0,-10.0,210,4,,3.0,29.589567,1005.8,,TRUE,,,,,,,-SN,OVC,3400,,,,,,,MVFR,,,,,,,,,,,,SPECI,431.0
CYQD 140425Z AUTO 03005KT 340V050 9SM OVC022 M04/M06 A2918 RMK SLP900,CYQD,2021-01-14T04:25:00Z,53.97,-101.08,-4.0,-6.0,30,5,,9.0,29.179134,990.0,,TRUE,,,,,,,,OVC,2200,,,,,,,MVFR,,,,,,,,,,,,SPECI,268.0
CYPY 140425Z AUTO 30010G15KT 280V360 9SM -SN OVC045 M03/M07 A2955 RMK SLP016,CYPY,2021-01-14T04:25:00Z,58.77,-111.12,-3.0,-7.0,300,10,15,9.0,29.551182,1001.6,,TRUE,,,,,,,-SN,OVC,4500,,,,,,,VFR,,,,,,,,,,,,SPECI,225.0
CYNM 140425Z AUTO 25005KT 6SM BR FEW006 SCT015 BKN023 OVC120 M03/M03 A2957 RMK SLP035,CYNM,2021-01-14T04:25:00Z,49.77,-77.78,-3.0,-3.0,250,5,,6.0,29.568897,1003.5,,TRUE,,,,,,,BR,FEW,600,SCT,1500,BKN,2300,OVC,12000,MVFR,,,,,,,,,,,,SPECI,276.0
CYEK 140425Z AUTO 03004KT 2SM -SN OVC035 M08/M08 A2944 RMK SLP974,CYEK,2021-01-14T04:25:00Z,61.1,-94.07,-8.0,-8.0,30,4,,2.0,29.438976,997.4,,TRUE,,,,,,,-SN,OVC,3500,,,,,,,IFR,,,,,,,,,,,,SPECI,7.0
PAII 140424Z AUTO VRB06KT 10SM SCT005 BKN037 M04/M05 A2959 RMK AO2 FZRANO,PAII,2021-01-14T04:24:00Z,58.18,-157.38,-4.0,-5.0,0,6,,10.0,29.589567,,,TRUE,TRUE,,,,TRUE,,,SCT,500,BKN,3700,,,,,VFR,,,,,,,,,,,,SPECI,31.0
KTCL 140424Z 00000KT 2 1/2SM BR CLR M02/M02 A3005 RMK AO2 T10171017,KTCL,2021-01-14T04:24:00Z,33.22,-87.62,-1.7,-1.7,0,0,,2.5,30.050198,,,,TRUE,,,,,,BR,CLR,,,,,,,,IFR,,,,,,,,,,,,SPECI,48.0
KSAR 140424Z AUTO 18006KT 10SM CLR 04/00 A2979 RMK AO2,KSAR,2021-01-14T04:24:00Z,38.15,-89.7,4.0,0.0,180,6,,10.0,29.790354,,,TRUE,TRUE,,,,,,,CLR,,,,,,,,VFR,,,,,,,,,,,,METAR,162.0
KCMX 140424Z AUTO 10006KT 3SM BR BKN007 M03/M05 A2961 RMK AO2 T10281050,KCMX,2021-01-14T04:24:00Z,47.17,-88.48,-2.8,-5.0,100,6,,3.0,29.610237,,,TRUE,TRUE,,,,,,BR,BKN,700,,,,,,,IFR,,,,,,,,,,,,METAR,326.0
KBFF 140424Z AUTO 32019G28KT 2SM -SN BR OVC024 01/00 A2988 RMK AO2 PK WND 33039/0356 P0000 T00110000,KBFF,2021-01-14T04:24:00Z,41.87,-103.6,1.1,0.0,320,19,28,2.0,29.878937,,,TRUE,TRUE,,,,,,-SN BR,OVC,2400,,,,,,,IFR,,,,,,0.005,,,,,,SPECI,1204.0
KAGS 140424Z 00000KT 3SM BR SCT100 03/02 A2998 RMK AO2 T00280017,KAGS,2021-01-14T04:24:00Z,33.37,-81.97,2.8,1.7,0,0,,3.0,29.97933,,,,TRUE,,,,,,BR,SCT,10000,,,,,,,MVFR,,,,,,,,,,,,SPECI,40.0
CYZX 140424Z 21003KT 15SM -SHSN OVC027 00/M03 A2993 RMK SC8 SLP137,CYZX,2021-01-14T04:24:00Z,44.98,-64.92,0.0,-3.0,210,3,,15.0,29.929134,1013.7,,,,,,,,,-SHSN,OVC,2700,,,,,,,MVFR,,,,,,,,,,,,SPECI,28.0
CYOY 140424Z AUTO 00000KT 3SM -SN BKN021 OVC032 M02/M03 A2976,CYOY,2021-01-14T04:24:00Z,46.88,-71.5,-2.0,-3.0,0,0,,3.0,29.760826,,,TRUE,,,,,,,-SN,BKN,2100,OVC,3200,,,,,MVFR,,,,,,,,,,,,SPECI,167.0
PAOM 140423Z 12006KT 5SM BR OVC008 M07/M09 A2955 RMK AO2 FZRAB0359E17 P0000 I1001 T10721089 $,PAOM,2021-01-14T04:23:00Z,64.5,-165.43,-7.2,-8.9,120,6,,5.0,29.551182,,,,TRUE,TRUE,,,,,BR,OVC,800,,,,,,,IFR,,,,,,0.005,,,,,,SPECI,6.0
KGZH 140423Z AUTO 00000KT 1 3/4SM BR CLR 01/M01 A3008 RMK AO2 T00111011,KGZH,2021-01-14T04:23:00Z,31.42,-87.05,1.1,-1.1,0,0,,1.75,30.079725,,,TRUE,TRUE,,,,,,BR,CLR,,,,,,,,IFR,,,,,,,,,,,,SPECI,77.0
KGSP 140423Z 22006KT 6SM BR OVC005 04/02 A2993 RMK AO2 T00390017,KGSP,2021-01-14T04:23:00Z,34.9,-82.22,3.9,1.7,220,6,,6.0,29.929134,,,,TRUE,,,,,,BR,OVC,500,,,,,,,IFR,,,,,,,,,,,,SPECI,285.0
KDZB 140423Z AUTO 21007KT 10SM CLR 10/00 A2999 RMK AO2,KDZB,2021-01-14T04:23:00Z,30.53,-98.37,10.0,0.0,210,7,,10.0,29.991142,,,TRUE,TRUE,,,,,,,CLR,,,,,,,,VFR,,,,,,,,,,,,METAR,329.0
FAGG 140423Z 34003KT 0550 R29/0700D FG SCT001 OVC004 18/18 Q1009,FAGG,2021-01-14T04:23:00Z,-34.0,22.37,18.0,18.0,340,3,,0.34,29.793306,,,,,,,,,,FG,SCT,100,OVC,400,,,,,LIFR,,,,,,,,,,,,SPECI,196.0
CYWK 140423Z AUTO 22006KT 9SM BKN014 OVC075 M08/M10 A2959 RMK SLP063,CYWK,2021-01-14T04:23:00Z,52.92,-66.87,-8.0,-10.0,220,6,,9.0,29.589567,1006.3,,TRUE,,,,,,,,BKN,1400,OVC,7500,,,,,MVFR,,,,,,,,,,,,SPECI,547.0
SADF 140422Z 06016G26KT CAVOK 21/11 Q1020,SADF,2021-01-14T04:22:00Z,-34.45,-58.58,21.0,11.0,60,16,26,6.21,30.11811,,,,,,,,,,,CAVOK,,,,,,,,VFR,,,,,,,,,,,,SPECI,4.0
PHNY 140422Z AUTO 00000KT 10SM BKN011 21/21 A3005 RMK AO2,PHNY,2021-01-14T04:22:00Z,20.77,-156.95,21.0,21.0,0,0,,10.0,30.050198,,,TRUE,TRUE,,,,,,,BKN,1100,,,,,,,MVFR,,,,,,,,,,,,METAR,395.0
PAPM 140422Z AUTO 34010KT 2 1/2SM -SN BR OVC007 M07/M08 A2953 RMK AO2 P0000 FZRANO,PAPM,2021-01-14T04:22:00Z,59.02,-161.82,-7.0,-8.0,340,10,,2.5,29.530512,,,TRUE,TRUE,,,,TRUE,,-SN BR,OVC,700,,,,,,,IFR,,,,,,0.005,,,,,,SPECI,4.0
PADU 140422Z AUTO 30013KT 2SM -SN SCT006 BKN015 OVC033 M02/M06 A2950 RMK AO2 SNB04 P0000 FZRANO,PADU,2021-01-14T04:22:00Z,53.9,-166.53,-2.0,-6.0,300,13,,2.0,29.500984,,,TRUE,TRUE,,,,TRUE,,-SN,SCT,600,BKN,1500,OVC,3300,,,IFR,,,,,,0.005,,,,,,SPECI,4.0
KSDY 140422Z AUTO 29034G52KT 7SM UP FEW017 BKN023 OVC029 02/M03 A2955 RMK AO2 PK WND 28052/0416 RAE19UPB19 P0000 FZRANO,KSDY,2021-01-14T04:22:00Z,47.7,-104.2,2.0,-3.0,290,34,52,7.0,29.551182,,,TRUE,TRUE,,,,TRUE,,UP,FEW,1700,BKN,2300,OVC,2900,,,MVFR,,,,,,0.005,,,,,,SPECI,600.0
KCEC 140422Z AUTO 00000KT 1SM BR VV003 11/11 A3041 RMK AO2 T01110111,KCEC,2021-01-14T04:22:00Z,41.78,-124.23,11.1,11.1,0,0,,1.0,30.410433,,,TRUE,TRUE,,,,,,BR,OVX,0,,,,,,,LIFR,,,,,,,,,,,300,SPECI,17.0
PFKT 140421Z AUTO 09011KT 9SM -SN BKN029 OVC035 M12/M13 A2957 RMK AO2 P0000 FZRANO,PFKT,2021-01-14T04:21:00Z,65.33,-166.47,-12.0,-13.0,90,11,,9.0,29.568897,,,TRUE,TRUE,,,,TRUE,,-SN,BKN,2900,OVC,3500,,,,,MVFR,,,,,,0.005,,,,,,SPECI,8.0
LHSN 140421Z 23006KT 9999 -SN BKN049 OVC070 00/M03 Q1006 RMK BLU,LHSN,2021-01-14T04:21:00Z,47.12,20.23,0.0,-3.0,230,6,,6.21,29.704725,,,,,,,,,,-SN,BKN,4900,OVC,7000,,,,,VFR,,,,,,,,,,,,SPECI,89.0
KTMA 140421Z AUTO 00000KT 10SM CLR 04/03 A3005 RMK AO2,KTMA,2021-01-14T04:21:00Z,31.43,-83.48,4.0,3.0,0,0,,10.0,30.050198,,,TRUE,TRUE,,,,,,,CLR,,,,,,,,VFR,,,,,,,,,,,,METAR,105.0
CYQR 140421Z 31039G52KT 1/8SM R13/1100V1600FT/N SN +BLSN VV005 M02/M02 A2916 RMK SN8 SLP904,CYQR,2021-01-14T04:21:00Z,50.43,-104.67,-2.0,-2.0,310,39,52,0.13,29.161417,990.4,,,,,,,,,BLSN SN,OVX,0,,,,,,,LIFR,,,,,,,,,,,500,SPECI,576.0
VNKT 140420Z VRB02KT 2500 BR FEW010 SCT030 BKN100 11/07 Q1020 NOSIG,VNKT,2021-01-14T04:20:00Z,27.68,85.37,11.0,7.0,0,2,,1.55,30.11811,,,,,,TRUE,,,,BR,FEW,1000,SCT,3000,BKN,10000,,,IFR,,,,,,,,,,,,METAR,1334.0
PKWA 140420Z AUTO 08016KT 10SM SCT028 SCT033 30/24 A2974 RMK AO2 T02960237,PKWA,2021-01-14T04:20:00Z,8.72,167.72,29.6,23.7,80,16,,10.0,29.740158,,,TRUE,TRUE,,,,,,,SCT,2800,SCT,3300,,,,,VFR,,,,,,,,,,,,METAR,6.0
LTFM 140420Z 34016KT 9999 SCT012 BKN025 BKN080 04/M01 Q1009 NOSIG RMK RWY17L 34015KT RWY34L 33014KT RWY16R 33013KT RWY36 34016KT RWY18 33015KT,LTFM,2021-01-14T04:20:00Z,41.27,28.75,4.0,-1.0,340,16,,6.21,29.793306,,,,,,TRUE,,,,,SCT,1200,BKN,2500,BKN,8000,,,MVFR,,,,,,,,,,,,METAR,99.0
LTFJ 140420Z 36010KT 330V050 9999 -SHRA FEW014 SCT026 BKN070 04/02 Q1008 NOSIG RMK RWY24 01010KT,LTFJ,2021-01-14T04:20:00Z,40.9,29.3,4.0,2.0,360,10,,6.21,29.763779,,,,,,TRUE,,,,-SHRA,FEW,1400,SCT,2600,BKN,7000,,,VFR,,,,,,,,,,,,METAR,83.0
LTFE 140420Z 16004KT 140V200 9999 FEW035 SCT100 07/05 Q1007 NOSIG RMK RWY10 VRB02KT,LTFE,2021-01-14T04:20:00Z,37.25,27.67,7.0,5.0,160,4,,6.21,29.734253,,,,,,TRUE,,,,,FEW,3500,SCT,10000,,,,,VFR,,,,,,,,,,,,SPECI,6.0
LTFC 140420Z 34003KT 9999 SCT030 BKN100 03/02 Q1004 RMK RWY23 35004KT,LTFC,2021-01-14T04:20:00Z,37.87,30.38,3.0,2.0,340,3,,6.21,29.64567,,,,,,,,,,,SCT,3000,BKN,10000,,,,,VFR,,,,,,,,,,,,METAR,862.0
LTCS 140420Z 10011KT 9999 SCT020 BKN080 06/06 Q1009 RMK RWY22 13013KT 3SC020 7AC080,LTCS,2021-01-14T04:20:00Z,37.45,38.9,6.0,6.0,100,11,,6.21,29.793306,,,,,,,,,,,SCT,2000,BKN,8000,,,,,VFR,,,,,,,,,,,,METAR,825.0
LTCJ 140420Z 13019KT 9999 -SHRA SCT030 BKN080 08/05 Q1010 RMK RWY20 15016KT 4CU030 7AC080,LTCJ,2021-01-14T04:20:00Z,37.93,41.12,8.0,5.0,130,19,,6.21,29.822834,,,,,,,,,,-SHRA,SCT,3000,BKN,8000,,,,,VFR,,,,,,,,,,,,SPECI,559.0
LTCG 140420Z 30011KT 8000 -SHRA BKN006 BKN025 09/08 Q1008 NOSIG RMK RWY29 30015KT,LTCG,2021-01-14T04:20:00Z,41.0,39.77,9.0,8.0,300,11,,4.97,29.763779,,,,,,TRUE,,,,-SHRA,BKN,600,BKN,2500,,,,,IFR,,,,,,,,,,,,SPECI,28.0
LTCE 140420Z 19016G28KT 9999 SCT035 BKN080 03/M02 Q1007 NOSIG RMK RWY08R 18022KT RWY26R 19018KT RWY08L 19022G32KT,LTCE,2021-01-14T04:20:00Z,39.95,41.17,3.0,-2.0,190,16,28,6.21,29.734253,,,,,,TRUE,,,,,SCT,3500,BKN,8000,,,,,VFR,,,,,,,,,,,,SPECI,1758.0
LTCC 140420Z 06005KT 040V100 9999 -RA BKN035 BKN100 06/04 Q1010 NOSIG RMK RWY16 05003KT 350V100,LTCC,2021-01-14T04:20:00Z,37.88,40.2,6.0,4.0,60,5,,6.21,29.822834,,,,,,TRUE,,,,-RA,BKN,3500,BKN,10000,,,,,VFR,,,,,,,,,,,,SPECI,676.0
LTBU 140420Z 32007KT 9999 SCT030 BKN080 01/M01 Q1009 RMK RWY22 31007KT,LTBU,2021-01-14T04:20:00Z,41.13,27.92,1.0,-1.0,320,7,,6.21,29.793306,,,,,,,,,,,SCT,3000,BKN,8000,,,,,VFR,,,,,,,,,,,,METAR,165.0
LTBS 140420Z 07005KT 9999 SCT025 BKN060 09/07 Q1006 NOSIG RMK RWY19 03005KT 3CU025 6AC060,LTBS,2021-01-14T04:20:00Z,36.7,28.78,9.0,7.0,70,5,,6.21,29.704725,,,,,,TRUE,,,,,SCT,2500,BKN,6000,,,,,VFR,,,,,,,,,,,,SPECI,2.0
LTBR 140420Z 28001KT 7000 -SHRA FEW015 BKN023 BKN080 04/03 Q1007 NOSIG RMK RWY07 27004KT,LTBR,2021-01-14T04:20:00Z,40.25,29.57,4.0,3.0,280,1,,4.35,29.734253,,,,,,TRUE,,,,-SHRA,FEW,1500,BKN,2300,BKN,8000,,,MVFR,,,,,,,,,,,,METAR,233.0
LTBJ 140420Z 10005KT 9999 SCT030 BKN090 06/06 Q1006 RESHRA NOSIG RMK RWY16 VRB02KT,LTBJ,2021-01-14T04:20:00Z,38.28,27.15,6.0,6.0,100,5,,6.21,29.704725,,,,,,TRUE,,,,,SCT,3000,BKN,9000,,,,,VFR,,,,,,,,,,,,SPECI,123.0
LTBA 140420Z 35014KT 9999 FEW020 SCT035 BKN070 04/M00 Q1009 NOSIG RMK RWY23 35014KT,LTBA,2021-01-14T04:20:00Z,40.97,28.82,4.0,0.0,350,14,,6.21,29.793306,,,,,,TRUE,,,,,FEW,2000,SCT,3500,BKN,7000,,,VFR,,,,,,,,,,,,SPECI,33.0
LTAZ 140420Z 14007KT 6000 BKN030 BKN090 01/01 Q1005 RMK RWY29 11006KT,LTAZ,2021-01-14T04:20:00Z,38.77,34.52,1.0,1.0,140,7,,3.73,29.675198,,,,,,,,,,,BKN,3000,BKN,9000,,,,,MVFR,,-0.6,,,,,,,,,,METAR,944.0
LTAU 140420Z 00000KT 3200 BR SCT015 BKN035 BKN090 00/00 Q1004 NOSIG RMK RWY07 VRB02KT,LTAU,2021-01-14T04:20:00Z,38.77,35.48,0.0,0.0,0,0,,1.99,29.64567,,,,,,TRUE,,,,BR,SCT,1500,BKN,3500,BKN,9000,,,IFR,,,,,,,,,,,,SPECI,1053.0
LTAT 140420Z 21005KT 9999 FEW018 BKN035 BKN090 02/01 Q1008 NOSIG RMK RWY03 21005KT,LTAT,2021-01-14T04:20:00Z,38.43,38.08,2.0,1.0,210,5,,6.21,29.763779,,,,,,TRUE,,,,,FEW,1800,BKN,3500,BKN,9000,,,VFR,,,-0.5,,,,,,,,,SPECI,850.0
LTAP 140420Z 05003KT 9999 SCT005 BKN020 OVC080 05/03 Q1004 NOSIG RMK RWY23 05005KT,LTAP,2021-01-14T04:20:00Z,40.83,35.52,5.0,3.0,50,3,,6.21,29.64567,,,,,,TRUE,,,,,SCT,500,BKN,2000,OVC,8000,,,MVFR,,,,,,,,,,,,SPECI,536.0
LTAJ 140420Z 00000KT 3200 BR BKN002 BKN020 OVC080 08/08 Q1006 RERA NOSIG RMK RWY10 VRB03KT 5ST002 6SC020 8AS080,LTAJ,2021-01-14T04:20:00Z,36.95,37.48,8.0,8.0,0,0,,1.99,29.704725,,,,,,TRUE,,,,BR,BKN,200,BKN,2000,OVC,8000,,,LIFR,,,,,,,,,,,,SPECI,684.0
LTAI 140420Z 14003KT 080V210 9999 FEW020CB BKN030 10/05 Q1004 NOSIG RMK RWY18C 19004KT 160V280 RWY36R VRB02KT RWY18L VRB04KT,LTAI,2021-01-14T04:20:00Z,36.9,30.8,10.0,5.0,140,3,,6.21,29.64567,,,,,,TRUE,,,,,FEW,2000,BKN,3000,,,,,MVFR,,,,,,,,,,,,SPECI,50.0
LTAG 140420Z 02004KT 9999 FEW035 SCT120 08/08 Q1004 RMK 2CU035 4AC120,LTAG,2021-01-14T04:20:00Z,37.0,35.42,8.0,8.0,20,4,,6.21,29.64567,,,,,,,,,,,FEW,3500,SCT,12000,,,,,VFR,,,,,,,,,,,,SPECI,62.0
LTAF 140420Z 00000KT 9999 SCT035 08/08 Q1004 NOSIG RMK RWY23 00000KT,LTAF,2021-01-14T04:20:00Z,36.98,35.28,8.0,8.0,0,0,,6.21,29.64567,,,,,,TRUE,,,,,SCT,3500,,,,,,,VFR,,,,,,,,,,,,SPECI,19.0
LTAC 140420Z 15004KT 070V170 4200 -SN BKN025 BKN090 01/M00 Q1003 BECMG 8000,LTAC,2021-01-14T04:20:00Z,40.12,32.98,1.0,0.0,150,4,,2.61,29.616142,,,,,,,,,,-SN,BKN,2500,BKN,9000,,,,,IFR,,,,,,,,,,,,SPECI,952.0
LSZS 140420Z AUTO 35019G31KT 310V020 1400 SN VV009 00/M04 Q1008,LSZS,2021-01-14T04:20:00Z,46.53,9.88,0.0,-4.0,350,19,31,0.87,29.763779,,,TRUE,,,,,,,SN,OVX,0,,,,,,,LIFR,,,,,,,,,,,900,METAR,1708.0
LSZR 140420Z AUTO 31013KT 9999 RA BKN008 OVC010 05/05 Q1015,LSZR,2021-01-14T04:20:00Z,47.48,9.57,5.0,5.0,310,13,,6.21,29.970472,,,TRUE,,,,,,,RA,BKN,800,OVC,1000,,,,,IFR,,,,,,,,,,,,METAR,396.0
LSZL 140420Z AUTO VRB01KT 9999NDV FEW099 02/02 Q1009 RMK,LSZL,2021-01-14T04:20:00Z,46.17,8.88,2.0,2.0,0,1,,,29.793306,,,TRUE,,,,,,,,FEW,9900,,,,,,,,,,,,,,,,,,,SPECI,198.0
LSZH 140420Z 24010KT 6000 -RADZ BKN010 OVC020 04/03 Q1015 NOSIG,LSZH,2021-01-14T04:20:00Z,47.48,8.53,4.0,3.0,240,10,,3.73,29.970472,,,,,,TRUE,,,,-RA -DZ,BKN,1000,OVC,2000,,,,,MVFR,,,,,,,,,,,,METAR,424.0
LSZG 140420Z AUTO 25015KT 9999 -DZ OVC007 OVC009 04/04 Q1018,LSZG,2021-01-14T04:20:00Z,47.17,7.42,4.0,4.0,250,15,,6.21,30.059055,,,TRUE,,,,,,,-DZ,OVC,700,OVC,900,,,,,IFR,,,,,,,,,,,,METAR,428.0
LSZC 140420Z AUTO 20007KT 150V240 9999 -RA SCT032 BKN036 06/03 Q1016,LSZC,2021-01-14T04:20:00Z,46.97,8.38,6.0,3.0,200,7,,6.21,30.0,,,TRUE,,,,,,,-RA,SCT,3200,BKN,3600,,,,,VFR,,,,,,,,,,,,METAR,445.0
LSZB 140420Z AUTO 26012KT 210V290 7000 DZ FEW033 BKN048 06/02 Q1017,LSZB,2021-01-14T04:20:00Z,46.92,7.5,6.0,2.0,260,12,,4.35,30.029528,,,TRUE,,,,,,,DZ,FEW,3300,BKN,4800,,,,,MVFR,,,,,,,,,,,,METAR,510.0
LSZA 140420Z AUTO 36003KT 330V070 CAVOK 00/M01 Q1009,LSZA,2021-01-14T04:20:00Z,46.0,8.92,0.0,-1.0,360,3,,6.21,29.793306,,,TRUE,,,,,,,,CAVOK,,,,,,,,VFR,,,,,,,,,,,,METAR,276.0
LSMP 140420Z AUTO 23013KT 9999NDV FEW027 BKN057 05/03 Q1019 RMK,LSMP,2021-01-14T04:20:00Z,46.83,6.92,5.0,3.0,230,13,,,30.088583,,,TRUE,,,,,,,,FEW,2700,BKN,5700,,,,,,,,,,,,,,,,,METAR,490.0
LSMM 140420Z AUTO 27014KT 7000NDV -RA FEW009 SCT021 OVC028 04/03 Q1016 RMK,LSMM,2021-01-14T04:20:00Z,46.75,8.12,4.0,3.0,270,14,,,30.0,,,TRUE,,,,,,,-RA,FEW,900,SCT,2100,OVC,2800,,,,,,,,,,,,,,,METAR,570.0
LSME 140420Z AUTO 26006KT 190V280 9999NDV -RA OVC032 06/03 Q1016 RMK,LSME,2021-01-14T04:20:00Z,47.1,8.3,6.0,3.0,260,6,,,30.0,,,TRUE,,,,,,,-RA,OVC,3200,,,,,,,,,,,,,,,,,,,METAR,427.0
LSMD 140420Z AUTO 26013KT 230V290 5000NDV -RA FEW014 SCT017 OVC021 05/03 Q1015 RMK,LSMD,2021-01-14T04:20:00Z,47.4,8.65,5.0,3.0,260,13,,,29.970472,,,TRUE,,,,,,,-RA,FEW,1400,SCT,1700,OVC,2100,,,,,,,,,,,,,,,METAR,436.0
LSMA 140420Z AUTO 19005KT 170V230 9999NDV -RA OVC044 05/04 Q1016 RMK,LSMA,2021-01-14T04:20:00Z,46.95,8.28,5.0,4.0,190,5,,,30.0,,,TRUE,,,,,,,-RA,OVC,4400,,,,,,,,,,,,,,,,,,,METAR,441.0
LSGS 140420Z AUTO 27006KT 230V360 9999 -RA BKN/// 04/02 Q1018,LSGS,2021-01-14T04:20:00Z,46.22,7.32,4.0,2.0,270,6,,6.21,30.059055,,,TRUE,,,,,,,-RA,,,,,,,,,,,,,,,,,,,,,SPECI,482.0
LSGG 140420Z AUTO VRB02KT 9999 FEW023 SCT031 BKN036 03/03 Q1021 NOSIG,LSGG,2021-01-14T04:20:00Z,46.25,6.12,3.0,3.0,0,2,,6.21,30.147638,,,TRUE,,,TRUE,,,,,FEW,2300,SCT,3100,BKN,3600,,,VFR,,,,,,,,,,,,METAR,411.0
LSGC 140420Z AUTO 23012KT 9999 -SN OVC006 01/01 Q1017,LSGC,2021-01-14T04:20:00Z,47.08,6.8,1.0,1.0,230,12,,6.21,30.029528,,,TRUE,,,,,,,-SN,OVC,600,,,,,,,IFR,,,,,,,,,,,,METAR,1018.0
LOWW 140420Z 30018KT 9999 -SN FEW019 BKN038 01/M03 Q1006 NOSIG,LOWW,2021-01-14T04:20:00Z,48.12,16.57,1.0,-3.0,300,18,,6.21,29.704725,,,,,,TRUE,,,,-SN,FEW,1900,BKN,3800,,,,,VFR,,,,,,,,,,,,METAR,179.0
LOWS 140420Z AUTO 29015KT 260V320 9999 -SHRA FEW022 SCT028 BKN036 03/M02 Q1010,LOWS,2021-01-14T04:20:00Z,47.78,13.02,3.0,-2.0,290,15,,6.21,29.822834,,,TRUE,,,,,,,-SHRA,FEW,2200,SCT,2800,BKN,3600,,,VFR,,,,,,,,,,,,METAR,427.0
LOWL 140420Z 29024KT 6000 -SHSN FEW006 SCT012 BKN050 00/M02 Q1008 R08/19//95 NOSIG,LOWL,2021-01-14T04:20:00Z,48.22,14.18,0.0,-2.0,290,24,,3.73,29.763779,,,,,,TRUE,,,,-SHSN,FEW,600,SCT,1200,BKN,5000,,,MVFR,,,,,,,,,,,,SPECI,290.0
LOWK 140420Z AUTO 30006KT 9999 FEW050 BKN070 M07/M08 Q1007,LOWK,2021-01-14T04:20:00Z,46.65,14.32,-7.0,-8.0,300,6,,6.21,29.734253,,,TRUE,,,,,,,,FEW,5000,BKN,7000,,,,,VFR,,,,,,,,,,,,METAR,450.0
LOWI 140420Z AUTO VRB04KT 1600 SN FEW001 BKN004 00/M00 Q1011,LOWI,2021-01-14T04:20:00Z,47.27,11.33,0.0,0.0,0,4,,0.99,29.852362,,,TRUE,,,,,,,SN,FEW,100,BKN,400,,,,,LIFR,,,,,,,,,,,,METAR,570.0
LOWG 140420Z AUTO 35004KT 9999 -SN FEW046 BKN050 M05/M07 Q1006,LOWG,2021-01-14T04:20:00Z,47.0,15.43,-5.0,-7.0,350,4,,6.21,29.704725,,,TRUE,,,,,,,-SN,FEW,4600,BKN,5000,,,,,VFR,,,,,,,,,,,,METAR,337.0
LLBG 140420Z 21006KT 9999 SCT030 15/11 Q1010 TEMPO 22012KT RA FEW020TCU BKN025 RMK RERA,LLBG,2021-01-14T04:20:00Z,32.0,34.88,15.0,11.0,210,6,,6.21,29.822834,,,,,,,,,,,SCT,3000,,,,,,,VFR,,,,,,,,,,,,METAR,35.0
LIRZ 140420Z AUTO VRB01KT //// // OVC033 03/03 Q1012,LIRZ,2021-01-14T04:20:00Z,43.1,12.5,3.0,3.0,0,1,,,29.88189,,,TRUE,,,,,,,,OVC,3300,,,,,,,,,,,,,,,,,,,METAR,206.0
LIRQ 140420Z VRB01KT 6000 SCT025 04/04 Q1012,LIRQ,2021-01-14T04:20:00Z,43.8,11.2,4.0,4.0,0,1,,3.73,29.88189,,,,,,,,,,,SCT,2500,,,,,,,MVFR,,,,,,,,,,,,METAR,33.0
LIRN 140420Z VRB01KT CAVOK 03/01 Q1014 NOSIG,LIRN,2021-01-14T04:20:00Z,40.88,14.3,3.0,1.0,0,1,,6.21,29.940945,,,,,,TRUE,,,,,CAVOK,,,,,,,,VFR,,,,,,,,,,,,METAR,76.0
LIRF 140420Z 09009KT 9999 SCT035 05/04 Q1012 NOSIG,LIRF,2021-01-14T04:20:00Z,41.78,12.23,5.0,4.0,90,9,,6.21,29.88189,,,,,,TRUE,,,,,SCT,3500,,,,,,,VFR,,,,,,,,,,,,METAR,2.0
LIRA 140420Z 03003KT 310V070 9999 FEW030 03/02 Q1012,LIRA,2021-01-14T04:20:00Z,41.8,12.58,3.0,2.0,30,3,,6.21,29.88189,,,,,,,,,,,FEW,3000,,,,,,,VFR,,,,,,,,,,,,METAR,101.0
LIPZ 140420Z 33003KT 9999 SCT025 M01/M03 Q1009 NOSIG,LIPZ,2021-01-14T04:20:00Z,45.5,12.35,-1.0,-3.0,330,3,,6.21,29.793306,,,,,,TRUE,,,,,SCT,2500,,,,,,,VFR,,,,,,,,,,,,METAR,3.0
LIPY 140420Z AUTO 20005KT 9999 NCD 07/06 Q1009,LIPY,2021-01-14T04:20:00Z,43.62,13.37,7.0,6.0,200,5,,6.21,29.793306,,,TRUE,,,,,,,,CLR,,,,,,,,VFR,,,,,,,,,,,,METAR,11.0
LIPX 140420Z VRB01KT CAVOK M04/M05 Q1009,LIPX,2021-01-14T04:20:00Z,45.38,10.87,-4.0,-5.0,0,1,,6.21,29.793306,,,,,,,,,,,CAVOK,,,,,,,,VFR,,,,,,,,,,,,METAR,67.0
LIPR 140420Z AUTO VRB02KT 9999 NCD M03/M04 Q1009,LIPR,2021-01-14T04:20:00Z,44.02,12.62,-3.0,-4.0,0,2,,6.21,29.793306,,,TRUE,,,,,,,,CLR,,,,,,,,VFR,,,,,,,,,,,,METAR,10.0
LIPQ 140420Z AUTO VRB02KT 9999 BKN042/// 00/M02 Q1008,LIPQ,2021-01-14T04:20:00Z,45.82,13.47,0.0,-2.0,0,2,,6.21,29.763779,,,TRUE,,,,,,,,BKN,4200,,,,,,,VFR,,,,,,,,,,,,METAR,6.0
LIPO 140420Z AUTO 25004KT 9999 NCD M02/M04 Q1009,LIPO,2021-01-14T04:20:00Z,45.42,10.33,-2.0,-4.0,250,4,,6.21,29.793306,,,TRUE,,,,,,,,CLR,,,,,,,,VFR,,,,,,,,,,,,METAR,104.0
LIPH 140420Z AUTO 33003KT 9999 SCT023/// M01/M04 Q1009,LIPH,2021-01-14T04:20:00Z,45.63,12.18,-1.0,-4.0,330,3,,6.21,29.793306,,,TRUE,,,,,,,,SCT,2300,,,,,,,VFR,,,,,,,,,,,,METAR,10.0
LIPE 140420Z 25003KT CAVOK M02/M03 Q1009,LIPE,2021-01-14T04:20:00Z,44.52,11.3,-2.0,-3.0,250,3,,6.21,29.793306,,,,,,,,,,,CAVOK,,,,,,,,VFR,,,,,,,,,,,,METAR,37.0
LIMZ 140420Z AUTO VRB02KT 9999 NCD M00/M03 Q1009,LIMZ,2021-01-14T04:20:00Z,44.53,7.62,0.0,-3.0,0,2,,6.21,29.793306,,,TRUE,,,,,,,,CLR,,,,,,,,VFR,,,,,,,,,,,,METAR,377.0
LIML 140420Z AUTO VRB02KT 9999 NCD 00/M03 Q1009,LIML,2021-01-14T04:20:00Z,45.47,9.27,0.0,-3.0,0,2,,6.21,29.793306,,,TRUE,,,,,,,,CLR,,,,,,,,VFR,,,,,,,,,,,,METAR,109.0
LIMJ 140420Z 02004KT 340V090 9999 FEW020 SCT030 06/05 Q1011,LIMJ,2021-01-14T04:20:00Z,44.42,8.83,6.0,5.0,20,4,,6.21,29.852362,,,,,,,,,,,FEW,2000,SCT,3000,,,,,VFR,,,,,,,,,,,,METAR,3.0
LIMF 140420Z VRB02KT 6000 NSC M01/M02 Q1009,LIMF,2021-01-14T04:20:00Z,45.22,7.65,-1.0,-2.0,0,2,,3.73,29.793306,,,,,,,,,,,CLR,,,,,,,,MVFR,,,,,,,,,,,,METAR,295.0
LIME 140420Z 01002KT CAVOK M01/M03 Q1008 NOSIG,LIME,2021-01-14T04:20:00Z,45.67,9.7,-1.0,-3.0,10,2,,6.21,29.763779,,,,,,TRUE,,,,,CAVOK,,,,,,,,VFR,,,,,,,,,,,,METAR,239.0
LIMC 140420Z 24003KT 160V320 CAVOK M01/M05 Q1009 NOSIG,LIMC,2021-01-14T04:20:00Z,45.62,8.72,-1.0,-5.0,240,3,,6.21,29.793306,,,,,,TRUE,,,,,CAVOK,,,,,,,,VFR,,,,,,,,,,,,METAR,221.0
LIEO 140420Z 26024G34KT 9999 SCT030 13/07 Q1013,LIEO,2021-01-14T04:20:00Z,40.88,9.52,13.0,7.0,260,24,34,6.21,29.911417,,,,,,,,,,,SCT,3000,,,,,,,VFR,,,,,,,,,,,,METAR,8.0
LIEA 140420Z 30011KT 260V320 9999 SCT035 13/08 Q1018,LIEA,2021-01-14T04:20:00Z,40.62,8.28,13.0,8.0,300,11,,6.21,30.059055,,,,,,,,,,,SCT,3500,,,,,,,VFR,,,,,,,,,,,,METAR,22.0
LICR 140420Z AUTO 02006KT 9999 SCT042/// 13/09 Q1016,LICR,2021-01-14T04:20:00Z,38.07,15.65,13.0,9.0,20,6,,6.21,30.0,,,TRUE,,,,,,,,SCT,4200,,,,,,,VFR,,,,,,,,,,,,METAR,16.0
LICJ 140420Z 19009KT 9999 BKN025 13/09 Q1016,LICJ,2021-01-14T04:20:00Z,38.17,13.08,13.0,9.0,190,9,,6.21,30.0,,,,,,,,,,,BKN,2500,,,,,,,MVFR,,,,,,,,,,,,METAR,20.0
LICD 140420Z AUTO 31014KT 270V330 9999 -RA BKN022/// 14/12 Q1019,LICD,2021-01-14T04:20:00Z,35.5,12.62,14.0,12.0,310,14,,6.21,30.088583,,,TRUE,,,,,,,-RA,BKN,2200,,,,,,,MVFR,,,,,,,,,,,,METAR,20.0
LICC 140420Z 24009KT CAVOK 07/05 Q1016,LICC,2021-01-14T04:20:00Z,37.47,15.05,7.0,5.0,240,9,,6.21,30.0,,,,,,,,,,,CAVOK,,,,,,,,VFR,,,,,,,,,,,,METAR,6.0
LICB 140420Z AUTO 06005KT 9999 NCD 04/03 Q1017,LICB,2021-01-14T04:20:00Z,37.0,14.62,4.0,3.0,60,5,,6.21,30.029528,,,TRUE,,,,,,,,CLR,,,,,,,,VFR,,,,,,,,,,,,METAR,212.0
LICA 140420Z AUTO 09005KT 9999 BKN031/// 05/04 Q1015,LICA,2021-01-14T04:20:00Z,38.9,16.25,5.0,4.0,90,5,,6.21,29.970472,,,TRUE,,,,,,,,BKN,3100,,,,,,,VFR,,,,,,,,,,,,METAR,7.0
LIBR 140420Z AUTO 27007KT 9999 NCD 05/02 Q1013,LIBR,2021-01-14T04:20:00Z,40.65,17.95,5.0,2.0,270,7,,6.21,29.911417,,,TRUE,,,,,,,,CLR,,,,,,,,VFR,,,,,,,,,,,,METAR,5.0
LIBP 140420Z AUTO VRB02KT 9999 NCD M01/M02 Q1009,LIBP,2021-01-14T04:20:00Z,42.42,14.18,-1.0,-2.0,0,2,,6.21,29.793306,,,TRUE,,,,,,,,CLR,,,,,,,,VFR,,,,,,,,,,,,METAR,10.0
LIBD 140420Z 20006KT CAVOK 03/02 Q1013,LIBD,2021-01-14T04:20:00Z,41.13,16.77,3.0,2.0,200,6,,6.21,29.911417,,,,,,,,,,,CAVOK,,,,,,,,VFR,,,,,,,,,,,,METAR,42.0
LGTS 140420Z 34020KT 9999 FEW025 05/M04 Q1012 NOSIG,LGTS,2021-01-14T04:20:00Z,40.52,22.97,5.0,-4.0,340,20,,6.21,29.88189,,,,,,TRUE,,,,,FEW,2500,,,,,,,VFR,,,,,,,,,,,,METAR,4.0
LGSA 140420Z 29010G20KT 9999 FEW020 BKN025 11/09 Q1008,LGSA,2021-01-14T04:20:00Z,35.53,24.13,11.0,9.0,290,10,20,6.21,29.763779,,,,,,,,,,,FEW,2000,BKN,2500,,,,,MVFR,,,,,,,,,,,,METAR,122.0
LGRX 140420Z VRB03KT 9999 FEW030 06/04 Q1012,LGRX,2021-01-14T04:20:00Z,38.17,21.42,6.0,4.0,0,3,,6.21,29.88189,,,,,,,,,,,FEW,3000,,,,,,,VFR,,,,,,,,,,,,METAR,16.0
LGRP 140420Z VRB02KT 9999 BKN020 12/08 Q1005 NOSIG,LGRP,2021-01-14T04:20:00Z,36.4,28.08,12.0,8.0,0,2,,6.21,29.675198,,,,,,TRUE,,,,,BKN,2000,,,,,,,MVFR,,,,,,,,,,,,METAR,3.0
LGPZ 140420Z VRB03KT 9999 FEW025 06/00 Q1012,LGPZ,2021-01-14T04:20:00Z,38.92,20.77,6.0,0.0,0,3,,6.21,29.88189,,,,,,,,,,,FEW,2500,,,,,,,VFR,,,,,,,,,,,,METAR,3.0
LGPA 140420Z AUTO 32013KT //// // ////// 12/04 Q1007 RE//,LGPA,2021-01-14T04:20:00Z,37.02,25.1,12.0,4.0,320,13,,,29.734253,,,TRUE,,,,,,,,,,,,,,,,,,,,,,,,,,,,SPECI,42.0
LGMT 140420Z 12006KT 9000 -RA FEW018 BKN025 08/07 Q1007 RERA,LGMT,2021-01-14T04:20:00Z,39.05,26.6,8.0,7.0,120,6,,5.59,29.734253,,,,,,,,,,-RA,FEW,1800,BKN,2500,,,,,MVFR,,,,,,,,,,,,METAR,4.0
LGLM 140420Z 04011KT 9999 -RA FEW008 OVC020 05/02 Q1009,LGLM,2021-01-14T04:20:00Z,39.92,25.23,5.0,2.0,40,11,,6.21,29.793306,,,,,,,,,,-RA,FEW,800,OVC,2000,,,,,MVFR,,,,,,,,,,,,METAR,4.0
LGKZ 140420Z AUTO 33008KT 300V010 //// // ////// M02/M06 Q1010 RE//,LGKZ,2021-01-14T04:20:00Z,40.28,21.83,-2.0,-6.0,330,8,,,29.822834,,,TRUE,,,,,,,,,,,,,,,,,,,,,,,,,,,,SPECI,615.0
LGKR 140420Z 30008KT 9999 FEW025 08/05 Q1012 NOSIG,LGKR,2021-01-14T04:20:00Z,39.62,19.92,8.0,5.0,300,8,,6.21,29.88189,,,,,,TRUE,,,,,FEW,2500,,,,,,,VFR,,,,,,,,,,,,METAR,2.0
LGKO 140420Z 02010G20KT 8000 TSRA FEW020CB BKN025 09/06 Q1007,LGKO,2021-01-14T04:20:00Z,36.8,27.08,9.0,6.0,20,10,20,4.97,29.734253,,,,,,,,,,TSRA,FEW,2000,BKN,2500,,,,,MVFR,,,,,,,,,,,,METAR,130.0
LGKL 140420Z 33005KT 9999 SCT025 07/04 Q1011,LGKL,2021-01-14T04:20:00Z,37.07,22.02,7.0,4.0,330,5,,6.21,29.852362,,,,,,,,,,,SCT,2500,,,,,,,VFR,,,,,,,,,,,,METAR,4.0
LGIR 140420Z 24009KT 9999 SCT020 12/08 Q1007 NOSIG,LGIR,2021-01-14T04:20:00Z,35.33,25.17,12.0,8.0,240,9,,6.21,29.734253,,,,,,TRUE,,,,,SCT,2000,,,,,,,VFR,,,,,,,,,,,,METAR,37.0
LGIO 140420Z AUTO VRB02KT //// // ////// 02/M03 Q1011 RE//,LGIO,2021-01-14T04:20:00Z,39.7,20.82,2.0,-3.0,0,2,,,29.852362,,,TRUE,,,,,,,,,,,,,,,,,,,,,,,,,,,,METAR,476.0
LGBL 140420Z 30009KT 9999 SCT030 BKN080 05/02 Q1011,LGBL,2021-01-14T04:20:00Z,39.22,22.8,5.0,2.0,300,9,,6.21,29.852362,,,,,,,,,,,SCT,3000,BKN,8000,,,,,VFR,,,,,,,,,,,,METAR,13.0
LGAV 140420Z 30006KT 9999 SCT030 SCT070 09/04 Q1008 NOSIG,LGAV,2021-01-14T04:20:00Z,37.93,23.95,9.0,4.0,300,6,,6.21,29.763779,,,,,,TRUE,,,,,SCT,3000,SCT,7000,,,,,VFR,,,,,,,,,,,,METAR,83.0
LGAD 140420Z 33013KT 9999 FEW020 SCT070 10/01 Q1012,LGAD,2021-01-14T04:20:00Z,37.92,21.28,10.0,1.0,330,13,,6.21,29.88189,,,,,,,,,,,FEW,2000,SCT,7000,,,,,VFR,,,,,,,,,,,,METAR,8.0
LCEN 140420Z 28005KT 9999 FEW020 BKN100 10/06 Q1005 NOSIG RMK RWY11 28005KT,LCEN,2021-01-14T04:20:00Z,35.15,33.5,10.0,6.0,280,5,,6.21,29.675198,,,,,,TRUE,,,,,FEW,2000,BKN,10000,,,,,VFR,,,,,,,,,,,,METAR,91.0
LATI 140420Z VRB02KT CAVOK M02/M03 Q1014 NOSIG,LATI,2021-01-14T04:20:00Z,41.42,19.72,-2.0,-3.0,0,2,,6.21,29.940945,,,,,,TRUE,,,,,CAVOK,,,,,,,,VFR,,,,,,,,,,,,METAR,32.0
KTMB 140420Z AUTO 34007KT 4SM RA BR BKN005 BKN055 OVC090 17/16 A3005 RMK AO2 P0003 T01720156,KTMB,2021-01-14T04:20:00Z,25.65,-80.43,17.2,15.6,340,7,,4.0,30.050198,,,TRUE,TRUE,,,,,,RA BR,BKN,500,BKN,5500,OVC,9000,,,IFR,,,,,,0.03,,,,,,SPECI,2.0
KRCA 140420Z 32035G47KT 10SM -RA SQ OVC140 05/M10 A2969 RMK AO2A RAE01RAB10 SLP068 PNO $,KRCA,2021-01-14T04:20:00Z,44.15,-103.12,5.0,-10.0,320,35,47,10.0,29.68996,1006.8,,,TRUE,TRUE,,,,,-RA SQ,OVC,14000,,,,,,,VFR,,,,,,,,,,,,SPECI,993.0
KQFX 140420Z AUTO 21003KT 9999 CLR 07/M10 A3016 RMK A02 TSNO,KQFX,2021-01-14T04:20:00Z,,,7.0,-10.0,210,3,,6.21,30.159449,,,TRUE,TRUE,,,TRUE,,,,CLR,,,,,,,,VFR,,,,,,,,,,,,METAR,
KQFW 140420Z AUTO 01001KT 9999 CLR 06/M08 A3018 RMK A02 TSNO,KQFW,2021-01-14T04:20:00Z,,,6.0,-8.0,10,1,,6.21,30.180119,,,TRUE,TRUE,,,TRUE,,,,CLR,,,,,,,,VFR,,,,,,,,,,,,METAR,
KQFV 140420Z AUTO 11006KT 9999 FEW060 03/M16 A3017 RMK A02 TSNO,KQFV,2021-01-14T04:20:00Z,,,3.0,-16.0,110,6,,6.21,30.171259,,,TRUE,TRUE,,,TRUE,,,,FEW,6000,,,,,,,VFR,,,,,,,,,,,,METAR,
KQFT 140420Z AUTO 33003KT / // CLR 04/M10 A3018 RMK A02 TSNO,KQFT,2021-01-14T04:20:00Z,,,4.0,-10.0,330,3,,,30.180119,,,TRUE,TRUE,,,TRUE,,,,CLR,,,,,,,,,,,,,,,,,,,,METAR,
KQFB 140420Z AUTO 21001KT 9999 CLR 13/M12 A3020 RMK A02 TSNO,KQFB,2021-01-14T04:20:00Z,,,13.0,-12.0,210,1,,6.21,30.200787,,,TRUE,TRUE,,,TRUE,,,,CLR,,,,,,,,VFR,,,,,,,,,,,,METAR,
KQEY 140420Z AUTO 17001KT 9999 CLR 09/M10 A2984 RMK A02 TSNO,KQEY,2021-01-14T04:20:00Z,,,9.0,-10.0,170,1,,6.21,29.840551,,,TRUE,TRUE,,,TRUE,,,,CLR,,,,,,,,VFR,,,,,,,,,,,,METAR,
KQEX 140420Z AUTO 02002KT 9999 CLR 09/M16 A3010 RMK A02 TSNO,KQEX,2021-01-14T04:20:00Z,,,9.0,-16.0,20,2,,6.21,30.100393,,,TRUE,TRUE,,,TRUE,,,,CLR,,,,,,,,VFR,,,,,,,,,,,,METAR,
KQEW 140420Z AUTO 02002KT 9999 CLR 08/M14 A3016 RMK A02 TSNO,KQEW,2021-01-14T04:20:00Z,,,8.0,-14.0,20,2,,6.21,30.159449,,,TRUE,TRUE,,,TRUE,,,,CLR,,,,,,,,VFR,,,,,,,,,,,,METAR,
KQEV 140420Z AUTO 09002KT 9999 CLR 07/M09 A3013 RMK A02 TSNO,KQEV,2021-01-14T04:20:00Z,,,7.0,-9.0,90,2,,6.21,30.129921,,,TRUE,TRUE,,,TRUE,,,,CLR,,,,,,,,VFR,,,,,,,,,,,,METAR,
KQER 140420Z AUTO 31002KT 9999 BKN046 03/M12 A3011 RMK A02 TSNO,KQER,2021-01-14T04:20:00Z,,,3.0,-12.0,310,2,,6.21,30.109253,,,TRUE,TRUE,,,TRUE,,,,BKN,4600,,,,,,,VFR,,,,,,,,,,,,METAR,
KQEQ 140420Z AUTO 03002KT 9999 CLR 03/M11 A3022 RMK A02 TSNO,KQEQ,2021-01-14T04:20:00Z,,,3.0,-11.0,30,2,,6.21,30.221457,,,TRUE,TRUE,,,TRUE,,,,CLR,,,,,,,,VFR,,,,,,,,,,,,METAR,
KQEP 140420Z AUTO 16004KT 9999 CLR 05/M13 A3020 RMK A02 TSNO,KQEP,2021-01-14T04:20:00Z,,,5.0,-13.0,160,4,,6.21,30.200787,,,TRUE,TRUE,,,TRUE,,,,CLR,,,,,,,,VFR,,,,,,,,,,,,METAR,
KQEN 140420Z AUTO 23004KT 9999 FEW042 03/M17 A3007 RMK A02 TSNO,KQEN,2021-01-14T04:20:00Z,,,3.0,-17.0,230,4,,6.21,30.070866,,,TRUE,TRUE,,,TRUE,,,,FEW,4200,,,,,,,VFR,,,,,,,,,,,,METAR,
KQEJ 140420Z AUTO 35001KT 9999 BKN049 04/M15 A3015 RMK A02 TSNO,KQEJ,2021-01-14T04:20:00Z,,,4.0,-15.0,350,1,,6.21,30.15059,,,TRUE,TRUE,,,TRUE,,,,BKN,4900,,,,,,,VFR,,,,,,,,,,,,METAR,
KQEI 140420Z AUTO 34003KT 9999 SCT050 04/M12 A3015 RMK A02 TSNO,KQEI,2021-01-14T04:20:00Z,,,4.0,-12.0,340,3,,6.21,30.15059,,,TRUE,TRUE,,,TRUE,,,,SCT,5000,,,,,,,VFR,,,,,,,,,,,,METAR,
K2V6 140420Z AUTO 25009KT 10SM CLR 05/M08 A2974 RMK AO2,K2V6,2021-01-14T04:20:00Z,40.1,-102.72,5.0,-8.0,250,9,,10.0,29.740158,,,TRUE,TRUE,,,,,,,CLR,,,,,,,,VFR,,,,,,,,,,,,METAR,1257.0
K0A9 140420Z AUTO 00000KT 10SM CLR M04/M04 A2995 RMK AO2,K0A9,2021-01-14T04:20:00Z,36.37,-82.17,-4.0,-4.0,0,0,,10.0,29.949802,,,TRUE,TRUE,,,,,,,CLR,,,,,,,,VFR,,,,,,,,,,,,SPECI,479.0
EYVI 140420Z 02008KT 9000 -SN OVC008 M06/M07 Q1005 R01/4/0293 NOSIG,EYVI,2021-01-14T04:20:00Z,54.63,25.28,-6.0,-7.0,20,8,,5.59,29.675198,,,,,,TRUE,,,,-SN,OVC,800,,,,,,,IFR,,,,,,,,,,,,SPECI,180.0
EYSA 140420Z 03008KT 9999 OVC007 M05/M06 Q1009 R14L/590391 R14R/590391 GRN TEMPO OVC006 YLO,EYSA,2021-01-14T04:20:00Z,55.9,23.4,-5.0,-6.0,30,8,,6.21,29.793306,,,,,,,,,,,OVC,700,,,,,,,IFR,,,,,,,,,,,,SPECI,135.0
EYPA 140420Z 06008KT 9999 -SN FEW010 BKN070 M03/M04 Q1009,EYPA,2021-01-14T04:20:00Z,55.97,21.08,-3.0,-4.0,60,8,,6.21,29.793306,,,,,,,,,,-SN,FEW,1000,BKN,7000,,,,,VFR,,,,,,,,,,,,METAR,15.0
EYKA 140420Z 04006KT 010V070 9999 -SN SCT047 OVC060 M05/M07 Q1007 R08/490393,EYKA,2021-01-14T04:20:00Z,54.97,24.08,-5.0,-7.0,40,6,,6.21,29.734253,,,,,,,,,,-SN,SCT,4700,OVC,6000,,,,,VFR,,,,,,,,,,,,METAR,68.0
EVVA 140420Z AUTO 08006KT 9999 -SN FEW012 OVC019 M01/M01 Q1011,EVVA,2021-01-14T04:20:00Z,57.35,21.55,-1.0,-1.0,80,6,,6.21,29.852362,,,TRUE,,,,,,,-SN,FEW,1200,OVC,1900,,,,,MVFR,,,,,,,,,,,,METAR,1.0
EVRA 140420Z 02007KT 9999 -SN BKN023 M03/M04 Q1010 R36/490392 NOSIG,EVRA,2021-01-14T04:20:00Z,56.92,23.97,-3.0,-4.0,20,7,,6.21,29.822834,,,,,,TRUE,,,,-SN,BKN,2300,,,,,,,MVFR,,,,,,,,,,,,SPECI,7.0
EVLA 140420Z AUTO 07009KT 9999 OVC013/// M02/M03 Q1010,EVLA,2021-01-14T04:20:00Z,56.52,21.1,-2.0,-3.0,70,9,,6.21,29.822834,,,TRUE,,,,,,,,OVC,1300,,,,,,,MVFR,,,,,,,,,,,,METAR,5.0
ETWM 140420Z AUTO 36003KT //// // ////// M01/M03 Q1017 ///,ETWM,2021-01-14T04:20:00Z,52.72,7.33,-1.0,-3.0,360,3,,,30.029528,,,TRUE,,,,,,,,,,,,,,,,,,,,,,,,,,,,METAR,18.0
ETSN 140420Z 29009KT 9999 BKN020 SCT050 BKN120 02/M01 Q1012 WHT,ETSN,2021-01-14T04:20:00Z,48.72,11.22,2.0,-1.0,290,9,,6.21,29.88189,,,,,,,,,,,BKN,2000,SCT,5000,BKN,12000,,,MVFR,,,,,,,,,,,,METAR,378.0
ETSL 140420Z AUTO 25011KT 2400 // ////// 00/M01 Q1012 ///,ETSL,2021-01-14T04:20:00Z,48.17,10.87,0.0,-1.0,250,11,,1.49,29.88189,,,TRUE,,,,,,,,,,,,,,,,,,,,,,,,,,,,METAR,562.0
ETSI 140420Z AUTO 32012G24KT 6000 // ////// 02/M02 Q1012 ///,ETSI,2021-01-14T04:20:00Z,48.72,11.53,2.0,-2.0,320,12,24,3.73,29.88189,,,TRUE,,,,,,,,,,,,,,,,,,,,,,,,,,,,METAR,366.0
ETSH 140420Z 34010G20KT 8000 -SN BKN012 BKN035 00/M01 Q1007 BLACKGRN GRN TEMPO YLO,ETSH,2021-01-14T04:20:00Z,51.77,13.17,0.0,-1.0,340,10,20,4.97,29.734253,,,,,,,,,,-SN,BKN,1200,BKN,3500,,,,,MVFR,,,,,,,,,,,,METAR,79.0
ETSB 140420Z AUTO 01006KT 2400 // ////// M00/M01 Q1015 ///,ETSB,2021-01-14T04:20:00Z,50.17,7.07,0.0,-1.0,10,6,,1.49,29.970472,,,TRUE,,,,,,,,,,,,,,,,,,,,,,,,,,,,METAR,477.0
ETNW 140420Z AUTO 33010KT 9000 // ////// 01/M02 Q1015 ///,ETNW,2021-01-14T04:20:00Z,52.45,9.42,1.0,-2.0,330,10,,5.59,29.970472,,,TRUE,,,,,,,,,,,,,,,,,,,,,,,,,,,,METAR,57.0
ETNT 140420Z 02007KT 9999 BKN020 01/M02 Q1017 WHT,ETNT,2021-01-14T04:20:00Z,53.53,7.67,1.0,-2.0,20,7,,6.21,30.029528,,,,,,,,,,,BKN,2000,,,,,,,MVFR,,,,,,,,,,,,METAR,5.0
ETNS 140420Z 36011KT 9000 SCT020 BKN035 00/M02 Q1016 BLU,ETNS,2021-01-14T04:20:00Z,54.47,9.52,0.0,-2.0,360,11,,5.59,30.0,,,,,,,,,,,SCT,2000,BKN,3500,,,,,VFR,,,,,,,,,,,,METAR,22.0
ETNN 140420Z 26003KT 9999 FEW050 BKN100 02/M02 Q1017 BLU,ETNN,2021-01-14T04:20:00Z,50.82,6.67,2.0,-2.0,260,3,,6.21,30.029528,,,,,,,,,,,FEW,5000,BKN,10000,,,,,VFR,,,,,,,,,,,,METAR,108.0
ETNL 140420Z 01012KT 9999 BKN012 02/00 Q1012 GRN,ETNL,2021-01-14T04:20:00Z,53.92,12.27,2.0,0.0,10,12,,6.21,29.88189,,,,,,,,,,,BKN,1200,,,,,,,MVFR,,,,,,,,,,,,METAR,40.0
ETNH 140420Z 35006KT 9999 FEW020 BKN030 01/M01 Q1016 BLU,ETNH,2021-01-14T04:20:00Z,54.32,9.55,1.0,-1.0,350,6,,6.21,30.0,,,,,,,,,,,FEW,2000,BKN,3000,,,,,MVFR,,,,,,,,,,,,METAR,6.0
ETMN 140420Z 01011KT 9999 FEW014 SCT030 01/M02 Q1016 BLU+,ETMN,2021-01-14T04:20:00Z,53.77,8.67,1.0,-2.0,10,11,,6.21,30.0,,,,,,,,,,,FEW,1400,SCT,3000,,,,,VFR,,,,,,,,,,,,METAR,23.0
ETML 140420Z AUTO 35030KT //// // ////// 02/M01 Q1014 ///,ETML,2021-01-14T04:20:00Z,54.5,11.23,2.0,-1.0,350,30,,,29.940945,,,TRUE,,,,,,,,,,,,,,,,,,,,,,,,,,,,METAR,9.0
ETHS 140420Z 36011KT 7000 -SN BKN010 BKN020 00/M01 Q1013 GRN,ETHS,2021-01-14T04:20:00Z,52.92,10.18,0.0,-1.0,360,11,,4.35,29.911417,,,,,,,,,,-SN,BKN,1000,BKN,2000,,,,,MVFR,,,,,,,,,,,,METAR,71.0
ETHN 140420Z 32013KT 9999 BKN012 BKN110 00/M02 Q1013 GRN,ETHN,2021-01-14T04:20:00Z,49.38,9.97,0.0,-2.0,320,13,,6.21,29.911417,,,,,,,,,,,BKN,1200,BKN,11000,,,,,MVFR,,,,,,,,,,,,METAR,466.0
ETHL 140420Z AUTO 25009KT //// // ////// 00/M01 Q1013 ///,ETHL,2021-01-14T04:20:00Z,48.22,9.92,0.0,-1.0,250,9,,,29.911417,,,TRUE,,,,,,,,,,,,,,,,,,,,,,,,,,,,METAR,536.0
ETHF 140420Z 33011KT 9999 BKN026 OVC190 00/M05 Q1015 BLU,ETHF,2021-01-14T04:20:00Z,51.12,9.28,0.0,-5.0,330,11,,6.21,29.970472,,,,,,,,,,,BKN,2600,OVC,19000,,,,,MVFR,,,,,,,,,,,,METAR,171.0
ETHC 140420Z AUTO 32008KT 9999 // ////// 01/M02 Q1014 ///,ETHC,2021-01-14T04:20:00Z,52.6,10.02,1.0,-2.0,320,8,,6.21,29.940945,,,TRUE,,,,,,,,,,,,,,,,,,,,,,,,,,,,METAR,35.0
ETHB 140420Z AUTO 33009KT 7000 // ////// 00/M03 Q1015 ///,ETHB,2021-01-14T04:20:00Z,52.27,9.07,0.0,-3.0,330,9,,4.35,29.970472,,,TRUE,,,,,,,,,,,,,,,,,,,,,,,,,,,,METAR,69.0
ETGG 140420Z AUTO 02020KT 9999 // ////// 01/M02 Q1016 ///,ETGG,2021-01-14T04:20:00Z,54.83,9.5,1.0,-2.0,20,20,,6.21,30.0,,,TRUE,,,,,,,,,,,,,,,,,,,,,,,,,,,,METAR,33.0
ESUT 140420Z AUTO 09002KT 5000 -SN FEW006/// SCT009/// OVC014/// M12/M15 Q1023,ESUT,2021-01-14T04:20:00Z,65.8,15.08,-12.0,-15.0,90,2,,3.11,30.206694,,,TRUE,,,,,,,-SN,FEW,600,SCT,900,OVC,1400,,,MVFR,,,,,,,,,,,,METAR,457.0
ESUP 140420Z AUTO VRB02KT 9999 OVC015/// M33/M36 Q1026,ESUP,2021-01-14T04:20:00Z,67.25,23.07,-33.0,-36.0,0,2,,6.21,30.295275,,,TRUE,,,,,,,,OVC,1500,,,,,,,MVFR,,,,,,,,,,,,METAR,164.0
ESTL 140420Z AUTO 34006KT 9999 FEW015/// SCT025/// BKN029/// M00/M01 Q1014,ESTL,2021-01-14T04:20:00Z,56.07,13.2,0.0,-1.0,340,6,,6.21,29.940945,,,TRUE,,,,,,,,FEW,1500,SCT,2500,BKN,2900,,,MVFR,,,,,,,,,,,,METAR,39.0
ESTA 140420Z AUTO 01010KT 9999 BKN019/// M00/M03 Q1014,ESTA,2021-01-14T04:20:00Z,56.28,12.83,0.0,-3.0,10,10,,6.21,29.940945,,,TRUE,,,,,,,,BKN,1900,,,,,,,MVFR,,,,,,,,,,,,METAR,19.0
ESSV 140420Z AUTO 05012KT 9999 -SN SCT009/// OVC025/// 00/M01 Q1013,ESSV,2021-01-14T04:20:00Z,57.67,18.35,0.0,-1.0,50,12,,6.21,29.911417,,,TRUE,,,,,,,-SN,SCT,900,OVC,2500,,,,,MVFR,,,,,,,,,,,,METAR,38.0
ESST 140420Z AUTO 34008KT 9999 OVC013/// M08/M10 Q1024,ESST,2021-01-14T04:20:00Z,60.15,12.98,-8.0,-10.0,340,8,,6.21,30.236221,,,TRUE,,,,,,,,OVC,1300,,,,,,,MVFR,,,,,,,,,,,,METAR,110.0
ESSP 140420Z AUTO 02014KT 9999 OVC011/// M01/M03 Q1018,ESSP,2021-01-14T04:20:00Z,58.58,16.25,-1.0,-3.0,20,14,,6.21,30.059055,,,TRUE,,,,,,,,OVC,1100,,,,,,,MVFR,,,,,,,,,,,,METAR,3.0
ESSL 140420Z AUTO 03011KT 360V070 9999 OVC011/// M02/M03 Q1017 RESHUP RESN,ESSL,2021-01-14T04:20:00Z,58.4,15.67,-2.0,-3.0,30,11,,6.21,30.029528,,,TRUE,,,,,,,SN,OVC,1100,,,,,,,MVFR,,,,,,,,,,,,SPECI,51.0
ESSB 140420Z AUTO 01006KT 340V040 9999 FZUP OVC007/// M02/M03 Q1018,ESSB,2021-01-14T04:20:00Z,59.35,17.93,-2.0,-3.0,10,6,,6.21,30.059055,,,TRUE,,,,,,,UP,OVC,700,,,,,,,IFR,,,,,,,,,,,,SPECI,14.0
ESSA 140420Z 02015KT 9999 OVC008 M03/M04 Q1019 R01R/510182 R08/490327 NOSIG,ESSA,2021-01-14T04:20:00Z,59.65,17.93,-3.0,-4.0,20,15,,6.21,30.088583,,,,,,TRUE,,,,,OVC,800,,,,,,,IFR,,,,,,,,,,,,METAR,36.0
ESPE 140420Z AUTO 00000KT 9999 OVC019/// M30/M33 Q1027,ESPE,2021-01-14T04:20:00Z,65.88,20.15,-30.0,-33.0,0,0,,6.21,30.324802,,,TRUE,,,,,,,,OVC,1900,,,,,,,MVFR,,,,,,,,,,,,METAR,182.0
ESPA 140420Z AUTO 36002KT 9999 NCD M29/M32 Q1029,ESPA,2021-01-14T04:20:00Z,65.53,22.12,-29.0,-32.0,360,2,,6.21,30.383858,,,TRUE,,,,,,,,CLR,,,,,,,,VFR,,,,,,,,,,,,METAR,12.0
ESOW 140420Z AUTO 36014KT 9999 OVC009/// M04/M07 Q1020 RESG REFZUP,ESOW,2021-01-14T04:20:00Z,59.58,16.63,-4.0,-7.0,360,14,,6.21,30.11811,,,TRUE,,,,,,,UP,OVC,900,,,,,,,IFR,,,,,,,,,,,,SPECI,7.0
ESOK 140420Z AUTO 36012KT 9999 OVC009/// M07/M08 Q1022,ESOK,2021-01-14T04:20:00Z,59.45,13.33,-7.0,-8.0,360,12,,6.21,30.177166,,,TRUE,,,,,,,,OVC,900,,,,,,,IFR,,,,,,,,,,,,METAR,101.0
ESOH 140420Z AUTO 35011KT 9999 OVC009/// M08/M10 Q1023,ESOH,2021-01-14T04:20:00Z,60.02,13.58,-8.0,-10.0,350,11,,6.21,30.206694,,,TRUE,,,,,,,,OVC,900,,,,,,,IFR,,,,,,,,,,,,METAR,145.0
ESOE 140420Z AUTO 02018KT 9999 OVC006/// M04/M05 Q1020,ESOE,2021-01-14T04:20:00Z,59.22,15.05,-4.0,-5.0,20,18,,6.21,30.11811,,,TRUE,,,,,,,,OVC,600,,,,,,,IFR,,,,,,,,,,,,METAR,57.0
ESNZ 140420Z AUTO 32003KT 6000 -SN OVC011/// M13/M15 Q1024,ESNZ,2021-01-14T04:20:00Z,63.18,14.5,-13.0,-15.0,320,3,,3.73,30.236221,,,TRUE,,,,,,,-SN,OVC,1100,,,,,,,MVFR,,,,,,,,,,,,METAR,360.0
ESNX 140420Z AUTO 12001KT 6000 -SN OVC015/// M21/M23 Q1023,ESNX,2021-01-14T04:20:00Z,65.58,19.28,-21.0,-23.0,120,1,,3.73,30.206694,,,TRUE,,,,,,,-SN,OVC,1500,,,,,,,MVFR,,,,,,,,,,,,METAR,380.0
ESNV 140420Z AUTO 00000KT 9999 -SN OVC015/// M17/M19 Q1024,ESNV,2021-01-14T04:20:00Z,64.58,16.83,-17.0,-19.0,0,0,,6.21,30.236221,,,TRUE,,,,,,,-SN,OVC,1500,,,,,,,MVFR,,,,,,,,,,,,METAR,348.0
ESNU 140420Z 33010KT 7000 -SN OVC007 M15/M17 Q1027,ESNU,2021-01-14T04:20:00Z,63.78,20.28,-15.0,-17.0,330,10,,4.35,30.324802,,,,,,,,,,-SN,OVC,700,,,,,,,IFR,,,,,,,,,,,,METAR,8.0
ESNS 140420Z AUTO 31007KT 2300 -SN OVC006/// M18/M20 Q1027,ESNS,2021-01-14T04:20:00Z,64.62,21.07,-18.0,-20.0,310,7,,1.43,30.324802,,,TRUE,,,,,,,-SN,OVC,600,,,,,,,IFR,,,,,,,,,,,,METAR,41.0
ESNQ 140420Z AUTO 21004KT 9999 FEW120/// M22/M24 Q1021,ESNQ,2021-01-14T04:20:00Z,67.82,20.33,-22.0,-24.0,210,4,,6.21,30.147638,,,TRUE,,,,,,,,FEW,12000,,,,,,,VFR,,,,,,,,,,,,METAR,447.0
ESNO 140420Z AUTO 33008KT 9999 NCD M17/M19 Q1025,ESNO,2021-01-14T04:20:00Z,63.4,18.97,-17.0,-19.0,330,8,,6.21,30.265747,,,TRUE,,,,,,,,CLR,,,,,,,,VFR,,,,,,,,,,,,METAR,100.0
ESNN 140420Z AUTO 34014KT 9999 SCT016/// BKN021/// OVC026/// M11/M13 Q1027,ESNN,2021-01-14T04:20:00Z,62.52,17.43,-11.0,-13.0,340,14,,6.21,30.324802,,,TRUE,,,,,,,,SCT,1600,BKN,2100,OVC,2600,,,MVFR,,,,,,,,,,,,METAR,4.0
ESNL 140420Z AUTO 00000KT 9999 SCT002/// BKN004/// OVC006/// M22/M24 Q1026 RESG,ESNL,2021-01-14T04:20:00Z,64.55,18.72,-22.0,-24.0,0,0,,6.21,30.295275,,,TRUE,,,,,,,,SCT,200,BKN,400,OVC,600,,,LIFR,,,,,,,,,,,,METAR,220.0
ESNK 140420Z AUTO 33008KT 9999 NCD M16/M18 Q1028,ESNK,2021-01-14T04:20:00Z,63.03,17.77,-16.0,-18.0,330,8,,6.21,30.35433,,,TRUE,,,,,,,,CLR,,,,,,,,VFR,,,,,,,,,,,,METAR,4.0
ESNG 140420Z VRB02KT 9999 FEW010 M21/M23 Q1023,ESNG,2021-01-14T04:20:00Z,67.13,20.82,-21.0,-23.0,0,2,,6.21,30.206694,,,,,,,,,,,FEW,1000,,,,,,,VFR,,,,,,,,,,,,METAR,300.0
ESND 140420Z AUTO 28003KT 9999 -SN SCT003/// OVC005/// M13/M14 Q1024,ESND,2021-01-14T04:20:00Z,62.05,14.42,-13.0,-14.0,280,3,,6.21,30.236221,,,TRUE,,,,,,,-SN,SCT,300,OVC,500,,,,,IFR,,,,,,,,,,,,METAR,352.0
ESMX 140420Z AUTO 01013KT 6000 -SN SCT002/// BKN009/// OVC011/// M00/M01 Q1013,ESMX,2021-01-14T04:20:00Z,56.92,14.72,0.0,-1.0,10,13,,3.73,29.911417,,,TRUE,,,,,,,-SN,SCT,200,BKN,900,OVC,1100,,,IFR,,,,,,,,,,,,METAR,176.0
ESMT 140420Z AUTO 03012KT 9999 BKN018/// M00/M03 Q1015,ESMT,2021-01-14T04:20:00Z,56.68,12.82,0.0,-3.0,30,12,,6.21,29.970472,,,TRUE,,,,,,,,BKN,1800,,,,,,,MVFR,,,,,,,,,,,,METAR,24.0
ESMS 140420Z 33011KT 9999 OVC012 00/M01 Q1012 R17/390195,ESMS,2021-01-14T04:20:00Z,55.53,13.37,0.0,-1.0,330,11,,6.21,29.88189,,,,,,,,,,,OVC,1200,,,,,,,MVFR,,,,,,,,,,,,SPECI,68.0
ESMQ 140420Z AUTO 02010KT 9999 FEW009/// SCT012/// BKN018/// 02/01 Q1012,ESMQ,2021-01-14T04:20:00Z,56.68,16.3,2.0,1.0,20,10,,6.21,29.88189,,,TRUE,,,,,,,,FEW,900,SCT,1200,BKN,1800,,,MVFR,,,,,,,,,,,,METAR,3.0
ESMK 140420Z AUTO 35008KT 9999 FEW025/// SCT062/// M00/M02 Q1012,ESMK,2021-01-14T04:20:00Z,55.92,14.08,0.0,-2.0,350,8,,6.21,29.88189,,,TRUE,,,,,,,,FEW,2500,SCT,6200,,,,,VFR,,,,,,,,,,,,METAR,20.0
ESKS 140420Z AUTO 01003KT 310V060 9999 -SN BKN008/// OVC013/// M11/M14 Q1021,ESKS,2021-01-14T04:20:00Z,61.17,12.83,-11.0,-14.0,10,3,,6.21,30.147638,,,TRUE,,,,,,,-SN,BKN,800,OVC,1300,,,,,IFR,,,,,,,,,,,,METAR,503.0
ESKN 140420Z 04012KT 9999 BKN008 M02/M03 Q1017 R08/590141,ESKN,2021-01-14T04:20:00Z,58.78,16.92,-2.0,-3.0,40,12,,6.21,30.029528,,,,,,,,,,,BKN,800,,,,,,,IFR,,,,,,,,,,,,SPECI,41.0
ESKM 140420Z AUTO 34007KT 9999 -SN OVC013/// M10/M10 Q1024,ESKM,2021-01-14T04:20:00Z,60.97,14.52,-10.0,-10.0,340,7,,6.21,30.236221,,,TRUE,,,,,,,-SN,OVC,1300,,,,,,,MVFR,,,,,,,,,,,,METAR,184.0
ESIB 140420Z AUTO 04011KT 010V080 9999 -SN OVC012/// M02/M03 Q1020,ESIB,2021-01-14T04:20:00Z,58.42,12.7,-2.0,-3.0,40,11,,6.21,30.11811,,,TRUE,,,,,,,-SN,OVC,1200,,,,,,,MVFR,,,,,,,,,,,,METAR,51.0
ESIA 140420Z AUTO 04012KT 010V070 9999 OVC008/// M03/M05 Q1018,ESIA,2021-01-14T04:20:00Z,58.52,14.5,-3.0,-5.0,40,12,,6.21,30.059055,,,TRUE,,,,,,,,OVC,800,,,,,,,IFR,,,,,,,,,,,,METAR,94.0
ESGT 140420Z AUTO 36014KT 9999 OVC010/// M02/M04 Q1020,ESGT,2021-01-14T04:20:00Z,58.32,12.33,-2.0,-4.0,360,14,,6.21,30.11811,,,TRUE,,,,,,,,OVC,1000,,,,,,,MVFR,,,,,,,,,,,,METAR,40.0
ESGR 140420Z AUTO 01011KT 9999 OVC009/// M04/M05 Q1019,ESGR,2021-01-14T04:20:00Z,58.45,13.97,-4.0,-5.0,10,11,,6.21,30.088583,,,TRUE,,,,,,,,OVC,900,,,,,,,IFR,,,,,,,,,,,,METAR,95.0
ESGJ 140420Z AUTO 02015KT 8000 -SN OVC007/// M02/M03 Q1016,ESGJ,2021-01-14T04:20:00Z,57.77,14.07,-2.0,-3.0,20,15,,4.97,30.0,,,TRUE,,,,,,,-SN,OVC,700,,,,,,,IFR,,,,,,,,,,,,METAR,224.0
ESGG 140420Z 02018KT 9999 OVC009 M03/M05 Q1018 R03/19//95,ESGG,2021-01-14T04:20:00Z,57.67,12.3,-3.0,-5.0,20,18,,6.21,30.059055,,,,,,,,,,,OVC,900,,,,,,,IFR,,,,,,,,,,,,SPECI,152.0
ESDF 140420Z AUTO 36009KT 9999 -SG BKN012/// OVC016/// 01/00 Q1012,ESDF,2021-01-14T04:20:00Z,56.27,15.27,1.0,0.0,360,9,,6.21,29.88189,,,TRUE,,,,,,,-SG,BKN,1200,OVC,1600,,,,,MVFR,,,,,,,,,,,,METAR,52.0
ESCM 140420Z AUTO 04014KT 9999 -SHSN OVC009/// M03/M04 Q1020,ESCM,2021-01-14T04:20:00Z,59.88,17.6,-3.0,-4.0,40,14,,6.21,30.11811,,,TRUE,,,,,,,-SHSN,OVC,900,,,,,,,IFR,,,,,,,,,,,,METAR,21.0
ESCF 140420Z AUTO 02014KT 9999 OVC008/// M02/M04 Q1017,ESCF,2021-01-14T04:20:00Z,58.38,15.52,-2.0,-4.0,20,14,,6.21,30.029528,,,TRUE,,,,,,,,OVC,800,,,,,,,IFR,,,,,,,,,,,,METAR,86.0
ENZV 140420Z 11003KT CAVOK M06/M09 Q1023,ENZV,2021-01-14T04:20:00Z,58.88,5.63,-6.0,-9.0,110,3,,6.21,30.206694,,,,,,,,,,,CAVOK,,,,,,,,VFR,,,,,,,,,,,,METAR,7.0
ENWV 140420Z AUTO 09018KT 9999NDV BKN035/// 03/M04 Q1020 W///S4,ENWV,2021-01-14T04:20:00Z,56.28,3.4,3.0,-4.0,90,18,,,30.11811,,,TRUE,,,,,,,,BKN,3500,,,,,,,,,,,,,,,,,,,METAR,30.0
ENVD 140420Z 29011KT 9999 -SN FEW004 SCT006 BKN009 M13/M15 Q1020,ENVD,2021-01-14T04:20:00Z,70.07,29.85,-13.0,-15.0,290,11,,6.21,30.11811,,,,,,,,,,-SN,FEW,400,SCT,600,BKN,900,,,IFR,,,,,,,,,,,,METAR,39.0
ENVA 140420Z 13007KT CAVOK M15/M17 Q1026 RMK WIND 670FT 13006KT,ENVA,2021-01-14T04:20:00Z,63.47,10.92,-15.0,-17.0,130,7,,6.21,30.295275,,,,,,,,,,,CAVOK,,,,,,,,VFR,,,,,,,,,,,,SPECI,12.0
ENUN 140420Z AUTO 11009KT 9999NDV OVC035/// 03/00 Q1024 W07/S/,ENUN,2021-01-14T04:20:00Z,,,3.0,0.0,110,9,,,30.236221,,,TRUE,,,,,,,,OVC,3500,,,,,,,,,,,,,,,,,,,METAR,
ENUG 140420Z AUTO 35019KT 310V010 9999NDV BKN017/// BKN150/// 03/M01 Q1017 W///S4,ENUG,2021-01-14T04:20:00Z,71.3,22.25,3.0,-1.0,350,19,,,30.029528,,,TRUE,,,,,,,,BKN,1700,BKN,15000,,,,,,,,,,,,,,,,,METAR,30.0
ENTO 140420Z AUTO 36012KT 9999 OVC021/// M05/M09 Q1023,ENTO,2021-01-14T04:20:00Z,59.2,10.27,-5.0,-9.0,360,12,,6.21,30.206694,,,TRUE,,,,,,,,OVC,2100,,,,,,,MVFR,,,,,,,,,,,,METAR,84.0
ENTC 140420Z 22014KT 4000 -SHSN VV017 M02/M06 Q1023 RMK WIND 2600FT 28010KT,ENTC,2021-01-14T04:20:00Z,69.68,18.92,-2.0,-6.0,220,14,,2.49,30.206694,,,,,,,,,,-SHSN,OVX,0,,,,,,,LIFR,,,,,,,,,,,1700,SPECI,9.0
ENST 140420Z 08010KT CAVOK M06/M09 Q1026 RMK WIND 300FT 06010KT,ENST,2021-01-14T04:20:00Z,65.97,12.47,-6.0,-9.0,80,10,,6.21,30.295275,,,,,,,,,,,CAVOK,,,,,,,,VFR,,,,,,,,,,,,METAR,17.0
ENSL 140420Z AUTO 14017KT 9999NDV NCD 04/M03 Q1021 W04/S4,ENSL,2021-01-14T04:20:00Z,58.37,1.9,4.0,-3.0,140,17,,,30.147638,,,TRUE,,,,,,,,CLR,,,,,,,,,,,,,,,,,,,,METAR,50.0
ENSF 140420Z AUTO 13008KT 9999NDV NCD 06/M06 Q1022 W///S3,ENSF,2021-01-14T04:20:00Z,61.25,1.85,6.0,-6.0,130,8,,,30.177166,,,TRUE,,,,,,,,CLR,,,,,,,,,,,,,,,,,,,,METAR,15.0
ENSE 140420Z AUTO VRB08KT 9999NDV NCD 03/M05 Q1022 W///S4,ENSE,2021-01-14T04:20:00Z,61.45,2.15,3.0,-5.0,0,8,,,30.177166,,,TRUE,,,,,,,,CLR,,,,,,,,,,,,,,,,,,,,METAR,10.0
ENRY 140420Z AUTO 02011KT 9999NDV OVC024/// M06/M10 Q1024,ENRY,2021-01-14T04:20:00Z,59.37,10.77,-6.0,-10.0,20,11,,,30.236221,,,TRUE,,,,,,,,OVC,2400,,,,,,,,,,,,,,,,,,,METAR,45.0
ENRO 140420Z AUTO VRB01KT 9999NDV OVC011/// M19/M22 Q1021,ENRO,2021-01-14T04:20:00Z,62.57,11.33,-19.0,-22.0,0,1,,,30.147638,,,TRUE,,,,,,,,OVC,1100,,,,,,,,,,,,,,,,,,,SPECI,624.0
ENQR 140420Z AUTO 14012KT 9999NDV NCD 03/M07 Q1022 W///S3,ENQR,2021-01-14T04:20:00Z,61.52,2.22,3.0,-7.0,140,12,,,30.177166,,,TRUE,,,,,,,,CLR,,,,,,,,,,,,,,,,,,,,METAR,10.0
ENQC 140420Z AUTO 14006KT 9999NDV NCD 02/M07 Q1022 W///S3,ENQC,2021-01-14T04:20:00Z,60.88,3.62,2.0,-7.0,140,6,,,30.177166,,,TRUE,,,,,,,,CLR,,,,,,,,,,,,,,,,,,,,METAR,20.0
ENQA 140420Z AUTO 19005KT 140V220 9999NDV NCD 02/M05 Q1023 W03/S3,ENQA,2021-01-14T04:20:00Z,60.65,3.72,2.0,-5.0,190,5,,,30.206694,,,TRUE,,,,,,,,CLR,,,,,,,,,,,,,,,,,,,,METAR,90.0
ENOL 140420Z 12013KT 9999 SCT009 M08/M09 Q1025,ENOL,2021-01-14T04:20:00Z,63.7,9.6,-8.0,-9.0,120,13,,6.21,30.265747,,,,,,,,,,,SCT,900,,,,,,,VFR,,,,,,,,,,,,METAR,9.0
ENOA 140420Z 16006KT 110V180 CAVOK 03/M06 Q1022 W///S/,ENOA,2021-01-14T04:20:00Z,60.5,2.83,3.0,-6.0,160,6,,6.21,30.177166,,,,,,,,,,,CAVOK,,,,,,,,VFR,,,,,,,,,,,,SPECI,5.0
ENNE 140420Z AUTO 18012KT 9999NDV FEW022/// BKN046/// 01/M03 Q1025 W///S3,ENNE,2021-01-14T04:20:00Z,66.03,8.08,1.0,-3.0,180,12,,,30.265747,,,TRUE,,,,,,,,FEW,2200,BKN,4600,,,,,,,,,,,,,,,,,METAR,10.0
ENNA 140420Z AUTO 17013KT 9999 OVC064/// M15/M20 Q1021 RMK WIND 1800FT 27022G37KT,ENNA,2021-01-14T04:20:00Z,70.07,24.97,-15.0,-20.0,170,13,,6.21,30.147638,,,TRUE,,,,,,,,OVC,6400,,,,,,,VFR,,,,,,,,,,,,SPECI,12.0
ENML 140420Z AUTO 04007KT 9999NDV NCD M09/M12 Q1024,ENML,2021-01-14T04:20:00Z,62.75,7.27,-9.0,-12.0,40,7,,,30.236221,,,TRUE,,,,,,,,CLR,,,,,,,,,,,,,,,,,,,,SPECI,3.0
ENMH 140420Z 21018KT 9999 FEW022 SCT033 M01/M03 Q1016,ENMH,2021-01-14T04:20:00Z,71.02,27.82,-1.0,-3.0,210,18,,6.21,30.0,,,,,,,,,,,FEW,2200,SCT,3300,,,,,VFR,,,,,,,,,,,,METAR,10.0
ENLE 140420Z 09017KT 9999 SCT035 03/M05 Q1021 W08/S5,ENLE,2021-01-14T04:20:00Z,56.53,3.22,3.0,-5.0,90,17,,6.21,30.147638,,,,,,,,,,,SCT,3500,,,,,,,VFR,,,,,,,,,,,,METAR,10.0
ENLA 140420Z AUTO 11017KT 9999NDV SCT030/// 02/M04 Q1020 W///S4,ENLA,2021-01-14T04:20:00Z,57.1,2.83,2.0,-4.0,110,17,,,30.11811,,,TRUE,,,,,,,,SCT,3000,,,,,,,,,,,,,,,,,,,METAR,10.0
ENKR 140420Z 20009KT 9999 SCT014 M17/M20 Q1021 RMK WIND 731FT 22014KT,ENKR,2021-01-14T04:20:00Z,69.72,29.88,-17.0,-20.0,200,9,,6.21,30.147638,,,,,,,,,,,SCT,1400,,,,,,,VFR,,,,,,,,,,,,SPECI,86.0
ENKB 140420Z AUTO 10005KT 060V130 9999 NCD M06/M10 Q1024 RMK WIND 745FT 14010KT,ENKB,2021-01-14T04:20:00Z,63.12,7.82,-6.0,-10.0,100,5,,6.21,30.236221,,,TRUE,,,,,,,,CLR,,,,,,,,VFR,,,,,,,,,,,,SPECI,62.0
ENHV 140420Z 22014KT 9999 -SHSN VV033 00/M01 Q1017,ENHV,2021-01-14T04:20:00Z,71.02,25.97,0.0,-1.0,220,14,,6.21,30.029528,,,,,,,,,,-SHSN,OVX,0,,,,,,,LIFR,,,,,,,,,,,3300,METAR,13.0
ENHM 140420Z AUTO 15010KT 9999NDV NCD 03/M05 Q1022 W08/S3,ENHM,2021-01-14T04:20:00Z,59.57,2.23,3.0,-5.0,150,10,,,30.177166,,,TRUE,,,,,,,,CLR,,,,,,,,,,,,,,,,,,,,METAR,10.0
ENHF 140420Z 24016KT 8000 -SHSN FEW007 SCT010 BKN013 M01/M02 Q1018 RMK WIND 1254FT 25022KT,ENHF,2021-01-14T04:20:00Z,70.67,23.67,-1.0,-2.0,240,16,,4.97,30.059055,,,,,,,,,,-SHSN,FEW,700,SCT,1000,BKN,1300,,,MVFR,,,,,,,,,,,,SPECI,79.0
ENHE 140420Z 13013KT 9999 FEW020 BKN040 01/M03 Q1024 W///S3,ENHE,2021-01-14T04:20:00Z,65.33,2.33,1.0,-3.0,130,13,,6.21,30.236221,,,,,,,,,,,FEW,2000,BKN,4000,,,,,VFR,,,,,,,,,,,,SPECI,10.0
ENHD 140420Z AUTO 10009KT 9999 NCD M05/M08 Q1023,ENHD,2021-01-14T04:20:00Z,59.35,5.22,-5.0,-8.0,100,9,,6.21,30.206694,,,TRUE,,,,,,,,CLR,,,,,,,,VFR,,,,,,,,,,,,METAR,22.0
ENGM 140420Z 36008KT 9999 BKN029 M08/M11 Q1024,ENGM,2021-01-14T04:20:00Z,60.2,11.07,-8.0,-11.0,360,8,,6.21,30.236221,,,,,,,,,,,BKN,2900,,,,,,,MVFR,,,,,,,,,,,,METAR,204.0
ENFL 140420Z AUTO 09007KT 9999NDV NCD M02/M08 Q1023,ENFL,2021-01-14T04:20:00Z,61.57,5.02,-2.0,-8.0,90,7,,,30.206694,,,TRUE,,,,,,,,CLR,,,,,,,,,,,,,,,,,,,,SPECI,1.0
ENFB 140420Z AUTO 14009KT 9999NDV NCD ///// Q//// W///S3,ENFB,2021-01-14T04:20:00Z,61.2,1.83,,,140,9,,,,,,TRUE,,,,,,,,CLR,,,,,,,,,,,,,,,,,,,,SPECI,10.0
ENEV 140420Z AUTO VRB02KT 9999 SCT017/// OVC055/// M05/M08 Q1025 RMK WIND 1400FT 21008KT,ENEV,2021-01-14T04:20:00Z,68.48,16.67,-5.0,-8.0,0,2,,6.21,30.265747,,,TRUE,,,,,,,,SCT,1700,OVC,5500,,,,,VFR,,,-0.8,,,,,,,,,SPECI,26.0
ENDU 140420Z 00000KT 9999 -SHSN FEW030 BKN050 M13/M17 Q1024 RMK WIND 1100FT 21005KT WIND 2200FT 25010KT,ENDU,2021-01-14T04:20:00Z,69.05,18.55,-13.0,-17.0,0,0,,6.21,30.236221,,,,,,,,,,-SHSN,FEW,3000,BKN,5000,,,,,VFR,,,-0.5,,,,,,,,,SPECI,65.0
ENCN 140420Z AUTO 04008KT 9999 NCD M05/M10 Q1023,ENCN,2021-01-14T04:20:00Z,58.2,8.07,-5.0,-10.0,40,8,,6.21,30.206694,,,TRUE,,,,,,,,CLR,,,,,,,,VFR,,,,,,,,,,,,METAR,17.0
ENBR 140420Z VRB02KT CAVOK M08/M09 Q1023 RMK WIND 1200FT 35003KT,ENBR,2021-01-14T04:20:00Z,60.28,5.22,-8.0,-9.0,0,2,,6.21,30.206694,,,,,,,,,,,CAVOK,,,,,,,,VFR,,,,,,,,,,,,SPECI,49.0
ENBO 140420Z 10010KT 9999 FEW015 BKN025 M03/M08 Q1026,ENBO,2021-01-14T04:20:00Z,67.27,14.37,-3.0,-8.0,100,10,,6.21,30.295275,,,,,,,,,,,FEW,1500,BKN,2500,,,,,MVFR,,,,,,,,,,,,METAR,13.0
ENAT 140420Z AUTO 21005KT 180V240 9999 SCT040/// M14/M18 Q1022 RMK WIND 700FT 13006KT,ENAT,2021-01-14T04:20:00Z,69.97,23.37,-14.0,-18.0,210,5,,6.21,30.177166,,,TRUE,,,,,,,,SCT,4000,,,,,,,VFR,,,,,,,,,,,,SPECI,3.0
ENAN 140420Z 19007KT 9999 SCT051 M01/M01 Q1023,ENAN,2021-01-14T04:20:00Z,69.3,16.13,-1.0,-1.0,190,7,,6.21,30.206694,,,,,,,,,,,SCT,5100,,,,,,,VFR,,,,,,,,,,,,METAR,13.0
ENAL 140420Z AUTO 15007KT 9999 NCD M04/M09 Q1023,ENAL,2021-01-14T04:20:00Z,62.57,6.12,-4.0,-9.0,150,7,,6.21,30.206694,,,TRUE,,,,,,,,CLR,,,,,,,,VFR,,,,,,,,,,,,METAR,21.0
ELLX 140420Z 27006KT 2000 -SN BR SCT003 BKN005 00/00 Q1016 NOSIG,ELLX,2021-01-14T04:20:00Z,49.63,6.2,0.0,0.0,270,6,,1.24,30.0,,,,,,TRUE,,,,-SN BR,SCT,300,BKN,500,,,,,IFR,,,,,,,,,,,,METAR,374.0
EKVG 140420Z AUTO 12021KT 9999 SCT026/// 04/01 Q1016,EKVG,2021-01-14T04:20:00Z,62.07,-7.27,4.0,1.0,120,21,,6.21,30.0,,,TRUE,,,,,,,,SCT,2600,,,,,,,VFR,,,,,,,,,,,,METAR,89.0
EKVD 140420Z AUTO 02012KT 350V050 //// ///////// M00/M02 Q1018,EKVD,2021-01-14T04:20:00Z,55.43,9.32,0.0,-2.0,20,12,,,30.059055,,,TRUE,,,,,,,,,,,,,,,,,,,,,,,,,,,,METAR,41.0
EKSP 140420Z 01006KT 320V050 9999 SCT033 M01/M04 Q1017,EKSP,2021-01-14T04:20:00Z,55.22,9.27,-1.0,-4.0,10,6,,6.21,30.029528,,,,,,,,,,,SCT,3300,,,,,,,VFR,,,,,,,,,,,,METAR,40.0
EKSB 140420Z AUTO 36016KT 9999NDV BKN037/// 01/M01 Q1016,EKSB,2021-01-14T04:20:00Z,54.97,9.8,1.0,-1.0,360,16,,,30.0,,,TRUE,,,,,,,,BKN,3700,,,,,,,,,,,,,,,,,,,METAR,23.0
EKRS 140420Z AUTO VRB04KT 9999 OVC024/// 01/M00 Q1014,EKRS,2021-01-14T04:20:00Z,55.42,11.8,1.0,0.0,0,4,,6.21,29.940945,,,TRUE,,,,,,,,OVC,2400,,,,,,,MVFR,,,,,,,,,,,,METAR,34.0
EKRN 140420Z AUTO 35005KT 310V030 9999 SCT044/// 02/01 Q1010,EKRN,2021-01-14T04:20:00Z,55.07,14.75,2.0,1.0,350,5,,6.21,29.822834,,,TRUE,,,,,,,,SCT,4400,,,,,,,VFR,,,,,,,,,,,,METAR,14.0
EKRK 140420Z AUTO 36009KT 9999 BKN021/// 01/M01 Q1014 R99/591592,EKRK,2021-01-14T04:20:00Z,55.58,12.13,1.0,-1.0,360,9,,6.21,29.940945,,,TRUE,,,,,,,,BKN,2100,,,,,,,MVFR,,,,,,,,,,,,SPECI,40.0
EKKA 140420Z AUTO 36007KT 9999 OVC018/// M01/M04 Q1019 R27L/290195,EKKA,2021-01-14T04:20:00Z,56.3,9.12,-1.0,-4.0,360,7,,6.21,30.088583,,,TRUE,,,,,,,,OVC,1800,,,,,,,MVFR,,,,,,,,,,,,SPECI,50.0
EKEB 140420Z AUTO 03010KT 9999 OVC021/// M00/M04 Q1019,EKEB,2021-01-14T04:20:00Z,55.52,8.55,0.0,-4.0,30,10,,6.21,30.088583,,,TRUE,,,,,,,,OVC,2100,,,,,,,MVFR,,,,,,,,,,,,METAR,29.0
EKCH 140420Z AUTO 01018KT 9999 OVC019/// 02/M02 Q1014 R04L/720154 R04R/720161 R12/720158 TEMPO 02020G30KT,EKCH,2021-01-14T04:20:00Z,55.62,12.67,2.0,-2.0,10,18,,6.21,29.940945,,,TRUE,,,,,,,,OVC,1900,,,,,,,MVFR,,,,,,,,,,,,METAR,4.0
EKBI 140420Z AUTO 01012KT 9999 OVC017/// M01/M04 Q1018,EKBI,2021-01-14T04:20:00Z,55.73,9.15,-1.0,-4.0,10,12,,6.21,30.059055,,,TRUE,,,,,,,,OVC,1700,,,,,,,MVFR,,,,,,,,,,,,METAR,67.0
EKAH 140420Z AUTO 01009KT 9999 OVC014/// 00/M02 Q1018 R99/690294,EKAH,2021-01-14T04:20:00Z,56.28,10.62,0.0,-2.0,10,9,,6.21,30.059055,,,TRUE,,,,,,,,OVC,1400,,,,,,,MVFR,,,,,,,,,,,,SPECI,25.0
EGVN 140420Z 24005KT 3000 -RADZ OVC004 10/09 Q1014 TEMPO 8000 -RA BKN007 RMK YLO2 TEMPO GRN,EGVN,2021-01-14T04:20:00Z,51.77,-1.58,10.0,9.0,240,5,,1.86,29.940945,,,,,,,,,,-RA -DZ,OVC,400,,,,,,,LIFR,,,,,,,,,,,,METAR,83.0
EGSS 140420Z AUTO 11010KT 4000 RA BKN003/// OVC016/// //////TCU 03/03 Q1015,EGSS,2021-01-14T04:20:00Z,51.88,0.22,3.0,3.0,110,10,,2.49,29.970472,,,TRUE,,,,,,,RA,BKN,300,OVC,1600,,,,,LIFR,,,,,,,,,,,,SPECI,101.0
EGSH 140420Z AUTO VRB02KT 7000 -RA SCT004/// BKN008/// BKN022/// 02/01 Q1017,EGSH,2021-01-14T04:20:00Z,52.68,1.28,2.0,1.0,0,2,,4.35,30.029528,,,TRUE,,,,,,,-RA,SCT,400,BKN,800,BKN,2200,,,IFR,,,,,,,,,,,,METAR,21.0
EGPO 140420Z AUTO 16012KT 4300 -DZ OVC001/// 07/06 Q1012,EGPO,2021-01-14T04:20:00Z,58.22,-6.32,7.0,6.0,160,12,,2.67,29.88189,,,TRUE,,,,,,,-DZ,OVC,100,,,,,,,LIFR,,,,,,,,,,,,METAR,10.0
EGPL 140420Z AUTO 32014KT 9999 FEW009/// SCT012/// BKN025/// 07/06 Q1013,EGPL,2021-01-14T04:20:00Z,57.47,-7.37,7.0,6.0,320,14,,6.21,29.911417,,,TRUE,,,,,,,,FEW,900,SCT,1200,BKN,2500,,,MVFR,,,,,,,,,,,,METAR,3.0
EGPK 140420Z 03007KT 7000 -RA OVC011 03/02 Q1014,EGPK,2021-01-14T04:20:00Z,55.5,-4.58,3.0,2.0,30,7,,4.35,29.940945,,,,,,,,,,-RA,OVC,1100,,,,,,,MVFR,,,,,,,,,,,,METAR,14.0
EGPH 140420Z 07009KT 8000 -RA SCT009 OVC027 02/02 Q1014,EGPH,2021-01-14T04:20:00Z,55.95,-3.35,2.0,2.0,70,9,,4.97,29.940945,,,,,,,,,,-RA,SCT,900,OVC,2700,,,,,MVFR,,,,,,,,,,,,METAR,29.0
EGPF 140420Z AUTO 04006KT 7000 -RA SCT009/// OVC012/// //////TCU 02/01 Q1015 RERA REDZ,EGPF,2021-01-14T04:20:00Z,55.87,-4.42,2.0,1.0,40,6,,4.35,29.970472,,,TRUE,,,,,,,-RA,SCT,900,OVC,1200,,,,,MVFR,,,,,,,,,,,,SPECI,8.0
EGPE 140420Z 09005KT 9999 SCT020 BKN035 01/01 Q1015,EGPE,2021-01-14T04:20:00Z,57.53,-4.05,1.0,1.0,90,5,,6.21,29.970472,,,,,,,,,,,SCT,2000,BKN,3500,,,,,VFR,,,,,,,,,,,,METAR,7.0
EGPD 140420Z AUTO 16010KT 9999 BKN018 OVC025 05/03 Q1016 TEMPO BKN012,EGPD,2021-01-14T04:20:00Z,57.2,-2.22,5.0,3.0,160,10,,6.21,30.0,,,TRUE,,,,,,,,BKN,1800,OVC,2500,,,,,MVFR,,,,,,,,,,,,SPECI,65.0
EGPC 140420Z AUTO 14018KT 9999 BKN020/// OVC025/// 06/02 Q1016,EGPC,2021-01-14T04:20:00Z,58.45,-3.08,6.0,2.0,140,18,,6.21,30.0,,,TRUE,,,,,,,,BKN,2000,OVC,2500,,,,,MVFR,,,,,,,,,,,,METAR,38.0
EGPB 140420Z 15017KT 9999 BKN030 04/M02 Q1020,EGPB,2021-01-14T04:20:00Z,59.87,-1.3,4.0,-2.0,150,17,,6.21,30.11811,,,,,,,,,,,BKN,3000,,,,,,,MVFR,,,,,,,,,,,,METAR,2.0
EGPA 140420Z AUTO 15016KT 9999 BKN022/// OVC033/// 05/01 Q1017,EGPA,2021-01-14T04:20:00Z,58.95,-2.9,5.0,1.0,150,16,,6.21,30.029528,,,TRUE,,,,,,,,BKN,2200,OVC,3300,,,,,MVFR,,,,,,,,,,,,METAR,15.0
EGNX 140420Z 11012KT 2200 RA BR BKN003 02/02 Q1014 RERA,EGNX,2021-01-14T04:20:00Z,52.82,-1.32,2.0,2.0,110,12,,1.37,29.940945,,,,,,,,,,RA BR,BKN,300,,,,,,,LIFR,,,,,,,,,,,,METAR,91.0
EGNT 140420Z AUTO 12003KT 1000 R25/1100 -FZRA OVC002/// 00/M01 Q1016,EGNT,2021-01-14T04:20:00Z,55.03,-1.7,0.0,-1.0,120,3,,0.62,30.0,,,TRUE,,,,,,,-FZRA,OVC,200,,,,,,,LIFR,,,,,,,,,,,,SPECI,77.0
EGNJ 140420Z AUTO 10006KT 7000 RA BKN004/// OVC038/// 02/02 Q1016,EGNJ,2021-01-14T04:20:00Z,53.57,-0.35,2.0,2.0,100,6,,4.35,30.0,,,TRUE,,,,,,,RA,BKN,400,OVC,3800,,,,,LIFR,,,,,,,,,,,,METAR,23.0
EGMD 140420Z AUTO 08008KT 6000 -RA BKN003/// OVC006/// 07/06 Q1016,EGMD,2021-01-14T04:20:00Z,50.95,0.93,7.0,6.0,80,8,,3.73,30.0,,,TRUE,,,,,,,-RA,BKN,300,OVC,600,,,,,LIFR,,,,,,,,,,,,METAR,4.0
EGMC 140420Z 20007KT 4500 -RADZ BR SCT004 BKN006 04/04 Q1016,EGMC,2021-01-14T04:20:00Z,51.57,0.7,4.0,4.0,200,7,,2.8,30.0,,,,,,,,,,-RA -DZ BR,SCT,400,BKN,600,,,,,IFR,,,,,,,,,,,,METAR,15.0
EGLL 140420Z 24004KT 9999 -RA BKN007 09/09 Q1015 TEMPO 4000 RADZ BKN004,EGLL,2021-01-14T04:20:00Z,51.48,-0.45,9.0,9.0,240,4,,6.21,29.970472,,,,,,,,,,-RA,BKN,700,,,,,,,IFR,,,,,,,,,,,,SPECI,26.0
EGLF 140420Z AUTO 24008KT 9999 OVC008/// 09/09 Q1015 RERA,EGLF,2021-01-14T04:20:00Z,51.28,-0.77,9.0,9.0,240,8,,6.21,29.970472,,,TRUE,,,,,,,,OVC,800,,,,,,,IFR,,,,,,,,,,,,METAR,65.0
EGLC 140420Z AUTO 10008KT 3700 -RASN BKN003/// OVC007/// //////CB 05/04 Q1015 RERA,EGLC,2021-01-14T04:20:00Z,51.5,0.05,5.0,4.0,100,8,,2.3,29.970472,,,TRUE,,,,,,,-RA -SN,BKN,300,OVC,700,,,,,LIFR,,,,,,,,,,,,SPECI,10.0
EGKK 140420Z 22005KT 6000 -RADZ BKN005 09/09 Q1015,EGKK,2021-01-14T04:20:00Z,51.13,-0.18,9.0,9.0,220,5,,3.73,29.970472,,,,,,,,,,-RA -DZ,BKN,500,,,,,,,IFR,,,,,,,,,,,,METAR,58.0
EGJJ 140420Z AUTO 25020KT 9999 BKN005/// OVC007/// 10/09 Q1019,EGJJ,2021-01-14T04:20:00Z,49.22,-2.2,10.0,9.0,250,20,,6.21,30.088583,,,TRUE,,,,,,,,BKN,500,OVC,700,,,,,IFR,,,,,,,,,,,,METAR,84.0
EGJB 140420Z 24018KT 0600 -DZ FG BKN000 BKN001 10/10 Q1019,EGJB,2021-01-14T04:20:00Z,49.42,-2.6,10.0,10.0,240,18,,0.37,30.088583,,,,,,,,,,-DZ FG,BKN,0,BKN,100,,,,,LIFR,,,,,,,,,,,,METAR,102.0
EGHQ 140420Z AUTO 27019KT 0800 FG VV/// 09/09 Q1017,EGHQ,2021-01-14T04:20:00Z,50.43,-5.0,9.0,9.0,270,19,,0.5,30.029528,,,TRUE,,,,,,,FG,OVX,0,,,,,,,LIFR,,,,,,,,,,,,METAR,101.0
EGGW 140420Z AUTO 13008KT 6000 -RA OVC002/// //////CB 03/03 Q1014,EGGW,2021-01-14T04:20:00Z,51.87,-0.37,3.0,3.0,130,8,,3.73,29.940945,,,TRUE,,,,,,,-RA,OVC,200,,,,,,,LIFR,,,,,,,,,,,,SPECI,159.0
EGGP 140420Z AUTO 07009KT 2400 -DZ OVC001/// 05/05 Q1012 REDZ,EGGP,2021-01-14T04:20:00Z,53.33,-2.85,5.0,5.0,70,9,,1.49,29.88189,,,TRUE,,,,,,,-DZ,OVC,100,,,,,,,LIFR,,,,,,,,,,,,SPECI,23.0
EGGD 140420Z AUTO 24011KT 0900 FG OVC002 09/09 Q1014 REDZ,EGGD,2021-01-14T04:20:00Z,51.37,-2.72,9.0,9.0,240,11,,0.56,29.940945,,,TRUE,,,,,,,FG,OVC,200,,,,,,,LIFR,,,,,,,,,,,,SPECI,182.0
EGFF 140420Z AUTO 26013KT 1300 +RA OVC002 09/09 Q1014 REDZ,EGFF,2021-01-14T04:20:00Z,51.38,-3.35,9.0,9.0,260,13,,0.81,29.940945,,,TRUE,,,,,,,+RA,OVC,200,,,,,,,LIFR,,,,,,,,,,,,SPECI,65.0
EGCN 140420Z AUTO 10004KT 050V130 2600 RA OVC001/// 02/02 Q1017,EGCN,2021-01-14T04:20:00Z,53.48,-1.0,2.0,2.0,100,4,,1.62,30.029528,,,TRUE,,,,,,,RA,OVC,100,,,,,,,LIFR,,,,,,,,,,,,METAR,9.0
EGCK 140420Z AUTO 26011KT 3100 +RA OVC001/// 09/09 Q1013,EGCK,2021-01-14T04:20:00Z,53.1,-4.33,9.0,9.0,260,11,,1.93,29.911417,,,TRUE,,,,,,,+RA,OVC,100,,,,,,,LIFR,,,,,,,,,,,,METAR,6.0
EGCC 140420Z AUTO 09004KT 050V140 2500 DZ OVC005 04/04 Q1013,EGCC,2021-01-14T04:20:00Z,53.35,-2.27,4.0,4.0,90,4,,1.55,29.911417,,,TRUE,,,,,,,DZ,OVC,500,,,,,,,IFR,,,,,,,,,,,,METAR,78.0
EGBB 140420Z 34003KT 1800 RA OVC002 05/04 Q1013,EGBB,2021-01-14T04:20:00Z,52.47,-1.75,5.0,4.0,340,3,,1.12,29.911417,,,,,,,,,,RA,OVC,200,,,,,,,LIFR,,,,,,,,,,,,METAR,91.0
EGAC 140420Z AUTO 32011KT 9000 -RA NCD 09/07 Q1013,EGAC,2021-01-14T04:20:00Z,54.62,-5.87,9.0,7.0,320,11,,5.59,29.911417,,,TRUE,,,,,,,-RA,CLR,,,,,,,,VFR,,,,,,,,,,,,METAR,2.0
EGAA 140420Z AUTO 30011KT 4500 BR BKN004/// OVC007/// 08/07 Q1014,EGAA,2021-01-14T04:20:00Z,54.65,-6.22,8.0,7.0,300,11,,2.8,29.940945,,,TRUE,,,,,,,BR,BKN,400,OVC,700,,,,,LIFR,,,,,,,,,,,,METAR,65.0
EFVA 140420Z AUTO 05003KT 020V080 CAVOK M17/M19 Q1025,EFVA,2021-01-14T04:20:00Z,63.05,21.77,-17.0,-19.0,50,3,,6.21,30.265747,,,TRUE,,,,,,,,CAVOK,,,,,,,,VFR,,,,,,,,,,,,METAR,4.0
EFUT 140420Z 02009KT 8000 -SN BKN008 M15/M17 Q1019,EFUT,2021-01-14T04:20:00Z,60.88,26.93,-15.0,-17.0,20,9,,4.97,30.088583,,,,,,,,,,-SN,BKN,800,,,,,,,IFR,,,,,,,,,,,,METAR,104.0
EFTU 140420Z AUTO 05007KT 020V090 9999 -SHSN FEW010 M11/M13 Q1019,EFTU,2021-01-14T04:20:00Z,60.52,22.27,-11.0,-13.0,50,7,,6.21,30.088583,,,TRUE,,,,,,,-SHSN,FEW,1000,,,,,,,VFR,,,,,,,,,,,,METAR,47.0
EFTP 140420Z AUTO 05006KT 9999 -SN BKN019 M15/M17 Q1021,EFTP,2021-01-14T04:20:00Z,61.42,23.62,-15.0,-17.0,50,6,,6.21,30.147638,,,TRUE,,,,,,,-SN,BKN,1900,,,,,,,MVFR,,,,,,,,,,,,METAR,111.0
EFSI 140420Z AUTO 05002KT 9999 -SHSN SKC M21/M23 Q1024,EFSI,2021-01-14T04:20:00Z,62.7,22.83,-21.0,-23.0,50,2,,6.21,30.236221,,,TRUE,,,,,,,-SHSN,SKC,,,,,,,,VFR,,,,,,,,,,,,METAR,90.0
EFSA 140420Z AUTO 03005KT 9999 BKN010 M24/M27 Q1023,EFSA,2021-01-14T04:20:00Z,61.95,28.93,-24.0,-27.0,30,5,,6.21,30.206694,,,TRUE,,,,,,,,BKN,1000,,,,,,,MVFR,,,,,,,,,,,,METAR,90.0
EFRO 140420Z AUTO 08005KT CAVOK M27/M29 Q1025,EFRO,2021-01-14T04:20:00Z,66.57,25.82,-27.0,-29.0,80,5,,6.21,30.265747,,,TRUE,,,,,,,,CAVOK,,,,,,,,VFR,,,,,,,,,,,,METAR,201.0
EFPO 140420Z AUTO 05007KT 9999 -SHSN NSC M12/M15 Q1022,EFPO,2021-01-14T04:20:00Z,61.47,21.8,-12.0,-15.0,50,7,,6.21,30.177166,,,TRUE,,,,,,,-SHSN,CLR,,,,,,,,VFR,,,,,,,,,,,,METAR,10.0
EFOU 140420Z AUTO 12004KT CAVOK M25/M28 Q1028,EFOU,2021-01-14T04:20:00Z,64.92,25.37,-25.0,-28.0,120,4,,6.21,30.35433,,,TRUE,,,,,,,,CAVOK,,,,,,,,VFR,,,,,,,,,,,,METAR,15.0
EFMA 140420Z AUTO 02011KT 9999 -SHSN OVC006 M05/M07 Q1019,EFMA,2021-01-14T04:20:00Z,60.12,19.9,-5.0,-7.0,20,11,,6.21,30.088583,,,TRUE,,,,,,,-SHSN,OVC,600,,,,,,,IFR,,,,,,,,,,,,METAR,6.0
EFKU 140420Z AUTO 09003KT 050V140 CAVOK M24/M27 Q1025,EFKU,2021-01-14T04:20:00Z,63.02,27.8,-24.0,-27.0,90,3,,6.21,30.265747,,,TRUE,,,,,,,,CAVOK,,,,,,,,VFR,,,,,,,,,,,,METAR,92.0
EFKT 140420Z AUTO VRB01KT CAVOK M33/M36 Q1025,EFKT,2021-01-14T04:20:00Z,67.7,24.85,-33.0,-36.0,0,1,,6.21,30.265747,,,TRUE,,,,,,,,CAVOK,,,,,,,,VFR,,,,,,,,,,,,METAR,190.0
EFKS 140420Z AUTO VRB01KT CAVOK M35/M39 Q1025,EFKS,2021-01-14T04:20:00Z,66.0,29.23,-35.0,-39.0,0,1,,6.21,30.265747,,,TRUE,,,,,,,,CAVOK,,,,,,,,VFR,,,,,,,,,,,,METAR,270.0
EFKK 140420Z AUTO 02005KT CAVOK M25/M28 Q1026,EFKK,2021-01-14T04:20:00Z,63.72,23.13,-25.0,-28.0,20,5,,6.21,30.295275,,,TRUE,,,,,,,,CAVOK,,,,,,,,VFR,,,,,,,,,,,,METAR,25.0
EFKI 140420Z AUTO VRB03KT CAVOK M27/M30 Q1026,EFKI,2021-01-14T04:20:00Z,64.27,27.67,-27.0,-30.0,0,3,,6.21,30.295275,,,TRUE,,,,,,,,CAVOK,,,,,,,,VFR,,,,,,,,,,,,METAR,132.0
EFKE 140420Z AUTO VRB02KT CAVOK M31/M34 Q1028,EFKE,2021-01-14T04:20:00Z,65.78,24.57,-31.0,-34.0,0,2,,6.21,30.35433,,,TRUE,,,,,,,,CAVOK,,,,,,,,VFR,,,,,,,,,,,,METAR,15.0
EFJY 140420Z AUTO 02003KT CAVOK M22/M25 Q1023,EFJY,2021-01-14T04:20:00Z,62.4,25.68,-22.0,-25.0,20,3,,6.21,30.206694,,,TRUE,,,,,,,,CAVOK,,,,,,,,VFR,,,,,,,,,,,,METAR,139.0
EFJO 140420Z AUTO 03005KT 010V070 CAVOK M25/M28 Q1024,EFJO,2021-01-14T04:20:00Z,62.67,29.62,-25.0,-28.0,30,5,,6.21,30.236221,,,TRUE,,,,,,,,CAVOK,,,,,,,,VFR,,,,,,,,,,,,METAR,118.0
EFIV 140420Z AUTO 23012KT 9999 OVC009 M22/M26 Q1024,EFIV,2021-01-14T04:20:00Z,68.62,27.42,-22.0,-26.0,230,12,,6.21,30.236221,,,TRUE,,,,,,,,OVC,900,,,,,,,IFR,,,,,,,,,,,,METAR,145.0
EFHK 140420Z 02009KT 9999 -SN BKN013 M12/M15 Q1019 NOSIG,EFHK,2021-01-14T04:20:00Z,60.32,24.97,-12.0,-15.0,20,9,,6.21,30.088583,,,,,,TRUE,,,,-SN,BKN,1300,,,,,,,MVFR,,,,,,,,,,,,METAR,56.0
EFHA 140420Z AUTO 02007KT 340V050 9999 -SHSN SCT007 OVC045 M20/M23 Q1022,EFHA,2021-01-14T04:20:00Z,61.85,24.8,-20.0,-23.0,20,7,,6.21,30.177166,,,TRUE,,,,,,,-SHSN,SCT,700,OVC,4500,,,,,VFR,,,,,,,,,,,,METAR,144.0
EFET 140420Z AUTO 24004KT 9999 OVC003 M25/M28 Q1022,EFET,2021-01-14T04:20:00Z,68.37,23.43,-25.0,-28.0,240,4,,6.21,30.177166,,,TRUE,,,,,,,,OVC,300,,,,,,,LIFR,,,,,,,,,,,,METAR,300.0
EETU 140420Z AUTO 07009KT 9999 OVC007/// M10/M12 Q1014,EETU,2021-01-14T04:20:00Z,58.32,26.68,-10.0,-12.0,70,9,,6.21,29.940945,,,TRUE,,,,,,,,OVC,700,,,,,,,IFR,,,,,,,,,,,,METAR,67.0
EETN 140420Z 08009KT 9999 SCT007 OVC014 M04/M06 Q1015 R08/910295 NOSIG,EETN,2021-01-14T04:20:00Z,59.4,24.82,-4.0,-6.0,80,9,,6.21,29.970472,,,,,,TRUE,,,,,SCT,700,OVC,1400,,,,,MVFR,,,,,,,,,,,,SPECI,41.0
EEKE 140420Z AUTO 04008KT 9999NDV -SN FEW008 BKN047 M05/M06 Q1014,EEKE,2021-01-14T04:20:00Z,58.23,22.52,-5.0,-6.0,40,8,,,29.940945,,,TRUE,,,,,,,-SN,FEW,800,BKN,4700,,,,,,,,,,,,,,,,,SPECI,4.0
EEKA 140420Z 09009KT 050V120 9999 -SN SCT008 OVC037 M04/M05 Q1015,EEKA,2021-01-14T04:20:00Z,58.98,22.83,-4.0,-5.0,90,9,,6.21,29.970472,,,,,,,,,,-SN,SCT,800,OVC,3700,,,,,VFR,,,,,,,,,,,,METAR,6.0
EDXW 140420Z AUTO 02015KT 9999 // BKN035/// 00/M03 Q1018,EDXW,2021-01-14T04:20:00Z,54.92,8.33,0.0,-3.0,20,15,,6.21,30.059055,,,TRUE,,,,,,,,BKN,3500,,,,,,,VFR,,,,,,,,,,,,METAR,8.0
EDVE 140420Z AUTO 32010KT 9999 // SCT014/// BKN019/// OVC025/// 01/M02 Q1013 RESN,EDVE,2021-01-14T04:20:00Z,52.32,10.55,1.0,-2.0,320,10,,6.21,29.911417,,,TRUE,,,,,,,,SCT,1400,BKN,1900,OVC,2500,,,MVFR,,,,,,,,,,,,METAR,83.0
EDTY 140420Z AUTO 30011KT 9999 // SCT011/// SCT017/// OVC100/// 01/M00 Q1014,EDTY,2021-01-14T04:20:00Z,49.12,9.78,1.0,0.0,300,11,,6.21,29.940945,,,TRUE,,,,,,,,SCT,1100,SCT,1700,OVC,10000,,,VFR,,,,,,,,,,,,SPECI,398.0
EDSB 140420Z 20006KT 8000 -RA FEW033 BKN038 01/00 Q1017,EDSB,2021-01-14T04:20:00Z,48.78,8.08,1.0,0.0,200,6,,4.97,30.029528,,,,,,,,,,-RA,FEW,3300,BKN,3800,,,,,MVFR,,,,,,,,,,,,METAR,122.0
EDNY 140420Z AUTO 05005KT 010V080 9999 // FEW006/// BKN008/// OVC022/// 02/01 Q1015,EDNY,2021-01-14T04:20:00Z,47.67,9.52,2.0,1.0,50,5,,6.21,29.970472,,,TRUE,,,,,,,,FEW,600,BKN,800,OVC,2200,,,IFR,,,,,,,,,,,,METAR,411.0
EDMO 140420Z AUTO 26013KT 4400 // BKN009/// OVC018/// 00/M01 Q1012,EDMO,2021-01-14T04:20:00Z,48.07,11.27,0.0,-1.0,260,13,,2.73,29.88189,,,TRUE,,,,,,,,BKN,900,OVC,1800,,,,,IFR,,,,,,,,,,,,METAR,587.0
EDMA 140420Z AUTO 27012KT 9999 // OVC019/// 01/M01 Q1012,EDMA,2021-01-14T04:20:00Z,48.42,10.92,1.0,-1.0,270,12,,6.21,29.88189,,,TRUE,,,,,,,,OVC,1900,,,,,,,MVFR,,,,,,,,,,,,METAR,462.0
EDLW 140420Z 27003KT 240V310 CAVOK M00/M03 Q1017,EDLW,2021-01-14T04:20:00Z,51.52,7.62,0.0,-3.0,270,3,,6.21,30.029528,,,,,,,,,,,CAVOK,,,,,,,,VFR,,,,,,,,,,,,METAR,122.0
EDLN 140420Z AUTO 33004KT 9999 // OVC110/// 02/M01 Q1018,EDLN,2021-01-14T04:20:00Z,51.23,6.5,2.0,-1.0,330,4,,6.21,30.059055,,,TRUE,,,,,,,,OVC,11000,,,,,,,VFR,,,,,,,,,,,,METAR,38.0
EDJA 140420Z AUTO 26013KT 3900 // FEW010/// BKN023/// OVC036/// M00/M01 Q1013,EDJA,2021-01-14T04:20:00Z,47.98,10.23,0.0,-1.0,260,13,,2.42,29.911417,,,TRUE,,,,,,,,FEW,1000,BKN,2300,OVC,3600,,,IFR,,,,,,,,,,,,SPECI,625.0
EDHK 140420Z AUTO 02015KT 9999 // SCT018/// BKN023/// 02/M01 Q1015,EDHK,2021-01-14T04:20:00Z,54.38,10.15,2.0,-1.0,20,15,,6.21,29.970472,,,TRUE,,,,,,,,SCT,1800,BKN,2300,,,,,MVFR,,,,,,,,,,,,METAR,24.0
EDHI 140420Z AUTO 35009KT 330V030 9999 // SCT010/// BKN014/// OVC024/// 01/M00 Q1015,EDHI,2021-01-14T04:20:00Z,53.53,9.83,1.0,0.0,350,9,,6.21,29.970472,,,TRUE,,,,,,,,SCT,1000,BKN,1400,OVC,2400,,,MVFR,,,,,,,,,,,,METAR,5.0
EDFH 140420Z 33006KT 2500 -SN BR SCT002 BKN004 M00/M01 Q1015,EDFH,2021-01-14T04:20:00Z,49.95,7.27,0.0,-1.0,330,6,,1.55,29.970472,,,,,,,,,,-SN BR,SCT,200,BKN,400,,,,,LIFR,,,,,,,,,,,,METAR,494.0
EDDW 140420Z 34010KT 310V010 9999 BKN019 01/M02 Q1016 R88/290094 NOSIG,EDDW,2021-01-14T04:20:00Z,53.03,8.8,1.0,-2.0,340,10,,6.21,30.0,,,,,,TRUE,,,,,BKN,1900,,,,,,,MVFR,,,,,,,,,,,,SPECI,5.0
EDDV 140420Z 32011KT 9999 BKN017 01/M02 Q1014 TEMPO BKN014,EDDV,2021-01-14T04:20:00Z,52.47,9.68,1.0,-2.0,320,11,,6.21,29.940945,,,,,,,,,,,BKN,1700,,,,,,,MVFR,,,,,,,,,,,,SPECI,53.0
EDDS 140420Z 25007KT 230V290 8000 -SN FEW006 BKN015 01/M00 Q1015,EDDS,2021-01-14T04:20:00Z,48.68,9.22,1.0,0.0,250,7,,4.97,29.970472,,,,,,,,,,-SN,FEW,600,BKN,1500,,,,,MVFR,,,,,,,,,,,,METAR,374.0
EDDR 140420Z 27005KT 5000 -SN BKN005 01/00 Q1016,EDDR,2021-01-14T04:20:00Z,49.22,7.1,1.0,0.0,270,5,,3.11,30.0,,,,,,,,,,-SN,BKN,500,,,,,,,IFR,,,,,,,,,,,,METAR,317.0
EDDP 140420Z 31023KT 9999 -SN SCT010 BKN025 00/M02 Q1008 R26R/5999// R26L/19//95 TEMPO 31020G35KT 3000 -SHSN BKN012,EDDP,2021-01-14T04:20:00Z,51.43,12.23,0.0,-2.0,310,23,,6.21,29.763779,,,,,,,,,,-SN,SCT,1000,BKN,2500,,,,,MVFR,,,,,,,,,,,,SPECI,129.0
EDDN 140420Z 30012KT 9999 FEW028 00/M05 Q1012 R28/290095,EDDN,2021-01-14T04:20:00Z,49.5,11.05,0.0,-5.0,300,12,,6.21,29.88189,,,,,,,,,,,FEW,2800,,,,,,,VFR,,,,,,,,,,,,SPECI,312.0
EDDM 140420Z 28014KT 260V320 9999 -SN BKN020 01/M02 Q1011 TEMPO 29020G30KT 2000 SHSN BKN012TCU,EDDM,2021-01-14T04:20:00Z,48.35,11.82,1.0,-2.0,280,14,,6.21,29.852362,,,,,,,,,,-SN,BKN,2000,,,,,,,MVFR,,,,,,,,,,,,METAR,445.0
EDDL 140420Z 35004KT CAVOK 01/M02 Q1018 NOSIG,EDDL,2021-01-14T04:20:00Z,51.3,6.77,1.0,-2.0,350,4,,6.21,30.059055,,,,,,TRUE,,,,,CAVOK,,,,,,,,VFR,,,,,,,,,,,,METAR,37.0
EDDK 140420Z 33005KT 300V360 CAVOK 02/M03 Q1017 NOSIG,EDDK,2021-01-14T04:20:00Z,50.87,7.15,2.0,-3.0,330,5,,6.21,30.029528,,,,,,TRUE,,,,,CAVOK,,,,,,,,VFR,,,,,,,,,,,,METAR,92.0
EDDH 140420Z 35007KT 310V020 9999 BKN011 01/00 Q1015 R05/CLRD// R15/790195 BECMG SCT011,EDDH,2021-01-14T04:20:00Z,53.63,10.0,1.0,0.0,350,7,,6.21,29.970472,,,,,,,,,,,BKN,1100,,,,,,,MVFR,,,,,,,,,,,,SPECI,8.0
EDDG 140420Z 29004KT CAVOK M02/M03 Q1017 NOSIG,EDDG,2021-01-14T04:20:00Z,52.13,7.7,-2.0,-3.0,290,4,,6.21,30.029528,,,,,,TRUE,,,,,CAVOK,,,,,,,,VFR,,,,,,,,,,,,METAR,46.0
EDDF 140420Z 32009KT 9999 FEW024 03/M04 Q1016 R25L/09//95 R25C/09//95 R18/09//95 NOSIG,EDDF,2021-01-14T04:20:00Z,50.05,8.6,3.0,-4.0,320,9,,6.21,30.0,,,,,,TRUE,,,,,FEW,2400,,,,,,,VFR,,,,,,,,,,,,METAR,113.0
EDDE 140420Z 31022KT 9999 BKN020 M01/M05 Q1011 R88/490594,EDDE,2021-01-14T04:20:00Z,50.98,10.97,-1.0,-5.0,310,22,,6.21,29.852362,,,,,,,,,,,BKN,2000,,,,,,,MVFR,,,,,,,,,,,,SPECI,314.0
EDDC 140420Z 30014KT 260V320 6000 -SHSN BKN007 BKN011 M01/M02 Q1005 RESHSN R04/19//95,EDDC,2021-01-14T04:20:00Z,51.13,13.75,-1.0,-2.0,300,14,,3.73,29.675198,,,,,,,,,,-SHSN,BKN,700,BKN,1100,,,,,IFR,,,,,,,,,,,,METAR,227.0
EDDB 140420Z 36013KT 9999 SCT012 BKN021 01/M01 Q1007 TEMPO 36015G25KT BKN012,EDDB,2021-01-14T04:20:00Z,52.38,13.53,1.0,-1.0,360,13,,6.21,29.734253,,,,,,,,,,,SCT,1200,BKN,2100,,,,,MVFR,,,,,,,,,,,,SPECI,48.0
EDAC 140420Z AUTO 30018KT 9999 // FEW015/// BKN019/// OVC026/// M00/M03 Q1008,EDAC,2021-01-14T04:20:00Z,50.98,12.5,0.0,-3.0,300,18,,6.21,29.763779,,,TRUE,,,,,,,,FEW,1500,BKN,1900,OVC,2600,,,MVFR,,,,,,,,,,,,METAR,193.0
EBOS 140420Z 18003KT 4500 RA BKN002 BKN012 03/02 Q1018 TEMPO 2500 RA SCT002,EBOS,2021-01-14T04:20:00Z,51.2,2.87,3.0,2.0,180,3,,2.8,30.059055,,,,,,,,,,RA,BKN,200,BKN,1200,,,,,LIFR,,,,,,,,,,,,METAR,5.0
EBLG 140420Z 04006KT 1700 -SN FEW002 BKN003 BKN005 00/M00 Q1017 TEMPO 1400 -SN,EBLG,2021-01-14T04:20:00Z,50.63,5.45,0.0,0.0,40,6,,1.06,30.029528,,,,,,,,,,-SN,FEW,200,BKN,300,BKN,500,,,LIFR,,,,,,,,,,,,METAR,187.0
EBCI 140420Z 27003KT 240V310 3800 RASN SCT003 BKN005 BKN014 02/01 Q1017 BECMG 2000 SNRA,EBCI,2021-01-14T04:20:00Z,50.47,4.45,2.0,1.0,270,3,,2.36,30.029528,,,,,,,,,,RA SN,SCT,300,BKN,500,BKN,1400,,,IFR,,,,,,,,,,,,METAR,176.0
EBBR 140420Z 02003KT 330V040 5000 -RA BR SCT006 BKN010 03/02 Q1018 TEMPO 2500 SNRA BKN004,EBBR,2021-01-14T04:20:00Z,50.9,4.52,3.0,2.0,20,3,,3.11,30.059055,,,,,,,,,,-RA BR,SCT,600,BKN,1000,,,,,MVFR,,,,,,,,,,,,METAR,49.0
EBAW 140420Z AUTO 07006KT 7000 -RA BKN004/// OVC006/// 01/00 Q1018,EBAW,2021-01-14T04:20:00Z,51.2,4.47,1.0,0.0,70,6,,4.35,30.059055,,,TRUE,,,,,,,-RA,BKN,400,OVC,600,,,,,LIFR,,,,,,,,,,,,METAR,7.0
UATE 140419Z 13010MPS 2900 BLDU SCT007 04/M02 Q1002 R12/0///70 NOSIG RMK QFE750/1000,UATE,2021-01-14T04:19:00Z,43.87,51.1,4.0,-2.0,130,19,,1.8,29.586615,,,,,,TRUE,,,,BLDU,SCT,700,,,,,,,IFR,,,,,,,,,,,,SPECI,21.0
RJCO 140419Z 29017G27KT 5000 -SHSN BLSN FEW006 BKN020 BKN040 M03/M08 Q1010 RMK 2ST006 5CU020 6CU040 A2983,RJCO,2021-01-14T04:19:00Z,43.12,141.37,-3.0,-8.0,290,17,27,3.11,29.822834,,,,,,,,,,-SHSN BLSN,FEW,600,BKN,2000,BKN,4000,,,MVFR,,,,,,,,,,,,METAR,7.0
PASV 140419Z AUTO 18005KT 10SM BKN030 M02/M03 A2954 RMK AO2 SLP029,PASV,2021-01-14T04:19:00Z,61.1,-155.57,-2.0,-3.0,180,5,,10.0,29.53937,1002.9,,TRUE,TRUE,,,,,,,BKN,3000,,,,,,,MVFR,,,,,,,,,,,,METAR,462.0
PAHY 140419Z AUTO 00000KT 10SM SCT029 03/02 A3021 RMK AO2 PNO $,PAHY,2021-01-14T04:19:00Z,55.2,-132.83,3.0,2.0,0,0,,10.0,30.209646,,,TRUE,TRUE,TRUE,,,,,,SCT,2900,,,,,,,VFR,,,,,,,,,,,,METAR,0.0
KTTS 140419Z AUTO 30004KT 10SM FEW037 OVC100 12/10 A3006 RMK AO2 DZE08RAB08E19 SLP184 $,KTTS,2021-01-14T04:19:00Z,28.58,-80.67,12.0,10.0,300,4,,10.0,30.059055,1018.4,,TRUE,TRUE,TRUE,,,,,,FEW,3700,OVC,10000,,,,,VFR,,,,,,,,,,,,METAR,1.0
KTLH 140419Z AUTO 00000KT 4SM BR SCT002 01/01 A3008 RMK AO2 T00110006,KTLH,2021-01-14T04:19:00Z,30.4,-84.35,1.1,0.6,0,0,,4.0,30.079725,,,TRUE,TRUE,,,,,,BR,SCT,200,,,,,,,MVFR,,,,,,,,,,,,METAR,17.0
KCUL 140419Z AUTO 19008KT 10SM CLR 01/M02 A2983 RMK AO2,KCUL,2021-01-14T04:19:00Z,38.08,-88.12,1.0,-2.0,190,8,,10.0,29.828741,,,TRUE,TRUE,,,,,,,CLR,,,,,,,,VFR,,,,,,,,,,,,SPECI,116.0
KAUW 140419Z AUTO 00000KT 3/4SM BR FEW090 M06/M07 A2958 RMK AO2 I1000 T10561067,KAUW,2021-01-14T04:19:00Z,44.93,-89.62,-5.6,-6.7,0,0,,0.75,29.58071,,,TRUE,TRUE,,,,,,BR,FEW,9000,,,,,,,LIFR,,,,,,,,,,,,SPECI,367.0
FAEL 140419Z 07008KT 1600 DZ BR BKN002 BKN007 OVC016 21/21 Q1013,FAEL,2021-01-14T04:19:00Z,-33.03,27.82,21.0,21.0,70,8,,0.99,29.911417,,,,,,,,,,DZ BR,BKN,200,BKN,700,OVC,1600,,,LIFR,,,,,,,,,,,,SPECI,127.0
CYVV 140419Z 24002KT 8SM OVC018 01/M01 A2968 RMK ST8 SLP060,CYVV,2021-01-14T04:19:00Z,44.75,-81.1,1.0,-1.0,240,2,,8.0,29.681103,1006.0,,,,,,,,,,OVC,1800,,,,,,,MVFR,,,,,,,,,,,,SPECI,221.0
CYBU 140419Z AUTO 32019G28KT 3/4SM -SN FEW010 OVC016 M03/M03 A2925 RMK ICG PAST HR SLP930,CYBU,2021-01-14T04:19:00Z,53.32,-104.0,-3.0,-3.0,320,19,28,0.75,29.25,993.0,,TRUE,,,,,,,-SN,FEW,1000,OVC,1600,,,,,LIFR,,,,,,,,,,,,SPECI,369.0
UTO8 M M M 995/-18/-20/0912/M/ SOG 28 1014 29MM,UTO8,2021-01-14T04:18:24Z,,,,,,,,,,,,,,,,,,,,,,,,,,,,,,,,,,,,,,,,METAR,
PAFR 140418Z AUTO 11009KT 9SM -PL FEW047 OVC070 04/M05 A2967 RMK AO2 PLB10E11RAB11E18PLB18 SLPNO,PAFR,2021-01-14T04:18:00Z,61.27,-149.65,4.0,-5.0,110,9,,9.0,29.66929,,,TRUE,TRUE,,,,,,-PL,FEW,4700,OVC,7000,,,,,VFR,,,,,,,,,,,,METAR,106.0
PACV 140418Z 06004KT 10SM FEW022 BKN030 OVC035 02/01 A2988 RMK AO2 RAE18 P0000 T00220006,PACV,2021-01-14T04:18:00Z,60.5,-145.47,2.2,0.6,60,4,,10.0,29.878937,,,,TRUE,,,,,,,FEW,2200,BKN,3000,OVC,3500,,,MVFR,,,,,,0.005,,,,,,SPECI,15.0
LKKV 140418Z 27015KT 240V300 2200 -SN BR BKN003 OVC013 M04/M05 Q1006 R29/////// RMK REG QNH 1000,LKKV,2021-01-14T04:18:00Z,50.2,12.92,-4.0,-5.0,270,15,,1.37,29.704725,,,,,,,,,,-SN BR,BKN,300,OVC,1300,,,,,LIFR,,,,,,,,,,,,SPECI,600.0
KTTF 140418Z AUTO 25005KT 10SM SCT050 SCT060 OVC080 04/02 A2975 RMK AO2 T00360017,KTTF,2021-01-14T04:18:00Z,41.93,-83.42,3.6,1.7,250,5,,10.0,29.749016,,,TRUE,TRUE,,,,,,,SCT,5000,SCT,6000,OVC,8000,,,VFR,,,,,,,,,,,,METAR,186.0
KSAW 140418Z AUTO 00000KT 1 1/2SM BR OVC004 A2962 RMK AO2,KSAW,2021-01-14T04:18:00Z,46.35,-87.4,,,0,0,,1.5,29.619095,,,TRUE,TRUE,,,,,,BR,OVC,400,,,,,,,LIFR,,,,,,,,,,,,METAR,359.0
KMMH 140418Z AUTO 29008KT 10SM CLR 04/M03 A3049 RMK AO2,KMMH,2021-01-14T04:18:00Z,37.62,-118.83,4.0,-3.0,290,8,,10.0,30.490158,,,TRUE,TRUE,,,,,,,CLR,,,,,,,,VFR,,,,,,,,,,,,METAR,2167.0
KGOV 140418Z AUTO 00000KT 7/8SM R14/3500FT BR SCT001 OVC015 M01/M01 A2967 RMK AO2 VIS 7/8V1 3/8 CIG 001V015 SLP065 $,KGOV,2021-01-14T04:18:00Z,44.68,-84.73,-1.0,-1.0,0,0,,0.88,29.66929,1006.5,,TRUE,TRUE,TRUE,,,,,BR,SCT,100,OVC,1500,,,,,LIFR,,,,,,,,,,,,METAR,350.0
KANJ 140418Z AUTO 20004KT 3SM -SN BR FEW012 BKN022 OVC029 00/M01 A2967 RMK AO2 SNE00B09 P0000 T00001011,KANJ,2021-01-14T04:18:00Z,46.47,-84.37,0.0,-1.1,200,4,,3.0,29.66929,,,TRUE,TRUE,,,,,,-SN BR,FEW,1200,BKN,2200,OVC,2900,,,MVFR,,,,,,0.005,,,,,,METAR,220.0
EGVA 140418Z AUTO 24008KT 9999 OVC006 09/09 M RMK AO2 RAE04DZB04E08 SLPNO FZRANO $,EGVA,2021-01-14T04:18:00Z,51.67,-1.78,9.0,9.0,240,8,,6.21,,,,TRUE,TRUE,TRUE,,,TRUE,,,OVC,600,,,,,,,IFR,,,,,,,,,,,,METAR,84.0
CYTE 140418Z AUTO 04003KT 3/8SM FZFG VV003 M19/M21 A2972 RMK ICG SLP071,CYTE,2021-01-14T04:18:00Z,64.22,-76.52,-19.0,-21.0,40,3,,0.38,29.719488,1007.1,,TRUE,,,,,,,FZFG,OVX,0,,,,,,,LIFR,,,,,,,,,,,300,SPECI,49.0
YBLN 140417Z AUTO 09019G30KT 9999 // NCD 26/06 Q1019 RF00.0/000.0,YBLN,2021-01-14T04:17:00Z,-33.68,115.4,26.0,6.0,90,19,30,6.21,30.088583,,,TRUE,,,,,,,,CLR,,,,,,,,VFR,,,,,,,,,,,,SPECI,17.0
RJCH 140417Z 28020KT 5000 R12/1100VP2000N -SHSN FEW005 BKN015 BKN020 M03/M05 Q1012 RMK 1ST005 5ST015 6CU020 A2989,RJCH,2021-01-14T04:17:00Z,41.77,140.82,-3.0,-5.0,280,20,,3.11,29.88189,,,,,,,,,,-SHSN,FEW,500,BKN,1500,BKN,2000,,,MVFR,,,,,,,,,,,,SPECI,36.0
PAMC 140417Z AUTO 32007KT 10SM SCT013 OVC027 M16/M18 A2967 RMK AO2 T11611178 TSNO,PAMC,2021-01-14T04:17:00Z,62.97,-155.62,-16.1,-17.8,320,7,,10.0,29.66929,,,TRUE,TRUE,,,TRUE,,,,SCT,1300,OVC,2700,,,,,MVFR,,,,,,,,,,,,METAR,101.0
KY70 140417Z AUTO 22005KT 10SM DZ BKN070 OVC080 02/00 A2970 RMK AO2 T00210000,KY70,2021-01-14T04:17:00Z,42.93,-85.07,2.1,0.0,220,5,,10.0,29.698818,,,TRUE,TRUE,,,,,,DZ,BKN,7000,OVC,8000,,,,,VFR,,,,,,,,,,,,METAR,247.0
KNY0 140417Z AUTO 15004KT 10SM SCT075 M03/M04 A2981 RMK AO2,KNY0,2021-01-14T04:17:00Z,42.98,-74.33,-3.0,-4.0,150,4,,10.0,29.811024,,,TRUE,TRUE,,,,,,,SCT,7500,,,,,,,VFR,,,,,,,,,,,,METAR,266.0
KGRB 140417Z 00000KT 1/4SM FZFG CLR M07/M08 A2966 RMK AO2 T10671083 RVRNO,KGRB,2021-01-14T04:17:00Z,44.48,-88.13,-6.7,-8.3,0,0,,0.25,29.660433,,,,TRUE,,,,,,FZFG,CLR,,,,,,,,LIFR,,,,,,,,,,,,METAR,209.0
KAMN 140417Z AUTO 00000KT 7SM CLR 02/01 A2971 RMK AO2 T00160005,KAMN,2021-01-14T04:17:00Z,43.32,-84.68,1.6,0.5,0,0,,7.0,29.71063,,,TRUE,TRUE,,,,,,,CLR,,,,,,,,VFR,,,,,,,,,,,,METAR,228.0
KADC 140417Z AUTO 14006KT 10SM CLR 00/M02 A2943 RMK AO2,KADC,2021-01-14T04:17:00Z,46.45,-95.22,0.0,-2.0,140,6,,10.0,29.430119,,,TRUE,TRUE,,,,,,,CLR,,,,,,,,VFR,,,,,,,,,,,,METAR,416.0
ETAR 140417Z 27005KT 6000 -SN BKN009 OVC012 01/01 A3001 RMK AO2A RASNB0356E15SNB15 SLP177 FZRANO $,ETAR,2021-01-14T04:17:00Z,49.43,7.58,1.0,1.0,270,5,,3.73,30.008858,1017.7,,,TRUE,TRUE,,,TRUE,,-SN,BKN,900,OVC,1200,,,,,IFR,,,,,,,,,,,,METAR,231.0
CYRV 140417Z AUTO 00000KT 9SM -RA FEW060 SCT072 OVC099 01/M01 A3035 RMK SLP295,CYRV,2021-01-14T04:17:00Z,50.97,-118.17,1.0,-1.0,0,0,,9.0,30.351377,1029.5,,TRUE,,,,,,,-RA,FEW,6000,SCT,7200,OVC,9900,,,VFR,,,,,,,,,,,,SPECI,456.0
CYCS 140417Z 31008KT 8SM SCT007 OVC015 M12/M14 A2944 RMK SC4SC4 CALL OUT SLP973,CYCS,2021-01-14T04:17:00Z,63.35,-90.72,-12.0,-14.0,310,8,,8.0,29.438976,997.3,,,,,,,,,,SCT,700,OVC,1500,,,,,MVFR,,,,,,,,,,,,SPECI,7.0
CYBC 140417Z AUTO 22005KT 9SM -SN BKN038 OVC050 M02/M03 A2978 RMK SLP088,CYBC,2021-01-14T04:17:00Z,49.13,-68.2,-2.0,-3.0,220,5,,9.0,29.778543,1008.8,,TRUE,,,,,,,-SN,BKN,3800,OVC,5000,,,,,VFR,,,,,,,,,,,,SPECI,20.0
CYAT 140417Z AUTO 02004KT 5SM BR OVC004 M07/M08 A2971 RMK SLP060,CYAT,2021-01-14T04:17:00Z,52.93,-82.43,-7.0,-8.0,20,4,,5.0,29.71063,1006.0,,TRUE,,,,,,,BR,OVC,400,,,,,,,LIFR,,,,,,,,,,,,SPECI,4.0
RJAW 140416Z 04016KT 7000 -SHRA FEW002 BKN006 BKN010 20/18 Q1013 RMK 2ST002 5ST006 7CU010 A2993,RJAW,2021-01-14T04:16:00Z,24.78,141.32,20.0,18.0,40,16,,4.35,29.911417,,,,,,,,,,-SHRA,FEW,200,BKN,600,BKN,1000,,,IFR,,,,,,,,,,,,METAR,116.0
PAKH 140416Z AUTO 10SM BKN022 BKN035 01/00 A2961 RMK AO2 FZRANO $,PAKH,2021-01-14T04:16:00Z,56.93,-154.18,1.0,0.0,,,,10.0,29.610237,,,TRUE,TRUE,TRUE,,,TRUE,,,BKN,2200,BKN,3500,,,,,MVFR,,,,,,,,,,,,SPECI,15.0
PAED 140416Z 36005KT 10SM -SN BKN065 BKN080 OVC110 M04/M07 A2970 RMK AO2A SNB16 SLPNO $,PAED,2021-01-14T04:16:00Z,61.25,-149.83,-4.0,-7.0,360,5,,10.0,29.698818,,,,TRUE,TRUE,,,,,-SN,BKN,6500,BKN,8000,OVC,11000,,,VFR,,,,,,,,,,,,METAR,54.0
LZZI 140416Z 26007KT 2200 -SN BR SCT025 OVC042 M02/M03 Q1002 RESN,LZZI,2021-01-14T04:16:00Z,49.23,18.62,-2.0,-3.0,260,7,,1.37,29.586615,,,,,,,,,,-SN BR,SCT,2500,OVC,4200,,,,,IFR,,,,,,,,,,,,SPECI,311.0
KSSC 140416Z AUTO 23007KT 10SM OVC009 06/04 A2997 RMK AO2 SLP151 $,KSSC,2021-01-14T04:16:00Z,33.97,-80.47,6.0,4.0,230,7,,10.0,29.970472,1015.1,,TRUE,TRUE,TRUE,,,,,,OVC,900,,,,,,,IFR,,,,,,,,,,,,SPECI,71.0
KSNY 140416Z AUTO 35034G53KT 5SM -SN 02/M02 A2984 RMK AO2 PK WND 33063/0358 LTG DSNT S UPB12E16SNB16 P0000 T00171017 $,KSNY,2021-01-14T04:16:00Z,41.1,-102.98,1.7,-1.7,350,34,53,5.0,29.840551,,,TRUE,TRUE,TRUE,,,,,-SN,,,,,,,,,,,,,,,0.005,,,,,,METAR,1307.0
KPNM 140416Z AUTO 00000KT 7SM CLR M01/M02 A2951 RMK AO2,KPNM,2021-01-14T04:16:00Z,45.53,-93.6,-1.0,-2.0,0,0,,7.0,29.509842,,,TRUE,TRUE,,,,,,,CLR,,,,,,,,VFR,,,,,,,,,,,,METAR,298.0
KMMU 140416Z AUTO 00000KT 7SM OVC110 M02/M03 A2990 RMK AO2,KMMU,2021-01-14T04:16:00Z,40.78,-74.42,-2.0,-3.0,0,0,,7.0,29.899607,,,TRUE,TRUE,,,,,,,OVC,11000,,,,,,,VFR,,,,,,,,,,,,METAR,55.0
KFGN 140416Z AUTO 12006KT M03/M07 A2940 RMK AO2 PWINO,KFGN,2021-01-14T04:16:00Z,49.32,-94.9,-3.0,-7.0,120,6,,,29.40059,,,TRUE,TRUE,,,,,TRUE,,,,,,,,,,,,,,,,,,,,,,METAR,327.0
KFFX 140416Z AUTO 00000KT 4SM -DZ OVC005 02/02 A2969 RMK AO2 T00210015,KFFX,2021-01-14T04:16:00Z,43.43,-86.0,2.1,1.5,0,0,,4.0,29.68996,,,TRUE,TRUE,,,,,,-DZ,OVC,500,,,,,,,IFR,,,,,,,,,,,,METAR,234.0
KCQM 140416Z AUTO 12003KT 10SM CLR M06/M08 A2950 RMK AO2,KCQM,2021-01-14T04:16:00Z,47.82,-92.68,-6.0,-8.0,120,3,,10.0,29.500984,,,TRUE,TRUE,,,,,,,CLR,,,,,,,,VFR,,,,,,,,,,,,METAR,406.0
K40B 140416Z AUTO 00000KT M04/M06 A2977 RMK AO1 SLP106 T10371063 57006,K40B,2021-01-14T04:16:00Z,46.62,-69.52,-3.7,-6.3,0,0,,,29.769686,1010.6,,TRUE,TRUE,,,,,,,,,,,,,,,,-0.6,,,,,,,,,,,METAR,344.0
EBLB 140416Z AUTO 04006KT 1400 -SN OVC003/// M01/M01 Q1015 AMB,EBLB,2021-01-14T04:16:00Z,50.47,6.17,-1.0,-1.0,40,6,,0.87,29.970472,,,TRUE,,,,,,,-SN,OVC,300,,,,,,,LIFR,,,,,,,,,,,,METAR,563.0
EBDT 140416Z AUTO 05005KT 4600 -SN SCT003/// BKN005/// 01/00 Q1018 YLO,EBDT,2021-01-14T04:16:00Z,51.02,5.07,1.0,0.0,50,5,,2.86,30.059055,,,TRUE,,,,,,,-SN,SCT,300,BKN,500,,,,,IFR,,,,,,,,,,,,SPECI,25.0
CWZZ 140416Z AUTO 32006KT ////SM BKN026 OVC049 M12/M13 A2949,CWZZ,2021-01-14T04:16:00Z,58.47,-62.65,-12.0,-13.0,320,6,,,29.489174,,,TRUE,,,,,,,,BKN,2600,OVC,4900,,,,,,,,,,,,,,,,,SPECI,50.0
SBSP 140415Z AUTO 15006KT 9999 // BKN007/// BKN022/// OVC026/// 22/19 Q1017,SBSP,2021-01-14T04:15:00Z,-23.62,-46.65,22.0,19.0,150,6,,6.21,30.029528,,,TRUE,,,,,,,,BKN,700,BKN,2200,OVC,2600,,,IFR,,,,,,,,,,,,SPECI,802.0
PAUT 140415Z AUTO 10SM CLR M03/M06 A2947 RMK AO2 T10351060 PWINO,PAUT,2021-01-14T04:15:00Z,54.13,-165.6,-3.5,-6.0,,,,10.0,29.471457,,,TRUE,TRUE,,,,,TRUE,,CLR,,,,,,,,VFR,,,,,,,,,,,,METAR,25.0
PAKX 140415Z AUTO 00000KT 10SM OVC100 M03/M04 A2960 RMK AO2,PAKX,2021-01-14T04:15:00Z,,,-3.0,-4.0,0,0,,10.0,29.601377,,,TRUE,TRUE,,,,,,,OVC,10000,,,,,,,VFR,,,,,,,,,,,,METAR,
PAEH 140415Z AUTO 04005KT 5SM -FZDZ OVC003 M08/M09 A2952 RMK AO2 SLP010,PAEH,2021-01-14T04:15:00Z,58.65,-162.07,-8.0,-9.0,40,5,,5.0,29.518702,1001.0,,TRUE,TRUE,,,,,,-FZDZ,OVC,300,,,,,,,LIFR,,,,,,,,,,,,METAR,101.0
PAAD 140415Z AUTO 07012KT 10SM OVC011 M24/M26 A3006 RMK AO2 T12361260,PAAD,2021-01-14T04:15:00Z,70.13,-146.28,-23.6,-26.0,70,12,,10.0,30.059055,,,TRUE,TRUE,,,,,,,OVC,1100,,,,,,,MVFR,,,,,,,,,,,,METAR,8.0
LTBL 140415Z 11005KT 9999 SCT035 BKN100 08/05 Q1007 RESHRA NOSIG RMK RWY17 13005KT 100V160,LTBL,2021-01-14T04:15:00Z,38.5,27.02,8.0,5.0,110,5,,6.21,29.734253,,,,,,TRUE,,,,,SCT,3500,BKN,10000,,,,,VFR,,,,,,,,,,,,METAR,5.0
LMML 140415Z 31008KT 9999 FEW024 SCT045 11/10 Q1018 NOSIG,LMML,2021-01-14T04:15:00Z,35.85,14.47,11.0,10.0,310,8,,6.21,30.059055,,,,,,TRUE,,,,,FEW,2400,SCT,4500,,,,,VFR,,,,,,,,,,,,METAR,78.0
LKPD 140415Z 29008KT 4000 SN BKN016 OVC030 M01/M04 Q1005 RMK GRN,LKPD,2021-01-14T04:15:00Z,50.02,15.73,-1.0,-4.0,290,8,,2.49,29.675198,,,,,,,,,,SN,BKN,1600,OVC,3000,,,,,IFR,,,,,,,,,,,,SPECI,226.0
LHKE 140415Z 22006KT CAVOK 00/M03 Q1006 R12/01//95 TEMPO -SN RMK BLU,LHKE,2021-01-14T04:15:00Z,46.92,19.75,0.0,-3.0,220,6,,6.21,29.704725,,,,,,,,,,,CAVOK,,,,,,,,VFR,,,,,,,,,,,,METAR,113.0
KZPH 140415Z AUTO 00000KT 10SM BKN029 OVC036 11/08 A3010 RMK A02 T01070085,KZPH,2021-01-14T04:15:00Z,28.23,-82.15,10.7,8.5,0,0,,10.0,30.100393,,,TRUE,TRUE,,,,,,,BKN,2900,OVC,3600,,,,,MVFR,,,,,,,,,,,,METAR,26.0
KY63 140415Z AUTO 13008KT 10SM BKN110 01/00 A2944 RMK AO2 T00100002,KY63,2021-01-14T04:15:00Z,45.98,-96.0,1.0,0.2,130,8,,10.0,29.438976,,,TRUE,TRUE,,,,,,,BKN,11000,,,,,,,VFR,,,,,,,,,,,,METAR,367.0
KY51 140415Z AUTO 18005KT 10SM OVC090 02/00 A2959 RMK AO1 T00150000,KY51,2021-01-14T04:15:00Z,43.58,-90.9,1.5,0.0,180,5,,10.0,29.589567,,,TRUE,TRUE,,,,,,,OVC,9000,,,,,,,VFR,,,,,,,,,,,,METAR,390.0
KY49 140415Z AUTO 13005KT 10SM CLR 00/M03 A2944 RMK AO2 T00021026,KY49,2021-01-14T04:15:00Z,47.15,-94.65,0.2,-2.6,130,5,,10.0,29.438976,,,TRUE,TRUE,,,,,,,CLR,,,,,,,,VFR,,,,,,,,,,,,METAR,413.0
KY31 140415Z AUTO 00000KT 1/4SM FZFG VV002 M02/M03 A2968 RMK AO2 T10221027,KY31,2021-01-14T04:15:00Z,44.25,-84.18,-2.2,-2.7,0,0,,0.25,29.681103,,,TRUE,TRUE,,,,,,FZFG,OVX,0,,,,,,,LIFR,,,,,,,,,,,200,METAR,264.0
KY23 140415Z AUTO 12003KT 10SM OVC100 00/M01 A2958 RMK AO2 T10021015,KY23,2021-01-14T04:15:00Z,45.3,-91.63,-0.2,-1.5,120,3,,10.0,29.58071,,,TRUE,TRUE,,,,,,,OVC,10000,,,,,,,VFR,,,,,,,,,,,,METAR,322.0
KXNX 140415Z AUTO VRB04KT 10SM CLR 03/M01 A2996 RMK A01,KXNX,2021-01-14T04:15:00Z,36.38,-86.42,3.0,-1.0,0,4,,10.0,29.958662,,,TRUE,TRUE,,,,,,,CLR,,,,,,,,VFR,,,,,,,,,,,,METAR,178.0
KXLL 140415Z AUTO 00000KT 7SM CLR 00/M02 A2990 RMK AO2,KXLL,2021-01-14T04:15:00Z,40.57,-75.48,0.0,-2.0,0,0,,7.0,29.899607,,,TRUE,TRUE,,,,,,,CLR,,,,,,,,VFR,,,,,,,,,,,,METAR,118.0
KXER 140415Z AUTO VRB06KT 10SM CLR 14/04 A3014 RMK A01,KXER,2021-01-14T04:15:00Z,,,14.0,4.0,0,6,,10.0,30.138779,,,TRUE,TRUE,,,,,,,CLR,,,,,,,,VFR,,,,,,,,,,,,METAR,
KXBP 140415Z AUTO 00000KT 10SM CLR 03/M01 A2988 RMK AO2 T00311006,KXBP,2021-01-14T04:15:00Z,33.18,-97.83,3.1,-0.6,0,0,,10.0,29.878937,,,TRUE,TRUE,,,,,,,CLR,,,,,,,,VFR,,,,,,,,,,,,METAR,256.0
KX26 140415Z AUTO 00000KT 10SM SCT044 OVC065 14/13 A3005 RMK AO2 T01420135,KX26,2021-01-14T04:15:00Z,27.82,-80.5,14.2,13.5,0,0,,10.0,30.050198,,,TRUE,TRUE,,,,,,,SCT,4400,OVC,6500,,,,,VFR,,,,,,,,,,,,METAR,5.0
KX07 140415Z AUTO 33005KT 10SM BKN036 BKN060 OVC100 12/11 A3010 RMK A01,KX07,2021-01-14T04:15:00Z,27.9,-81.62,12.0,11.0,330,5,,10.0,30.100393,,,TRUE,TRUE,,,,,,,BKN,3600,BKN,6000,OVC,10000,,,VFR,,,,,,,,,,,,SPECI,36.0
KWWR 140415Z AUTO 23008KT 10SM CLR 04/M03 A2979 RMK AO2,KWWR,2021-01-14T04:15:00Z,36.45,-99.52,4.0,-3.0,230,8,,10.0,29.790354,,,TRUE,TRUE,,,,,,,CLR,,,,,,,,VFR,,,,,,,,,,,,METAR,664.0
KWDR 140415Z AUTO 26005KT 10SM CLR 02/M04 A3000 RMK AO2,KWDR,2021-01-14T04:15:00Z,33.98,-83.67,2.0,-4.0,260,5,,10.0,30.0,,,TRUE,TRUE,,,,,,,CLR,,,,,,,,VFR,,,,,,,,,,,,METAR,280.0
KWDG 140415Z AUTO 21003KT 10SM CLR 05/01 A2973 RMK AO2,KWDG,2021-01-14T04:15:00Z,36.37,-97.78,5.0,1.0,210,3,,10.0,29.731298,,,TRUE,TRUE,,,,,,,CLR,,,,,,,,VFR,,,,,,,,,,,,METAR,352.0
KW99 140415Z AUTO 00000KT 10SM CLR 00/M02 A2987 RMK AO2 T10041019,KW99,2021-01-14T04:15:00Z,39.0,-79.15,-0.4,-1.9,0,0,,10.0,29.870079,,,TRUE,TRUE,,,,,,,CLR,,,,,,,,VFR,,,,,,,,,,,,METAR,288.0
KW96 140415Z AUTO 00000KT 10SM CLR M01/M04 A2989 RMK AO1 T10141040,KW96,2021-01-14T04:15:00Z,37.5,-77.12,-1.4,-4.0,0,0,,10.0,29.890747,,,TRUE,TRUE,,,,,,,CLR,,,,,,,,VFR,,,,,,,,,,,,SPECI,35.0
KW81 140415Z AUTO 00000KT 10SM CLR M02/M05 A2988 RMK AO1 T10191050,KW81,2021-01-14T04:15:00Z,37.18,-78.1,-1.9,-5.0,0,0,,10.0,29.878937,,,TRUE,TRUE,,,,,,,CLR,,,,,,,,VFR,,,,,,,,,,,,METAR,121.0
KW78 140415Z AUTO 10SM CLR M01/M04 A2990 RMK AO1 T10081040,KW78,2021-01-14T04:15:00Z,36.7,-78.85,-0.8,-4.0,,,,10.0,29.899607,,,TRUE,TRUE,,,,,,,CLR,,,,,,,,VFR,,,,,,,,,,,,METAR,120.0
KW75 140415Z AUTO 19005KT 10SM CLR 03/M03 A2991 RMK AO1 T00271032,KW75,2021-01-14T04:15:00Z,37.6,-76.45,2.7,-3.2,190,5,,10.0,29.911417,,,TRUE,TRUE,,,,,,,CLR,,,,,,,,VFR,,,,,,,,,,,,METAR,8.0
KW43 140415Z AUTO 10SM SCT039 BKN075 OVC110 03/M09 A2984 RMK AO2,KW43,2021-01-14T04:15:00Z,44.67,-104.57,3.0,-9.0,,,,10.0,29.840551,,,TRUE,TRUE,,,,,,,SCT,3900,BKN,7500,OVC,11000,,,VFR,,,,,,,,,,,,METAR,1292.0
KW29 140415Z AUTO 00000KT 7SM HZ CLR 00/ A2989 RMK AO2,KW29,2021-01-14T04:15:00Z,38.98,-76.33,0.0,,0,0,,7.0,29.890747,,,TRUE,TRUE,,,,,,HZ,CLR,,,,,,,,VFR,,,,,,,,,,,,METAR,1.0
KW22 140415Z AUTO 00000KT 10SM FEW095 OVC110 M02/M04 A2986 RMK AO2,KW22,2021-01-14T04:15:00Z,39.0,-80.27,-2.0,-4.0,0,0,,10.0,29.861221,,,TRUE,TRUE,,,,,,,FEW,9500,OVC,11000,,,,,VFR,,,,,,,,,,,,METAR,497.0
KW13 140415Z AUTO 00000KT 10SM CLR M02/M08 A2985 RMK AO1 T10201077,KW13,2021-01-14T04:15:00Z,38.08,-78.95,-2.0,-7.7,0,0,,10.0,29.84941,,,TRUE,TRUE,,,,,,,CLR,,,,,,,,VFR,,,,,,,,,,,,METAR,440.0
KVYS 140415Z AUTO 00000KT 10SM CLR 03/01 A2967 RMK AO2 T00300007,KVYS,2021-01-14T04:15:00Z,41.35,-89.15,3.0,0.7,0,0,,10.0,29.66929,,,TRUE,TRUE,,,,,,,CLR,,,,,,,,VFR,,,,,,,,,,,,METAR,198.0
KVWU 140415Z AUTO 12004KT 10SM CLR M01/M05 A2942 RMK AO2,KVWU,2021-01-14T04:15:00Z,48.15,-94.52,-1.0,-5.0,120,4,,10.0,29.421259,,,TRUE,TRUE,,,,,,,CLR,,,,,,,,VFR,,,,,,,,,,,,METAR,359.0
KVVV 140415Z AUTO 19005KT 10SM CLR 02/M01 A2944 RMK AO2,KVVV,2021-01-14T04:15:00Z,45.3,-96.42,2.0,-1.0,190,5,,10.0,29.438976,,,TRUE,TRUE,,,,,,,CLR,,,,,,,,VFR,,,,,,,,,,,,METAR,334.0
KVUJ 140415Z AUTO 00000KT 5SM BR OVC004 05/05 A2996 RMK AO2 T00530047,KVUJ,2021-01-14T04:15:00Z,35.42,-80.15,5.3,4.7,0,0,,5.0,29.958662,,,TRUE,TRUE,,,,,,BR,OVC,400,,,,,,,LIFR,,,,,,,,,,,,METAR,174.0
KVTP 140415Z AUTO 26016G29KT 10SM CLR M01/M08 A3006 RMK AO2,KVTP,2021-01-14T04:15:00Z,37.5,-105.17,-1.0,-8.0,260,16,29,10.0,30.059055,,,TRUE,TRUE,,,,,,,CLR,,,,,,,,VFR,,,,,,,,,,,,METAR,3086.0
KVQQ 140415Z AUTO 10SM OVC016 08/06 A3007 RMK AO2,KVQQ,2021-01-14T04:15:00Z,30.22,-81.88,8.0,6.0,,,,10.0,30.070866,,,TRUE,TRUE,,,,,,,OVC,1600,,,,,,,MVFR,,,,,,,,,,,,METAR,21.0
KVNW 140415Z AUTO 24005KT 10SM OVC080 04/M01 A2979 RMK AO2,KVNW,2021-01-14T04:15:00Z,40.87,-84.62,4.0,-1.0,240,5,,10.0,29.790354,,,TRUE,TRUE,,,,,,,OVC,8000,,,,,,,VFR,,,,,,,,,,,,METAR,238.0
KVLL 140415Z AUTO 23004KT 10SM SCT120 03/00 A2974 RMK AO2 T00300003,KVLL,2021-01-14T04:15:00Z,42.55,-83.18,3.0,0.3,230,4,,10.0,29.740158,,,TRUE,TRUE,,,,,,,SCT,12000,,,,,,,VFR,,,,,,,,,,,,METAR,214.0
KVKY 140415Z AUTO 30009KT 10SM CLR 12/04 A3012 RMK A01,KVKY,2021-01-14T04:15:00Z,29.25,-88.43,12.0,4.0,300,9,,10.0,30.121063,,,TRUE,TRUE,,,,,,,CLR,,,,,,,,VFR,,,,,,,,,,,,METAR,32.0
KVJI 140415Z AUTO 29004KT 10SM CLR M02/M05 A2994 RMK AO2 T10241052,KVJI,2021-01-14T04:15:00Z,36.68,-82.03,-2.4,-5.2,290,4,,10.0,29.940945,,,TRUE,TRUE,,,,,,,CLR,,,,,,,,VFR,,,,,,,,,,,,METAR,636.0
KVES 140415Z AUTO 22010KT 10SM SCT002 03/M02 A2978 RMK AO2 PNO,KVES,2021-01-14T04:15:00Z,40.2,-84.53,3.0,-2.0,220,10,,10.0,29.778543,,,TRUE,TRUE,,,,,,,SCT,200,,,,,,,VFR,,,,,,,,,,,,METAR,308.0
KVDI 140415Z AUTO 23004KT 10SM CLR 04/02 A3003 RMK AO2,KVDI,2021-01-14T04:15:00Z,32.2,-82.37,4.0,2.0,230,4,,10.0,30.029528,,,TRUE,TRUE,,,,,,,CLR,,,,,,,,VFR,,,,,,,,,,,,METAR,81.0
KVDF 140415Z AUTO 00000KT 10SM OVC029 12/10 A3011 RMK AO2,KVDF,2021-01-14T04:15:00Z,28.02,-82.33,12.0,10.0,0,0,,10.0,30.109253,,,TRUE,TRUE,,,,,,,OVC,2900,,,,,,,MVFR,,,,,,,,,,,,SPECI,5.0
KUYF 140415Z AUTO 22005KT 10SM BKN110 02/M01 A2981 RMK AO2,KUYF,2021-01-14T04:15:00Z,39.93,-83.47,2.0,-1.0,220,5,,10.0,29.811024,,,TRUE,TRUE,,,,,,,BKN,11000,,,,,,,VFR,,,,,,,,,,,,METAR,326.0
KUXL 140415Z AUTO 00000KT 7SM CLR 04/02 A3010 RMK AO2 T00370016,KUXL,2021-01-14T04:15:00Z,30.13,-93.38,3.7,1.6,0,0,,7.0,30.100393,,,TRUE,TRUE,,,,,,,CLR,,,,,,,,VFR,,,,,,,,,,,,METAR,2.0
KUVA 140415Z AUTO 19005KT 10SM CLR 07/00 A3006 RMK AO2 T00731005,KUVA,2021-01-14T04:15:00Z,29.22,-99.75,7.3,-0.5,190,5,,10.0,30.059055,,,TRUE,TRUE,,,,,,,CLR,,,,,,,,VFR,,,,,,,,,,,,METAR,285.0
KUTA 140415Z AUTO 19010KT 10SM CLR 05/02 A2995 RMK AO2 TSNO,KUTA,2021-01-14T04:15:00Z,34.68,-90.35,5.0,2.0,190,10,,10.0,29.949802,,,TRUE,TRUE,,,TRUE,,,,CLR,,,,,,,,VFR,,,,,,,,,,,,METAR,58.0
KUOX 140415Z AUTO 18005KT 10SM CLR 04/M00 A2998 RMK AO2 PWINO,KUOX,2021-01-14T04:15:00Z,34.38,-89.53,4.0,0.0,180,5,,10.0,29.97933,,,TRUE,TRUE,,,,,TRUE,,CLR,,,,,,,,VFR,,,,,,,,,,,,METAR,123.0
KUNV 140415Z AUTO 00000KT 10SM BKN090 OVC100 03/M03 A2982 RMK AO2 T00311031,KUNV,2021-01-14T04:15:00Z,40.85,-77.83,3.1,-3.1,0,0,,10.0,29.819881,,,TRUE,TRUE,,,,,,,BKN,9000,OVC,10000,,,,,VFR,,,,,,,,,,,,METAR,365.0
KUNI 140415Z AUTO 19003KT 10SM OVC110 01/M02 A2987 RMK AO2 T00081021,KUNI,2021-01-14T04:15:00Z,39.22,-82.23,0.8,-2.1,190,3,,10.0,29.870079,,,TRUE,TRUE,,,,,,,OVC,11000,,,,,,,VFR,,,,,,,,,,,,METAR,232.0
KULS 140415Z AUTO 25006KT 10SM CLR 05/M01 A2975 RMK AO2,KULS,2021-01-14T04:15:00Z,37.6,-101.37,5.0,-1.0,250,6,,10.0,29.749016,,,TRUE,TRUE,,,,,,,CLR,,,,,,,,VFR,,,,,,,,,,,,METAR,934.0
KULM 140415Z AUTO 18007KT 10SM CLR 01/M01 A2948 RMK AO2,KULM,2021-01-14T04:15:00Z,44.32,-94.5,1.0,-1.0,180,7,,10.0,29.480314,,,TRUE,TRUE,,,,,,,CLR,,,,,,,,VFR,,,,,,,,,,,,METAR,305.0
KUKT 140415Z AUTO 00000KT 10SM CLR M02/M03 A2989 RMK A01,KUKT,2021-01-14T04:15:00Z,40.43,-75.38,-2.0,-3.0,0,0,,10.0,29.890747,,,TRUE,TRUE,,,,,,,CLR,,,,,,,,VFR,,,,,,,,,,,,METAR,156.0
KUKL 140415Z AUTO 00000KT 10SM CLR 05/00 A2967 RMK AO2 T00500000,KUKL,2021-01-14T04:15:00Z,38.3,-95.73,5.0,0.0,0,0,,10.0,29.66929,,,TRUE,TRUE,,,,,,,CLR,,,,,,,,VFR,,,,,,,,,,,,METAR,357.0
KUKF 140415Z AUTO 00000KT 10SM CLR 01/M02 A2994 RMK AO2,KUKF,2021-01-14T04:15:00Z,36.22,-81.1,1.0,-2.0,0,0,,10.0,29.940945,,,TRUE,TRUE,,,,,,,CLR,,,,,,,,VFR,,,,,,,,,,,,METAR,383.0
KUES 140415Z AUTO 00000KT 10SM SCT110 00/M02 A2966 RMK AO2,KUES,2021-01-14T04:15:00Z,43.05,-88.25,0.0,-2.0,0,0,,10.0,29.660433,,,TRUE,TRUE,,,,,,,SCT,11000,,,,,,,VFR,,,,,,,,,,,,METAR,273.0
KUCY 140415Z AUTO 19010KT 10SM CLR 05/02 A2987 RMK A01,KUCY,2021-01-14T04:15:00Z,36.38,-88.98,5.0,2.0,190,10,,10.0,29.870079,,,TRUE,TRUE,,,,,,,CLR,,,,,,,,VFR,,,,,,,,,,,,METAR,97.0
KUBE 140415Z AUTO 12006KT 10SM CLR M01/M02 A2955 RMK AO2,KUBE,2021-01-14T04:15:00Z,45.5,-91.98,-1.0,-2.0,120,6,,10.0,29.551182,,,TRUE,TRUE,,,,,,,CLR,,,,,,,,VFR,,,,,,,,,,,,METAR,376.0
KU69 140415Z AUTO 29026G33KT 10SM SCT055 BKN070 05/M03 A3018 RMK A01,KU69,2021-01-14T04:15:00Z,,,5.0,-3.0,290,26,33,10.0,30.180119,,,TRUE,TRUE,,,,,,,SCT,5500,BKN,7000,,,,,VFR,,,,,,,,,,,,METAR,
KU68 140415Z AUTO 31024G35KT 10SM CLR 02/M16 A3001 RMK AO2,KU68,2021-01-14T04:15:00Z,44.92,-108.45,2.0,-16.0,310,24,35,10.0,30.008858,,,TRUE,TRUE,,,,,,,CLR,,,,,,,,VFR,,,,,,,,,,,,METAR,1244.0
KU55 140415Z AUTO 35004KT 10SM CLR 00/M05 A3034 RMK A01,KU55,2021-01-14T04:15:00Z,37.85,-112.38,0.0,-5.0,350,4,,10.0,30.339567,,,TRUE,TRUE,,,,,,,CLR,,,,,,,,VFR,,,,,,,,,,,,METAR,2060.0
KU42 140415Z AUTO 33007KT 10SM OVC060 04/00 A3039 RMK AO1 T00361005,KU42,2021-01-14T04:15:00Z,40.62,-111.98,3.6,-0.5,330,7,,10.0,30.389763,,,TRUE,TRUE,,,,,,,OVC,6000,,,,,,,VFR,,,,,,,,,,,,METAR,1399.0
KTZR 140415Z AUTO 20004KT 10SM OVC100 03/M01 A2984 RMK AO2 T00271013,KTZR,2021-01-14T04:15:00Z,39.9,-83.13,2.7,-1.3,200,4,,10.0,29.840551,,,TRUE,TRUE,,,,,,,OVC,10000,,,,,,,VFR,,,,,,,,,,,,METAR,275.0
KTYQ 140415Z AUTO 20008KT 10SM CLR 03/M02 A2978 RMK AO2 T00331020,KTYQ,2021-01-14T04:15:00Z,40.03,-86.25,3.3,-2.0,200,8,,10.0,29.778543,,,TRUE,TRUE,,,,,,,CLR,,,,,,,,VFR,,,,,,,,,,,,METAR,279.0
KTYL 140415Z AUTO 19007KT 10SM CLR M03/M19 A3029 RMK AO2,KTYL,2021-01-14T04:15:00Z,34.45,-110.12,-3.0,-19.0,190,7,,10.0,30.28937,,,TRUE,TRUE,,,,,,,CLR,,,,,,,,VFR,,,,,,,,,,,,METAR,1748.0
KTXW 140415Z AUTO 17005KT 10SM BKN110 09/05 A3012 RMK AO2 T00920050,KTXW,2021-01-14T04:15:00Z,26.18,-97.97,9.2,5.0,170,5,,10.0,30.121063,,,TRUE,TRUE,,,,,,,BKN,11000,,,,,,,VFR,,,,,,,,,,,,METAR,21.0
KTWM 140415Z AUTO 03004KT 10SM CLR M04/M07 A2955 RMK AO2,KTWM,2021-01-14T04:15:00Z,47.05,-91.75,-4.0,-7.0,30,4,,10.0,29.551182,,,TRUE,TRUE,,,,,,,CLR,,,,,,,,VFR,,,,,,,,,,,,METAR,331.0
KTVY 140415Z AUTO 00000KT 10SM OVC060 02/M02 A3040 RMK AO2,KTVY,2021-01-14T04:15:00Z,40.62,-112.35,2.0,-2.0,0,0,,10.0,30.398623,,,TRUE,TRUE,,,,,,,OVC,6000,,,,,,,VFR,,,,,,,,,,,,METAR,1310.0
KTVI 140415Z AUTO 00000KT 10SM CLR 02/01 A3008 RMK AO2,KTVI,2021-01-14T04:15:00Z,30.9,-83.88,2.0,1.0,0,0,,10.0,30.079725,,,TRUE,TRUE,,,,,,,CLR,,,,,,,,VFR,,,,,,,,,,,,METAR,74.0
KTTA 140415Z AUTO 00000KT 10SM BKN011 BKN120 06/06 A2993 RMK AO2 T00560056,KTTA,2021-01-14T04:15:00Z,35.58,-79.1,5.6,5.6,0,0,,10.0,29.929134,,,TRUE,TRUE,,,,,,,BKN,1100,BKN,12000,,,,,MVFR,,,,,,,,,,,,METAR,71.0
KTRK 140415Z AUTO 00000KT 10SM CLR 00/00 A3050 RMK AO2,KTRK,2021-01-14T04:15:00Z,39.32,-120.13,0.0,0.0,0,0,,10.0,30.499016,,,TRUE,TRUE,,,,,,,CLR,,,,,,,,VFR,,,,,,,,,,,,METAR,1800.0
KTQH 140415Z AUTO 18004KT 10SM CLR 05/00 A2981 RMK AO2,KTQH,2021-01-14T04:15:00Z,35.93,-95.0,5.0,0.0,180,4,,10.0,29.811024,,,TRUE,TRUE,,,,,,,CLR,,,,,,,,VFR,,,,,,,,,,,,METAR,265.0
KTPF 140415Z AUTO 00000KT 10SM OVC030 12/10 A3010 RMK AO2,KTPF,2021-01-14T04:15:00Z,27.92,-82.45,12.0,10.0,0,0,,10.0,30.100393,,,TRUE,TRUE,,,,,,,OVC,3000,,,,,,,MVFR,,,,,,,,,,,,METAR,1.0
KTOC 140415Z AUTO 00000KT 3SM BR BKN003 02/02 A2994 RMK AO2 T00240015,KTOC,2021-01-14T04:15:00Z,34.6,-83.3,2.4,1.5,0,0,,3.0,29.940945,,,TRUE,TRUE,,,,,,BR,BKN,300,,,,,,,LIFR,,,,,,,,,,,,METAR,292.0
KTOB 140415Z AUTO 16009KT 10SM CLR 00/M02 A2952 RMK AO2,KTOB,2021-01-14T04:15:00Z,44.02,-92.82,0.0,-2.0,160,9,,10.0,29.518702,,,TRUE,TRUE,,,,,,,CLR,,,,,,,,VFR,,,,,,,,,,,,METAR,394.0
KTNU 140415Z AUTO 17005KT 10SM CLR M01/M01 A2957 RMK A01,KTNU,2021-01-14T04:15:00Z,41.67,-93.02,-1.0,-1.0,170,5,,10.0,29.568897,,,TRUE,TRUE,,,,,,,CLR,,,,,,,,VFR,,,,,,,,,,,,METAR,287.0
KTNB 140415Z AUTO 29006KT 10SM 03/M11 A2988 RMK AO2 T00251112,KTNB,2021-01-14T04:15:00Z,36.2,-81.65,2.5,-11.2,290,6,,10.0,29.878937,,,TRUE,TRUE,,,,,,,,,,,,,,,,,,,,,,,,,,,METAR,958.0
KTMT 140415Z AUTO 17004KT 10SM 00/M02 A3046 RMK AO2 T00011024,KTMT,2021-01-14T04:15:00Z,39.47,-117.2,0.1,-2.4,170,4,,10.0,30.46063,,,TRUE,TRUE,,,,,,,,,,,,,,,,,,,,,,,,,,,METAR,1748.0
KTMK 140415Z AUTO 00000KT 10SM CLR 06/06 A3046 RMK AO2,KTMK,2021-01-14T04:15:00Z,45.42,-123.82,6.0,6.0,0,0,,10.0,30.46063,,,TRUE,TRUE,,,,,,,CLR,,,,,,,,VFR,,,,,,,,,,,,METAR,8.0
KTME 140415Z AUTO 20007KT 10SM CLR 05/04 A3007 RMK AO2,KTME,2021-01-14T04:15:00Z,29.8,-95.9,5.0,4.0,200,7,,10.0,30.070866,,,TRUE,TRUE,,,,,,,CLR,,,,,,,,VFR,,,,,,,,,,,,METAR,49.0
KTKX 140415Z AUTO 20012KT 10SM CLR 06/04 A2985 RMK AO2 TSNO,KTKX,2021-01-14T04:15:00Z,36.22,-90.03,6.0,4.0,200,12,,10.0,29.84941,,,TRUE,TRUE,,,TRUE,,,,CLR,,,,,,,,VFR,,,,,,,,,,,,METAR,73.0
KTKV 140415Z AUTO 00000KT 5SM M09/M10 A2959 RMK AO2 T10931103 PWINO,KTKV,2021-01-14T04:15:00Z,45.47,-89.82,-9.3,-10.3,0,0,,5.0,29.589567,,,TRUE,TRUE,,,,,TRUE,,,,,,,,,,,,,,,,,,,,,,METAR,449.0
KTKC 140415Z AUTO 23005KT 10SM CLR 04/M01 A2947 RMK AO2 T00361010,KTKC,2021-01-14T04:15:00Z,44.25,-95.62,3.6,-1.0,230,5,,10.0,29.471457,,,TRUE,TRUE,,,,,,,CLR,,,,,,,,VFR,,,,,,,,,,,,METAR,408.0
KTIP 140415Z AUTO 19007KT 10SM CLR 03/M01 A2974 RMK AO2 T00301006,KTIP,2021-01-14T04:15:00Z,40.28,-88.15,3.0,-0.6,190,7,,10.0,29.740158,,,TRUE,TRUE,,,,,,,CLR,,,,,,,,VFR,,,,,,,,,,,,METAR,224.0
KTIF 140415Z AUTO 34035G44KT 10SM -RA BKN024 BKN037 OVC100 07/04 A2967 RMK AO2 T00720043,KTIF,2021-01-14T04:15:00Z,41.97,-100.57,7.2,4.3,340,35,44,10.0,29.66929,,,TRUE,TRUE,,,,,,-RA,BKN,2400,BKN,3700,OVC,10000,,,MVFR,,,,,,,,,,,,METAR,888.0
KTFP 140415Z AUTO 22005KT 10SM CLR 09/07 A3008 RMK AO2 T00880068,KTFP,2021-01-14T04:15:00Z,27.92,-97.22,8.8,6.8,220,5,,10.0,30.079725,,,TRUE,TRUE,,,,,,,CLR,,,,,,,,VFR,,,,,,,,,,,,METAR,5.0
KTEX 140415Z AUTO 00000KT 10SM SCT042 SCT050 BKN065 00/M05 A3029 RMK AO2,KTEX,2021-01-14T04:15:00Z,37.95,-107.9,0.0,-5.0,0,0,,10.0,30.28937,,,TRUE,TRUE,,,,,,,SCT,4200,SCT,5000,BKN,6500,,,VFR,,,,,,,,,,,,METAR,2760.0
KTEW 140415Z AUTO 22003KT 10SM OVC090 03/00 A2972 RMK AO2 T00270001,KTEW,2021-01-14T04:15:00Z,42.57,-84.42,2.7,0.1,220,3,,10.0,29.719488,,,TRUE,TRUE,,,,,,,OVC,9000,,,,,,,VFR,,,,,,,,,,,,METAR,281.0
KTDF 140415Z AUTO 00000KT 10SM CLR 03/01 A2993 RMK AO2,KTDF,2021-01-14T04:15:00Z,36.28,-78.98,3.0,1.0,0,0,,10.0,29.929134,,,TRUE,TRUE,,,,,,,CLR,,,,,,,,VFR,,,,,,,,,,,,METAR,180.0
KTCY 140415Z AUTO 31009KT 7SM OVC022 14/12 A3038 RMK A01,KTCY,2021-01-14T04:15:00Z,37.68,-121.43,14.0,12.0,310,9,,7.0,30.380905,,,TRUE,TRUE,,,,,,,OVC,2200,,,,,,,MVFR,,,,,,,,,,,,METAR,51.0
KTBR 140415Z AUTO 22003KT 10SM SCT090 05/03 A3001 RMK AO2 T00460032 TSNO,KTBR,2021-01-14T04:15:00Z,32.48,-81.73,4.6,3.2,220,3,,10.0,30.008858,,,TRUE,TRUE,,,TRUE,,,,SCT,9000,,,,,,,VFR,,,,,,,,,,,,METAR,54.0
KTAZ 140415Z AUTO 18011KT 10SM CLR 02/M01 A2974 RMK AO2 T00201012,KTAZ,2021-01-14T04:15:00Z,39.53,-89.33,2.0,-1.2,180,11,,10.0,29.740158,,,TRUE,TRUE,,,,,,,CLR,,,,,,,,VFR,,,,,,,,,,,,METAR,188.0
KT82 140415Z AUTO 28004KT 10SM CLR 05/M01 A3001 RMK AO2 T00461013,KT82,2021-01-14T04:15:00Z,30.25,-98.92,4.6,-1.3,280,4,,10.0,30.008858,,,TRUE,TRUE,,,,,,,CLR,,,,,,,,VFR,,,,,,,,,,,,METAR,509.0
KT74 140415Z AUTO 22005KT 10SM CLR 07/02 A3001 RMK AO2,KT74,2021-01-14T04:15:00Z,30.57,-97.45,7.0,2.0,220,5,,10.0,30.008858,,,TRUE,TRUE,,,,,,,CLR,,,,,,,,VFR,,,,,,,,,,,,METAR,169.0
KT69 140415Z AUTO 00000KT 10SM CLR 05/04 A3008 RMK A01,KT69,2021-01-14T04:15:00Z,28.03,-97.55,5.0,4.0,0,0,,10.0,30.079725,,,TRUE,TRUE,,,,,,,CLR,,,,,,,,VFR,,,,,,,,,,,,METAR,15.0
KT41 140415Z AUTO 21005KT 10SM CLR 06/01 A3008 RMK AO2 T00610014,KT41,2021-01-14T04:15:00Z,29.67,-95.07,6.1,1.4,210,5,,10.0,30.079725,,,TRUE,TRUE,,,,,,,CLR,,,,,,,,VFR,,,,,,,,,,,,METAR,8.0
KT35 140415Z AUTO 19008KT 10SM CLR 09/03 A3000 RMK AO2 T00870026,KT35,2021-01-14T04:15:00Z,30.88,-96.97,8.7,2.6,190,8,,10.0,30.0,,,TRUE,TRUE,,,,,,,CLR,,,,,,,,VFR,,,,,,,,,,,,METAR,122.0
KT20 140415Z AUTO 18006KT 10SM CLR 08/03 A3004 RMK AO2 T00810025,KT20,2021-01-14T04:15:00Z,29.52,-97.47,8.1,2.5,180,6,,10.0,30.041338,,,TRUE,TRUE,,,,,,,CLR,,,,,,,,VFR,,,,,,,,,,,,METAR,107.0
KSZY 140415Z AUTO 18005KT 10SM CLR 03/01 A2994 RMK A01,KSZY,2021-01-14T04:15:00Z,,,3.0,1.0,180,5,,10.0,29.940945,,,TRUE,TRUE,,,,,,,CLR,,,,,,,,VFR,,,,,,,,,,,,METAR,
KSZT 140415Z AUTO 25005KT 10SM BKN080 01/M05 A3036 RMK AO2,KSZT,2021-01-14T04:15:00Z,48.3,-116.57,1.0,-5.0,250,5,,10.0,30.360237,,,TRUE,TRUE,,,,,,,BKN,8000,,,,,,,VFR,,,,,,,,,,,,METAR,649.0
KSYN 140415Z AUTO 17003KT 10SM CLR 02/00 A2952 RMK AO2 T00211003,KSYN,2021-01-14T04:15:00Z,44.47,-93.02,2.1,-0.3,170,3,,10.0,29.518702,,,TRUE,TRUE,,,,,,,CLR,,,,,,,,VFR,,,,,,,,,,,,METAR,280.0
KSYM 140415Z AUTO 23007KT 10SM CLR 03/M04 A2991 RMK AO2,KSYM,2021-01-14T04:15:00Z,38.22,-83.58,3.0,-4.0,230,7,,10.0,29.911417,,,TRUE,TRUE,,,,,,,CLR,,,,,,,,VFR,,,,,,,,,,,,METAR,307.0
KSYI 140415Z AUTO 18008KT 10SM CLR M01/M02 A2996 RMK A01,KSYI,2021-01-14T04:15:00Z,35.57,-86.45,-1.0,-2.0,180,8,,10.0,29.958662,,,TRUE,TRUE,,,,,,,CLR,,,,,,,,VFR,,,,,,,,,,,,METAR,244.0
KSYF 140415Z AUTO 30019G27KT 10SM CLR 13/M05 A2970 RMK AO2 T01301053 PWINO,KSYF,2021-01-14T04:15:00Z,39.77,-101.8,13.0,-5.3,300,19,27,10.0,29.698818,,,TRUE,TRUE,,,,,TRUE,,CLR,,,,,,,,VFR,,,,,,,,,,,,METAR,1041.0
KSXU 140415Z AUTO 26015G19KT 10SM CLR 10/M06 A2993 RMK AO2 T00961063,KSXU,2021-01-14T04:15:00Z,34.93,-104.65,9.6,-6.3,260,15,19,10.0,29.929134,,,TRUE,TRUE,,,,,,,CLR,,,,,,,,VFR,,,,,,,,,,,,METAR,1465.0
KSWW 140415Z AUTO 21015KT 10SM CLR 10/M02 A2989 RMK AO2 T01001025,KSWW,2021-01-14T04:15:00Z,32.47,-100.47,10.0,-2.5,210,15,,10.0,29.890747,,,TRUE,TRUE,,,,,,,CLR,,,,,,,,VFR,,,,,,,,,,,,METAR,718.0
KSVH 140415Z AUTO 25004KT 10SM CLR 04/02 A2989 RMK AO2 T00350024,KSVH,2021-01-14T04:15:00Z,35.75,-80.95,3.5,2.4,250,4,,10.0,29.890747,,,TRUE,TRUE,,,,,,,CLR,,,,,,,,VFR,,,,,,,,,,,,METAR,286.0
KSVC 140415Z AUTO 31014KT 10SM CLR 07/M14 A3017 RMK AO2 T00701145,KSVC,2021-01-14T04:15:00Z,32.63,-108.15,7.0,-14.5,310,14,,10.0,30.171259,,,TRUE,TRUE,,,,,,,CLR,,,,,,,,VFR,,,,,,,,,,,,METAR,1638.0
KSUZ 140415Z AUTO 00000KT 10SM CLR 03/M01 A2991 RMK A01,KSUZ,2021-01-14T04:15:00Z,34.58,-92.48,3.0,-1.0,0,0,,10.0,29.911417,,,TRUE,TRUE,,,,,,,CLR,,,,,,,,VFR,,,,,,,,,,,,METAR,114.0
KSUT 140415Z AUTO 00000KT 10SM SCT022 OVC100 09/06 A2997 RMK AO2 T00860056,KSUT,2021-01-14T04:15:00Z,33.93,-78.08,8.6,5.6,0,0,,10.0,29.970472,,,TRUE,TRUE,,,,,,,SCT,2200,OVC,10000,,,,,VFR,,,,,,,,,,,,METAR,6.0
KSUA 140415Z AUTO 00000KT 10SM -DZ OVC075 15/13 A3005 RMK AO2,KSUA,2021-01-14T04:15:00Z,27.18,-80.22,15.0,13.0,0,0,,10.0,30.050198,,,TRUE,TRUE,,,,,,-DZ,OVC,7500,,,,,,,VFR,,,,,,,,,,,,METAR,4.0
KSTK 140415Z AUTO 30019G24KT 10SM SCT110 10/M02 A2976 RMK AO2,KSTK,2021-01-14T04:15:00Z,40.62,-103.27,10.0,-2.0,300,19,24,10.0,29.760826,,,TRUE,TRUE,,,,,,,SCT,11000,,,,,,,VFR,,,,,,,,,,,,METAR,1228.0
KSTE 140415Z AUTO 00000KT 1/2SM FZFG VV005 M05/M05 A2962 RMK AO2 T10541054,KSTE,2021-01-14T04:15:00Z,44.55,-89.53,-5.4,-5.4,0,0,,0.5,29.619095,,,TRUE,TRUE,,,,,,FZFG,OVX,0,,,,,,,LIFR,,,,,,,,,,,500,METAR,335.0
KSRR 140415Z AUTO 30017G36KT 10SM CLR 09/M15 A3009 RMK AO2,KSRR,2021-01-14T04:15:00Z,33.47,-105.52,9.0,-15.0,300,17,36,10.0,30.088583,,,TRUE,TRUE,,,,,,,CLR,,,,,,,,VFR,,,,,,,,,,,,METAR,2063.0
KSRE 140415Z AUTO 18004KT 10SM CLR 07/M02 A2980 RMK AO2,KSRE,2021-01-14T04:15:00Z,35.27,-96.68,7.0,-2.0,180,4,,10.0,29.799213,,,TRUE,TRUE,,,,,,,CLR,,,,,,,,VFR,,,,,,,,,,,,METAR,306.0
KSRB 140415Z AUTO 20006KT 10SM CLR M00/M03 A2994 RMK A01,KSRB,2021-01-14T04:15:00Z,36.05,-85.53,0.0,-3.0,200,6,,10.0,29.940945,,,TRUE,TRUE,,,,,,,CLR,,,,,,,,VFR,,,,,,,,,,,,METAR,303.0
KSOW 140415Z AUTO 00000KT 10SM CLR M00/M19 A3030 RMK AO2,KSOW,2021-01-14T04:15:00Z,34.27,-110.0,0.0,-19.0,0,0,,10.0,30.301182,,,TRUE,TRUE,,,,,,,CLR,,,,,,,,VFR,,,,,,,,,,,,METAR,1954.0
KSOA 140415Z AUTO 21004KT 10SM CLR 06/M03 A3004 RMK AO2,KSOA,2021-01-14T04:15:00Z,30.58,-100.65,6.0,-3.0,210,4,,10.0,30.041338,,,TRUE,TRUE,,,,,,,CLR,,,,,,,,VFR,,,,,,,,,,,,METAR,654.0
KSNL 140415Z AUTO 19011KT 10SM CLR 07/M04 A2977 RMK AO2 T00701040,KSNL,2021-01-14T04:15:00Z,35.35,-96.95,7.0,-4.0,190,11,,10.0,29.769686,,,TRUE,TRUE,,,,,,,CLR,,,,,,,,VFR,,,,,,,,,,,,METAR,327.0
KSNK 140415Z AUTO 21008KT 10SM CLR 06/M02 A2987 RMK AO2 T00601017,KSNK,2021-01-14T04:15:00Z,32.7,-100.95,6.0,-1.7,210,8,,10.0,29.870079,,,TRUE,TRUE,,,,,,,CLR,,,,,,,,VFR,,,,,,,,,,,,METAR,738.0
KSNH 140415Z AUTO 18008KT 10SM CLR 03/01 A2996 RMK A01,KSNH,2021-01-14T04:15:00Z,35.17,-88.22,3.0,1.0,180,8,,10.0,29.958662,,,TRUE,TRUE,,,,,,,CLR,,,,,,,,VFR,,,,,,,,,,,,METAR,142.0
KSNC 140415Z AUTO 24004KT 7SM FEW110 01/M03 A2989 RMK AO2,KSNC,2021-01-14T04:15:00Z,41.38,-72.5,1.0,-3.0,240,4,,7.0,29.890747,,,TRUE,TRUE,,,,,,,FEW,11000,,,,,,,VFR,,,,,,,,,,,,METAR,114.0
KSMS 140415Z AUTO 00000KT 8SM OVC010 06/06 A2998 RMK AO2,KSMS,2021-01-14T04:15:00Z,34.0,-80.37,6.0,6.0,0,0,,8.0,29.97933,,,TRUE,TRUE,,,,,,,OVC,1000,,,,,,,MVFR,,,,,,,,,,,,METAR,53.0
KSME 140415Z AUTO 00000KT 10SM CLR M01/M05 A2994 RMK AO2,KSME,2021-01-14T04:15:00Z,37.05,-84.62,-1.0,-5.0,0,0,,10.0,29.940945,,,TRUE,TRUE,,,,,,,CLR,,,,,,,,VFR,,,,,,,,,,,,METAR,279.0
KSMD 140415Z AUTO 20008G13KT 10SM FEW055 BKN060 OVC075 05/M01 A2978 RMK A01,KSMD,2021-01-14T04:15:00Z,41.15,-85.15,5.0,-1.0,200,8,13,10.0,29.778543,,,TRUE,TRUE,,,,,,,FEW,5500,BKN,6000,OVC,7500,,,VFR,,,,,,,,,,,,METAR,252.0
KSLR 140415Z AUTO 19010KT 10SM CLR 09/01 A2994 RMK AO2 T00850010,KSLR,2021-01-14T04:15:00Z,33.17,-95.62,8.5,1.0,190,10,,10.0,29.940945,,,TRUE,TRUE,,,,,,,CLR,,,,,,,,VFR,,,,,,,,,,,,METAR,144.0
KSLO 140415Z AUTO 00000KT 10SM CLR 04/00 A2978 RMK AO2 T00400000,KSLO,2021-01-14T04:15:00Z,38.65,-88.97,4.0,0.0,0,0,,10.0,29.778543,,,TRUE,TRUE,,,,,,,CLR,,,,,,,,VFR,,,,,,,,,,,,METAR,173.0
KSLH 140415Z AUTO 21003KT 10SM OVC021 00/M02 A2968 RMK AO2,KSLH,2021-01-14T04:15:00Z,45.65,-84.52,0.0,-2.0,210,3,,10.0,29.681103,,,TRUE,TRUE,,,,,,,OVC,2100,,,,,,,MVFR,,,,,,,,,,,,METAR,193.0
KSLB 140415Z AUTO 23008KT 10SM CLR 02/01 RMK AO2,KSLB,2021-01-14T04:15:00Z,42.6,-95.23,2.0,1.0,230,8,,10.0,,,,TRUE,TRUE,,,,,,,CLR,,,,,,,,VFR,,,,,,,,,,,,METAR,450.0
KSJX 140415Z AUTO 00000KT 3SM BR CLR M03/M03 A2969 RMK AO2 T10291032,KSJX,2021-01-14T04:15:00Z,45.7,-85.57,-2.9,-3.2,0,0,,3.0,29.68996,,,TRUE,TRUE,,,,,,BR,CLR,,,,,,,,MVFR,,,,,,,,,,,,METAR,202.0
KSJS 140415Z AUTO 00000KT 10SM CLR 03/M05 A2990 RMK AO2 T00271053,KSJS,2021-01-14T04:15:00Z,37.75,-82.63,2.7,-5.3,0,0,,10.0,29.899607,,,TRUE,TRUE,,,,,,,CLR,,,,,,,,VFR,,,,,,,,,,,,METAR,359.0
KSIK 140415Z AUTO 19008KT 10SM CLR 05/02 A2985 RMK AO2 TSNO,KSIK,2021-01-14T04:15:00Z,36.9,-89.57,5.0,2.0,190,8,,10.0,29.84941,,,TRUE,TRUE,,,TRUE,,,,CLR,,,,,,,,VFR,,,,,,,,,,,,SPECI,95.0
KSHL 140415Z AUTO 18003KT 10SM SCT120 02/01 A2948 RMK AO2,KSHL,2021-01-14T04:15:00Z,43.22,-95.83,2.0,1.0,180,3,,10.0,29.480314,,,TRUE,TRUE,,,,,,,SCT,12000,,,,,,,VFR,,,,,,,,,,,,METAR,430.0
KSHD 140415Z AUTO 00000KT 10SM CLR M05/M07 A2986 RMK AO2 T10461067,KSHD,2021-01-14T04:15:00Z,38.27,-78.9,-4.6,-6.7,0,0,,10.0,29.861221,,,TRUE,TRUE,,,,,,,CLR,,,,,,,,VFR,,,,,,,,,,,,METAR,360.0
KSGS 140415Z AUTO 00000KT 10SM CLR 02/M01 A2953 RMK AO2 T00161008,KSGS,2021-01-14T04:15:00Z,44.87,-93.03,1.6,-0.8,0,0,,10.0,29.530512,,,TRUE,TRUE,,,,,,,CLR,,,,,,,,VFR,,,,,,,,,,,,METAR,250.0
KSFY 140415Z AUTO 00000KT 7SM CLR 00/00 A2964 RMK AO2,KSFY,2021-01-14T04:15:00Z,42.05,-90.12,0.0,0.0,0,0,,7.0,29.639763,,,TRUE,TRUE,,,,,,,CLR,,,,,,,,VFR,,,,,,,,,,,,SPECI,188.0
KSFQ 140415Z AUTO 00000KT 10SM CLR 00/M02 A2994 RMK AO2 T10021025,KSFQ,2021-01-14T04:15:00Z,36.68,-76.6,-0.2,-2.5,0,0,,10.0,29.940945,,,TRUE,TRUE,,,,,,,CLR,,,,,,,,VFR,,,,,,,,,,,,METAR,19.0
KSEZ 140415Z AUTO 00000KT 10SM CLR 11/M16 A3024 RMK AO2,KSEZ,2021-01-14T04:15:00Z,34.85,-111.78,11.0,-16.0,0,0,,10.0,30.239174,,,TRUE,TRUE,,,,,,,CLR,,,,,,,,VFR,,,,,,,,,,,,METAR,1455.0
KSEP 140415Z AUTO 19004KT 10SM CLR 05/M01 A2992 RMK AO2 T00511010,KSEP,2021-01-14T04:15:00Z,32.22,-98.17,5.1,-1.0,190,4,,10.0,29.920275,,,TRUE,TRUE,,,,,,,CLR,,,,,,,,VFR,,,,,,,,,,,,METAR,399.0
KSEM 140415Z AUTO 00000KT 7SM CLR M01/M01 A3006 RMK AO2,KSEM,2021-01-14T04:15:00Z,32.35,-86.98,-1.0,-1.0,0,0,,7.0,30.059055,,,TRUE,TRUE,,,,,,,CLR,,,,,,,,VFR,,,,,,,,,,,,METAR,48.0
KSEF 140415Z AUTO 17003KT 5SM BR BKN080 OVC095 13/13 A3005 RMK AO2 T01350128,KSEF,2021-01-14T04:15:00Z,27.45,-81.35,13.5,12.8,170,3,,5.0,30.050198,,,TRUE,TRUE,,,,,,BR,BKN,8000,OVC,9500,,,,,MVFR,,,,,,,,,,,,METAR,17.0
KSEE 140415Z AUTO 00000KT 10SM CLR 15/02 A3016 RMK AO2,KSEE,2021-01-14T04:15:00Z,32.82,-116.97,15.0,2.0,0,0,,10.0,30.159449,,,TRUE,TRUE,,,,,,,CLR,,,,,,,,VFR,,,,,,,,,,,,METAR,113.0
KSDA 140415Z AUTO 00000KT 10SM FEW110 02/01 A2955 RMK AO2,KSDA,2021-01-14T04:15:00Z,40.75,-95.42,2.0,1.0,0,0,,10.0,29.551182,,,TRUE,TRUE,,,,,,,FEW,11000,,,,,,,VFR,,,,,,,,,,,,METAR,293.0
KSCX 140415Z AUTO 20006KT 10SM CLR M00/M03 A2990 RMK A01,KSCX,2021-01-14T04:15:00Z,36.45,-84.58,0.0,-3.0,200,6,,10.0,29.899607,,,TRUE,TRUE,,,,,,,CLR,,,,,,,,VFR,,,,,,,,,,,,METAR,462.0
KSCR 140415Z AUTO 25003KT 10SM OVC006 06/05 A2992 RMK AO2 T00560048,KSCR,2021-01-14T04:15:00Z,35.7,-79.5,5.6,4.8,250,3,,10.0,29.920275,,,TRUE,TRUE,,,,,,,OVC,600,,,,,,,IFR,,,,,,,,,,,,METAR,182.0
KSCD 140415Z AUTO 00000KT 5SM BR OVC110 M01/M01 A3006 RMK AO2 T10101010,KSCD,2021-01-14T04:15:00Z,33.17,-86.3,-1.0,-1.0,0,0,,5.0,30.059055,,,TRUE,TRUE,,,,,,BR,OVC,11000,,,,,,,MVFR,,,,,,,,,,,,METAR,164.0
KSBS 140415Z AUTO 26023G29KT 10SM BKN030 BKN037 00/M03 A3006 RMK AO1 T00011035,KSBS,2021-01-14T04:15:00Z,40.52,-106.87,0.1,-3.5,260,23,29,10.0,30.059055,,,TRUE,TRUE,,,,,,,BKN,3000,BKN,3700,,,,,MVFR,,,,,,,,,,,,METAR,2097.0
KSBO 140415Z AUTO 25004KT 10SM CLR 05/05 A3003 RMK AO2,KSBO,2021-01-14T04:15:00Z,32.62,-82.37,5.0,5.0,250,4,,10.0,30.029528,,,TRUE,TRUE,,,,,,,CLR,,,,,,,,VFR,,,,,,,,,,,,METAR,98.0
KSAZ 140415Z AUTO 14005KT 10SM CLR 02/M01 A2944 RMK AO2,KSAZ,2021-01-14T04:15:00Z,46.37,-94.8,2.0,-1.0,140,5,,10.0,29.438976,,,TRUE,TRUE,,,,,,,CLR,,,,,,,,VFR,,,,,,,,,,,,METAR,391.0
KSAA 140415Z AUTO 27029G42KT 10SM CLR 00/M06 A3002 RMK AO2,KSAA,2021-01-14T04:15:00Z,41.45,-106.8,0.0,-6.0,270,29,42,10.0,30.02067,,,TRUE,TRUE,,,,,,,CLR,,,,,,,,VFR,,,,,,,,,,,,METAR,2093.0
KS52 140415Z AUTO 32004KT 10SM CLR M06/M08 A3045 RMK AO2 T10581076,KS52,2021-01-14T04:15:00Z,48.42,-120.15,-5.8,-7.6,320,4,,10.0,30.448818,,,TRUE,TRUE,,,,,,,CLR,,,,,,,,VFR,,,,,,,,,,,,METAR,517.0
KS39 140415Z AUTO 00000KT 10SM CLR M00/M06 A3047 RMK AO2,KS39,2021-01-14T04:15:00Z,44.28,-120.9,0.0,-6.0,0,0,,10.0,30.469488,,,TRUE,TRUE,,,,,,,CLR,,,,,,,,VFR,,,,,,,,,,,,METAR,987.0
KS25 140415Z AUTO 27027G44KT 9SM SCT034 BKN041 OVC049 03/M04 A2951 RMK AO2 PWINO,KS25,2021-01-14T04:15:00Z,47.8,-103.25,3.0,-4.0,270,27,44,9.0,29.509842,,,TRUE,TRUE,,,,,TRUE,,SCT,3400,BKN,4100,OVC,4900,,,VFR,,,,,,,,,,,,METAR,632.0
KS21 140415Z AUTO 00000KT 10SM SCT120 M02/M03 A3049 RMK AO2,KS21,2021-01-14T04:15:00Z,43.88,-121.45,-2.0,-3.0,0,0,,10.0,30.490158,,,TRUE,TRUE,,,,,,,SCT,12000,,,,,,,VFR,,,,,,,,,,,,METAR,1269.0
KRZT 140415Z AUTO 20006KT 10SM SCT090 BKN120 04/M03 A2985 RMK AO2 PWINO,KRZT,2021-01-14T04:15:00Z,39.43,-83.02,4.0,-3.0,200,6,,10.0,29.84941,,,TRUE,TRUE,,,,,TRUE,,SCT,9000,BKN,12000,,,,,VFR,,,,,,,,,,,,METAR,217.0
KRZN 140415Z AUTO 11004KT 10SM CLR M01/M02 A2955 RMK AO2 T10101022,KRZN,2021-01-14T04:15:00Z,45.82,-92.37,-1.0,-2.2,110,4,,10.0,29.551182,,,TRUE,TRUE,,,,,,,CLR,,,,,,,,VFR,,,,,,,,,,,,METAR,301.0
KRZL 140415Z AUTO 21007KT 10SM BKN120 02/00 A2974 RMK AO2,KRZL,2021-01-14T04:15:00Z,40.95,-87.18,2.0,0.0,210,7,,10.0,29.740158,,,TRUE,TRUE,,,,,,,BKN,12000,,,,,,,VFR,,,,,,,,,,,,METAR,210.0
KRYW 140415Z AUTO 23006KT 10SM CLR 09/00 A3000 RMK AO2 T00910004,KRYW,2021-01-14T04:15:00Z,30.5,-97.97,9.1,0.4,230,6,,10.0,30.0,,,TRUE,TRUE,,,,,,,CLR,,,,,,,,VFR,,,,,,,,,,,,METAR,370.0
KRYV 140415Z AUTO 00000KT 7SM CLR M01/M01 A2965 RMK AO2 T10141014,KRYV,2021-01-14T04:15:00Z,43.17,-88.72,-1.4,-1.4,0,0,,7.0,29.648623,,,TRUE,TRUE,,,,,,,CLR,,,,,,,,VFR,,,,,,,,,,,,METAR,249.0
KRWV 140415Z AUTO 19006KT 10SM CLR 08/03 A3003 RMK AO2 T00810028,KRWV,2021-01-14T04:15:00Z,30.52,-96.7,8.1,2.8,190,6,,10.0,30.029528,,,TRUE,TRUE,,,,,,,CLR,,,,,,,,VFR,,,,,,,,,,,,METAR,116.0
KRVL 140415Z AUTO 00000KT 5SM BR CLR M00/M00 A2984 RMK AO2,KRVL,2021-01-14T04:15:00Z,40.68,-77.63,0.0,0.0,0,0,,5.0,29.840551,,,TRUE,TRUE,,,,,,BR,CLR,,,,,,,,MVFR,,,,,,,,,,,,METAR,250.0
KRVJ 140415Z AUTO 00000KT 10SM CLR 04/03 A3003 RMK AO2 T00400034,KRVJ,2021-01-14T04:15:00Z,32.07,-82.15,4.0,3.4,0,0,,10.0,30.029528,,,TRUE,TRUE,,,,,,,CLR,,,,,,,,VFR,,,,,,,,,,,,METAR,60.0
KRUQ 140415Z AUTO 22003KT 5SM BR OVC007 05/04 A2992 RMK AO2 T00470035,KRUQ,2021-01-14T04:15:00Z,35.65,-80.52,4.7,3.5,220,3,,5.0,29.920275,,,TRUE,TRUE,,,,,,BR,OVC,700,,,,,,,IFR,,,,,,,,,,,,METAR,231.0
KRTS 140415Z AUTO 35008KT 10SM CLR 03/01 A3048 RMK AO2,KRTS,2021-01-14T04:15:00Z,39.67,-119.88,3.0,1.0,350,8,,10.0,30.481298,,,TRUE,TRUE,,,,,,,CLR,,,,,,,,VFR,,,,,,,,,,,,METAR,1537.0
KRSV 140415Z AUTO 20008KT 10SM CLR 03/M01 A2982 RMK AO2 T00261015,KRSV,2021-01-14T04:15:00Z,39.02,-87.65,2.6,-1.5,200,8,,10.0,29.819881,,,TRUE,TRUE,,,,,,,CLR,,,,,,,,VFR,,,,,,,,,,,,METAR,139.0
KRSN 140415Z AUTO 21005KT 10SM CLR 07/01 A3001 RMK AO2 T00740008,KRSN,2021-01-14T04:15:00Z,32.52,-92.58,7.4,0.8,210,5,,10.0,30.008858,,,TRUE,TRUE,,,,,,,CLR,,,,,,,,VFR,,,,,,,,,,,,METAR,86.0
KRRT 140415Z AUTO 12004KT 10SM CLR M03/M06 A2939 RMK AO2,KRRT,2021-01-14T04:15:00Z,48.93,-95.33,-3.0,-6.0,120,4,,10.0,29.388779,,,TRUE,TRUE,,,,,,,CLR,,,,,,,,VFR,,,,,,,,,,,,METAR,327.0
KRQO 140415Z AUTO 20013KT 10SM CLR 06/00 A2978 RMK AO2 T00590004,KRQO,2021-01-14T04:15:00Z,35.47,-98.0,5.9,0.4,200,13,,10.0,29.778543,,,TRUE,TRUE,,,,,,,CLR,,,,,,,,VFR,,,,,,,,,,,,METAR,431.0
KRQB 140415Z AUTO 19003KT 4SM BR OVC009 00/00 A2968 RMK AO2 T00020000,KRQB,2021-01-14T04:15:00Z,43.72,-85.5,0.2,0.0,190,3,,4.0,29.681103,,,TRUE,TRUE,,,,,,BR,OVC,900,,,,,,,IFR,,,,,,,,,,,,METAR,282.0
KRPJ 140415Z AUTO 14007KT 7SM SCT120 01/00 A2967 RMK AO2 T00060000,KRPJ,2021-01-14T04:15:00Z,41.88,-89.08,0.6,0.0,140,7,,7.0,29.66929,,,TRUE,TRUE,,,,,,,SCT,12000,,,,,,,VFR,,,,,,,,,,,,METAR,234.0
KROX 140415Z 17005KT 10SM CLR A2938 RMK AO2 TSNO,KROX,2021-01-14T04:15:00Z,48.85,-95.7,,,170,5,,10.0,29.379921,,,,TRUE,,,TRUE,,,,CLR,,,,,,,,VFR,,,,,,,,,,,,METAR,320.0
KROS 140415Z AUTO 09005KT 5SM BR SCT110 M03/M03 A2953 RMK AO2 T10281032,KROS,2021-01-14T04:15:00Z,45.7,-92.95,-2.8,-3.2,90,5,,5.0,29.530512,,,TRUE,TRUE,,,,,,BR,SCT,11000,,,,,,,MVFR,,,,,,,,,,,,METAR,282.0
KRNV 140415Z AUTO 19007KT 10SM CLR 05/02 A2997 RMK AO2 T00520019,KRNV,2021-01-14T04:15:00Z,33.77,-90.75,5.2,1.9,190,7,,10.0,29.970472,,,TRUE,TRUE,,,,,,,CLR,,,,,,,,VFR,,,,,,,,,,,,METAR,42.0
KRNP 140415Z AUTO 23004KT 10SM BKN120 03/00 A2971 RMK AO2 T00250000,KRNP,2021-01-14T04:15:00Z,43.0,-84.13,2.5,0.0,230,4,,10.0,29.71063,,,TRUE,TRUE,,,,,,,BKN,12000,,,,,,,VFR,,,,,,,,,,,,METAR,224.0
KRNH 140415Z AUTO 11005KT 10SM CLR M01/M02 A2954 RMK AO2 T10101025,KRNH,2021-01-14T04:15:00Z,45.15,-92.53,-1.0,-2.5,110,5,,10.0,29.53937,,,TRUE,TRUE,,,,,,,CLR,,,,,,,,VFR,,,,,,,,,,,,METAR,302.0
KRNC 140415Z AUTO 22006KT 10SM CLR 01/M02 A2995 RMK A01,KRNC,2021-01-14T04:15:00Z,35.7,-85.85,1.0,-2.0,220,6,,10.0,29.949802,,,TRUE,TRUE,,,,,,,CLR,,,,,,,,VFR,,,,,,,,,,,,METAR,310.0
KRMY 140415Z AUTO 21004KT 10SM DZ SCT043 OVC060 03/01 A2973 RMK AO2 T00250006,KRMY,2021-01-14T04:15:00Z,42.25,-84.95,2.5,0.6,210,4,,10.0,29.731298,,,TRUE,TRUE,,,,,,DZ,SCT,4300,OVC,6000,,,,,VFR,,,,,,,,,,,,METAR,285.0
KRMN 140415Z AUTO 00000KT 10SM CLR M02/M02 A2992 RMK AO2 T10171025,KRMN,2021-01-14T04:15:00Z,38.4,-77.45,-1.7,-2.5,0,0,,10.0,29.920275,,,TRUE,TRUE,,,,,,,CLR,,,,,,,,VFR,,,,,,,,,,,,METAR,50.0
KRLD 140415Z AUTO 01006KT 10SM CLR 06/M01 A3052 RMK AO2 T00581011,KRLD,2021-01-14T04:15:00Z,46.3,-119.3,5.8,-1.1,10,6,,10.0,30.519686,,,TRUE,TRUE,,,,,,,CLR,,,,,,,,VFR,,,,,,,,,,,,METAR,118.0
KRKW 140415Z AUTO 00000KT 6SM BR CLR M03/M03 A2993 RMK A01,KRKW,2021-01-14T04:15:00Z,35.92,-84.68,-3.0,-3.0,0,0,,6.0,29.929134,,,TRUE,TRUE,,,,,,BR,CLR,,,,,,,,VFR,,,,,,,,,,,,METAR,505.0
KRKR 140415Z AUTO 00000KT 10SM CLR 02/M01 A2985 RMK AO2,KRKR,2021-01-14T04:15:00Z,35.02,-94.62,2.0,-1.0,0,0,,10.0,29.84941,,,TRUE,TRUE,,,,,,,CLR,,,,,,,,VFR,,,,,,,,,,,,METAR,136.0
KRHP 140415Z AUTO 00000KT 10SM CLR M01/M03 A2996 RMK AO2 T10151027,KRHP,2021-01-14T04:15:00Z,35.18,-83.85,-1.5,-2.7,0,0,,10.0,29.958662,,,TRUE,TRUE,,,,,,,CLR,,,,,,,,VFR,,,,,,,,,,,,METAR,515.0
KRGK 140415Z AUTO 12006KT 10SM CLR 01/M01 A2954 RMK AO2,KRGK,2021-01-14T04:15:00Z,44.58,-92.48,1.0,-1.0,120,6,,10.0,29.53937,,,TRUE,TRUE,,,,,,,CLR,,,,,,,,VFR,,,,,,,,,,,,METAR,238.0
KRGA 140415Z AUTO 21004KT 10SM CLR 01/M02 A2990 RMK AO2,KRGA,2021-01-14T04:15:00Z,37.63,-84.33,1.0,-2.0,210,4,,10.0,29.899607,,,TRUE,TRUE,,,,,,,CLR,,,,,,,,VFR,,,,,,,,,,,,METAR,301.0
KRFI 140415Z AUTO 19005KT 10SM CLR 08/02 A3000 RMK AO2 T00750021,KRFI,2021-01-14T04:15:00Z,32.15,-94.85,7.5,2.1,190,5,,10.0,30.0,,,TRUE,TRUE,,,,,,,CLR,,,,,,,,VFR,,,,,,,,,,,,METAR,133.0
KREG 140415Z AUTO 00000KT 10SM CLR 04/02 A3011 RMK AO2 T00430016,KREG,2021-01-14T04:15:00Z,30.17,-90.93,4.3,1.6,0,0,,10.0,30.109253,,,TRUE,TRUE,,,,,,,CLR,,,,,,,,VFR,,,,,,,,,,,,METAR,3.0
KRCX 140415Z AUTO 09005KT 10SM 00/00 A2959 RMK AO2 T10041004,KRCX,2021-01-14T04:15:00Z,45.5,-91.0,-0.4,-0.4,90,5,,10.0,29.589567,,,TRUE,TRUE,,,,,,,,,,,,,,,,,,,,,,,,,,,SPECI,373.0
KRCV 140415Z AUTO 25004KT 10SM CLR M06/M12 A3013 RMK AO2 T10651117,KRCV,2021-01-14T04:15:00Z,37.72,-106.35,-6.5,-11.7,250,4,,10.0,30.129921,,,TRUE,TRUE,,,,,,,CLR,,,,,,,,VFR,,,,,,,,,,,,METAR,2418.0
KRCR 140415Z AUTO 21007KT 10SM CLR 05/00 A2976 RMK AO2,KRCR,2021-01-14T04:15:00Z,41.07,-86.18,5.0,0.0,210,7,,10.0,29.760826,,,TRUE,TRUE,,,,,,,CLR,,,,,,,,VFR,,,,,,,,,,,,METAR,240.0
KRBW 140415Z AUTO 21005KT 10SM SCT008 BKN110 05/04 A3003 RMK AO2,KRBW,2021-01-14T04:15:00Z,32.92,-80.63,5.0,4.0,210,5,,10.0,30.029528,,,TRUE,TRUE,,,,,,,SCT,800,BKN,11000,,,,,VFR,,,,,,,,,,,,METAR,30.0
KRBO 140415Z AUTO 20005KT 10SM CLR 08/06 A3009 RMK AO2 T00750060,KRBO,2021-01-14T04:15:00Z,27.78,-97.68,7.5,6.0,200,5,,10.0,30.088583,,,TRUE,TRUE,,,,,,,CLR,,,,,,,,VFR,,,,,,,,,,,,METAR,24.0
KRAW 140415Z AUTO 22007KT 10SM CLR 04/M03 A2971 RMK AO2 T00351030,KRAW,2021-01-14T04:15:00Z,38.35,-93.35,3.5,-3.0,220,7,,10.0,29.71063,,,TRUE,TRUE,,,,,,,CLR,,,,,,,,VFR,,,,,,,,,,,,METAR,285.0
KRAS 140415Z AUTO 19007KT 10SM CLR A3010 RMK AO2,KRAS,2021-01-14T04:15:00Z,27.82,-97.08,,,190,7,,10.0,30.100393,,,TRUE,TRUE,,,,,,,CLR,,,,,,,,VFR,,,,,,,,,,,,METAR,3.0
KPZZ 140415Z AUTO 21007KT 10SM CLR 13/04 A3011 RMK A01,KPZZ,2021-01-14T04:15:00Z,28.43,-91.03,13.0,4.0,210,7,,10.0,30.109253,,,TRUE,TRUE,,,,,,,CLR,,,,,,,,VFR,,,,,,,,,,,,METAR,25.0
KPZQ 140415Z AUTO 26003KT 7SM OVC020 00/M01 A2971 RMK AO2 T00011012,KPZQ,2021-01-14T04:15:00Z,45.4,-83.82,0.1,-1.2,260,3,,7.0,29.71063,,,TRUE,TRUE,,,,,,,OVC,2000,,,,,,,MVFR,,,,,,,,,,,,METAR,199.0
KPYX 140415Z AUTO 25008KT 10SM CLR 04/M02 A2978 RMK AO2 T00441024,KPYX,2021-01-14T04:15:00Z,36.42,-100.75,4.4,-2.4,250,8,,10.0,29.778543,,,TRUE,TRUE,,,,,,,CLR,,,,,,,,VFR,,,,,,,,,,,,METAR,890.0
KPXE 140415Z AUTO 26005KT 10SM CLR 05/M02 A3004 RMK AO2 T00481018,KPXE,2021-01-14T04:15:00Z,32.52,-83.77,4.8,-1.8,260,5,,10.0,30.041338,,,TRUE,TRUE,,,,,,,CLR,,,,,,,,VFR,,,,,,,,,,,,METAR,126.0
KPWC 140415Z AUTO 13005KT 10SM CLR M01/M02 A2950 RMK AO2,KPWC,2021-01-14T04:15:00Z,46.72,-94.38,-1.0,-2.0,130,5,,10.0,29.500984,,,TRUE,TRUE,,,,,,,CLR,,,,,,,,VFR,,,,,,,,,,,,METAR,394.0
KPVW 140415Z AUTO 28009KT 10SM CLR 05/M02 A2984 RMK AO2 T00451020,KPVW,2021-01-14T04:15:00Z,34.17,-101.72,4.5,-2.0,280,9,,10.0,29.840551,,,TRUE,TRUE,,,,,,,CLR,,,,,,,,VFR,,,,,,,,,,,,METAR,1029.0
KPVJ 140415Z AUTO 00000KT 10SM CLR 06/M01 A2980 RMK AO2 T00611015,KPVJ,2021-01-14T04:15:00Z,34.72,-97.22,6.1,-1.5,0,0,,10.0,29.799213,,,TRUE,TRUE,,,,,,,CLR,,,,,,,,VFR,,,,,,,,,,,,METAR,287.0
KPVF 140415Z AUTO 02006KT 10SM CLR 14/09 A3040 RMK AO1,KPVF,2021-01-14T04:15:00Z,38.72,-120.75,14.0,9.0,20,6,,10.0,30.398623,,,TRUE,TRUE,,,,,,,CLR,,,,,,,,VFR,,,,,,,,,,,,METAR,788.0
KPVE 140415Z AUTO 19008KT 10SM CLR 03/00 A2993 RMK A01,KPVE,2021-01-14T04:15:00Z,35.65,-88.2,3.0,0.0,190,8,,10.0,29.929134,,,TRUE,TRUE,,,,,,,CLR,,,,,,,,VFR,,,,,,,,,,,,METAR,146.0
KPVB 140415Z AUTO 15005KT 10SM CLR 00/M01 A2962 RMK AO1 T10011008,KPVB,2021-01-14T04:15:00Z,42.68,-90.43,-0.1,-0.8,150,5,,10.0,29.619095,,,TRUE,TRUE,,,,,,,CLR,,,,,,,,VFR,,,,,,,,,,,,METAR,311.0
KPUJ 140415Z AUTO 00000KT 10SM CLR 01/M01 A2999 RMK AO2,KPUJ,2021-01-14T04:15:00Z,33.92,-84.93,1.0,-1.0,0,0,,10.0,29.991142,,,TRUE,TRUE,,,,,,,CLR,,,,,,,,VFR,,,,,,,,,,,,METAR,385.0
KPTT 140415Z AUTO 25009KT 10SM CLR 09/M03 A2971 RMK AO2 T00931032,KPTT,2021-01-14T04:15:00Z,37.7,-98.75,9.3,-3.2,250,9,,10.0,29.71063,,,TRUE,TRUE,,,,,,,CLR,,,,,,,,VFR,,,,,,,,,,,,METAR,594.0
KPTS 140415Z AUTO 21013G20KT 10SM CLR 07/01 A2972 RMK AO2 T00740006,KPTS,2021-01-14T04:15:00Z,37.45,-94.73,7.4,0.6,210,13,20,10.0,29.719488,,,TRUE,TRUE,,,,,,,CLR,,,,,,,,VFR,,,,,,,,,,,,METAR,286.0
KPTD 140415Z AUTO 18007KT 10SM OVC028 01/M03 A2975 RMK AO2,KPTD,2021-01-14T04:15:00Z,44.68,-74.95,1.0,-3.0,180,7,,10.0,29.749016,,,TRUE,TRUE,,,,,,,OVC,2800,,,,,,,MVFR,,,,,,,,,,,,METAR,144.0
KPTB 140415Z AUTO 23003KT 10SM CLR M03/M05 A2990 RMK AO2 T10291046,KPTB,2021-01-14T04:15:00Z,37.17,-77.52,-2.9,-4.6,230,3,,10.0,29.899607,,,TRUE,TRUE,,,,,,,CLR,,,,,,,,VFR,,,,,,,,,,,,SPECI,56.0
KPSO 140415Z AUTO 00000KT 10SM CLR M07/M11 A3021 RMK AO2 T10731106,KPSO,2021-01-14T04:15:00Z,37.28,-107.05,-7.3,-10.6,0,0,,10.0,30.209646,,,TRUE,TRUE,,,,,,,CLR,,,,,,,,VFR,,,,,,,,,,,,METAR,2332.0
KPSN 140415Z AUTO 18008KT 10SM CLR 08/03 A3001 RMK AO2 T00860038,KPSN,2021-01-14T04:15:00Z,31.78,-95.7,8.6,3.8,180,8,,10.0,30.008858,,,TRUE,TRUE,,,,,,,CLR,,,,,,,,VFR,,,,,,,,,,,,METAR,124.0
KPSK 140415Z AUTO 21008KT 10SM CLR M01/M06 A2988 RMK AO2 T10081060,KPSK,2021-01-14T04:15:00Z,37.13,-80.67,-0.8,-6.0,210,8,,10.0,29.878937,,,TRUE,TRUE,,,,,,,CLR,,,,,,,,VFR,,,,,,,,,,,,SPECI,629.0
KPRS 140415Z AUTO 03003KT 10SM CLR 05/M05 A3014 RMK AO2 T00471053,KPRS,2021-01-14T04:15:00Z,29.63,-104.35,4.7,-5.3,30,3,,10.0,30.138779,,,TRUE,TRUE,,,,,,,CLR,,,,,,,,VFR,,,,,,,,,,,,METAR,890.0
KPRG 140415Z AUTO 20011KT 10SM CLR 03/00 A2978 RMK AO2 T00281005,KPRG,2021-01-14T04:15:00Z,39.7,-87.67,2.8,-0.5,200,11,,10.0,29.778543,,,TRUE,TRUE,,,,,,,CLR,,,,,,,,VFR,,,,,,,,,,,,METAR,197.0
KPQN 140415Z AUTO 24003KT 10SM CLR 02/00 A2947 RMK AO2,KPQN,2021-01-14T04:15:00Z,43.98,-96.28,2.0,0.0,240,3,,10.0,29.471457,,,TRUE,TRUE,,,,,,,CLR,,,,,,,,VFR,,,,,,,,,,,,METAR,529.0
KPPQ 140415Z AUTO 19008KT 10SM CLR 05/M01 A2968 RMK AO2 T00501015,KPPQ,2021-01-14T04:15:00Z,39.63,-90.78,5.0,-1.5,190,8,,10.0,29.681103,,,TRUE,TRUE,,,,,,,CLR,,,,,,,,VFR,,,,,,,,,,,,METAR,215.0
KPPO 140415Z AUTO 22007KT 10SM BKN090 03/00 A2974 RMK AO2 T00280000,KPPO,2021-01-14T04:15:00Z,41.57,-86.73,2.8,0.0,220,7,,10.0,29.740158,,,TRUE,TRUE,,,,,,,BKN,9000,,,,,,,VFR,,,,,,,,,,,,METAR,242.0
KPPA 140415Z AUTO 23009KT 10SM CLR 08/M06 A2980 RMK AO2 T00831057,KPPA,2021-01-14T04:15:00Z,35.62,-101.0,8.3,-5.7,230,9,,10.0,29.799213,,,TRUE,TRUE,,,,,,,CLR,,,,,,,,VFR,,,,,,,,,,,,METAR,989.0
KPOY 140415Z AUTO 32024G31KT 10SM OVC110 00/M21 A2999 RMK AO2,KPOY,2021-01-14T04:15:00Z,44.87,-108.8,0.0,-21.0,320,24,31,10.0,29.991142,,,TRUE,TRUE,,,,,,,OVC,11000,,,,,,,VFR,,,,,,,,,,,,METAR,1547.0
KPOV 140415Z AUTO 22006KT 10SM CLR 03/M03 A2978 RMK AO2 T00321026 PWINO,KPOV,2021-01-14T04:15:00Z,41.22,-81.25,3.2,-2.6,220,6,,10.0,29.778543,,,TRUE,TRUE,,,,,TRUE,,CLR,,,,,,,,VFR,,,,,,,,,,,,METAR,363.0
KPNT 140415Z AUTO 20010KT 10SM CLR 03/00 A2971 RMK AO2 T00331003,KPNT,2021-01-14T04:15:00Z,40.92,-88.62,3.3,-0.3,200,10,,10.0,29.71063,,,TRUE,TRUE,,,,,,,CLR,,,,,,,,VFR,,,,,,,,,,,,METAR,199.0
KPMV 140415Z AUTO 18007KT 10SM SCT120 06/01 A2956 RMK AO2 T00620010,KPMV,2021-01-14T04:15:00Z,40.95,-95.92,6.2,1.0,180,7,,10.0,29.56004,,,TRUE,TRUE,,,,,,,SCT,12000,,,,,,,VFR,,,,,,,,,,,,METAR,365.0
KPMU 140415Z AUTO 00000KT 10SM CLR 04/01 A2997 RMK AO2,KPMU,2021-01-14T04:15:00Z,34.37,-89.9,4.0,1.0,0,0,,10.0,29.970472,,,TRUE,TRUE,,,,,,,CLR,,,,,,,,VFR,,,,,,,,,,,,METAR,67.0
KPMH 140415Z AUTO 00000KT 10SM CLR M02/M02 A2989 RMK AO2 T10181019,KPMH,2021-01-14T04:15:00Z,38.83,-82.85,-1.8,-1.9,0,0,,10.0,29.890747,,,TRUE,TRUE,,,,,,,CLR,,,,,,,,VFR,,,,,,,,,,,,METAR,200.0
KPLU 140415Z AUTO 00000KT 10SM BKN030 BKN036 03/03 A3051 RMK AO2,KPLU,2021-01-14T04:15:00Z,47.1,-122.28,3.0,3.0,0,0,,10.0,30.510826,,,TRUE,TRUE,,,,,,,BKN,3000,BKN,3600,,,,,MVFR,,,,,,,,,,,,METAR,164.0
KPLR 140415Z AUTO 00000KT 7SM CLR M02/M02 A3005 RMK A01,KPLR,2021-01-14T04:15:00Z,33.57,-86.25,-2.0,-2.0,0,0,,7.0,30.050198,,,TRUE,TRUE,,,,,,,CLR,,,,,,,,VFR,,,,,,,,,,,,METAR,145.0
KPLD 140415Z AUTO 23014G18KT 10SM OVC110 05/M03 A2977 RMK AO2,KPLD,2021-01-14T04:15:00Z,40.45,-84.98,5.0,-3.0,230,14,18,10.0,29.769686,,,TRUE,TRUE,,,,,,,OVC,11000,,,,,,,VFR,,,,,,,,,,,,METAR,282.0
KPKV 140415Z AUTO 19005KT 10SM CLR 08/05 A3008 RMK AO2 T00810048,KPKV,2021-01-14T04:15:00Z,28.65,-96.68,8.1,4.8,190,5,,10.0,30.079725,,,TRUE,TRUE,,,,,,,CLR,,,,,,,,VFR,,,,,,,,,,,,METAR,8.0
KPJC 140415Z AUTO 00000KT 10SM BKN070 OVC085 00/M01 A2983 RMK AO2,KPJC,2021-01-14T04:15:00Z,40.8,-80.17,0.0,-1.0,0,0,,10.0,29.828741,,,TRUE,TRUE,,,,,,,BKN,7000,OVC,8500,,,,,VFR,,,,,,,,,,,,METAR,273.0
KPIM 140415Z AUTO 27006KT 10SM CLR 03/M03 A3003 RMK AO2 T00291032,KPIM,2021-01-14T04:15:00Z,32.83,-84.88,2.9,-3.2,270,6,,10.0,30.029528,,,TRUE,TRUE,,,,,,,CLR,,,,,,,,VFR,,,,,,,,,,,,METAR,274.0
KPHT 140415Z AUTO 19008KT 10SM CLR 04/M00 A2989 RMK A01,KPHT,2021-01-14T04:15:00Z,36.33,-88.38,4.0,0.0,190,8,,10.0,29.890747,,,TRUE,TRUE,,,,,,,CLR,,,,,,,,VFR,,,,,,,,,,,,METAR,172.0
KPHN 140415Z AUTO 00000KT 10SM CLR 03/M00 A2972 RMK AO2,KPHN,2021-01-14T04:15:00Z,42.92,-82.52,3.0,0.0,0,0,,10.0,29.719488,,,TRUE,TRUE,,,,,,,CLR,,,,,,,,VFR,,,,,,,,,,,,METAR,195.0
KPGV 140415Z AUTO 00000KT 10SM CLR 04/02 A2996 RMK AO2,KPGV,2021-01-14T04:15:00Z,35.63,-77.4,4.0,2.0,0,0,,10.0,29.958662,,,TRUE,TRUE,,,,,,,CLR,,,,,,,,VFR,,,,,,,,,,,,METAR,6.0
KPEZ 140415Z AUTO 18003KT 10SM CLR 09/01 A3006 RMK AO2 T00860010,KPEZ,2021-01-14T04:15:00Z,28.95,-98.52,8.6,1.0,180,3,,10.0,30.059055,,,TRUE,TRUE,,,,,,,CLR,,,,,,,,VFR,,,,,,,,,,,,METAR,126.0
KPEX 140415Z AUTO 00000KT 10SM CLR 01/00 A2947 RMK AO2,KPEX,2021-01-14T04:15:00Z,45.37,-94.73,1.0,0.0,0,0,,10.0,29.471457,,,TRUE,TRUE,,,,,,,CLR,,,,,,,,VFR,,,,,,,,,,,,METAR,359.0
KPEQ 140415Z AUTO 25013KT 10SM CLR 12/M11 A2997 RMK AO2 T01161110 PWINO,KPEQ,2021-01-14T04:15:00Z,31.38,-103.52,11.6,-11.0,250,13,,10.0,29.970472,,,TRUE,TRUE,,,,,TRUE,,CLR,,,,,,,,VFR,,,,,,,,,,,,METAR,794.0
KPEA 140415Z AUTO 00000KT 10SM CLR 00/M02 A2960 RMK AO2 T00001023,KPEA,2021-01-14T04:15:00Z,41.4,-92.95,0.0,-2.3,0,0,,10.0,29.601377,,,TRUE,TRUE,,,,,,,CLR,,,,,,,,VFR,,,,,,,,,,,,METAR,264.0
KPDC 140415Z AUTO 10004KT 10SM CLR 00/M03 A2961 RMK AO2 T00001028,KPDC,2021-01-14T04:15:00Z,43.02,-91.12,0.0,-2.8,100,4,,10.0,29.610237,,,TRUE,TRUE,,,,,,,CLR,,,,,,,,VFR,,,,,,,,,,,,METAR,201.0
KPCW 140415Z AUTO 23008KT 10SM BKN060 BKN080 OVC090 04/M01 A2976 RMK AO2,KPCW,2021-01-14T04:15:00Z,41.52,-82.87,4.0,-1.0,230,8,,10.0,29.760826,,,TRUE,TRUE,,,,,,,BKN,6000,BKN,8000,OVC,9000,,,VFR,,,,,,,,,,,,METAR,179.0
KPCM 140415Z AUTO 00000KT 10SM -DZ OVC025 11/10 A3012 RMK AO2,KPCM,2021-01-14T04:15:00Z,28.0,-82.17,11.0,10.0,0,0,,10.0,30.121063,,,TRUE,TRUE,,,,,,-DZ,OVC,2500,,,,,,,MVFR,,,,,,,,,,,,METAR,43.0
KPBX 140415Z AUTO 00000KT 10SM CLR 01/M06 A2989 RMK AO2 T00101057,KPBX,2021-01-14T04:15:00Z,37.57,-82.57,1.0,-5.7,0,0,,10.0,29.890747,,,TRUE,TRUE,,,,,,,CLR,,,,,,,,VFR,,,,,,,,,,,,METAR,447.0
KPAN 140415Z AUTO 00000KT 10SM CLR 09/M20 A3025 RMK AO2,KPAN,2021-01-14T04:15:00Z,34.25,-111.33,9.0,-20.0,0,0,,10.0,30.250984,,,TRUE,TRUE,,,,,,,CLR,,,,,,,,VFR,,,,,,,,,,,,METAR,1575.0
KP08 140415Z AUTO 11006KT 10SM CLR 09/M16 A3018 RMK AO2,KP08,2021-01-14T04:15:00Z,32.93,-111.43,9.0,-16.0,110,6,,10.0,30.180119,,,TRUE,TRUE,,,,,,,CLR,,,,,,,,VFR,,,,,,,,,,,,METAR,477.0
KOZW 140415Z AUTO 22005KT 10SM BKN120 03/00 A2971 RMK AO2 T00250002,KOZW,2021-01-14T04:15:00Z,42.62,-83.98,2.5,0.2,220,5,,10.0,29.71063,,,TRUE,TRUE,,,,,,,BKN,12000,,,,,,,VFR,,,,,,,,,,,,METAR,288.0
KOZS 140415Z AUTO 19008KT 10SM CLR 06/M04 A2972 RMK AO2,KOZS,2021-01-14T04:15:00Z,37.97,-92.68,6.0,-4.0,190,8,,10.0,29.719488,,,TRUE,TRUE,,,,,,,CLR,,,,,,,,VFR,,,,,,,,,,,,METAR,321.0
KOZA 140415Z AUTO 10SM CLR 06/M02 A3002 RMK AO2,KOZA,2021-01-14T04:15:00Z,30.73,-101.2,6.0,-2.0,,,,10.0,30.02067,,,TRUE,TRUE,,,,,,,CLR,,,,,,,,VFR,,,,,,,,,,,,METAR,721.0
KOYM 140415Z AUTO 25005KT 10SM SCT090 BKN110 01/M02 A2981 RMK AO2 PWINO,KOYM,2021-01-14T04:15:00Z,41.42,-78.5,1.0,-2.0,250,5,,10.0,29.811024,,,TRUE,TRUE,,,,,TRUE,,SCT,9000,BKN,11000,,,,,VFR,,,,,,,,,,,,METAR,582.0
KOXV 140415Z AUTO 19006KT 10SM CLR 01/M02 A2958 RMK AO2,KOXV,2021-01-14T04:15:00Z,41.28,-93.12,1.0,-2.0,190,6,,10.0,29.58071,,,TRUE,TRUE,,,,,,,CLR,,,,,,,,VFR,,,,,,,,,,,,METAR,280.0
KOXI 140415Z AUTO 21006KT 10SM SCT120 03/00 A2974 RMK AO1,KOXI,2021-01-14T04:15:00Z,41.33,-86.67,3.0,0.0,210,6,,10.0,29.740158,,,TRUE,TRUE,,,,,,,SCT,12000,,,,,,,VFR,,,,,,,,,,,,METAR,208.0
KOXD 140415Z AUTO 21005KT 10SM SCT120 03/01 A2982 RMK AO2 T00320008,KOXD,2021-01-14T04:15:00Z,39.5,-84.78,3.2,0.8,210,5,,10.0,29.819881,,,TRUE,TRUE,,,,,,,SCT,12000,,,,,,,VFR,,,,,,,,,,,,METAR,317.0
KOWX 140415Z AUTO 24007KT 10SM OVC075 04/M01 A2980 RMK AO1,KOWX,2021-01-14T04:15:00Z,41.03,-83.98,4.0,-1.0,240,7,,10.0,29.799213,,,TRUE,TRUE,,,,,,,OVC,7500,,,,,,,VFR,,,,,,,,,,,,METAR,232.0
KOWP 140415Z AUTO 20004KT 10SM CLR 09/00 A2977 RMK AO2 T00920000 PWINO,KOWP,2021-01-14T04:15:00Z,36.18,-96.15,9.2,0.0,200,4,,10.0,29.769686,,,TRUE,TRUE,,,,,TRUE,,CLR,,,,,,,,VFR,,,,,,,,,,,,METAR,267.0
KOVL 140415Z AUTO 15003KT 10SM CLR 01/00 A2947 RMK AO2,KOVL,2021-01-14T04:15:00Z,44.78,-95.03,1.0,0.0,150,3,,10.0,29.471457,,,TRUE,TRUE,,,,,,,CLR,,,,,,,,VFR,,,,,,,,,,,,METAR,329.0
KOUN 140415Z AUTO 18008KT 10SM CLR 07/M02 A2976 RMK AO2 T00671016,KOUN,2021-01-14T04:15:00Z,35.25,-97.47,6.7,-1.6,180,8,,10.0,29.760826,,,TRUE,TRUE,,,,,,,CLR,,,,,,,,VFR,,,,,,,,,,,,METAR,359.0
KOSC 140415Z AUTO 00000KT 2 1/2SM BR SCT003 OVC028 M03/M03 A2969 RMK AO2 T10331033,KOSC,2021-01-14T04:15:00Z,44.45,-83.4,-3.3,-3.3,0,0,,2.5,29.68996,,,TRUE,TRUE,,,,,,BR,SCT,300,OVC,2800,,,,,IFR,,,,,,,,,,,,SPECI,191.0
KOSA 140415Z AUTO 18005KT 7SM CLR 08/02 A2995 RMK AO1 T00750015,KOSA,2021-01-14T04:15:00Z,33.1,-94.97,7.5,1.5,180,5,,7.0,29.949802,,,TRUE,TRUE,,,,,,,CLR,,,,,,,,VFR,,,,,,,,,,,,METAR,108.0
KORK 140415Z AUTO 20009KT 10SM CLR 06/M01 A2988 RMK AO2,KORK,2021-01-14T04:15:00Z,34.83,-92.25,6.0,-1.0,200,9,,10.0,29.878937,,,TRUE,TRUE,,,,,,,CLR,,,,,,,,VFR,,,,,,,,,,,,METAR,166.0
KORG 140415Z AUTO 00000KT 10SM CLR 06/04 A3011 RMK AO2 T00590041,KORG,2021-01-14T04:15:00Z,30.07,-93.8,5.9,4.1,0,0,,10.0,30.109253,,,TRUE,TRUE,,,,,,,CLR,,,,,,,,VFR,,,,,,,,,,,,METAR,2.0
KOPN 140415Z AUTO 30004KT 10SM CLR 03/M02 A3002 RMK AO2,KOPN,2021-01-14T04:15:00Z,32.95,-84.27,3.0,-2.0,300,4,,10.0,30.02067,,,TRUE,TRUE,,,,,,,CLR,,,,,,,,VFR,,,,,,,,,,,,METAR,241.0
KOPL 140415Z AUTO 21005KT 10SM CLR 04/02 A3009 RMK AO2 T00420019,KOPL,2021-01-14T04:15:00Z,30.55,-92.1,4.2,1.9,210,5,,10.0,30.088583,,,TRUE,TRUE,,,,,,,CLR,,,,,,,,VFR,,,,,,,,,,,,METAR,22.0
KOOA 140415Z AUTO 17005KT 10SM SCT110 00/M01 A2960 RMK AO2 T00001013,KOOA,2021-01-14T04:15:00Z,41.23,-92.5,0.0,-1.3,170,5,,10.0,29.601377,,,TRUE,TRUE,,,,,,,SCT,11000,,,,,,,VFR,,,,,,,,,,,,METAR,256.0
KONZ 140415Z AUTO 25006KT 10SM BKN100 OVC120 05/00 A2974 RMK AO2 T00450004,KONZ,2021-01-14T04:15:00Z,42.1,-83.15,4.5,0.4,250,6,,10.0,29.740158,,,TRUE,TRUE,,,,,,,BKN,10000,OVC,12000,,,,,VFR,,,,,,,,,,,,METAR,179.0
KONX 140415Z AUTO 00000KT 10SM CLR 04/04 A2994 RMK AO2 T00350035,KONX,2021-01-14T04:15:00Z,36.4,-76.02,3.5,3.5,0,0,,10.0,29.940945,,,TRUE,TRUE,,,,,,,CLR,,,,,,,,VFR,,,,,,,,,,,,METAR,4.0
KONP 140415Z AUTO 11005KT 10SM CLR 08/03 A3044 RMK AO2,KONP,2021-01-14T04:15:00Z,44.57,-124.05,8.0,3.0,110,5,,10.0,30.43996,,,TRUE,TRUE,,,,,,,CLR,,,,,,,,VFR,,,,,,,,,,,,METAR,43.0
KONM 140415Z AUTO 32005KT 10SM CLR 02/M08 A3017 RMK AO2 T00231081,KONM,2021-01-14T04:15:00Z,34.02,-106.9,2.3,-8.1,320,5,,10.0,30.171259,,,TRUE,TRUE,,,,,,,CLR,,,,,,,,VFR,,,,,,,,,,,,METAR,1467.0
KONL 140415Z AUTO 27010KT 10SM -RA SCT060 BKN070 OVC090 06/02 A2953 RMK AO2 T00630019,KONL,2021-01-14T04:15:00Z,42.47,-98.68,6.3,1.9,270,10,,10.0,29.530512,,,TRUE,TRUE,,,,,,-RA,SCT,6000,BKN,7000,OVC,9000,,,VFR,,,,,,,,,,,,METAR,619.0
KONA 140415Z AUTO 00000KT 10SM CLR M01/M01 A2959 RMK AO2,KONA,2021-01-14T04:15:00Z,44.07,-91.7,-1.0,-1.0,0,0,,10.0,29.589567,,,TRUE,TRUE,,,,,,,CLR,,,,,,,,VFR,,,,,,,,,,,,METAR,200.0
KOMH 140415Z AUTO 00000KT 10SM CLR M03/M05 A2986 RMK AO2,KOMH,2021-01-14T04:15:00Z,38.25,-78.05,-3.0,-5.0,0,0,,10.0,29.861221,,,TRUE,TRUE,,,,,,,CLR,,,,,,,,VFR,,,,,,,,,,,,METAR,136.0
KOLZ 140415Z AUTO 14006KT 10SM CLR M03/M04 A2959 RMK A01,KOLZ,2021-01-14T04:15:00Z,42.67,-91.97,-3.0,-4.0,140,6,,10.0,29.589567,,,TRUE,TRUE,,,,,,,CLR,,,,,,,,VFR,,,,,,,,,,,,METAR,328.0
KOLY 140415Z AUTO 18004KT 10SM CLR 04/M01 A2981 RMK AO2 T00401006,KOLY,2021-01-14T04:15:00Z,38.72,-88.18,4.0,-0.6,180,4,,10.0,29.811024,,,TRUE,TRUE,,,,,,,CLR,,,,,,,,VFR,,,,,,,,,,,,METAR,144.0
KOLV 140415Z AUTO 18008KT 10SM CLR 04/02 A2993 RMK A01,KOLV,2021-01-14T04:15:00Z,34.98,-89.78,4.0,2.0,180,8,,10.0,29.929134,,,TRUE,TRUE,,,,,,,CLR,,,,,,,,VFR,,,,,,,,,,,,METAR,124.0
KOLG 140415Z AUTO 00000KT 5SM OVC095 A2955 RMK AO1,KOLG,2021-01-14T04:15:00Z,46.3,-91.82,,,0,0,,5.0,29.551182,,,TRUE,TRUE,,,,,,,OVC,9500,,,,,,,MVFR,,,,,,,,,,,,METAR,334.0
KOLE 140415Z AUTO 23005KT 10SM CLR 00/M03 A2974 RMK AO2,KOLE,2021-01-14T04:15:00Z,42.23,-78.37,0.0,-3.0,230,5,,10.0,29.740158,,,TRUE,TRUE,,,,,,,CLR,,,,,,,,VFR,,,,,,,,,,,,METAR,651.0
KOKZ 140415Z AUTO 25005KT 10SM CLR 03/00 A3000 RMK AO2 T00340001,KOKZ,2021-01-14T04:15:00Z,32.97,-82.83,3.4,0.1,250,5,,10.0,30.0,,,TRUE,TRUE,,,,,,,CLR,,,,,,,,VFR,,,,,,,,,,,,METAR,128.0
KOKV 140415Z AUTO 00000KT 10SM CLR M02/M05 A2984 RMK AO2,KOKV,2021-01-14T04:15:00Z,39.13,-78.15,-2.0,-5.0,0,0,,10.0,29.840551,,,TRUE,TRUE,,,,,,,CLR,,,,,,,,VFR,,,,,,,,,,,,METAR,213.0
KOKM 140415Z AUTO 19006KT 10SM CLR 09/M01 A2978 RMK AO2 T00881008,KOKM,2021-01-14T04:15:00Z,35.67,-95.95,8.8,-0.8,190,6,,10.0,29.778543,,,TRUE,TRUE,,,,,,,CLR,,,,,,,,VFR,,,,,,,,,,,,METAR,215.0
KOJA 140415Z AUTO 23012KT 10SM CLR 07/M01 A2977 RMK AO2 T00731011,KOJA,2021-01-14T04:15:00Z,35.55,-98.67,7.3,-1.1,230,12,,10.0,29.769686,,,TRUE,TRUE,,,,,,,CLR,,,,,,,,VFR,,,,,,,,,,,,METAR,490.0
KOIN 140415Z AUTO 28008KT 10SM CLR 13/00 A2970 RMK AO1 T01291005,KOIN,2021-01-14T04:15:00Z,39.83,-100.53,12.9,-0.5,280,8,,10.0,29.698818,,,TRUE,TRUE,,,,,,,CLR,,,,,,,,VFR,,,,,,,,,,,,METAR,810.0
KOGS 140415Z AUTO VRB04KT 10SM OVC026 01/M03 A2973 RMK AO2,KOGS,2021-01-14T04:15:00Z,44.67,-75.47,1.0,-3.0,0,4,,10.0,29.731298,,,TRUE,TRUE,,,,,,,OVC,2600,,,,,,,MVFR,,,,,,,,,,,,METAR,88.0
KOGA 140415Z AUTO 33037G56KT 7SM SCT033 SCT075 10/00 A2970 RMK AO2 T01041002,KOGA,2021-01-14T04:15:00Z,41.12,-101.77,10.4,-0.2,330,37,56,7.0,29.698818,,,TRUE,TRUE,,,,,,,SCT,3300,SCT,7500,,,,,VFR,,,,,,,,,,,,METAR,991.0
KOEO 140415Z AUTO 11004KT 10SM CLR M01/M02 A2956 RMK AO2 T10081018,KOEO,2021-01-14T04:15:00Z,45.32,-92.7,-0.8,-1.8,110,4,,10.0,29.56004,,,TRUE,TRUE,,,,,,,CLR,,,,,,,,VFR,,,,,,,,,,,,METAR,269.0
KOEL 140415Z AUTO 31011G16KT 10SM CLR 11/M03 A2971 RMK AO1 T01131034,KOEL,2021-01-14T04:15:00Z,39.12,-100.82,11.3,-3.4,310,11,16,10.0,29.71063,,,TRUE,TRUE,,,,,,,CLR,,,,,,,,VFR,,,,,,,,,,,,METAR,924.0
KOEL 140415Z AUTO 31011G16KT 10SM CLR 11/M03 A2971 RMK AO1 T01131034,KOEL,2021-01-14T04:15:00Z,39.12,-100.82,11.3,-3.4,310,11,16,10.0,29.71063,,,TRUE,TRUE,,,,,,,CLR,,,,,,,,VFR,,,,,,,,,,,,METAR,924.0
KOEB 140415Z AUTO 23003KT 10SM OVC065 02/00 A2975 RMK AO2 T00231001,KOEB,2021-01-14T04:15:00Z,41.92,-85.05,2.3,-0.1,230,3,,10.0,29.749016,,,TRUE,TRUE,,,,,,,OVC,6500,,,,,,,VFR,,,,,,,,,,,,METAR,291.0
KOCW 140415Z AUTO 00000KT 10SM CLR 03/02 A2995 RMK AO2 T00320021,KOCW,2021-01-14T04:15:00Z,35.57,-77.05,3.2,2.1,0,0,,10.0,29.949802,,,TRUE,TRUE,,,,,,,CLR,,,,,,,,VFR,,,,,,,,,,,,SPECI,10.0
KOCQ 140415Z AUTO 00000KT 1SM BKN003 M07/M08 A2965 RMK AO1 VIS 1/4V4 T10721077,KOCQ,2021-01-14T04:15:00Z,44.87,-87.92,-7.2,-7.7,0,0,,1.0,29.648623,,,TRUE,TRUE,,,,,,,BKN,300,,,,,,,LIFR,,,,,,,,,,,,METAR,181.0
KOBE 140415Z AUTO 00000KT 5SM BR OVC075 13/13 A3005 RMK AO2,KOBE,2021-01-14T04:15:00Z,27.27,-80.85,13.0,13.0,0,0,,5.0,30.050198,,,TRUE,TRUE,,,,,,BR,OVC,7500,,,,,,,MVFR,,,,,,,,,,,,METAR,11.0
KOAR 140415Z AUTO 27003KT 10SM CLR 11/08 A3032 RMK AO2,KOAR,2021-01-14T04:15:00Z,,,11.0,8.0,270,3,,10.0,30.318897,,,TRUE,TRUE,,,,,,,CLR,,,,,,,,VFR,,,,,,,,,,,,SPECI,
KNRN 140415Z AUTO 28013KT 10SM CLR 12/00 A2966 RMK AO2,KNRN,2021-01-14T04:15:00Z,39.85,-99.9,12.0,0.0,280,13,,10.0,29.660433,,,TRUE,TRUE,,,,,,,CLR,,,,,,,,VFR,,,,,,,,,,,,METAR,726.0
KNOW 140415Z AUTO 16005KT 10SM CLR 05/03 A3051 RMK AO2 T00510031,KNOW,2021-01-14T04:15:00Z,48.13,-123.4,5.1,3.1,160,5,,10.0,30.510826,,,TRUE,TRUE,,,,,,,CLR,,,,,,,,VFR,,,,,,,,,,,,METAR,3.0
KN38 140415Z AUTO 19007KT 10SM FEW060 OVC075 01/M03 A2977 RMK AO2,KN38,2021-01-14T04:15:00Z,41.73,-77.4,1.0,-3.0,190,7,,10.0,29.769686,,,TRUE,TRUE,,,,,,,FEW,6000,OVC,7500,,,,,VFR,,,,,,,,,,,,METAR,576.0
KN03 140415Z AUTO 00000KT 7SM CLR M04/M05 A2979 RMK AO2,KN03,2021-01-14T04:15:00Z,42.6,-76.22,-4.0,-5.0,0,0,,7.0,29.790354,,,TRUE,TRUE,,,,,,,CLR,,,,,,,,VFR,,,,,,,,,,,,METAR,361.0
KMZZ 140415Z AUTO 22007KT 10SM SCT095 SCT120 03/M01 A2979 RMK AO2 T00321006,KMZZ,2021-01-14T04:15:00Z,40.48,-85.68,3.2,-0.6,220,7,,10.0,29.790354,,,TRUE,TRUE,,,,,,,SCT,9500,SCT,12000,,,,,VFR,,,,,,,,,,,,METAR,260.0
KMZH 140415Z AUTO 00000KT 5SM BR CLR M02/M03 A2951 RMK AO2,KMZH,2021-01-14T04:15:00Z,46.42,-92.8,-2.0,-3.0,0,0,,5.0,29.509842,,,TRUE,TRUE,,,,,,BR,CLR,,,,,,,,MVFR,,,,,,,,,,,,METAR,331.0
KMYZ 140415Z AUTO 19006KT 10SM CLR 08/M01 A2958 RMK AO2,KMYZ,2021-01-14T04:15:00Z,39.85,-96.63,8.0,-1.0,190,6,,10.0,29.58071,,,TRUE,TRUE,,,,,,,CLR,,,,,,,,VFR,,,,,,,,,,,,METAR,388.0
KMYP 140415Z AUTO 24023G32KT 10SM -SN OVC003 M07/M07 A3028 RMK AO2,KMYP,2021-01-14T04:15:00Z,38.48,-106.32,-7.0,-7.0,240,23,32,10.0,30.280512,,,TRUE,TRUE,,,,,,-SN,OVC,300,,,,,,,LIFR,,,,,,,,,,,,METAR,3629.0
KMYJ 140415Z AUTO 19011KT 10SM CLR 03/M01 A2968 RMK AO2,KMYJ,2021-01-14T04:15:00Z,39.15,-91.82,3.0,-1.0,190,11,,10.0,29.681103,,,TRUE,TRUE,,,,,,,CLR,,,,,,,,VFR,,,,,,,,,,,,METAR,249.0
KMXO 140415Z AUTO 00000KT 7SM CLR M02/M02 A2962 RMK AO2,KMXO,2021-01-14T04:15:00Z,42.22,-91.17,-2.0,-2.0,0,0,,7.0,29.619095,,,TRUE,TRUE,,,,,,,CLR,,,,,,,,VFR,,,,,,,,,,,,METAR,251.0
KMWO 140415Z AUTO 20008KT 10SM CLR 04/M02 A2986 RMK AO2 T00401015,KMWO,2021-01-14T04:15:00Z,39.53,-84.4,4.0,-1.5,200,8,,10.0,29.861221,,,TRUE,TRUE,,,,,,,CLR,,,,,,,,VFR,,,,,,,,,,,,METAR,197.0
KMWM 140415Z AUTO 19005KT 10SM CLR 02/M01 A2947 RMK AO2,KMWM,2021-01-14T04:15:00Z,43.9,-95.1,2.0,-1.0,190,5,,10.0,29.471457,,,TRUE,TRUE,,,,,,,CLR,,,,,,,,VFR,,,,,,,,,,,,METAR,427.0
KMWK 140415Z AUTO 00000KT 10SM CLR 00/M02 A2992 RMK AO2 T10041019,KMWK,2021-01-14T04:15:00Z,36.47,-80.55,-0.4,-1.9,0,0,,10.0,29.920275,,,TRUE,TRUE,,,,,,,CLR,,,,,,,,VFR,,,,,,,,,,,,METAR,374.0
KMWA 140415Z AUTO 20009KT 10SM CLR 03/00 A2982 RMK AO2 T00320000,KMWA,2021-01-14T04:15:00Z,37.77,-89.02,3.2,0.0,200,9,,10.0,29.819881,,,TRUE,TRUE,,,,,,,CLR,,,,,,,,VFR,,,,,,,,,,,,METAR,142.0
KMVH 140415Z AUTO 29032G45KT 10SM CLR M02/M07 A2993 RMK AO2,KMVH,2021-01-14T04:15:00Z,46.83,-108.93,-2.0,-7.0,290,32,45,10.0,29.929134,,,TRUE,TRUE,,,,,,,CLR,,,,,,,,VFR,,,,,,,,,,,,METAR,1352.0
KMVE 140415Z AUTO 21003KT 10SM CLR 03/M01 A2945 RMK AO2,KMVE,2021-01-14T04:15:00Z,44.97,-95.72,3.0,-1.0,210,3,,10.0,29.450787,,,TRUE,TRUE,,,,,,,CLR,,,,,,,,VFR,,,,,,,,,,,,METAR,319.0
KMUT 140415Z AUTO 00000KT 6SM BR M01/M01 A2964 RMK AO2,KMUT,2021-01-14T04:15:00Z,41.37,-91.15,-1.0,-1.0,0,0,,6.0,29.639763,,,TRUE,TRUE,,,,,,BR,,,,,,,,,,,,,,,,,,,,,METAR,166.0
KMTV 140415Z AUTO 00000KT 10SM CLR M02/M04 A2992 RMK AO2 T10251039,KMTV,2021-01-14T04:15:00Z,36.63,-80.02,-2.5,-3.9,0,0,,10.0,29.920275,,,TRUE,TRUE,,,,,,,CLR,,,,,,,,VFR,,,,,,,,,,,,METAR,276.0
KMTN 140415Z AUTO 00000KT 10SM CLR M01/M01 A2991 RMK AO2,KMTN,2021-01-14T04:15:00Z,39.32,-76.42,-1.0,-1.0,0,0,,10.0,29.911417,,,TRUE,TRUE,,,,,,,CLR,,,,,,,,VFR,,,,,,,,,,,,METAR,2.0
KMTK 140415Z AUTO 32006KT 10SM CLR 12/04 A3012 RMK A01,KMTK,2021-01-14T04:15:00Z,,,12.0,4.0,320,6,,10.0,30.121063,,,TRUE,TRUE,,,,,,,CLR,,,,,,,,VFR,,,,,,,,,,,,METAR,
KMRT 140415Z AUTO 23008KT 10SM CLR 02/M01 A2982 RMK AO2 T00221013,KMRT,2021-01-14T04:15:00Z,40.22,-83.35,2.2,-1.3,230,8,,10.0,29.819881,,,TRUE,TRUE,,,,,,,CLR,,,,,,,,VFR,,,,,,,,,,,,METAR,302.0
KMRN 140415Z AUTO 00000KT 10SM CLR 02/00 A2993 RMK AO2 T00190003,KMRN,2021-01-14T04:15:00Z,35.82,-81.62,1.9,0.3,0,0,,10.0,29.929134,,,TRUE,TRUE,,,,,,,CLR,,,,,,,,VFR,,,,,,,,,,,,METAR,375.0
KMRC 140415Z AUTO 19007KT 10SM CLR 02/01 A2993 RMK A01,KMRC,2021-01-14T04:15:00Z,35.55,-87.18,2.0,1.0,190,7,,10.0,29.929134,,,TRUE,TRUE,,,,,,,CLR,,,,,,,,VFR,,,,,,,,,,,,METAR,205.0
KMQS 140415Z AUTO 00000KT 10SM CLR M00/M03 A2989 RMK AO2,KMQS,2021-01-14T04:15:00Z,39.98,-75.87,0.0,-3.0,0,0,,10.0,29.890747,,,TRUE,TRUE,,,,,,,CLR,,,,,,,,VFR,,,,,,,,,,,,METAR,200.0
KMQJ 140415Z AUTO 19007KT 10SM SCT120 03/00 A2980 RMK AO1,KMQJ,2021-01-14T04:15:00Z,39.85,-85.9,3.0,0.0,190,7,,10.0,29.799213,,,TRUE,TRUE,,,,,,,SCT,12000,,,,,,,VFR,,,,,,,,,,,,METAR,262.0
KMQI 140415Z AUTO 00000KT 10SM CLR 03/03 A2996 RMK AO2 T00340032,KMQI,2021-01-14T04:15:00Z,35.92,-75.7,3.4,3.2,0,0,,10.0,29.958662,,,TRUE,TRUE,,,,,,,CLR,,,,,,,,VFR,,,,,,,,,,,,METAR,3.0
KMQB 140415Z AUTO 18007KT 10SM CLR 02/M01 A2968 RMK AO2 T00171008,KMQB,2021-01-14T04:15:00Z,40.52,-90.65,1.7,-0.8,180,7,,10.0,29.681103,,,TRUE,TRUE,,,,,,,CLR,,,,,,,,VFR,,,,,,,,,,,,METAR,205.0
KMPZ 140415Z AUTO 17007KT 10SM CLR 02/00 A2963 RMK AO2,KMPZ,2021-01-14T04:15:00Z,40.95,-91.52,2.0,0.0,170,7,,10.0,29.630905,,,TRUE,TRUE,,,,,,,CLR,,,,,,,,VFR,,,,,,,,,,,,METAR,222.0
KMOX 140415Z AUTO 16006KT 10SM CLR 01/M01 A2946 RMK AO2,KMOX,2021-01-14T04:15:00Z,45.57,-95.97,1.0,-1.0,160,6,,10.0,29.459646,,,TRUE,TRUE,,,,,,,CLR,,,,,,,,VFR,,,,,,,,,,,,METAR,346.0
KMOR 140415Z AUTO 00000KT 5SM BR CLR M03/M03 A2994 RMK A01,KMOR,2021-01-14T04:15:00Z,36.18,-83.37,-3.0,-3.0,0,0,,5.0,29.940945,,,TRUE,TRUE,,,,,,BR,CLR,,,,,,,,MVFR,,,,,,,,,,,,METAR,393.0
KMOP 140415Z AUTO 00000KT 5SM BR OVC012 02/01 A2969 RMK AO2 T00210008,KMOP,2021-01-14T04:15:00Z,43.62,-84.73,2.1,0.8,0,0,,5.0,29.68996,,,TRUE,TRUE,,,,,,BR,OVC,1200,,,,,,,MVFR,,,,,,,,,,,,METAR,229.0
KMNZ 140415Z AUTO 19009KT 10SM CLR 06/00 A2994 RMK AO2 T00561002,KMNZ,2021-01-14T04:15:00Z,31.67,-98.15,5.6,-0.2,190,9,,10.0,29.940945,,,TRUE,TRUE,,,,,,,CLR,,,,,,,,VFR,,,,,,,,,,,,METAR,397.0
KMNV 140415Z AUTO 00000KT 4SM BR FEW002 M03/M03 A2997 RMK A01,KMNV,2021-01-14T04:15:00Z,35.55,-84.38,-3.0,-3.0,0,0,,4.0,29.970472,,,TRUE,TRUE,,,,,,BR,FEW,200,,,,,,,MVFR,,,,,,,,,,,,METAR,306.0
KMNI 140415Z AUTO 24003KT 10SM OVC011 05/04 A2998 RMK AO2,KMNI,2021-01-14T04:15:00Z,33.58,-80.22,5.0,4.0,240,3,,10.0,29.97933,,,TRUE,TRUE,,,,,,,OVC,1100,,,,,,,MVFR,,,,,,,,,,,,SPECI,29.0
KMNH 140415Z AUTO 22007KT 10SM CLR 02/M06 A2991 RMK AO2,KMNH,2021-01-14T04:15:00Z,39.22,-104.65,2.0,-6.0,220,7,,10.0,29.911417,,,TRUE,TRUE,,,,,,,CLR,,,,,,,,VFR,,,,,,,,,,,,METAR,2152.0
KMNE 140415Z AUTO 00000KT 10SM CLR 07/03 A2999 RMK AO2 T00740033,KMNE,2021-01-14T04:15:00Z,32.65,-93.3,7.4,3.3,0,0,,10.0,29.991142,,,TRUE,TRUE,,,,,,,CLR,,,,,,,,VFR,,,,,,,,,,,,METAR,84.0
KMMI 140415Z AUTO 00000KT 1/4SM FZFG OVC002 M04/M04 A3000 RMK A01,KMMI,2021-01-14T04:15:00Z,35.4,-84.57,-4.0,-4.0,0,0,,0.25,30.0,,,TRUE,TRUE,,,,,,FZFG,OVC,200,,,,,,,LIFR,,,,,,,,,,,,METAR,252.0
KMLE 140415Z AUTO 00000KT 10SM CLR 06/01 A2955 RMK AO2 T00550006,KMLE,2021-01-14T04:15:00Z,41.2,-96.12,5.5,0.6,0,0,,10.0,29.551182,,,TRUE,TRUE,,,,,,,CLR,,,,,,,,VFR,,,,,,,,,,,,METAR,318.0
KMKS 140415Z AUTO 25004KT 10SM SCT014 OVC100 06/06 A2999 RMK AO2,KMKS,2021-01-14T04:15:00Z,33.18,-80.03,6.0,6.0,250,4,,10.0,29.991142,,,TRUE,TRUE,,,,,,,SCT,1400,OVC,10000,,,,,VFR,,,,,,,,,,,,SPECI,22.0
KMKN 140415Z AUTO 22010G15KT 10SM CLR 11/M01 A2991 RMK AO2 T01061006,KMKN,2021-01-14T04:15:00Z,31.92,-98.6,10.6,-0.6,220,10,15,10.0,29.911417,,,TRUE,TRUE,,,,,,,CLR,,,,,,,,VFR,,,,,,,,,,,,METAR,428.0
KMKJ 140415Z AUTO 27009KT 10SM CLR 00/M03 A2992 RMK AO2 T10051033,KMKJ,2021-01-14T04:15:00Z,36.88,-81.33,-0.5,-3.3,270,9,,10.0,29.920275,,,TRUE,TRUE,,,,,,,CLR,,,,,,,,VFR,,,,,,,,,,,,METAR,777.0
KMJQ 140415Z AUTO 22004KT 10SM CLR 01/00 A2949 RMK AO2 PWINO,KMJQ,2021-01-14T04:15:00Z,43.63,-94.98,1.0,0.0,220,4,,10.0,29.489174,,,TRUE,TRUE,,,,,TRUE,,CLR,,,,,,,,VFR,,,,,,,,,,,,METAR,439.0
KMIS 140415Z AUTO 25010KT 10SM CLR 12/04 A3011 RMK A01,KMIS,2021-01-14T04:15:00Z,29.3,-88.85,12.0,4.0,250,10,,10.0,30.109253,,,TRUE,TRUE,,,,,,,CLR,,,,,,,,VFR,,,,,,,,,,,,METAR,24.0
KMHL 140415Z AUTO 21009KT 10SM CLR 06/00 A2967 RMK AO2,KMHL,2021-01-14T04:15:00Z,39.1,-93.2,6.0,0.0,210,9,,10.0,29.66929,,,TRUE,TRUE,,,,,,,CLR,,,,,,,,VFR,,,,,,,,,,,,METAR,236.0
KMGN 140415Z AUTO 02003KT 10SM OVC011 00/M02 A2970 RMK AO2 T10051023,KMGN,2021-01-14T04:15:00Z,45.43,-84.92,-0.5,-2.3,20,3,,10.0,29.698818,,,TRUE,TRUE,,,,,,,OVC,1100,,,,,,,MVFR,,,,,,,,,,,,METAR,205.0
KMGC 140415Z AUTO 19006KT 10SM BKN100 03/00 A2973 RMK AO2,KMGC,2021-01-14T04:15:00Z,41.7,-86.82,3.0,0.0,190,6,,10.0,29.731298,,,TRUE,TRUE,,,,,,,BKN,10000,,,,,,,VFR,,,,,,,,,,,,METAR,199.0
KMEZ 140415Z AUTO 23007KT 10SM CLR 10/00 A2989 RMK AO2 TSNO,KMEZ,2021-01-14T04:15:00Z,34.55,-94.2,10.0,0.0,230,7,,10.0,29.890747,,,TRUE,TRUE,,,TRUE,,,,CLR,,,,,,,,VFR,,,,,,,,,,,,METAR,320.0
KMEV 140415Z AUTO 11006KT 10SM CLR 03/M01 A3044 RMK AO2,KMEV,2021-01-14T04:15:00Z,38.98,-119.75,3.0,-1.0,110,6,,10.0,30.43996,,,TRUE,TRUE,,,,,,,CLR,,,,,,,,VFR,,,,,,,,,,,,METAR,1437.0
KMDS 140415Z AUTO 23004KT 10SM UP FEW032 SCT041 OVC055 03/03 A2948 RMK AO2,KMDS,2021-01-14T04:15:00Z,44.02,-97.08,3.0,3.0,230,4,,10.0,29.480314,,,TRUE,TRUE,,,,,,UP,FEW,3200,SCT,4100,OVC,5500,,,VFR,,,,,,,,,,,,METAR,524.0
KMDQ 140415Z AUTO 15004KT 10SM CLR 00/M01 A2999 RMK A02 T10041014,KMDQ,2021-01-14T04:15:00Z,34.87,-86.55,-0.4,-1.4,150,4,,10.0,29.991142,,,TRUE,TRUE,,,,,,,CLR,,,,,,,,VFR,,,,,,,,,,,,METAR,221.0
KMDJ 140415Z AUTO 27007KT 10SM 13/04 A3013 RMK A01,KMDJ,2021-01-14T04:15:00Z,28.65,-89.8,13.0,4.0,270,7,,10.0,30.129921,,,TRUE,TRUE,,,,,,,,,,,,,,,,,,,,,,,,,,,METAR,20.0
KMDD 140415Z AUTO 24010KT 10SM CLR 10/M08 A2993 RMK AO2 T00971077,KMDD,2021-01-14T04:15:00Z,32.03,-102.1,9.7,-7.7,240,10,,10.0,29.929134,,,TRUE,TRUE,,,,,,,CLR,,,,,,,,VFR,,,,,,,,,,,,METAR,853.0
KMCD 140415Z AUTO 20003KT 10SM OVC022 01/M01 A2969 RMK AO2 T00061012,KMCD,2021-01-14T04:15:00Z,45.85,-84.63,0.6,-1.2,200,3,,10.0,29.68996,,,TRUE,TRUE,,,,,,,OVC,2200,,,,,,,MVFR,,,,,,,,,,,,METAR,228.0
KMCC 140415Z AUTO 34007KT 6SM BR CLR 12/10 A3038 RMK AO2,KMCC,2021-01-14T04:15:00Z,38.67,-121.4,12.0,10.0,340,7,,6.0,30.380905,,,TRUE,TRUE,,,,,,BR,CLR,,,,,,,,VFR,,,,,,,,,,,,SPECI,21.0
KMBY 140415Z AUTO 20009KT 10SM CLR 06/M03 A2966 RMK AO2,KMBY,2021-01-14T04:15:00Z,39.47,-92.43,6.0,-3.0,200,9,,10.0,29.660433,,,TRUE,TRUE,,,,,,,CLR,,,,,,,,VFR,,,,,,,,,,,,METAR,263.0
KMBT 140415Z AUTO 20008KT 10SM BKN023 BKN050 BKN060 03/M01 A2994 RMK A01,KMBT,2021-01-14T04:15:00Z,35.88,-86.38,3.0,-1.0,200,8,,10.0,29.940945,,,TRUE,TRUE,,,,,,,BKN,2300,BKN,5000,BKN,6000,,,MVFR,,,,,,,,,,,,METAR,187.0
KMAW 140415Z AUTO 18010KT 10SM CLR 04/01 A2985 RMK AO2,KMAW,2021-01-14T04:15:00Z,36.6,-90.0,4.0,1.0,180,10,,10.0,29.84941,,,TRUE,TRUE,,,,,,,CLR,,,,,,,,VFR,,,,,,,,,,,,SPECI,88.0
KMAN 140415Z AUTO 32004KT 10SM CLR 03/M02 A3050 RMK A01,KMAN,2021-01-14T04:15:00Z,43.58,-116.52,3.0,-2.0,320,4,,10.0,30.499016,,,TRUE,TRUE,,,,,,,CLR,,,,,,,,VFR,,,,,,,,,,,,METAR,773.0
KM91 140415Z AUTO 18008KT 10SM FEW026 FEW034 04/M02 A2989 RMK A01,KM91,2021-01-14T04:15:00Z,36.53,-86.92,4.0,-2.0,180,8,,10.0,29.890747,,,TRUE,TRUE,,,,,,,FEW,2600,FEW,3400,,,,,VFR,,,,,,,,,,,,METAR,214.0
KM75 140415Z AUTO 29027G38KT 10SM BKN100 02/M06 A2983 RMK A01,KM75,2021-01-14T04:15:00Z,48.37,-107.92,2.0,-6.0,290,27,38,10.0,29.828741,,,TRUE,TRUE,,,,,,,BKN,10000,,,,,,,VFR,,,,,,,,,,,,METAR,687.0
KM54 140415Z AUTO 18009KT 10SM CLR 02/M01 A2992 RMK A01,KM54,2021-01-14T04:15:00Z,36.18,-86.32,2.0,-1.0,180,9,,10.0,29.920275,,,TRUE,TRUE,,,,,,,CLR,,,,,,,,VFR,,,,,,,,,,,,METAR,168.0
KM40 140415Z AUTO 17004KT 1 1/4SM BR CLR M00/M00 A3003 RMK AO2,KM40,2021-01-14T04:15:00Z,33.87,-88.48,0.0,0.0,170,4,,1.25,30.029528,,,TRUE,TRUE,,,,,,BR,CLR,,,,,,,,IFR,,,,,,,,,,,,METAR,68.0
KM21 140415Z AUTO 21008KT 10SM CLR 05/M03 A2988 RMK AO2 T00501030,KM21,2021-01-14T04:15:00Z,37.22,-87.15,5.0,-3.0,210,8,,10.0,29.878937,,,TRUE,TRUE,,,,,,,CLR,,,,,,,,VFR,,,,,,,,,,,,METAR,127.0
KM08 140415Z AUTO 18007KT 10SM CLR 05/01 A2992 RMK A01,KM08,2021-01-14T04:15:00Z,35.22,-89.05,5.0,1.0,180,7,,10.0,29.920275,,,TRUE,TRUE,,,,,,,CLR,,,,,,,,VFR,,,,,,,,,,,,METAR,149.0
KM02 140415Z AUTO 22010KT 10SM CLR 03/M01 A2989 RMK A01,KM02,2021-01-14T04:15:00Z,36.13,-87.43,3.0,-1.0,220,10,,10.0,29.890747,,,TRUE,TRUE,,,,,,,CLR,,,,,,,,VFR,,,,,,,,,,,,SPECI,268.0
KLYV 140415Z AUTO 00000KT 10SM 00/M01 A2949 RMK AO2,KLYV,2021-01-14T04:15:00Z,43.62,-96.22,0.0,-1.0,0,0,,10.0,29.489174,,,TRUE,TRUE,,,,,,,,,,,,,,,,,,,,,,,,,,,METAR,435.0
KLYO 140415Z AUTO 22008KT 10SM CLR 08/M03 A2967 RMK AO2 T00761026,KLYO,2021-01-14T04:15:00Z,38.35,-98.23,7.6,-2.6,220,8,,10.0,29.66929,,,TRUE,TRUE,,,,,,,CLR,,,,,,,,VFR,,,,,,,,,,,,SPECI,515.0
KLXY 140415Z AUTO 19012KT 10SM CLR 08/03 A2997 RMK AO2 T00820027,KLXY,2021-01-14T04:15:00Z,31.63,-96.52,8.2,2.7,190,12,,10.0,29.970472,,,TRUE,TRUE,,,,,,,CLR,,,,,,,,VFR,,,,,,,,,,,,METAR,164.0
KLXN 140415Z AUTO 26009KT 10SM CLR 08/01 A2959 RMK AO2 T00790005,KLXN,2021-01-14T04:15:00Z,40.78,-99.77,7.9,0.5,260,9,,10.0,29.589567,,,TRUE,TRUE,,,,,,,CLR,,,,,,,,VFR,,,,,,,,,,,,METAR,734.0
KLXL 140415Z AUTO 12003KT 10SM CLR 00/M02 A2948 RMK AO2,KLXL,2021-01-14T04:15:00Z,45.95,-94.33,0.0,-2.0,120,3,,10.0,29.480314,,,TRUE,TRUE,,,,,,,CLR,,,,,,,,VFR,,,,,,,,,,,,METAR,335.0
KLWB 140415Z AUTO 00000KT 10SM CLR M04/M07 A2986 RMK AO2 T10391069,KLWB,2021-01-14T04:15:00Z,37.87,-80.4,-3.9,-6.9,0,0,,10.0,29.861221,,,TRUE,TRUE,,,,,,,CLR,,,,,,,,VFR,,,,,,,,,,,,METAR,702.0
KLWA 140415Z AUTO 17003KT 10SM SCT055 OVC065 03/00 A2972 RMK AO2 T00270000,KLWA,2021-01-14T04:15:00Z,42.35,-86.25,2.7,0.0,170,3,,10.0,29.719488,,,TRUE,TRUE,,,,,,,SCT,5500,OVC,6500,,,,,VFR,,,,,,,,,,,,METAR,199.0
KLVN 140415Z AUTO 12003KT 10SM CLR M02/M02 A2951 RMK AO2,KLVN,2021-01-14T04:15:00Z,44.63,-93.23,-2.0,-2.0,120,3,,10.0,29.509842,,,TRUE,TRUE,,,,,,,CLR,,,,,,,,VFR,,,,,,,,,,,,METAR,292.0
KLVL 140415Z AUTO 00000KT 10SM CLR 03/M01 A2991 RMK AO1 T00311013,KLVL,2021-01-14T04:15:00Z,36.78,-77.8,3.1,-1.3,0,0,,10.0,29.911417,,,TRUE,TRUE,,,,,,,CLR,,,,,,,,VFR,,,,,,,,,,,,METAR,98.0
KLUV 140415Z AUTO 26014KT 10SM BKN100 BKN120 07/M02 A2989 RMK AO2,KLUV,2021-01-14T04:15:00Z,32.75,-101.92,7.0,-2.0,260,14,,10.0,29.890747,,,TRUE,TRUE,,,,,,,BKN,10000,BKN,12000,,,,,VFR,,,,,,,,,,,,METAR,910.0
KLUM 140415Z AUTO 11004KT 10SM CLR M02/M02 A2958 RMK AO2 T10191025,KLUM,2021-01-14T04:15:00Z,44.9,-91.87,-1.9,-2.5,110,4,,10.0,29.58071,,,TRUE,TRUE,,,,,,,CLR,,,,,,,,VFR,,,,,,,,,,,,SPECI,271.0
KLUL 140415Z AUTO 00000KT 10SM CLR 03/01 A3006 RMK A02 T00280007,KLUL,2021-01-14T04:15:00Z,31.67,-89.17,2.8,0.7,0,0,,10.0,30.059055,,,TRUE,TRUE,,,,,,,CLR,,,,,,,,VFR,,,,,,,,,,,,METAR,74.0
KLUG 140415Z AUTO 19005KT 10SM CLR 00/M02 A2995 RMK A01,KLUG,2021-01-14T04:15:00Z,35.52,-86.8,0.0,-2.0,190,5,,10.0,29.949802,,,TRUE,TRUE,,,,,,,CLR,,,,,,,,VFR,,,,,,,,,,,,SPECI,218.0
KLUD 140415Z AUTO 17011KT 10SM CLR 11/M01 A2986 RMK AO2 T01071011,KLUD,2021-01-14T04:15:00Z,33.25,-97.58,10.7,-1.1,170,11,,10.0,29.861221,,,TRUE,TRUE,,,,,,,CLR,,,,,,,,VFR,,,,,,,,,,,,METAR,319.0
KLUA 140415Z AUTO 00000KT 10SM CLR M01/M03 A2984 RMK AO2,KLUA,2021-01-14T04:15:00Z,38.67,-78.5,-1.0,-3.0,0,0,,10.0,29.840551,,,TRUE,TRUE,,,,,,,CLR,,,,,,,,VFR,,,,,,,,,,,,METAR,273.0
KLRY 140415Z AUTO 21006KT 10SM CLR 05/00 A2969 RMK AO2,KLRY,2021-01-14T04:15:00Z,38.62,-94.35,5.0,0.0,210,6,,10.0,29.68996,,,TRUE,TRUE,,,,,,,CLR,,,,,,,,VFR,,,,,,,,,,,,METAR,272.0
KLRO 140415Z AUTO 26006G13KT 6SM -RA SCT018 OVC075 08/07 A3001 RMK AO2,KLRO,2021-01-14T04:15:00Z,32.9,-79.78,8.0,7.0,260,6,13,6.0,30.008858,,,TRUE,TRUE,,,,,,-RA,SCT,1800,OVC,7500,,,,,VFR,,,,,,,,,,,,METAR,3.0
KLRJ 140415Z AUTO 00000KT 10SM BKN100 OVC120 02/00 A2949 RMK AO2,KLRJ,2021-01-14T04:15:00Z,42.77,-96.2,2.0,0.0,0,0,,10.0,29.489174,,,TRUE,TRUE,,,,,,,BKN,10000,OVC,12000,,,,,VFR,,,,,,,,,,,,METAR,363.0
KLOT 140415Z AUTO 20006KT 10SM SCT110 01/00 A2971 RMK AO2 T00110000,KLOT,2021-01-14T04:15:00Z,41.6,-88.1,1.1,0.0,200,6,,10.0,29.71063,,,TRUE,TRUE,,,,,,,SCT,11000,,,,,,,VFR,,,,,,,,,,,,METAR,205.0
KLOM 140415Z AUTO 00000KT 10SM CLR M03/M04 A2990 RMK AO2 T10251040,KLOM,2021-01-14T04:15:00Z,40.13,-75.27,-2.5,-4.0,0,0,,10.0,29.899607,,,TRUE,TRUE,,,,,,,CLR,,,,,,,,VFR,,,,,,,,,,,,METAR,87.0
KLNQ 140415Z AUTO 00000KT 10SM CLR 05/04 A3013 RMK AO2 T00450037,KLNQ,2021-01-14T04:15:00Z,29.35,-89.43,4.5,3.7,0,0,,10.0,30.129921,,,TRUE,TRUE,,,,,,,CLR,,,,,,,,VFR,,,,,,,,,,,,METAR,1.0
KLNP 140415Z AUTO 21007KT 10SM CLR M01/M07 A2989 RMK AO2,KLNP,2021-01-14T04:15:00Z,36.98,-82.52,-1.0,-7.0,210,7,,10.0,29.890747,,,TRUE,TRUE,,,,,,,CLR,,,,,,,,VFR,,,,,,,,,,,,SPECI,817.0
KLNN 140415Z AUTO 22008KT 10SM BKN120 05/M03 A2977 RMK AO1 T00511030,KLNN,2021-01-14T04:15:00Z,41.68,-81.38,5.1,-3.0,220,8,,10.0,29.769686,,,TRUE,TRUE,,,,,,,BKN,12000,,,,,,,VFR,,,,,,,,,,,,METAR,190.0
KLNC 140415Z AUTO 00000KT 10SM CLR 05/02 A2994 RMK AO2 T00450017,KLNC,2021-01-14T04:15:00Z,32.58,-96.72,4.5,1.7,0,0,,10.0,29.940945,,,TRUE,TRUE,,,,,,,CLR,,,,,,,,VFR,,,,,,,,,,,,METAR,152.0
KLNA 140415Z AUTO 32004KT 17/16 A3005 RMK AO2 SKY OBSCURED T01670160 PWINO PNO,KLNA,2021-01-14T04:15:00Z,26.6,-80.08,16.7,16.0,320,4,,,30.050198,,,TRUE,TRUE,,,,,TRUE,,,,,,,,,,,,,,,,,,,,,,METAR,3.0
KLMO 140415Z AUTO 27028G42KT 10SM SCT055 BKN080 OVC100 12/M05 A2985 RMK AO2 T01241052,KLMO,2021-01-14T04:15:00Z,40.17,-105.17,12.4,-5.2,270,28,42,10.0,29.84941,,,TRUE,TRUE,,,,,,,SCT,5500,BKN,8000,OVC,10000,,,VFR,,,,,,,,,,,,METAR,1535.0
KLKR 140415Z AUTO 21007KT 1/4SM FG OVC002 04/04 A2996 RMK AO2,KLKR,2021-01-14T04:15:00Z,34.72,-80.85,4.0,4.0,210,7,,0.25,29.958662,,,TRUE,TRUE,,,,,,FG,OVC,200,,,,,,,LIFR,,,,,,,,,,,,METAR,166.0
KLJF 140415Z AUTO 13004KT 10SM CLR 02/01 A2948 RMK AO2,KLJF,2021-01-14T04:15:00Z,45.1,-94.52,2.0,1.0,130,4,,10.0,29.480314,,,TRUE,TRUE,,,,,,,CLR,,,,,,,,VFR,,,,,,,,,,,,METAR,347.0
KLHZ 140415Z AUTO 00000KT 10SM CLR 05/03 A2994 RMK AO2,KLHZ,2021-01-14T04:15:00Z,36.02,-78.33,5.0,3.0,0,0,,10.0,29.940945,,,TRUE,TRUE,,,,,,,CLR,,,,,,,,VFR,,,,,,,,,,,,METAR,104.0
KLHM 140415Z AUTO 36006KT 10SM CLR 09/08 A3038 RMK AO1,KLHM,2021-01-14T04:15:00Z,38.92,-121.35,9.0,8.0,360,6,,10.0,30.380905,,,TRUE,TRUE,,,,,,,CLR,,,,,,,,VFR,,,,,,,,,,,,METAR,36.0
KLHB 140415Z AUTO 13004KT 10SM CLR 07/03 A3003 RMK AO2 T00710034,KLHB,2021-01-14T04:15:00Z,30.87,-96.62,7.1,3.4,130,4,,10.0,30.029528,,,TRUE,TRUE,,,,,,,CLR,,,,,,,,VFR,,,,,,,,,,,,METAR,83.0
KLGC 140415Z AUTO 27004KT 10SM CLR 01/M03 A3004 RMK AO2 T00101026,KLGC,2021-01-14T04:15:00Z,33.0,-85.07,1.0,-2.6,270,4,,10.0,30.041338,,,TRUE,TRUE,,,,,,,CLR,,,,,,,,VFR,,,,,,,,,,,,METAR,209.0
KLDM 140415Z AUTO 00000KT 3SM BR SCT013 00/00 A2967 RMK AO2 T00001004,KLDM,2021-01-14T04:15:00Z,43.97,-86.4,0.0,-0.4,0,0,,3.0,29.66929,,,TRUE,TRUE,,,,,,BR,SCT,1300,,,,,,,MVFR,,,,,,,,,,,,METAR,194.0
KLDJ 140415Z AUTO 00000KT 10SM OVC110 02/M02 A2991 RMK AO2 T00241025,KLDJ,2021-01-14T04:15:00Z,40.62,-74.25,2.4,-2.5,0,0,,10.0,29.911417,,,TRUE,TRUE,,,,,,,OVC,11000,,,,,,,VFR,,,,,,,,,,,,METAR,6.0
KLCG 140415Z AUTO 18008KT 10SM BKN100 OVC120 04/02 A2948 RMK AO2 T00400017,KLCG,2021-01-14T04:15:00Z,42.25,-96.98,4.0,1.7,180,8,,10.0,29.480314,,,TRUE,TRUE,,,,,,,BKN,10000,OVC,12000,,,,,VFR,,,,,,,,,,,,METAR,434.0
KLBO 140415Z AUTO 21007KT 10SM CLR 06/M05 A2974 RMK AO2,KLBO,2021-01-14T04:15:00Z,37.65,-92.65,6.0,-5.0,210,7,,10.0,29.740158,,,TRUE,TRUE,,,,,,,CLR,,,,,,,,VFR,,,,,,,,,,,,SPECI,399.0
KLBE 140415Z AUTO 18005KT 10SM CLR 03/M03 A2985 RMK AO2,KLBE,2021-01-14T04:15:00Z,40.27,-79.4,3.0,-3.0,180,5,,10.0,29.84941,,,TRUE,TRUE,,,,,,,CLR,,,,,,,,VFR,,,,,,,,,,,,METAR,345.0
KLAM 140415Z AUTO 15004KT 10SM CLR 02/M10 A3015 RMK AO2 T00161103,KLAM,2021-01-14T04:15:00Z,35.87,-106.27,1.6,-10.3,150,4,,10.0,30.15059,,,TRUE,TRUE,,,,,,,CLR,,,,,,,,VFR,,,,,,,,,,,,METAR,2166.0
KLAL 140415Z AUTO 33005KT 10SM -RA OVC023 11/08 A3010 RMK AO2 PNO,KLAL,2021-01-14T04:15:00Z,27.98,-82.02,11.0,8.0,330,5,,10.0,30.100393,,,TRUE,TRUE,,,,,,-RA,OVC,2300,,,,,,,MVFR,,,,,,,,,,,,METAR,39.0
KL52 140415Z AUTO 07007KT 10SM CLR 20/M02 A3024 RMK A01,KL52,2021-01-14T04:15:00Z,35.1,-120.62,20.0,-2.0,70,7,,10.0,30.239174,,,TRUE,TRUE,,,,,,,CLR,,,,,,,,VFR,,,,,,,,,,,,METAR,3.0
KL35 140415Z AUTO 00000KT 10SM CLR 00/M04 A3044 RMK AO2,KL35,2021-01-14T04:15:00Z,34.27,-116.85,0.0,-4.0,0,0,,10.0,30.43996,,,TRUE,TRUE,,,,,,,CLR,,,,,,,,VFR,,,,,,,,,,,,METAR,2062.0
KL08 140415Z AUTO 01003KT 10SM CLR 09/M11 A3018 RMK AO2,KL08,2021-01-14T04:15:00Z,33.27,-116.32,9.0,-11.0,10,3,,10.0,30.180119,,,TRUE,TRUE,,,,,,,CLR,,,,,,,,VFR,,,,,,,,,,,,METAR,156.0
KKY8 140415Z AUTO 17006KT 10SM FEW038 FEW080 05/M01 A2987 RMK A01,KKY8,2021-01-14T04:15:00Z,37.95,-86.87,5.0,-1.0,170,6,,10.0,29.870079,,,TRUE,TRUE,,,,,,,FEW,3800,FEW,8000,,,,,VFR,,,,,,,,,,,,METAR,124.0
KK88 140415Z AUTO 19007KT 10SM CLR 05/00 A2971 RMK AO1 T00470000,KK88,2021-01-14T04:15:00Z,37.87,-95.38,4.7,0.0,190,7,,10.0,29.71063,,,TRUE,TRUE,,,,,,,CLR,,,,,,,,VFR,,,,,,,,,,,,METAR,308.0
KK82 140415Z AUTO 25006KT 10SM CLR 08/00 A2961 RMK AO2,KK82,2021-01-14T04:15:00Z,39.77,-98.8,8.0,0.0,250,6,,10.0,29.610237,,,TRUE,TRUE,,,,,,,CLR,,,,,,,,VFR,,,,,,,,,,,,METAR,548.0
KK62 140415Z AUTO 21007KT 10SM CLR 01/M03 A2986 RMK AO2,KK62,2021-01-14T04:15:00Z,38.7,-84.4,1.0,-3.0,210,7,,10.0,29.861221,,,TRUE,TRUE,,,,,,,CLR,,,,,,,,VFR,,,,,,,,,,,,METAR,274.0
KJZP 140415Z AUTO 35004KT 10SM BKN065 00/M02 A3001 RMK AO2 T00001016,KJZP,2021-01-14T04:15:00Z,34.45,-84.47,0.0,-1.6,350,4,,10.0,30.008858,,,TRUE,TRUE,,,,,,,BKN,6500,,,,,,,VFR,,,,,,,,,,,,METAR,462.0
KJZI 140415Z AUTO 19004KT 8SM BKN015 OVC070 07/05 A3000 RMK AO2,KJZI,2021-01-14T04:15:00Z,32.7,-80.0,7.0,5.0,190,4,,8.0,30.0,,,TRUE,TRUE,,,,,,,BKN,1500,OVC,7000,,,,,MVFR,,,,,,,,,,,,METAR,5.0
KJYR 140415Z AUTO 26004KT 10SM FEW026 BKN032 BKN090 07/02 A2953 RMK AO2,KJYR,2021-01-14T04:15:00Z,40.9,-97.62,7.0,2.0,260,4,,10.0,29.530512,,,TRUE,TRUE,,,,,,,FEW,2600,BKN,3200,BKN,9000,,,VFR,,,,,,,,,,,,METAR,508.0
KJYO 140415Z AUTO 00000KT 10SM CLR M01/M02 A2988 RMK AO2,KJYO,2021-01-14T04:15:00Z,39.07,-77.57,-1.0,-2.0,0,0,,10.0,29.878937,,,TRUE,TRUE,,,,,,,CLR,,,,,,,,VFR,,,,,,,,,,,,SPECI,112.0
KJYM 140415Z AUTO 23004KT 10SM SCT060 OVC070 03/00 A2974 RMK AO2 T00270001,KJYM,2021-01-14T04:15:00Z,41.92,-84.58,2.7,0.1,230,4,,10.0,29.740158,,,TRUE,TRUE,,,,,,,SCT,6000,OVC,7000,,,,,VFR,,,,,,,,,,,,METAR,357.0
KJYL 140415Z AUTO 21004KT 7SM BKN100 05/04 A3001 RMK AO2 T00500040,KJYL,2021-01-14T04:15:00Z,32.65,-81.6,5.0,4.0,210,4,,7.0,30.008858,,,TRUE,TRUE,,,,,,,BKN,10000,,,,,,,VFR,,,,,,,,,,,,SPECI,54.0
KJYG 140415Z AUTO 17003KT 10SM CLR 01/M01 A2949 RMK AO2 PWINO,KJYG,2021-01-14T04:15:00Z,43.98,-94.55,1.0,-1.0,170,3,,10.0,29.489174,,,TRUE,TRUE,,,,,TRUE,,CLR,,,,,,,,VFR,,,,,,,,,,,,METAR,323.0
KJWY 140415Z AUTO 17006KT 10SM CLR 08/03 A2993 RMK AO2 T00750034,KJWY,2021-01-14T04:15:00Z,32.45,-96.92,7.5,3.4,170,6,,10.0,29.929134,,,TRUE,TRUE,,,,,,,CLR,,,,,,,,VFR,,,,,,,,,,,,METAR,211.0
KJWN 140415Z AUTO 00000KT 10SM CLR 03/M02 A2991 RMK A01,KJWN,2021-01-14T04:15:00Z,36.18,-86.88,3.0,-2.0,0,0,,10.0,29.911417,,,TRUE,TRUE,,,,,,,CLR,,,,,,,,VFR,,,,,,,,,,,,SPECI,149.0
KJWG 140415Z AUTO 24008KT 10SM CLR 07/M01 A2979 RMK AO2 T00711012,KJWG,2021-01-14T04:15:00Z,35.87,-98.42,7.1,-1.2,240,8,,10.0,29.790354,,,TRUE,TRUE,,,,,,,CLR,,,,,,,,VFR,,,,,,,,,,,,SPECI,469.0
KJVW 140415Z AUTO 17003KT 10SM 01/01 A3002 RMK AO2,KJVW,2021-01-14T04:15:00Z,32.3,-90.42,1.0,1.0,170,3,,10.0,30.02067,,,TRUE,TRUE,,,,,,,,,,,,,,,,,,,,,,,,,,,METAR,73.0
KJVL 140415Z AUTO 19005KT 10SM OVC100 02/00 A2964 RMK AO2,KJVL,2021-01-14T04:15:00Z,42.62,-89.05,2.0,0.0,190,5,,10.0,29.639763,,,TRUE,TRUE,,,,,,,OVC,10000,,,,,,,VFR,,,,,,,,,,,,METAR,244.0
KJTC 140415Z AUTO 22007KT 10SM CLR M03/M14 A3031 RMK AO2,KJTC,2021-01-14T04:15:00Z,34.13,-109.32,-3.0,-14.0,220,7,,10.0,30.31004,,,TRUE,TRUE,,,,,,,CLR,,,,,,,,VFR,,,,,,,,,,,,METAR,2148.0
KJSY 140415Z AUTO 19003KT 10SM CLR M03/M06 A3045 RMK AO2 T10301060,KJSY,2021-01-14T04:15:00Z,45.35,-117.25,-3.0,-6.0,190,3,,10.0,30.448818,,,TRUE,TRUE,,,,,,,CLR,,,,,,,,VFR,,,,,,,,,,,,METAR,1256.0
KJSV 140415Z AUTO 00000KT 10SM CLR 01/M01 A2984 RMK AO2,KJSV,2021-01-14T04:15:00Z,35.43,-94.8,1.0,-1.0,0,0,,10.0,29.840551,,,TRUE,TRUE,,,,,,,CLR,,,,,,,,VFR,,,,,,,,,,,,METAR,158.0
KJQF 140415Z AUTO 00000KT 5SM BR BKN006 05/03 A2993 RMK AO2,KJQF,2021-01-14T04:15:00Z,35.38,-80.72,5.0,3.0,0,0,,5.0,29.929134,,,TRUE,TRUE,,,,,,BR,BKN,600,,,,,,,IFR,,,,,,,,,,,,SPECI,204.0
KJOT 140415Z AUTO 19005KT 10SM SCT120 03/01 A2971 RMK AO2 T00300006,KJOT,2021-01-14T04:15:00Z,41.52,-88.18,3.0,0.6,190,5,,10.0,29.71063,,,TRUE,TRUE,,,,,,,SCT,12000,,,,,,,VFR,,,,,,,,,,,,METAR,175.0
KJMR 140415Z AUTO 00000KT 4SM BR CLR M04/M05 A2954 RMK AO2,KJMR,2021-01-14T04:15:00Z,45.88,-93.27,-4.0,-5.0,0,0,,4.0,29.53937,,,TRUE,TRUE,,,,,,BR,CLR,,,,,,,,MVFR,,,,,,,,,,,,METAR,301.0
KJKJ 140415Z AUTO 17007KT 10SM CLR 03/M01 A2941 RMK AO2,KJKJ,2021-01-14T04:15:00Z,46.83,-96.67,3.0,-1.0,170,7,,10.0,29.409449,,,TRUE,TRUE,,,,,,,CLR,,,,,,,,VFR,,,,,,,,,,,,METAR,280.0
KJKA 140415Z AUTO 00000KT 10SM CLR 03/02 A3010 RMK AO2 T00250022,KJKA,2021-01-14T04:15:00Z,30.28,-87.67,2.5,2.2,0,0,,10.0,30.100393,,,TRUE,TRUE,,,,,,,CLR,,,,,,,,VFR,,,,,,,,,,,,METAR,5.0
KJHN 140415Z AUTO 24011KT 10SM CLR 08/01 A2976 RMK AO2 T00750006,KJHN,2021-01-14T04:15:00Z,37.58,-101.73,7.5,0.6,240,11,,10.0,29.760826,,,TRUE,TRUE,,,,,,,CLR,,,,,,,,VFR,,,,,,,,,,,,METAR,1013.0
KJGG 140415Z AUTO 00000KT 10SM CLR 03/M01 A2992 RMK AO1,KJGG,2021-01-14T04:15:00Z,37.23,-76.72,3.0,-1.0,0,0,,10.0,29.920275,,,TRUE,TRUE,,,,,,,CLR,,,,,,,,VFR,,,,,,,,,,,,METAR,13.0
KJFX 140415Z AUTO 00000KT M1/4SM FG OVC001 01/01 A3003 RMK AO2 PWINO,KJFX,2021-01-14T04:15:00Z,33.9,-87.32,1.0,1.0,0,0,,0.25,30.029528,,,TRUE,TRUE,,,,,TRUE,FG,OVC,100,,,,,,,LIFR,,,,,,,,,,,,METAR,144.0
KJES 140415Z AUTO 00000KT 10SM CLR 06/04 A3005 RMK AO2,KJES,2021-01-14T04:15:00Z,31.55,-81.88,6.0,4.0,0,0,,10.0,30.050198,,,TRUE,TRUE,,,,,,,CLR,,,,,,,,VFR,,,,,,,,,,,,SPECI,26.0
KJDD 140415Z AUTO 19006KT 10SM CLR 09/02 A2995 RMK AO2,KJDD,2021-01-14T04:15:00Z,32.75,-95.5,9.0,2.0,190,6,,10.0,29.949802,,,TRUE,TRUE,,,,,,,CLR,,,,,,,,VFR,,,,,,,,,,,,METAR,127.0
KJCA 140415Z AUTO 26007KT 10SM CLR 03/M04 A2996 RMK AO2 T00291043,KJCA,2021-01-14T04:15:00Z,34.18,-83.57,2.9,-4.3,260,7,,10.0,29.958662,,,TRUE,TRUE,,,,,,,CLR,,,,,,,,VFR,,,,,,,,,,,,METAR,287.0
KJAU 140415Z AUTO 00000KT 7SM CLR M04/M04 A2999 RMK A01,KJAU,2021-01-14T04:15:00Z,36.33,-84.17,-4.0,-4.0,0,0,,7.0,29.991142,,,TRUE,TRUE,,,,,,,CLR,,,,,,,,VFR,,,,,,,,,,,,SPECI,350.0
KJAS 140415Z AUTO 00000KT 10SM CLR 06/04 A3009 RMK AO2 T00590040,KJAS,2021-01-14T04:15:00Z,30.88,-94.03,5.9,4.0,0,0,,10.0,30.088583,,,TRUE,TRUE,,,,,,,CLR,,,,,,,,VFR,,,,,,,,,,,,METAR,60.0
KIZA 140415Z AUTO 07004KT 10SM CLR 09/06 A3021 RMK AO2,KIZA,2021-01-14T04:15:00Z,34.6,-120.07,9.0,6.0,70,4,,10.0,30.209646,,,TRUE,TRUE,,,,,,,CLR,,,,,,,,VFR,,,,,,,,,,,,METAR,200.0
KIYA 140415Z AUTO 00000KT 10SM CLR 03/02 A3011 RMK AO2 T00310016,KIYA,2021-01-14T04:15:00Z,29.98,-92.08,3.1,1.6,0,0,,10.0,30.109253,,,TRUE,TRUE,,,,,,,CLR,,,,,,,,VFR,,,,,,,,,,,,SPECI,4.0
KIXA 140415Z AUTO 00000KT 10SM CLR 01/01 A2993 RMK AO2,KIXA,2021-01-14T04:15:00Z,36.33,-77.63,1.0,1.0,0,0,,10.0,29.929134,,,TRUE,TRUE,,,,,,,CLR,,,,,,,,VFR,,,,,,,,,,,,SPECI,43.0
KISQ 140415Z AUTO 00000KT 7SM CLR M08/M09 A2967 RMK AO2 T10761088,KISQ,2021-01-14T04:15:00Z,45.97,-86.17,-7.6,-8.8,0,0,,7.0,29.66929,,,TRUE,TRUE,,,,,,,CLR,,,,,,,,VFR,,,,,,,,,,,,METAR,206.0
KISO 140415Z AUTO 24003KT 10SM CLR 07/06 A2995 RMK AO2 T00650055,KISO,2021-01-14T04:15:00Z,35.32,-77.62,6.5,5.5,240,3,,10.0,29.949802,,,TRUE,TRUE,,,,,,,CLR,,,,,,,,VFR,,,,,,,,,,,,METAR,27.0
KIRS 140415Z AUTO 22004KT 10SM OVC095 02/00 A2974 RMK AO2 T00180000,KIRS,2021-01-14T04:15:00Z,41.8,-85.43,1.8,0.0,220,4,,10.0,29.740158,,,TRUE,TRUE,,,,,,,OVC,9500,,,,,,,VFR,,,,,,,,,,,,METAR,282.0
KIPJ 140415Z AUTO 00000KT 7SM OVC006 04/04 A2991 RMK AO2 T00400040,KIPJ,2021-01-14T04:15:00Z,35.48,-81.17,4.0,4.0,0,0,,7.0,29.911417,,,TRUE,TRUE,,,,,,,OVC,600,,,,,,,IFR,,,,,,,,,,,,SPECI,266.0
KIOB 140415Z AUTO 22005KT 10SM CLR 01/M02 A2991 RMK AO2,KIOB,2021-01-14T04:15:00Z,38.05,-83.98,1.0,-2.0,220,5,,10.0,29.911417,,,TRUE,TRUE,,,,,,,CLR,,,,,,,,VFR,,,,,,,,,,,,METAR,301.0
KINJ 140415Z AUTO 17010KT 10SM CLR 08/04 A2993 RMK AO2 T00790040,KINJ,2021-01-14T04:15:00Z,32.08,-97.1,7.9,4.0,170,10,,10.0,29.929134,,,TRUE,TRUE,,,,,,,CLR,,,,,,,,VFR,,,,,,,,,,,,METAR,208.0
KINF 140415Z AUTO 00000KT 7SM OVC060 10/10 A3011 RMK AO2,KINF,2021-01-14T04:15:00Z,28.8,-82.32,10.0,10.0,0,0,,7.0,30.109253,,,TRUE,TRUE,,,,,,,OVC,6000,,,,,,,VFR,,,,,,,,,,,,METAR,14.0
KIMS 140415Z AUTO 18004KT 10SM CLR 02/M01 A2987 RMK AO1,KIMS,2021-01-14T04:15:00Z,38.75,-85.47,2.0,-1.0,180,4,,10.0,29.870079,,,TRUE,TRUE,,,,,,,CLR,,,,,,,,VFR,,,,,,,,,,,,METAR,244.0
KIMM 140415Z AUTO 00000KT 4SM BR FEW003 OVC060 15/14 A3006 RMK AO2 PWINO,KIMM,2021-01-14T04:15:00Z,26.43,-81.4,15.0,14.0,0,0,,4.0,30.059055,,,TRUE,TRUE,,,,,TRUE,BR,FEW,300,OVC,6000,,,,,MVFR,,,,,,,,,,,,SPECI,11.0
KIKW 140415Z AUTO 00000KT 4SM BR BKN012 00/M01 A2969 RMK AO2 T00011006,KIKW,2021-01-14T04:15:00Z,43.67,-84.27,0.1,-0.6,0,0,,4.0,29.68996,,,TRUE,TRUE,,,,,,BR,BKN,1200,,,,,,,MVFR,,,,,,,,,,,,METAR,190.0
KIKV 140415Z AUTO 00000KT 10SM CLR M01/M02 A2958 RMK AO2,KIKV,2021-01-14T04:15:00Z,41.68,-93.57,-1.0,-2.0,0,0,,10.0,29.58071,,,TRUE,TRUE,,,,,,,CLR,,,,,,,,VFR,,,,,,,,,,,,METAR,270.0
KIKK 140415Z AUTO 22007KT 10SM BKN120 04/00 A2974 RMK AO2 T00360000,KIKK,2021-01-14T04:15:00Z,41.07,-87.85,3.6,0.0,220,7,,10.0,29.740158,,,TRUE,TRUE,,,,,,,BKN,12000,,,,,,,VFR,,,,,,,,,,,,METAR,188.0
KIKG 140415Z AUTO 17003KT 10SM CLR 09/07 A3009 RMK AO2 T00860073,KIKG,2021-01-14T04:15:00Z,27.55,-98.03,8.6,7.3,170,3,,10.0,30.088583,,,TRUE,TRUE,,,,,,,CLR,,,,,,,,VFR,,,,,,,,,,,,METAR,37.0
KIJX 140415Z AUTO 00000KT 10SM CLR 03/M02 A2969 RMK AO2 T00331019,KIJX,2021-01-14T04:15:00Z,39.77,-90.25,3.3,-1.9,0,0,,10.0,29.68996,,,TRUE,TRUE,,,,,,,CLR,,,,,,,,VFR,,,,,,,,,,,,METAR,187.0
KIIB 140415Z AUTO 14006KT 7SM CLR M04/M05 A2959 RMK AO2 T10391046,KIIB,2021-01-14T04:15:00Z,42.45,-91.95,-3.9,-4.6,140,6,,7.0,29.589567,,,TRUE,TRUE,,,,,,,CLR,,,,,,,,VFR,,,,,,,,,,,,METAR,294.0
KIGQ 140415Z AUTO 21008KT 10SM OVC110 03/00 A2972 RMK AO2 T00260001,KIGQ,2021-01-14T04:15:00Z,41.53,-87.53,2.6,0.1,210,8,,10.0,29.719488,,,TRUE,TRUE,,,,,,,OVC,11000,,,,,,,VFR,,,,,,,,,,,,METAR,187.0
KIFP 140415Z AUTO 04012KT 10SM CLR 17/M11 A3018 RMK AO2,KIFP,2021-01-14T04:15:00Z,35.15,-114.57,17.0,-11.0,40,12,,10.0,30.180119,,,TRUE,TRUE,,,,,,,CLR,,,,,,,,VFR,,,,,,,,,,,,METAR,210.0
KIER 140415Z AUTO 21004KT 10SM CLR 05/03 A3003 RMK AO2 T00510025,KIER,2021-01-14T04:15:00Z,31.73,-93.1,5.1,2.5,210,4,,10.0,30.029528,,,TRUE,TRUE,,,,,,,CLR,,,,,,,,VFR,,,,,,,,,,,,SPECI,35.0
KIDP 140415Z AUTO 18009KT 10SM CLR 04/00 A2974 RMK AO2 T00421001,KIDP,2021-01-14T04:15:00Z,37.17,-95.78,4.2,-0.1,180,9,,10.0,29.740158,,,TRUE,TRUE,,,,,,,CLR,,,,,,,,VFR,,,,,,,,,,,,METAR,252.0
KIDI 140415Z AUTO 24006KT 10SM BKN090 OVC120 03/M02 A2986 RMK A01,KIDI,2021-01-14T04:15:00Z,40.63,-79.1,3.0,-2.0,240,6,,10.0,29.861221,,,TRUE,TRUE,,,,,,,BKN,9000,OVC,12000,,,,,VFR,,,,,,,,,,,,METAR,425.0
KICL 140415Z AUTO 00000KT 10SM CLR 01/01 A2959 RMK AO2,KICL,2021-01-14T04:15:00Z,40.72,-95.02,1.0,1.0,0,0,,10.0,29.589567,,,TRUE,TRUE,,,,,,,CLR,,,,,,,,VFR,,,,,,,,,,,,METAR,299.0
KIBM 140415Z AUTO 34029G43KT 2SM -RA BKN012 OVC027 01/M01 A2989 RMK AO2 T00051007,KIBM,2021-01-14T04:15:00Z,41.18,-103.68,0.5,-0.7,340,29,43,2.0,29.890747,,,TRUE,TRUE,,,,,,-RA,BKN,1200,OVC,2700,,,,,IFR,,,,,,,,,,,,METAR,1494.0
KI74 140415Z AUTO 22005KT 10SM OVC110 03/M01 A2981 RMK AO2,KI74,2021-01-14T04:15:00Z,40.12,-83.75,3.0,-1.0,220,5,,10.0,29.811024,,,TRUE,TRUE,,,,,,,OVC,11000,,,,,,,VFR,,,,,,,,,,,,METAR,322.0
KI69 140415Z AUTO 21005KT 10SM CLR 04/M02 A2986 RMK AO2 T00351022,KI69,2021-01-14T04:15:00Z,39.08,-84.22,3.5,-2.2,210,5,,10.0,29.861221,,,TRUE,TRUE,,,,,,,CLR,,,,,,,,VFR,,,,,,,,,,,,METAR,238.0
KI67 140415Z AUTO 21005KT 10SM CLR 04/M02 A2985 RMK AO1,KI67,2021-01-14T04:15:00Z,39.25,-84.78,4.0,-2.0,210,5,,10.0,29.84941,,,TRUE,TRUE,,,,,,,CLR,,,,,,,,VFR,,,,,,,,,,,,METAR,177.0
KI63 140415Z AUTO 17006KT 10SM CLR 02/M02 A2966 RMK AO2 T00221020,KI63,2021-01-14T04:15:00Z,39.98,-90.8,2.2,-2.0,170,6,,10.0,29.660433,,,TRUE,TRUE,,,,,,,CLR,,,,,,,,VFR,,,,,,,,,,,,METAR,221.0
KI35 140415Z AUTO 00000KT 10SM CLR M02/M03 A2993 RMK AO2 T10251035,KI35,2021-01-14T04:15:00Z,36.87,-83.37,-2.5,-3.5,0,0,,10.0,29.929134,,,TRUE,TRUE,,,,,,,CLR,,,,,,,,VFR,,,,,,,,,,,,SPECI,467.0
KI23 140415Z AUTO 21013G16KT 10SM CLR 03/M02 A2982 RMK AO1,KI23,2021-01-14T04:15:00Z,39.57,-83.42,3.0,-2.0,210,13,16,10.0,29.819881,,,TRUE,TRUE,,,,,,,CLR,,,,,,,,VFR,,,,,,,,,,,,METAR,298.0
KI19 140415Z AUTO 22009KT 10SM CLR 04/M02 A2984 RMK AO2 T00401023,KI19,2021-01-14T04:15:00Z,39.7,-83.98,4.0,-2.3,220,9,,10.0,29.840551,,,TRUE,TRUE,,,,,,,CLR,,,,,,,,VFR,,,,,,,,,,,,METAR,285.0
KI16 140415Z AUTO 10SM M04/M05 A2994 RMK AO2 T10391049,KI16,2021-01-14T04:15:00Z,37.6,-81.57,-3.9,-4.9,,,,10.0,29.940945,,,TRUE,TRUE,,,,,,,,,,,,,,,,,,,,,,,,,,,METAR,528.0
KHZX 140415Z AUTO 13004KT 10SM CLR M01/M02 A2950 RMK AO2,KHZX,2021-01-14T04:15:00Z,46.62,-93.32,-1.0,-2.0,130,4,,10.0,29.500984,,,TRUE,TRUE,,,,,,,CLR,,,,,,,,VFR,,,,,,,,,,,,METAR,374.0
KHZR 140415Z AUTO 21004KT 10SM CLR 06/03 A3009 RMK AO2 T00550028,KHZR,2021-01-14T04:15:00Z,30.72,-91.48,5.5,2.8,210,4,,10.0,30.088583,,,TRUE,TRUE,,,,,,,CLR,,,,,,,,VFR,,,,,,,,,,,,METAR,11.0
KHZL 140415Z AUTO 00000KT 10SM SCT085 BKN090 01/M05 A2985 RMK AO2,KHZL,2021-01-14T04:15:00Z,40.98,-76.0,1.0,-5.0,0,0,,10.0,29.84941,,,TRUE,TRUE,,,,,,,SCT,8500,BKN,9000,,,,,VFR,,,,,,,,,,,,METAR,481.0
KHZD 140415Z AUTO 21008KT 10SM CLR 05/01 A2991 RMK A01,KHZD,2021-01-14T04:15:00Z,36.08,-88.47,5.0,1.0,210,8,,10.0,29.911417,,,TRUE,TRUE,,,,,,,CLR,,,,,,,,VFR,,,,,,,,,,,,SPECI,147.0
KHYX 140415Z AUTO 21004KT 7SM CLR 00/M01 A2971 RMK AO2,KHYX,2021-01-14T04:15:00Z,43.43,-83.87,0.0,-1.0,210,4,,7.0,29.71063,,,TRUE,TRUE,,,,,,,CLR,,,,,,,,VFR,,,,,,,,,,,,METAR,181.0
KHYW 140415Z AUTO 00000KT 10SM -RA SCT017 SCT065 BKN090 06/05 A2998 RMK AO2,KHYW,2021-01-14T04:15:00Z,33.83,-79.12,6.0,5.0,0,0,,10.0,29.97933,,,TRUE,TRUE,,,,,,-RA,SCT,1700,SCT,6500,BKN,9000,,,VFR,,,,,,,,,,,,SPECI,10.0
KHXD 140415Z AUTO VRB05KT 8SM FEW055 BKN100 OVC120 07/06 A3001 RMK AO2,KHXD,2021-01-14T04:15:00Z,32.22,-80.7,7.0,6.0,0,5,,8.0,30.008858,,,TRUE,TRUE,,,,,,,FEW,5500,BKN,10000,OVC,12000,,,VFR,,,,,,,,,,,,METAR,5.0
KHWY 140415Z AUTO 00000KT 10SM CLR M04/M06 A2986 RMK AO2 T10401056,KHWY,2021-01-14T04:15:00Z,38.58,-77.72,-4.0,-5.6,0,0,,10.0,29.861221,,,TRUE,TRUE,,,,,,,CLR,,,,,,,,VFR,,,,,,,,,,,,METAR,93.0
KHVS 140415Z AUTO 00000KT 5SM BR OVC005 05/04 A2996 RMK AO2,KHVS,2021-01-14T04:15:00Z,34.4,-80.12,5.0,4.0,0,0,,5.0,29.958662,,,TRUE,TRUE,,,,,,BR,OVC,500,,,,,,,IFR,,,,,,,,,,,,METAR,110.0
KHVE 140415Z AUTO 00000KT 10SM CLR M06/M08 A3031 RMK AO2,KHVE,2021-01-14T04:15:00Z,38.42,-110.7,-6.0,-8.0,0,0,,10.0,30.31004,,,TRUE,TRUE,,,,,,,CLR,,,,,,,,VFR,,,,,,,,,,,,METAR,1351.0
KHUM 140415Z AUTO 00000KT 7SM CLR 03/02 A3013 RMK AO2 T00290021,KHUM,2021-01-14T04:15:00Z,29.57,-90.67,2.9,2.1,0,0,,7.0,30.129921,,,TRUE,TRUE,,,,,,,CLR,,,,,,,,VFR,,,,,,,,,,,,METAR,1.0
KHTO 140415Z AUTO 00000KT 10SM OVC110 M02/M04 A2992 RMK AO2 T10251040,KHTO,2021-01-14T04:15:00Z,40.95,-72.25,-2.5,-4.0,0,0,,10.0,29.920275,,,TRUE,TRUE,,,,,,,OVC,11000,,,,,,,VFR,,,,,,,,,,,,METAR,10.0
KHTH 140415Z AUTO 00000KT 10SM CLR 05/M02 A3041 RMK A01,KHTH,2021-01-14T04:15:00Z,,,5.0,-2.0,0,0,,10.0,30.410433,,,TRUE,TRUE,,,,,,,CLR,,,,,,,,VFR,,,,,,,,,,,,METAR,
KHSP 140415Z AUTO 26011KT 10SM CLR 02/M13 A2981 RMK AO2 T00201131,KHSP,2021-01-14T04:15:00Z,37.95,-79.82,2.0,-13.1,260,11,,10.0,29.811024,,,TRUE,TRUE,,,,,,,CLR,,,,,,,,VFR,,,,,,,,,,,,SPECI,1148.0
KHSG 140415Z AUTO 29013G20KT 10SM CLR 01/M17 A3001 RMK AO2 T00111173 PWINO,KHSG,2021-01-14T04:15:00Z,43.72,-108.38,1.1,-17.3,290,13,20,10.0,30.008858,,,TRUE,TRUE,,,,,TRUE,,CLR,,,,,,,,VFR,,,,,,,,,,,,METAR,1497.0
KHSD 140415Z AUTO 20016G25KT 10SM CLR 10/00 A2974 RMK A01,KHSD,2021-01-14T04:15:00Z,35.6,-97.72,10.0,0.0,200,16,25,10.0,29.740158,,,TRUE,TRUE,,,,,,,CLR,,,,,,,,VFR,,,,,,,,,,,,SPECI,358.0
KHSB 140415Z AUTO 22005KT 10SM CLR 04/M01 A2984 RMK AO2 T00371012,KHSB,2021-01-14T04:15:00Z,37.82,-88.55,3.7,-1.2,220,5,,10.0,29.840551,,,TRUE,TRUE,,,,,,,CLR,,,,,,,,VFR,,,,,,,,,,,,METAR,118.0
KHRX 140415Z AUTO 00000KT 10SM CLR 03/00 A2986 RMK AO2 T00271002,KHRX,2021-01-14T04:15:00Z,34.87,-102.33,2.7,-0.2,0,0,,10.0,29.861221,,,TRUE,TRUE,,,,,,,CLR,,,,,,,,VFR,,,,,,,,,,,,METAR,1153.0
KHRJ 140415Z AUTO 00000KT 4SM BR BKN015 BKN110 06/06 A2993 RMK AO2 T00610061,KHRJ,2021-01-14T04:15:00Z,35.38,-78.73,6.1,6.1,0,0,,4.0,29.929134,,,TRUE,TRUE,,,,,,BR,BKN,1500,BKN,11000,,,,,MVFR,,,,,,,,,,,,METAR,55.0
KHQZ 140415Z AUTO 15005KT 10SM CLR 06/01 A2993 RMK AO1 T00590014,KHQZ,2021-01-14T04:15:00Z,32.75,-96.53,5.9,1.4,150,5,,10.0,29.929134,,,TRUE,TRUE,,,,,,,CLR,,,,,,,,VFR,,,,,,,,,,,,METAR,136.0
KHQU 140415Z AUTO 32003KT 7SM HZ CLR 02/ A2998 RMK AO2 T0019////,KHQU,2021-01-14T04:15:00Z,33.53,-82.52,1.9,,320,3,,7.0,29.97933,,,TRUE,TRUE,,,,,,HZ,CLR,,,,,,,,VFR,,,,,,,,,,,,METAR,141.0
KHQG 140415Z AUTO 25008KT 10SM CLR 08/M01 A2978 RMK AO2 T00761009,KHQG,2021-01-14T04:15:00Z,37.17,-101.37,7.6,-0.9,250,8,,10.0,29.778543,,,TRUE,TRUE,,,,,,,CLR,,,,,,,,VFR,,,,,,,,,,,,METAR,956.0
KHQG 140415Z AUTO 25008KT 10SM CLR 08/M01 A2978 RMK AO2 T00761009,KHQG,2021-01-14T04:15:00Z,37.17,-101.37,7.6,-0.9,250,8,,10.0,29.778543,,,TRUE,TRUE,,,,,,,CLR,,,,,,,,VFR,,,,,,,,,,,,METAR,956.0
KHPT 140415Z AUTO 22004KT 10SM CLR M01/M02 A2954 RMK AO2,KHPT,2021-01-14T04:15:00Z,42.72,-93.23,-1.0,-2.0,220,4,,10.0,29.53937,,,TRUE,TRUE,,,,,,,CLR,,,,,,,,VFR,,,,,,,,,,,,METAR,354.0
KHNR 140415Z AUTO 21004KT 10SM CLR 01/00 A2954 RMK AO2,KHNR,2021-01-14T04:15:00Z,41.58,-95.33,1.0,0.0,210,4,,10.0,29.53937,,,TRUE,TRUE,,,,,,,CLR,,,,,,,,VFR,,,,,,,,,,,,METAR,364.0
KHMZ 140415Z AUTO 00000KT 10SM BKN120 M02/M05 A2984 RMK AO2 T10251050,KHMZ,2021-01-14T04:15:00Z,40.08,-78.52,-2.5,-5.0,0,0,,10.0,29.840551,,,TRUE,TRUE,,,,,,,BKN,12000,,,,,,,VFR,,,,,,,,,,,,METAR,351.0
KHMP 140415Z AUTO 00000KT 10SM CLR 00/M02 A3004 RMK AO2 T10031025,KHMP,2021-01-14T04:15:00Z,33.38,-84.33,-0.3,-2.5,0,0,,10.0,30.041338,,,TRUE,TRUE,,,,,,,CLR,,,,,,,,VFR,,,,,,,,,,,,METAR,263.0
KHLX 140415Z AUTO 26004KT 10SM CLR 00/M03 A2986 RMK AO2 T10031030,KHLX,2021-01-14T04:15:00Z,36.77,-80.82,-0.3,-3.0,260,4,,10.0,29.861221,,,TRUE,TRUE,,,,,,,CLR,,,,,,,,VFR,,,,,,,,,,,,METAR,819.0
KHLB 140415Z AUTO VRB05KT 10SM FEW110 04/M02 A2983 RMK A01,KHLB,2021-01-14T04:15:00Z,,,4.0,-2.0,0,5,,10.0,29.828741,,,TRUE,TRUE,,,,,,,FEW,11000,,,,,,,VFR,,,,,,,,,,,,METAR,
KHJH 140415Z AUTO 22009KT 10SM SCT085 BKN110 12/M01 A2956 RMK AO2 T01151012,KHJH,2021-01-14T04:15:00Z,40.15,-97.58,11.5,-1.2,220,9,,10.0,29.56004,,,TRUE,TRUE,,,,,,,SCT,8500,BKN,11000,,,,,VFR,,,,,,,,,,,,METAR,449.0
KHII 140415Z AUTO 00000KT 10SM CLR 15/M12 A3018 RMK AO2,KHII,2021-01-14T04:15:00Z,34.57,-114.37,15.0,-12.0,0,0,,10.0,30.180119,,,TRUE,TRUE,,,,,,,CLR,,,,,,,,VFR,,,,,,,,,,,,METAR,241.0
KHHW 140415Z AUTO 18010KT 10SM CLR 07/M02 A2989 RMK AO2,KHHW,2021-01-14T04:15:00Z,34.03,-95.55,7.0,-2.0,180,10,,10.0,29.890747,,,TRUE,TRUE,,,,,,,CLR,,,,,,,,VFR,,,,,,,,,,,,METAR,178.0
KHHG 140415Z AUTO 23006KT 10SM OVC110 04/M02 A2977 RMK AO2 T00411016,KHHG,2021-01-14T04:15:00Z,40.85,-85.45,4.1,-1.6,230,6,,10.0,29.769686,,,TRUE,TRUE,,,,,,,OVC,11000,,,,,,,VFR,,,,,,,,,,,,METAR,247.0
KHHF 140415Z AUTO 23005KT 10SM CLR 03/M05 A2979 RMK AO2 T00251055,KHHF,2021-01-14T04:15:00Z,35.9,-100.4,2.5,-5.5,230,5,,10.0,29.790354,,,TRUE,TRUE,,,,,,,CLR,,,,,,,,VFR,,,,,,,,,,,,METAR,729.0
KHFY 140415Z AUTO 20008KT 10SM CLR 04/M02 A2981 RMK AO2 T00371016,KHFY,2021-01-14T04:15:00Z,39.63,-86.08,3.7,-1.6,200,8,,10.0,29.811024,,,TRUE,TRUE,,,,,,,CLR,,,,,,,,VFR,,,,,,,,,,,,METAR,250.0
KHFJ 140415Z AUTO 22011KT 10SM CLR 06/M01 A2975 RMK AO2,KHFJ,2021-01-14T04:15:00Z,36.9,-94.02,6.0,-1.0,220,11,,10.0,29.749016,,,TRUE,TRUE,,,,,,,CLR,,,,,,,,VFR,,,,,,,,,,,,METAR,398.0
KHEQ 140415Z AUTO 29015G19KT 10SM CLR 12/M02 A2972 RMK AO2,KHEQ,2021-01-14T04:15:00Z,40.57,-102.28,12.0,-2.0,290,15,19,10.0,29.719488,,,TRUE,TRUE,,,,,,,CLR,,,,,,,,VFR,,,,,,,,,,,,METAR,1136.0
KHEG 140415Z AUTO 24006KT BKN016 OVC080 08/06 A3009 RMK AO2,KHEG,2021-01-14T04:15:00Z,30.28,-81.8,8.0,6.0,240,6,,,30.088583,,,TRUE,TRUE,,,,,,,BKN,1600,OVC,8000,,,,,,,,,,,,,,,,,METAR,25.0
KHDE 140415Z AUTO 27014KT 10SM CLR 12/00 A2959 RMK AO2 T01151002,KHDE,2021-01-14T04:15:00Z,40.45,-99.33,11.5,-0.2,270,14,,10.0,29.589567,,,TRUE,TRUE,,,,,,,CLR,,,,,,,,VFR,,,,,,,,,,,,METAR,703.0
KHDC 140415Z AUTO 00000KT 10SM CLR 05/02 A3009 RMK AO2,KHDC,2021-01-14T04:15:00Z,30.52,-90.42,5.0,2.0,0,0,,10.0,30.088583,,,TRUE,TRUE,,,,,,,CLR,,,,,,,,VFR,,,,,,,,,,,,METAR,12.0
KHCR 140415Z AUTO 03013KT 10SM SCT070 SCT080 03/M05 A3027 RMK AO2,KHCR,2021-01-14T04:15:00Z,40.48,-111.43,3.0,-5.0,30,13,,10.0,30.268702,,,TRUE,TRUE,,,,,,,SCT,7000,SCT,8000,,,,,VFR,,,,,,,,,,,,METAR,1708.0
KHCO 140415Z AUTO 17006KT 10SM OVC031 01/00 A2937 RMK AO2,KHCO,2021-01-14T04:15:00Z,48.75,-96.93,1.0,0.0,170,6,,10.0,29.371063,,,TRUE,TRUE,,,,,,,OVC,3100,,,,,,,VFR,,,,,,,,,,,,METAR,250.0
KHCD 140415Z AUTO 12003KT 10SM CLR 01/00 A2950 RMK AO2 T00080002,KHCD,2021-01-14T04:15:00Z,44.87,-94.38,0.8,0.2,120,3,,10.0,29.500984,,,TRUE,TRUE,,,,,,,CLR,,,,,,,,VFR,,,,,,,,,,,,METAR,320.0
KHBV 140415Z AUTO 22006KT 10SM CLR 07/M02 A3008 RMK AO2 T00671025,KHBV,2021-01-14T04:15:00Z,27.35,-98.73,6.7,-2.5,220,6,,10.0,30.079725,,,TRUE,TRUE,,,,,,,CLR,,,,,,,,VFR,,,,,,,,,,,,METAR,200.0
KHBI 140415Z AUTO 24003KT 5SM BR OVC006 05/05 A2994 RMK AO2 T00500045,KHBI,2021-01-14T04:15:00Z,35.65,-79.9,5.0,4.5,240,3,,5.0,29.940945,,,TRUE,TRUE,,,,,,BR,OVC,600,,,,,,,IFR,,,,,,,,,,,,METAR,199.0
KHAI 140415Z AUTO 20004KT 10SM BKN095 OVC110 02/00 A2974 RMK AO2 T00230000,KHAI,2021-01-14T04:15:00Z,41.97,-85.6,2.3,0.0,200,4,,10.0,29.740158,,,TRUE,TRUE,,,,,,,BKN,9500,OVC,11000,,,,,VFR,,,,,,,,,,,,METAR,250.0
KHAF 140415Z AUTO 34006KT 3SM -RA BKN003 12/11 A3035 RMK AO2,KHAF,2021-01-14T04:15:00Z,37.52,-122.5,12.0,11.0,340,6,,3.0,30.351377,,,TRUE,TRUE,,,,,,-RA,BKN,300,,,,,,,LIFR,,,,,,,,,,,,METAR,11.0
KHAE 140415Z AUTO 20009KT 10SM CLR 05/M03 A2967 RMK AO2,KHAE,2021-01-14T04:15:00Z,39.73,-91.45,5.0,-3.0,200,9,,10.0,29.66929,,,TRUE,TRUE,,,,,,,CLR,,,,,,,,VFR,,,,,,,,,,,,SPECI,230.0
KGZS 140415Z AUTO 16005KT 10SM CLR 00/M01 A2997 RMK A01,KGZS,2021-01-14T04:15:00Z,35.15,-87.05,0.0,-1.0,160,5,,10.0,29.970472,,,TRUE,TRUE,,,,,,,CLR,,,,,,,,VFR,,,,,,,,,,,,SPECI,198.0
KGZL 140415Z AUTO 20010G16KT 10SM CLR 09/M05 A2982 RMK AO2,KGZL,2021-01-14T04:15:00Z,35.28,-95.1,9.0,-5.0,200,10,16,10.0,29.819881,,,TRUE,TRUE,,,,,,,CLR,,,,,,,,VFR,,,,,,,,,,,,METAR,176.0
KGYY 140415Z AUTO 00000KT 10SM OVC100 04/00 A2972 RMK AO2 T00400003,KGYY,2021-01-14T04:15:00Z,41.62,-87.42,4.0,0.3,0,0,,10.0,29.719488,,,TRUE,TRUE,,,,,,,OVC,10000,,,,,,,VFR,,,,,,,,,,,,METAR,179.0
KGYL 140415Z AUTO 13003KT 7SM CLR 00/M01 A2948 RMK AO2 T00001010,KGYL,2021-01-14T04:15:00Z,44.77,-94.08,0.0,-1.0,130,3,,7.0,29.480314,,,TRUE,TRUE,,,,,,,CLR,,,,,,,,VFR,,,,,,,,,,,,METAR,304.0
KGYI 140415Z AUTO 19013KT 10SM CLR 09/03 A2987 RMK AO2 T00900028,KGYI,2021-01-14T04:15:00Z,33.72,-96.67,9.0,2.8,190,13,,10.0,29.870079,,,TRUE,TRUE,,,,,,,CLR,,,,,,,,VFR,,,,,,,,,,,,METAR,227.0
KGYF 140415Z AUTO 21006KT 10SM SCT027 20/12 A3010 RMK AO2 T02020119,KGYF,2021-01-14T04:15:00Z,,,20.2,11.9,210,6,,10.0,30.100393,,,TRUE,TRUE,,,,,,,SCT,2700,,,,,,,VFR,,,,,,,,,,,,METAR,
KGYB 140415Z AUTO 19007KT 10SM CLR 10/04 A3002 RMK AO2 T01010040,KGYB,2021-01-14T04:15:00Z,30.17,-96.98,10.1,4.0,190,7,,10.0,30.02067,,,TRUE,TRUE,,,,,,,CLR,,,,,,,,VFR,,,,,,,,,,,,METAR,140.0
KGWW 140415Z AUTO 21005KT 7SM CLR 06/06 A2995 RMK AO2 T00580058,KGWW,2021-01-14T04:15:00Z,35.47,-77.97,5.8,5.8,210,5,,7.0,29.949802,,,TRUE,TRUE,,,,,,,CLR,,,,,,,,VFR,,,,,,,,,,,,SPECI,40.0
KGWR 140415Z AUTO 27005KT 3SM BR BKN014 BKN034 OVC043 02/02 A2943 RMK A01,KGWR,2021-01-14T04:15:00Z,46.22,-97.65,2.0,2.0,270,5,,3.0,29.430119,,,TRUE,TRUE,,,,,,BR,BKN,1400,BKN,3400,OVC,4300,,,MVFR,,,,,,,,,,,,METAR,381.0
KGWB 140415Z AUTO 22004KT 10SM BKN080 04/00 A2977 RMK AO2,KGWB,2021-01-14T04:15:00Z,41.3,-85.07,4.0,0.0,220,4,,10.0,29.769686,,,TRUE,TRUE,,,,,,,BKN,8000,,,,,,,VFR,,,,,,,,,,,,METAR,268.0
KGVT 140415Z AUTO 17008KT 10SM CLR 07/02 A2992 RMK AO2,KGVT,2021-01-14T04:15:00Z,33.07,-96.07,7.0,2.0,170,8,,10.0,29.920275,,,TRUE,TRUE,,,,,,,CLR,,,,,,,,VFR,,,,,,,,,,,,METAR,165.0
KGVE 140415Z AUTO 00000KT 10SM CLR M03/M04 A2986 RMK AO1 T10271043,KGVE,2021-01-14T04:15:00Z,38.15,-78.17,-2.7,-4.3,0,0,,10.0,29.861221,,,TRUE,TRUE,,,,,,,CLR,,,,,,,,VFR,,,,,,,,,,,,SPECI,138.0
KGRN 140415Z AUTO 32013G26KT 4SM -SN SCT006 BKN013 OVC020 01/00 A2977 RMK AO2 T00100000,KGRN,2021-01-14T04:15:00Z,42.8,-102.17,1.0,0.0,320,13,26,4.0,29.769686,,,TRUE,TRUE,,,,,,-SN,SCT,600,BKN,1300,OVC,2000,,,MVFR,,,,,,,,,,,,METAR,1080.0
KGPM 140415Z AUTO 18007KT 10SM CLR 09/03 A2992 RMK AO2 T00870027,KGPM,2021-01-14T04:15:00Z,32.7,-97.05,8.7,2.7,180,7,,10.0,29.920275,,,TRUE,TRUE,,,,,,,CLR,,,,,,,,VFR,,,,,,,,,,,,METAR,178.0
KGPH 140415Z AUTO 19005KT 10SM CLR 07/00 A2964 RMK AO2,KGPH,2021-01-14T04:15:00Z,39.33,-94.32,7.0,0.0,190,5,,10.0,29.639763,,,TRUE,TRUE,,,,,,,CLR,,,,,,,,VFR,,,,,,,,,,,,SPECI,233.0
KGPC 140415Z AUTO 21011KT 10SM CLR 04/M02 A2979 RMK AO2 T00421019,KGPC,2021-01-14T04:15:00Z,39.63,-86.82,4.2,-1.9,210,11,,10.0,29.790354,,,TRUE,TRUE,,,,,,,CLR,,,,,,,,VFR,,,,,,,,,,,,METAR,254.0
KGOP 140415Z AUTO 20006KT 10SM CLR 08/02 A2997 RMK AO2,KGOP,2021-01-14T04:15:00Z,31.42,-97.8,8.0,2.0,200,6,,10.0,29.970472,,,TRUE,TRUE,,,,,,,CLR,,,,,,,,VFR,,,,,,,,,,,,METAR,272.0
KGOO 140415Z AUTO 00000KT 10SM CLR 11/09 A3040 RMK A01,KGOO,2021-01-14T04:15:00Z,39.22,-121.0,11.0,9.0,0,0,,10.0,30.398623,,,TRUE,TRUE,,,,,,,CLR,,,,,,,,VFR,,,,,,,,,,,,METAR,950.0
KGNT 140415Z AUTO 33010G16KT 10SM CLR 00/M14 A3026 RMK AO2 T10011138,KGNT,2021-01-14T04:15:00Z,35.17,-107.9,-0.1,-13.8,330,10,16,10.0,30.259842,,,TRUE,TRUE,,,,,,,CLR,,,,,,,,VFR,,,,,,,,,,,,METAR,1988.0
KGNG 140415Z AUTO 25009KT 10SM CLR M00/M02 A3046 RMK AO2,KGNG,2021-01-14T04:15:00Z,,,0.0,-2.0,250,9,,10.0,30.46063,,,TRUE,TRUE,,,,,,,CLR,,,,,,,,VFR,,,,,,,,,,,,METAR,
KGNC 140415Z AUTO 26014KT 10SM CLR 07/M04 A2995 RMK AO2 T00691036,KGNC,2021-01-14T04:15:00Z,32.68,-102.65,6.9,-3.6,260,14,,10.0,29.949802,,,TRUE,TRUE,,,,,,,CLR,,,,,,,,VFR,,,,,,,,,,,,METAR,1002.0
KGMJ 140415Z AUTO 21009G14KT 10SM CLR 08/00 A2979 RMK AO2,KGMJ,2021-01-14T04:15:00Z,36.6,-94.73,8.0,0.0,210,9,14,10.0,29.790354,,,TRUE,TRUE,,,,,,,CLR,,,,,,,,VFR,,,,,,,,,,,,SPECI,251.0
KGLY 140415Z AUTO 21008KT 10SM CLR 06/M01 A2969 RMK AO2,KGLY,2021-01-14T04:15:00Z,38.35,-93.68,6.0,-1.0,210,8,,10.0,29.68996,,,TRUE,TRUE,,,,,,,CLR,,,,,,,,VFR,,,,,,,,,,,,METAR,247.0
KGLW 140415Z AUTO 18004KT 10SM CLR 02/M01 A2990 RMK AO2 T00221015,KGLW,2021-01-14T04:15:00Z,37.03,-85.95,2.2,-1.5,180,4,,10.0,29.899607,,,TRUE,TRUE,,,,,,,CLR,,,,,,,,VFR,,,,,,,,,,,,SPECI,216.0
KGLE 140415Z AUTO 19006KT 10SM CLR 06/M01 A2987 RMK AO2 T00591006,KGLE,2021-01-14T04:15:00Z,33.65,-97.2,5.9,-0.6,190,6,,10.0,29.870079,,,TRUE,TRUE,,,,,,,CLR,,,,,,,,VFR,,,,,,,,,,,,METAR,250.0
KGIC 140415Z AUTO 23009G14KT 10SM CLR 00/M05 A3043 RMK AO1,KGIC,2021-01-14T04:15:00Z,45.95,-116.12,0.0,-5.0,230,9,14,10.0,30.431103,,,TRUE,TRUE,,,,,,,CLR,,,,,,,,VFR,,,,,,,,,,,,METAR,1002.0
KGHW 140415Z AUTO 15003KT 10SM CLR 01/M01 A2945 RMK AO2,KGHW,2021-01-14T04:15:00Z,45.63,-95.32,1.0,-1.0,150,3,,10.0,29.450787,,,TRUE,TRUE,,,,,,,CLR,,,,,,,,VFR,,,,,,,,,,,,METAR,423.0
KGHG 140415Z AUTO 00000KT 10SM OVC039 02/M02 A2990 RMK AO2,KGHG,2021-01-14T04:15:00Z,42.1,-70.67,2.0,-2.0,0,0,,10.0,29.899607,,,TRUE,TRUE,,,,,,,OVC,3900,,,,,,,VFR,,,,,,,,,,,,METAR,3.0
KGGP 140415Z AUTO 22008KT 10SM BKN110 03/00 A2978 RMK AO2,KGGP,2021-01-14T04:15:00Z,40.72,-86.37,3.0,0.0,220,8,,10.0,29.778543,,,TRUE,TRUE,,,,,,,BKN,11000,,,,,,,VFR,,,,,,,,,,,,METAR,224.0
KGDJ 140415Z AUTO 00000KT 10SM CLR 06/01 A2991 RMK AO2 T00640014,KGDJ,2021-01-14T04:15:00Z,32.45,-97.82,6.4,1.4,0,0,,10.0,29.911417,,,TRUE,TRUE,,,,,,,CLR,,,,,,,,VFR,,,,,,,,,,,,METAR,235.0
KGDB 140415Z AUTO 19005KT 10SM CLR 03/00 A2948 RMK AO2 T00250002,KGDB,2021-01-14T04:15:00Z,44.75,-95.55,2.5,0.2,190,5,,10.0,29.480314,,,TRUE,TRUE,,,,,,,CLR,,,,,,,,VFR,,,,,,,,,,,,METAR,316.0
KGCY 140415Z AUTO 00000KT 10SM CLR M02/M03 A2994 RMK A01,KGCY,2021-01-14T04:15:00Z,36.2,-82.82,-2.0,-3.0,0,0,,10.0,29.940945,,,TRUE,TRUE,,,,,,,CLR,,,,,,,,VFR,,,,,,,,,,,,SPECI,488.0
KGCM 140415Z AUTO 19004KT 10SM CLR 06/M02 A2980 RMK AO2,KGCM,2021-01-14T04:15:00Z,36.3,-95.48,6.0,-2.0,190,4,,10.0,29.799213,,,TRUE,TRUE,,,,,,,CLR,,,,,,,,VFR,,,,,,,,,,,,METAR,215.0
KGBG 140415Z AUTO 16005KT 10SM CLR 01/M02 A2967 RMK AO2 T00091023,KGBG,2021-01-14T04:15:00Z,40.93,-90.43,0.9,-2.3,160,5,,10.0,29.66929,,,TRUE,TRUE,,,,,,,CLR,,,,,,,,VFR,,,,,,,,,,,,METAR,230.0
KGAO 140415Z AUTO 24003KT 10SM CLR 04/03 A3012 RMK AO2 T00420033,KGAO,2021-01-14T04:15:00Z,29.45,-90.27,4.2,3.3,240,3,,10.0,30.121063,,,TRUE,TRUE,,,,,,,CLR,,,,,,,,VFR,,,,,,,,,,,,SPECI,0.0
KFZG 140415Z AUTO 26004KT 10SM CLR 04/03 A3005 RMK AO2 T00420026,KFZG,2021-01-14T04:15:00Z,31.68,-83.27,4.2,2.6,260,4,,10.0,30.050198,,,TRUE,TRUE,,,,,,,CLR,,,,,,,,VFR,,,,,,,,,,,,METAR,105.0
KFYM 140415Z AUTO 20006KT 9SM CLR M00/M01 A2999 RMK A01,KFYM,2021-01-14T04:15:00Z,35.07,-86.57,0.0,-1.0,200,6,,9.0,29.991142,,,TRUE,TRUE,,,,,,,CLR,,,,,,,,VFR,,,,,,,,,,,,SPECI,297.0
KFYE 140415Z AUTO 19008G14KT 10SM CLR 06/01 A2991 RMK A01,KFYE,2021-01-14T04:15:00Z,35.2,-89.38,6.0,1.0,190,8,14,10.0,29.911417,,,TRUE,TRUE,,,,,,,CLR,,,,,,,,VFR,,,,,,,,,,,,SPECI,133.0
KFXY 140415Z AUTO 14004KT 10SM CLR 00/00 A2951 RMK AO2,KFXY,2021-01-14T04:15:00Z,43.23,-93.62,0.0,0.0,140,4,,10.0,29.509842,,,TRUE,TRUE,,,,,,,CLR,,,,,,,,VFR,,,,,,,,,,,,METAR,366.0
KFWZ 140415Z AUTO 10SM CLR M05/M18 A2998 RMK AO2,KFWZ,2021-01-14T04:15:00Z,42.52,-108.78,-5.0,-18.0,,,,10.0,29.97933,,,TRUE,TRUE,,,,,,,CLR,,,,,,,,VFR,,,,,,,,,,,,METAR,2605.0
KFWS 140415Z AUTO 00000KT 10SM CLR 07/03 A2991 RMK AO2 T00680025 PWINO,KFWS,2021-01-14T04:15:00Z,32.57,-97.3,6.8,2.5,0,0,,10.0,29.911417,,,TRUE,TRUE,,,,,TRUE,,CLR,,,,,,,,VFR,,,,,,,,,,,,METAR,211.0
KFWC 140415Z AUTO 18003KT 10SM CLR 02/M01 A2980 RMK AO1 T00231010,KFWC,2021-01-14T04:15:00Z,38.38,-88.42,2.3,-1.0,180,3,,10.0,29.799213,,,TRUE,TRUE,,,,,,,CLR,,,,,,,,VFR,,,,,,,,,,,,METAR,131.0
KFWB 140415Z AUTO 25006KT 10SM CLR 06/M03 A2976 RMK AO2,KFWB,2021-01-14T04:15:00Z,36.7,-93.4,6.0,-3.0,250,6,,10.0,29.760826,,,TRUE,TRUE,,,,,,,CLR,,,,,,,,VFR,,,,,,,,,,,,METAR,392.0
KFSW 140415Z AUTO 19007KT 10SM CLR 04/M01 A2965 RMK AO2,KFSW,2021-01-14T04:15:00Z,40.67,-91.32,4.0,-1.0,190,7,,10.0,29.648623,,,TRUE,TRUE,,,,,,,CLR,,,,,,,,VFR,,,,,,,,,,,,METAR,219.0
KFSO 140415Z AUTO 18007KT 10SM OVC031 01/M04 A2980 RMK AO2 T00081044,KFSO,2021-01-14T04:15:00Z,44.93,-73.1,0.8,-4.4,180,7,,10.0,29.799213,,,TRUE,TRUE,,,,,,,OVC,3100,,,,,,,VFR,,,,,,,,,,,,METAR,70.0
KFSE 140415Z AUTO 17006KT 10SM CLR 00/M03 A2940 RMK AO2,KFSE,2021-01-14T04:15:00Z,47.58,-95.77,0.0,-3.0,170,6,,10.0,29.40059,,,TRUE,TRUE,,,,,,,CLR,,,,,,,,VFR,,,,,,,,,,,,METAR,389.0
KFRH 140415Z AUTO 22005KT 10SM CLR 05/M02 A2985 RMK AO1,KFRH,2021-01-14T04:15:00Z,38.5,-86.63,5.0,-2.0,220,5,,10.0,29.84941,,,TRUE,TRUE,,,,,,,CLR,,,,,,,,VFR,,,,,,,,,,,,METAR,241.0
KFQD 140415Z AUTO 19003KT 5SM BR OVC004 03/03 A2993 RMK AO2,KFQD,2021-01-14T04:15:00Z,35.42,-81.93,3.0,3.0,190,3,,5.0,29.929134,,,TRUE,TRUE,,,,,,BR,OVC,400,,,,,,,LIFR,,,,,,,,,,,,METAR,325.0
KFPY 140415Z AUTO 1/2SM FG OVC003 03/02 A3010 RMK AO2 T00250021,KFPY,2021-01-14T04:15:00Z,30.07,-83.57,2.5,2.1,,,,0.5,30.100393,,,TRUE,TRUE,,,,,,FG,OVC,300,,,,,,,LIFR,,,,,,,,,,,,METAR,12.0
KFPK 140415Z AUTO 22006KT 7SM -DZ BKN042 BKN055 OVC070 03/01 A2971 RMK AO2 T00250006,KFPK,2021-01-14T04:15:00Z,42.57,-84.82,2.5,0.6,220,6,,7.0,29.71063,,,TRUE,TRUE,,,,,,-DZ,BKN,4200,BKN,5500,OVC,7000,,,VFR,,,,,,,,,,,,METAR,269.0
KFOT 140415Z AUTO 00000KT M1/4SM OVC002 12/12 A3040 RMK AO1,KFOT,2021-01-14T04:15:00Z,40.55,-124.13,12.0,12.0,0,0,,0.25,30.398623,,,TRUE,TRUE,,,,,,,OVC,200,,,,,,,LIFR,,,,,,,,,,,,METAR,118.0
KFOA 140415Z AUTO 19008KT 10SM CLR 02/M01 A2980 RMK AO2,KFOA,2021-01-14T04:15:00Z,38.67,-88.45,2.0,-1.0,190,8,,10.0,29.799213,,,TRUE,TRUE,,,,,,,CLR,,,,,,,,VFR,,,,,,,,,,,,METAR,141.0
KFMM 140415Z AUTO 23008KT 10SM CLR 02/M04 A2981 RMK AO2 T00151045,KFMM,2021-01-14T04:15:00Z,40.33,-103.8,1.5,-4.5,230,8,,10.0,29.811024,,,TRUE,TRUE,,,,,,,CLR,,,,,,,,VFR,,,,,,,,,,,,METAR,1376.0
KFME 140415Z AUTO 00000KT 7SM CLR M02/M02 A2991 RMK AO1,KFME,2021-01-14T04:15:00Z,39.08,-76.77,-2.0,-2.0,0,0,,7.0,29.911417,,,TRUE,TRUE,,,,,,,CLR,,,,,,,,VFR,,,,,,,,,,,,METAR,43.0
KFLY 140415Z AUTO 29007KT 10SM CLR 04/M07 A2992 RMK AO2 T00441067,KFLY,2021-01-14T04:15:00Z,38.95,-104.57,4.4,-6.7,290,7,,10.0,29.920275,,,TRUE,TRUE,,,,,,,CLR,,,,,,,,VFR,,,,,,,,,,,,METAR,2096.0
KFKS 140415Z AUTO 12003KT 4SM BR OVC011 02/00 A2968 RMK AO2 T00170000,KFKS,2021-01-14T04:15:00Z,44.63,-86.2,1.7,0.0,120,3,,4.0,29.681103,,,TRUE,TRUE,,,,,,BR,OVC,1100,,,,,,,MVFR,,,,,,,,,,,,METAR,189.0
KFKR 140415Z AUTO 21011KT 10SM BKN110 03/M01 A2977 RMK AO2,KFKR,2021-01-14T04:15:00Z,40.27,-86.57,3.0,-1.0,210,11,,10.0,29.769686,,,TRUE,TRUE,,,,,,,BKN,11000,,,,,,,VFR,,,,,,,,,,,,METAR,260.0
KFKN 140415Z AUTO 00000KT 10SM CLR 00/M01 A2993 RMK AO2 T10011012,KFKN,2021-01-14T04:15:00Z,36.7,-76.9,-0.1,-1.2,0,0,,10.0,29.929134,,,TRUE,TRUE,,,,,,,CLR,,,,,,,,VFR,,,,,,,,,,,,METAR,9.0
KFKA 140415Z AUTO 18007KT 10SM CLR M02/M03 A2956 RMK AO2 T10161030,KFKA,2021-01-14T04:15:00Z,43.68,-92.17,-1.6,-3.0,180,7,,10.0,29.56004,,,TRUE,TRUE,,,,,,,CLR,,,,,,,,VFR,,,,,,,,,,,,METAR,388.0
KFHB 140415Z AUTO 26006KT 10SM SCT016 BKN080 07/ A3007 RMK AO2 T0073////,KFHB,2021-01-14T04:15:00Z,30.62,-81.47,7.3,,260,6,,10.0,30.070866,,,TRUE,TRUE,,,,,,,SCT,1600,BKN,8000,,,,,VFR,,,,,,,,,,,,METAR,4.0
KFGX 140415Z AUTO 24007KT 220V320 10SM CLR 01/M03 A2990 RMK AO2 T00101031,KFGX,2021-01-14T04:15:00Z,38.55,-83.75,1.0,-3.1,240,7,,10.0,29.899607,,,TRUE,TRUE,,,,,,,CLR,,,,,,,,VFR,,,,,,,,,,,,METAR,279.0
KFFM 140415Z AUTO 16008KT 10SM SCT029 02/00 A2946 RMK AO2,KFFM,2021-01-14T04:15:00Z,46.28,-96.15,2.0,0.0,160,8,,10.0,29.459646,,,TRUE,TRUE,,,,,,,SCT,2900,,,,,,,VFR,,,,,,,,,,,,METAR,362.0
KFFL 140415Z AUTO 18007KT 10SM CLR 02/01 A2961 RMK A01,KFFL,2021-01-14T04:15:00Z,41.05,-91.97,2.0,1.0,180,7,,10.0,29.610237,,,TRUE,TRUE,,,,,,,CLR,,,,,,,,VFR,,,,,,,,,,,,METAR,240.0
KFET 140415Z AUTO 00000KT 10SM CLR 04/01 A2953 RMK AO2 T00410014,KFET,2021-01-14T04:15:00Z,41.45,-96.52,4.1,1.4,0,0,,10.0,29.530512,,,TRUE,TRUE,,,,,,,CLR,,,,,,,,VFR,,,,,,,,,,,,METAR,366.0
KFEP 140415Z AUTO 18007KT 10SM SCT110 00/M01 A2965 RMK AO2 T00011013,KFEP,2021-01-14T04:15:00Z,42.25,-89.58,0.1,-1.3,180,7,,10.0,29.648623,,,TRUE,TRUE,,,,,,,SCT,11000,,,,,,,VFR,,,,,,,,,,,,METAR,255.0
KFDW 140415Z AUTO 19004KT 2 1/2SM BR OVC003 03/03 A2996 RMK AO1,KFDW,2021-01-14T04:15:00Z,34.32,-81.12,3.0,3.0,190,4,,2.5,29.958662,,,TRUE,TRUE,,,,,,BR,OVC,300,,,,,,,LIFR,,,,,,,,,,,,METAR,174.0
KFDK 140415Z AUTO 00000KT 10SM CLR M02/M02 A2988 RMK AO2,KFDK,2021-01-14T04:15:00Z,39.42,-77.37,-2.0,-2.0,0,0,,10.0,29.878937,,,TRUE,TRUE,,,,,,,CLR,,,,,,,,VFR,,,,,,,,,,,,METAR,82.0
KFBL 140415Z AUTO 15004KT 10SM CLR 01/00 A2951 RMK AO2,KFBL,2021-01-14T04:15:00Z,44.33,-93.32,1.0,0.0,150,4,,10.0,29.509842,,,TRUE,TRUE,,,,,,,CLR,,,,,,,,VFR,,,,,,,,,,,,METAR,318.0
KF46 140415Z AUTO 15010KT 10SM CLR 08/02 A2992 RMK AO2 T00760017,KF46,2021-01-14T04:15:00Z,32.93,-96.43,7.6,1.7,150,10,,10.0,29.920275,,,TRUE,TRUE,,,,,,,CLR,,,,,,,,VFR,,,,,,,,,,,,METAR,175.0
KF44 140415Z AUTO 18005KT 10SM CLR 07/01 A2996 RMK AO2,KF44,2021-01-14T04:15:00Z,32.17,-95.83,7.0,1.0,180,5,,10.0,29.958662,,,TRUE,TRUE,,,,,,,CLR,,,,,,,,VFR,,,,,,,,,,,,METAR,137.0
KF17 140415Z AUTO 20006KT 10SM CLR 08/02 A3002 RMK AO2,KF17,2021-01-14T04:15:00Z,31.83,-94.15,8.0,2.0,200,6,,10.0,30.02067,,,TRUE,TRUE,,,,,,,CLR,,,,,,,,VFR,,,,,,,,,,,,METAR,93.0
KF05 140415Z AUTO 21007KT 10SM CLR 05/01 A2980 RMK AO2 T00500012,KF05,2021-01-14T04:15:00Z,34.23,-99.28,5.0,1.2,210,7,,10.0,29.799213,,,TRUE,TRUE,,,,,,,CLR,,,,,,,,VFR,,,,,,,,,,,,METAR,384.0
KF00 140415Z AUTO 18011KT 10SM CLR 08/02 A2988 RMK AO2 T00840022,KF00,2021-01-14T04:15:00Z,33.62,-96.18,8.4,2.2,180,11,,10.0,29.878937,,,TRUE,TRUE,,,,,,,CLR,,,,,,,,VFR,,,,,,,,,,,,METAR,189.0
KEZZ 140415Z AUTO 21007KT 10SM CLR 06/01 A2962 RMK AO2 T00560006,KEZZ,2021-01-14T04:15:00Z,39.72,-94.28,5.6,0.6,210,7,,10.0,29.619095,,,TRUE,TRUE,,,,,,,CLR,,,,,,,,VFR,,,,,,,,,,,,METAR,317.0
KEZF 140415Z AUTO 00000KT 10SM CLR M01/M02 A2988 RMK AO2 T10121021,KEZF,2021-01-14T04:15:00Z,38.27,-77.45,-1.2,-2.1,0,0,,10.0,29.878937,,,TRUE,TRUE,,,,,,,CLR,,,,,,,,VFR,,,,,,,,,,,,METAR,26.0
KEXX 140415Z AUTO 19004KT 7SM OVC008 05/05 A2991 RMK AO2 T00520052,KEXX,2021-01-14T04:15:00Z,35.78,-80.3,5.2,5.2,190,4,,7.0,29.911417,,,TRUE,TRUE,,,,,,,OVC,800,,,,,,,IFR,,,,,,,,,,,,METAR,221.0
KEVU 140415Z AUTO 21007KT 10SM CLR 07/00 A2958 RMK AO2 T00721006,KEVU,2021-01-14T04:15:00Z,40.35,-94.92,7.2,-0.6,210,7,,10.0,29.58071,,,TRUE,TRUE,,,,,,,CLR,,,,,,,,VFR,,,,,,,,,,,,METAR,351.0
KEVM 140415Z AUTO 05004KT 10SM CLR M07/M08 A2952 RMK AO2 T10751085,KEVM,2021-01-14T04:15:00Z,47.42,-92.5,-7.5,-8.5,50,4,,10.0,29.518702,,,TRUE,TRUE,,,,,,,CLR,,,,,,,,VFR,,,,,,,,,,,,METAR,419.0
KETN 140415Z AUTO 00000KT 10SM CLR 02/M02 A2988 RMK AO2 T00161017,KETN,2021-01-14T04:15:00Z,32.42,-98.82,1.6,-1.7,0,0,,10.0,29.878937,,,TRUE,TRUE,,,,,,,CLR,,,,,,,,VFR,,,,,,,,,,,,METAR,445.0
KETB 140415Z AUTO 00000KT 10SM OVC100 00/00 A2964 RMK AO2,KETB,2021-01-14T04:15:00Z,43.42,-88.13,0.0,0.0,0,0,,10.0,29.639763,,,TRUE,TRUE,,,,,,,OVC,10000,,,,,,,VFR,,,,,,,,,,,,METAR,269.0
KESN 140415Z AUTO 13003KT 10SM CLR 01/00 A2993 RMK AO2 T00110000,KESN,2021-01-14T04:15:00Z,38.8,-76.07,1.1,0.0,130,3,,10.0,29.929134,,,TRUE,TRUE,,,,,,,CLR,,,,,,,,VFR,,,,,,,,,,,,METAR,14.0
KERY 140415Z AUTO 22005KT 10SM OVC018 M01/M02 A2966 RMK AO2 T10061020,KERY,2021-01-14T04:15:00Z,46.3,-85.45,-0.6,-2.0,220,5,,10.0,29.660433,,,TRUE,TRUE,,,,,,,OVC,1800,,,,,,,MVFR,,,,,,,,,,,,METAR,261.0
KERV 140415Z AUTO 00000KT 10SM CLR 04/00 A3002 RMK AO2 T00361004,KERV,2021-01-14T04:15:00Z,29.98,-99.08,3.6,-0.4,0,0,,10.0,30.02067,,,TRUE,TRUE,,,,,,,CLR,,,,,,,,VFR,,,,,,,,,,,,METAR,483.0
KEQA 140415Z AUTO 21009KT 10SM CLR 08/01 A2968 RMK AO2,KEQA,2021-01-14T04:15:00Z,37.78,-96.82,8.0,1.0,210,9,,10.0,29.681103,,,TRUE,TRUE,,,,,,,CLR,,,,,,,,VFR,,,,,,,,,,,,SPECI,422.0
KEOK 140415Z AUTO 20008KT 10SM CLR 05/M00 A2964 RMK AO2,KEOK,2021-01-14T04:15:00Z,40.47,-91.42,5.0,0.0,200,8,,10.0,29.639763,,,TRUE,TRUE,,,,,,,CLR,,,,,,,,VFR,,,,,,,,,,,,METAR,206.0
KENL 140415Z AUTO 00000KT 10SM CLR 03/00 A2978 RMK AO2 T00290000,KENL,2021-01-14T04:15:00Z,38.52,-89.1,2.9,0.0,0,0,,10.0,29.778543,,,TRUE,TRUE,,,,,,,CLR,,,,,,,,VFR,,,,,,,,,,,,METAR,161.0
KEMM 140415Z AUTO 26017KT 10SM CLR M05/M13 A3025 RMK AO2,KEMM,2021-01-14T04:15:00Z,41.82,-110.55,-5.0,-13.0,260,17,,10.0,30.250984,,,TRUE,TRUE,,,,,,,CLR,,,,,,,,VFR,,,,,,,,,,,,METAR,2219.0
KELO 140415Z AUTO 00000KT 10SM CLR M13/M14 A2952 RMK AO2,KELO,2021-01-14T04:15:00Z,47.82,-91.83,-13.0,-14.0,0,0,,10.0,29.518702,,,TRUE,TRUE,,,,,,,CLR,,,,,,,,VFR,,,,,,,,,,,,METAR,438.0
KELK 140415Z AUTO 23006KT 10SM CLR 07/M02 A2977 RMK AO2 T00711025,KELK,2021-01-14T04:15:00Z,35.43,-99.4,7.1,-2.5,230,6,,10.0,29.769686,,,TRUE,TRUE,,,,,,,CLR,,,,,,,,VFR,,,,,,,,,,,,METAR,603.0
KELA 140415Z AUTO 10SM CLR 07/04 A3006 RMK AO2 T00720043,KELA,2021-01-14T04:15:00Z,29.6,-96.32,7.2,4.3,,,,10.0,30.059055,,,TRUE,TRUE,,,,,,,CLR,,,,,,,,VFR,,,,,,,,,,,,METAR,56.0
KEKS 140415Z AUTO 34008G15KT 300V020 10SM OVC065 M01/M16 A3025 RMK AO2,KEKS,2021-01-14T04:15:00Z,45.27,-111.65,-1.0,-16.0,340,8,15,10.0,30.250984,,,TRUE,TRUE,,,,,,,OVC,6500,,,,,,,VFR,,,,,,,,,,,,METAR,1636.0
KEIR 140415Z AUTO 19011KT 10SM FEW023 14/07 A3012 RMK A01,KEIR,2021-01-14T04:15:00Z,28.63,-91.48,14.0,7.0,190,11,,10.0,30.121063,,,TRUE,TRUE,,,,,,,FEW,2300,,,,,,,VFR,,,,,,,,,,,,SPECI,28.0
KEIK 140415Z AUTO 30016G32KT 10SM SCT100 12/M08 A2980 RMK AO2 T01241085,KEIK,2021-01-14T04:15:00Z,40.02,-105.05,12.4,-8.5,300,16,32,10.0,29.799213,,,TRUE,TRUE,,,,,,,SCT,10000,,,,,,,VFR,,,,,,,,,,,,METAR,1551.0
KEHY 140415Z AUTO 10SM OVC033 M01/M07 A2993 RMK AO2 PWINO,KEHY,2021-01-14T04:15:00Z,41.73,-106.47,-1.0,-7.0,,,,10.0,29.929134,,,TRUE,TRUE,,,,,TRUE,,OVC,3300,,,,,,,VFR,,,,,,,,,,,,METAR,2239.0
KEHO 140415Z AUTO 21006KT 4SM BR OVC003 03/03 A2994 RMK AO2 T00320030,KEHO,2021-01-14T04:15:00Z,35.25,-81.6,3.2,3.0,210,6,,4.0,29.940945,,,TRUE,TRUE,,,,,,BR,OVC,300,,,,,,,LIFR,,,,,,,,,,,,METAR,261.0
KEHA 140415Z AUTO 25010KT 10SM CLR 10/00 A2980 RMK AO2 T00950004,KEHA,2021-01-14T04:15:00Z,37.0,-101.87,9.5,0.4,250,10,,10.0,29.799213,,,TRUE,TRUE,,,,,,,CLR,,,,,,,,VFR,,,,,,,,,,,,METAR,1103.0
KEGV 140415Z AUTO 00000KT 7SM SCT002 M09/M10 A2959 RMK AO2 T10941098,KEGV,2021-01-14T04:15:00Z,45.93,-89.27,-9.4,-9.8,0,0,,7.0,29.589567,,,TRUE,TRUE,,,,,,,SCT,200,,,,,,,VFR,,,,,,,,,,,,METAR,499.0
KEFT 140415Z AUTO 18006KT 10SM CLR 00/M02 A2961 RMK AO2 T00001017,KEFT,2021-01-14T04:15:00Z,42.62,-89.6,0.0,-1.7,180,6,,10.0,29.610237,,,TRUE,TRUE,,,,,,,CLR,,,,,,,,VFR,,,,,,,,,,,,METAR,332.0
KEFK 140415Z AUTO 16004KT 10SM OVC035 M01/M05 A2980 RMK AO2 T10121047,KEFK,2021-01-14T04:15:00Z,44.88,-72.23,-1.2,-4.7,160,4,,10.0,29.799213,,,TRUE,TRUE,,,,,,,OVC,3500,,,,,,,VFR,,,,,,,,,,,,METAR,282.0
KEDU 140415Z AUTO 35008KT 9SM CLR 13/10 A3039 RMK AO1,KEDU,2021-01-14T04:15:00Z,38.53,-121.78,13.0,10.0,350,8,,9.0,30.389763,,,TRUE,TRUE,,,,,,,CLR,,,,,,,,VFR,,,,,,,,,,,,METAR,20.0
KEDN 140415Z AUTO 00000KT 10SM CLR 01/01 A3007 RMK AO2 T00090009,KEDN,2021-01-14T04:15:00Z,31.3,-85.9,0.9,0.9,0,0,,10.0,30.070866,,,TRUE,TRUE,,,,,,,CLR,,,,,,,,VFR,,,,,,,,,,,,SPECI,103.0
KEDJ 140415Z AUTO 23009KT 10SM CLR 04/M01 A2980 RMK AO1,KEDJ,2021-01-14T04:15:00Z,40.37,-83.82,4.0,-1.0,230,9,,10.0,29.799213,,,TRUE,TRUE,,,,,,,CLR,,,,,,,,VFR,,,,,,,,,,,,METAR,341.0
KEDE 140415Z AUTO 19004KT 10SM CLR 06/06 A2995 RMK AO2 T00600058,KEDE,2021-01-14T04:15:00Z,36.03,-76.57,6.0,5.8,190,4,,10.0,29.949802,,,TRUE,TRUE,,,,,,,CLR,,,,,,,,VFR,,,,,,,,,,,,METAR,4.0
KEDC 140415Z AUTO 21009KT 10SM CLR 08/02 A3001 RMK AO2,KEDC,2021-01-14T04:15:00Z,30.4,-97.57,8.0,2.0,210,9,,10.0,30.008858,,,TRUE,TRUE,,,,,,,CLR,,,,,,,,VFR,,,,,,,,,,,,METAR,184.0
KECU 140415Z AUTO 20006KT 10SM CLR 08/M02 A3006 RMK AO2,KECU,2021-01-14T04:15:00Z,29.95,-100.17,8.0,-2.0,200,6,,10.0,30.059055,,,TRUE,TRUE,,,,,,,CLR,,,,,,,,VFR,,,,,,,,,,,,METAR,725.0
KECS 140415Z AUTO 31031G39KT 10SM CLR 00/M09 A2981 RMK AO2,KECS,2021-01-14T04:15:00Z,43.88,-104.32,0.0,-9.0,310,31,39,10.0,29.811024,,,TRUE,TRUE,,,,,,,CLR,,,,,,,,VFR,,,,,,,,,,,,METAR,1273.0
KEBS 140415Z AUTO 20008KT 10SM CLR 00/00 A2953 RMK AO2,KEBS,2021-01-14T04:15:00Z,42.43,-93.87,0.0,0.0,200,8,,10.0,29.530512,,,TRUE,TRUE,,,,,,,CLR,,,,,,,,VFR,,,,,,,,,,,,METAR,340.0
KEBG 140415Z AUTO 17004KT 10SM CLR 09/05 A3012 RMK AO2 T00860045 TSNO,KEBG,2021-01-14T04:15:00Z,26.45,-98.13,8.6,4.5,170,4,,10.0,30.121063,,,TRUE,TRUE,,,TRUE,,,,CLR,,,,,,,,VFR,,,,,,,,,,,,METAR,21.0
KEAN 140415Z AUTO 10SM SCT055 BKN095 OVC110 02/M02 A2987 RMK AO2 T00231024,KEAN,2021-01-14T04:15:00Z,42.05,-104.93,2.3,-2.4,,,,10.0,29.870079,,,TRUE,TRUE,,,,,,,SCT,5500,BKN,9500,OVC,11000,,,VFR,,,,,,,,,,,,METAR,1452.0
KE41 140415Z AUTO 19008KT 10SM CLR 07/M03 A2997 RMK AO2 T00701031,KE41,2021-01-14T04:15:00Z,31.2,-101.47,7.0,-3.1,190,8,,10.0,29.970472,,,TRUE,TRUE,,,,,,,CLR,,,,,,,,VFR,,,,,,,,,,,,METAR,825.0
KE38 140415Z AUTO 25020G27KT 10SM CLR 10/M15 A3012 RMK AO2 T01011150,KE38,2021-01-14T04:15:00Z,30.38,-103.68,10.1,-15.0,250,20,27,10.0,30.121063,,,TRUE,TRUE,,,,,,,CLR,,,,,,,,VFR,,,,,,,,,,,,METAR,1372.0
KE16 140415Z AUTO 33008KT 10SM CLR 15/12 A3036 RMK AO2 PWINO PNO,KE16,2021-01-14T04:15:00Z,37.08,-121.6,15.0,12.0,330,8,,10.0,30.360237,,,TRUE,TRUE,,,,,TRUE,,CLR,,,,,,,,VFR,,,,,,,,,,,,METAR,84.0
KE11 140415Z AUTO 25010KT 10SM CLR 07/M05 A2993 RMK AO2 T00701050,KE11,2021-01-14T04:15:00Z,32.33,-102.53,7.0,-5.0,250,10,,10.0,29.929134,,,TRUE,TRUE,,,,,,,CLR,,,,,,,,VFR,,,,,,,,,,,,METAR,966.0
KDZJ 140415Z AUTO 22003KT 10SM CLR 00/M03 A2996 RMK AO2 T00021025,KDZJ,2021-01-14T04:15:00Z,34.85,-84.0,0.2,-2.5,220,3,,10.0,29.958662,,,TRUE,TRUE,,,,,,,CLR,,,,,,,,VFR,,,,,,,,,,,,SPECI,578.0
KDYT 140415Z AUTO 00000KT 4SM BR SCT100 M04/M05 A2957 RMK AO2,KDYT,2021-01-14T04:15:00Z,46.72,-92.03,-4.0,-5.0,0,0,,4.0,29.568897,,,TRUE,TRUE,,,,,,BR,SCT,10000,,,,,,,MVFR,,,,,,,,,,,,METAR,185.0
KDYB 140415Z AUTO VRB05KT 10SM BKN013 BKN050 OVC095 07/06 A3001 RMK AO2,KDYB,2021-01-14T04:15:00Z,33.07,-80.28,7.0,6.0,0,5,,10.0,30.008858,,,TRUE,TRUE,,,,,,,BKN,1300,BKN,5000,OVC,9500,,,MVFR,,,,,,,,,,,,SPECI,15.0
KDXX 140415Z AUTO 21005KT 10SM CLR 03/01 A2947 RMK AO2 PWINO,KDXX,2021-01-14T04:15:00Z,44.98,-96.18,3.0,1.0,210,5,,10.0,29.471457,,,TRUE,TRUE,,,,,TRUE,,CLR,,,,,,,,VFR,,,,,,,,,,,,METAR,327.0
KDWX 140415Z AUTO 28024G29KT 10SM CLR 00/M06 A3015 RMK AO2 T00021056,KDWX,2021-01-14T04:15:00Z,41.03,-107.5,0.2,-5.6,280,24,29,10.0,30.15059,,,TRUE,TRUE,,,,,,,CLR,,,,,,,,VFR,,,,,,,,,,,,METAR,1974.0
KDWA 140415Z AUTO 32008KT 9SM CLR 12/11 A3040 RMK AO2,KDWA,2021-01-14T04:15:00Z,38.58,-121.85,12.0,11.0,320,8,,9.0,30.398623,,,TRUE,TRUE,,,,,,,CLR,,,,,,,,VFR,,,,,,,,,,,,METAR,28.0
KDVO 140415Z AUTO 00000KT 2 1/2SM BR CLR 11/11 A3037 RMK AO2,KDVO,2021-01-14T04:15:00Z,38.15,-122.55,11.0,11.0,0,0,,2.5,30.369095,,,TRUE,TRUE,,,,,,BR,CLR,,,,,,,,IFR,,,,,,,,,,,,METAR,1.0
KDVK 140415Z AUTO 20008KT 10SM CLR 01/M02 A2990 RMK AO2,KDVK,2021-01-14T04:15:00Z,37.58,-84.77,1.0,-2.0,200,8,,10.0,29.899607,,,TRUE,TRUE,,,,,,,CLR,,,,,,,,VFR,,,,,,,,,,,,METAR,309.0
KDUX 140415Z AUTO 24008KT 10SM CLR 07/M05 A2982 RMK AO2 T00681047,KDUX,2021-01-14T04:15:00Z,35.85,-102.02,6.8,-4.7,240,8,,10.0,29.819881,,,TRUE,TRUE,,,,,,,CLR,,,,,,,,VFR,,,,,,,,,,,,METAR,1129.0
KDUH 140415Z AUTO 24009G14KT 210V270 10SM BKN065 OVC075 05/00 A2976 RMK AO2 T00520000,KDUH,2021-01-14T04:15:00Z,41.73,-83.65,5.2,0.0,240,9,14,10.0,29.760826,,,TRUE,TRUE,,,,,,,BKN,6500,OVC,7500,,,,,VFR,,,,,,,,,,,,METAR,203.0
KDUC 140415Z AUTO 18008KT 10SM CLR 04/M01 A2981 RMK AO2 T00431014,KDUC,2021-01-14T04:15:00Z,34.47,-97.97,4.3,-1.4,180,8,,10.0,29.811024,,,TRUE,TRUE,,,,,,,CLR,,,,,,,,VFR,,,,,,,,,,,,METAR,339.0
KDUB 140415Z AUTO 30022G29KT 10SM CLR M06/M18 A3010 RMK AO2,KDUB,2021-01-14T04:15:00Z,43.55,-109.68,-6.0,-18.0,300,22,29,10.0,30.100393,,,TRUE,TRUE,,,,,,,CLR,,,,,,,,VFR,,,,,,,,,,,,METAR,2205.0
KDUA 140415Z AUTO 19005KT 10SM CLR 04/02 A2988 RMK AO2,KDUA,2021-01-14T04:15:00Z,33.95,-96.4,4.0,2.0,190,5,,10.0,29.878937,,,TRUE,TRUE,,,,,,,CLR,,,,,,,,VFR,,,,,,,,,,,,SPECI,209.0
KDTL 140415Z AUTO 15006KT 10SM BKN090 OVC110 02/M01 A2941 RMK AO2,KDTL,2021-01-14T04:15:00Z,46.82,-95.88,2.0,-1.0,150,6,,10.0,29.409449,,,TRUE,TRUE,,,,,,,BKN,9000,OVC,11000,,,,,VFR,,,,,,,,,,,,METAR,425.0
KDSF 140415Z AUTO 30006KT 10SM CLR 14/04 A3010 RMK A01,KDSF,2021-01-14T04:15:00Z,28.35,-88.27,14.0,4.0,300,6,,10.0,30.100393,,,TRUE,TRUE,,,,,,,CLR,,,,,,,,VFR,,,,,,,,,,,,METAR,40.0
KDRM 140415Z AUTO 00000KT 10SM SCT010 OVC022 00/M01 A2969 RMK AO2 T00001006,KDRM,2021-01-14T04:15:00Z,46.0,-83.75,0.0,-0.6,0,0,,10.0,29.68996,,,TRUE,TRUE,,,,,,,SCT,1000,OVC,2200,,,,,MVFR,,,,,,,,,,,,METAR,201.0
KDRI 140415Z AUTO 19004KT 10SM CLR 05/02 A3009 RMK AO2 T00510020,KDRI,2021-01-14T04:15:00Z,30.83,-93.33,5.1,2.0,190,4,,10.0,30.088583,,,TRUE,TRUE,,,,,,,CLR,,,,,,,,VFR,,,,,,,,,,,,SPECI,59.0
KDQH 140415Z AUTO 23004KT 10SM CLR 03/03 A3007 RMK AO2 T00310027,KDQH,2021-01-14T04:15:00Z,31.48,-82.87,3.1,2.7,230,4,,10.0,30.070866,,,TRUE,TRUE,,,,,,,CLR,,,,,,,,VFR,,,,,,,,,,,,METAR,76.0
KDNV 140415Z AUTO 20014KT 10SM CLR 04/00 A2976 RMK AO2 T00421005,KDNV,2021-01-14T04:15:00Z,40.2,-87.6,4.2,-0.5,200,14,,10.0,29.760826,,,TRUE,TRUE,,,,,,,CLR,,,,,,,,VFR,,,,,,,,,,,,METAR,208.0
KDNS 140415Z AUTO 00000KT 10SM FEW110 03/02 A2955 RMK AO2,KDNS,2021-01-14T04:15:00Z,41.98,-95.37,3.0,2.0,0,0,,10.0,29.551182,,,TRUE,TRUE,,,,,,,FEW,11000,,,,,,,VFR,,,,,,,,,,,,METAR,382.0
KDNN 140415Z AUTO 00000KT 2 1/2SM BR CLR 00/00 A3002 RMK AO2,KDNN,2021-01-14T04:15:00Z,34.72,-84.87,0.0,0.0,0,0,,2.5,30.02067,,,TRUE,TRUE,,,,,,BR,CLR,,,,,,,,IFR,,,,,,,,,,,,METAR,216.0
KDMW 140415Z AUTO 00000KT 10SM CLR 02/00 A2986 RMK AO2,KDMW,2021-01-14T04:15:00Z,39.6,-77.0,2.0,0.0,0,0,,10.0,29.861221,,,TRUE,TRUE,,,,,,,CLR,,,,,,,,VFR,,,,,,,,,,,,METAR,239.0
KDLO 140415Z AUTO 08003KT 7SM CLR 06/01 A3035 RMK AO2 T00590008,KDLO,2021-01-14T04:15:00Z,35.75,-119.23,5.9,0.8,80,3,,7.0,30.351377,,,TRUE,TRUE,,,,,,,CLR,,,,,,,,VFR,,,,,,,,,,,,METAR,97.0
KDKB 140415Z AUTO 16005KT 7SM CLR 01/00 A2968 RMK AO2 T00090004,KDKB,2021-01-14T04:15:00Z,41.93,-88.7,0.9,0.4,160,5,,7.0,29.681103,,,TRUE,TRUE,,,,,,,CLR,,,,,,,,VFR,,,,,,,,,,,,METAR,277.0
KDEH 140415Z AUTO 19004KT 10SM CLR M01/M01 A2957 RMK AO2,KDEH,2021-01-14T04:15:00Z,43.27,-91.73,-1.0,-1.0,190,4,,10.0,29.568897,,,TRUE,TRUE,,,,,,,CLR,,,,,,,,VFR,,,,,,,,,,,,METAR,348.0
KDED 140415Z AUTO 00000KT 10SM BKN043 OVC060 10/08 A3009 RMK AO2 T01020082,KDED,2021-01-14T04:15:00Z,29.07,-81.28,10.2,8.2,0,0,,10.0,30.088583,,,TRUE,TRUE,,,,,,,BKN,4300,OVC,6000,,,,,VFR,,,,,,,,,,,,METAR,21.0
KDCY 140415Z AUTO 19009KT 10SM CLR 04/M01 A2983 RMK AO2 T00391011,KDCY,2021-01-14T04:15:00Z,38.7,-87.13,3.9,-1.1,190,9,,10.0,29.828741,,,TRUE,TRUE,,,,,,,CLR,,,,,,,,VFR,,,,,,,,,,,,METAR,143.0
KDBN 140415Z AUTO 27003KT 10SM SCT085 05/02 A3004 RMK AO2,KDBN,2021-01-14T04:15:00Z,32.57,-82.98,5.0,2.0,270,3,,10.0,30.041338,,,TRUE,TRUE,,,,,,,SCT,8500,,,,,,,VFR,,,,,,,,,,,,METAR,90.0
KD95 140415Z AUTO 24006KT 10SM CLR 03/00 A2971 RMK AO2 T00251005,KD95,2021-01-14T04:15:00Z,43.07,-83.27,2.5,-0.5,240,6,,10.0,29.71063,,,TRUE,TRUE,,,,,,,CLR,,,,,,,,VFR,,,,,,,,,,,,METAR,253.0
KD73 140415Z AUTO 29003KT 10SM CLR 02/M02 A2999 RMK AO2 T00211015,KD73,2021-01-14T04:15:00Z,33.78,-83.7,2.1,-1.5,290,3,,10.0,29.991142,,,TRUE,TRUE,,,,,,,CLR,,,,,,,,VFR,,,,,,,,,,,,METAR,254.0
KD60 140415Z AUTO 27031G45KT 10SM SCT026 BKN033 BKN038 01/M02 A2939 RMK AO2,KD60,2021-01-14T04:15:00Z,48.38,-102.9,1.0,-2.0,270,31,45,10.0,29.388779,,,TRUE,TRUE,,,,,,,SCT,2600,BKN,3300,BKN,3800,,,VFR,,,,,,,,,,,,METAR,682.0
KD57 140415Z AUTO 29031G39KT 10SM FEW036 BKN048 OVC060 05/M04 A2953 RMK AO2,KD57,2021-01-14T04:15:00Z,46.82,-101.87,5.0,-4.0,290,31,39,10.0,29.530512,,,TRUE,TRUE,,,,,,,FEW,3600,BKN,4800,OVC,6000,,,VFR,,,,,,,,,,,,METAR,636.0
KD39 140415Z AUTO 12004KT 10SM CLR 00/M02 A2946 RMK AO2 T10051020,KD39,2021-01-14T04:15:00Z,45.7,-94.93,-0.5,-2.0,120,4,,10.0,29.459646,,,TRUE,TRUE,,,,,,,CLR,,,,,,,,VFR,,,,,,,,,,,,METAR,378.0
KD25 140415Z AUTO 00000KT 2SM BR CLR M11/M12 A2958 RMK AO2 VIS 1/2V5 T11081116,KD25,2021-01-14T04:15:00Z,46.12,-89.88,-10.8,-11.6,0,0,,2.0,29.58071,,,TRUE,TRUE,,,,,,BR,CLR,,,,,,,,IFR,,,,,,,,,,,,METAR,490.0
KCZT 140415Z AUTO 19006KT 10SM CLR 10/02 A3003 RMK AO2,KCZT,2021-01-14T04:15:00Z,28.52,-99.82,10.0,2.0,190,6,,10.0,30.029528,,,TRUE,TRUE,,,,,,,CLR,,,,,,,,VFR,,,,,,,,,,,,METAR,176.0
KCZL 140415Z AUTO 00000KT 2SM BR CLR 00/00 A3004 RMK AO2,KCZL,2021-01-14T04:15:00Z,34.47,-84.93,0.0,0.0,0,0,,2.0,30.041338,,,TRUE,TRUE,,,,,,BR,CLR,,,,,,,,IFR,,,,,,,,,,,,METAR,197.0
KCYD 140415Z AUTO 28005KT 10SM CLR 15/06 A3012 RMK A02 TSNO T01500056,KCYD,2021-01-14T04:15:00Z,28.17,-89.22,15.0,5.6,280,5,,10.0,30.121063,,,TRUE,TRUE,,,TRUE,,,,CLR,,,,,,,,VFR,,,,,,,,,,,,METAR,30.0
KCXW 140415Z AUTO 20008KT 10SM FEW031 SCT039 SCT046 04/01 A2987 RMK A01,KCXW,2021-01-14T04:15:00Z,35.02,-92.55,4.0,1.0,200,8,,10.0,29.870079,,,TRUE,TRUE,,,,,,,FEW,3100,SCT,3900,SCT,4600,,,VFR,,,,,,,,,,,,SPECI,84.0
KCXU 140415Z AUTO 00000KT 7SM CLR 04/03 A3008 RMK AO1 T00380025,KCXU,2021-01-14T04:15:00Z,31.22,-84.23,3.8,2.5,0,0,,7.0,30.079725,,,TRUE,TRUE,,,,,,,CLR,,,,,,,,VFR,,,,,,,,,,,,SPECI,48.0
KCXP 140415Z AUTO 00000KT 10SM CLR 07/02 A3045 RMK AO2,KCXP,2021-01-14T04:15:00Z,39.18,-119.73,7.0,2.0,0,0,,10.0,30.448818,,,TRUE,TRUE,,,,,,,CLR,,,,,,,,VFR,,,,,,,,,,,,METAR,1431.0
KCXE 140415Z AUTO 00000KT 10SM CLR 01/M02 A2991 RMK AO1 T00091019,KCXE,2021-01-14T04:15:00Z,36.78,-78.5,0.9,-1.9,0,0,,10.0,29.911417,,,TRUE,TRUE,,,,,,,CLR,,,,,,,,VFR,,,,,,,,,,,,METAR,154.0
KCWV 140415Z AUTO 00000KT 10SM CLR 06/05 A3002 RMK AO2 T00560046,KCWV,2021-01-14T04:15:00Z,32.2,-81.87,5.6,4.6,0,0,,10.0,30.02067,,,TRUE,TRUE,,,,,,,CLR,,,,,,,,VFR,,,,,,,,,,,,METAR,32.0
KCWF 140415Z AUTO 00000KT 3/4SM BR VV005 04/03 A3010 RMK AO2 VIS 1/4V2 1/2 T00350029,KCWF,2021-01-14T04:15:00Z,30.22,-93.15,3.5,2.9,0,0,,0.75,30.100393,,,TRUE,TRUE,,,,,,BR,OVX,0,,,,,,,LIFR,,,,,,,,,,,500,METAR,4.0
KCWC 140415Z AUTO 14008KT 10SM CLR 06/00 A2982 RMK AO2 T00551004,KCWC,2021-01-14T04:15:00Z,33.85,-98.48,5.5,-0.4,140,8,,10.0,29.819881,,,TRUE,TRUE,,,,,,,CLR,,,,,,,,VFR,,,,,,,,,,,,METAR,304.0
KCWA 140415Z AUTO 08003KT 5SM BR CLR M03/M03 A2961 RMK AO2,KCWA,2021-01-14T04:15:00Z,44.78,-89.67,-3.0,-3.0,80,3,,5.0,29.610237,,,TRUE,TRUE,,,,,,BR,CLR,,,,,,,,MVFR,,,,,,,,,,,,METAR,387.0
KCVX 140415Z AUTO 00000KT 10SM OVC011 01/M01 A2969 RMK AO2 T00071010,KCVX,2021-01-14T04:15:00Z,45.3,-85.27,0.7,-1.0,0,0,,10.0,29.68996,,,TRUE,TRUE,,,,,,,OVC,1100,,,,,,,MVFR,,,,,,,,,,,,METAR,196.0
KCVH 140415Z AUTO 00000KT 10SM CLR 13/08 A3035 RMK A01,KCVH,2021-01-14T04:15:00Z,36.9,-121.42,13.0,8.0,0,0,,10.0,30.351377,,,TRUE,TRUE,,,,,,,CLR,,,,,,,,VFR,,,,,,,,,,,,METAR,68.0
KCVC 140415Z AUTO 00000KT 10SM CLR 01/M02 A2999 RMK AO2,KCVC,2021-01-14T04:15:00Z,33.63,-83.85,1.0,-2.0,0,0,,10.0,29.991142,,,TRUE,TRUE,,,,,,,CLR,,,,,,,,VFR,,,,,,,,,,,,SPECI,240.0
KCVB 140415Z AUTO 21009KT 10SM CLR 10/00 A3005 RMK AO2 T00970002,KCVB,2021-01-14T04:15:00Z,29.35,-98.85,9.7,0.2,210,9,,10.0,30.050198,,,TRUE,TRUE,,,,,,,CLR,,,,,,,,VFR,,,,,,,,,,,,METAR,234.0
KCUH 140415Z AUTO 20006KT 10SM CLR 06/M01 A2975 RMK AO2 T00561012,KCUH,2021-01-14T04:15:00Z,35.95,-96.77,5.6,-1.2,200,6,,10.0,29.749016,,,TRUE,TRUE,,,,,,,CLR,,,,,,,,VFR,,,,,,,,,,,,METAR,274.0
KCTZ 140415Z AUTO 00000KT 4SM OVC005 06/06 A2995 RMK AO2 T00630063,KCTZ,2021-01-14T04:15:00Z,34.98,-78.37,6.3,6.3,0,0,,4.0,29.949802,,,TRUE,TRUE,,,,,,,OVC,500,,,,,,,IFR,,,,,,,,,,,,METAR,43.0
KCTY 140415Z AUTO 00000KT 1/2SM FG BKN009 04/04 A3009 RMK AO2 T00390038,KCTY,2021-01-14T04:15:00Z,29.63,-83.1,3.9,3.8,0,0,,0.5,30.088583,,,TRUE,TRUE,,,,,,FG,BKN,900,,,,,,,LIFR,,,,,,,,,,,,METAR,12.0
KCTJ 140415Z AUTO 27004KT 10SM CLR 01/M02 A3005 RMK AO2 T00101016,KCTJ,2021-01-14T04:15:00Z,33.63,-85.15,1.0,-1.6,270,4,,10.0,30.050198,,,TRUE,TRUE,,,,,,,CLR,,,,,,,,VFR,,,,,,,,,,,,METAR,351.0
KCSQ 140415Z AUTO 22005KT 10SM CLR 03/00 A2956 RMK AO2,KCSQ,2021-01-14T04:15:00Z,41.02,-94.37,3.0,0.0,220,5,,10.0,29.56004,,,TRUE,TRUE,,,,,,,CLR,,,,,,,,VFR,,,,,,,,,,,,METAR,394.0
KCRX 140415Z AUTO 17007KT 9SM FEW007 02/01 A2997 RMK AO2,KCRX,2021-01-14T04:15:00Z,34.92,-88.6,2.0,1.0,170,7,,9.0,29.970472,,,TRUE,TRUE,,,,,,,FEW,700,,,,,,,VFR,,,,,,,,,,,,SPECI,128.0
KCQW 140415Z AUTO 24004KT 5SM BR OVC006 06/05 A2996 RMK AO2,KCQW,2021-01-14T04:15:00Z,34.72,-79.95,6.0,5.0,240,4,,5.0,29.958662,,,TRUE,TRUE,,,,,,BR,OVC,600,,,,,,,IFR,,,,,,,,,,,,SPECI,67.0
KCQF 140415Z AUTO 00000KT 10SM CLR 00/00 A3010 RMK AO2,KCQF,2021-01-14T04:15:00Z,30.47,-87.88,0.0,0.0,0,0,,10.0,30.100393,,,TRUE,TRUE,,,,,,,CLR,,,,,,,,VFR,,,,,,,,,,,,METAR,21.0
KCQB 140415Z AUTO 20009KT 10SM CLR 08/M02 A2976 RMK AO2 T00811016,KCQB,2021-01-14T04:15:00Z,35.72,-96.82,8.1,-1.6,200,9,,10.0,29.760826,,,TRUE,TRUE,,,,,,,CLR,,,,,,,,VFR,,,,,,,,,,,,METAR,298.0
KCPW 140415Z AUTO 31016G24KT 10SM CLR M03/M16 A3028 RMK AO2,KCPW,2021-01-14T04:15:00Z,37.45,-106.8,-3.0,-16.0,310,16,24,10.0,30.280512,,,TRUE,TRUE,,,,,,,CLR,,,,,,,,VFR,,,,,,,,,,,,METAR,3570.0
KCPU 140415Z AUTO 00000KT 10SM CLR 12/10 A3036 RMK AO2 T01200095,KCPU,2021-01-14T04:15:00Z,38.15,-120.65,12.0,9.5,0,0,,10.0,30.360237,,,TRUE,TRUE,,,,,,,CLR,,,,,,,,VFR,,,,,,,,,,,,METAR,400.0
KCPT 140415Z AUTO 18009KT 10SM CLR 07/03 A2991 RMK A01,KCPT,2021-01-14T04:15:00Z,32.35,-97.43,7.0,3.0,180,9,,10.0,29.911417,,,TRUE,TRUE,,,,,,,CLR,,,,,,,,VFR,,,,,,,,,,,,METAR,260.0
KCPK 140415Z AUTO 00000KT 10SM CLR M01/M02 A2994 RMK AO2 T10101020,KCPK,2021-01-14T04:15:00Z,36.67,-76.32,-1.0,-2.0,0,0,,10.0,29.940945,,,TRUE,TRUE,,,,,,,CLR,,,,,,,,VFR,,,,,,,,,,,,SPECI,4.0
KCPC 140415Z AUTO 00000KT 10SM SCT023 BKN080 OVC110 07/06 A2996 RMK AO2 T00710060,KCPC,2021-01-14T04:15:00Z,34.28,-78.72,7.1,6.0,0,0,,10.0,29.958662,,,TRUE,TRUE,,,,,,,SCT,2300,BKN,8000,OVC,11000,,,VFR,,,,,,,,,,,,SPECI,27.0
KCOQ 140415Z AUTO 10003KT 10SM CLR M02/M04 A2953 RMK AO2 TSNO,KCOQ,2021-01-14T04:15:00Z,46.7,-92.5,-2.0,-4.0,100,3,,10.0,29.530512,,,TRUE,TRUE,,,TRUE,,,,CLR,,,,,,,,VFR,,,,,,,,,,,,METAR,390.0
KCOM 140415Z AUTO 21007KT 10SM CLR 07/M01 A2991 RMK AO2 T00711013,KCOM,2021-01-14T04:15:00Z,31.83,-99.4,7.1,-1.3,210,7,,10.0,29.911417,,,TRUE,TRUE,,,,,,,CLR,,,,,,,,VFR,,,,,,,,,,,,METAR,516.0
KCNI 140415Z AUTO 30004KT 10SM CLR 02/M01 A3000 RMK AO2,KCNI,2021-01-14T04:15:00Z,34.32,-84.42,2.0,-1.0,300,4,,10.0,30.0,,,TRUE,TRUE,,,,,,,CLR,,,,,,,,VFR,,,,,,,,,,,,METAR,371.0
KCNB 140415Z AUTO 00000KT 10SM SCT060 06/00 A2947 RMK AO2 T00580000,KCNB,2021-01-14T04:15:00Z,44.73,-96.27,5.8,0.0,0,0,,10.0,29.471457,,,TRUE,TRUE,,,,,,,SCT,6000,,,,,,,VFR,,,,,,,,,,,,METAR,363.0
KCMY 140415Z AUTO 00000KT 10SM 00/M01 A2961 RMK AO2 T10051015,KCMY,2021-01-14T04:15:00Z,43.97,-90.73,-0.5,-1.5,0,0,,10.0,29.610237,,,TRUE,TRUE,,,,,,,,,,,,,,,,,,,,,,,,,,,METAR,253.0
KCMR 140415Z AUTO 16004KT 10SM CLR M01/M11 A3033 RMK AO2,KCMR,2021-01-14T04:15:00Z,35.3,-112.2,-1.0,-11.0,160,4,,10.0,30.33071,,,TRUE,TRUE,,,,,,,CLR,,,,,,,,VFR,,,,,,,,,,,,METAR,2039.0
KCMD 140415Z AUTO 21005KT 4SM BR OVC003 01/00 A3003 RMK AO2 T00061001,KCMD,2021-01-14T04:15:00Z,34.27,-86.85,0.6,-0.1,210,5,,4.0,30.029528,,,TRUE,TRUE,,,,,,BR,OVC,300,,,,,,,LIFR,,,,,,,,,,,,SPECI,294.0
KCLS 140415Z AUTO 00000KT 10SM FEW038 05/05 A3051 RMK AO2,KCLS,2021-01-14T04:15:00Z,46.68,-122.98,5.0,5.0,0,0,,10.0,30.510826,,,TRUE,TRUE,,,,,,,FEW,3800,,,,,,,VFR,,,,,,,,,,,,METAR,52.0
KCLK 140415Z AUTO 21003KT 10SM CLR 03/M01 A2981 RMK AO2 PNO TSNO,KCLK,2021-01-14T04:15:00Z,35.53,-98.93,3.0,-1.0,210,3,,10.0,29.811024,,,TRUE,TRUE,,,TRUE,,,,CLR,,,,,,,,VFR,,,,,,,,,,,,METAR,489.0
KCLI 140415Z AUTO 00000KT 1/4SM FZFG OVC004 M04/M05 A2964 RMK AO2 T10451053,KCLI,2021-01-14T04:15:00Z,44.62,-88.73,-4.5,-5.3,0,0,,0.25,29.639763,,,TRUE,TRUE,,,,,,FZFG,OVC,400,,,,,,,LIFR,,,,,,,,,,,,METAR,248.0
KCKZ 140415Z AUTO 00000KT 10SM CLR M01/M03 A2989 RMK AO2,KCKZ,2021-01-14T04:15:00Z,40.38,-75.28,-1.0,-3.0,0,0,,10.0,29.890747,,,TRUE,TRUE,,,,,,,CLR,,,,,,,,VFR,,,,,,,,,,,,METAR,160.0
KCKP 140415Z AUTO 17004KT 10SM CLR 02/01 A2951 RMK AO2 T00210007,KCKP,2021-01-14T04:15:00Z,42.73,-95.55,2.1,0.7,170,4,,10.0,29.509842,,,TRUE,TRUE,,,,,,,CLR,,,,,,,,VFR,,,,,,,,,,,,METAR,369.0
KCKN 140415Z AUTO 20009KT 10SM CLR 01/M01 A2940 RMK AO2,KCKN,2021-01-14T04:15:00Z,47.85,-96.62,1.0,-1.0,200,9,,10.0,29.40059,,,TRUE,TRUE,,,,,,,CLR,,,,,,,,VFR,,,,,,,,,,,,METAR,272.0
KCKM 140415Z AUTO 17007KT 10SM 05/03 A2996 RMK A01,KCKM,2021-01-14T04:15:00Z,34.3,-90.52,5.0,3.0,170,7,,10.0,29.958662,,,TRUE,TRUE,,,,,,,,,,,,,,,,,,,,,,,,,,,METAR,52.0
KCKI 140415Z AUTO 00000KT 10SM OVC012 06/05 A2997 RMK AO2,KCKI,2021-01-14T04:15:00Z,33.72,-79.85,6.0,5.0,0,0,,10.0,29.970472,,,TRUE,TRUE,,,,,,,OVC,1200,,,,,,,MVFR,,,,,,,,,,,,METAR,19.0
KCKF 140415Z AUTO 24003KT 10SM CLR 03/01 A3006 RMK AO2 T00300005,KCKF,2021-01-14T04:15:00Z,31.98,-83.77,3.0,0.5,240,3,,10.0,30.059055,,,TRUE,TRUE,,,,,,,CLR,,,,,,,,VFR,,,,,,,,,,,,METAR,92.0
KCKC 140415Z AUTO 11004KT 10SM OVC005 M03/M04 A2957 RMK AO2,KCKC,2021-01-14T04:15:00Z,47.83,-90.38,-3.0,-4.0,110,4,,10.0,29.568897,,,TRUE,TRUE,,,,,,,OVC,500,,,,,,,IFR,,,,,,,,,,,,METAR,544.0
KCJR 140415Z AUTO 00000KT 10SM CLR M04/M06 A2987 RMK AO2 T10371056,KCJR,2021-01-14T04:15:00Z,38.53,-77.87,-3.7,-5.6,0,0,,10.0,29.870079,,,TRUE,TRUE,,,,,,,CLR,,,,,,,,VFR,,,,,,,,,,,,SPECI,90.0
KCIR 140415Z 10SM CLR 03/00 A2985 RMK AO2 T00320000,KCIR,2021-01-14T04:15:00Z,37.07,-89.22,3.2,0.0,,,,10.0,29.84941,,,,TRUE,,,,,,,CLR,,,,,,,,VFR,,,,,,,,,,,,METAR,96.0
KCIC 140415Z AUTO 34006KT 10SM CLR 10/08 A3041 RMK AO1,KCIC,2021-01-14T04:15:00Z,39.78,-121.85,10.0,8.0,340,6,,10.0,30.410433,,,TRUE,TRUE,,,,,,,CLR,,,,,,,,VFR,,,,,,,,,,,,METAR,72.0
KCHK 140415Z AUTO 00000KT 10SM CLR 05/M01 A2976 RMK AO2 T00491011,KCHK,2021-01-14T04:15:00Z,35.1,-97.97,4.9,-1.1,0,0,,10.0,29.760826,,,TRUE,TRUE,,,,,,,CLR,,,,,,,,VFR,,,,,,,,,,,,METAR,346.0
KCGS 140415Z AUTO 00000KT 7SM CLR M01/M02 A2989 RMK AO1 T10101023,KCGS,2021-01-14T04:15:00Z,38.98,-76.92,-1.0,-2.3,0,0,,7.0,29.890747,,,TRUE,TRUE,,,,,,,CLR,,,,,,,,VFR,,,,,,,,,,,,METAR,15.0
KCGF 140415Z AUTO 20012G17KT 10SM OVC100 05/M01 A2978 RMK AO2 T00471014,KCGF,2021-01-14T04:15:00Z,41.57,-81.47,4.7,-1.4,200,12,17,10.0,29.778543,,,TRUE,TRUE,,,,,,,OVC,10000,,,,,,,VFR,,,,,,,,,,,,METAR,265.0
KCGE 140415Z AUTO 12004KT 7SM CLR M00/M00 A2990 RMK A01,KCGE,2021-01-14T04:15:00Z,38.53,-76.03,0.0,0.0,120,4,,7.0,29.899607,,,TRUE,TRUE,,,,,,,CLR,,,,,,,,VFR,,,,,,,,,,,,METAR,5.0
KCGC 140415Z AUTO 00000KT 10SM SCT031 09/08 A3010 RMK AO2,KCGC,2021-01-14T04:15:00Z,28.87,-82.57,9.0,8.0,0,0,,10.0,30.100393,,,TRUE,TRUE,,,,,,,SCT,3100,,,,,,,VFR,,,,,,,,,,,,SPECI,3.0
KCFS 140415Z AUTO 21003KT 7SM CLR 00/M01 A2970 RMK AO2 T10051015,KCFS,2021-01-14T04:15:00Z,43.47,-83.45,-0.5,-1.5,210,3,,7.0,29.698818,,,TRUE,TRUE,,,,,,,CLR,,,,,,,,VFR,,,,,,,,,,,,METAR,214.0
KCFO 140415Z AUTO 29021G25KT 10SM CLR 09/M06 A2984 RMK AO2 T00921059,KCFO,2021-01-14T04:15:00Z,39.78,-104.55,9.2,-5.9,290,21,25,10.0,29.840551,,,TRUE,TRUE,,,,,,,CLR,,,,,,,,VFR,,,,,,,,,,,,METAR,1672.0
KCFJ 140415Z AUTO 20008KT 10SM CLR 02/M02 A2977 RMK AO2 T00171019,KCFJ,2021-01-14T04:15:00Z,39.98,-86.92,1.7,-1.9,200,8,,10.0,29.769686,,,TRUE,TRUE,,,,,,,CLR,,,,,,,,VFR,,,,,,,,,,,,METAR,243.0
KCFE 140415Z 10SM CLR M02/M03 A2950 RMK AO2 T10211035,KCFE,2021-01-14T04:15:00Z,45.17,-93.85,-2.1,-3.5,,,,10.0,29.500984,,,,TRUE,,,,,,,CLR,,,,,,,,VFR,,,,,,,,,,,,METAR,292.0
KCFD 140415Z AUTO 18008KT 10SM CLR 09/04 A3003 RMK AO2 T00880040,KCFD,2021-01-14T04:15:00Z,30.72,-96.33,8.8,4.0,180,8,,10.0,30.029528,,,TRUE,TRUE,,,,,,,CLR,,,,,,,,VFR,,,,,,,,,,,,METAR,106.0
KCDN 140415Z AUTO 00000KT 5SM BR OVC009 05/04 A2997 RMK AO2,KCDN,2021-01-14T04:15:00Z,34.28,-80.57,5.0,4.0,0,0,,5.0,29.970472,,,TRUE,TRUE,,,,,,BR,OVC,900,,,,,,,IFR,,,,,,,,,,,,METAR,90.0
KCDI 140415Z AUTO 20003KT 10SM BKN090 OVC100 02/M01 A2985 RMK AO2 T00211010,KCDI,2021-01-14T04:15:00Z,39.97,-81.58,2.1,-1.0,200,3,,10.0,29.84941,,,TRUE,TRUE,,,,,,,BKN,9000,OVC,10000,,,,,VFR,,,,,,,,,,,,METAR,241.0
KCDH 140415Z AUTO 19004KT 10SM CLR 05/02 A2996 RMK AO2,KCDH,2021-01-14T04:15:00Z,33.62,-92.77,5.0,2.0,190,4,,10.0,29.958662,,,TRUE,TRUE,,,,,,,CLR,,,,,,,,VFR,,,,,,,,,,,,SPECI,38.0
KCDA 140415Z AUTO 00000KT 10SM OVC031 M02/M05 A2981 RMK AO2 T10201055,KCDA,2021-01-14T04:15:00Z,44.57,-72.02,-2.0,-5.5,0,0,,10.0,29.811024,,,TRUE,TRUE,,,,,,,OVC,3100,,,,,,,VFR,,,,,,,,,,,,METAR,357.0
KCCY 140415Z AUTO 13005KT 8SM SCT200 M02/M02 A2956 RMK AO2,KCCY,2021-01-14T04:15:00Z,43.07,-92.62,-2.0,-2.0,130,5,,8.0,29.56004,,,TRUE,TRUE,,,,,,,SCT,20000,,,,,,,VFR,,,,,,,,,,,,METAR,340.0
KCCU 140415Z AUTO 27043G55KT 3/4SM -SN OVC010 M04/M07 RMK AO2,KCCU,2021-01-14T04:15:00Z,39.48,-106.15,-4.0,-7.0,270,43,55,0.75,,,,TRUE,TRUE,,,,,,-SN,OVC,1000,,,,,,,LIFR,,,,,,,,,,,,METAR,3672.0
KCCO 140415Z AUTO 29003KT 10SM CLR 04/M02 A3002 RMK AO2 T00401016,KCCO,2021-01-14T04:15:00Z,33.32,-84.77,4.0,-1.6,290,3,,10.0,30.02067,,,TRUE,TRUE,,,,,,,CLR,,,,,,,,VFR,,,,,,,,,,,,METAR,290.0
KCCB 140415Z AUTO 02004KT 10SM CLR 18/M05 A3018 RMK AO2,KCCB,2021-01-14T04:15:00Z,34.12,-117.68,18.0,-5.0,20,4,,10.0,30.180119,,,TRUE,TRUE,,,,,,,CLR,,,,,,,,VFR,,,,,,,,,,,,METAR,440.0
KCCA 140415Z AUTO 00000KT 9SM CLR M02/M02 A2987 RMK AO2,KCCA,2021-01-14T04:15:00Z,35.6,-92.45,-2.0,-2.0,0,0,,9.0,29.870079,,,TRUE,TRUE,,,,,,,CLR,,,,,,,,VFR,,,,,,,,,,,,SPECI,152.0
KCBG 140415Z AUTO 00000KT 10SM CLR 01/M04 A2952 RMK AO2,KCBG,2021-01-14T04:15:00Z,45.57,-93.27,1.0,-4.0,0,0,,10.0,29.518702,,,TRUE,TRUE,,,,,,,CLR,,,,,,,,VFR,,,,,,,,,,,,METAR,285.0
KCBF 140415Z AUTO 17004KT 10SM FEW100 SCT120 05/01 A2953 RMK AO2,KCBF,2021-01-14T04:15:00Z,41.27,-95.77,5.0,1.0,170,4,,10.0,29.530512,,,TRUE,TRUE,,,,,,,FEW,10000,SCT,12000,,,,,VFR,,,,,,,,,,,,METAR,379.0
KCBE 140415Z AUTO 00000KT 10SM CLR 00/M03 A2990 RMK AO2 T00031031,KCBE,2021-01-14T04:15:00Z,39.62,-78.77,0.3,-3.1,0,0,,10.0,29.899607,,,TRUE,TRUE,,,,,,,CLR,,,,,,,,VFR,,,,,,,,,,,,SPECI,226.0
KCAV 140415Z AUTO 17007KT 10SM CLR 01/01 A2953 RMK A01,KCAV,2021-01-14T04:15:00Z,42.75,-93.77,1.0,1.0,170,7,,10.0,29.530512,,,TRUE,TRUE,,,,,,,CLR,,,,,,,,VFR,,,,,,,,,,,,METAR,352.0
KCAD 140415Z AUTO 22005KT 4SM BR OVC006 01/00 A2966 RMK AO2 T00060000,KCAD,2021-01-14T04:15:00Z,44.27,-85.42,0.6,0.0,220,5,,4.0,29.660433,,,TRUE,TRUE,,,,,,BR,OVC,600,,,,,,,IFR,,,,,,,,,,,,METAR,397.0
KC99 140415Z AUTO 29023G48KT 2 1/2SM BKN022 OVC028 M04/M08 A2995 RMK AO2,KC99,2021-01-14T04:15:00Z,39.87,-105.55,-4.0,-8.0,290,23,48,2.5,29.949802,,,TRUE,TRUE,,,,,,,BKN,2200,OVC,2800,,,,,IFR,,,,,,,,,,,,METAR,3334.0
KC83 140415Z AUTO 31010KT 5SM BR BKN022 13/11 A3038 RMK AO2,KC83,2021-01-14T04:15:00Z,37.83,-121.62,13.0,11.0,310,10,,5.0,30.380905,,,TRUE,TRUE,,,,,,BR,BKN,2200,,,,,,,MVFR,,,,,,,,,,,,METAR,16.0
KC75 140415Z AUTO 20006KT 10SM CLR 04/00 A2968 RMK AO2 T00350000,KC75,2021-01-14T04:15:00Z,41.02,-89.38,3.5,0.0,200,6,,10.0,29.681103,,,TRUE,TRUE,,,,,,,CLR,,,,,,,,VFR,,,,,,,,,,,,METAR,166.0
KC65 140415Z AUTO 22007KT 10SM BKN075 OVC090 04/M00 A2974 RMK A01,KC65,2021-01-14T04:15:00Z,41.37,-86.3,4.0,0.0,220,7,,10.0,29.740158,,,TRUE,TRUE,,,,,,,BKN,7500,OVC,9000,,,,,VFR,,,,,,,,,,,,METAR,241.0
KC29 140415Z AUTO 00000KT 10SM OVC100 02/M01 A2963 RMK AO1 T00151009,KC29,2021-01-14T04:15:00Z,43.12,-89.53,1.5,-0.9,0,0,,10.0,29.630905,,,TRUE,TRUE,,,,,,,OVC,10000,,,,,,,VFR,,,,,,,,,,,,METAR,282.0
KC09 140415Z AUTO 15005KT 10SM CLR 01/00 A2970 RMK AO2 T00120003,KC09,2021-01-14T04:15:00Z,41.43,-88.42,1.2,0.3,150,5,,10.0,29.698818,,,TRUE,TRUE,,,,,,,CLR,,,,,,,,VFR,,,,,,,,,,,,METAR,179.0
KC07 140415Z AUTO 29011G25KT 230V320 1/2SM SN OVC002 M06/M06 A3003 RMK AO2,KC07,2021-01-14T04:15:00Z,40.35,-106.7,-6.0,-6.0,290,11,25,0.5,30.029528,,,TRUE,TRUE,,,,,,SN,OVC,200,,,,,,,LIFR,,,,,,,,,,,,METAR,3224.0
KBYY 140415Z AUTO 00000KT 10SM CLR 05/03 A3008 RMK AO2 T00470033,KBYY,2021-01-14T04:15:00Z,28.97,-95.87,4.7,3.3,0,0,,10.0,30.079725,,,TRUE,TRUE,,,,,,,CLR,,,,,,,,VFR,,,,,,,,,,,,METAR,12.0
KBYL 140415Z AUTO 00000KT 10SM CLR M01/M03 A2992 RMK AO1,KBYL,2021-01-14T04:15:00Z,36.8,-84.2,-1.0,-3.0,0,0,,10.0,29.920275,,,TRUE,TRUE,,,,,,,CLR,,,,,,,,VFR,,,,,,,,,,,,SPECI,355.0
KBXA 140415Z AUTO 00000KT 10SM CLR 04/02 A3009 RMK AO2 T00350020,KBXA,2021-01-14T04:15:00Z,30.82,-89.87,3.5,2.0,0,0,,10.0,30.088583,,,TRUE,TRUE,,,,,,,CLR,,,,,,,,VFR,,,,,,,,,,,,SPECI,35.0
KBWW 140415Z AUTO 31036G51KT 10SM BKN031 BKN045 OVC120 02/M04 A2962 RMK AO2,KBWW,2021-01-14T04:15:00Z,46.17,-103.3,2.0,-4.0,310,36,51,10.0,29.619095,,,TRUE,TRUE,,,,,,,BKN,3100,BKN,4500,OVC,12000,,,VFR,,,,,,,,,,,,METAR,911.0
KBWD 140415Z AUTO 16004KT 10SM FEW038 05/M01 A2993 RMK AO1,KBWD,2021-01-14T04:15:00Z,31.8,-98.95,5.0,-1.0,160,4,,10.0,29.929134,,,TRUE,TRUE,,,,,,,FEW,3800,,,,,,,VFR,,,,,,,,,,,,METAR,420.0
KBVU 140415Z AUTO VRB04KT 10SM CLR 09/M12 A3025 RMK AO2,KBVU,2021-01-14T04:15:00Z,35.95,-114.87,9.0,-12.0,0,4,,10.0,30.250984,,,TRUE,TRUE,,,,,,,CLR,,,,,,,,VFR,,,,,,,,,,,,METAR,654.0
KBVN 140415Z AUTO 30004KT 10SM BKN100 03/01 A2952 RMK AO2 T00310011,KBVN,2021-01-14T04:15:00Z,41.73,-98.05,3.1,1.1,300,4,,10.0,29.518702,,,TRUE,TRUE,,,,,,,BKN,10000,,,,,,,VFR,,,,,,,,,,,,METAR,547.0
KBVI 140415Z AUTO 21010G14KT 10SM SCT070 OVC090 04/M02 A2982 RMK AO2 T00411016,KBVI,2021-01-14T04:15:00Z,40.77,-80.37,4.1,-1.6,210,10,14,10.0,29.819881,,,TRUE,TRUE,,,,,,,SCT,7000,OVC,9000,,,,,VFR,,,,,,,,,,,,METAR,387.0
KBUU 140415Z AUTO 19005KT 10SM OVC090 01/00 A2965 RMK AO2 T00131005 PWINO,KBUU,2021-01-14T04:15:00Z,42.68,-88.3,1.3,-0.5,190,5,,10.0,29.648623,,,TRUE,TRUE,,,,,TRUE,,OVC,9000,,,,,,,VFR,,,,,,,,,,,,METAR,238.0
KBTA 140415Z AUTO 18003KT 10SM CLR 06/01 A2953 RMK AO2 T00570010,KBTA,2021-01-14T04:15:00Z,41.42,-96.12,5.7,1.0,180,3,,10.0,29.530512,,,TRUE,TRUE,,,,,,,CLR,,,,,,,,VFR,,,,,,,,,,,,METAR,400.0
KBRG 140415Z AUTO 32008KT 10SM CLR 01/M08 A3018 RMK AO2 T00111085,KBRG,2021-01-14T04:15:00Z,34.65,-106.83,1.1,-8.5,320,8,,10.0,30.180119,,,TRUE,TRUE,,,,,,,CLR,,,,,,,,VFR,,,,,,,,,,,,SPECI,1585.0
KBQX 140415Z AUTO 21013KT 10SM CLR 15/07 A3009 RMK A01,KBQX,2021-01-14T04:15:00Z,28.5,-95.72,15.0,7.0,210,13,,10.0,30.088583,,,TRUE,TRUE,,,,,,,CLR,,,,,,,,VFR,,,,,,,,,,,,METAR,34.0
KBQP 140415Z AUTO 18003KT 10SM CLR 06/01 A2999 RMK AO2 T00630011,KBQP,2021-01-14T04:15:00Z,32.75,-91.88,6.3,1.1,180,3,,10.0,29.991142,,,TRUE,TRUE,,,,,,,CLR,,,,,,,,VFR,,,,,,,,,,,,METAR,50.0
KBQK 140415Z AUTO 21006KT 10SM CLR 05/04 A3006 RMK AO2 T00500039,KBQK,2021-01-14T04:15:00Z,31.25,-81.47,5.0,3.9,210,6,,10.0,30.059055,,,TRUE,TRUE,,,,,,,CLR,,,,,,,,VFR,,,,,,,,,,,,METAR,7.0
KBPG 140415Z AUTO 20010KT 10SM CLR 06/M03 A2990 RMK AO2 T00621032,KBPG,2021-01-14T04:15:00Z,32.22,-101.52,6.2,-3.2,200,10,,10.0,29.899607,,,TRUE,TRUE,,,,,,,CLR,,,,,,,,VFR,,,,,,,,,,,,METAR,782.0
KBPC 140415Z AUTO 28003KT 10SM CLR 07/M05 A2980 RMK AO2,KBPC,2021-01-14T04:15:00Z,35.88,-101.03,7.0,-5.0,280,3,,10.0,29.799213,,,TRUE,TRUE,,,,,,,CLR,,,,,,,,VFR,,,,,,,,,,,,METAR,844.0
KBOW 140415Z AUTO 34004KT 10SM FEW033 OVC050 12/10 A3009 RMK AO2,KBOW,2021-01-14T04:15:00Z,27.93,-81.77,12.0,10.0,340,4,,10.0,30.088583,,,TRUE,TRUE,,,,,,,FEW,3300,OVC,5000,,,,,VFR,,,,,,,,,,,,METAR,38.0
KBNW 140415Z AUTO 19004KT 10SM CLR 02/02 A2953 RMK AO2,KBNW,2021-01-14T04:15:00Z,42.03,-93.83,2.0,2.0,190,4,,10.0,29.530512,,,TRUE,TRUE,,,,,,,CLR,,,,,,,,VFR,,,,,,,,,,,,SPECI,350.0
KBMT 140415Z AUTO 17004KT 10SM CLR 06/04 A3008 RMK AO2 T00590036,KBMT,2021-01-14T04:15:00Z,30.07,-94.22,5.9,3.6,170,4,,10.0,30.079725,,,TRUE,TRUE,,,,,,,CLR,,,,,,,,VFR,,,,,,,,,,,,METAR,8.0
KBMC 140415Z AUTO 36016G19KT 10SM CLR 02/M13 A3039 RMK AO1 T00231127,KBMC,2021-01-14T04:15:00Z,41.55,-112.07,2.3,-12.7,360,16,19,10.0,30.389763,,,TRUE,TRUE,,,,,,,CLR,,,,,,,,VFR,,,,,,,,,,,,METAR,1289.0
KBKT 140415Z AUTO 00000KT 10SM CLR 02/M05 A2989 RMK AO1 T00151048,KBKT,2021-01-14T04:15:00Z,37.07,-77.95,1.5,-4.8,0,0,,10.0,29.890747,,,TRUE,TRUE,,,,,,,CLR,,,,,,,,VFR,,,,,,,,,,,,METAR,134.0
KBKS 140415Z AUTO 19004KT 10SM CLR 05/03 A3009 RMK AO2 T00450026,KBKS,2021-01-14T04:15:00Z,27.2,-98.12,4.5,2.6,190,4,,10.0,30.088583,,,TRUE,TRUE,,,,,,,CLR,,,,,,,,VFR,,,,,,,,,,,,METAR,34.0
KBKN 140415Z AUTO 20006KT 10SM CLR 05/03 A2973 RMK AO2,KBKN,2021-01-14T04:15:00Z,36.75,-97.35,5.0,3.0,200,6,,10.0,29.731298,,,TRUE,TRUE,,,,,,,CLR,,,,,,,,VFR,,,,,,,,,,,,SPECI,208.0
KBKD 140415Z AUTO 18007KT 10SM CLR 10/00 A2985 RMK AO2 T00950000,KBKD,2021-01-14T04:15:00Z,32.72,-98.88,9.5,0.0,180,7,,10.0,29.84941,,,TRUE,TRUE,,,,,,,CLR,,,,,,,,VFR,,,,,,,,,,,,METAR,383.0
KBJI 140415Z AUTO 12006KT 10SM CLR M01/M04 A2941 RMK AO2 T10111037,KBJI,2021-01-14T04:15:00Z,47.5,-94.92,-1.1,-3.7,120,6,,10.0,29.409449,,,TRUE,TRUE,,,,,,,CLR,,,,,,,,VFR,,,,,,,,,,,,METAR,422.0
KBIJ 140415Z AUTO 00000KT 7SM CLR 01/00 A3007 RMK AO2,KBIJ,2021-01-14T04:15:00Z,31.4,-84.9,1.0,0.0,0,0,,7.0,30.070866,,,TRUE,TRUE,,,,,,,CLR,,,,,,,,VFR,,,,,,,,,,,,METAR,63.0
KBIE 140415Z AUTO 17003KT 10SM CLR 07/00 A2957 RMK AO2 T00710000,KBIE,2021-01-14T04:15:00Z,40.28,-96.75,7.1,0.0,170,3,,10.0,29.568897,,,TRUE,TRUE,,,,,,,CLR,,,,,,,,VFR,,,,,,,,,,,,METAR,398.0
KBHC 140415Z AUTO 00000KT 7SM CLR 03/03 A3004 RMK AO2,KBHC,2021-01-14T04:15:00Z,31.72,-82.4,3.0,3.0,0,0,,7.0,30.041338,,,TRUE,TRUE,,,,,,,CLR,,,,,,,,VFR,,,,,,,,,,,,METAR,61.0
KBGF 140415Z AUTO 13004KT 6SM BR CLR M03/M04 A2997 RMK A01,KBGF,2021-01-14T04:15:00Z,35.18,-86.07,-3.0,-4.0,130,4,,6.0,29.970472,,,TRUE,TRUE,,,,,,BR,CLR,,,,,,,,VFR,,,,,,,,,,,,SPECI,295.0
KBGE 140415Z AUTO 22004KT 10SM CLR 03/02 A3008 RMK AO2 T00320023,KBGE,2021-01-14T04:15:00Z,30.97,-84.63,3.2,2.3,220,4,,10.0,30.079725,,,TRUE,TRUE,,,,,,,CLR,,,,,,,,VFR,,,,,,,,,,,,SPECI,40.0
KBFW 140415Z AUTO 00000KT 7SM BKN004 M07/M08 A2956 RMK AO2,KBFW,2021-01-14T04:15:00Z,47.25,-91.4,-7.0,-8.0,0,0,,7.0,29.56004,,,TRUE,TRUE,,,,,,,BKN,400,,,,,,,LIFR,,,,,,,,,,,,METAR,335.0
KBEC 140415Z AUTO 22010KT 10SM CLR 07/00 A2969 RMK AO2 T00660004,KBEC,2021-01-14T04:15:00Z,37.7,-97.22,6.6,0.4,220,10,,10.0,29.68996,,,TRUE,TRUE,,,,,,,CLR,,,,,,,,VFR,,,,,,,,,,,,SPECI,421.0
KBDU 140415Z AUTO 29012G21KT 10SM BKN090 12/M06 A2983 RMK AO2,KBDU,2021-01-14T04:15:00Z,40.03,-105.23,12.0,-6.0,290,12,21,10.0,29.828741,,,TRUE,TRUE,,,,,,,BKN,9000,,,,,,,VFR,,,,,,,,,,,,METAR,1614.0
KBDH 140415Z AUTO 13006KT 10SM CLR 02/00 A2948 RMK AO2,KBDH,2021-01-14T04:15:00Z,45.12,-95.13,2.0,0.0,130,6,,10.0,29.480314,,,TRUE,TRUE,,,,,,,CLR,,,,,,,,VFR,,,,,,,,,,,,METAR,341.0
KBDG 140415Z AUTO 01004KT 10SM M01/M09 A3032 RMK AO1 T10101095,KBDG,2021-01-14T04:15:00Z,37.58,-109.47,-1.0,-9.5,10,4,,10.0,30.318897,,,TRUE,TRUE,,,,,,,,,,,,,,,,,,,,,,,,,,,METAR,1778.0
KBCK 140415Z AUTO 00000KT 10SM OVC100 00/M01 A2959 RMK AO2 T00001009,KBCK,2021-01-14T04:15:00Z,44.25,-90.85,0.0,-0.9,0,0,,10.0,29.589567,,,TRUE,TRUE,,,,,,,OVC,10000,,,,,,,VFR,,,,,,,,,,,,METAR,256.0
KBCB 140415Z AUTO 21003KT 10SM CLR 00/M08 A2990 RMK AO2 T00001076,KBCB,2021-01-14T04:15:00Z,37.22,-80.42,0.0,-7.6,210,3,,10.0,29.899607,,,TRUE,TRUE,,,,,,,CLR,,,,,,,,VFR,,,,,,,,,,,,METAR,642.0
KBBP 140415Z AUTO 23005KT 7SM OVC008 05/04 A2996 RMK AO2,KBBP,2021-01-14T04:15:00Z,34.62,-79.73,5.0,4.0,230,5,,7.0,29.958662,,,TRUE,TRUE,,,,,,,OVC,800,,,,,,,IFR,,,,,,,,,,,,METAR,44.0
KBBG 140415Z AUTO 22008KT 10SM CLR 08/M03 A2976 RMK AO2,KBBG,2021-01-14T04:15:00Z,36.53,-93.2,8.0,-3.0,220,8,,10.0,29.760826,,,TRUE,TRUE,,,,,,,CLR,,,,,,,,VFR,,,,,,,,,,,,METAR,403.0
KBBD 140415Z AUTO 21008KT 10SM CLR 08/M03 A2994 RMK AO2,KBBD,2021-01-14T04:15:00Z,31.18,-99.32,8.0,-3.0,210,8,,10.0,29.940945,,,TRUE,TRUE,,,,,,,CLR,,,,,,,,VFR,,,,,,,,,,,,METAR,554.0
KBBB 140415Z AUTO 18005KT 10SM CLR 01/00 A2945 RMK AO2,KBBB,2021-01-14T04:15:00Z,45.32,-95.65,1.0,0.0,180,5,,10.0,29.450787,,,TRUE,TRUE,,,,,,,CLR,,,,,,,,VFR,,,,,,,,,,,,METAR,315.0
KBAX 140415Z AUTO 10005KT 5SM BR CLR M03/M03 A2970 RMK AO2 T10281028,KBAX,2021-01-14T04:15:00Z,43.78,-82.98,-2.8,-2.8,100,5,,5.0,29.698818,,,TRUE,TRUE,,,,,,BR,CLR,,,,,,,,MVFR,,,,,,,,,,,,METAR,229.0
KBAM 140415Z AUTO 05011KT 10SM CLR 06/01 A3044 RMK AO1,KBAM,2021-01-14T04:15:00Z,,,6.0,1.0,50,11,,10.0,30.43996,,,TRUE,TRUE,,,,,,,CLR,,,,,,,,VFR,,,,,,,,,,,,METAR,
KAZC 140415Z AUTO 00000KT 10SM CLR 00/M10 A3031 RMK AO2,KAZC,2021-01-14T04:15:00Z,36.97,-113.02,0.0,-10.0,0,0,,10.0,30.31004,,,TRUE,TRUE,,,,,,,CLR,,,,,,,,VFR,,,,,,,,,,,,METAR,1476.0
KAYS 140415Z AUTO 22004KT 10SM CLR 04/02 A3006 RMK AO2 T00410017,KAYS,2021-01-14T04:15:00Z,31.25,-82.4,4.1,1.7,220,4,,10.0,30.059055,,,TRUE,TRUE,,,,,,,CLR,,,,,,,,VFR,,,,,,,,,,,,METAR,42.0
KAXX 140415Z AUTO 25014KT 10SM CLR M01/M09 A3012 RMK AO2 T10151095,KAXX,2021-01-14T04:15:00Z,36.42,-105.28,-1.5,-9.5,250,14,,10.0,30.121063,,,TRUE,TRUE,,,,,,,CLR,,,,,,,,VFR,,,,,,,,,,,,METAR,2543.0
KAXV 140415Z AUTO 20009KT 10SM CLR 03/M01 A2979 RMK AO2,KAXV,2021-01-14T04:15:00Z,40.5,-84.3,3.0,-1.0,200,9,,10.0,29.790354,,,TRUE,TRUE,,,,,,,CLR,,,,,,,,VFR,,,,,,,,,,,,METAR,278.0
KAXS 140415Z AUTO 15004KT 10SM CLR 05/00 A2981 RMK AO2 T00500000,KAXS,2021-01-14T04:15:00Z,34.7,-99.33,5.0,0.0,150,4,,10.0,29.811024,,,TRUE,TRUE,,,,,,,CLR,,,,,,,,VFR,,,,,,,,,,,,SPECI,433.0
KAXH 140415Z AUTO 00000KT 10SM CLR 05/02 A3008 RMK AO2 T00500017,KAXH,2021-01-14T04:15:00Z,29.52,-95.48,5.0,1.7,0,0,,10.0,30.079725,,,TRUE,TRUE,,,,,,,CLR,,,,,,,,VFR,,,,,,,,,,,,METAR,18.0
KAXA 140415Z AUTO 16007KT 8SM CLR 01/01 A2950 RMK A01,KAXA,2021-01-14T04:15:00Z,43.07,-94.27,1.0,1.0,160,7,,8.0,29.500984,,,TRUE,TRUE,,,,,,,CLR,,,,,,,,VFR,,,,,,,,,,,,METAR,371.0
KAWG 140415Z AUTO 16006KT 10SM CLR M00/M00 A2960 RMK AO2,KAWG,2021-01-14T04:15:00Z,41.27,-91.67,0.0,0.0,160,6,,10.0,29.601377,,,TRUE,TRUE,,,,,,,CLR,,,,,,,,VFR,,,,,,,,,,,,METAR,229.0
KAVQ 140415Z AUTO 00000KT 10SM CLR 10/M11 A3016 RMK AO2 T00961108,KAVQ,2021-01-14T04:15:00Z,32.4,-111.22,9.6,-10.8,0,0,,10.0,30.159449,,,TRUE,TRUE,,,,,,,CLR,,,,,,,,VFR,,,,,,,,,,,,METAR,618.0
KAVK 140415Z AUTO 24011KT 10SM CLR 06/00 A2973 RMK AO2 PWINO TSNO,KAVK,2021-01-14T04:15:00Z,36.77,-98.67,6.0,0.0,240,11,,10.0,29.731298,,,TRUE,TRUE,,,TRUE,,TRUE,,CLR,,,,,,,,VFR,,,,,,,,,,,,SPECI,450.0
KAVC 140415Z AUTO 20005KT 10SM CLR 02/M01 A2996 RMK AO2 T00151015,KAVC,2021-01-14T04:15:00Z,36.68,-78.05,1.5,-1.5,200,5,,10.0,29.958662,,,TRUE,TRUE,,,,,,,CLR,,,,,,,,VFR,,,,,,,,,,,,METAR,119.0
KAUN 140415Z AUTO 30004KT 10SM CLR 10/10 A3038 RMK A01,KAUN,2021-01-14T04:15:00Z,38.95,-121.08,10.0,10.0,300,4,,10.0,30.380905,,,TRUE,TRUE,,,,,,,CLR,,,,,,,,VFR,,,,,,,,,,,,METAR,453.0
KAUM 140415Z AUTO 17003KT 10SM CLR 00/M01 A2954 RMK AO2,KAUM,2021-01-14T04:15:00Z,43.67,-92.92,0.0,-1.0,170,3,,10.0,29.53937,,,TRUE,TRUE,,,,,,,CLR,,,,,,,,VFR,,,,,,,,,,,,METAR,376.0
KAUH 140415Z AUTO 24007KT 10SM CLR 06/02 A2953 RMK AO2 T00630018,KAUH,2021-01-14T04:15:00Z,40.88,-98.0,6.3,1.8,240,7,,10.0,29.530512,,,TRUE,TRUE,,,,,,,CLR,,,,,,,,VFR,,,,,,,,,,,,METAR,549.0
KATS 140415Z AUTO 25011KT 10SM CLR 10/M08 A2994 RMK AO2,KATS,2021-01-14T04:15:00Z,32.85,-104.47,10.0,-8.0,250,11,,10.0,29.940945,,,TRUE,TRUE,,,,,,,CLR,,,,,,,,VFR,,,,,,,,,,,,METAR,1073.0
KATP 140415Z AUTO 34004KT 10SM FEW028 15/08 A3011 RMK A01,KATP,2021-01-14T04:15:00Z,27.2,-90.03,15.0,8.0,340,4,,10.0,30.109253,,,TRUE,TRUE,,,,,,,FEW,2800,,,,,,,VFR,,,,,,,,,,,,SPECI,50.0
KASW 140415Z AUTO 22003KT 10SM OVC085 03/00 A2976 RMK AO2,KASW,2021-01-14T04:15:00Z,41.27,-85.83,3.0,0.0,220,3,,10.0,29.760826,,,TRUE,TRUE,,,,,,,OVC,8500,,,,,,,VFR,,,,,,,,,,,,METAR,253.0
KASN 140415Z AUTO 00000KT 10SM CLR M01/M02 A3006 RMK AO2 T10111020,KASN,2021-01-14T04:15:00Z,33.57,-86.05,-1.1,-2.0,0,0,,10.0,30.059055,,,TRUE,TRUE,,,,,,,CLR,,,,,,,,VFR,,,,,,,,,,,,METAR,159.0
KASL 140415Z AUTO 00000KT 10SM CLR 03/01 A3000 RMK AO1 T00300011,KASL,2021-01-14T04:15:00Z,32.52,-94.3,3.0,1.1,0,0,,10.0,30.0,,,TRUE,TRUE,,,,,,,CLR,,,,,,,,VFR,,,,,,,,,,,,METAR,104.0
KASJ 140415Z AUTO 00000KT 10SM CLR 00/00 A2993 RMK AO2 T10051005,KASJ,2021-01-14T04:15:00Z,36.28,-77.17,-0.5,-0.5,0,0,,10.0,29.929134,,,TRUE,TRUE,,,,,,,CLR,,,,,,,,VFR,,,,,,,,,,,,METAR,20.0
KARW 140415Z AUTO 23004KT 10SM SCT011 OVC100 06/05 A3000 RMK AO2,KARW,2021-01-14T04:15:00Z,32.42,-80.63,6.0,5.0,230,4,,10.0,30.0,,,TRUE,TRUE,,,,,,,SCT,1100,OVC,10000,,,,,VFR,,,,,,,,,,,,SPECI,2.0
KARV 140415Z AUTO 00000KT 7SM CLR M08/M12 A2958 RMK AO2 T10781125,KARV,2021-01-14T04:15:00Z,45.92,-89.72,-7.8,-12.5,0,0,,7.0,29.58071,,,TRUE,TRUE,,,,,,,CLR,,,,,,,,VFR,,,,,,,,,,,,METAR,494.0
KARM 140415Z AUTO 18004KT 10SM CLR 05/03 A3008 RMK AO2 T00520030,KARM,2021-01-14T04:15:00Z,29.25,-96.15,5.2,3.0,180,4,,10.0,30.079725,,,TRUE,TRUE,,,,,,,CLR,,,,,,,,VFR,,,,,,,,,,,,METAR,29.0
KAQX 140415Z AUTO 00000KT 10SM FEW110 05/05 A2999 RMK AO2,KAQX,2021-01-14T04:15:00Z,32.98,-81.27,5.0,5.0,0,0,,10.0,29.991142,,,TRUE,TRUE,,,,,,,FEW,11000,,,,,,,VFR,,,,,,,,,,,,METAR,48.0
KAQR 140415Z AUTO 15003KT A2986 RMK AO2 PWINO PNO,KAQR,2021-01-14T04:15:00Z,34.4,-96.15,,,150,3,,,29.861221,,,TRUE,TRUE,,,,,TRUE,,,,,,,,,,,,,,,,,,,,,,METAR,178.0
KAQO 140415Z AUTO 26004KT 10SM CLR 02/M02 A2997 RMK AO2,KAQO,2021-01-14T04:15:00Z,30.78,-98.67,2.0,-2.0,260,4,,10.0,29.970472,,,TRUE,TRUE,,,,,,,CLR,,,,,,,,VFR,,,,,,,,,,,,METAR,334.0
KAPY 140415Z AUTO 14003KT 10SM CLR 10/03 A3008 RMK AO2 T00990027 TSNO,KAPY,2021-01-14T04:15:00Z,26.97,-99.25,9.9,2.7,140,3,,10.0,30.079725,,,TRUE,TRUE,,,TRUE,,,,CLR,,,,,,,,VFR,,,,,,,,,,,,METAR,129.0
KAPS 140415Z AUTO 25004KT 10SM CLR 06/03 A3011 RMK AO2 T00640026,KAPS,2021-01-14T04:15:00Z,30.08,-90.58,6.4,2.6,250,4,,10.0,30.109253,,,TRUE,TRUE,,,,,,,CLR,,,,,,,,VFR,,,,,,,,,,,,METAR,1.0
KANW 140415Z AUTO 34036G55KT 5SM RA BKN015 BKN024 OVC065 04/03 A2967 RMK AO2 T00430025,KANW,2021-01-14T04:15:00Z,42.57,-100.0,4.3,2.5,340,36,55,5.0,29.66929,,,TRUE,TRUE,,,,,,RA,BKN,1500,BKN,2400,OVC,6500,,,MVFR,,,,,,,,,,,,METAR,788.0
KANK 140415Z AUTO 27024G37KT 10SM CLR 06/M05 A3014 RMK AO1 T00571051,KANK,2021-01-14T04:15:00Z,38.53,-106.05,5.7,-5.1,270,24,37,10.0,30.138779,,,TRUE,TRUE,,,,,,,CLR,,,,,,,,VFR,,,,,,,,,,,,METAR,2293.0
KALX 140415Z AUTO 00000KT 10SM CLR 01/00 A3005 RMK AO2 T00061001,KALX,2021-01-14T04:15:00Z,32.92,-85.97,0.6,-0.1,0,0,,10.0,30.050198,,,TRUE,TRUE,,,,,,,CLR,,,,,,,,VFR,,,,,,,,,,,,SPECI,198.0
KALN 140415Z AUTO 16007KT 10SM CLR 02/M01 A2975 RMK AO2 T00231008,KALN,2021-01-14T04:15:00Z,38.88,-90.03,2.3,-0.8,160,7,,10.0,29.749016,,,TRUE,TRUE,,,,,,,CLR,,,,,,,,VFR,,,,,,,,,,,,METAR,159.0
KALM 140415Z AUTO 08003KT 10SM CLR 04/M17 A3012 RMK AO2,KALM,2021-01-14T04:15:00Z,32.83,-105.98,4.0,-17.0,80,3,,10.0,30.121063,,,TRUE,TRUE,,,,,,,CLR,,,,,,,,VFR,,,,,,,,,,,,METAR,1267.0
KAJZ 140415Z AUTO 05004KT 10SM CLR M04/M12 A3027 RMK AO2 T10431119,KAJZ,2021-01-14T04:15:00Z,38.78,-108.07,-4.3,-11.9,50,4,,10.0,30.268702,,,TRUE,TRUE,,,,,,,CLR,,,,,,,,VFR,,,,,,,,,,,,METAR,1583.0
KAJR 140415Z AUTO 28004KT 10SM CLR 04/M02 A2992 RMK AO2 T00371018,KAJR,2021-01-14T04:15:00Z,34.5,-83.55,3.7,-1.8,280,4,,10.0,29.920275,,,TRUE,TRUE,,,,,,,CLR,,,,,,,,VFR,,,,,,,,,,,,METAR,441.0
KAJG 140415Z AUTO 21008KT 10SM CLR 04/M01 A2981 RMK AO2 T00381015,KAJG,2021-01-14T04:15:00Z,38.62,-87.73,3.8,-1.5,210,8,,10.0,29.811024,,,TRUE,TRUE,,,,,,,CLR,,,,,,,,VFR,,,,,,,,,,,,METAR,130.0
KAIT 140415Z AUTO 00000KT 10SM CLR M02/M04 A2949 RMK AO2,KAIT,2021-01-14T04:15:00Z,46.53,-93.67,-2.0,-4.0,0,0,,10.0,29.489174,,,TRUE,TRUE,,,,,,,CLR,,,,,,,,VFR,,,,,,,,,,,,METAR,367.0
KAIO 140415Z AUTO 00000KT 10SM FEW120 01/M01 A2954 RMK AO2,KAIO,2021-01-14T04:15:00Z,41.4,-95.03,1.0,-1.0,0,0,,10.0,29.53937,,,TRUE,TRUE,,,,,,,FEW,12000,,,,,,,VFR,,,,,,,,,,,,METAR,349.0
KAIK 140415Z AUTO 20004KT 5SM BR OVC110 03/03 A2997 RMK AO2 T00300027,KAIK,2021-01-14T04:15:00Z,33.65,-81.68,3.0,2.7,200,4,,5.0,29.970472,,,TRUE,TRUE,,,,,,BR,OVC,11000,,,,,,,MVFR,,,,,,,,,,,,METAR,155.0
KAIG 140415Z AUTO 05005KT 1/4SM FZFG OVC001 M11/M12 A2961 RMK AO2 T11111120,KAIG,2021-01-14T04:15:00Z,45.15,-89.12,-11.1,-12.0,50,5,,0.25,29.610237,,,TRUE,TRUE,,,,,,FZFG,OVC,100,,,,,,,LIFR,,,,,,,,,,,,METAR,462.0
KAHQ 140415Z AUTO 00000KT 10SM SCT120 03/01 A2953 RMK AO2 T00320011,KAHQ,2021-01-14T04:15:00Z,41.23,-96.6,3.2,1.1,0,0,,10.0,29.530512,,,TRUE,TRUE,,,,,,,SCT,12000,,,,,,,VFR,,,,,,,,,,,,METAR,372.0
KAFP 140415Z AUTO 00000KT 5SM BR OVC006 06/05 A2995 RMK AO2 T00600045,KAFP,2021-01-14T04:15:00Z,35.02,-80.08,6.0,4.5,0,0,,5.0,29.949802,,,TRUE,TRUE,,,,,,BR,OVC,600,,,,,,,IFR,,,,,,,,,,,,SPECI,91.0
KAFO 140415Z AUTO 28009KT 10SM SCT065 BKN080 BKN090 M03/M17 A3026 RMK AO2,KAFO,2021-01-14T04:15:00Z,42.72,-110.95,-3.0,-17.0,280,9,,10.0,30.259842,,,TRUE,TRUE,,,,,,,SCT,6500,BKN,8000,BKN,9000,,,VFR,,,,,,,,,,,,METAR,1881.0
KAFK 140415Z AUTO 20009KT 10SM CLR 06/00 A2956 RMK AO2 T00550001,KAFK,2021-01-14T04:15:00Z,40.6,-95.85,5.5,0.1,200,9,,10.0,29.56004,,,TRUE,TRUE,,,,,,,CLR,,,,,,,,VFR,,,,,,,,,,,,METAR,353.0
KAEL 140415Z AUTO 16006KT 10SM CLR 01/M01 A2951 RMK AO2,KAEL,2021-01-14T04:15:00Z,43.68,-93.37,1.0,-1.0,160,6,,10.0,29.509842,,,TRUE,TRUE,,,,,,,CLR,,,,,,,,VFR,,,,,,,,,,,,METAR,382.0
KAEJ 140415Z AUTO 26017G25KT 10SM SCT090 03/M06 A3007 RMK AO2 T00301064,KAEJ,2021-01-14T04:15:00Z,38.82,-106.12,3.0,-6.4,260,17,25,10.0,30.070866,,,TRUE,TRUE,,,,,,,SCT,9000,,,,,,,VFR,,,,,,,,,,,,METAR,2420.0
KADU 140415Z AUTO 00000KT 10SM CLR 01/M01 A2955 RMK AO2,KADU,2021-01-14T04:15:00Z,41.7,-94.92,1.0,-1.0,0,0,,10.0,29.551182,,,TRUE,TRUE,,,,,,,CLR,,,,,,,,VFR,,,,,,,,,,,,METAR,391.0
KADT 140415Z AUTO 34006KT 10SM CLR 11/M02 A2971 RMK AO2 T01061021,KADT,2021-01-14T04:15:00Z,39.83,-101.05,10.6,-2.1,340,6,,10.0,29.71063,,,TRUE,TRUE,,,,,,,CLR,,,,,,,,VFR,,,,,,,,,,,,METAR,899.0
KADS 140415Z AUTO 18008KT 10SM CLR 10/03 A2991 RMK AO2 T00960025,KADS,2021-01-14T04:15:00Z,32.97,-96.83,9.6,2.5,180,8,,10.0,29.911417,,,TRUE,TRUE,,,,,,,CLR,,,,,,,,VFR,,,,,,,,,,,,METAR,198.0
KACQ 140415Z AUTO 15006KT 10SM CLR 00/00 A2952 RMK AO2,KACQ,2021-01-14T04:15:00Z,44.07,-93.55,0.0,0.0,150,6,,10.0,29.518702,,,TRUE,TRUE,,,,,,,CLR,,,,,,,,VFR,,,,,,,,,,,,METAR,339.0
KACP 140415Z AUTO 00000KT 7SM CLR 03/01 A3007 RMK AO2,KACP,2021-01-14T04:15:00Z,30.75,-92.68,3.0,1.0,0,0,,7.0,30.070866,,,TRUE,TRUE,,,,,,,CLR,,,,,,,,VFR,,,,,,,,,,,,SPECI,31.0
KACB 140415Z AUTO 00000KT 5SM BR OVC014 01/00 A2969 RMK AO2 T00051004,KACB,2021-01-14T04:15:00Z,44.98,-85.2,0.5,-0.4,0,0,,5.0,29.68996,,,TRUE,TRUE,,,,,,BR,OVC,1400,,,,,,,MVFR,,,,,,,,,,,,METAR,189.0
KAAS 140415Z AUTO 18007KT 10SM CLR 01/M02 A2994 RMK AO1,KAAS,2021-01-14T04:15:00Z,37.35,-85.32,1.0,-2.0,180,7,,10.0,29.940945,,,TRUE,TRUE,,,,,,,CLR,,,,,,,,VFR,,,,,,,,,,,,SPECI,270.0
KAAA 140415Z AUTO 19007KT 10SM CLR 03/M02 A2972 RMK AO2 T00321017,KAAA,2021-01-14T04:15:00Z,40.17,-89.33,3.2,-1.7,190,7,,10.0,29.719488,,,TRUE,TRUE,,,,,,,CLR,,,,,,,,VFR,,,,,,,,,,,,METAR,179.0
KA39 140415Z AUTO 12004KT 10SM CLR 07/M10 A3022 RMK AO2,KA39,2021-01-14T04:15:00Z,32.98,-111.92,7.0,-10.0,120,4,,10.0,30.221457,,,TRUE,TRUE,,,,,,,CLR,,,,,,,,VFR,,,,,,,,,,,,METAR,391.0
K9V9 140415Z AUTO 32024G35KT 10SM -DZ SCT041 OVC047 07/02 A2961 RMK AO2 T00690021,K9V9,2021-01-14T04:15:00Z,43.77,-99.32,6.9,2.1,320,24,35,10.0,29.610237,,,TRUE,TRUE,,,,,,-DZ,SCT,4100,OVC,4700,,,,,VFR,,,,,,,,,,,,METAR,511.0
K9MN 140415Z AUTO 12008KT 10SM CLR 00/M01 A2955 RMK AO1 T00001015,K9MN,2021-01-14T04:15:00Z,44.02,-92.48,0.0,-1.5,120,8,,10.0,29.551182,,,TRUE,TRUE,,,,,,,CLR,,,,,,,,VFR,,,,,,,,,,,,METAR,308.0
K9D7 140415Z AUTO 26006KT 10SM SCT075 OVC095 02/02 A2936 RMK AO2,K9D7,2021-01-14T04:15:00Z,48.48,-99.23,2.0,2.0,260,6,,10.0,29.359253,,,TRUE,TRUE,,,,,,,SCT,7500,OVC,9500,,,,,VFR,,,,,,,,,,,,METAR,451.0
K9A5 140415Z AUTO 00000KT 1 3/4SM VV007 M02/M02 A3000 RMK AO2 T10161016,K9A5,2021-01-14T04:15:00Z,34.68,-85.28,-1.6,-1.6,0,0,,1.75,30.0,,,TRUE,TRUE,,,,,,,OVX,0,,,,,,,LIFR,,,,,,,,,,,700,METAR,234.0
K8A3 140415Z AUTO 22009KT 10SM CLR 01/M02 A2990 RMK A01,K8A3,2021-01-14T04:15:00Z,36.42,-85.32,1.0,-2.0,220,9,,10.0,29.899607,,,TRUE,TRUE,,,,,,,CLR,,,,,,,,VFR,,,,,,,,,,,,SPECI,413.0
K8A0 140415Z AUTO 23004KT 1/4SM OVC001 00/00 A3001 RMK AO2,K8A0,2021-01-14T04:15:00Z,34.23,-86.25,0.0,0.0,230,4,,0.25,30.008858,,,TRUE,TRUE,,,,,,,OVC,100,,,,,,,LIFR,,,,,,,,,,,,SPECI,313.0
K82V 140415Z AUTO 01029G36KT 7SM SCT012 SCT036 OVC070 00/M02 A2990 RMK AO2,K82V,2021-01-14T04:15:00Z,41.15,-104.13,0.0,-2.0,10,29,36,7.0,29.899607,,,TRUE,TRUE,,,,,,,SCT,1200,SCT,3600,OVC,7000,,,VFR,,,,,,,,,,,,METAR,1563.0
K82C 140415Z AUTO 00000KT 10SM OVC100 00/M01 A2960 RMK AO2 T00031006,K82C,2021-01-14T04:15:00Z,43.83,-90.13,0.3,-0.6,0,0,,10.0,29.601377,,,TRUE,TRUE,,,,,,,OVC,10000,,,,,,,VFR,,,,,,,,,,,,METAR,273.0
K81R 140415Z AUTO 11003KT 10SM CLR 06/M02 A2996 RMK AO2 T00591015,K81R,2021-01-14T04:15:00Z,,,5.9,-1.5,110,3,,10.0,29.958662,,,TRUE,TRUE,,,,,,,CLR,,,,,,,,VFR,,,,,,,,,,,,METAR,
K7W6 140415Z AUTO 00000KT 1 3/4SM BR VV007 03/02 A2995 RMK AO2 T00260019,K7W6,2021-01-14T04:15:00Z,35.55,-75.95,2.6,1.9,0,0,,1.75,29.949802,,,TRUE,TRUE,,,,,,BR,OVX,0,,,,,,,LIFR,,,,,,,,,,,700,SPECI,1.0
K7L2 140415Z AUTO 29007KT 10SM FEW031 BKN045 OVC055 05/03 A2953 RMK AO2,K7L2,2021-01-14T04:15:00Z,46.22,-100.25,5.0,3.0,290,7,,10.0,29.530512,,,TRUE,TRUE,,,,,,,FEW,3100,BKN,4500,OVC,5500,,,VFR,,,,,,,,,,,,METAR,541.0
K7BM 140415Z AUTO 34007G30KT 280V350 10SM SCT030 BKN035 OVC048 01/M07 A3009 RMK AO2,K7BM,2021-01-14T04:15:00Z,38.78,-106.22,1.0,-7.0,340,7,30,10.0,30.088583,,,TRUE,TRUE,,,,,,,SCT,3000,BKN,3500,OVC,4800,,,VFR,,,,,,,,,,,,METAR,2996.0
K77S 140415Z AUTO 27004KT 10SM CLR 06/06 A3043 RMK A01,K77S,2021-01-14T04:15:00Z,43.93,-123.0,6.0,6.0,270,4,,10.0,30.431103,,,TRUE,TRUE,,,,,,,CLR,,,,,,,,VFR,,,,,,,,,,,,METAR,161.0
K74V 140415Z AUTO 06008KT 10SM SCT045 SCT055 M12/M15 A3027 RMK AO2,K74V,2021-01-14T04:15:00Z,40.28,-110.05,-12.0,-15.0,60,8,,10.0,30.268702,,,TRUE,TRUE,,,,,,,SCT,4500,SCT,5500,,,,,VFR,,,,,,,,,,,,METAR,1567.0
K6S2 140415Z AUTO 08004KT 10SM CLR 09/05 A3040 RMK AO2 T00930052,K6S2,2021-01-14T04:15:00Z,43.98,-124.12,9.3,5.2,80,4,,10.0,30.398623,,,TRUE,TRUE,,,,,,,CLR,,,,,,,,VFR,,,,,,,,,,,,METAR,16.0
K6R3 140415Z AUTO 00000KT 7SM CLR 03/03 A3007 RMK AO2 T00320028,K6R3,2021-01-14T04:15:00Z,30.35,-95.0,3.2,2.8,0,0,,7.0,30.070866,,,TRUE,TRUE,,,,,,,CLR,,,,,,,,VFR,,,,,,,,,,,,METAR,44.0
K6P9 140415Z AUTO 21007KT 10SM CLR 07/00 A2988 RMK AO2 T00711001,K6P9,2021-01-14T04:15:00Z,32.43,-98.6,7.1,-0.1,210,7,,10.0,29.878937,,,TRUE,TRUE,,,,,,,CLR,,,,,,,,VFR,,,,,,,,,,,,METAR,451.0
K6L4 140415Z AUTO 00000KT 10SM CLR 01/M04 A2989 RMK AO2,K6L4,2021-01-14T04:15:00Z,37.85,-81.92,1.0,-4.0,0,0,,10.0,29.890747,,,TRUE,TRUE,,,,,,,CLR,,,,,,,,VFR,,,,,,,,,,,,METAR,504.0
K6I2 140415Z AUTO 18011KT 10SM CLR 03/M02 A2989 RMK AO2,K6I2,2021-01-14T04:15:00Z,37.63,-85.25,3.0,-2.0,180,11,,10.0,29.890747,,,TRUE,TRUE,,,,,,,CLR,,,,,,,,VFR,,,,,,,,,,,,SPECI,258.0
K6B9 140415Z AUTO VRB05KT 10SM SCT034 02/M02 A2976 RMK AO2,K6B9,2021-01-14T04:15:00Z,42.92,-76.43,2.0,-2.0,0,5,,10.0,29.760826,,,TRUE,TRUE,,,,,,,SCT,3400,,,,,,,VFR,,,,,,,,,,,,METAR,306.0
K6B0 140415Z AUTO 18006KT 10SM OVC037 00/M04 A2983 RMK AO2 T00001043,K6B0,2021-01-14T04:15:00Z,43.98,-73.1,0.0,-4.3,180,6,,10.0,29.828741,,,TRUE,TRUE,,,,,,,OVC,3700,,,,,,,VFR,,,,,,,,,,,,METAR,149.0
K6A2 140415Z AUTO 30005KT 10SM CLR 02/M04 A3001 RMK AO2,K6A2,2021-01-14T04:15:00Z,33.23,-84.27,2.0,-4.0,300,5,,10.0,30.008858,,,TRUE,TRUE,,,,,,,CLR,,,,,,,,VFR,,,,,,,,,,,,SPECI,290.0
K6A1 140415Z AUTO 26006KT 10SM CLR 04/M02 A3003 RMK AO2 T00411016,K6A1,2021-01-14T04:15:00Z,32.57,-84.25,4.1,-1.6,260,6,,10.0,30.029528,,,TRUE,TRUE,,,,,,,CLR,,,,,,,,VFR,,,,,,,,,,,,SPECI,198.0
K66R 140415Z AUTO 19006KT 10SM CLR 07/04 A3007 RMK AO2 T00650043,K66R,2021-01-14T04:15:00Z,29.65,-96.52,6.5,4.3,190,6,,10.0,30.070866,,,TRUE,TRUE,,,,,,,CLR,,,,,,,,VFR,,,,,,,,,,,,METAR,70.0
K63S 140415Z AUTO VRB04KT 10SM FEW037 BKN046 BKN055 M03/M05 A3038 RMK A01,K63S,2021-01-14T04:15:00Z,,,-3.0,-5.0,0,4,,10.0,30.380905,,,TRUE,TRUE,,,,,,,FEW,3700,BKN,4600,BKN,5500,,,VFR,,,,,,,,,,,,METAR,
K5SM 140415Z AUTO 24014G28KT 220V290 10SM BKN024 OVC031 M05/M08 A3020 RMK AO2,K5SM,2021-01-14T04:15:00Z,39.43,-107.38,-5.0,-8.0,240,14,28,10.0,30.200787,,,TRUE,TRUE,,,,,,,BKN,2400,OVC,3100,,,,,MVFR,,,,,,,,,,,,METAR,3229.0
K5R8 140415Z AUTO 00000KT 10SM CLR 03/01 A3009 RMK AO2 T00250013,K5R8,2021-01-14T04:15:00Z,30.43,-93.47,2.5,1.3,0,0,,10.0,30.088583,,,TRUE,TRUE,,,,,,,CLR,,,,,,,,VFR,,,,,,,,,,,,SPECI,26.0
K5M9 140415Z AUTO 22005KT 180V240 10SM CLR 05/M01 A2984 RMK AO2 T00451012,K5M9,2021-01-14T04:15:00Z,37.33,-88.12,4.5,-1.2,220,5,,10.0,29.840551,,,TRUE,TRUE,,,,,,,CLR,,,,,,,,VFR,,,,,,,,,,,,METAR,199.0
K5H4 140415Z AUTO 27013G21KT 10SM FEW055 BKN095 OVC110 06/M01 A2941 RMK AO2,K5H4,2021-01-14T04:15:00Z,47.78,-99.93,6.0,-1.0,270,13,21,10.0,29.409449,,,TRUE,TRUE,,,,,,,FEW,5500,BKN,9500,OVC,11000,,,VFR,,,,,,,,,,,,METAR,490.0
K5C1 140415Z AUTO 22008KT 10SM CLR 09/M01 RMK AO1,K5C1,2021-01-14T04:15:00Z,29.72,-98.7,9.0,-1.0,220,8,,10.0,,,,TRUE,TRUE,,,,,,,CLR,,,,,,,,VFR,,,,,,,,,,,,METAR,422.0
K57C 140415Z AUTO 00000KT 10SM BKN070 OVC090 01/00 A2965 RMK AO2 T00131005,K57C,2021-01-14T04:15:00Z,42.8,-88.37,1.3,-0.5,0,0,,10.0,29.648623,,,TRUE,TRUE,,,,,,,BKN,7000,OVC,9000,,,,,VFR,,,,,,,,,,,,METAR,454.0
K54J 140415Z AUTO 00000KT 10SM CLR 04/02 A3008 RMK AO2 T00360018,K54J,2021-01-14T04:15:00Z,30.73,-86.15,3.6,1.8,0,0,,10.0,30.079725,,,TRUE,TRUE,,,,,,,CLR,,,,,,,,VFR,,,,,,,,,,,,METAR,87.0
K54A 140415Z AUTO 00000KT 10SM OVC070 13/13 A3007 RMK AO2,K54A,2021-01-14T04:15:00Z,26.85,-82.25,13.0,13.0,0,0,,10.0,30.070866,,,TRUE,TRUE,,,,,,,OVC,7000,,,,,,,VFR,,,,,,,,,,,,METAR,2.0
K4V0 140415Z AUTO 21004KT 10SM CLR M14/M15 A3026 RMK AO2 T11361152,K4V0,2021-01-14T04:15:00Z,40.1,-108.77,-13.6,-15.2,210,4,,10.0,30.259842,,,TRUE,TRUE,,,,,,,CLR,,,,,,,,VFR,,,,,,,,,,,,METAR,1602.0
K4S1 140415Z AUTO 00000KT 1/2SM +RA OVC002 09/08 A3041 RMK AO2,K4S1,2021-01-14T04:15:00Z,42.42,-124.42,9.0,8.0,0,0,,0.5,30.410433,,,TRUE,TRUE,,,,,,+RA,OVC,200,,,,,,,LIFR,,,,,,,,,,,,METAR,7.0
K4R5 140415Z AUTO 00000KT 10SM CLR M09/M10 A2958 RMK AO2 T10911100,K4R5,2021-01-14T04:15:00Z,46.78,-90.77,-9.1,-10.0,0,0,,10.0,29.58071,,,TRUE,TRUE,,,,,,,CLR,,,,,,,,VFR,,,,,,,,,,,,METAR,195.0
K4O4 140415Z AUTO 19009KT 10SM CLR 06/00 A2992 RMK AO2,K4O4,2021-01-14T04:15:00Z,33.92,-94.87,6.0,0.0,190,9,,10.0,29.920275,,,TRUE,TRUE,,,,,,,CLR,,,,,,,,VFR,,,,,,,,,,,,METAR,148.0
K4I3 140415Z AUTO 21007KT 10SM CLR 03/M02 A2983 RMK AO2,K4I3,2021-01-14T04:15:00Z,40.33,-82.53,3.0,-2.0,210,7,,10.0,29.828741,,,TRUE,TRUE,,,,,,,CLR,,,,,,,,VFR,,,,,,,,,,,,METAR,361.0
K4F2 140415Z AUTO 18006KT 10SM CLR 04/02 A2999 RMK AO2 T00440025,K4F2,2021-01-14T04:15:00Z,32.18,-94.3,4.4,2.5,180,6,,10.0,29.991142,,,TRUE,TRUE,,,,,,,CLR,,,,,,,,VFR,,,,,,,,,,,,METAR,76.0
K4BM 140415Z AUTO 23014G25KT 210V280 10SM SCT110 M05/M07 A3001 RMK AO2,K4BM,2021-01-14T04:15:00Z,39.05,-105.52,-5.0,-7.0,230,14,25,10.0,30.008858,,,TRUE,TRUE,,,,,,,SCT,11000,,,,,,,VFR,,,,,,,,,,,,METAR,3432.0
K4A9 140415Z AUTO 24003KT 5SM BR OVC008 M01/M01 A3000 RMK AO2 T10071015,K4A9,2021-01-14T04:15:00Z,34.47,-85.72,-0.7,-1.5,240,3,,5.0,30.0,,,TRUE,TRUE,,,,,,BR,OVC,800,,,,,,,IFR,,,,,,,,,,,,METAR,273.0
K4A6 140415Z AUTO 23004KT 6SM BR BKN019 BKN055 00/00 A3002 RMK AO2,K4A6,2021-01-14T04:15:00Z,34.68,-86.0,0.0,0.0,230,4,,6.0,30.02067,,,TRUE,TRUE,,,,,,BR,BKN,1900,BKN,5500,,,,,MVFR,,,,,,,,,,,,METAR,191.0
K49A 140415Z AUTO 00000KT 10SM CLR 00/M02 A3001 RMK AO2 T00001020,K49A,2021-01-14T04:15:00Z,34.63,-84.53,0.0,-2.0,0,0,,10.0,30.008858,,,TRUE,TRUE,,,,,,,CLR,,,,,,,,VFR,,,,,,,,,,,,METAR,449.0
K48A 140415Z AUTO 24005KT 10SM CLR 04/02 A3003 RMK AO2 T00370016,K48A,2021-01-14T04:15:00Z,32.4,-83.27,3.7,1.6,240,5,,10.0,30.029528,,,TRUE,TRUE,,,,,,,CLR,,,,,,,,VFR,,,,,,,,,,,,METAR,115.0
K46U 140415Z AUTO 00000KT 10SM CLR M04/M09 A3026 RMK A01,K46U,2021-01-14T04:15:00Z,43.18,-111.05,-4.0,-9.0,0,0,,10.0,30.259842,,,TRUE,TRUE,,,,,,,CLR,,,,,,,,VFR,,,,,,,,,,,,METAR,1718.0
K46D 140415Z AUTO 29012KT 9SM SCT075 SCT085 05/02 A2942 RMK AO2,K46D,2021-01-14T04:15:00Z,47.45,-99.15,5.0,2.0,290,12,,9.0,29.421259,,,TRUE,TRUE,,,,,,,SCT,7500,SCT,8500,,,,,VFR,,,,,,,,,,,,METAR,488.0
K42J 140415Z AUTO 28006G12KT 9SM BKN009 OVC013 07/07 A3007 RMK A01 TSNO,K42J,2021-01-14T04:15:00Z,29.85,-82.05,7.0,7.0,280,6,12,9.0,30.070866,,,TRUE,TRUE,,,TRUE,,,,BKN,900,OVC,1300,,,,,IFR,,,,,,,,,,,,METAR,57.0
K41U 140415Z AUTO 00000KT 10SM BKN065 M06/M10 A3031 RMK AO1 T10641098,K41U,2021-01-14T04:15:00Z,39.33,-111.6,-6.4,-9.8,0,0,,10.0,30.31004,,,TRUE,TRUE,,,,,,,BKN,6500,,,,,,,VFR,,,,,,,,,,,,METAR,1676.0
K3T5 140415Z AUTO 19006KT 10SM CLR 09/05 A3001 RMK AO2 T00850046,K3T5,2021-01-14T04:15:00Z,29.9,-96.95,8.5,4.6,190,6,,10.0,30.008858,,,TRUE,TRUE,,,,,,,CLR,,,,,,,,VFR,,,,,,,,,,,,METAR,96.0
K3S8 140415Z AUTO 00000KT 10SM CLR 08/07 A3043 RMK AO2,K3S8,2021-01-14T04:15:00Z,42.5,-123.4,8.0,7.0,0,0,,10.0,30.431103,,,TRUE,TRUE,,,,,,,CLR,,,,,,,,VFR,,,,,,,,,,,,METAR,339.0
K3R7 140415Z AUTO 00000KT 7SM CLR 04/04 A3011 RMK AO2 T00440044,K3R7,2021-01-14T04:15:00Z,30.25,-92.67,4.4,4.4,0,0,,7.0,30.109253,,,TRUE,TRUE,,,,,,,CLR,,,,,,,,VFR,,,,,,,,,,,,SPECI,5.0
K3N8 140415Z AUTO 17005KT 10SM CLR 02/M01 A2940 RMK AO2 T00171007,K3N8,2021-01-14T04:15:00Z,47.25,-95.92,1.7,-0.7,170,5,,10.0,29.40059,,,TRUE,TRUE,,,,,,,CLR,,,,,,,,VFR,,,,,,,,,,,,METAR,379.0
K3LF 140415Z AUTO 16009KT 10SM CLR 01/M02 A2976 RMK AO2 T00121017,K3LF,2021-01-14T04:15:00Z,39.17,-89.67,1.2,-1.7,160,9,,10.0,29.760826,,,TRUE,TRUE,,,,,,,CLR,,,,,,,,VFR,,,,,,,,,,,,METAR,207.0
K3K3 140415Z AUTO 00000KT 10SM CLR 05/M05 A2978 RMK AO2,K3K3,2021-01-14T04:15:00Z,38.0,-101.75,5.0,-5.0,0,0,,10.0,29.778543,,,TRUE,TRUE,,,,,,,CLR,,,,,,,,VFR,,,,,,,,,,,,SPECI,1010.0
K3J7 140415Z AUTO 27003KT 10SM CLR 03/01 A2998 RMK AO2,K3J7,2021-01-14T04:15:00Z,33.6,-83.13,3.0,1.0,270,3,,10.0,29.97933,,,TRUE,TRUE,,,,,,,CLR,,,,,,,,VFR,,,,,,,,,,,,SPECI,207.0
K3I2 140415Z AUTO 00000KT 10SM CLR 02/M02 A2990 RMK AO2 T00161022,K3I2,2021-01-14T04:15:00Z,38.92,-82.1,1.6,-2.2,0,0,,10.0,29.899607,,,TRUE,TRUE,,,,,,,CLR,,,,,,,,VFR,,,,,,,,,,,,METAR,195.0
K3F3 140415Z AUTO 19008KT 10SM CLR 07/03 A3003 RMK AO2 T00690033,K3F3,2021-01-14T04:15:00Z,32.07,-93.77,6.9,3.3,190,8,,10.0,30.029528,,,TRUE,TRUE,,,,,,,CLR,,,,,,,,VFR,,,,,,,,,,,,METAR,96.0
K3AU 140415Z AUTO 20007KT 10SM CLR 06/01 A2969 RMK AO2,K3AU,2021-01-14T04:15:00Z,37.67,-97.08,6.0,1.0,200,7,,10.0,29.68996,,,TRUE,TRUE,,,,,,,CLR,,,,,,,,VFR,,,,,,,,,,,,METAR,403.0
K35A 140415Z AUTO 00000KT 3SM BR BKN003 02/02 A2999 RMK A02 T00230022,K35A,2021-01-14T04:15:00Z,,,2.3,2.2,0,0,,3.0,29.991142,,,TRUE,TRUE,,,,,,BR,BKN,300,,,,,,,LIFR,,,,,,,,,,,,METAR,
K33V 140415Z AUTO 26040G54KT 5SM SCT050 BKN065 OVC090 01/M08 A2997 RMK AO2 T00081077,K33V,2021-01-14T04:15:00Z,40.75,-106.28,0.8,-7.7,260,40,54,5.0,29.970472,,,TRUE,TRUE,,,,,,,SCT,5000,BKN,6500,OVC,9000,,,MVFR,,,,,,,,,,,,METAR,2486.0
K33N 140415Z AUTO 00000KT 9SM CLR M01/M01 A2990 RMK A01,K33N,2021-01-14T04:15:00Z,39.22,-75.6,-1.0,-1.0,0,0,,9.0,29.899607,,,TRUE,TRUE,,,,,,,CLR,,,,,,,,VFR,,,,,,,,,,,,METAR,17.0
K2W6 140415Z AUTO 00000KT 10SM CLR 00/M01 A2990 RMK AO1,K2W6,2021-01-14T04:15:00Z,38.32,-76.55,0.0,-1.0,0,0,,10.0,29.899607,,,TRUE,TRUE,,,,,,,CLR,,,,,,,,VFR,,,,,,,,,,,,METAR,40.0
K2V5 140415Z AUTO 31021G37KT 10SM CLR 13/M05 A2972 RMK AO2,K2V5,2021-01-14T04:15:00Z,40.1,-102.25,13.0,-5.0,310,21,37,10.0,29.719488,,,TRUE,TRUE,,,,,,,CLR,,,,,,,,VFR,,,,,,,,,,,,METAR,1117.0
K2R9 140415Z AUTO 18006KT 10SM CLR 08/04 A3008 RMK AO2 T00790041,K2R9,2021-01-14T04:15:00Z,28.82,-97.87,7.9,4.1,180,6,,10.0,30.079725,,,TRUE,TRUE,,,,,,,CLR,,,,,,,,VFR,,,,,,,,,,,,METAR,88.0
K2P2 140415Z AUTO 00000KT 5SM BR OVC011 M06/M06 A2966 RMK AO2 T10591060,K2P2,2021-01-14T04:15:00Z,45.38,-86.92,-5.9,-6.0,0,0,,5.0,29.660433,,,TRUE,TRUE,,,,,,BR,OVC,1100,,,,,,,MVFR,,,,,,,,,,,,METAR,182.0
K2M2 140415Z AUTO 20005KT 10SM SCT023 00/M02 A2995 RMK A01,K2M2,2021-01-14T04:15:00Z,35.23,-87.25,0.0,-2.0,200,5,,10.0,29.949802,,,TRUE,TRUE,,,,,,,SCT,2300,,,,,,,VFR,,,,,,,,,,,,SPECI,286.0
K2LS 140415Z AUTO 00000KT 10SM CLR 07/05 A3013 RMK AO2,K2LS,2021-01-14T04:15:00Z,29.42,-90.3,7.0,5.0,0,0,,10.0,30.129921,,,TRUE,TRUE,,,,,,,CLR,,,,,,,,VFR,,,,,,,,,,,,METAR,0.0
K2J3 140415Z AUTO 24005KT 10SM SCT095 04/04 A3001 RMK AO2 T00410039,K2J3,2021-01-14T04:15:00Z,32.98,-82.38,4.1,3.9,240,5,,10.0,30.008858,,,TRUE,TRUE,,,,,,,SCT,9500,,,,,,,VFR,,,,,,,,,,,,SPECI,97.0
K2IS 140415Z AUTO 00000KT 3 1/2SM -RA BR OVC065 14/14 A3006 RMK AO2 T01450142,K2IS,2021-01-14T04:15:00Z,26.73,-81.05,14.5,14.2,0,0,,3.5,30.059055,,,TRUE,TRUE,,,,,,-RA BR,OVC,6500,,,,,,,MVFR,,,,,,,,,,,,SPECI,5.0
K2I0 140415Z AUTO 20005KT 10SM CLR 04/M03 A2988 RMK AO2 T00421030,K2I0,2021-01-14T04:15:00Z,37.35,-87.4,4.2,-3.0,200,5,,10.0,29.878937,,,TRUE,TRUE,,,,,,,CLR,,,,,,,,VFR,,,,,,,,,,,,METAR,127.0
K2G9 140415Z AUTO 21008KT 10SM CLR 01/M03 A2981 RMK AO2,K2G9,2021-01-14T04:15:00Z,40.03,-79.02,1.0,-3.0,210,8,,10.0,29.811024,,,TRUE,TRUE,,,,,,,CLR,,,,,,,,VFR,,,,,,,,,,,,METAR,677.0
K2G4 140415Z AUTO 24009KT 10SM CLR 00/M05 A2980 RMK AO1,K2G4,2021-01-14T04:15:00Z,39.58,-79.33,0.0,-5.0,240,9,,10.0,29.799213,,,TRUE,TRUE,,,,,,,CLR,,,,,,,,VFR,,,,,,,,,,,,METAR,908.0
K2D5 140415Z AUTO 22007KT 9SM FEW036 BKN046 OVC070 02/02 A2943 RMK AO2,K2D5,2021-01-14T04:15:00Z,46.17,-98.08,2.0,2.0,220,7,,9.0,29.430119,,,TRUE,TRUE,,,,,,,FEW,3600,BKN,4600,OVC,7000,,,VFR,,,,,,,,,,,,METAR,407.0
K2A0 140415Z AUTO 00000KT 3/4SM BR VV005 M03/M04 A2998 RMK A01,K2A0,2021-01-14T04:15:00Z,35.48,-84.93,-3.0,-4.0,0,0,,0.75,29.97933,,,TRUE,TRUE,,,,,,BR,OVX,0,,,,,,,LIFR,,,,,,,,,,,500,SPECI,219.0
K24J 140415Z AUTO 00000KT 1 3/4SM BR CLR 03/03 A3008 RMK A01,K24J,2021-01-14T04:15:00Z,30.3,-83.03,3.0,3.0,0,0,,1.75,30.079725,,,TRUE,TRUE,,,,,,BR,CLR,,,,,,,,IFR,,,,,,,,,,,,METAR,30.0
K22N 140415Z AUTO 00000KT 5SM BR BKN120 M02/M02 A2990 RMK AO2,K22N,2021-01-14T04:15:00Z,40.8,-75.77,-2.0,-2.0,0,0,,5.0,29.899607,,,TRUE,TRUE,,,,,,BR,BKN,12000,,,,,,,MVFR,,,,,,,,,,,,METAR,159.0
K20V 140415Z AUTO 25022G28KT 7SM SCT028 BKN050 OVC090 02/M03 A3005 RMK AO2,K20V,2021-01-14T04:15:00Z,40.05,-106.37,2.0,-3.0,250,22,28,7.0,30.050198,,,TRUE,TRUE,,,,,,,SCT,2800,BKN,5000,OVC,9000,,,VFR,,,,,,,,,,,,METAR,2259.0
K1V6 140415Z AUTO 28015KT 10SM CLR 10/M03 A2991 RMK AO2,K1V6,2021-01-14T04:15:00Z,38.43,-105.1,10.0,-3.0,280,15,,10.0,29.911417,,,TRUE,TRUE,,,,,,,CLR,,,,,,,,VFR,,,,,,,,,,,,METAR,1658.0
K1U7 140415Z AUTO 30018KT 10SM CLR M03/M11 A3028 RMK A01,K1U7,2021-01-14T04:15:00Z,42.25,-111.33,-3.0,-11.0,300,18,,10.0,30.280512,,,TRUE,TRUE,,,,,,,CLR,,,,,,,,VFR,,,,,,,,,,,,METAR,1808.0
K1R7 140415Z AUTO 18003KT 10SM CLR 03/01 A3005 RMK AO2 PWINO,K1R7,2021-01-14T04:15:00Z,31.6,-90.42,3.0,1.0,180,3,,10.0,30.050198,,,TRUE,TRUE,,,,,TRUE,,CLR,,,,,,,,VFR,,,,,,,,,,,,METAR,142.0
K1P1 140415Z AUTO 00000KT 10SM OVC041 M02/M03 A2985 RMK AO2 T10161034,K1P1,2021-01-14T04:15:00Z,43.78,-71.75,-1.6,-3.4,0,0,,10.0,29.84941,,,TRUE,TRUE,,,,,,,OVC,4100,,,,,,,VFR,,,,,,,,,,,,SPECI,155.0
K1M5 140415Z AUTO 17008KT 10SM CLR 02/M01 A2990 RMK A01,K1M5,2021-01-14T04:15:00Z,36.6,-86.48,2.0,-1.0,170,8,,10.0,29.899607,,,TRUE,TRUE,,,,,,,CLR,,,,,,,,VFR,,,,,,,,,,,,SPECI,239.0
K1K1 140415Z AUTO 22009KT 10SM CLR 06/01 A2969 RMK AO2 T00630005,K1K1,2021-01-14T04:15:00Z,37.77,-97.12,6.3,0.5,220,9,,10.0,29.68996,,,TRUE,TRUE,,,,,,,CLR,,,,,,,,VFR,,,,,,,,,,,,METAR,411.0
K1H2 140415Z AUTO 17005KT 10SM CLR 04/M01 A2980 RMK AO2 T00371007,K1H2,2021-01-14T04:15:00Z,39.07,-88.53,3.7,-0.7,170,5,,10.0,29.799213,,,TRUE,TRUE,,,,,,,CLR,,,,,,,,VFR,,,,,,,,,,,,METAR,174.0
K1F0 140415Z AUTO 18005KT 10SM CLR 07/M01 A2983 RMK AO2 T00661013,K1F0,2021-01-14T04:15:00Z,34.15,-97.12,6.6,-1.3,180,5,,10.0,29.828741,,,TRUE,TRUE,,,,,,,CLR,,,,,,,,VFR,,,,,,,,,,,,SPECI,256.0
K1A9 140415Z AUTO 00000KT 10SM CLR M01/M01 A3006 RMK AO2 T10071007,K1A9,2021-01-14T04:15:00Z,32.43,-86.52,-0.7,-0.7,0,0,,10.0,30.059055,,,TRUE,TRUE,,,,,,,CLR,,,,,,,,VFR,,,,,,,,,,,,SPECI,65.0
K1A6 140415Z AUTO 00000KT 10SM CLR M04/M04 A2995 RMK AO2 T10451045,K1A6,2021-01-14T04:15:00Z,36.62,-83.73,-4.5,-4.5,0,0,,10.0,29.949802,,,TRUE,TRUE,,,,,,,CLR,,,,,,,,VFR,,,,,,,,,,,,SPECI,348.0
K19S 140415Z AUTO 25007KT 10SM CLR 08/M03 A2976 RMK AO2 T00781033,K19S,2021-01-14T04:15:00Z,37.48,-100.83,7.8,-3.3,250,7,,10.0,29.760826,,,TRUE,TRUE,,,,,,,CLR,,,,,,,,VFR,,,,,,,,,,,,METAR,886.0
K18H 140415Z AUTO 00000KT 6SM HZ FEW034 18/10 A3011 RMK A01,K18H,2021-01-14T04:15:00Z,26.13,-92.03,18.0,10.0,0,0,,6.0,30.109253,,,TRUE,TRUE,,,,,,HZ,FEW,3400,,,,,,,VFR,,,,,,,,,,,,METAR,30.0
K18A 140415Z AUTO 23003KT 7SM CLR 02/00 A2996 RMK AO2 T00170003 TSNO,K18A,2021-01-14T04:15:00Z,34.35,-83.13,1.7,0.3,230,3,,7.0,29.958662,,,TRUE,TRUE,,,TRUE,,,,CLR,,,,,,,,VFR,,,,,,,,,,,,METAR,260.0
K17J 140415Z AUTO 00000KT 10SM CLR 03/01 A3008 RMK AO2 T00260013,K17J,2021-01-14T04:15:00Z,31.0,-84.87,2.6,1.3,0,0,,10.0,30.079725,,,TRUE,TRUE,,,,,,,CLR,,,,,,,,VFR,,,,,,,,,,,,SPECI,42.0
K14Y 140415Z AUTO 14004KT 7SM CLR 00/M02 A2946 RMK AO2,K14Y,2021-01-14T04:15:00Z,45.9,-94.87,0.0,-2.0,140,4,,7.0,29.459646,,,TRUE,TRUE,,,,,,,CLR,,,,,,,,VFR,,,,,,,,,,,,METAR,404.0
K13K 140415Z AUTO 21012KT 10SM CLR 09/01 A2969 RMK AO2 T00900005,K13K,2021-01-14T04:15:00Z,37.85,-96.3,9.0,0.5,210,12,,10.0,29.68996,,,TRUE,TRUE,,,,,,,CLR,,,,,,,,VFR,,,,,,,,,,,,SPECI,367.0
K11R 140415Z AUTO 19007KT 10SM CLR 08/05 A3004 RMK AO2 T00830050,K11R,2021-01-14T04:15:00Z,30.22,-96.37,8.3,5.0,190,7,,10.0,30.041338,,,TRUE,TRUE,,,,,,,CLR,,,,,,,,VFR,,,,,,,,,,,,METAR,87.0
K0V4 140415Z AUTO 19003KT 10SM CLR M02/M05 A2988 RMK AO1 T10231051,K0V4,2021-01-14T04:15:00Z,37.15,-79.02,-2.3,-5.1,190,3,,10.0,29.878937,,,TRUE,TRUE,,,,,,,CLR,,,,,,,,VFR,,,,,,,,,,,,METAR,186.0
K0S9 140415Z AUTO 00000KT 8SM BKN029 OVC036 01/01 A3050 RMK AO2,K0S9,2021-01-14T04:15:00Z,48.05,-122.82,1.0,1.0,0,0,,8.0,30.499016,,,TRUE,TRUE,,,,,,,BKN,2900,OVC,3600,,,,,MVFR,,,,,,,,,,,,METAR,33.0
K0R4 140415Z AUTO 19006KT 10SM CLR 05/03 A3004 RMK AO2 T00540025,K0R4,2021-01-14T04:15:00Z,31.57,-91.5,5.4,2.5,190,6,,10.0,30.041338,,,TRUE,TRUE,,,,,,,CLR,,,,,,,,VFR,,,,,,,,,,,,SPECI,16.0
K0R0 140415Z AUTO 00000KT 8SM CLR 02/01 A3010 RMK AO2,K0R0,2021-01-14T04:15:00Z,31.3,-89.82,2.0,1.0,0,0,,8.0,30.100393,,,TRUE,TRUE,,,,,,,CLR,,,,,,,,VFR,,,,,,,,,,,,SPECI,76.0
K0F2 140415Z AUTO 18004KT 10SM CLR 06/00 A2985 RMK AO2 T00621004,K0F2,2021-01-14T04:15:00Z,33.6,-97.78,6.2,-0.4,180,4,,10.0,29.84941,,,TRUE,TRUE,,,,,,,CLR,,,,,,,,VFR,,,,,,,,,,,,METAR,330.0
K0E0 140415Z AUTO 03006G14KT 10SM CLR 07/M07 A3012 RMK AO2 T00681066,K0E0,2021-01-14T04:15:00Z,34.98,-106.0,6.8,-6.6,30,6,14,10.0,30.121063,,,TRUE,TRUE,,,,,,,CLR,,,,,,,,VFR,,,,,,,,,,,,METAR,1887.0
K0CO 140415Z AUTO 1 1/2SM -SN SCT006 OVC011 M08/M17 A2992 RMK AO2,K0CO,2021-01-14T04:15:00Z,39.8,-105.77,-8.0,-17.0,,,,1.5,29.920275,,,TRUE,TRUE,,,,,,-SN,SCT,600,OVC,1100,,,,,IFR,,,,,,,,,,,,METAR,3804.0
K0A0 140415Z AUTO 00000KT 10SM CLR 03/M18 A3013 RMK AO2,K0A0,2021-01-14T04:15:00Z,32.98,-106.97,3.0,-18.0,0,0,,10.0,30.129921,,,TRUE,TRUE,,,,,,,CLR,,,,,,,,VFR,,,,,,,,,,,,METAR,1401.0
K08D 140415Z AUTO 27025G38KT 10SM OVC041 02/00 A2940 RMK AO2,K08D,2021-01-14T04:15:00Z,48.3,-102.4,2.0,0.0,270,25,38,10.0,29.40059,,,TRUE,TRUE,,,,,,,OVC,4100,,,,,,,VFR,,,,,,,,,,,,METAR,683.0
K06D 140415Z AUTO 22008KT 10SM BKN019 OVC100 02/02 A2931 RMK AO2,K06D,2021-01-14T04:15:00Z,48.88,-99.62,2.0,2.0,220,8,,10.0,29.309055,,,TRUE,TRUE,,,,,,,BKN,1900,OVC,10000,,,,,MVFR,,,,,,,,,,,,METAR,554.0
K06C 140415Z AUTO 00000KT 10SM SCT110 02/00 A2968 RMK AO2 T00200000,K06C,2021-01-14T04:15:00Z,41.98,-88.1,2.0,0.0,0,0,,10.0,29.681103,,,TRUE,TRUE,,,,,,,SCT,11000,,,,,,,VFR,,,,,,,,,,,,METAR,243.0
K05U 140415Z AUTO 30007G14KT 10SM CLR 06/00 A3042 RMK A01,K05U,2021-01-14T04:15:00Z,39.6,-116.0,6.0,0.0,300,7,14,10.0,30.41929,,,TRUE,TRUE,,,,,,,CLR,,,,,,,,VFR,,,,,,,,,,,,METAR,1813.0
K04W 140415Z AUTO 10004KT 10SM CLR M01/M01 A2953 RMK AO2,K04W,2021-01-14T04:15:00Z,46.02,-92.9,-1.0,-1.0,100,4,,10.0,29.530512,,,TRUE,TRUE,,,,,,,CLR,,,,,,,,VFR,,,,,,,,,,,,METAR,310.0
K04V 140415Z AUTO 33027G42KT 10SM CLR 04/M05 A3009 RMK AO2,K04V,2021-01-14T04:15:00Z,38.1,-106.17,4.0,-5.0,330,27,42,10.0,30.088583,,,TRUE,TRUE,,,,,,,CLR,,,,,,,,VFR,,,,,,,,,,,,METAR,2389.0
EBFS 140415Z AUTO 25003KT 3600 -SN OVC022/// 00/00 Q1017 YLO,EBFS,2021-01-14T04:15:00Z,50.23,4.65,0.0,0.0,250,3,,2.24,30.029528,,,TRUE,,,,,,,-SN,OVC,2200,,,,,,,IFR,,,,,,,,,,,,SPECI,276.0
CYHK 140415Z AUTO 13014KT 1SM -SN OVC026 M19/M20 A2935 RMK SLP940,CYHK,2021-01-14T04:15:00Z,68.62,-95.85,-19.0,-20.0,130,14,,1.0,29.350393,994.0,,TRUE,,,,,,,-SN,OVC,2600,,,,,,,IFR,,,,,,,,,,,,SPECI,36.0
CWPF 140415Z AUTO 28001KT 06/03 RMK AO1 SLP327 T00640031 53003,CWPF,2021-01-14T04:15:00Z,48.43,-123.43,6.4,3.1,280,1,,,,1032.7,,TRUE,TRUE,,,,,,,,,,,,,,,,0.3,,,,,,,,,,,METAR,5.0
KSSI 140414Z AUTO 23006KT 10SM BKN017 07/06 A3006 RMK AO2 T00720061,KSSI,2021-01-14T04:14:00Z,31.15,-81.38,7.2,6.1,230,6,,10.0,30.059055,,,TRUE,TRUE,,,,,,,BKN,1700,,,,,,,MVFR,,,,,,,,,,,,METAR,6.0
KSRQ 140414Z 35005KT 10SM BKN027 OVC110 14/11 A3007 RMK AO2 T01390106,KSRQ,2021-01-14T04:14:00Z,27.4,-82.57,13.9,10.6,350,5,,10.0,30.070866,,,,TRUE,,,,,,,BKN,2700,OVC,11000,,,,,MVFR,,,,,,,,,,,,METAR,5.0
KDLZ 140414Z AUTO 21008KT 10SM OVC095 03/M01 A2982 RMK AO2,KDLZ,2021-01-14T04:14:00Z,40.28,-83.12,3.0,-1.0,210,8,,10.0,29.819881,,,TRUE,TRUE,,,,,,,OVC,9500,,,,,,,VFR,,,,,,,,,,,,METAR,287.0
KCDD 140414Z AUTO 00000KT 10SM CLR M14/M14 A2953 RMK AO2,KCDD,2021-01-14T04:14:00Z,48.27,-92.48,-14.0,-14.0,0,0,,10.0,29.530512,,,TRUE,TRUE,,,,,,,CLR,,,,,,,,VFR,,,,,,,,,,,,METAR,344.0
CYXL 140414Z 16008KT 130V190 3SM -SN BR OVC002 M04/M05 A2953 RMK ST8 SLP025,CYXL,2021-01-14T04:14:00Z,50.12,-91.9,-4.0,-5.0,160,8,,3.0,29.530512,1002.5,,,,,,,,,-SN BR,OVC,200,,,,,,,LIFR,,,,,,,,,,,,SPECI,381.0
CYPX 140414Z AUTO 10009KT 9SM SCT011 OVC120 M16/M17 A2970 RMK SLP061,CYPX,2021-01-14T04:14:00Z,60.03,-77.27,-16.0,-17.0,100,9,,9.0,29.698818,1006.1,,TRUE,,,,,,,,SCT,1100,OVC,12000,,,,,VFR,,,,,,,,,,,,SPECI,10.0
CYPA 140414Z 35027G43KT 1 1/2SM R08/3500V6000FT/U -SN BLSN OVC023 00/M01 A2937 RMK BLSN5SC3 PRESRR SLP974,CYPA,2021-01-14T04:14:00Z,53.22,-105.67,0.0,-1.0,350,27,43,1.5,29.371063,997.4,,,,,,,,,BLSN -SN,OVC,2300,,,,,,,IFR,,,,,,,,,,,,SPECI,428.0
CYLH 140414Z AUTO 20005KT 9SM -SN OVC008 M03/M03 A2958 RMK SLP037,CYLH,2021-01-14T04:14:00Z,52.2,-87.93,-3.0,-3.0,200,5,,9.0,29.58071,1003.7,,TRUE,,,,,,,-SN,OVC,800,,,,,,,IFR,,,,,,,,,,,,SPECI,245.0
CYHU 140414Z AUTO 16007KT 9SM OVC021 00/M03 A2977 RMK SLP084,CYHU,2021-01-14T04:14:00Z,45.52,-73.42,0.0,-3.0,160,7,,9.0,29.769686,1008.4,,TRUE,,,,,,,,OVC,2100,,,,,,,MVFR,,,,,,,,,,,,SPECI,26.0
YPTN 140413Z AUTO 09015KT //// // SCT049 SCT073 34/22 Q1005,YPTN,2021-01-14T04:13:00Z,-14.52,132.38,34.0,22.0,90,15,,,29.675198,,,TRUE,,,,,,,,SCT,4900,SCT,7300,,,,,,,,,,,,,,,,,SPECI,135.0
PHBK 140413Z AUTO 01018KT 10SM BKN049 BKN060 24/18 A2998 RMK AO2 PK WND 01026/0402 T02390178,PHBK,2021-01-14T04:13:00Z,22.03,-159.78,23.9,17.8,10,18,,10.0,29.97933,,,TRUE,TRUE,,,,,,,BKN,4900,BKN,6000,,,,,VFR,,,,,,,,,,,,METAR,5.0
PACZ 140413Z AUTO 06005KT 10SM BKN028 M13/M14 A2951 RMK AO2 SLP010,PACZ,2021-01-14T04:13:00Z,61.78,-166.03,-13.0,-14.0,60,5,,10.0,29.509842,1001.0,,TRUE,TRUE,,,,,,,BKN,2800,,,,,,,MVFR,,,,,,,,,,,,SPECI,129.0
KXVG 140413Z AUTO 13005KT 10SM CLR M01/M03 A2945 RMK AO2,KXVG,2021-01-14T04:13:00Z,46.98,-94.2,-1.0,-3.0,130,5,,10.0,29.450787,,,TRUE,TRUE,,,,,,,CLR,,,,,,,,VFR,,,,,,,,,,,,SPECI,407.0
KOWA 140413Z AUTO 14009KT 10SM CLR 02/M01 A2951 RMK AO2,KOWA,2021-01-14T04:13:00Z,44.12,-93.25,2.0,-1.0,140,9,,10.0,29.509842,,,TRUE,TRUE,,,,,,,CLR,,,,,,,,VFR,,,,,,,,,,,,SPECI,345.0
KORB 140413Z AUTO 00000KT 10SM CLR M04/M07 A2948 RMK AO2,KORB,2021-01-14T04:13:00Z,48.02,-92.87,-4.0,-7.0,0,0,,10.0,29.480314,,,TRUE,TRUE,,,,,,,CLR,,,,,,,,VFR,,,,,,,,,,,,SPECI,407.0
KFOZ 140413Z AUTO 14004KT 10SM CLR M02/M06 A2953 RMK AO2,KFOZ,2021-01-14T04:13:00Z,47.77,-93.65,-2.0,-6.0,140,4,,10.0,29.530512,,,TRUE,TRUE,,,,,,,CLR,,,,,,,,VFR,,,,,,,,,,,,SPECI,412.0
KETH 140413Z AUTO 16006KT 10SM -DZ BKN065 BKN095 03/M01 A2945 RMK AO2,KETH,2021-01-14T04:13:00Z,45.78,-96.55,3.0,-1.0,160,6,,10.0,29.450787,,,TRUE,TRUE,,,,,,-DZ,BKN,6500,BKN,9500,,,,,VFR,,,,,,,,,,,,SPECI,309.0
KDVP 140413Z AUTO 19003KT 10SM CLR 04/M01 A2948 RMK AO2 T00361009,KDVP,2021-01-14T04:13:00Z,43.98,-95.78,3.6,-0.9,190,3,,10.0,29.480314,,,TRUE,TRUE,,,,,,,CLR,,,,,,,,VFR,,,,,,,,,,,,SPECI,493.0
KASX 140413Z AUTO 33003KT 1/4SM FZFG VV003 M07/M08 A2959 RMK AO2 I1000 T10671078,KASX,2021-01-14T04:13:00Z,46.55,-90.92,-6.7,-7.8,330,3,,0.25,29.589567,,,TRUE,TRUE,,,,,,FZFG,OVX,0,,,,,,,LIFR,,,,,,,,,,,300,SPECI,249.0
KAQP 140413Z AUTO 17003KT 10SM CLR 03/00 A2945 RMK AO2,KAQP,2021-01-14T04:13:00Z,45.22,-96.0,3.0,0.0,170,3,,10.0,29.450787,,,TRUE,TRUE,,,,,,,CLR,,,,,,,,VFR,,,,,,,,,,,,METAR,312.0
EBCV 140413Z AUTO VRB02KT 4300 -RASN FEW003/// SCT009/// OVC029/// 03/02 Q1018 GRN,EBCV,2021-01-14T04:13:00Z,50.57,3.82,3.0,2.0,0,2,,2.67,30.059055,,,TRUE,,,,,,,-RA -SN,FEW,300,SCT,900,OVC,2900,,,IFR,,,,,,,,,,,,SPECI,56.0
EBBE 140413Z AUTO //////KT 2200 -RA FEW003/// BKN006/// BKN009/// 02/02 Q1017 YLO,EBBE,2021-01-14T04:13:00Z,50.75,4.77,2.0,2.0,,,,1.37,30.029528,,,TRUE,,,,,,,-RA,FEW,300,BKN,600,BKN,900,,,IFR,,,,,,,,,,,,METAR,127.0
CYPH 140413Z AUTO 02004KT 9SM OVC017 M17/M20 A2966 RMK SLP048,CYPH,2021-01-14T04:13:00Z,58.47,-78.08,-17.0,-20.0,20,4,,9.0,29.660433,1004.8,,TRUE,,,,,,,,OVC,1700,,,,,,,MVFR,,,,,,,,,,,,SPECI,24.0
KSTS 140412Z AUTO 00000KT 1/4SM FG VV001 12/12 A3037 RMK AO2 T01170117,KSTS,2021-01-14T04:12:00Z,38.5,-122.82,11.7,11.7,0,0,,0.25,30.369095,,,TRUE,TRUE,,,,,,FG,OVX,0,,,,,,,LIFR,,,,,,,,,,,100,SPECI,35.0
KLIC 140412Z AUTO 28011KT 10SM CLR 05/M06 A2983 RMK AO2 WSHFT 0352 T00501056,KLIC,2021-01-14T04:12:00Z,39.27,-103.67,5.0,-5.6,280,11,,10.0,29.828741,,,TRUE,TRUE,,,,,,,CLR,,,,,,,,VFR,,,,,,,,,,,,SPECI,1635.0
KCQX 140412Z AUTO 00000KT 10SM OVC029 03/M02 A2993 RMK AO2 T00331017,KCQX,2021-01-14T04:12:00Z,41.68,-70.0,3.3,-1.7,0,0,,10.0,29.929134,,,TRUE,TRUE,,,,,,,OVC,2900,,,,,,,MVFR,,,,,,,,,,,,SPECI,17.0
UBBN 140411Z 10010KT 3000 BR SCT020 OVC100 05/M01 Q1009 R14R/CLRD// NOSIG RMK MT OBSC QFE682,UBBN,2021-01-14T04:11:00Z,39.18,45.45,5.0,-1.0,100,10,,1.86,29.793306,,,,,,TRUE,,,,BR,SCT,2000,OVC,10000,,,,,IFR,,,,,,,,,,,,SPECI,857.0
KMBL 140411Z AUTO 05004KT 1 1/2SM BR CLR M02/M02 A2968 RMK AO2 FZRANO,KMBL,2021-01-14T04:11:00Z,44.27,-86.25,-2.0,-2.0,50,4,,1.5,29.681103,,,TRUE,TRUE,,,,TRUE,,BR,CLR,,,,,,,,IFR,,,,,,,,,,,,SPECI,187.0
EGUL 140411Z AUTO 11007KT 8000 -RA BR BKN005 03/03 A3000 RMK AO2 BKN V SCT SLP163 $,EGUL,2021-01-14T04:11:00Z,52.42,0.57,3.0,3.0,110,7,,4.97,30.0,1016.3,,TRUE,TRUE,TRUE,,,,,-RA BR,BKN,500,,,,,,,IFR,,,,,,,,,,,,METAR,8.0
YCOM 140410Z AUTO 29015G25KT 9999 // NCD 28/02 Q1010,YCOM,2021-01-14T04:10:00Z,-36.3,148.97,28.0,2.0,290,15,25,6.21,29.822834,,,TRUE,,,,,,,,CLR,,,,,,,,VFR,,,,,,,,,,,,SPECI,930.0
VCRI 140410Z 06006KT 030V090 9999 FEW018 FEW020CB BKN090 28/27 Q1011 NOSIG SW/NE,VCRI,2021-01-14T04:10:00Z,6.28,81.13,28.0,27.0,60,6,,6.21,29.852362,,,,,,TRUE,,,,,FEW,1800,FEW,2000,BKN,9000,,,VFR,,,,,,,,,,,,METAR,50.0
VCBI 140410Z 10005KT 060V160 9999 SCT018 28/24 Q1010 NOSIG,VCBI,2021-01-14T04:10:00Z,7.17,79.88,28.0,24.0,100,5,,6.21,29.822834,,,,,,TRUE,,,,,SCT,1800,,,,,,,VFR,,,,,,,,,,,,METAR,10.0
RJCW 140410Z 01019KT 3500 BLSN -SHSN FEW005 SCT010 BKN015 M04/M06 Q1000 RMK 1ST005 4ST010 6ST015 A2954,RJCW,2021-01-14T04:10:00Z,45.4,141.8,-4.0,-6.0,10,19,,2.17,29.52756,,,,,,,,,,BLSN -SHSN,FEW,500,SCT,1000,BKN,1500,,,IFR,,,,,,,,,,,,METAR,11.0
KWBF 140410Z AUTO 00000KT 10SM CLR 15/08 A3014 RMK A01,KWBF,2021-01-14T04:10:00Z,26.93,-90.5,15.0,8.0,0,0,,10.0,30.138779,,,TRUE,TRUE,,,,,,,CLR,,,,,,,,VFR,,,,,,,,,,,,METAR,40.0
KVOA 140410Z AUTO 28010KT 10SM 13/03 A3010 RMK A01,KVOA,2021-01-14T04:10:00Z,29.23,-87.78,13.0,3.0,280,10,,10.0,30.100393,,,TRUE,TRUE,,,,,,,,,,,,,,,,,,,,,,,,,,,METAR,53.0
KVAF 140410Z AUTO 25011G16KT 10SM FEW027 17/10 A3009 RMK A01,KVAF,2021-01-14T04:10:00Z,27.35,-94.63,17.0,10.0,250,11,16,10.0,30.088583,,,TRUE,TRUE,,,,,,,FEW,2700,,,,,,,VFR,,,,,,,,,,,,METAR,38.0
KRZR 140410Z AUTO 20003KT 5SM BR CLR M01/M01 A2997 RMK A01,KRZR,2021-01-14T04:10:00Z,35.22,-84.8,-1.0,-1.0,200,3,,5.0,29.970472,,,TRUE,TRUE,,,,,,BR,CLR,,,,,,,,MVFR,,,,,,,,,,,,METAR,259.0
KRPH 140410Z AUTO 16004KT 10SM CLR 09/01 A2983 RMK AO2 T00900010,KRPH,2021-01-14T04:10:00Z,33.12,-98.55,9.0,1.0,160,4,,10.0,29.828741,,,TRUE,TRUE,,,,,,,CLR,,,,,,,,VFR,,,,,,,,,,,,METAR,341.0
KQFU 140410Z AUTO 14003KT 9999 SCT041 04/M11 A3021 RMK A02 TSNO,KQFU,2021-01-14T04:10:00Z,,,4.0,-11.0,140,3,,6.21,30.209646,,,TRUE,TRUE,,,TRUE,,,,SCT,4100,,,,,,,VFR,,,,,,,,,,,,METAR,
KPOB 140410Z AUTO 00000KT 10SM BKN007 OVC011 07/05 A2994 RMK AO2 CIG 007V010 BKN V OVC SLP142 $,KPOB,2021-01-14T04:10:00Z,35.17,-79.02,7.0,5.0,0,0,,10.0,29.940945,1014.2,,TRUE,TRUE,TRUE,,,,,,BKN,700,OVC,1100,,,,,IFR,,,,,,,,,,,,SPECI,57.0
KPNA 140410Z AUTO 30017KT 10SM SCT065 SCT080 BKN090 M06/M14 A3016 RMK AO2,KPNA,2021-01-14T04:10:00Z,42.8,-109.8,-6.0,-14.0,300,17,,10.0,30.159449,,,TRUE,TRUE,,,,,,,SCT,6500,SCT,8000,BKN,9000,,,VFR,,,,,,,,,,,,METAR,2158.0
KOWI 140410Z AUTO 20007KT 10SM CLR 07/01 A2965 RMK AO2,KOWI,2021-01-14T04:10:00Z,38.53,-95.25,7.0,1.0,200,7,,10.0,29.648623,,,TRUE,TRUE,,,,,,,CLR,,,,,,,,VFR,,,,,,,,,,,,METAR,292.0
KO32 140410Z AUTO 00000KT 6SM BR CLR 09/08 A3035 RMK AO2,KO32,2021-01-14T04:10:00Z,36.67,-119.45,9.0,8.0,0,0,,6.0,30.351377,,,TRUE,TRUE,,,,,,BR,CLR,,,,,,,,VFR,,,,,,,,,,,,METAR,117.0
KMHP 140410Z AUTO 22004KT 10SM CLR 04/ A3002 RMK AO2 T0039////,KMHP,2021-01-14T04:10:00Z,32.37,-82.08,3.9,,220,4,,10.0,30.02067,,,TRUE,TRUE,,,,,,,CLR,,,,,,,,VFR,,,,,,,,,,,,SPECI,60.0
KMGR 140410Z AUTO 00000KT 10SM CLR 03/02 A3007 RMK AO2,KMGR,2021-01-14T04:10:00Z,31.08,-83.8,3.0,2.0,0,0,,10.0,30.070866,,,TRUE,TRUE,,,,,,,CLR,,,,,,,,VFR,,,,,,,,,,,,SPECI,86.0
KM04 140410Z AUTO 19005KT 10SM CLR 06/03 A2991 RMK A01,KM04,2021-01-14T04:10:00Z,35.58,-89.58,6.0,3.0,190,5,,10.0,29.911417,,,TRUE,TRUE,,,,,,,CLR,,,,,,,,VFR,,,,,,,,,,,,METAR,83.0
KLCQ 140410Z AUTO 30004KT 10SM OVC012 06/05 A3008 RMK AO2,KLCQ,2021-01-14T04:10:00Z,30.18,-82.58,6.0,5.0,300,4,,10.0,30.079725,,,TRUE,TRUE,,,,,,,OVC,1200,,,,,,,MVFR,,,,,,,,,,,,SPECI,59.0
KKNB 140410Z AUTO 00000KT 10SM CLR M02/M14 A3033 RMK A01,KKNB,2021-01-14T04:10:00Z,37.02,-112.53,-2.0,-14.0,0,0,,10.0,30.33071,,,TRUE,TRUE,,,,,,,CLR,,,,,,,,VFR,,,,,,,,,,,,METAR,1476.0
KIWD 140410Z AUTO 00000KT 3SM BR CLR M08/M09 A2959 RMK AO2 FZRANO,KIWD,2021-01-14T04:10:00Z,46.52,-90.12,-8.0,-9.0,0,0,,3.0,29.589567,,,TRUE,TRUE,,,,TRUE,,BR,CLR,,,,,,,,MVFR,,,,,,,,,,,,SPECI,373.0
KHOE 140410Z AUTO 00000KT 10SM CLR 04/03 A3006 RMK AO2,KHOE,2021-01-14T04:10:00Z,31.05,-82.78,4.0,3.0,0,0,,10.0,30.059055,,,TRUE,TRUE,,,,,,,CLR,,,,,,,,VFR,,,,,,,,,,,,SPECI,56.0
KGHB 140410Z AUTO VRB05KT 10SM FEW031 FEW038 15/07 A3012 RMK A01,KGHB,2021-01-14T04:10:00Z,27.83,-91.98,15.0,7.0,0,5,,10.0,30.121063,,,TRUE,TRUE,,,,,,,FEW,3100,FEW,3800,,,,,VFR,,,,,,,,,,,,SPECI,30.0
KFTN 140410Z AUTO 17008KT 10SM CLR 10/01 A3006 RMK A01,KFTN,2021-01-14T04:10:00Z,28.22,-100.02,10.0,1.0,170,8,,10.0,30.059055,,,TRUE,TRUE,,,,,,,CLR,,,,,,,,VFR,,,,,,,,,,,,METAR,236.0
KFEW 140410Z AUTO 31035G58KT 7SM BKN065 05/M06 A2989 RMK AO2 SHRAE10 PRESRR SLP104 $,KFEW,2021-01-14T04:10:00Z,41.13,-104.87,5.0,-6.0,310,35,58,7.0,29.890747,1010.4,,TRUE,TRUE,TRUE,,,,,,BKN,6500,,,,,,,VFR,,,,,,,,,,,,SPECI,1877.0
KF45 140410Z AUTO 00000KT 10SM -RA OVC075 15/15 A3005 RMK AO2,KF45,2021-01-14T04:10:00Z,26.85,-80.22,15.0,15.0,0,0,,10.0,30.050198,,,TRUE,TRUE,,,,,,-RA,OVC,7500,,,,,,,VFR,,,,,,,,,,,,SPECI,6.0
KEZM 140410Z AUTO 00000KT 10SM SCT110 04/02 A3006 RMK AO2 T00350022,KEZM,2021-01-14T04:10:00Z,32.22,-83.13,3.5,2.2,0,0,,10.0,30.059055,,,TRUE,TRUE,,,,,,,SCT,11000,,,,,,,VFR,,,,,,,,,,,,SPECI,86.0
KDKX 140410Z AUTO 00000KT M1/4SM FZFG OVC002 M01/M01 A2999 RMK A01,KDKX,2021-01-14T04:10:00Z,35.97,-83.87,-1.0,-1.0,0,0,,0.25,29.991142,,,TRUE,TRUE,,,,,,FZFG,OVC,200,,,,,,,LIFR,,,,,,,,,,,,SPECI,253.0
KAZE 140410Z AUTO 23003KT 10SM CLR 05/04 A3003 RMK AO2 T00450035,KAZE,2021-01-14T04:10:00Z,31.88,-82.65,4.5,3.5,230,3,,10.0,30.029528,,,TRUE,TRUE,,,,,,,CLR,,,,,,,,VFR,,,,,,,,,,,,SPECI,78.0
KADH 140410Z AUTO 17005KT 10SM CLR 05/00 A2982 RMK AO2,KADH,2021-01-14T04:10:00Z,34.8,-96.67,5.0,0.0,170,5,,10.0,29.819881,,,TRUE,TRUE,,,,,,,CLR,,,,,,,,VFR,,,,,,,,,,,,SPECI,301.0
KACJ 140410Z AUTO 00000KT 10SM CLR 03/00 A3005 RMK AO2,KACJ,2021-01-14T04:10:00Z,32.12,-84.18,3.0,0.0,0,0,,10.0,30.050198,,,TRUE,TRUE,,,,,,,CLR,,,,,,,,VFR,,,,,,,,,,,,SPECI,140.0
K65S 140410Z AUTO 20008KT 10SM SCT075 BKN090 02/M07 A3029 RMK AO2,K65S,2021-01-14T04:10:00Z,48.73,-116.3,2.0,-7.0,200,8,,10.0,30.28937,,,TRUE,TRUE,,,,,,,SCT,7500,BKN,9000,,,,,VFR,,,,,,,,,,,,METAR,708.0
K2J5 140410Z AUTO 25004KT 10SM CLR 03/03 A3000 RMK AO2 T00330029,K2J5,2021-01-14T04:10:00Z,32.9,-81.97,3.3,2.9,250,4,,10.0,30.0,,,TRUE,TRUE,,,,,,,CLR,,,,,,,,VFR,,,,,,,,,,,,SPECI,72.0
YSWG 140409Z AUTO 26019G29KT 9999 // NCD 31/M02 Q1009,YSWG,2021-01-14T04:09:00Z,-35.15,147.47,31.0,-2.0,260,19,29,6.21,29.793306,,,TRUE,,,,,,,,CLR,,,,,,,,VFR,,,,,,,,,,,,SPECI,212.0
KRHI 140409Z AUTO 00000KT 1/4SM FZFG VV002 M09/M11 A2959 RMK AO2 T10891106,KRHI,2021-01-14T04:09:00Z,45.63,-89.48,-8.9,-10.6,0,0,,0.25,29.589567,,,TRUE,TRUE,,,,,,FZFG,OVX,0,,,,,,,LIFR,,,,,,,,,,,200,SPECI,493.0
KMCF 140408Z AUTO 00000KT 10SM OVC027 12/09 A3009 RMK AO2 RAE01DZB01E08 SLP193 RVRNO FZRANO $,KMCF,2021-01-14T04:08:00Z,27.85,-82.52,12.0,9.0,0,0,,10.0,30.088583,1019.3,,TRUE,TRUE,TRUE,,,TRUE,,,OVC,2700,,,,,,,MVFR,,,,,,,,,,,,METAR,3.0
CWRX 140408Z AUTO 17010KT ////SM //// BKN005 BKN014 OVC060 M18/M20 A2973,CWRX,2021-01-14T04:08:00Z,69.07,-79.07,-18.0,-20.0,170,10,,,29.731298,,,TRUE,,,,,,,,BKN,500,BKN,1400,OVC,6000,,,,,,,,,,,,,,,SPECI,39.0
KCRG 140407Z AUTO 24005KT 9SM OVC014 09/07 A3006 RMK AO2 T00940067,KCRG,2021-01-14T04:07:00Z,30.33,-81.52,9.4,6.7,240,5,,9.0,30.059055,,,TRUE,TRUE,,,,,,,OVC,1400,,,,,,,MVFR,,,,,,,,,,,,METAR,12.0
CYHY 140407Z 30016G23KT 2SM -SN DRSN BKN011 OVC024 M09/M10 A2971 RMK ST5SC3 SLP075,CYHY,2021-01-14T04:07:00Z,60.83,-115.77,-9.0,-10.0,300,16,23,2.0,29.71063,1007.5,,,,,,,,,-SN DRSN,BKN,1100,OVC,2400,,,,,IFR,,,,,,,,,,,,SPECI,159.0
SCAT 140406Z AUTO 26006KT 220V290 8000 OVC010/// 14/12 Q1014,SCAT,2021-01-14T04:06:00Z,-27.27,-70.77,14.0,12.0,260,6,,4.97,29.940945,,,TRUE,,,,,,,,OVC,1000,,,,,,,MVFR,,,,,,,,,,,,SPECI,209.0
KRDR 140406Z 19004KT 9SM -RA OVC050 01/01 A2937 RMK AO2A SLP960 $,KRDR,2021-01-14T04:06:00Z,47.93,-97.4,1.0,1.0,190,4,,9.0,29.371063,996.0,,,TRUE,TRUE,,,,,-RA,OVC,5000,,,,,,,VFR,,,,,,,,,,,,METAR,276.0
KHSV 140406Z 20004KT 6SM BR BKN006 M02/M02 A3001 RMK AO2 CIG 005V009 T10171022,KHSV,2021-01-14T04:06:00Z,34.65,-86.78,-1.7,-2.2,200,4,,6.0,30.008858,,,,TRUE,,,,,,BR,BKN,600,,,,,,,IFR,,,,,,,,,,,,SPECI,190.0
KEWB 140406Z AUTO 00000KT 10SM SCT029 OVC035 02/M02 A2991 RMK AO2 T00171017,KEWB,2021-01-14T04:06:00Z,41.68,-70.95,1.7,-1.7,0,0,,10.0,29.911417,,,TRUE,TRUE,,,,,,,SCT,2900,OVC,3500,,,,,VFR,,,,,,,,,,,,METAR,22.0
KCUB 140406Z AUTO 00000KT 6SM BR SCT012 05/04 A2999 RMK AO2 T00500039,KCUB,2021-01-14T04:06:00Z,33.97,-81.0,5.0,3.9,0,0,,6.0,29.991142,,,TRUE,TRUE,,,,,,BR,SCT,1200,,,,,,,VFR,,,,,,,,,,,,METAR,55.0
EGUN 140406Z 12009KT 9999 -RA FEW005 OVC015 03/03 A3000 RMK AO2A SLP163 FZRANO $,EGUN,2021-01-14T04:06:00Z,52.37,0.48,3.0,3.0,120,9,,6.21,30.0,1016.3,,,TRUE,TRUE,,,TRUE,,-RA,FEW,500,OVC,1500,,,,,MVFR,,,,,,,,,,,,SPECI,10.0
YBHM 140405Z AUTO 07025KT 050V130 9999 // SCT026 28/22 Q1008,YBHM,2021-01-14T04:05:00Z,-20.35,148.95,28.0,22.0,70,25,,6.21,29.763779,,,TRUE,,,,,,,,SCT,2600,,,,,,,VFR,,,,,,,,,,,,METAR,4.0
MUCL 140405Z AUTO 34005KT 24/22 Q1016,MUCL,2021-01-14T04:05:00Z,21.63,-81.55,24.0,22.0,340,5,,,30.0,,,TRUE,,,,,,,,,,,,,,,,,,,,,,,,,,,,METAR,5.0
KSGJ 140405Z AUTO 30006KT 10SM BKN013 OVC070 09/07 A3009 RMK AO2 $,KSGJ,2021-01-14T04:05:00Z,29.97,-81.33,9.0,7.0,300,6,,10.0,30.088583,,,TRUE,TRUE,TRUE,,,,,,BKN,1300,OVC,7000,,,,,MVFR,,,,,,,,,,,,SPECI,2.0
PFKW 140404Z AUTO 00000KT 10SM SCT028 BKN045 OVC110 M12/M13 A2956 RMK AO2 FZRANO,PFKW,2021-01-14T04:04:00Z,60.8,-161.43,-12.0,-13.0,0,0,,10.0,29.56004,,,TRUE,TRUE,,,,TRUE,,,SCT,2800,BKN,4500,OVC,11000,,,VFR,,,,,,,,,,,,METAR,4.0
KRDU 140404Z 23009KT 8SM OVC008 06/05 A2993 RMK AO2 T00610050,KRDU,2021-01-14T04:04:00Z,35.9,-78.78,6.1,5.0,230,9,,8.0,29.929134,,,,TRUE,,,,,,,OVC,800,,,,,,,IFR,,,,,,,,,,,,METAR,121.0
KDEN 140404Z 28023G33KT 10SM FEW100 11/M06 A2983 RMK AO2 PK WND 28033/0403 T01061061,KDEN,2021-01-14T04:04:00Z,39.85,-104.65,10.6,-6.1,280,23,33,10.0,29.828741,,,,TRUE,,,,,,,FEW,10000,,,,,,,VFR,,,,,,,,,,,,SPECI,1656.0
KACV 140404Z AUTO 12003KT 1/2SM R32/2600V4500FT FG VV002 12/11 A3040 RMK AO2 T01170111,KACV,2021-01-14T04:04:00Z,40.98,-124.1,11.7,11.1,120,3,,0.5,30.398623,,,TRUE,TRUE,,,,,,FG,OVX,0,,,,,,,LIFR,,,,,,,,,,,200,METAR,63.0
CYWE 140404Z AUTO 33003KT 250V360 9SM -SN FEW005 OVC070 M16/M17 A2964 RMK ICG INTMT SLP081,CYWE,2021-01-14T04:04:00Z,64.18,-114.08,-16.0,-17.0,330,3,,9.0,29.639763,1008.1,,TRUE,,,,,,,-SN,FEW,500,OVC,7000,,,,,VFR,,,,,,,,,,,,SPECI,374.0
UARR 140403Z 10013MPS 2600 BLSN SCT046 M10/M12 Q1021 R04/750345 TEMPO 12015G20MPS 1000 SN RMK QFE762/1016,UARR,2021-01-14T04:03:00Z,51.15,51.53,-10.0,-12.0,100,25,,1.62,30.147638,,,,,,,,,,BLSN,SCT,4600,,,,,,,IFR,,,,,,,,,,,,METAR,33.0
KSBY 140403Z AUTO 10003KT 1/4SM FZFG M01/M02 A2992 RMK AO2 T10111017 $,KSBY,2021-01-14T04:03:00Z,38.33,-75.5,-1.1,-1.7,100,3,,0.25,29.920275,,,TRUE,TRUE,TRUE,,,,,FZFG,,,,,,,,,,,,,,,,,,,,,METAR,14.0
KFMY 140403Z AUTO 00000KT 5SM -RA BR FEW050 OVC075 14/14 A3006 RMK AO2 P0001 T01440139,KFMY,2021-01-14T04:03:00Z,26.58,-81.87,14.4,13.9,0,0,,5.0,30.059055,,,TRUE,TRUE,,,,,,-RA BR,FEW,5000,OVC,7500,,,,,MVFR,,,,,,0.01,,,,,,METAR,4.0
KEYW 140403Z AUTO 01008KT 10SM BKN009 OVC040 18/17 A3006 RMK AO2 CIG 007V013 T01780172,KEYW,2021-01-14T04:03:00Z,24.55,-81.75,17.8,17.2,10,8,,10.0,30.059055,,,TRUE,TRUE,,,,,,,BKN,900,OVC,4000,,,,,IFR,,,,,,,,,,,,METAR,1.0
KDLH 140403Z 12008KT 2 1/2SM BR BKN002 M03/M04 A2953 RMK AO2 SFC VIS 3 T10281044,KDLH,2021-01-14T04:03:00Z,46.85,-92.2,-2.8,-4.4,120,8,,2.5,29.530512,,,,TRUE,,,,,,BR,BKN,200,,,,,,,LIFR,,,,,,,,,,,,METAR,434.0
KBMI 140403Z AUTO 20011KT 10SM CLR 02/M01 A2971 RMK AO2,KBMI,2021-01-14T04:03:00Z,40.47,-88.92,2.0,-1.0,200,11,,10.0,29.71063,,,TRUE,TRUE,,,,,,,CLR,,,,,,,,VFR,,,,,,,,,,,,METAR,262.0
CYGW 140403Z AUTO VRB02KT 9SM BKN004 OVC016 M07/M08 A2964 RMK SLP040,CYGW,2021-01-14T04:03:00Z,55.27,-77.77,-7.0,-8.0,0,2,,9.0,29.639763,1004.0,,TRUE,,,,,,,,BKN,400,OVC,1600,,,,,LIFR,,,,,,,,,,,,SPECI,13.0
UKOO 140402Z 26001MPS 3900 BR NSC M04/M04 Q1006 R16/820245 NOSIG,UKOO,2021-01-14T04:02:00Z,46.42,30.68,-4.0,-4.0,260,2,,2.42,29.704725,,,,,,TRUE,,,,BR,CLR,,,,,,,,IFR,,,,,,,,,,,,METAR,52.0
PAMO 140402Z AUTO 35003KT 5SM -SN BR OVC026 M11/M12 A2954 RMK AO2 SLP014 P0000 T11061117 FZRANO,PAMO,2021-01-14T04:02:00Z,62.1,-163.68,-10.6,-11.7,350,3,,5.0,29.53937,1001.4,,TRUE,TRUE,,,,TRUE,,-SN BR,OVC,2600,,,,,,,MVFR,,,,,,0.005,,,,,,METAR,93.0
PADM 140402Z AUTO 07004KT 10SM OVC005 M10/M11 A2898 RMK AO2 SNE0333 SLP820 P0000 T11001111 FZRANO,PADM,2021-01-14T04:02:00Z,61.87,-162.03,-10.0,-11.1,70,4,,10.0,28.981298,982.0,,TRUE,TRUE,,,,TRUE,,,OVC,500,,,,,,,IFR,,,,,,0.005,,,,,,METAR,17.0
KRBL 140402Z AUTO 32005KT 10SM SCT028 13/09 A3042 RMK AO2 T01280089,KRBL,2021-01-14T04:02:00Z,40.15,-122.25,12.8,8.9,320,5,,10.0,30.41929,,,TRUE,TRUE,,,,,,,SCT,2800,,,,,,,VFR,,,,,,,,,,,,METAR,107.0
KNRB 140402Z AUTO 27006KT 10SM BKN017 OVC075 10/06 A3006 RMK AO2 T01000061,KNRB,2021-01-14T04:02:00Z,30.38,-81.42,10.0,6.1,270,6,,10.0,30.059055,,,TRUE,TRUE,,,,,,,BKN,1700,OVC,7500,,,,,MVFR,,,,,,,,,,,,SPECI,4.0
KHWO 140402Z AUTO 34006KT 9SM RA SCT006 BKN065 OVC080 17/17 A3006 RMK AO2 P0002 T01670167 $,KHWO,2021-01-14T04:02:00Z,26.0,-80.23,16.7,16.7,340,6,,9.0,30.059055,,,TRUE,TRUE,TRUE,,,,,RA,SCT,600,BKN,6500,OVC,8000,,,VFR,,,,,,0.02,,,,,,METAR,2.0
CYGV 140402Z AUTO 07006KT 6SM -SN SCT011 OVC019 M06/M08 A2983 RMK SLP105,CYGV,2021-01-14T04:02:00Z,50.28,-63.62,-6.0,-8.0,70,6,,6.0,29.828741,1010.5,,TRUE,,,,,,,-SN,SCT,1100,OVC,1900,,,,,MVFR,,,,,,,,,,,,SPECI,32.0
PAFS 140401Z AUTO 00000KT 7SM SCT100 M17/M19 A2965 RMK AO2 SLP060 T11721194 FZRANO,PAFS,2021-01-14T04:01:00Z,63.02,-154.35,-17.2,-19.4,0,0,,7.0,29.648623,1006.0,,TRUE,TRUE,,,,TRUE,,,SCT,10000,,,,,,,VFR,,,,,,,,,,,,METAR,131.0
KTUP 140401Z AUTO 18007KT 5SM BR BKN003 02/01 A2999 RMK AO2 T00220011 $,KTUP,2021-01-14T04:01:00Z,34.27,-88.77,2.2,1.1,180,7,,5.0,29.991142,,,TRUE,TRUE,TRUE,,,,,BR,BKN,300,,,,,,,LIFR,,,,,,,,,,,,SPECI,107.0
KFBG 140401Z AUTO 00000KT 10SM OVC012 07/07 A2992 RMK AO2 RAE01 SLP135 $,KFBG,2021-01-14T04:01:00Z,35.12,-78.92,7.0,7.0,0,0,,10.0,29.920275,1013.5,,TRUE,TRUE,TRUE,,,,,,OVC,1200,,,,,,,MVFR,,,,,,,,,,,,METAR,69.0
ETIH 140401Z AUTO 30009G15KT 9999 BKN026 OVC160 00/M05 A2984 RMK AO2 CIG 026V160 BKN V SCT SLP130 $,ETIH,2021-01-14T04:01:00Z,49.22,11.83,0.0,-5.0,300,9,15,6.21,29.840551,1013.0,,TRUE,TRUE,TRUE,,,,,,BKN,2600,OVC,16000,,,,,MVFR,,,,,,,,,,,,SPECI,436.0
ZYTX 140400Z 06004MPS 5000 FU NSC M05/M14 Q1022 NOSIG,ZYTX,2021-01-14T04:00:00Z,41.63,123.48,-5.0,-14.0,60,8,,3.11,30.177166,,,,,,TRUE,,,,FU,CLR,,,,,,,,MVFR,,,,,,,,,,,,METAR,56.0
ZYTL 140400Z 14010MPS CAVOK 04/M05 Q1018 NOSIG,ZYTL,2021-01-14T04:00:00Z,38.97,121.55,4.0,-5.0,140,19,,6.21,30.059055,,,,,,TRUE,,,,,CAVOK,,,,,,,,VFR,,,,,,,,,,,,METAR,33.0
ZYHB 140400Z 22004MPS CAVOK M18/M23 Q1024 NOSIG,ZYHB,2021-01-14T04:00:00Z,45.62,126.25,-18.0,-23.0,220,8,,6.21,30.236221,,,,,,TRUE,,,,,CAVOK,,,,,,,,VFR,,,,,,,,,,,,METAR,134.0
ZYCC 140400Z 16003MPS 110V210 CAVOK M13/M22 Q1023 NOSIG,ZYCC,2021-01-14T04:00:00Z,43.98,125.68,-13.0,-22.0,160,6,,6.21,30.206694,,,,,,TRUE,,,,,CAVOK,,,,,,,,VFR,,,,,,,,,,,,METAR,211.0
ZWWW 140400Z VRB01MPS 8000 NSC M08/M13 Q1031 NOSIG,ZWWW,2021-01-14T04:00:00Z,43.9,87.47,-8.0,-13.0,0,2,,4.97,30.442913,,,,,,TRUE,,,,,CLR,,,,,,,,MVFR,,,,,,,,,,,,METAR,654.0
ZWSH 140400Z 31004MPS CAVOK 05/M07 Q1018 NOSIG,ZWSH,2021-01-14T04:00:00Z,39.55,76.02,5.0,-7.0,310,8,,6.21,30.059055,,,,,,TRUE,,,,,CAVOK,,,,,,,,VFR,,,,,,,,,,,,METAR,1374.0
ZUUU 140400Z 23002MPS 170V280 3000 HZ NSC 09/02 Q1019 NOSIG,ZUUU,2021-01-14T04:00:00Z,30.58,103.95,9.0,2.0,230,4,,1.86,30.088583,,,,,,TRUE,,,,HZ,CLR,,,,,,,,IFR,,,,,,,,,,,,METAR,494.0
ZUGY 140400Z 29002MPS 230V340 8000 NSC 09/M03 Q1019 NOSIG,ZUGY,2021-01-14T04:00:00Z,26.53,106.8,9.0,-3.0,290,4,,4.97,30.088583,,,,,,TRUE,,,,,CLR,,,,,,,,MVFR,,,,,,,,,,,,METAR,1130.0
ZUCK 140400Z 21002MPS 140V270 5000 HZ NSC 10/01 Q1020 NOSIG,ZUCK,2021-01-14T04:00:00Z,29.72,106.63,10.0,1.0,210,4,,3.11,30.11811,,,,,,TRUE,,,,HZ,CLR,,,,,,,,MVFR,,,,,,,,,,,,METAR,416.0
ZSSS 140400Z 19003MPS CAVOK 16/M04 Q1018 NOSIG,ZSSS,2021-01-14T04:00:00Z,31.2,121.33,16.0,-4.0,190,6,,6.21,30.059055,,,,,,TRUE,,,,,CAVOK,,,,,,,,VFR,,,,,,,,,,,,METAR,2.0
ZSQD 140400Z 15007MPS 6000 BKN023 10/03 Q1017 NOSIG,ZSQD,2021-01-14T04:00:00Z,36.27,120.38,10.0,3.0,150,14,,3.73,30.029528,,,,,,TRUE,,,,,BKN,2300,,,,,,,MVFR,,,,,,,,,,,,METAR,8.0
ZSPD 140400Z 20003MPS 110V250 CAVOK 16/M04 Q1018 NOSIG,ZSPD,2021-01-14T04:00:00Z,31.15,121.8,16.0,-4.0,200,6,,6.21,30.059055,,,,,,TRUE,,,,,CAVOK,,,,,,,,VFR,,,,,,,,,,,,METAR,4.0
ZSOF 140400Z 18004MPS CAVOK 16/M04 Q1015 NOSIG,ZSOF,2021-01-14T04:00:00Z,31.98,116.97,16.0,-4.0,180,8,,6.21,29.970472,,,,,,TRUE,,,,,CAVOK,,,,,,,,VFR,,,,,,,,,,,,METAR,23.0
ZSNJ 140400Z 17003MPS 140V220 CAVOK 17/M06 Q1017 NOSIG,ZSNJ,2021-01-14T04:00:00Z,31.75,118.87,17.0,-6.0,170,6,,6.21,30.029528,,,,,,TRUE,,,,,CAVOK,,,,,,,,VFR,,,,,,,,,,,,METAR,27.0
ZSNB 140400Z 16002MPS 090V250 CAVOK 17/M06 Q1018 NOSIG,ZSNB,2021-01-14T04:00:00Z,29.83,121.47,17.0,-6.0,160,4,,6.21,30.059055,,,,,,TRUE,,,,,CAVOK,,,,,,,,VFR,,,,,,,,,,,,METAR,5.0
ZSHC 140400Z VRB01MPS 8000 NSC 16/M02 Q1018 NOSIG,ZSHC,2021-01-14T04:00:00Z,30.22,120.43,16.0,-2.0,0,2,,4.97,30.059055,,,,,,TRUE,,,,,CLR,,,,,,,,MVFR,,,,,,,,,,,,METAR,8.0
ZSFZ 140400Z 26003MPS 230V290 9999 FEW036 18/05 Q1019 BECMG TL0530 03005MPS,ZSFZ,2021-01-14T04:00:00Z,25.93,119.67,18.0,5.0,260,6,,6.21,30.088583,,,,,,,,,,,FEW,3600,,,,,,,VFR,,,,,,,,,,,,METAR,14.0
ZSAM 140400Z 03002MPS 320V130 CAVOK 18/07 Q1018 NOSIG,ZSAM,2021-01-14T04:00:00Z,24.53,118.13,18.0,7.0,30,4,,6.21,30.059055,,,,,,TRUE,,,,,CAVOK,,,,,,,,VFR,,,,,,,,,,,,METAR,13.0
ZPPP 140400Z VRB01MPS CAVOK 09/01 Q1021 BECMG TL0530 22005MPS,ZPPP,2021-01-14T04:00:00Z,25.0,102.65,9.0,1.0,0,2,,6.21,30.147638,,,,,,,,,,,CAVOK,,,,,,,,VFR,,,,,,,,,,,,METAR,1885.0
ZLXY 140400Z VRB01MPS 7000 NSC 09/M12 Q1011 BECMG TL0540 24005G10MPS,ZLXY,2021-01-14T04:00:00Z,34.43,108.75,9.0,-12.0,0,2,,4.35,29.852362,,,,,,,,,,,CLR,,,,,,,,MVFR,,,,,,,,,,,,METAR,478.0
ZLLL 140400Z 10003MPS 070V140 5000 DU NSC 01/M24 Q1014 BECMG TL0540 04007MPS,ZLLL,2021-01-14T04:00:00Z,36.52,103.62,1.0,-24.0,100,6,,3.11,29.940945,,,,,,,,,,DU,CLR,,,,,,,,MVFR,,,,,,,,,,,,METAR,1939.0
ZJSY 140400Z 18003MPS 130V220 CAVOK 23/12 Q1017 NOSIG,ZJSY,2021-01-14T04:00:00Z,18.3,109.42,23.0,12.0,180,6,,6.21,30.029528,,,,,,TRUE,,,,,CAVOK,,,,,,,,VFR,,,,,,,,,,,,METAR,27.0
ZJHK 140400Z VRB02MPS CAVOK 21/10 Q1018 NOSIG,ZJHK,2021-01-14T04:00:00Z,19.93,110.43,21.0,10.0,0,4,,6.21,30.059055,,,,,,TRUE,,,,,CAVOK,,,,,,,,VFR,,,,,,,,,,,,METAR,21.0
ZHHH 140400Z 16003MPS 120V200 8000 NSC 16/M02 Q1016 NOSIG,ZHHH,2021-01-14T04:00:00Z,30.78,114.22,16.0,-2.0,160,6,,4.97,30.0,,,,,,TRUE,,,,,CLR,,,,,,,,MVFR,,,,,,,,,,,,METAR,33.0
ZHCC 140400Z 18004MPS 130V250 7000 NSC 13/M02 Q1011 NOSIG,ZHCC,2021-01-14T04:00:00Z,34.52,113.83,13.0,-2.0,180,8,,4.35,29.852362,,,,,,TRUE,,,,,CLR,,,,,,,,MVFR,,,,,,,,,,,,METAR,149.0
ZGSZ 140400Z 28004MPS 4500 HZ NSC 17/05 Q1018 NOSIG,ZGSZ,2021-01-14T04:00:00Z,22.63,113.8,17.0,5.0,280,8,,2.8,30.059055,,,,,,TRUE,,,,HZ,CLR,,,,,,,,IFR,,,,,,,,,,,,METAR,18.0
ZGOW 140400Z VRB01MPS CAVOK 18/M02 Q1018 NOSIG,ZGOW,2021-01-14T04:00:00Z,23.55,116.5,18.0,-2.0,0,2,,6.21,30.059055,,,,,,TRUE,,,,,CAVOK,,,,,,,,VFR,,,,,,,,,,,,METAR,4.0
ZGNN 140400Z 21002MPS 170V270 7000 NSC 17/02 Q1019 NOSIG,ZGNN,2021-01-14T04:00:00Z,22.62,108.17,17.0,2.0,210,4,,4.35,30.088583,,,,,,TRUE,,,,,CLR,,,,,,,,MVFR,,,,,,,,,,,,METAR,128.0
ZGKL 140400Z VRB01MPS 6000 NSC 16/02 Q1019 NOSIG,ZGKL,2021-01-14T04:00:00Z,25.22,110.03,16.0,2.0,0,2,,3.73,30.088583,,,,,,TRUE,,,,,CLR,,,,,,,,MVFR,,,,,,,,,,,,METAR,151.0
ZGHA 140400Z 18004MPS 150V220 CAVOK 17/M00 Q1018 NOSIG,ZGHA,2021-01-14T04:00:00Z,28.18,113.22,17.0,0.0,180,8,,6.21,30.059055,,,,,,TRUE,,,,,CAVOK,,,,,,,,VFR,,,,,,,,,,,,METAR,61.0
ZGGG 140400Z VRB01MPS CAVOK 19/M02 Q1018 NOSIG,ZGGG,2021-01-14T04:00:00Z,23.4,113.3,19.0,-2.0,0,2,,6.21,30.059055,,,,,,TRUE,,,,,CAVOK,,,,,,,,VFR,,,,,,,,,,,,METAR,11.0
ZBYN 140400Z 34002MPS 270V020 3500 DU NSC 05/M16 Q1009 NOSIG,ZBYN,2021-01-14T04:00:00Z,37.73,112.63,5.0,-16.0,340,4,,2.17,29.793306,,,,,,TRUE,,,,DU,CLR,,,,,,,,IFR,,,,,,,,,,,,METAR,778.0
ZBTJ 140400Z 14003MPS 4000 HZ NSC 04/M04 Q1014 NOSIG,ZBTJ,2021-01-14T04:00:00Z,39.12,117.35,4.0,-4.0,140,6,,2.49,29.940945,,,,,,TRUE,,,,HZ,CLR,,,,,,,,IFR,,,,,,,,,,,,METAR,4.0
ZBSJ 140400Z 01003MPS 340V060 5000 DU NSC 01/M04 Q1014 NOSIG,ZBSJ,2021-01-14T04:00:00Z,38.28,114.7,1.0,-4.0,10,6,,3.11,29.940945,,,,,,TRUE,,,,DU,CLR,,,,,,,,MVFR,,,,,,,,,,,,METAR,70.0
ZBHH 140400Z 11002MPS 050V160 2000 DU NSC M01/M16 Q1008 NOSIG,ZBHH,2021-01-14T04:00:00Z,40.85,111.82,-1.0,-16.0,110,4,,1.24,29.763779,,,,,,TRUE,,,,DU,CLR,,,,,,,,IFR,,,,,,,,,,,,METAR,1081.0
ZBAD 140400Z 04004MPS CAVOK M00/M05 Q1015 NOSIG,ZBAD,2021-01-14T04:00:00Z,39.5,116.42,0.0,-5.0,40,8,,6.21,29.970472,,,,,,TRUE,,,,,CAVOK,,,,,,,,VFR,,,,,,,,,,,,METAR,25.0
ZBAA 140400Z 09003MPS 020V130 CAVOK 01/M07 Q1015 NOSIG,ZBAA,2021-01-14T04:00:00Z,40.07,116.6,1.0,-7.0,90,6,,6.21,29.970472,,,,,,TRUE,,,,,CAVOK,,,,,,,,VFR,,,,,,,,,,,,METAR,31.0
YWLM 140400Z 36008KT 300V360 CAVOK 32/18 Q1007,YWLM,2021-01-14T04:00:00Z,-32.8,151.83,32.0,18.0,360,8,,6.21,29.734253,,,,,,,,,,,CAVOK,,,,,,,,VFR,,,,,,,,,,,,METAR,7.0
YWHA 140400Z AUTO 17018KT 9999 // NCD 22/12 Q1017,YWHA,2021-01-14T04:00:00Z,-33.07,137.52,22.0,12.0,170,18,,6.21,30.029528,,,TRUE,,,,,,,,CLR,,,,,,,,VFR,,,,,,,,,,,,SPECI,12.0
YWGT 140400Z AUTO 28013KT 250V310 9999 // NCD 29/03 Q1009,YWGT,2021-01-14T04:00:00Z,-36.42,146.3,29.0,3.0,280,13,,6.21,29.793306,,,TRUE,,,,,,,,CLR,,,,,,,,VFR,,,,,,,,,,,,SPECI,152.0
YTRE 140400Z AUTO 10011KT 9999 // NCD 31/21 Q1008,YTRE,2021-01-14T04:00:00Z,-31.88,152.52,31.0,21.0,100,11,,6.21,29.763779,,,TRUE,,,,,,,,CLR,,,,,,,,VFR,,,,,,,,,,,,SPECI,8.0
YTNK 140400Z AUTO 08011KT 060V130 9999 // SCT094 37/17 Q1008,YTNK,2021-01-14T04:00:00Z,-19.63,134.18,37.0,17.0,80,11,,6.21,29.763779,,,TRUE,,,,,,,,SCT,9400,,,,,,,VFR,,,,,,,,,,,,SPECI,368.0
YTEF 140400Z AUTO 02009KT 350V050 9999 // ////// 44/// Q1007,YTEF,2021-01-14T04:00:00Z,-21.72,122.23,,,20,9,,6.21,29.734253,,,TRUE,,,,,,,,,,,,,,,,,,,,,,,,,,,,SPECI,298.0
YSTW 140400Z AUTO 33006KT 280V360 9999 // NCD 32/16 Q1011 RF00.0/000.0,YSTW,2021-01-14T04:00:00Z,-31.08,150.85,32.0,16.0,330,6,,6.21,29.852362,,,TRUE,,,,,,,,CLR,,,,,,,,VFR,,,,,,,,,,,,SPECI,404.0
YSSY 140400Z 04016KT CAVOK 31/19 Q1006,YSSY,2021-01-14T04:00:00Z,-33.95,151.17,31.0,19.0,40,16,,6.21,29.704725,,,,,,,,,,,CAVOK,,,,,,,,VFR,,,,,,,,,,,,METAR,3.0
YSRI 140400Z AUTO 29010KT 280V350 9999 // NCD 36/14 Q1004,YSRI,2021-01-14T04:00:00Z,-33.6,150.77,36.0,14.0,290,10,,6.21,29.64567,,,TRUE,,,,,,,,CLR,,,,,,,,VFR,,,,,,,,,,,,SPECI,19.0
YSNW 140400Z 17017KT CAVOK 27/19 Q1007,YSNW,2021-01-14T04:00:00Z,-34.95,150.53,27.0,19.0,170,17,,6.21,29.734253,,,,,,,,,,,CAVOK,,,,,,,,VFR,,,,,,,,,,,,METAR,109.0
YSNF 140400Z AUTO 15012KT 9999 // SCT020 24/17 Q1011,YSNF,2021-01-14T04:00:00Z,-29.03,167.93,24.0,17.0,150,12,,6.21,29.852362,,,TRUE,,,,,,,,SCT,2000,,,,,,,VFR,,,,,,,,,,,,SPECI,113.0
YSDU 140400Z AUTO 25014KT 240V320 9999 // NCD 36/12 Q1009,YSDU,2021-01-14T04:00:00Z,-32.22,148.57,36.0,12.0,250,14,,6.21,29.793306,,,TRUE,,,,,,,,CLR,,,,,,,,VFR,,,,,,,,,,,,SPECI,285.0
YSCB 140400Z AUTO 27016KT 9999 // NCD 31/07 Q1009,YSCB,2021-01-14T04:00:00Z,-35.3,149.18,31.0,7.0,270,16,,6.21,29.793306,,,TRUE,,,,,,,,CLR,,,,,,,,VFR,,,,,,,,,,,,METAR,577.0
YRMD 140400Z AUTO 09009KT 9999 // NCD 37/19 Q1007,YRMD,2021-01-14T04:00:00Z,-20.7,143.12,37.0,19.0,90,9,,6.21,29.734253,,,TRUE,,,,,,,,CLR,,,,,,,,VFR,,,,,,,,,,,,METAR,209.0
YPWR 140400Z AUTO 20015KT 9999 // NCD 30/06 Q1015,YPWR,2021-01-14T04:00:00Z,-31.15,136.82,30.0,6.0,200,15,,6.21,29.970472,,,TRUE,,,,,,,,CLR,,,,,,,,VFR,,,,,,,,,,,,METAR,169.0
YPPD 140400Z AUTO 34012KT 9999 // NCD 44/19 Q1004,YPPD,2021-01-14T04:00:00Z,-20.37,118.62,44.0,19.0,340,12,,6.21,29.64567,,,TRUE,,,,,,,,CLR,,,,,,,,VFR,,,,,,,,,,,,SPECI,6.0
YPLM 140400Z AUTO 19011KT 9999 // NCD 42/09 Q1007,YPLM,2021-01-14T04:00:00Z,-22.23,114.08,42.0,9.0,190,11,,6.21,29.734253,,,TRUE,,,,,,,,CLR,,,,,,,,VFR,,,,,,,,,,,,METAR,5.0
YPKU 140400Z AUTO 35004KT 320V020 9999 // NCD 35/26 Q1006,YPKU,2021-01-14T04:00:00Z,-15.77,128.7,35.0,26.0,350,4,,6.21,29.704725,,,TRUE,,,,,,,,CLR,,,,,,,,VFR,,,,,,,,,,,,METAR,42.0
YPKG 140400Z AUTO 10015KT 9999 // BKN120 27/11 Q1019,YPKG,2021-01-14T04:00:00Z,-30.78,121.45,27.0,11.0,100,15,,6.21,30.088583,,,TRUE,,,,,,,,BKN,12000,,,,,,,VFR,,,,,,,,,,,,METAR,372.0
YPJT 140400Z AUTO 12020KT 9999 // NCD 29/10 Q1016 RF00.0/000.0,YPJT,2021-01-14T04:00:00Z,-32.1,115.88,29.0,10.0,120,20,,6.21,30.0,,,TRUE,,,,,,,,CLR,,,,,,,,VFR,,,,,,,,,,,,METAR,29.0
YPEA 140400Z AUTO 10020KT 9999 // NCD 30/07 Q1016,YPEA,2021-01-14T04:00:00Z,-31.67,116.02,30.0,7.0,100,20,,6.21,30.0,,,TRUE,,,,,,,,CLR,,,,,,,,VFR,,,,,,,,,,,,METAR,38.0
YPDN 140400Z 34006KT 9999 -SHRA FEW010 SCT330 FEW019CB 31/25 Q1006,YPDN,2021-01-14T04:00:00Z,-12.42,130.9,31.0,25.0,340,6,,6.21,29.704725,,,,,,,,,,-SHRA,FEW,1000,SCT,33000,FEW,1900,,,VFR,,,,,,,,,,,,METAR,32.0
YPCC 140400Z 30020KT 9999 FEW008 SCT012 BKN045 27/27 Q1004 RF00/2/001/4,YPCC,2021-01-14T04:00:00Z,-12.18,96.83,27.0,27.0,300,20,,6.21,29.64567,,,,,,,,,,,FEW,800,SCT,1200,BKN,4500,,,VFR,,,,,,,,,,,,SPECI,3.0
YPBO 140400Z AUTO 30007KT 9999 // NCD 44/08 Q1008,YPBO,2021-01-14T04:00:00Z,-23.17,117.75,44.0,8.0,300,7,,6.21,29.763779,,,TRUE,,,,,,,,CLR,,,,,,,,VFR,,,,,,,,,,,,METAR,425.0
YPAD 140400Z 23019KT 9999 FEW040 21/08 Q1017,YPAD,2021-01-14T04:00:00Z,-34.95,138.52,21.0,8.0,230,19,,6.21,30.029528,,,,,,,,,,,FEW,4000,,,,,,,VFR,,,,,,,,,,,,METAR,2.0
YOLD 140400Z AUTO 18013KT 9999 // NCD 32/09 Q1014,YOLD,2021-01-14T04:00:00Z,-30.48,136.88,32.0,9.0,180,13,,6.21,29.940945,,,TRUE,,,,,,,,CLR,,,,,,,,VFR,,,,,,,,,,,,METAR,102.0
YNTN 140400Z AUTO 17006KT 090V190 9999 // NCD 33/21 Q1005,YNTN,2021-01-14T04:00:00Z,-17.68,141.07,33.0,21.0,170,6,,6.21,29.675198,,,TRUE,,,,,,,,CLR,,,,,,,,VFR,,,,,,,,,,,,METAR,19.0
YNBR 140400Z AUTO 26007KT 220V300 9999 // NCD 35/12 Q1010,YNBR,2021-01-14T04:00:00Z,-30.32,149.83,35.0,12.0,260,7,,6.21,29.822834,,,TRUE,,,,,,,,CLR,,,,,,,,VFR,,,,,,,,,,,,METAR,230.0
YNAR 140400Z AUTO 26014KT 9999 // NCD 32/01 Q1010,YNAR,2021-01-14T04:00:00Z,-34.7,146.52,32.0,1.0,260,14,,6.21,29.822834,,,TRUE,,,,,,,,CLR,,,,,,,,VFR,,,,,,,,,,,,METAR,142.0
YMTG 140400Z AUTO 22013KT 9999 // SCT032 SCT039 BKN048 20/11 Q1015,YMTG,2021-01-14T04:00:00Z,-37.75,140.78,20.0,11.0,220,13,,6.21,29.970472,,,TRUE,,,,,,,,SCT,3200,SCT,3900,BKN,4800,,,VFR,,,,,,,,,,,,METAR,65.0
YMOR 140400Z AUTO 12005KT 080V170 9999 // NCD 35/14 Q1010,YMOR,2021-01-14T04:00:00Z,-29.5,149.85,35.0,14.0,120,5,,6.21,29.822834,,,TRUE,,,,,,,,CLR,,,,,,,,VFR,,,,,,,,,,,,METAR,211.0
YMML 140400Z 19011KT 9999 BKN045 SCT058 20/09 Q1013,YMML,2021-01-14T04:00:00Z,-37.67,144.82,20.0,9.0,190,11,,6.21,29.911417,,,,,,,,,,,BKN,4500,SCT,5800,,,,,VFR,,,,,,,,,,,,METAR,115.0
YMLT 140400Z AUTO 32009KT 9999 // BKN063 21/08 Q1007 RF00.0/000.0,YMLT,2021-01-14T04:00:00Z,-41.53,147.2,21.0,8.0,320,9,,6.21,29.734253,,,TRUE,,,,,,,,BKN,6300,,,,,,,VFR,,,,,,,,,,,,SPECI,167.0
YMIA 140400Z AUTO 21009KT 170V240 9999 // NCD 27/04 Q1013,YMIA,2021-01-14T04:00:00Z,-34.23,142.08,27.0,4.0,210,9,,6.21,29.911417,,,TRUE,,,,,,,,CLR,,,,,,,,VFR,,,,,,,,,,,,METAR,53.0
YMHB 140400Z 32009KT 260V320 9999 FEW055 BKN065 22/07 Q1006,YMHB,2021-01-14T04:00:00Z,-42.83,147.52,22.0,7.0,320,9,,6.21,29.704725,,,,,,,,,,,FEW,5500,BKN,6500,,,,,VFR,,,,,,,,,,,,METAR,2.0
YMER 140400Z AUTO 13013G24KT 9999 // SCT047 21/16 Q1009,YMER,2021-01-14T04:00:00Z,-36.92,149.9,21.0,16.0,130,13,24,6.21,29.793306,,,TRUE,,,,,,,,SCT,4700,,,,,,,VFR,,,,,,,,,,,,METAR,2.0
YMEN 140400Z AUTO 20007KT 9999 // BKN062 21/10 Q1012,YMEN,2021-01-14T04:00:00Z,-37.72,144.9,21.0,10.0,200,7,,6.21,29.88189,,,TRUE,,,,,,,,BKN,6200,,,,,,,VFR,,,,,,,,,,,,METAR,86.0
YMDG 140400Z AUTO 27014KT 9999 // NCD 33/13 Q1010,YMDG,2021-01-14T04:00:00Z,-32.57,149.62,33.0,13.0,270,14,,6.21,29.822834,,,TRUE,,,,,,,,CLR,,,,,,,,VFR,,,,,,,,,,,,METAR,470.0
YMAY 140400Z AUTO 29010KT 250V310 9999 // NCD 29/02 Q1009,YMAY,2021-01-14T04:00:00Z,-36.07,146.95,29.0,2.0,290,10,,6.21,29.793306,,,TRUE,,,,,,,,CLR,,,,,,,,VFR,,,,,,,,,,,,METAR,156.0
YMAV 140400Z AUTO 15006KT 9999 // BKN056 OVC068 20/11 Q1012,YMAV,2021-01-14T04:00:00Z,-38.03,144.48,20.0,11.0,150,6,,6.21,29.88189,,,TRUE,,,,,,,,BKN,5600,OVC,6800,,,,,VFR,,,,,,,,,,,,SPECI,11.0
YLRE 140400Z AUTO 11013KT 9999 // NCD 36/14 Q1009,YLRE,2021-01-14T04:00:00Z,-23.43,144.28,36.0,14.0,110,13,,6.21,29.793306,,,TRUE,,,,,,,,CLR,,,,,,,,VFR,,,,,,,,,,,,METAR,191.0
YLIS 140400Z AUTO 09006KT 9999 // SCT046 29/18 Q1010,YLIS,2021-01-14T04:00:00Z,-28.83,153.27,29.0,18.0,90,6,,6.21,29.822834,,,TRUE,,,,,,,,SCT,4600,,,,,,,VFR,,,,,,,,,,,,METAR,6.0
YLHI 140400Z AUTO 29003KT 9999 -SHRA SCT017 SCT022 SCT035 22/21 Q1013,YLHI,2021-01-14T04:00:00Z,-31.53,159.07,22.0,21.0,290,3,,6.21,29.911417,,,TRUE,,,,,,,-SHRA,SCT,1700,SCT,2200,SCT,3500,,,VFR,,,,,,,,,,,,METAR,2.0
YLEC 140400Z AUTO 21015KT 9999 // NCD 34/08 Q1013,YLEC,2021-01-14T04:00:00Z,-30.6,138.43,34.0,8.0,210,15,,6.21,29.911417,,,TRUE,,,,,,,,CLR,,,,,,,,VFR,,,,,,,,,,,,METAR,261.0
YKRY 140400Z AUTO 09007KT 070V170 9999 // BKN061 30/15 Q1012,YKRY,2021-01-14T04:00:00Z,-26.57,151.83,30.0,15.0,90,7,,6.21,29.88189,,,TRUE,,,,,,,,BKN,6100,,,,,,,VFR,,,,,,,,,,,,METAR,435.0
YHUG 140400Z AUTO 09011KT 9999 // SCT064 35/15 Q1008,YHUG,2021-01-14T04:00:00Z,-20.82,144.23,35.0,15.0,90,11,,6.21,29.763779,,,TRUE,,,,,,,,SCT,6400,,,,,,,VFR,,,,,,,,,,,,METAR,320.0
YHID 140400Z AUTO 26009KT 9999 // SCT019 BKN028 BKN043 30/25 Q1005,YHID,2021-01-14T04:00:00Z,-10.58,142.3,30.0,25.0,260,9,,6.21,29.675198,,,TRUE,,,,,,,,SCT,1900,BKN,2800,BKN,4300,,,MVFR,,,,,,,,,,,,METAR,5.0
YGTH 140400Z AUTO 23014KT 9999 // NCD 32/05 Q1010,YGTH,2021-01-14T04:00:00Z,-34.25,146.07,32.0,5.0,230,14,,6.21,29.822834,,,TRUE,,,,,,,,CLR,,,,,,,,VFR,,,,,,,,,,,,METAR,132.0
YGTE 140400Z AUTO 12002KT 9999 -SHRA SCT085 BKN120 25/25 Q1006,YGTE,2021-01-14T04:00:00Z,-13.97,136.45,25.0,25.0,120,2,,6.21,29.704725,,,TRUE,,,,,,,-SHRA,SCT,8500,BKN,12000,,,,,VFR,,,,,,,,,,,,METAR,14.0
YGLA 140400Z AUTO 07014KT 9999 // NCD 29/18 Q1009,YGLA,2021-01-14T04:00:00Z,-23.87,151.22,29.0,18.0,70,14,,6.21,29.793306,,,TRUE,,,,,,,,CLR,,,,,,,,VFR,,,,,,,,,,,,METAR,17.0
YGFN 140400Z AUTO 34005KT 250V360 9999 // NCD 30/17 Q1010,YGFN,2021-01-14T04:00:00Z,-29.77,153.03,30.0,17.0,340,5,,6.21,29.822834,,,TRUE,,,,,,,,CLR,,,,,,,,VFR,,,,,,,,,,,,METAR,26.0
YGEL 140400Z AUTO 11011KT 090V180 9999 // NCD 38/13 Q1009,YGEL,2021-01-14T04:00:00Z,-28.8,114.7,38.0,13.0,110,11,,6.21,29.793306,,,TRUE,,,,,,,,CLR,,,,,,,,VFR,,,,,,,,,,,,METAR,32.0
YFRT 140400Z AUTO 17011KT 9999 // NCD 24/12 Q1020,YFRT,2021-01-14T04:00:00Z,-30.83,128.12,24.0,12.0,170,11,,6.21,30.11811,,,TRUE,,,,,,,,CLR,,,,,,,,VFR,,,,,,,,,,,,METAR,159.0
YESP 140400Z AUTO 14017KT 9999 // NCD 21/08 Q1024,YESP,2021-01-14T04:00:00Z,-33.68,121.82,21.0,8.0,140,17,,6.21,30.236221,,,TRUE,,,,,,,,CLR,,,,,,,,VFR,,,,,,,,,,,,METAR,143.0
YEML 140400Z AUTO 14012KT 9999 // SCT078 34/13 Q1009,YEML,2021-01-14T04:00:00Z,-23.57,148.18,34.0,13.0,140,12,,6.21,29.793306,,,TRUE,,,,,,,,SCT,7800,,,,,,,VFR,,,,,,,,,,,,METAR,192.0
YDBY 140400Z AUTO 33006KT 9999 // NCD 36/25 Q1005,YDBY,2021-01-14T04:00:00Z,-17.37,123.67,36.0,25.0,330,6,,6.21,29.675198,,,TRUE,,,,,,,,CLR,,,,,,,,VFR,,,,,,,,,,,,METAR,7.0
YCNM 140400Z AUTO 34010KT 290V360 //// // ////// 36/13 Q1009,YCNM,2021-01-14T04:00:00Z,-30.98,148.38,36.0,13.0,340,10,,,29.793306,,,TRUE,,,,,,,,,,,,,,,,,,,,,,,,,,,,METAR,180.0
YCIN 140400Z AUTO 29006KT 9999 // NCD 37/21 Q1005,YCIN,2021-01-14T04:00:00Z,-17.58,123.83,37.0,21.0,290,6,,6.21,29.675198,,,TRUE,,,,,,,,CLR,,,,,,,,VFR,,,,,,,,,,,,METAR,83.0
YCFS 140400Z AUTO 04019KT //// // NCD 27/20 Q1010,YCFS,2021-01-14T04:00:00Z,-30.32,153.12,27.0,20.0,40,19,,,29.822834,,,TRUE,,,,,,,,CLR,,,,,,,,,,,,,,,,,,,,METAR,2.0
YCCY 140400Z AUTO 12013KT 090V160 9999 // SCT084 37/14 Q1007,YCCY,2021-01-14T04:00:00Z,-20.67,140.5,37.0,14.0,120,13,,6.21,29.734253,,,TRUE,,,,,,,,SCT,8400,,,,,,,VFR,,,,,,,,,,,,METAR,188.0
YCBP 140400Z AUTO 18013KT 9999 // NCD 34/10 Q1014,YCBP,2021-01-14T04:00:00Z,-29.03,134.72,34.0,10.0,180,13,,6.21,29.940945,,,TRUE,,,,,,,,CLR,,,,,,,,VFR,,,,,,,,,,,,METAR,227.0
YCBB 140400Z AUTO 32010KT 270V330 9999 // NCD 31/14 Q1013,YCBB,2021-01-14T04:00:00Z,-31.33,149.27,31.0,14.0,320,10,,6.21,29.911417,,,TRUE,,,,,,,,CLR,,,,,,,,VFR,,,,,,,,,,,,METAR,644.0
YCBA 140400Z AUTO 24014KT 9999 // NCD 37/10 Q1009,YCBA,2021-01-14T04:00:00Z,-31.53,145.8,37.0,10.0,240,14,,6.21,29.793306,,,TRUE,,,,,,,,CLR,,,,,,,,VFR,,,,,,,,,,,,METAR,219.0
YCAS 140400Z AUTO 13004KT 030V190 //// // ////// 31/19 Q1010,YCAS,2021-01-14T04:00:00Z,-28.88,153.07,31.0,19.0,130,4,,,29.822834,,,TRUE,,,,,,,,,,,,,,,,,,,,,,,,,,,,METAR,25.0
YCAR 140400Z AUTO 22011KT 9999 // NCD 29/24 Q1009,YCAR,2021-01-14T04:00:00Z,-24.88,113.67,29.0,24.0,220,11,,6.21,29.793306,,,TRUE,,,,,,,,CLR,,,,,,,,VFR,,,,,,,,,,,,METAR,4.0
YBWX 140400Z AUTO 23013KT //// // ////// 34/24 Q1006,YBWX,2021-01-14T04:00:00Z,-20.85,115.4,34.0,24.0,230,13,,,29.704725,,,TRUE,,,,,,,,,,,,,,,,,,,,,,,,,,,,METAR,5.0
YBWW 140400Z AUTO 15006KT 090V220 9999 // SCT065 31/14 Q1011,YBWW,2021-01-14T04:00:00Z,,,31.0,14.0,150,6,,6.21,29.852362,,,TRUE,,,,,,,,SCT,6500,,,,,,,VFR,,,,,,,,,,,,METAR,
YBWP 140400Z AUTO 29006KT 9999 // NCD 29/24 Q1004,YBWP,2021-01-14T04:00:00Z,-12.68,141.92,29.0,24.0,290,6,,6.21,29.64567,,,TRUE,,,,,,,,CLR,,,,,,,,VFR,,,,,,,,,,,,METAR,21.0
YBUD 140400Z AUTO 09014KT 9999 // NCD 30/16 Q1009,YBUD,2021-01-14T04:00:00Z,-24.9,152.32,30.0,16.0,90,14,,6.21,29.793306,,,TRUE,,,,,,,,CLR,,,,,,,,VFR,,,,,,,,,,,,METAR,30.0
YBTL 140400Z 07015KT 9999 FEW040 31/23 Q1007,YBTL,2021-01-14T04:00:00Z,-19.25,146.75,31.0,23.0,70,15,,6.21,29.734253,,,,,,,,,,,FEW,4000,,,,,,,VFR,,,,,,,,,,,,METAR,4.0
YBRM 140400Z AUTO 30010KT 9999 // BKN022 33/27 Q1006,YBRM,2021-01-14T04:00:00Z,-17.93,122.23,33.0,27.0,300,10,,6.21,29.704725,,,TRUE,,,,,,,,BKN,2200,,,,,,,MVFR,,,,,,,,,,,,SPECI,11.0
YBRK 140400Z AUTO 05008KT 030V090 9999 // SCT048 SCT057 31/19 Q1009,YBRK,2021-01-14T04:00:00Z,-23.37,150.47,31.0,19.0,50,8,,6.21,29.793306,,,TRUE,,,,,,,,SCT,4800,SCT,5700,,,,,VFR,,,,,,,,,,,,METAR,10.0
YBPN 140400Z AUTO 11016KT 9999 // NCD 29/21 Q1008,YBPN,2021-01-14T04:00:00Z,-20.5,148.55,29.0,21.0,110,16,,6.21,29.763779,,,TRUE,,,,,,,,CLR,,,,,,,,VFR,,,,,,,,,,,,METAR,20.0
YBOK 140400Z AUTO 14005KT 9999 // NCD 30/15 Q1011,YBOK,2021-01-14T04:00:00Z,-27.42,151.73,30.0,15.0,140,5,,6.21,29.852362,,,TRUE,,,,,,,,CLR,,,,,,,,VFR,,,,,,,,,,,,METAR,406.0
YBNA 140400Z AUTO 10011KT 9999 // NCD 27/19 Q1011,YBNA,2021-01-14T04:00:00Z,-28.83,153.57,27.0,19.0,100,11,,6.21,29.852362,,,TRUE,,,,,,,,CLR,,,,,,,,VFR,,,,,,,,,,,,METAR,3.0
YBMK 140400Z AUTO 13015KT 9999 // NCD 28/22 Q1008,YBMK,2021-01-14T04:00:00Z,-21.17,149.17,28.0,22.0,130,15,,6.21,29.763779,,,TRUE,,,,,,,,CLR,,,,,,,,VFR,,,,,,,,,,,,METAR,4.0
YBMA 140400Z AUTO 11011KT 100V160 9999 // NCD 37/12 Q1008,YBMA,2021-01-14T04:00:00Z,-20.67,139.48,37.0,12.0,110,11,,6.21,29.763779,,,TRUE,,,,,,,,CLR,,,,,,,,VFR,,,,,,,,,,,,SPECI,346.0
YBHI 140400Z AUTO 18013KT 180V260 9999 // NCD 29/05 Q1013,YBHI,2021-01-14T04:00:00Z,-32.0,141.47,29.0,5.0,180,13,,6.21,29.911417,,,TRUE,,,,,,,,CLR,,,,,,,,VFR,,,,,,,,,,,,METAR,285.0
YBDV 140400Z AUTO 12008KT 360V170 //// // ////// 41/07 Q1008,YBDV,2021-01-14T04:00:00Z,-25.9,139.35,41.0,7.0,120,8,,,29.763779,,,TRUE,,,,,,,,,,,,,,,,,,,,,,,,,,,,METAR,46.0
YBCV 140400Z AUTO 18011KT 150V230 9999 // NCD 38/06 Q1009,YBCV,2021-01-14T04:00:00Z,-26.4,146.27,38.0,6.0,180,11,,6.21,29.793306,,,TRUE,,,,,,,,CLR,,,,,,,,VFR,,,,,,,,,,,,METAR,306.0
YBCG 140400Z AUTO 09013KT 9999 // NCD 28/18 Q1011,YBCG,2021-01-14T04:00:00Z,-28.17,153.5,28.0,18.0,90,13,,6.21,29.852362,,,TRUE,,,,,,,,CLR,,,,,,,,VFR,,,,,,,,,,,,METAR,5.0
YBBN 140400Z 09010KT 050V110 9999 FEW040 29/18 Q1011,YBBN,2021-01-14T04:00:00Z,-27.38,153.13,29.0,18.0,90,10,,6.21,29.852362,,,,,,,,,,,FEW,4000,,,,,,,VFR,,,,,,,,,,,,METAR,3.0
YBAS 140400Z 07014KT 030V090 CAVOK 39/07 Q1012 RF00.0/000.0,YBAS,2021-01-14T04:00:00Z,-23.8,133.9,39.0,7.0,70,14,,6.21,29.88189,,,,,,,,,,,CAVOK,,,,,,,,VFR,,,,,,,,,,,,METAR,549.0
YAYE 140400Z AUTO 10007KT 050V110 9999 // NCD 40/05 Q1011,YAYE,2021-01-14T04:00:00Z,-25.18,130.98,40.0,5.0,100,7,,6.21,29.852362,,,TRUE,,,,,,,,CLR,,,,,,,,VFR,,,,,,,,,,,,METAR,489.0
YARG 140400Z AUTO 35007KT 9999 // NCD 39/20 Q1006,YARG,2021-01-14T04:00:00Z,-16.63,128.45,39.0,20.0,350,7,,6.21,29.704725,,,TRUE,,,,,,,,CLR,,,,,,,,VFR,,,,,,,,,,,,METAR,157.0
YAMB 140400Z 12006KT 080V190 CAVOK 32/17 Q1010,YAMB,2021-01-14T04:00:00Z,-27.63,152.72,32.0,17.0,120,6,,6.21,29.822834,,,,,,,,,,,CAVOK,,,,,,,,VFR,,,,,,,,,,,,METAR,26.0
YABA 140400Z AUTO 12015KT 9999 // BKN035 19/10 Q1025,YABA,2021-01-14T04:00:00Z,-34.93,117.8,19.0,10.0,120,15,,6.21,30.265747,,,TRUE,,,,,,,,BKN,3500,,,,,,,VFR,,,,,,,,,,,,METAR,67.0
WSSS 140400Z 01012KT 9999 SCT017 BKN170 27/24 Q1012 NOSIG,WSSS,2021-01-14T04:00:00Z,1.37,103.97,27.0,24.0,10,12,,6.21,29.88189,,,,,,TRUE,,,,,SCT,1700,BKN,17000,,,,,VFR,,,,,,,,,,,,METAR,17.0
WSSL 140400Z 02012KT 9999 FEW018 BKN150 28/22 Q1011,WSSL,2021-01-14T04:00:00Z,1.42,103.87,28.0,22.0,20,12,,6.21,29.852362,,,,,,,,,,,FEW,1800,BKN,15000,,,,,VFR,,,,,,,,,,,,METAR,11.0
WSAP 140400Z 04013KT 9999 FEW018 BKN150 29/24 Q1012,WSAP,2021-01-14T04:00:00Z,1.37,103.92,29.0,24.0,40,13,,6.21,29.88189,,,,,,,,,,,FEW,1800,BKN,15000,,,,,VFR,,,,,,,,,,,,METAR,20.0
WMSA 140400Z 04004KT 330V120 9999 FEW018 30/22 Q1011,WMSA,2021-01-14T04:00:00Z,3.13,101.55,30.0,22.0,40,4,,6.21,29.852362,,,,,,,,,,,FEW,1800,,,,,,,VFR,,,,,,,,,,,,METAR,19.0
WMKP 140400Z 02008KT 350V060 9000 FEW020 29/22 Q1011 NOSIG,WMKP,2021-01-14T04:00:00Z,5.28,100.27,29.0,22.0,20,8,,5.59,29.852362,,,,,,TRUE,,,,,FEW,2000,,,,,,,VFR,,,,,,,,,,,,METAR,4.0
WMKN 140400Z VRB03KT 9999 SCT018 27/22 Q1013,WMKN,2021-01-14T04:00:00Z,5.37,103.1,27.0,22.0,0,3,,6.21,29.911417,,,,,,,,,,,SCT,1800,,,,,,,VFR,,,,,,,,,,,,METAR,12.0
WMKM 140400Z VRB09G25KT 9999 FEW020 28/22 Q1012,WMKM,2021-01-14T04:00:00Z,2.27,102.25,28.0,22.0,0,9,25,6.21,29.88189,,,,,,,,,,,FEW,2000,,,,,,,VFR,,,,,,,,,,,,METAR,9.0
WMKL 140400Z 03007KT 340V120 9999 FEW022 30/23 Q1011,WMKL,2021-01-14T04:00:00Z,6.32,99.72,30.0,23.0,30,7,,6.21,29.852362,,,,,,,,,,,FEW,2200,,,,,,,VFR,,,,,,,,,,,,METAR,4.0
WMKK 140400Z 07004KT 340V150 9999 FEW018 30/22 Q1011 NOSIG,WMKK,2021-01-14T04:00:00Z,2.75,101.72,30.0,22.0,70,4,,6.21,29.852362,,,,,,TRUE,,,,,FEW,1800,,,,,,,VFR,,,,,,,,,,,,METAR,21.0
WMKJ 140400Z 04010KT 340V080 9999 FEW018 28/23 Q1011,WMKJ,2021-01-14T04:00:00Z,1.63,103.67,28.0,23.0,40,10,,6.21,29.852362,,,,,,,,,,,FEW,1800,,,,,,,VFR,,,,,,,,,,,,METAR,38.0
WMKI 140400Z 04007KT 360V090 9999 SCT019 29/23 Q1011,WMKI,2021-01-14T04:00:00Z,4.57,101.08,29.0,23.0,40,7,,6.21,29.852362,,,,,,,,,,,SCT,1900,,,,,,,VFR,,,,,,,,,,,,METAR,37.0
WMKE 140400Z 03006KT 010V100 7000 SCT014 27/22 Q1013,WMKE,2021-01-14T04:00:00Z,4.53,103.43,27.0,22.0,30,6,,4.35,29.911417,,,,,,,,,,,SCT,1400,,,,,,,MVFR,,,,,,,,,,,,METAR,5.0
WMKD 140400Z 36007KT 300V070 9999 SCT020 28/21 Q1012 NOSIG,WMKD,2021-01-14T04:00:00Z,3.77,103.22,28.0,21.0,360,7,,6.21,29.88189,,,,,,TRUE,,,,,SCT,2000,,,,,,,VFR,,,,,,,,,,,,METAR,18.0
WMKC 140400Z 09009KT 040V190 9999 FEW018 28/22 Q1013,WMKC,2021-01-14T04:00:00Z,6.17,102.28,28.0,22.0,90,9,,6.21,29.911417,,,,,,,,,,,FEW,1800,,,,,,,VFR,,,,,,,,,,,,METAR,7.0
WMKB 140400Z 05009KT 020V080 9999 FEW020 29/21 Q1011 NOSIG,WMKB,2021-01-14T04:00:00Z,5.47,100.38,29.0,21.0,50,9,,6.21,29.852362,,,,,,TRUE,,,,,FEW,2000,,,,,,,VFR,,,,,,,,,,,,METAR,4.0
WMKA 140400Z VRB08KT 9999 FEW020 29/23 Q1011,WMKA,2021-01-14T04:00:00Z,6.2,100.4,29.0,23.0,0,8,,6.21,29.852362,,,,,,,,,,,FEW,2000,,,,,,,VFR,,,,,,,,,,,,METAR,5.0
WMBA 140400Z VRB02KT 9999 FEW022 29/25 Q1010,WMBA,2021-01-14T04:00:00Z,4.22,100.7,29.0,25.0,0,2,,6.21,29.822834,,,,,,,,,,,FEW,2200,,,,,,,VFR,,,,,,,,,,,,METAR,9.0
WMAU 140400Z VRB13KT 9999 SCT020 28/23 Q1012,WMAU,2021-01-14T04:00:00Z,2.38,103.88,28.0,23.0,0,13,,6.21,29.88189,,,,,,,,,,,SCT,2000,,,,,,,VFR,,,,,,,,,,,,METAR,5.0
WIPP 140400Z 29008KT 9999 BKN010 27/24 Q1011 NOSIG,WIPP,2021-01-14T04:00:00Z,-2.88,104.7,27.0,24.0,290,8,,6.21,29.852362,,,,,,TRUE,,,,,BKN,1000,,,,,,,MVFR,,,,,,,,,,,,METAR,7.0
WIOO 140400Z 35007KT 9999 BKN011 28/24 Q1010 NOSIG,WIOO,2021-01-14T04:00:00Z,-0.15,109.4,28.0,24.0,350,7,,6.21,29.822834,,,,,,TRUE,,,,,BKN,1100,,,,,,,MVFR,,,,,,,,,,,,METAR,4.0
WIMM 140400Z 10004KT 9999 SCT018 BKN035 28/25 Q1011 NOSIG,WIMM,2021-01-14T04:00:00Z,3.57,98.67,28.0,25.0,100,4,,6.21,29.852362,,,,,,TRUE,,,,,SCT,1800,BKN,3500,,,,,VFR,,,,,,,,,,,,METAR,27.0
WIHH 140400Z 330007KT 5000 HZ SCT019 29/23 Q1011 NOSIG,WIHH,2021-01-14T04:00:00Z,-6.27,106.88,29.0,23.0,330,7,,3.11,29.852362,,,,,,TRUE,,,,HZ,SCT,1900,,,,,,,MVFR,,,,,,,,,,,,METAR,26.0
WIDN 140400Z 01010KT 9999 SCT017 27/23 Q1012 NOSIG,WIDN,2021-01-14T04:00:00Z,,,27.0,23.0,10,10,,6.21,29.88189,,,,,,TRUE,,,,,SCT,1700,,,,,,,VFR,,,,,,,,,,,,METAR,
WIDD 140400Z 02012KT 9999 FEW014 28/22 Q1013 NOSIG,WIDD,2021-01-14T04:00:00Z,1.12,104.12,28.0,22.0,20,12,,6.21,29.911417,,,,,,TRUE,,,,,FEW,1400,,,,,,,VFR,,,,,,,,,,,,METAR,26.0
WIBB 140400Z 04008KT 9999 SCT013 27/21 Q1010,WIBB,2021-01-14T04:00:00Z,0.47,101.45,27.0,21.0,40,8,,6.21,29.822834,,,,,,,,,,,SCT,1300,,,,,,,VFR,,,,,,,,,,,,METAR,41.0
WBSB 140400Z 17002KT 9999 SCT015 FEW016CB BKN140 28/24 Q1010 NOSIG,WBSB,2021-01-14T04:00:00Z,4.93,114.92,28.0,24.0,170,2,,6.21,29.822834,,,,,,TRUE,,,,,SCT,1500,FEW,1600,BKN,14000,,,VFR,,,,,,,,,,,,METAR,15.0
WBKW 140400Z VRB05KT 9999 VCSH FEW016CB 29/25 Q1009,WBKW,2021-01-14T04:00:00Z,4.32,118.12,29.0,25.0,0,5,,6.21,29.793306,,,,,,,,,,VCSH,FEW,1600,,,,,,,VFR,,,,,,,,,,,,METAR,17.0
WBKT 140400Z 16004KT 100V210 9999 FEW014 25/24 Q1010,WBKT,2021-01-14T04:00:00Z,6.92,116.83,25.0,24.0,160,4,,6.21,29.822834,,,,,,,,,,,FEW,1400,,,,,,,VFR,,,,,,,,,,,,METAR,11.0
WBKS 140400Z 28004KT 260V320 9000 -RA FEW008 SCT035 26/25 Q1009,WBKS,2021-01-14T04:00:00Z,5.9,118.07,26.0,25.0,280,4,,5.59,29.793306,,,,,,,,,,-RA,FEW,800,SCT,3500,,,,,VFR,,,,,,,,,,,,METAR,13.0
WBKL 140400Z VRB03KT 9999 FEW013 27/24 Q1010,WBKL,2021-01-14T04:00:00Z,5.3,115.25,27.0,24.0,0,3,,6.21,29.822834,,,,,,,,,,,FEW,1300,,,,,,,VFR,,,,,,,,,,,,METAR,29.0
WBKK 140400Z 26004KT 170V330 9999 FEW014 29/26 Q1009 NOSIG,WBKK,2021-01-14T04:00:00Z,5.93,116.05,29.0,26.0,260,4,,6.21,29.793306,,,,,,TRUE,,,,,FEW,1400,,,,,,,VFR,,,,,,,,,,,,METAR,9.0
WBGY 140400Z 00000KT 9999 -RA SCT003 SCT018 26/24 Q1011,WBGY,2021-01-14T04:00:00Z,1.22,111.45,26.0,24.0,0,0,,6.21,29.852362,,,,,,,,,,-RA,SCT,300,SCT,1800,,,,,VFR,,,,,,,,,,,,METAR,13.0
WBGS 140400Z 18003KT 100V250 9999 SCT014 26/24 Q1011,WBGS,2021-01-14T04:00:00Z,2.27,111.98,26.0,24.0,180,3,,6.21,29.852362,,,,,,,,,,,SCT,1400,,,,,,,VFR,,,,,,,,,,,,METAR,26.0
WBGR 140400Z 20003KT 140V290 9999 SCT014 28/25 Q1010,WBGR,2021-01-14T04:00:00Z,4.32,113.98,28.0,25.0,200,3,,6.21,29.822834,,,,,,,,,,,SCT,1400,,,,,,,VFR,,,,,,,,,,,,METAR,18.0
WBGG 140400Z VRB03KT 4000 -RA SCT020 26/25 Q1011 NOSIG,WBGG,2021-01-14T04:00:00Z,1.48,110.35,26.0,25.0,0,3,,2.49,29.852362,,,,,,TRUE,,,,-RA,SCT,2000,,,,,,,IFR,,,,,,,,,,,,METAR,26.0
WBGB 140400Z 17005KT 110V250 9999 SCT014 28/25 Q1010,WBGB,2021-01-14T04:00:00Z,3.12,113.02,28.0,25.0,170,5,,6.21,29.822834,,,,,,,,,,,SCT,1400,,,,,,,VFR,,,,,,,,,,,,METAR,34.0
WATT 140400Z 17004KT 9999 BKN016 29/24 Q1007 NOSIG,WATT,2021-01-14T04:00:00Z,-10.17,123.67,29.0,24.0,170,4,,6.21,29.734253,,,,,,TRUE,,,,,BKN,1600,,,,,,,MVFR,,,,,,,,,,,,METAR,104.0
WARR 140400Z 16004KT 9999 SCT020 30/23 Q1009 NOSIG,WARR,2021-01-14T04:00:00Z,-7.37,112.78,30.0,23.0,160,4,,6.21,29.793306,,,,,,TRUE,,,,,SCT,2000,,,,,,,VFR,,,,,,,,,,,,METAR,2.0
WAQQ 140400Z 32006KT 8000 BKN014 28/25 Q1009,WAQQ,2021-01-14T04:00:00Z,3.33,117.57,28.0,25.0,320,6,,4.97,29.793306,,,,,,,,,,,BKN,1400,,,,,,,MVFR,,,,,,,,,,,,METAR,0.0
WAPP 140400Z 20006KT 170V230 9999 SCT018 33/25 Q1006 NOSIG,WAPP,2021-01-14T04:00:00Z,-3.7,128.08,33.0,25.0,200,6,,6.21,29.704725,,,,,,TRUE,,,,,SCT,1800,,,,,,,VFR,,,,,,,,,,,,METAR,20.0
WAOO 140400Z 25015KT 0500 RA FEW012CB OVC013 24/23 Q1010,WAOO,2021-01-14T04:00:00Z,-3.45,114.77,24.0,23.0,250,15,,0.31,29.822834,,,,,,,,,,RA,FEW,1200,OVC,1300,,,,,LIFR,,,,,,,,,,,,METAR,23.0
WAKK 140400Z 24009KT 9999 FEW016TCU SCT019 31/25 Q1005,WAKK,2021-01-14T04:00:00Z,-8.47,140.37,31.0,25.0,240,9,,6.21,29.675198,,,,,,,,,,,FEW,1600,SCT,1900,,,,,VFR,,,,,,,,,,,,METAR,3.0
WAJJ 140400Z 28010KT 9999 SCT012 33/24 Q1004 NOSIG,WAJJ,2021-01-14T04:00:00Z,-2.58,140.52,33.0,24.0,280,10,,6.21,29.64567,,,,,,TRUE,,,,,SCT,1200,,,,,,,VFR,,,,,,,,,,,,METAR,93.0
WAHS 140400Z 34002KT 7000 SCT014 30/24 Q1009 NOSIG,WAHS,2021-01-14T04:00:00Z,-6.98,110.38,30.0,24.0,340,2,,4.35,29.793306,,,,,,TRUE,,,,,SCT,1400,,,,,,,MVFR,,,,,,,,,,,,METAR,3.0
WADD 140400Z 30010KT 9999 SCT016 29/26 Q1009 NOSIG,WADD,2021-01-14T04:00:00Z,-8.73,115.17,29.0,26.0,300,10,,6.21,29.793306,,,,,,TRUE,,,,,SCT,1600,,,,,,,VFR,,,,,,,,,,,,METAR,3.0
VYYY 140400Z 01003KT 7000 FEW025 26/22 Q1014 NOSIG,VYYY,2021-01-14T04:00:00Z,16.9,96.13,26.0,22.0,10,3,,4.35,29.940945,,,,,,TRUE,,,,,FEW,2500,,,,,,,MVFR,,,,,,,,,,,,METAR,31.0
VYNT 140400Z 30008KT 7000 FEW020 FEW120 26/22 Q1014 NOSIG,VYNT,2021-01-14T04:00:00Z,19.62,96.2,26.0,22.0,300,8,,4.35,29.940945,,,,,,TRUE,,,,,FEW,2000,FEW,12000,,,,,MVFR,,,,,,,,,,,,METAR,610.0
VVTS 140400Z VRB04KT 8000 SCT020 27/19 Q1013 NOSIG,VVTS,2021-01-14T04:00:00Z,10.82,106.67,27.0,19.0,0,4,,4.97,29.911417,,,,,,TRUE,,,,,SCT,2000,,,,,,,MVFR,,,,,,,,,,,,METAR,10.0
VVPQ 140400Z 01008KT 330V040 CAVOK 28/14 Q1013 NOSIG,VVPQ,2021-01-14T04:00:00Z,10.23,103.97,28.0,14.0,10,8,,6.21,29.911417,,,,,,TRUE,,,,,CAVOK,,,,,,,,VFR,,,,,,,,,,,,METAR,8.0
VVPB 140400Z 36006KT 9999 FEW015 SCT060 21/16 Q1018 NOSIG,VVPB,2021-01-14T04:00:00Z,16.38,107.7,21.0,16.0,360,6,,6.21,30.059055,,,,,,TRUE,,,,,FEW,1500,SCT,6000,,,,,VFR,,,,,,,,,,,,METAR,15.0
VVNB 140400Z 25003KT 220V290 8000 NSC 18/06 Q1019 NOSIG,VVNB,2021-01-14T04:00:00Z,21.22,105.8,18.0,6.0,250,3,,4.97,30.088583,,,,,,TRUE,,,,,CLR,,,,,,,,MVFR,,,,,,,,,,,,METAR,6.0
VVDN 140400Z VRB01KT 7000 FEW015 BKN060 21/14 Q1018 NOSIG,VVDN,2021-01-14T04:00:00Z,16.03,108.2,21.0,14.0,0,1,,4.35,30.059055,,,,,,TRUE,,,,,FEW,1500,BKN,6000,,,,,MVFR,,,,,,,,,,,,METAR,7.0
VVCT 140400Z 35004KT 7000 NSC 26/19 Q1014 NOSIG,VVCT,2021-01-14T04:00:00Z,10.08,105.72,26.0,19.0,350,4,,4.35,29.940945,,,,,,TRUE,,,,,CLR,,,,,,,,MVFR,,,,,,,,,,,,METAR,6.0
VVCR 140400Z 02012KT 9999 FEW015 BKN050 25/15 Q1016 NOSIG,VVCR,2021-01-14T04:00:00Z,12.0,109.22,25.0,15.0,20,12,,6.21,30.0,,,,,,TRUE,,,,,FEW,1500,BKN,5000,,,,,VFR,,,,,,,,,,,,METAR,12.0
VVCI 140400Z 12004KT 070V160 CAVOK 19/09 Q1018 NOSIG,VVCI,2021-01-14T04:00:00Z,20.82,106.73,19.0,9.0,120,4,,6.21,30.059055,,,,,,TRUE,,,,,CAVOK,,,,,,,,VFR,,,,,,,,,,,,METAR,6.0
VTUW 140400Z VRB03KT 6000 NSC 23/11 Q1016 NOSIG,VTUW,2021-01-14T04:00:00Z,17.38,104.63,23.0,11.0,0,3,,3.73,30.0,,,,,,TRUE,,,,,CLR,,,,,,,,MVFR,,,,,,,,,,,,METAR,167.0
VTUV 140400Z 03006KT 340V100 CAVOK 24/11 Q1015 NOSIG,VTUV,2021-01-14T04:00:00Z,16.12,103.78,24.0,11.0,30,6,,6.21,29.970472,,,,,,TRUE,,,,,CAVOK,,,,,,,,VFR,,,,,,,,,,,,METAR,136.0
VTUU 140400Z VRB05KT CAVOK 25/14 Q1015 NOSIG,VTUU,2021-01-14T04:00:00Z,15.25,104.87,25.0,14.0,0,5,,6.21,29.970472,,,,,,TRUE,,,,,CAVOK,,,,,,,,VFR,,,,,,,,,,,,METAR,123.0
VTUQ 140400Z 09005KT 050V140 8000 NSC 26/18 Q1016 NOSIG,VTUQ,2021-01-14T04:00:00Z,14.95,102.32,26.0,18.0,90,5,,4.97,30.0,,,,,,TRUE,,,,,CLR,,,,,,,,MVFR,,,,,,,,,,,,METAR,225.0
VTUO 140400Z 03004KT 350V050 9000 NSC 23/12 Q1016 NOSIG,VTUO,2021-01-14T04:00:00Z,15.23,103.25,23.0,12.0,30,4,,5.59,30.0,,,,,,TRUE,,,,,CLR,,,,,,,,VFR,,,,,,,,,,,,METAR,182.0
VTUL 140400Z VRB05KT CAVOK 22/12 Q1016 NOSIG,VTUL,2021-01-14T04:00:00Z,17.43,101.72,22.0,12.0,0,5,,6.21,30.0,,,,,,TRUE,,,,,CAVOK,,,,,,,,VFR,,,,,,,,,,,,METAR,257.0
VTUK 140400Z 05004KT 340V110 6000 NSC 24/08 Q1016 NOSIG,VTUK,2021-01-14T04:00:00Z,16.47,102.78,24.0,8.0,50,4,,3.73,30.0,,,,,,TRUE,,,,,CLR,,,,,,,,MVFR,,,,,,,,,,,,METAR,190.0
VTUI 140400Z 12005KT 080V150 CAVOK 21/10 Q1016 NOSIG,VTUI,2021-01-14T04:00:00Z,17.2,104.12,21.0,10.0,120,5,,6.21,30.0,,,,,,TRUE,,,,,CAVOK,,,,,,,,VFR,,,,,,,,,,,,METAR,162.0
VTUD 140400Z VRB04KT CAVOK 23/09 Q1016 NOSIG,VTUD,2021-01-14T04:00:00Z,17.37,102.78,23.0,9.0,0,4,,6.21,30.0,,,,,,TRUE,,,,,CAVOK,,,,,,,,VFR,,,,,,,,,,,,METAR,177.0
VTST 140400Z 04007KT 010V080 9999 FEW030 28/23 Q1011 NOSIG,VTST,2021-01-14T04:00:00Z,7.52,99.62,28.0,23.0,40,7,,6.21,29.852362,,,,,,TRUE,,,,,FEW,3000,,,,,,,VFR,,,,,,,,,,,,METAR,17.0
VTSS 140400Z 06009KT 9999 SCT020 SCT028 BKN100 28/22 Q1013 NOSIG,VTSS,2021-01-14T04:00:00Z,6.92,100.38,28.0,22.0,60,9,,6.21,29.911417,,,,,,TRUE,,,,,SCT,2000,SCT,2800,BKN,10000,,,VFR,,,,,,,,,,,,METAR,28.0
VTSR 140400Z 25010KT 9999 FEW020 28/24 Q1011 NOSIG,VTSR,2021-01-14T04:00:00Z,9.78,98.58,28.0,24.0,250,10,,6.21,29.852362,,,,,,TRUE,,,,,FEW,2000,,,,,,,VFR,,,,,,,,,,,,METAR,23.0
VTSP 140400Z 07008KT 020V100 9999 FEW020 28/20 Q1012 NOSIG,VTSP,2021-01-14T04:00:00Z,8.12,98.32,28.0,20.0,70,8,,6.21,29.88189,,,,,,TRUE,,,,,FEW,2000,,,,,,,VFR,,,,,,,,,,,,METAR,12.0
VTSM 140400Z 03010KT 9999 FEW020 29/20 Q1014 NOSIG,VTSM,2021-01-14T04:00:00Z,9.55,100.07,29.0,20.0,30,10,,6.21,29.940945,,,,,,TRUE,,,,,FEW,2000,,,,,,,VFR,,,,,,,,,,,,METAR,12.0
VTSG 140400Z 03008KT 350V080 9999 FEW020 27/22 Q1013 NOSIG,VTSG,2021-01-14T04:00:00Z,8.1,98.98,27.0,22.0,30,8,,6.21,29.911417,,,,,,TRUE,,,,,FEW,2000,,,,,,,VFR,,,,,,,,,,,,METAR,32.0
VTSF 140400Z 03004KT 320V090 9999 SCT018 29/24 Q1013 NOSIG,VTSF,2021-01-14T04:00:00Z,8.53,99.95,29.0,24.0,30,4,,6.21,29.911417,,,,,,TRUE,,,,,SCT,1800,,,,,,,VFR,,,,,,,,,,,,METAR,6.0
VTSE 140400Z 06009KT 350V090 CAVOK 27/18 Q1014 NOSIG,VTSE,2021-01-14T04:00:00Z,10.72,99.37,27.0,18.0,60,9,,6.21,29.940945,,,,,,TRUE,,,,,CAVOK,,,,,,,,VFR,,,,,,,,,,,,METAR,8.0
VTSC 140400Z 11007KT 9999 FEW020 BKN100 29/22 Q1013 NOSIG,VTSC,2021-01-14T04:00:00Z,6.52,101.75,29.0,22.0,110,7,,6.21,29.911417,,,,,,TRUE,,,,,FEW,2000,BKN,10000,,,,,VFR,,,,,,,,,,,,METAR,5.0
VTSB 140400Z 04011KT 010V090 9999 FEW020 28/22 Q1013,VTSB,2021-01-14T04:00:00Z,9.12,99.15,28.0,22.0,40,11,,6.21,29.911417,,,,,,,,,,,FEW,2000,,,,,,,VFR,,,,,,,,,,,,METAR,10.0
VTPT 140400Z /////KT 7000 NSC 23/12 Q//// NOSIG,VTPT,2021-01-14T04:00:00Z,16.87,99.15,23.0,12.0,,,,4.35,,,,,,,TRUE,,,,,CLR,,,,,,,,MVFR,,,,,,,,,,,,METAR,124.0
VTPP 140400Z 29005KT 240V340 7000 NSC 24/14 Q1016 NOSIG,VTPP,2021-01-14T04:00:00Z,16.78,100.28,24.0,14.0,290,5,,4.35,30.0,,,,,,TRUE,,,,,CLR,,,,,,,,MVFR,,,,,,,,,,,,METAR,45.0
VTPO 140400Z VRB02KT CAVOK 22/14 Q1015 NOSIG,VTPO,2021-01-14T04:00:00Z,17.23,99.82,22.0,14.0,0,2,,6.21,29.970472,,,,,,TRUE,,,,,CAVOK,,,,,,,,VFR,,,,,,,,,,,,METAR,58.0
VTPM 140400Z 00000KT 7000 NSC 23/13 Q1016 NOSIG,VTPM,2021-01-14T04:00:00Z,16.7,98.53,23.0,13.0,0,0,,4.35,30.0,,,,,,TRUE,,,,,CLR,,,,,,,,MVFR,,,,,,,,,,,,METAR,211.0
VTPH 140400Z 34008KT 290V020 7000 NSC 26/12 Q1015 NOSIG,VTPH,2021-01-14T04:00:00Z,12.63,99.95,26.0,12.0,340,8,,4.35,29.970472,,,,,,TRUE,,,,,CLR,,,,,,,,MVFR,,,,,,,,,,,,METAR,12.0
VTPB 140400Z 35003KT 270V080 8000 NSC 25/11 Q1015 NOSIG,VTPB,2021-01-14T04:00:00Z,16.67,101.2,25.0,11.0,350,3,,4.97,29.970472,,,,,,TRUE,,,,,CLR,,,,,,,,MVFR,,,,,,,,,,,,METAR,134.0
VTCT 140400Z VRB03KT CAVOK 19/13 Q1018 NOSIG,VTCT,2021-01-14T04:00:00Z,19.95,99.88,19.0,13.0,0,3,,6.21,30.059055,,,,,,TRUE,,,,,CAVOK,,,,,,,,VFR,,,,,,,,,,,,METAR,389.0
VTCP 140400Z VRB02KT 4000 HZ NSC 22/12 Q1016 NOSIG,VTCP,2021-01-14T04:00:00Z,18.13,100.17,22.0,12.0,0,2,,2.49,30.0,,,,,,TRUE,,,,HZ,CLR,,,,,,,,IFR,,,,,,,,,,,,METAR,166.0
VTCN 140400Z VRB02KT CAVOK 20/12 Q1017 NOSIG,VTCN,2021-01-14T04:00:00Z,18.82,100.78,20.0,12.0,0,2,,6.21,30.029528,,,,,,TRUE,,,,,CAVOK,,,,,,,,VFR,,,,,,,,,,,,METAR,211.0
VTCL 140400Z VRB02KT 9000 NSC 22/11 Q1018 NOSIG,VTCL,2021-01-14T04:00:00Z,18.27,99.52,22.0,11.0,0,2,,5.59,30.059055,,,,,,TRUE,,,,,CLR,,,,,,,,VFR,,,,,,,,,,,,METAR,240.0
VTCH 140400Z 33004KT 260V070 9000 FEW025 23/15 Q1016,VTCH,2021-01-14T04:00:00Z,19.3,97.98,23.0,15.0,330,4,,5.59,30.0,,,,,,,,,,,FEW,2500,,,,,,,VFR,,,,,,,,,,,,METAR,266.0
VTCC 140400Z 07003KT 330V120 9000 FEW035 20/13 Q1017 NOSIG,VTCC,2021-01-14T04:00:00Z,18.77,98.97,20.0,13.0,70,3,,5.59,30.029528,,,,,,TRUE,,,,,FEW,3500,,,,,,,VFR,,,,,,,,,,,,METAR,308.0
VTBU 140400Z 03007KT 7000 NSC 28/11 Q1014 NOSIG,VTBU,2021-01-14T04:00:00Z,12.68,101.0,28.0,11.0,30,7,,4.35,29.940945,,,,,,TRUE,,,,,CLR,,,,,,,,MVFR,,,,,,,,,,,,METAR,12.0
VTBS 140400Z 04004KT 300V110 CAVOK 26/11 Q1015 NOSIG,VTBS,2021-01-14T04:00:00Z,13.68,100.75,26.0,11.0,40,4,,6.21,29.970472,,,,,,TRUE,,,,,CAVOK,,,,,,,,VFR,,,,,,,,,,,,METAR,1.0
VTBO 140400Z 06010KT 9999 CAVOK 29/18 Q1014,VTBO,2021-01-14T04:00:00Z,12.28,102.32,29.0,18.0,60,10,,6.21,29.940945,,,,,,,,,,,CAVOK,,,,,,,,VFR,,,,,,,,,,,,SPECI,25.0
VTBD 140400Z 32004KT 9000 FEW020 27/12 Q1015 NOSIG,VTBD,2021-01-14T04:00:00Z,13.92,100.6,27.0,12.0,320,4,,5.59,29.970472,,,,,,TRUE,,,,,FEW,2000,,,,,,,VFR,,,,,,,,,,,,METAR,6.0
VRMM 140400Z 29010KT 9999 SCT018 BKN270 29/25 Q1010 NOSIG,VRMM,2021-01-14T04:00:00Z,4.2,73.52,29.0,25.0,290,10,,6.21,29.822834,,,,,,TRUE,,,,,SCT,1800,BKN,27000,,,,,VFR,,,,,,,,,,,,METAR,2.0
VOVZ 140400Z VRB02KT 1500 BR NSC 25/22 Q1015 BECMG 1800 BR,VOVZ,2021-01-14T04:00:00Z,17.72,83.22,25.0,22.0,0,2,,0.93,29.970472,,,,,,,,,,BR,CLR,,,,,,,,LIFR,,,,,,,,,,,,METAR,4.0
VOTV 140400Z 00000KT 6000 FEW015 SCT080 30/24 Q1010 NOSIG,VOTV,2021-01-14T04:00:00Z,8.48,76.92,30.0,24.0,0,0,,3.73,29.822834,,,,,,TRUE,,,,,FEW,1500,SCT,8000,,,,,MVFR,,,,,,,,,,,,METAR,9.0
VOTR 140400Z 05008KT 2500 -DZ FEW010 SCT015 BKN080 24/22 Q1013 BECMG 3000 BR,VOTR,2021-01-14T04:00:00Z,10.77,78.72,24.0,22.0,50,8,,1.55,29.911417,,,,,,,,,,-DZ,FEW,1000,SCT,1500,BKN,8000,,,IFR,,,,,,,,,,,,SPECI,90.0
VOTP 140400Z 03006KT 1200 BR SCT020 SCT100 24/21 Q1013 BECMG 2000 BR,VOTP,2021-01-14T04:00:00Z,13.63,79.55,24.0,21.0,30,6,,0.75,29.911417,,,,,,,,,,BR,SCT,2000,SCT,10000,,,,,LIFR,,,,,,,,,,,,METAR,103.0
VOTK 140400Z 03005KT 4000 -DZ SCT016 OVC080 25/24 Q1012 NOSIG,VOTK,2021-01-14T04:00:00Z,8.72,78.02,25.0,24.0,30,5,,2.49,29.88189,,,,,,TRUE,,,,-DZ,SCT,1600,OVC,8000,,,,,IFR,,,,,,,,,,,,METAR,25.0
VOSM 140400Z 35007KT 5000 HZ FEW018 BKN080 25/20 Q1013 NOSIG,VOSM,2021-01-14T04:00:00Z,11.78,78.07,25.0,20.0,350,7,,3.11,29.911417,,,,,,TRUE,,,,HZ,FEW,1800,BKN,8000,,,,,MVFR,,,,,,,,,,,,METAR,301.0
VORY 140400Z 03006KT 1500 BR NSC 25/21 Q1015 BECMG 2000 BR,VORY,2021-01-14T04:00:00Z,17.1,81.82,25.0,21.0,30,6,,0.93,29.970472,,,,,,,,,,BR,CLR,,,,,,,,LIFR,,,,,,,,,,,,METAR,47.0
VOND 140400Z 14002KT 2700 HZ NSC 24/17 Q1017 BECMG 3000 HZ,VOND,2021-01-14T04:00:00Z,19.18,77.32,24.0,17.0,140,2,,1.68,30.029528,,,,,,,,,,HZ,CLR,,,,,,,,IFR,,,,,,,,,,,,METAR,86.0
VOMY 140400Z 06007KT 6000 FEW012 SCT080 23/18 Q1016,VOMY,2021-01-14T04:00:00Z,12.23,76.65,23.0,18.0,60,7,,3.73,30.0,,,,,,,,,,,FEW,1200,SCT,8000,,,,,MVFR,,,,,,,,,,,,METAR,727.0
VOMM 140400Z 04005KT 2500 BR SCT020 BKN100 27/24 Q1013 BECMG 3000 BR,VOMM,2021-01-14T04:00:00Z,13.0,80.17,27.0,24.0,40,5,,1.55,29.911417,,,,,,,,,,BR,SCT,2000,BKN,10000,,,,,IFR,,,,,,,,,,,,SPECI,7.0
VOMD 140400Z 36002KT 3500 BR SCT020 BKN090 25/23 Q1013 NOSIG,VOMD,2021-01-14T04:00:00Z,9.83,78.08,25.0,23.0,360,2,,2.17,29.911417,,,,,,TRUE,,,,BR,SCT,2000,BKN,9000,,,,,IFR,,,,,,,,,,,,METAR,135.0
VOKN 140400Z 006006KT 5000 HZ FEW018 27/20 Q1011 NOSIG,VOKN,2021-01-14T04:00:00Z,11.92,75.55,27.0,20.0,6,6,,3.11,29.852362,,,,,,TRUE,,,,HZ,FEW,1800,,,,,,,MVFR,,,,,,,,,,,,METAR,105.0
VOJV 140400Z 10004KT 4500 BR FEW015 SCT090 24/16 Q1016,VOJV,2021-01-14T04:00:00Z,15.17,76.63,24.0,16.0,100,4,,2.8,30.0,,,,,,,,,,BR,FEW,1500,SCT,9000,,,,,IFR,,,,,,,,,,,,METAR,508.0
VOHY 140400Z 10004KT 3000 BR NSC 25/17 Q1019 BECMG 5000 HZ,VOHY,2021-01-14T04:00:00Z,17.45,78.47,25.0,17.0,100,4,,1.86,30.088583,,,,,,,,,,BR,CLR,,,,,,,,IFR,,,,,,,,,,,,SPECI,540.0
VOHS 140400Z 11004KT 3000 BR NSC 25/24 Q1018 BECMG 5000,VOHS,2021-01-14T04:00:00Z,17.23,78.43,25.0,24.0,110,4,,1.86,30.059055,,,,,,,,,,BR,CLR,,,,,,,,IFR,,,,,,,,,,,,METAR,607.0
VOHB 140400Z 04008KT 5000 HZ NSC 22/14 Q1018,VOHB,2021-01-14T04:00:00Z,15.37,75.08,22.0,14.0,40,8,,3.11,30.059055,,,,,,,,,,HZ,CLR,,,,,,,,MVFR,,,,,,,,,,,,METAR,661.0
VOGO 140400Z 08010KT 6000 FEW020 BKN090 28/15 Q1012 NOSIG,VOGO,2021-01-14T04:00:00Z,15.38,73.83,28.0,15.0,80,10,,3.73,29.88189,,,,,,TRUE,,,,,FEW,2000,BKN,9000,,,,,MVFR,,,,,,,,,,,,METAR,56.0
VOGB 140400Z 00000KT 6000 NSC 22/15 Q1017,VOGB,2021-01-14T04:00:00Z,,,22.0,15.0,0,0,,3.73,30.029528,,,,,,,,,,,CLR,,,,,,,,MVFR,,,,,,,,,,,,METAR,
VOCP 140400Z 33003KT 2000 BR FEW020 25/22 Q1014 NOSIG,VOCP,2021-01-14T04:00:00Z,14.5,78.77,25.0,22.0,330,3,,1.24,29.940945,,,,,,TRUE,,,,BR,FEW,2000,,,,,,,IFR,,,,,,,,,,,,METAR,134.0
VOCL 140400Z VRB01KT 6000 FEW015 BKN080 25/23 Q1011 NOSIG,VOCL,2021-01-14T04:00:00Z,11.13,75.95,25.0,23.0,0,1,,3.73,29.852362,,,,,,TRUE,,,,,FEW,1500,BKN,8000,,,,,MVFR,,,,,,,,,,,,METAR,104.0
VOCI 140400Z 08003KT 6000 SCT015 SCT090 28/22 Q1010 NOSIG,VOCI,2021-01-14T04:00:00Z,10.15,76.4,28.0,22.0,80,3,,3.73,29.822834,,,,,,TRUE,,,,,SCT,1500,SCT,9000,,,,,MVFR,,,,,,,,,,,,METAR,8.0
VOCB 140400Z 02005KT 2500 BR SCT012 BKN080 24/21 Q1015 BECMG 3000 BR,VOCB,2021-01-14T04:00:00Z,11.02,77.03,24.0,21.0,20,5,,1.55,29.970472,,,,,,,,,,BR,SCT,1200,BKN,8000,,,,,IFR,,,,,,,,,,,,METAR,394.0
VOBZ 140400Z 00000KT 1000 FG VV/// 22/21 Q1014 NOSIG,VOBZ,2021-01-14T04:00:00Z,16.52,80.78,22.0,21.0,0,0,,0.62,29.940945,,,,,,TRUE,,,,FG,OVX,0,,,,,,,LIFR,,,,,,,,,,,,METAR,26.0
VOBM 140400Z 09008KT 6000 NSC 25/12 Q1017,VOBM,2021-01-14T04:00:00Z,15.85,74.62,25.0,12.0,90,8,,3.73,30.029528,,,,,,,,,,,CLR,,,,,,,,MVFR,,,,,,,,,,,,METAR,758.0
VOBL 140400Z 09007KT 6000 NSC 21/17 Q1018 NOSIG,VOBL,2021-01-14T04:00:00Z,13.2,77.7,21.0,17.0,90,7,,3.73,30.059055,,,,,,TRUE,,,,,CLR,,,,,,,,MVFR,,,,,,,,,,,,METAR,908.0
VOBG 140400Z 11003KT 2000 BR SCT008 SCT012 19/19 Q1017 BECMG 3000 BR,VOBG,2021-01-14T04:00:00Z,12.95,77.65,19.0,19.0,110,3,,1.24,30.029528,,,,,,,,,,BR,SCT,800,SCT,1200,,,,,IFR,,,,,,,,,,,,METAR,884.0
VMMC 140400Z 01004KT 340V040 9000 NSC 16/07 Q1018 NOSIG,VMMC,2021-01-14T04:00:00Z,22.15,113.58,16.0,7.0,10,4,,5.59,30.059055,,,,,,TRUE,,,,,CLR,,,,,,,,VFR,,,,,,,,,,,,METAR,1.0
VLVT 140400Z 27004KT 6000 NSC 24/11 Q1016 NOSIG,VLVT,2021-01-14T04:00:00Z,17.98,102.57,24.0,11.0,270,4,,3.73,30.0,,,,,,TRUE,,,,,CLR,,,,,,,,MVFR,,,,,,,,,,,,METAR,171.0
VLSK 140400Z 22002KT 7000 NSC 21/11 Q1017 NOSIG,VLSK,2021-01-14T04:00:00Z,16.55,104.75,21.0,11.0,220,2,,4.35,30.029528,,,,,,TRUE,,,,,CLR,,,,,,,,MVFR,,,,,,,,,,,,METAR,148.0
VLPS 140400Z 18004KT CAVOK 25/13 Q1015 NOSIG,VLPS,2021-01-14T04:00:00Z,15.13,105.78,25.0,13.0,180,4,,6.21,29.970472,,,,,,TRUE,,,,,CAVOK,,,,,,,,VFR,,,,,,,,,,,,METAR,102.0
VLLN 140400Z 14002KT 6000 FEW020 13/09 Q1019 NOSIG,VLLN,2021-01-14T04:00:00Z,20.97,101.4,13.0,9.0,140,2,,3.73,30.088583,,,,,,TRUE,,,,,FEW,2000,,,,,,,MVFR,,,,,,,,,,,,METAR,548.0
VLLB 140400Z 36002KT 9999 SCT010 SCT060 BKN080 16/10 Q1018 NOSIG,VLLB,2021-01-14T04:00:00Z,19.9,102.17,16.0,10.0,360,2,,6.21,30.059055,,,,,,TRUE,,,,,SCT,1000,SCT,6000,BKN,8000,,,VFR,,,,,,,,,,,,METAR,297.0
VILK 140400Z 00000KT 0300 R27/0600 FG VV/// 10/07 Q1019 BECMG 0800 FG,VILK,2021-01-14T04:00:00Z,26.75,80.88,10.0,7.0,0,0,,0.19,30.088583,,,,,,,,,,FG,OVX,0,,,,,,,LIFR,,,,,,,,,,,,SPECI,121.0
VIJP 140400Z 00000KT 2500 HZ SCT030 BKN100 14/04 Q1018 BECMG 3000 HZ,VIJP,2021-01-14T04:00:00Z,26.82,75.8,14.0,4.0,0,0,,1.55,30.059055,,,,,,,,,,HZ,SCT,3000,BKN,10000,,,,,IFR,,,,,,,,,,,,METAR,383.0
VIDP 140400Z 00000KT 0300 R28/1000 R29/1000 FG NSC 07/06 Q1018 BECMG 0350 FG,VIDP,2021-01-14T04:00:00Z,28.57,77.12,7.0,6.0,0,0,,0.19,30.059055,,,,,,,,,,FG,CLR,,,,,,,,LIFR,,,,,,,,,,,,SPECI,236.0
VIAR 140400Z VRB02KT 1200 R34/2000 BR VV/// 09/08 Q1019 NOSIG,VIAR,2021-01-14T04:00:00Z,31.7,74.8,9.0,8.0,0,2,,0.75,30.088583,,,,,,TRUE,,,,BR,OVX,0,,,,,,,LIFR,,,,,,,,,,,,SPECI,226.0
VHHH 140400Z 29008KT 260V320 9000 NSC 17/04 Q1018 NOSIG,VHHH,2021-01-14T04:00:00Z,22.32,113.92,17.0,4.0,290,8,,5.59,30.059055,,,,,,TRUE,,,,,CLR,,,,,,,,VFR,,,,,,,,,,,,METAR,9.0
VGEG 140400Z 33005KT 3200 HZ NSC 20/13 Q1016 NOSIG,VGEG,2021-01-14T04:00:00Z,22.23,91.82,20.0,13.0,330,5,,1.99,30.0,,,,,,TRUE,,,,HZ,CLR,,,,,,,,IFR,,,,,,,,,,,,METAR,7.0
VERC 140400Z 00000KT 2000 HZ NSC 15/06 Q1019 BECMG 3000 HZ,VERC,2021-01-14T04:00:00Z,23.32,85.32,15.0,6.0,0,0,,1.24,30.088583,,,,,,,,,,HZ,CLR,,,,,,,,IFR,,,,,,,,,,,,METAR,646.0
VEPY 140400Z 00000KT 0200 FG VV/// 11/08 Q1020 NOSIG,VEPY,2021-01-14T04:00:00Z,19.68,74.38,11.0,8.0,0,0,,0.12,30.11811,,,,,,TRUE,,,,FG,OVX,0,,,,,,,LIFR,,,,,,,,,,,,METAR,582.0
VEPT 140400Z 26003KT 0400 R25/0800 SCT018 BKN100 10/09 Q1018 NOSIG,VEPT,2021-01-14T04:00:00Z,25.6,85.08,10.0,9.0,260,3,,0.25,30.059055,,,,,,TRUE,,,,,SCT,1800,BKN,10000,,,,,LIFR,,,,,,,,,,,,METAR,53.0
VEMR 140400Z 26003KT 1600M BR FEW010 SCT018 BKN100 18/14 Q1019,VEMR,2021-01-14T04:00:00Z,25.88,93.77,18.0,14.0,260,3,,0.99,30.088583,,,,,,,,,,BR,FEW,1000,SCT,1800,BKN,10000,,,LIFR,,,,,,,,,,,,METAR,147.0
VEMN 140400Z 00000KT 1500 BR FEW010 SCT020 BKN100 16/16 Q1018 BECMG 3000 BR,VEMN,2021-01-14T04:00:00Z,27.47,95.02,16.0,16.0,0,0,,0.93,30.059055,,,,,,,,,,BR,FEW,1000,SCT,2000,BKN,10000,,,LIFR,,,,,,,,,,,,METAR,111.0
VELR 140400Z 17001KT 0800 FG 15/15 Q1018,VELR,2021-01-14T04:00:00Z,27.3,94.1,15.0,15.0,170,1,,0.5,30.059055,,,,,,,,,,FG,,,,,,,,,,,,,,,,,,,,,METAR,101.0
VEJS 140400Z 32002KT 0800 BR FEW020 BKN100 17/10 Q1017,VEJS,2021-01-14T04:00:00Z,22.82,86.17,17.0,10.0,320,2,,0.5,30.029528,,,,,,,,,,BR,FEW,2000,BKN,10000,,,,,LIFR,,,,,,,,,,,,METAR,151.0
VEJH 140400Z 05004KT 2500 HZ NSC 18/08 Q1018,VEJH,2021-01-14T04:00:00Z,21.92,84.03,18.0,8.0,50,4,,1.55,30.059055,,,,,,,,,,HZ,CLR,,,,,,,,IFR,,,,,,,,,,,,METAR,231.0
VEIM 140400Z 08001KT 3000 BR FEW008 11/04 Q1019 NOSIG,VEIM,2021-01-14T04:00:00Z,24.77,93.9,11.0,4.0,80,1,,1.86,30.088583,,,,,,TRUE,,,,BR,FEW,800,,,,,,,IFR,,,,,,,,,,,,METAR,777.0
VEGY 140400Z 00000KT 1200 BR NSC 14/10 Q1019,VEGY,2021-01-14T04:00:00Z,24.75,84.95,14.0,10.0,0,0,,0.75,30.088583,,,,,,,,,,BR,CLR,,,,,,,,LIFR,,,,,,,,,,,,METAR,115.0
VEGT 140400Z 00000KT 1100 R02/1400 MIFG SCT018 BKN100 15/12 Q1017 NOSIG,VEGT,2021-01-14T04:00:00Z,26.1,91.58,15.0,12.0,0,0,,0.68,30.029528,,,,,,TRUE,,,,MIFG,SCT,1800,BKN,10000,,,,,LIFR,,,,,,,,,,,,METAR,50.0
VEDG 140400Z 03002KT 2000 BR NSC 20/16 Q1019 NOSIG,VEDG,2021-01-14T04:00:00Z,23.62,87.25,20.0,16.0,30,2,,1.24,30.088583,,,,,,TRUE,,,,BR,CLR,,,,,,,,IFR,,,,,,,,,,,,METAR,88.0
VEBS 140400Z 03006KT 1500 BR FEW020 23/18 Q1016 BECMG 3000 HZ,VEBS,2021-01-14T04:00:00Z,20.25,85.82,23.0,18.0,30,6,,0.93,30.0,,,,,,,,,,BR,FEW,2000,,,,,,,LIFR,,,,,,,,,,,,METAR,42.0
VEBN 140400Z 00000KT 0200 FG VV/// 10/08 Q1018 BECMG 0350 FG,VEBN,2021-01-14T04:00:00Z,25.45,82.85,10.0,8.0,0,0,,0.12,30.059055,,,,,,,,,,FG,OVX,0,,,,,,,LIFR,,,,,,,,,,,,METAR,81.0
VEAT 140400Z 00000KT 1800 BR NSC 18/15 Q1017 NOSIG,VEAT,2021-01-14T04:00:00Z,23.88,91.25,18.0,15.0,0,0,,1.12,30.029528,,,,,,TRUE,,,,BR,CLR,,,,,,,,IFR,,,,,,,,,,,,METAR,20.0
VDSV 140400Z VRB02KT 9999 FEW015 28/17 Q1013,VDSV,2021-01-14T04:00:00Z,10.58,103.63,28.0,17.0,0,2,,6.21,29.911417,,,,,,,,,,,FEW,1500,,,,,,,VFR,,,,,,,,,,,,METAR,1.0
VDSR 140400Z VRB02KT 9999 SCT015 25/13 Q1014,VDSR,2021-01-14T04:00:00Z,13.42,103.8,25.0,13.0,0,2,,6.21,29.940945,,,,,,,,,,,SCT,1500,,,,,,,VFR,,,,,,,,,,,,METAR,16.0
VDPP 140400Z 05007KT 350V080 9999 FEW017 25/14 Q1014,VDPP,2021-01-14T04:00:00Z,11.55,104.83,25.0,14.0,50,7,,6.21,29.940945,,,,,,,,,,,FEW,1700,,,,,,,VFR,,,,,,,,,,,,METAR,10.0
VAUD 140400Z 10002KT 5000 HZ FEW100 14/06 Q1018 NOSIG,VAUD,2021-01-14T04:00:00Z,24.62,73.9,14.0,6.0,100,2,,3.11,30.059055,,,,,,TRUE,,,,HZ,FEW,10000,,,,,,,MVFR,,,,,,,,,,,,METAR,506.0
VASU 140400Z 00000KT 1800 HZ NSC 21/12 Q1013 NOSIG,VASU,2021-01-14T04:00:00Z,21.12,72.73,21.0,12.0,0,0,,1.12,29.911417,,,,,,TRUE,,,,HZ,CLR,,,,,,,,IFR,,,,,,,,,,,,METAR,6.0
VASD 140400Z VRB03KT 2000 HZ NSC 20/12 Q1017 NOSIG,VASD,2021-01-14T04:00:00Z,19.68,74.38,20.0,12.0,0,3,,1.24,30.029528,,,,,,TRUE,,,,HZ,CLR,,,,,,,,IFR,,,,,,,,,,,,METAR,587.0
VAPR 140400Z 34006KT 6000 SCT080 18/11 Q1015,VAPR,2021-01-14T04:00:00Z,21.63,69.67,18.0,11.0,340,6,,3.73,29.970472,,,,,,,,,,,SCT,8000,,,,,,,MVFR,,,,,,,,,,,,METAR,8.0
VANP 140400Z 05003KT 5000 HZ FEW100 20/05 Q1018 NOSIG,VANP,2021-01-14T04:00:00Z,21.08,79.05,20.0,5.0,50,3,,3.11,30.059055,,,,,,TRUE,,,,HZ,FEW,10000,,,,,,,MVFR,,,,,,,,,,,,METAR,309.0
VAKP 140400Z 07004KT 2500 HZ NSC 21/14 Q1016,VAKP,2021-01-14T04:00:00Z,16.65,74.28,21.0,14.0,70,4,,1.55,30.0,,,,,,,,,,HZ,CLR,,,,,,,,IFR,,,,,,,,,,,,METAR,612.0
VAJJ 140400Z 00000KT 3000 FU SCT100 28/15 Q1012 NOSIG,VAJJ,2021-01-14T04:00:00Z,19.08,72.83,28.0,15.0,0,0,,1.86,29.88189,,,,,,TRUE,,,,FU,SCT,10000,,,,,,,IFR,,,,,,,,,,,,METAR,1.0
VAJB 140400Z 06003KT 6000 NSC 13/05 Q1019,VAJB,2021-01-14T04:00:00Z,23.18,80.05,13.0,5.0,60,3,,3.73,30.088583,,,,,,,,,,,CLR,,,,,,,,MVFR,,,,,,,,,,,,METAR,489.0
VAID 140400Z 08006KT 4000 HZ NSC 16/02 Q1017 NOSIG,VAID,2021-01-14T04:00:00Z,22.72,75.8,16.0,2.0,80,6,,2.49,30.029528,,,,,,TRUE,,,,HZ,CLR,,,,,,,,IFR,,,,,,,,,,,,METAR,564.0
VABV 140400Z 00000KT 1600 BR NSC 17/11 Q1014,VABV,2021-01-14T04:00:00Z,21.75,72.2,17.0,11.0,0,0,,0.99,29.940945,,,,,,,,,,BR,CLR,,,,,,,,LIFR,,,,,,,,,,,,METAR,8.0
VABP 140400Z 11007KT 5000 HZ NSC 18/04 Q1018 NOSIG,VABP,2021-01-14T04:00:00Z,23.28,77.33,18.0,4.0,110,7,,3.11,30.059055,,,,,,TRUE,,,,HZ,CLR,,,,,,,,MVFR,,,,,,,,,,,,METAR,520.0
VABO 140400Z 06003KT 5000 HZ NSC 16/11 Q1014 NOSIG,VABO,2021-01-14T04:00:00Z,22.33,73.22,16.0,11.0,60,3,,3.11,29.940945,,,,,,TRUE,,,,HZ,CLR,,,,,,,,MVFR,,,,,,,,,,,,METAR,36.0
VABB 140400Z 11007KT 2200 FU SCT100 29/15 Q1012 NOSIG,VABB,2021-01-14T04:00:00Z,19.1,72.87,29.0,15.0,110,7,,1.37,29.88189,,,,,,TRUE,,,,FU,SCT,10000,,,,,,,IFR,,,,,,,,,,,,METAR,14.0
VAAU 140400Z 09002KT 2000 HZ FEW100 23/12 Q1017 NOSIG,VAAU,2021-01-14T04:00:00Z,19.85,75.4,23.0,12.0,90,2,,1.24,30.029528,,,,,,TRUE,,,,HZ,FEW,10000,,,,,,,IFR,,,,,,,,,,,,METAR,578.0
VAAH 140400Z 06007KT 4000 FU NSC 17/07 Q1015 NOSIG,VAAH,2021-01-14T04:00:00Z,23.07,72.63,17.0,7.0,60,7,,2.49,29.970472,,,,,,TRUE,,,,FU,CLR,,,,,,,,IFR,,,,,,,,,,,,METAR,52.0
UWWW 140400Z 12008MPS 8000 -SN SCT033 M14/M16 Q1021 R15/450245 NOSIG RMK QFE754/1006,UWWW,2021-01-14T04:00:00Z,53.5,50.17,-14.0,-16.0,120,16,,4.97,30.147638,,,,,,TRUE,,,,-SN,SCT,3300,,,,,,,MVFR,,,,,,,,,,,,METAR,124.0
UWUU 140400Z 00000MPS CAVOK M25/M28 Q1033 R14R/420554 NOSIG,UWUU,2021-01-14T04:00:00Z,54.57,55.87,-25.0,-28.0,0,0,,6.21,30.501968,,,,,,TRUE,,,,,CAVOK,,,,,,,,VFR,,,,,,,,,,,,METAR,137.0
UWSG 140400Z 11008MPS 2900 -SN DRSN BKN010 OVC020 M06/M08 Q1013 RESN R08/550745 TEMPO 1400 SN BLSN OVC006 RMK QFE757/1010,UWSG,2021-01-14T04:00:00Z,51.72,46.17,-6.0,-8.0,110,16,,1.8,29.911417,,,,,,,,,,-SN DRSN,BKN,1000,OVC,2000,,,,,IFR,,,,,,,,,,,,METAR,31.0
UWOR 140400Z 07004MPS CAVOK M25/M30 Q1034 R07/950137 NOSIG RMK QFE750/1001,UWOR,2021-01-14T04:00:00Z,51.07,58.6,-25.0,-30.0,70,8,,6.21,30.531496,,,,,,TRUE,,,,,CAVOK,,,,,,,,VFR,,,,,,,,,,,,SPECI,270.0
UWOO 140400Z 12008MPS 9999 DRSN NSC M18/M21 Q1031 R08/950342 NOSIG RMK QFE762/1016,UWOO,2021-01-14T04:00:00Z,51.8,55.47,-18.0,-21.0,120,16,,6.21,30.442913,,,,,,TRUE,,,,DRSN,CLR,,,,,,,,VFR,,,,,,,,,,,,METAR,90.0
UWLW 140400Z 12008MPS 0650 R02/1700D +SN BLSN VV003 M12/M14 Q1021 R02/490745 NOSIG RMK QFE758,UWLW,2021-01-14T04:00:00Z,54.4,48.8,-12.0,-14.0,120,16,,0.4,30.147638,,,,,,TRUE,,,,BLSN +SN,OVX,0,,,,,,,LIFR,,,,,,,,,,,300,METAR,67.0
UWKS 140400Z 09005MPS 0800 R06/P2000D +SN VV004 M22/M24 Q1020 R06/490739 TEMPO 0500 +SN VV003 RMK QFE750,UWKS,2021-01-14T04:00:00Z,56.08,47.35,-22.0,-24.0,90,10,,0.5,30.11811,,,,,,,,,,+SN,OVX,0,,,,,,,LIFR,,,,,,,,,,,400,METAR,165.0
UWKE 140400Z 12004MPS 9999 OVC030 M18/M20 Q1027 R03/491040 NOSIG RMK QFE753/1004,UWKE,2021-01-14T04:00:00Z,55.57,52.08,-18.0,-20.0,120,8,,6.21,30.324802,,,,,,TRUE,,,,,OVC,3000,,,,,,,MVFR,,,,,,,,,,,,METAR,193.0
UWKD 140400Z 10008MPS 2000 R11/P2000N SN BLSN OVC034 M16/M19 Q1023 R11/450350 TEMPO 1000 SN BLSN RMK QFE757/1009,UWKD,2021-01-14T04:00:00Z,55.62,49.28,-16.0,-19.0,100,16,,1.24,30.206694,,,,,,,,,,SN BLSN,OVC,3400,,,,,,,IFR,,,,,,,,,,,,METAR,114.0
UWGG 140400Z 08006G11MPS 1000 R36R/1800D SN OVC003 M18/M20 Q1014 R36R/490239 TEMPO 09008G15MPS,UWGG,2021-01-14T04:00:00Z,56.23,43.78,-18.0,-20.0,80,12,21,0.62,29.940945,,,,,,,,,,SN,OVC,300,,,,,,,LIFR,,,,,,,,,,,,METAR,73.0
UUYY 140400Z 02002MPS 3400 BR NSC M36/M39 Q1033 R18/CLRD61 TEMPO 1000 BR FU RMK QFE767/1022,UUYY,2021-01-14T04:00:00Z,61.65,50.83,-36.0,-39.0,20,4,,2.11,30.501968,,,,,,,,,,BR,CLR,,,,,,,,IFR,,,,,,,,,,,,METAR,107.0
UUWW 140400Z 07007MPS 3500 -SN BLSN OVC017 M13/M16 Q1005 R06/420542 NOSIG,UUWW,2021-01-14T04:00:00Z,55.6,37.27,-13.0,-16.0,70,14,,2.17,29.675198,,,,,,TRUE,,,,-SN BLSN,OVC,1700,,,,,,,IFR,,,,,,,,,,,,METAR,195.0
UUOO 140400Z 21006G11MPS 9999 OVC006 M00/M01 Q0999 R12/750136 NOSIG RMK QFE735,UUOO,2021-01-14T04:00:00Z,51.82,39.23,0.0,-1.0,210,12,21,6.21,29.498032,,,,,,TRUE,,,,,OVC,600,,,,,,,IFR,,,,,,,,,,,,METAR,154.0
UUOL 140400Z 12005MPS 8000 -SG OVC007 M02/M03 Q0998 R15/450340 NOSIG,UUOL,2021-01-14T04:00:00Z,52.7,39.53,-2.0,-3.0,120,10,,4.97,29.468504,,,,,,TRUE,,,,-SG,OVC,700,,,,,,,IFR,,,,,,,,,,,,METAR,176.0
UUOK 140400Z 26005MPS 9999 OVC006 M06/M07 Q0999 R30/4993// NOSIG RMK QFE731/0974,UUOK,2021-01-14T04:00:00Z,51.75,36.28,-6.0,-7.0,260,10,,6.21,29.498032,,,,,,TRUE,,,,,OVC,600,,,,,,,IFR,,,,,,,,,,,,METAR,203.0
UUOB 140400Z 24006MPS 9999 OVC009 M07/M09 Q1001 R11/890532 NOSIG,UUOB,2021-01-14T04:00:00Z,50.65,36.58,-7.0,-9.0,240,12,,6.21,29.557087,,,,,,TRUE,,,,,OVC,900,,,,,,,IFR,,,,,,,,,,,,METAR,218.0
UUMO 140400Z 08008MPS 2900 -SHSN BKN030CB M13/M16 Q1005 R07/410160 NOSIG RMK QFE739/0986,UUMO,2021-01-14T04:00:00Z,55.52,37.5,-13.0,-16.0,80,16,,1.8,29.675198,,,,,,TRUE,,,,-SHSN,BKN,3000,,,,,,,IFR,,,,,,,,,,,,METAR,167.0
UUEE 140400Z 06009MPS 1800 1300NE R06R/P2000U R06C/P2000D SN SCT049 M14/M17 Q1006 RESHSN R06R/490526 R06C/490526 TEMPO 1000 SN BLSN OVC005,UUEE,2021-01-14T04:00:00Z,55.97,37.42,-14.0,-17.0,60,17,,1.12,29.704725,,,,,,,,,,SN,SCT,4900,,,,,,,IFR,,,,,,,,,,,,METAR,186.0
UUDL 140400Z 03007MPS 1700 R05/P2000U SN BLSN OVC021 M19/M22 Q1015 R05/850339 NOSIG RMK QFE753,UUDL,2021-01-14T04:00:00Z,57.57,40.17,-19.0,-22.0,30,14,,1.06,29.970472,,,,,,TRUE,,,,BLSN SN,OVC,2100,,,,,,,IFR,,,,,,,,,,,,METAR,88.0
UUDD 140400Z 07006MPS 050V120 3100 -SN OVC030 M13/M16 Q1004 R14R/490337 TEMPO 1000 SHSN BLSN BKN012CB,UUDD,2021-01-14T04:00:00Z,55.4,37.9,-13.0,-16.0,70,12,,1.93,29.64567,,,,,,,,,,-SN,OVC,3000,,,,,,,IFR,,,,,,,,,,,,METAR,165.0
UUBW 140400Z 06006MPS 6000 -SN OVC027 M14/M16 Q1006 R30/450535 NOSIG,UUBW,2021-01-14T04:00:00Z,55.55,38.15,-14.0,-16.0,60,12,,3.73,29.704725,,,,,,TRUE,,,,-SN,OVC,2700,,,,,,,MVFR,,,,,,,,,,,,METAR,111.0
UUBP 140400Z 35003MPS 4000 -SN BKN008 OVC021 M10/M12 Q0999 R34/490340 NOSIG RMK QFE732/0976,UUBP,2021-01-14T04:00:00Z,53.22,34.18,-10.0,-12.0,350,6,,2.49,29.498032,,,,,,TRUE,,,,-SN,BKN,800,OVC,2100,,,,,IFR,,,,,,,,,,,,METAR,197.0
UUBC 140400Z 06005MPS 2700 -SN SCT013 OVC026 M12/M14 Q1001 R13/////// TEMPO 1500 SN OVC009 RMK QFE733/0977,UUBC,2021-01-14T04:00:00Z,54.55,36.37,-12.0,-14.0,60,10,,1.68,29.557087,,,,,,,,,,-SN,SCT,1300,OVC,2600,,,,,IFR,,,,,,,,,,,,METAR,198.0
UTTT 140400Z 16004KT 2100 BR NSC 02/00 Q1024 R08R/CLRD70 NOSIG,UTTT,2021-01-14T04:00:00Z,41.27,69.27,2.0,0.0,160,4,,1.3,30.236221,,,,,,TRUE,,,,BR,CLR,,,,,,,,IFR,,,,,,,,,,,,METAR,429.0
UTST 140400Z 03006KT CAVOK 04/M03 Q1020 R88/CLRD70 NOSIG,UTST,2021-01-14T04:00:00Z,37.28,67.32,4.0,-3.0,30,6,,6.21,30.11811,,,,,,TRUE,,,,,CAVOK,,,,,,,,VFR,,,,,,,,,,,,METAR,311.0
UTSS 140400Z 13006KT 9999 NSC 06/M04 Q1021 R09/CLRD70 NOSIG,UTSS,2021-01-14T04:00:00Z,39.7,66.98,6.0,-4.0,130,6,,6.21,30.147638,,,,,,TRUE,,,,,CLR,,,,,,,,VFR,,,,,,,,,,,,METAR,665.0
UTSK 140400Z 08004KT CAVOK 03/M01 Q1019 R16/CLRD70,UTSK,2021-01-14T04:00:00Z,38.8,65.77,3.0,-1.0,80,4,,6.21,30.088583,,,,,,,,,,,CAVOK,,,,,,,,VFR,,,,,,,,,,,,METAR,399.0
UTSB 140400Z 35006KT CAVOK M01/M04 Q1020 R01/CLRD70 NOSIG,UTSB,2021-01-14T04:00:00Z,39.77,64.48,-1.0,-4.0,350,6,,6.21,30.11811,,,,,,TRUE,,,,,CAVOK,,,,,,,,VFR,,,,,,,,,,,,METAR,225.0
UTNU 140400Z 07012KT CAVOK M05/M08 Q1020 R13/CLRD70 NOSIG,UTNU,2021-01-14T04:00:00Z,41.58,60.63,-5.0,-8.0,70,12,,6.21,30.11811,,,,,,TRUE,,,,,CAVOK,,,,,,,,VFR,,,,,,,,,,,,METAR,97.0
UTNN 140400Z 05012KT CAVOK M05/M09 Q1022 R33/CLRD60 NOSIG,UTNN,2021-01-14T04:00:00Z,42.48,59.63,-5.0,-9.0,50,12,,6.21,30.177166,,,,,,TRUE,,,,,CAVOK,,,,,,,,VFR,,,,,,,,,,,,METAR,76.0
UTFN 140400Z VRB02KT 7000 NSC 01/M05 Q1027 R28/CLRD70 NOSIG,UTFN,2021-01-14T04:00:00Z,40.98,71.57,1.0,-5.0,0,2,,4.35,30.324802,,,,,,TRUE,,,,,CLR,,,,,,,,MVFR,,,,,,,,,,,,METAR,477.0
UTFF 140400Z 15002KT 3900 BR NSC 01/M04 Q1026 R99/CLRD70,UTFF,2021-01-14T04:00:00Z,40.37,71.73,1.0,-4.0,150,2,,2.42,30.295275,,,,,,,,,,BR,CLR,,,,,,,,IFR,,,,,,,,,,,,METAR,612.0
UTDT 140400Z VRB01MPS 0900 FG NSC 01/01 Q1022 R35/CLRD70 RMK QFE726/0969,UTDT,2021-01-14T04:00:00Z,37.87,68.87,1.0,1.0,0,2,,0.56,30.177166,,,,,,,,,,FG,CLR,,,,,,,,LIFR,,,,,,,,,,,,METAR,443.0
UTDL 140400Z 07005MPS 3800 BR NSC 04/M05 Q1025 R08/CLRD70 NOSIG RMK QFE729/0973,UTDL,2021-01-14T04:00:00Z,40.22,69.7,4.0,-5.0,70,10,,2.36,30.265747,,,,,,TRUE,,,,BR,CLR,,,,,,,,IFR,,,,,,,,,,,,SPECI,436.0
UTDK 140400Z 03002MPS 7000 NSC 03/M03 Q1022 R01/09//70 RMK QFE709/0945,UTDK,2021-01-14T04:00:00Z,37.98,69.8,3.0,-3.0,30,4,,4.35,30.177166,,,,,,,,,,,CLR,,,,,,,,MVFR,,,,,,,,,,,,METAR,675.0
UTDD 140400Z 00000MPS 1300 1000N R09/P2000N FU NSC 05/M04 Q1022 R09/CLRD// NOSIG RMK QFE698/0931,UTDD,2021-01-14T04:00:00Z,38.53,68.82,5.0,-4.0,0,0,,0.81,30.177166,,,,,,TRUE,,,,FU,CLR,,,,,,,,LIFR,,,,,,,,,,,,METAR,785.0
UTAV 140400Z 09006KT 3900 BR NSC 01/M01 Q1019 R13/CLRD70 NOSIG,UTAV,2021-01-14T04:00:00Z,39.08,63.62,1.0,-1.0,90,6,,2.42,30.088583,,,,,,TRUE,,,,BR,CLR,,,,,,,,IFR,,,,,,,,,,,,METAR,187.0
UTAT 140400Z 10016KT CAVOK M04/M07 Q1020 R08/CLRD70 NOSIG,UTAT,2021-01-14T04:00:00Z,41.77,59.83,-4.0,-7.0,100,16,,6.21,30.11811,,,,,,TRUE,,,,,CAVOK,,,,,,,,VFR,,,,,,,,,,,,METAR,84.0
UTAM 140400Z 14008KT CAVOK 03/M01 Q1018 R88/CLRD70 NOSIG,UTAM,2021-01-14T04:00:00Z,37.62,61.9,3.0,-1.0,140,8,,6.21,30.059055,,,,,,TRUE,,,,,CAVOK,,,,,,,,VFR,,,,,,,,,,,,METAR,218.0
UTAK 140400Z 10012KT CAVOK 12/M05 Q1008 R16R/CLRD70 NOSIG,UTAK,2021-01-14T04:00:00Z,40.05,53.0,12.0,-5.0,100,12,,6.21,29.763779,,,,,,TRUE,,,,,CAVOK,,,,,,,,VFR,,,,,,,,,,,,METAR,83.0
UTAA 140400Z 13004KT 0100 0050NW R12L/0100N R12R/0150N FZFG VV001 M02/M02 Q1012 R88/190065 NOSIG,UTAA,2021-01-14T04:00:00Z,37.98,58.37,-2.0,-2.0,130,4,,0.06,29.88189,,,,,,TRUE,,,,FZFG,OVX,0,,,,,,,LIFR,,,,,,,,,,,100,METAR,207.0
USTR 140400Z 19003MPS CAVOK M29/M32 Q1040 R30/450160 R21/450160 TEMPO 1000 HZ SCT004,USTR,2021-01-14T04:00:00Z,57.18,65.32,-29.0,-32.0,190,6,,6.21,30.708662,,,,,,,,,,,CAVOK,,,,,,,,VFR,,,,,,,,,,,,METAR,93.0
USSS 140400Z 10002MPS 8000 NSC M32/M35 Q1036 R26R/410350 NOSIG RMK QFE756/1008,USSS,2021-01-14T04:00:00Z,56.75,60.78,-32.0,-35.0,100,4,,4.97,30.590551,,,,,,TRUE,,,,,CLR,,,,,,,,MVFR,,,,,,,,,,,,METAR,222.0
USRR 140400Z 26006MPS CAVOK M22/M25 Q1031 R25/39//37 NOSIG RMK QFE768,USRR,2021-01-14T04:00:00Z,61.33,73.42,-22.0,-25.0,260,12,,6.21,30.442913,,,,,,TRUE,,,,,CAVOK,,,,,,,,VFR,,,,,,,,,,,,METAR,52.0
USPP 140400Z 12005MPS 9999 FEW003 BKN026 M32/M36 Q1034 R21/450150 NOSIG RMK QBB110 QFE765,USPP,2021-01-14T04:00:00Z,57.92,56.02,-32.0,-36.0,120,10,,6.21,30.531496,,,,,,TRUE,,,,,FEW,300,BKN,2600,,,,,MVFR,,,,,,,,,,,,METAR,120.0
USNN 140400Z 27006MPS 9999 BKN042 M18/M21 Q1029 R21/39//35 NOSIG RMK QFE766,USNN,2021-01-14T04:00:00Z,60.95,76.48,-18.0,-21.0,270,12,,6.21,30.383858,,,,,,TRUE,,,,,BKN,4200,,,,,,,VFR,,,,,,,,,,,,METAR,52.0
USHH 140400Z 25003MPS CAVOK M25/M27 Q1035 R24/390033 NOSIG,USHH,2021-01-14T04:00:00Z,61.03,69.08,-25.0,-27.0,250,6,,6.21,30.561024,,,,,,TRUE,,,,,CAVOK,,,,,,,,VFR,,,,,,,,,,,,METAR,46.0
USCM 140400Z 00000MPS 5000 BR SCT040 M31/M34 Q1035 R36/850342 TEMPO 1000 BR VV005 RMK QFE737,USCM,2021-01-14T04:00:00Z,53.4,58.75,-31.0,-34.0,0,0,,3.11,30.561024,,,,,,,,,,BR,SCT,4000,,,,,,,MVFR,,,,,,,,,,,,METAR,425.0
USCC 140400Z 10001MPS 5000 FU FEW002 M33/M36 Q1037 R09/450245 NOSIG RMK QBB070 QFE757,USCC,2021-01-14T04:00:00Z,55.3,61.5,-33.0,-36.0,100,2,,3.11,30.620079,,,,,,TRUE,,,,FU,FEW,200,,,,,,,MVFR,,,,,,,,,,,,METAR,227.0
URWW 140400Z 12003MPS 3500 -FZRA BR OVC002 M01/M02 Q1005 R06/650240 TEMPO 0200 FZFG RMK OBST OBSC,URWW,2021-01-14T04:00:00Z,48.78,44.33,-1.0,-2.0,120,6,,2.17,29.675198,,,,,,,,,,-FZRA BR,OVC,200,,,,,,,LIFR,,,,,,,,,,,,METAR,131.0
URWI 140400Z AUTO 08001MPS 0100 // 00/M00 Q1003 RMK QBB050,URWI,2021-01-14T04:00:00Z,46.37,44.33,0.0,0.0,80,2,,0.06,29.616142,,,TRUE,,,,,,,,,,,,,,,,,,,,,,,,,,,,METAR,145.0
URWA 140400Z 09005MPS 9999 -FZDZ OVC014 M01/M03 Q1005 R09/390050 NOSIG RMK QFE755/1007,URWA,2021-01-14T04:00:00Z,46.28,47.98,-1.0,-3.0,90,10,,6.21,29.675198,,,,,,TRUE,,,,-FZDZ,OVC,1400,,,,,,,MVFR,,,,,,,,,,,,METAR,-19.0
URSS 140400Z 34003MPS 7000 -SHRA SCT013 OVC036CB 07/05 Q1006 WS ALL RWY R02/250360 R06/250357 NOSIG RMK MT OBSC QFE753 R06/35002MPS MT OBSC QFE753,URSS,2021-01-14T04:00:00Z,43.45,39.92,7.0,5.0,340,6,,4.35,29.704725,,,,,,TRUE,,,,-SHRA,SCT,1300,OVC,3600,,,,,MVFR,,,,,,,,,,,,METAR,4.0
URRP 140400Z 28005MPS 9999 BKN010 M00/M02 Q1004 R23/190060 TEMPO 3000 -FZRA SCT002 OVC020 RMK QFE746/0994,URRP,2021-01-14T04:00:00Z,47.5,39.92,0.0,-2.0,280,10,,6.21,29.64567,,,,,,,,,,,BKN,1000,,,,,,,MVFR,,,,,,,,,,,,METAR,73.0
URMT 140400Z 29005MPS 1200 R07/2000N BR OVC003 02/02 Q1004 R07/290055 NOSIG RMK QBB090 OBST OBSC QFE713,URMT,2021-01-14T04:00:00Z,45.12,42.12,2.0,2.0,290,10,,0.75,29.64567,,,,,,TRUE,,,,BR,OVC,300,,,,,,,LIFR,,,,,,,,,,,,METAR,448.0
URMO 140400Z 24004MPS 9999 OVC009 05/05 Q1003 R09/010070 NOSIG RMK QFE709/0946,URMO,2021-01-14T04:00:00Z,43.2,44.6,5.0,5.0,240,8,,6.21,29.616142,,,,,,TRUE,,,,,OVC,900,,,,,,,IFR,,,,,,,,,,,,METAR,505.0
URMN 140400Z 17001MPS 9999 OVC020 05/04 Q1003 R24/////// NOSIG RMK QFE716,URMN,2021-01-14T04:00:00Z,43.52,43.63,5.0,4.0,170,2,,6.21,29.616142,,,,,,TRUE,,,,,OVC,2000,,,,,,,MVFR,,,,,,,,,,,,METAR,424.0
URMM 140400Z 30004MPS 4600 BR OVC006 02/01 Q1004 R30/190060 TEMPO BKN002 RMK MT OBSC QFE725/0967,URMM,2021-01-14T04:00:00Z,44.22,43.07,2.0,1.0,300,8,,2.86,29.64567,,,,,,,,,,BR,OVC,600,,,,,,,IFR,,,,,,,,,,,,METAR,318.0
URML 140400Z 34008MPS 9999 NSC 04/02 Q0999 R32/01//70 NOSIG RMK QFE749/0998,URML,2021-01-14T04:00:00Z,42.82,47.65,4.0,2.0,340,16,,6.21,29.498032,,,,,,TRUE,,,,,CLR,,,,,,,,VFR,,,,,,,,,,,,METAR,4.0
URMG 140400Z 21004MPS 170V240 9000 BKN016 02/02 Q1003 R26/190060 NOSIG RMK QFE738/0984,URMG,2021-01-14T04:00:00Z,43.38,45.7,2.0,2.0,210,8,,5.59,29.616142,,,,,,TRUE,,,,,BKN,1600,,,,,,,MVFR,,,,,,,,,,,,METAR,160.0
URKK 140400Z 30003MPS 9999 BKN006 OVC024 01/M00 Q1007 R23L/290356 TEMPO 1000 -FZRA BR BKN002 BKN016 RMK QFE752,URKK,2021-01-14T04:00:00Z,45.03,39.15,1.0,0.0,300,6,,6.21,29.734253,,,,,,,,,,,BKN,600,OVC,2400,,,,,IFR,,,,,,,,,,,,METAR,29.0
URKA 140400Z AUTO 01002MPS 340V040 9999 // 00/M03 Q1008 RMK QFE752/1003,URKA,2021-01-14T04:00:00Z,45.0,37.35,0.0,-3.0,10,4,,6.21,29.763779,,,TRUE,,,,,,,,,,,,,,,,,,,,,,,,,,,,METAR,41.0
URFF 140400Z 08002MPS 9999 OVC021 01/M01 Q1006 R19/290195 NOSIG,URFF,2021-01-14T04:00:00Z,45.03,33.98,1.0,-1.0,80,4,,6.21,29.704725,,,,,,TRUE,,,,,OVC,2100,,,,,,,MVFR,,,,,,,,,,,,METAR,190.0
UOOO 140400Z 36010MPS 1600 R01/1800U DRSN HZ NSC M38/M41 Q1009 R01/39//50 NOSIG RMK QFE742/0990,UOOO,2021-01-14T04:00:00Z,69.32,87.33,-38.0,-41.0,360,19,,0.99,29.793306,,,,,,TRUE,,,,DRSN HZ,CLR,,,,,,,,LIFR,,,,,,,,,,,,METAR,177.0
UNTT 140400Z 22007MPS CAVOK M21/M24 Q1032 R21/490145 NOSIG RMK QFE758,UNTT,2021-01-14T04:00:00Z,56.38,85.22,-21.0,-24.0,220,14,,6.21,30.47244,,,,,,TRUE,,,,,CAVOK,,,,,,,,VFR,,,,,,,,,,,,METAR,179.0
UNOO 140400Z 25002MPS 9999 BKN033 M18/M21 Q1042 R25/410350 NOSIG RMK QFE773,UNOO,2021-01-14T04:00:00Z,54.97,73.32,-18.0,-21.0,250,4,,6.21,30.767717,,,,,,TRUE,,,,,BKN,3300,,,,,,,VFR,,,,,,,,,,,,SPECI,85.0
UNNT 140400Z 17004MPS 9999 BKN050CB M24/M27 Q1037 R25/490145 R16/490333 NOSIG RMK QFE768/1024,UNNT,2021-01-14T04:00:00Z,55.02,82.65,-24.0,-27.0,170,8,,6.21,30.620079,,,,,,TRUE,,,,,BKN,5000,,,,,,,VFR,,,,,,,,,,,,METAR,106.0
UNKL 140400Z 26008G13MPS 2400 -SN BLSN SCT032 M17/M21 Q1025 WS R29 R29/810255 NOSIG RMK QFE743,UNKL,2021-01-14T04:00:00Z,56.17,92.48,-17.0,-21.0,260,16,25,1.49,30.265747,,,,,,TRUE,,,,-SN BLSN,SCT,3200,,,,,,,IFR,,,,,,,,,,,,SPECI,278.0
UNEE 140400Z 16004MPS 4400 -SN OVC027 M22/M25 Q1034 R23/850543 NOSIG RMK QFE752,UNEE,2021-01-14T04:00:00Z,55.27,86.1,-22.0,-25.0,160,8,,2.73,30.531496,,,,,,TRUE,,,,-SN,OVC,2700,,,,,,,IFR,,,,,,,,,,,,SPECI,261.0
UNBB 140400Z 22004MPS 9999 -SN BKN040 M25/M29 Q1038 R24/390137 NOSIG RMK QFE756,UNBB,2021-01-14T04:00:00Z,53.37,83.53,-25.0,-29.0,220,8,,6.21,30.649607,,,,,,TRUE,,,,-SN,BKN,4000,,,,,,,VFR,,,,,,,,,,,,SPECI,249.0
UNAA 140400Z 20004MPS CAVOK M18/M23 Q1034 R20/490142 NOSIG RMK QFE753,UNAA,2021-01-14T04:00:00Z,53.75,91.4,-18.0,-23.0,200,8,,6.21,30.531496,,,,,,TRUE,,,,,CAVOK,,,,,,,,VFR,,,,,,,,,,,,METAR,249.0
UMOO 140400Z 04003MPS 7000 -SN OVC003 M09/M11 Q1003 NOSIG RMK QBB100,UMOO,2021-01-14T04:00:00Z,53.95,30.1,-9.0,-11.0,40,6,,4.35,29.616142,,,,,,TRUE,,,,-SN,OVC,300,,,,,,,LIFR,,,,,,,,,,,,SPECI,188.0
UMMS 140400Z 02003MPS 9999 -SN BKN037 M08/M09 Q1003 R31R/490921 R31L/////// NOSIG,UMMS,2021-01-14T04:00:00Z,53.88,28.03,-8.0,-9.0,20,6,,6.21,29.616142,,,,,,TRUE,,,,-SN,BKN,3700,,,,,,,VFR,,,,,,,,,,,,METAR,196.0
UMMG 140400Z 05003MPS 3600 -SHSN BR BKN030CB OVC066 M04/M05 Q1004 NOSIG,UMMG,2021-01-14T04:00:00Z,53.6,24.05,-4.0,-5.0,50,6,,2.24,29.64567,,,,,,TRUE,,,,-SHSN BR,BKN,3000,OVC,6600,,,,,IFR,,,,,,,,,,,,METAR,125.0
UMKK 140400Z 06005MPS 4500 -SN BR BKN006 OVC015 M01/M01 Q1006 R24/290095 NOSIG RMK QBB180 OBST OBSC QFE754/1005,UMKK,2021-01-14T04:00:00Z,54.88,20.57,-1.0,-1.0,60,10,,2.8,29.704725,,,,,,TRUE,,,,-SN BR,BKN,600,OVC,1500,,,,,IFR,,,,,,,,,,,,METAR,6.0
UMGG 140400Z 29003MPS 8000 -SHSN BKN020CB M08/M10 Q1002 R10/492025 NOSIG,UMGG,2021-01-14T04:00:00Z,52.53,31.02,-8.0,-10.0,290,6,,4.97,29.586615,,,,,,TRUE,,,,-SHSN,BKN,2000,,,,,,,MVFR,,,,,,,,,,,,METAR,135.0
UMBB 140400Z 30004MPS 1400 R29///// SHSN BR OVC007CB M02/M03 Q1002 NOSIG,UMBB,2021-01-14T04:00:00Z,52.12,23.9,-2.0,-3.0,300,8,,0.87,29.586615,,,,,,TRUE,,,,SHSN BR,OVC,700,,,,,,,LIFR,,,,,,,,,,,,METAR,138.0
ULWC 140400Z 04003MPS 9999 SCT040 M24/M27 Q1020 R21/720245 NOSIG RMK QFE755/1007,ULWC,2021-01-14T04:00:00Z,59.28,38.02,-24.0,-27.0,40,6,,6.21,30.11811,,,,,,TRUE,,,,,SCT,4000,,,,,,,VFR,,,,,,,,,,,,METAR,113.0
ULPB 140400Z AUTO 03003MPS 360V060 9999 // M26/M29 Q1025 RMK QBB330 QFE765/1020,ULPB,2021-01-14T04:00:00Z,61.88,34.15,-26.0,-29.0,30,6,,6.21,30.265747,,,TRUE,,,,,,,,,,,,,,,,,,,,,,,,,,,,METAR,41.0
ULOO 140400Z 04004MPS 010V070 CAVOK M12/M14 Q1013 R01/420242 NOSIG RMK QFE756,ULOO,2021-01-14T04:00:00Z,57.78,28.4,-12.0,-14.0,40,8,,6.21,29.911417,,,,,,TRUE,,,,,CAVOK,,,,,,,,VFR,,,,,,,,,,,,METAR,46.0
ULMM 140400Z 22001MPS CAVOK M22/M24 Q1024 R31/350055 NOSIG RMK QFE761,ULMM,2021-01-14T04:00:00Z,68.78,32.75,-22.0,-24.0,220,2,,6.21,30.236221,,,,,,TRUE,,,,,CAVOK,,,,,,,,VFR,,,,,,,,,,,,METAR,79.0
ULLI 140400Z 06003MPS 9999 -SN FEW010 M14/M16 Q1018 R10R/450545 NOSIG,ULLI,2021-01-14T04:00:00Z,59.8,30.27,-14.0,-16.0,60,6,,6.21,30.059055,,,,,,TRUE,,,,-SN,FEW,1000,,,,,,,VFR,,,,,,,,,,,,METAR,25.0
ULAA 140400Z 09001MPS CAVOK M34/M37 Q1032 R08/820554 NOSIG RMK QFE773/1031,ULAA,2021-01-14T04:00:00Z,64.6,40.72,-34.0,-37.0,90,2,,6.21,30.47244,,,,,,TRUE,,,,,CAVOK,,,,,,,,VFR,,,,,,,,,,,,METAR,10.0
UKWW 140400Z 28006MPS 9999 BKN018CB M02/M04 Q1001 NOSIG,UKWW,2021-01-14T04:00:00Z,49.25,28.6,-2.0,-4.0,280,12,,6.21,29.557087,,,,,,TRUE,,,,,BKN,1800,,,,,,,MVFR,,,,,,,,,,,,METAR,293.0
UKON 140400Z 26003MPS 4300 BR BKN003 M03/M04 Q1005 NOSIG,UKON,2021-01-14T04:00:00Z,47.05,31.92,-3.0,-4.0,260,6,,2.67,29.675198,,,,,,TRUE,,,,BR,BKN,300,,,,,,,LIFR,,,,,,,,,,,,METAR,48.0
UKOH 140400Z 00000MPS 6000 BKN015 M05/M06 Q1006 NOSIG,UKOH,2021-01-14T04:00:00Z,46.67,32.5,-5.0,-6.0,0,0,,3.73,29.704725,,,,,,TRUE,,,,,BKN,1500,,,,,,,MVFR,,,,,,,,,,,,METAR,43.0
UKLR 140400Z 26006MPS 2700 -SN OVC003 M03/M04 Q1001 NOSIG,UKLR,2021-01-14T04:00:00Z,50.6,26.13,-3.0,-4.0,260,12,,1.68,29.557087,,,,,,TRUE,,,,-SN,OVC,300,,,,,,,LIFR,,,,,,,,,,,,METAR,227.0
UKLL 140400Z 17001MPS 7000 -SHSN SCT017CB BKN017 M03/M04 Q1002 R31/820538 NOSIG,UKLL,2021-01-14T04:00:00Z,49.82,23.95,-3.0,-4.0,170,2,,4.35,29.586615,,,,,,TRUE,,,,-SHSN,SCT,1700,BKN,1700,,,,,MVFR,,,,,,,,,,,,SPECI,316.0
UKKM 140400Z AUTO 00000MPS 9999 // ///024/// M03/M04 Q1001,UKKM,2021-01-14T04:00:00Z,50.6,30.2,-3.0,-4.0,0,0,,6.21,29.557087,,,TRUE,,,,,,,,,,,,,,,,,,,,,,,,,,,,SPECI,156.0
UKKK 140400Z 00000MPS 8000 SCT008 OVC021 M03/M04 Q1001 R26/190055 TEMPO OVC006,UKKK,2021-01-14T04:00:00Z,50.4,30.45,-3.0,-4.0,0,0,,4.97,29.557087,,,,,,,,,,,SCT,800,OVC,2100,,,,,MVFR,,,,,,,,,,,,METAR,175.0
UKHH 140400Z 28005MPS 9999 OVC015 M06/M09 Q1003 R25/82//81 NOSIG,UKHH,2021-01-14T04:00:00Z,49.92,36.28,-6.0,-9.0,280,10,,6.21,29.616142,,,,,,TRUE,,,,,OVC,1500,,,,,,,MVFR,,,,,,,,,,,,SPECI,149.0
UKDR 140400Z 22004MPS 5000 BR OVC035 M04/M06 Q1004 R36/4570// TEMPO 1000 BR OVC003,UKDR,2021-01-14T04:00:00Z,48.05,33.22,-4.0,-6.0,220,8,,3.11,29.64567,,,,,,,,,,BR,OVC,3500,,,,,,,MVFR,,,,,,,,,,,,SPECI,119.0
UKDE 140400Z 20002MPS 9000 BKN018 M03/M04 Q1005 R02/720360 NOSIG,UKDE,2021-01-14T04:00:00Z,47.87,35.32,-3.0,-4.0,200,4,,5.59,29.675198,,,,,,TRUE,,,,,BKN,1800,,,,,,,MVFR,,,,,,,,,,,,SPECI,106.0
UKDD 140400Z VRB01MPS 9999 OVC007 M04/M06 Q1004 R26/810570 NOSIG,UKDD,2021-01-14T04:00:00Z,48.37,35.1,-4.0,-6.0,0,2,,6.21,29.64567,,,,,,TRUE,,,,,OVC,700,,,,,,,IFR,,,,,,,,,,,,SPECI,147.0
UKBB 140400Z 00000MPS 9999 OVC028 M03/M05 Q1002 R36R/190055 NOSIG,UKBB,2021-01-14T04:00:00Z,50.33,30.9,-3.0,-5.0,0,0,,6.21,29.586615,,,,,,TRUE,,,,,OVC,2800,,,,,,,MVFR,,,,,,,,,,,,SPECI,125.0
UIUU 140400Z VRB01MPS 3900 -SN SCT033 M25/M29 Q1021 R26/490250 NOSIG RMK QFE722/0963,UIUU,2021-01-14T04:00:00Z,51.8,107.45,-25.0,-29.0,0,2,,2.42,30.147638,,,,,,TRUE,,,,-SN,SCT,3300,,,,,,,IFR,,,,,,,,,,,,METAR,508.0
UIII 140400Z 06002MPS 4700 BR NSC M28/M31 Q1025 R30/810555 NOSIG RMK QFE723/0965,UIII,2021-01-14T04:00:00Z,52.27,104.37,-28.0,-31.0,60,4,,2.92,30.265747,,,,,,TRUE,,,,BR,CLR,,,,,,,,IFR,,,,,,,,,,,,METAR,480.0
UIBB 140400Z 24007MPS 9999 SCT040 M24/M26 Q1018 R30/450340 NOSIG RMK QFE720/0961,UIBB,2021-01-14T04:00:00Z,56.37,101.7,-24.0,-26.0,240,14,,6.21,30.059055,,,,,,TRUE,,,,,SCT,4000,,,,,,,VFR,,,,,,,,,,,,METAR,485.0
UIAA 140400Z 00000MPS 9999 NSC M26/M31 Q1015 R29/450250 NOSIG RMK QFE702/0937,UIAA,2021-01-14T04:00:00Z,52.02,113.32,-26.0,-31.0,0,0,,6.21,29.970472,,,,,,TRUE,,,,,CLR,,,,,,,,VFR,,,,,,,,,,,,METAR,650.0
UHWW 140400Z 33004G10MPS 9999 NSC M08/M18 Q1023 R25L/420155 NOSIG RMK QFE766,UHWW,2021-01-14T04:00:00Z,43.4,132.15,-8.0,-18.0,330,8,19,6.21,30.206694,,,,,,TRUE,,,,,CLR,,,,,,,,VFR,,,,,,,,,,,,METAR,11.0
UHSS 140400Z 36006MPS 9999 NSC M06/M11 Q1002 R01/810260 NOSIG RMK QFE750/1001,UHSS,2021-01-14T04:00:00Z,46.88,142.72,-6.0,-11.0,360,12,,6.21,29.586615,,,,,,TRUE,,,,,CLR,,,,,,,,VFR,,,,,,,,,,,,METAR,14.0
UHPP 140400Z 34003MPS 9999 NSC M12/M21 Q1010 R34L/CLRD70 NOSIG RMK QFE754/1005,UHPP,2021-01-14T04:00:00Z,53.17,158.45,-12.0,-21.0,340,6,,6.21,29.822834,,,,,,TRUE,,,,,CLR,,,,,,,,VFR,,,,,,,,,,,,METAR,33.0
UHMM 140400Z 08002MPS 9999 NSC M25/M29 Q1009 R10/82//45 NOSIG RMK QFE742 R28/00000MPS,UHMM,2021-01-14T04:00:00Z,59.92,150.72,-25.0,-29.0,80,4,,6.21,29.793306,,,,,,TRUE,,,,,CLR,,,,,,,,VFR,,,,,,,,,,,,METAR,175.0
UHMD 140400Z 36003MPS P1000 -SN BKN030 M16/M20 Q1000 RMK QFE750/1000,UHMD,2021-01-14T04:00:00Z,64.38,-173.23,-16.0,-20.0,360,6,,0.62,29.52756,,,,,,,,,,-SN,BKN,3000,,,,,,,LIFR,,,,,,,,,,,,METAR,40.0
UHMA 140400Z 35005MPS 4100 -SN BR SCT038 BKN049 M21/M24 Q1005 R01/450540 NOSIG RMK TDZ R01/35005G06MPS END R01/35003G04MPS QFE750/1000,UHMA,2021-01-14T04:00:00Z,64.73,177.73,-21.0,-24.0,350,10,,2.55,29.675198,,,,,,TRUE,,,,-SN BR,SCT,3800,BKN,4900,,,,,IFR,,,,,,,,,,,,METAR,53.0
UHHH 140400Z VRB01MPS 9999 SCT028 M16/M20 Q1016 R23L/450150 NOSIG RMK QFE756/1008,UHHH,2021-01-14T04:00:00Z,48.52,135.18,-16.0,-20.0,0,2,,6.21,30.0,,,,,,TRUE,,,,,SCT,2800,,,,,,,VFR,,,,,,,,,,,,METAR,74.0
UHBB 140400Z 07001MPS CAVOK M21/M27 Q1020 R36/490350 NOSIG RMK QFE747/0996,UHBB,2021-01-14T04:00:00Z,50.43,127.42,-21.0,-27.0,70,2,,6.21,30.11811,,,,,,TRUE,,,,,CAVOK,,,,,,,,VFR,,,,,,,,,,,,METAR,185.0
UGTB 140400Z 01003KT 290V030 0900 0800NW R31/1000U FG NSC 04/03 Q1007 TEMPO 0300 FG,UGTB,2021-01-14T04:00:00Z,41.67,44.95,4.0,3.0,10,3,,0.56,29.734253,,,,,,,,,,FG,CLR,,,,,,,,LIFR,,,,,,,,,,,,METAR,468.0
UGSB 140400Z VRB02KT 6000 -SHRA SCT013 BKN025CB 11/10 Q1006 R13/////// NOSIG,UGSB,2021-01-14T04:00:00Z,41.62,41.6,11.0,10.0,0,2,,3.73,29.704725,,,,,,TRUE,,,,-SHRA,SCT,1300,BKN,2500,,,,,MVFR,,,,,,,,,,,,METAR,32.0
UGKO 140400Z 10004KT 9999 SCT040 OVC080 11/10 Q1005 NOSIG,UGKO,2021-01-14T04:00:00Z,42.18,42.48,11.0,10.0,100,4,,6.21,29.675198,,,,,,TRUE,,,,,SCT,4000,OVC,8000,,,,,VFR,,,,,,,,,,,,METAR,44.0
UERR 140400Z 21004MPS CAVOK M32/M35 Q1002 R25/390234 NOSIG RMK QFE721/0961,UERR,2021-01-14T04:00:00Z,62.53,114.05,-32.0,-35.0,210,8,,6.21,29.586615,,,,,,TRUE,,,,,CAVOK,,,,,,,,VFR,,,,,,,,,,,,SPECI,352.0
UERP 140400Z 12003MPS CAVOK M41/M45 Q0998 R35/490537 NOSIG RMK QFE704,UERP,2021-01-14T04:00:00Z,66.4,112.03,-41.0,-45.0,120,6,,6.21,29.468504,,,,,,TRUE,,,,,CAVOK,,,,,,,,VFR,,,,,,,,,,,,SPECI,514.0
UEEE 140400Z 00000MPS 0500 0450NE R23L/0550N FG VV005 M49/M55 Q1024 R23L/450150 NOSIG RMK QBB150 QFE759,UEEE,2021-01-14T04:00:00Z,62.08,129.77,-49.0,-55.0,0,0,,0.31,30.236221,,,,,,TRUE,,,,FG,OVX,0,,,,,,,LIFR,,,,,,,,,,,500,METAR,106.0
UDYZ 140400Z 00000KT 0750 0650W R09/1000D FZFG NSC M06/M07 Q1010 R09/010070 NOSIG,UDYZ,2021-01-14T04:00:00Z,40.15,44.4,-6.0,-7.0,0,0,,0.47,29.822834,,,,,,TRUE,,,,FZFG,CLR,,,,,,,,LIFR,,,,,,,,,,,,SPECI,851.0
UDSG 140400Z 00000KT 4200 BR BKN036 M03/M05 Q1008 R02/CLRD70 NOSIG,UDSG,2021-01-14T04:00:00Z,40.75,43.87,-3.0,-5.0,0,0,,2.61,29.763779,,,,,,TRUE,,,,BR,BKN,3600,,,,,,,IFR,,,,,,,,,,,,METAR,1515.0
UCFO 140400Z 20001MPS 1000 0900N R12/1000 BCFG FU NSC 01/M01 Q1025 R12/0///95 TEMPO 0500 FZFG,UCFO,2021-01-14T04:00:00Z,40.6,72.8,1.0,-1.0,200,2,,0.62,30.265747,,,,,,,,,,BCFG FU,CLR,,,,,,,,LIFR,,,,,,,,,,,,METAR,881.0
UCFM 140400Z VRB01MPS 9000 OVC010 M07/M09 Q1030 R26/1///95 NOSIG,UCFM,2021-01-14T04:00:00Z,43.07,74.48,-7.0,-9.0,0,2,,5.59,30.413385,,,,,,TRUE,,,,,OVC,1000,,,,,,,MVFR,,,,,,,,,,,,METAR,632.0
UCFL 140400Z 30013G21MPS 9999 FEW030 03/M19 Q1021 R07/CLRD95,UCFL,2021-01-14T04:00:00Z,42.58,76.7,3.0,-19.0,300,25,41,6.21,30.147638,,,,,,,,,,,FEW,3000,,,,,,,VFR,,,,,,,,,,,,METAR,1654.0
UBEE 140400Z 24004KT 2000 BR OVC015 05/04 Q1007 R30/CLRD// NOSIG,UBEE,2021-01-14T04:00:00Z,40.63,47.13,5.0,4.0,240,4,,1.24,29.734253,,,,,,TRUE,,,,BR,OVC,1500,,,,,,,IFR,,,,,,,,,,,,METAR,14.0
UBBY 140400Z 12004KT 0400 R33/0400 FG VV002 04/04 Q1008 R33/////// NOSIG RMK MT OBSC,UBBY,2021-01-14T04:00:00Z,41.57,46.67,4.0,4.0,120,4,,0.25,29.763779,,,,,,TRUE,,,,FG,OVX,0,,,,,,,LIFR,,,,,,,,,,,200,METAR,383.0
UBBQ 140400Z 02004KT 1800 BR OVC002 05/04 Q1006 R34/////// NOSIG RMK MT OBSC,UBBQ,2021-01-14T04:00:00Z,40.82,47.72,5.0,4.0,20,4,,1.12,29.704725,,,,,,TRUE,,,,BR,OVC,200,,,,,,,LIFR,,,,,,,,,,,,METAR,339.0
UBBL 140400Z VRB02KT 2700 BR OVC006 06/06 Q1008 R33/CLRD// NOSIG RMK MT OBSC,UBBL,2021-01-14T04:00:00Z,38.75,48.82,6.0,6.0,0,2,,1.68,29.763779,,,,,,TRUE,,,,BR,OVC,600,,,,,,,IFR,,,,,,,,,,,,METAR,-11.0
UBBG 140400Z 18004KT 170V240 5000 BR OVC033 04/03 Q1006 R30/CLRD// NOSIG,UBBG,2021-01-14T04:00:00Z,40.73,46.32,4.0,3.0,180,4,,3.11,29.704725,,,,,,TRUE,,,,BR,OVC,3300,,,,,,,MVFR,,,,,,,,,,,,METAR,333.0
UAUU 140400Z 00000MPS 4300 FU NSC M34/M38 Q1040 R33/810158 TEMPO 2000 RMK QFE764/1019,UAUU,2021-01-14T04:00:00Z,53.2,63.55,-34.0,-38.0,0,0,,2.67,30.708662,,,,,,,,,,FU,CLR,,,,,,,,IFR,,,,,,,,,,,,METAR,177.0
UATT 140400Z 13008MPS CAVOK M17/M21 Q1030 R13/810255 NOSIG RMK QFE752/1003,UATT,2021-01-14T04:00:00Z,50.25,57.2,-17.0,-21.0,130,16,,6.21,30.413385,,,,,,TRUE,,,,,CAVOK,,,,,,,,VFR,,,,,,,,,,,,METAR,217.0
UATG 140400Z 11015G22MPS 5000 BLDU NSC M05/M10 Q1010 R14/19//65 NOSIG RMK QFE760/1013,UATG,2021-01-14T04:00:00Z,47.12,51.83,-5.0,-10.0,110,29,43,3.11,29.822834,,,,,,TRUE,,,,BLDU,CLR,,,,,,,,MVFR,,,,,,,,,,,,SPECI,-23.0
UASS 140400Z VRB01MPS 9999 SCT030 M24/M27 Q1043 R08/42//50 NOSIG RMK QFE761/1015,UASS,2021-01-14T04:00:00Z,50.35,80.23,-24.0,-27.0,0,2,,6.21,30.797245,,,,,,TRUE,,,,,SCT,3000,,,,,,,VFR,,,,,,,,,,,,METAR,215.0
UASP 140400Z 27003MPS 9999 BKN026 M22/M26 Q1043 R21/0///60 NOSIG RMK QFE771/1028,UASP,2021-01-14T04:00:00Z,52.2,77.07,-22.0,-26.0,270,6,,6.21,30.797245,,,,,,TRUE,,,,,BKN,2600,,,,,,,MVFR,,,,,,,,,,,,METAR,122.0
UASK 140400Z 00000MPS 3100 -SG BR BCFG BKN040 M30/M33 Q1043 R12/490242 TEMPO 1100 BR SCT003 RMK QFE756/1008,UASK,2021-01-14T04:00:00Z,50.03,82.5,-30.0,-33.0,0,0,,1.93,30.797245,,,,,,,,,,-SG BR BCFG,BKN,4000,,,,,,,IFR,,,,,,,,,,,,METAR,285.0
UAOO 140400Z 06006MPS CAVOK M09/M10 Q1029 R05/CLRD70 NOSIG RMK QFE760/1014,UAOO,2021-01-14T04:00:00Z,44.7,65.6,-9.0,-10.0,60,12,,6.21,30.383858,,,,,,TRUE,,,,,CAVOK,,,,,,,,VFR,,,,,,,,,,,,METAR,130.0
UAKK 140400Z 08005MPS CAVOK M34/M38 Q1037 R05/820555 NOSIG RMK QFE729/0973,UAKK,2021-01-14T04:00:00Z,49.68,73.35,-34.0,-38.0,80,10,,6.21,30.620079,,,,,,TRUE,,,,,CAVOK,,,,,,,,VFR,,,,,,,,,,,,METAR,532.0
UAII 140400Z 09002MPS 4000 BR BKN026 01/M01 Q1024 R10/0///70 NOSIG RMK QFE733/0977,UAII,2021-01-14T04:00:00Z,42.37,69.48,1.0,-1.0,90,4,,2.49,30.236221,,,,,,TRUE,,,,BR,BKN,2600,,,,,,,IFR,,,,,,,,,,,,METAR,410.0
UADD 140400Z 05002MPS 1800 R13/1800 BR OVC002 M06/M07 Q1028 R13/390337 NOSIG RMK QBB080 MT OBSC QFE713/0951,UADD,2021-01-14T04:00:00Z,42.85,71.3,-6.0,-7.0,50,4,,1.12,30.35433,,,,,,TRUE,,,,BR,OVC,200,,,,,,,LIFR,,,,,,,,,,,,METAR,663.0
UACP 140400Z VRB01MPS 9999 BKN028 M23/M26 Q1042 R23/8/2042 NOSIG RMK QFE768/1025,UACP,2021-01-14T04:00:00Z,54.78,69.18,-23.0,-26.0,0,2,,6.21,30.767717,,,,,,TRUE,,,,,BKN,2800,,,,,,,MVFR,,,,,,,,,,,,METAR,134.0
UACK 140400Z 00000MPS CAVOK M36/M40 Q1040 R20/850245 NOSIG RMK QFE756/1008,UACK,2021-01-14T04:00:00Z,53.32,69.58,-36.0,-40.0,0,0,,6.21,30.708662,,,,,,TRUE,,,,,CAVOK,,,,,,,,VFR,,,,,,,,,,,,SPECI,261.0
UACC 140400Z 09003MPS 9000 NSC M33/M37 Q1040 R04/85//60 NOSIG RMK QFE748/0997,UACC,2021-01-14T04:00:00Z,51.02,71.47,-33.0,-37.0,90,6,,5.59,30.708662,,,,,,TRUE,,,,,CLR,,,,,,,,VFR,,,,,,,,,,,,METAR,354.0
UAAT 140400Z VRB01MPS 9999 FEW011 M12/M13 Q1033 R02/950348 NOSIG RMK QFE723/0964,UAAT,2021-01-14T04:00:00Z,45.12,78.45,-12.0,-13.0,0,2,,6.21,30.501968,,,,,,TRUE,,,,,FEW,1100,,,,,,,VFR,,,,,,,,,,,,METAR,588.0
UAAH 140400Z 06006MPS CAVOK M23/M27 Q1038 R05/720155 NOSIG RMK QFE740/0987,UAAH,2021-01-14T04:00:00Z,46.9,75.0,-23.0,-27.0,60,12,,6.21,30.649607,,,,,,TRUE,,,,,CAVOK,,,,,,,,VFR,,,,,,,,,,,,METAR,427.0
UAAA 140400Z 05002MPS 5000 BR BKN018 OVC100 M07/M09 Q1032 R88/91//45 NOSIG,UAAA,2021-01-14T04:00:00Z,43.35,77.03,-7.0,-9.0,50,4,,3.11,30.47244,,,,,,TRUE,,,,BR,BKN,1800,OVC,10000,,,,,MVFR,,,,,,,,,,,,METAR,673.0
TTPP 140400Z 00000KT 9999 -RA FEW015 BKN040 24/22 Q1013 NOSIG RMK VCSH-ALDS,TTPP,2021-01-14T04:00:00Z,10.58,-61.35,24.0,22.0,0,0,,6.21,29.911417,,,,,,TRUE,,,,-RA,FEW,1500,BKN,4000,,,,,VFR,,,,,,,,,,,,SPECI,11.0
TTCP 140400Z 09004KT 9999 VCSH FEW016 24/21 Q1013 NOSIG RMK VCSH-NE,TTCP,2021-01-14T04:00:00Z,11.15,-60.85,24.0,21.0,90,4,,6.21,29.911417,,,,,,TRUE,,,,VCSH,FEW,1600,,,,,,,VFR,,,,,,,,,,,,METAR,13.0
TNCM 140400Z 09011KT 9999 FEW017 SCT035 25/22 Q1017 ,TNCM,2021-01-14T04:00:00Z,18.05,-63.12,25.0,22.0,90,11,,6.21,30.029528,,,,,,,,,,,FEW,1700,SCT,3500,,,,,VFR,,,,,,,,,,,,METAR,9.0
TNCC 140400Z 11011KT 080V140 9999 FEW018 26/21 Q1012 NOSIG,TNCC,2021-01-14T04:00:00Z,12.2,-68.97,26.0,21.0,110,11,,6.21,29.88189,,,,,,TRUE,,,,,FEW,1800,,,,,,,VFR,,,,,,,,,,,,METAR,10.0
TNCA 140400Z 09017KT 9999 FEW018 26/22 Q1012 NOSIG,TNCA,2021-01-14T04:00:00Z,12.5,-70.0,26.0,22.0,90,17,,6.21,29.88189,,,,,,TRUE,,,,,FEW,1800,,,,,,,VFR,,,,,,,,,,,,METAR,7.0
TLPL 140400Z 07017KT 9999 FEW025 26/20 Q1014 NOSIG,TLPL,2021-01-14T04:00:00Z,13.75,-60.95,26.0,20.0,70,17,,6.21,29.940945,,,,,,TRUE,,,,,FEW,2500,,,,,,,VFR,,,,,,,,,,,,METAR,13.0
TGPY 140400Z 08005KT 9999 SCT019 25/22 Q1013 NOSIG,TGPY,2021-01-14T04:00:00Z,12.0,-61.78,25.0,22.0,80,5,,6.21,29.911417,,,,,,TRUE,,,,,SCT,1900,,,,,,,VFR,,,,,,,,,,,,METAR,12.0
TBPB 140400Z 09017KT 9999 FEW016 25/19 Q1013 NOSIG,TBPB,2021-01-14T04:00:00Z,13.07,-59.48,25.0,19.0,90,17,,6.21,29.911417,,,,,,TRUE,,,,,FEW,1600,,,,,,,VFR,,,,,,,,,,,,METAR,55.0
TAPA 140400Z 09007KT 070V130 9999 SCT017 BKN035 24/21 Q1016 NOSIG,TAPA,2021-01-14T04:00:00Z,17.13,-61.78,24.0,21.0,90,7,,6.21,30.0,,,,,,TRUE,,,,,SCT,1700,BKN,3500,,,,,VFR,,,,,,,,,,,,METAR,15.0
SYCJ 140400Z VRB02KT 9999 FEW013 BKN034 23/23 Q1012 NOSIG,SYCJ,2021-01-14T04:00:00Z,6.5,-58.25,23.0,23.0,0,2,,6.21,29.88189,,,,,,TRUE,,,,,FEW,1300,BKN,3400,,,,,VFR,,,,,,,,,,,,METAR,30.0
SVMI 140400Z 00000KT 9999 FEW016 26/22 Q1012 ,SVMI,2021-01-14T04:00:00Z,10.6,-67.0,26.0,22.0,0,0,,6.21,29.88189,,,,,,,,,,,FEW,1600,,,,,,,VFR,,,,,,,,,,,,METAR,48.0
SUMU 140400Z 06006KT CAVOK 17/11 Q1022 NOSIG,SUMU,2021-01-14T04:00:00Z,-34.83,-56.02,17.0,11.0,60,6,,6.21,30.177166,,,,,,TRUE,,,,,CAVOK,,,,,,,,VFR,,,,,,,,,,,,METAR,32.0
SULS 140400Z 05003KT CAVOK 17/12 Q1022,SULS,2021-01-14T04:00:00Z,-34.87,-55.1,17.0,12.0,50,3,,6.21,30.177166,,,,,,,,,,,CAVOK,,,,,,,,VFR,,,,,,,,,,,,METAR,22.0
SPSO 140400Z 00000KT 5000 FU NSC 21/17 Q1012 RMK PP000,SPSO,2021-01-14T04:00:00Z,-13.73,-76.22,21.0,17.0,0,0,,3.11,29.88189,,,,,,,,,,FU,CLR,,,,,,,,MVFR,,,,,,,,,,,,SPECI,8.0
SPQT 140400Z 00000KT 9999 FEW015 BKN100 25/24 Q1011 NOSIG RMK PP000,SPQT,2021-01-14T04:00:00Z,-3.78,-73.32,25.0,24.0,0,0,,6.21,29.852362,,,,,,TRUE,,,,,FEW,1500,BKN,10000,,,,,VFR,,,,,,,,,,,,SPECI,92.0
SPJC 140400Z 15010KT CAVOK 21/18 Q1012 NOSIG RMK PP000,SPJC,2021-01-14T04:00:00Z,-12.02,-77.12,21.0,18.0,150,10,,6.21,29.88189,,,,,,TRUE,,,,,CAVOK,,,,,,,,VFR,,,,,,,,,,,,SPECI,26.0
SMJP 140400Z 07002KT 9999 FEW020 23/23 Q1012 NOSIG,SMJP,2021-01-14T04:00:00Z,5.45,-55.18,23.0,23.0,70,2,,6.21,29.88189,,,,,,TRUE,,,,,FEW,2000,,,,,,,VFR,,,,,,,,,,,,METAR,14.0
SLVR 140400Z 18009KT 9999 FEW010 SCT023 BKN070 23/22 Q1013,SLVR,2021-01-14T04:00:00Z,-17.63,-63.13,23.0,22.0,180,9,,6.21,29.911417,,,,,,,,,,,FEW,1000,SCT,2300,BKN,7000,,,VFR,,,,,,,,,,,,METAR,377.0
SLLP 140400Z 11004KT 4000E VCFG FEW002 FEW017CB BKN200 07/06 Q1037,SLLP,2021-01-14T04:00:00Z,-16.52,-68.17,7.0,6.0,110,4,,2.49,30.620079,,,,,,,,,,VCFG,FEW,200,FEW,1700,BKN,20000,,,IFR,,,,,,,,,,,,METAR,4061.0
SLCB 140400Z 00000KT 9999 FEW030 BKN070 BKN200 16/14 Q1025,SLCB,2021-01-14T04:00:00Z,-17.42,-66.18,16.0,14.0,0,0,,6.21,30.265747,,,,,,,,,,,FEW,3000,BKN,7000,BKN,20000,,,VFR,,,,,,,,,,,,METAR,2560.0
SKSP 140400Z 05009KT 9999 FEW017 OVC200 27/24 Q1012 RMK A2989,SKSP,2021-01-14T04:00:00Z,12.58,-81.72,27.0,24.0,50,9,,6.21,29.88189,,,,,,,,,,,FEW,1700,OVC,20000,,,,,VFR,,,,,,,,,,,,SPECI,6.0
SKRG 140400Z VRB02KT 9999 SCT010 SCT200 15/15 Q1025 NOSIG RMK A3027,SKRG,2021-01-14T04:00:00Z,6.17,-75.42,15.0,15.0,0,2,,6.21,30.265747,,,,,,TRUE,,,,,SCT,1000,SCT,20000,,,,,VFR,,,,,,,,,,,,SPECI,2132.0
SKLT 140400Z 00000KT 9999 FEW016 24/24 Q1011 RMK A2986,SKLT,2021-01-14T04:00:00Z,-4.2,-69.93,24.0,24.0,0,0,,6.21,29.852362,,,,,,,,,,,FEW,1600,,,,,,,VFR,,,,,,,,,,,,METAR,78.0
SKCL 140400Z 03005KT 9999 FEW030 SCT300 21/19 Q1014 NOSIG RMKA2996,SKCL,2021-01-14T04:00:00Z,3.53,-76.37,21.0,19.0,30,5,,6.21,29.940945,,,,,,TRUE,,,,,FEW,3000,SCT,30000,,,,,VFR,,,,,,,,,,,,METAR,967.0
SKCG 140400Z 02006KT 010V080 CAVOK 25/25 Q1009 RMK A2980,SKCG,2021-01-14T04:00:00Z,10.43,-75.52,25.0,25.0,20,6,,6.21,29.793306,,,,,,,,,,,CAVOK,,,,,,,,VFR,,,,,,,,,,,,SPECI,6.0
SKBO 140400Z 03003KT 9999 FEW015 11/08 Q1026 NOSIG A3031,SKBO,2021-01-14T04:00:00Z,4.7,-74.15,11.0,8.0,30,3,,6.21,30.295275,,,,,,TRUE,,,,,FEW,1500,,,,,,,VFR,,,,,,,,,,,,METAR,2547.0
SGES 140400Z 18003KT 9999 FEW030 SCT070 23/23 Q1012,SGES,2021-01-14T04:00:00Z,-25.45,-54.85,23.0,23.0,180,3,,6.21,29.88189,,,,,,,,,,,FEW,3000,SCT,7000,,,,,VFR,,,,,,,,,,,,METAR,256.0
SGAS 140400Z VRB03KT CAVOK 27/24 Q1012,SGAS,2021-01-14T04:00:00Z,-25.25,-57.52,27.0,24.0,0,3,,6.21,29.88189,,,,,,,,,,,CAVOK,,,,,,,,VFR,,,,,,,,,,,,METAR,83.0
SEQM 140400Z 27002KT 9999 SCT005 BKN020 14/12 Q1026 NOSIG RMK A3030,SEQM,2021-01-14T04:00:00Z,-0.12,-78.35,14.0,12.0,270,2,,6.21,30.295275,,,,,,TRUE,,,,,SCT,500,BKN,2000,,,,,MVFR,,,,,,,,,,,,SPECI,2386.0
SEMT 140400Z 20005KT 9999 BKN020 26/22 Q1011,SEMT,2021-01-14T04:00:00Z,-0.95,-80.67,26.0,22.0,200,5,,6.21,29.852362,,,,,,,,,,,BKN,2000,,,,,,,MVFR,,,,,,,,,,,,METAR,13.0
SELT 140400Z 26002KT 9999 FEW030 10/08 Q1029,SELT,2021-01-14T04:00:00Z,-0.92,-78.62,10.0,8.0,260,2,,6.21,30.383858,,,,,,,,,,,FEW,3000,,,,,,,VFR,,,,,,,,,,,,METAR,2779.0
SEGU 140400Z 23008KT 9999 BKN026 BKN100 27/20 Q1011 NOSIG RMK A2985,SEGU,2021-01-14T04:00:00Z,-2.15,-79.88,27.0,20.0,230,8,,6.21,29.852362,,,,,,TRUE,,,,,BKN,2600,BKN,10000,,,,,MVFR,,,,,,,,,,,,SPECI,6.0
SECU 140400Z AUTO VRB02KT ////NDV NCD 15/13 Q1025,SECU,2021-01-14T04:00:00Z,-2.88,-78.98,15.0,13.0,0,2,,,30.265747,,,TRUE,,,,,,,,CLR,,,,,,,,,,,,,,,,,,,,METAR,2516.0
SCVD 140400Z AUTO VRB01KT 9999 NCD 07/07 Q1016,SCVD,2021-01-14T04:00:00Z,-39.65,-73.08,7.0,7.0,0,1,,6.21,30.0,,,TRUE,,,,,,,,CLR,,,,,,,,VFR,,,,,,,,,,,,METAR,19.0
SCTN 140400Z AUTO 15004KT //// R/////// NCD 10/09 Q1017,SCTN,2021-01-14T04:00:00Z,-42.92,-72.7,10.0,9.0,150,4,,,30.029528,,,TRUE,,,,,,,,CLR,,,,,,,,,,,,,,,,,,,,METAR,8.0
SCTE 140400Z VRB02KT CAVOK 09/08 Q1017 NOSIG,SCTE,2021-01-14T04:00:00Z,-41.43,-73.08,9.0,8.0,0,2,,6.21,30.029528,,,,,,TRUE,,,,,CAVOK,,,,,,,,VFR,,,,,,,,,,,,METAR,85.0
SCSN 140400Z AUTO 05004KT //// R/////// // NCD 12/11 Q1015,SCSN,2021-01-14T04:00:00Z,-33.65,-71.62,12.0,11.0,50,4,,,29.970472,,,TRUE,,,,,,,,CLR,,,,,,,,,,,,,,,,,,,,METAR,73.0
SCSE 140400Z AUTO 27005KT CAVOK 14/12 Q1012,SCSE,2021-01-14T04:00:00Z,-29.92,-71.2,14.0,12.0,270,5,,6.21,29.88189,,,TRUE,,,,,,,,CAVOK,,,,,,,,VFR,,,,,,,,,,,,METAR,141.0
SCRM 140400Z 27033KT 9999 SCT030 01/M02 Q0983 NOSIG,SCRM,2021-01-14T04:00:00Z,-62.18,-58.98,1.0,-2.0,270,33,,6.21,29.02559,,,,,,TRUE,,,,,SCT,3000,,,,,,,VFR,,,,,,,,,,,,METAR,45.0
SCQP 140400Z AUTO 34004KT CAVOK 10/09 Q1017,SCQP,2021-01-14T04:00:00Z,-38.92,-72.65,10.0,9.0,340,4,,6.21,30.029528,,,TRUE,,,,,,,,CAVOK,,,,,,,,VFR,,,,,,,,,,,,METAR,97.0
SCPQ 140400Z AUTO 18003KT CAVOK 08/06 Q1017,SCPQ,2021-01-14T04:00:00Z,-42.33,-73.72,8.0,6.0,180,3,,6.21,30.029528,,,TRUE,,,,,,,,CAVOK,,,,,,,,VFR,,,,,,,,,,,,METAR,166.0
SCON 140400Z AUTO VRB01KT 9999 FEW250/// 08/07 Q1017,SCON,2021-01-14T04:00:00Z,-43.13,-73.62,8.0,7.0,0,1,,6.21,30.029528,,,TRUE,,,,,,,,FEW,25000,,,,,,,VFR,,,,,,,,,,,,METAR,11.0
SCMK 140400Z AUTO 23005KT //// // NCD 10/08 Q1016,SCMK,2021-01-14T04:00:00Z,-43.9,-73.73,10.0,8.0,230,5,,,30.0,,,TRUE,,,,,,,,CLR,,,,,,,,,,,,,,,,,,,,METAR,22.0
SCJO 140400Z AUTO 18005KT 140V240 CAVOK 12/08 Q1016,SCJO,2021-01-14T04:00:00Z,-40.6,-73.05,12.0,8.0,180,5,,6.21,30.0,,,TRUE,,,,,,,,CAVOK,,,,,,,,VFR,,,,,,,,,,,,METAR,61.0
SCIP 140400Z 17002KT 9999 FEW030 21/19 Q1021 NOSIG,SCIP,2021-01-14T04:00:00Z,-27.17,-109.43,21.0,19.0,170,2,,6.21,30.147638,,,,,,TRUE,,,,,FEW,3000,,,,,,,VFR,,,,,,,,,,,,METAR,48.0
SCIE 140400Z AUTO 22012KT 9999 NCD 13/09 Q1015,SCIE,2021-01-14T04:00:00Z,-36.77,-73.07,13.0,9.0,220,12,,6.21,29.970472,,,TRUE,,,,,,,,CLR,,,,,,,,VFR,,,,,,,,,,,,METAR,8.0
SCIC 140400Z AUTO 26003KT 9999 NCD 19/04 Q1013,SCIC,2021-01-14T04:00:00Z,-34.97,-71.22,19.0,4.0,260,3,,6.21,29.911417,,,TRUE,,,,,,,,CLR,,,,,,,,VFR,,,,,,,,,,,,METAR,230.0
SCFT 140400Z AUTO 29007KT CAVOK 13/09 Q1015,SCFT,2021-01-14T04:00:00Z,-43.18,-71.85,13.0,9.0,290,7,,6.21,29.970472,,,TRUE,,,,,,,,CAVOK,,,,,,,,VFR,,,,,,,,,,,,METAR,345.0
SCFA 140400Z 18004KT 9999 BKN030 18/14 Q1015 NOSIG,SCFA,2021-01-14T04:00:00Z,-23.43,-70.43,18.0,14.0,180,4,,6.21,29.970472,,,,,,TRUE,,,,,BKN,3000,,,,,,,MVFR,,,,,,,,,,,,METAR,113.0
SCEL 140400Z AUTO 16006KT 9999 FEW230/// 18/M03 Q1014,SCEL,2021-01-14T04:00:00Z,-33.38,-70.78,18.0,-3.0,160,6,,6.21,29.940945,,,TRUE,,,,,,,,FEW,23000,,,,,,,VFR,,,,,,,,,,,,METAR,478.0
SCDA 140400Z 21009KT 9999 OVC036 22/14 Q1014,SCDA,2021-01-14T04:00:00Z,-20.53,-70.17,22.0,14.0,210,9,,6.21,29.940945,,,,,,,,,,,OVC,3600,,,,,,,VFR,,,,,,,,,,,,METAR,41.0
SCCY 140400Z AUTO 03004KT 350V050 CAVOK 11/08 Q1014,SCCY,2021-01-14T04:00:00Z,-45.58,-72.1,11.0,8.0,30,4,,6.21,29.940945,,,TRUE,,,,,,,,CAVOK,,,,,,,,VFR,,,,,,,,,,,,METAR,301.0
SCCI 140400Z AUTO 31013KT 9999 OVC096/// 11/08 Q1009,SCCI,2021-01-14T04:00:00Z,-53.0,-70.85,11.0,8.0,310,13,,6.21,29.793306,,,TRUE,,,,,,,,OVC,9600,,,,,,,VFR,,,,,,,,,,,,METAR,37.0
SCCH 140400Z AUTO VRB01KT //// R/////// NCD 14/05 Q1014,SCCH,2021-01-14T04:00:00Z,-36.57,-72.02,14.0,5.0,0,1,,,29.940945,,,TRUE,,,,,,,,CLR,,,,,,,,,,,,,,,,,,,,SPECI,148.0
SCCF 140400Z AUTO 11004KT CAVOK 13/M08 Q1026,SCCF,2021-01-14T04:00:00Z,-22.5,-68.9,13.0,-8.0,110,4,,6.21,30.295275,,,TRUE,,,,,,,,CAVOK,,,,,,,,VFR,,,,,,,,,,,,METAR,2290.0
SCAR 140400Z 00000KT CAVOK 21/16 Q1014,SCAR,2021-01-14T04:00:00Z,-18.35,-70.33,21.0,16.0,0,0,,6.21,29.940945,,,,,,,,,,,CAVOK,,,,,,,,VFR,,,,,,,,,,,,METAR,57.0
SCAP 140400Z AUTO 24006KT 9999 ////// 15/07 Q1017,SCAP,2021-01-14T04:00:00Z,-43.62,-71.8,15.0,7.0,240,6,,6.21,30.029528,,,TRUE,,,,,,,,,,,,,,,,,,,,,,,,,,,,METAR,252.0
SBVT 140400Z 01002KT 9999 SCT025 BKN070 24/21 Q1014,SBVT,2021-01-14T04:00:00Z,-20.25,-40.28,24.0,21.0,10,2,,6.21,29.940945,,,,,,,,,,,SCT,2500,BKN,7000,,,,,VFR,,,,,,,,,,,,METAR,4.0
SBUL 140400Z 16005KT CAVOK 22/18 Q1015,SBUL,2021-01-14T04:00:00Z,-18.87,-48.22,22.0,18.0,160,5,,6.21,29.970472,,,,,,,,,,,CAVOK,,,,,,,,VFR,,,,,,,,,,,,METAR,945.0
SBTE 140400Z 02004KT 9999 BKN020 BKN040 27/23 Q1010,SBTE,2021-01-14T04:00:00Z,-5.05,-42.82,27.0,23.0,20,4,,6.21,29.822834,,,,,,,,,,,BKN,2000,BKN,4000,,,,,MVFR,,,,,,,,,,,,METAR,60.0
SBSV 140400Z 05007KT 9999 VCSH SCT020 FEW023TCU BKN060 26/22 Q1012,SBSV,2021-01-14T04:00:00Z,-12.9,-38.32,26.0,22.0,50,7,,6.21,29.88189,,,,,,,,,,VCSH,SCT,2000,FEW,2300,BKN,6000,,,VFR,,,,,,,,,,,,METAR,9.0
SBSR 140400Z 12005KT 9999 SCT025 SCT070 22/19 Q1013,SBSR,2021-01-14T04:00:00Z,-20.8,-49.4,22.0,19.0,120,5,,6.21,29.911417,,,,,,,,,,,SCT,2500,SCT,7000,,,,,VFR,,,,,,,,,,,,METAR,537.0
SBSN 140400Z 12006KT CAVOK 26/24 Q1010,SBSN,2021-01-14T04:00:00Z,-2.42,-54.78,26.0,24.0,120,6,,6.21,29.822834,,,,,,,,,,,CAVOK,,,,,,,,VFR,,,,,,,,,,,,METAR,57.0
SBSL 140400Z 05005KT 9999 SCT020 26/24 Q1010,SBSL,2021-01-14T04:00:00Z,-2.58,-44.23,26.0,24.0,50,5,,6.21,29.822834,,,,,,,,,,,SCT,2000,,,,,,,VFR,,,,,,,,,,,,METAR,53.0
SBSG 140400Z 15003KT 9999 SCT020 24/22 Q1011,SBSG,2021-01-14T04:00:00Z,-5.77,-35.37,24.0,22.0,150,3,,6.21,29.852362,,,,,,,,,,,SCT,2000,,,,,,,VFR,,,,,,,,,,,,METAR,83.0
SBSC 140400Z 20002KT 9999 SCT040 24/22 Q1012,SBSC,2021-01-14T04:00:00Z,-22.92,-43.72,24.0,22.0,200,2,,6.21,29.88189,,,,,,,,,,,SCT,4000,,,,,,,VFR,,,,,,,,,,,,METAR,6.0
SBRF 140400Z 05003KT 9999 SCT022 26/20 Q1011,SBRF,2021-01-14T04:00:00Z,-8.13,-34.92,26.0,20.0,50,3,,6.21,29.852362,,,,,,,,,,,SCT,2200,,,,,,,VFR,,,,,,,,,,,,METAR,10.0
SBRB 140400Z 02004KT 9999 FEW007 24/24 Q1011,SBRB,2021-01-14T04:00:00Z,-9.87,-67.88,24.0,24.0,20,4,,6.21,29.852362,,,,,,,,,,,FEW,700,,,,,,,VFR,,,,,,,,,,,,METAR,190.0
SBPV 140400Z 35005KT 7000 BKN002 BKN035 BKN080 24/23 Q1010,SBPV,2021-01-14T04:00:00Z,-8.72,-63.9,24.0,23.0,350,5,,4.35,29.822834,,,,,,,,,,,BKN,200,BKN,3500,BKN,8000,,,LIFR,,,,,,,,,,,,METAR,89.0
SBPS 140400Z 07007KT 9999 SCT020 BKN040 BKN100 25/21 Q1013,SBPS,2021-01-14T04:00:00Z,-16.43,-39.07,25.0,21.0,70,7,,6.21,29.911417,,,,,,,,,,,SCT,2000,BKN,4000,BKN,10000,,,VFR,,,,,,,,,,,,METAR,44.0
SBPL 140400Z 11006KT 9999 BKN023 SCT070 25/22 Q1012,SBPL,2021-01-14T04:00:00Z,-9.37,-40.57,25.0,22.0,110,6,,6.21,29.88189,,,,,,,,,,,BKN,2300,SCT,7000,,,,,MVFR,,,,,,,,,,,,METAR,386.0
SBPJ 140400Z 09004KT 9999 FEW016 24/23 Q1011,SBPJ,2021-01-14T04:00:00Z,-10.28,-48.37,24.0,23.0,90,4,,6.21,29.852362,,,,,,,,,,,FEW,1600,,,,,,,VFR,,,,,,,,,,,,METAR,226.0
SBPA 140400Z 13009KT 9999 SCT045 21/15 Q1020,SBPA,2021-01-14T04:00:00Z,-30.0,-51.17,21.0,15.0,130,9,,6.21,30.11811,,,,,,,,,,,SCT,4500,,,,,,,VFR,,,,,,,,,,,,METAR,3.0
SBNT 140400Z 10007KT 9999 FEW020 SCT030 26/22 Q1010,SBNT,2021-01-14T04:00:00Z,-5.92,-35.25,26.0,22.0,100,7,,6.21,29.822834,,,,,,,,,,,FEW,2000,SCT,3000,,,,,VFR,,,,,,,,,,,,METAR,51.0
SBMQ 140400Z 03004KT CAVOK 26/25 Q1010,SBMQ,2021-01-14T04:00:00Z,0.05,-51.07,26.0,25.0,30,4,,6.21,29.822834,,,,,,,,,,,CAVOK,,,,,,,,VFR,,,,,,,,,,,,METAR,15.0
SBMO 140400Z 02004KT 9999 FEW020 23/22 Q1012,SBMO,2021-01-14T04:00:00Z,-9.52,-35.78,23.0,22.0,20,4,,6.21,29.88189,,,,,,,,,,,FEW,2000,,,,,,,VFR,,,,,,,,,,,,METAR,116.0
SBMN 140400Z 11002KT CAVOK 25/25 Q1010,SBMN,2021-01-14T04:00:00Z,-3.13,-59.98,25.0,25.0,110,2,,6.21,29.822834,,,,,,,,,,,CAVOK,,,,,,,,VFR,,,,,,,,,,,,METAR,71.0
SBMK 140400Z 35002KT CAVOK 21/18 Q1014,SBMK,2021-01-14T04:00:00Z,-16.7,-43.82,21.0,18.0,350,2,,6.21,29.940945,,,,,,,,,,,CAVOK,,,,,,,,VFR,,,,,,,,,,,,METAR,665.0
SBME 140400Z 07003KT CAVOK 23/22 Q1013,SBME,2021-01-14T04:00:00Z,-22.35,-41.77,23.0,22.0,70,3,,6.21,29.911417,,,,,,,,,,,CAVOK,,,,,,,,VFR,,,,,,,,,,,,METAR,2.0
SBLO 140400Z 15004KT 9999 SCT030 BKN070 24/22 Q1015,SBLO,2021-01-14T04:00:00Z,-23.33,-51.12,24.0,22.0,150,4,,6.21,29.970472,,,,,,,,,,,SCT,3000,BKN,7000,,,,,VFR,,,,,,,,,,,,METAR,563.0
SBKP 140400Z 12007KT 9999 SCT040 BKN080 22/21 Q1015,SBKP,2021-01-14T04:00:00Z,-23.0,-47.13,22.0,21.0,120,7,,6.21,29.970472,,,,,,,,,,,SCT,4000,BKN,8000,,,,,VFR,,,,,,,,,,,,METAR,659.0
SBJU 140400Z 02004KT 9999 SCT020 25/22 Q1014,SBJU,2021-01-14T04:00:00Z,-7.22,-39.27,25.0,22.0,20,4,,6.21,29.940945,,,,,,,,,,,SCT,2000,,,,,,,VFR,,,,,,,,,,,,METAR,407.0
SBJP 140400Z 28002KT 9999 -RA BKN020 24/22 Q1011,SBJP,2021-01-14T04:00:00Z,-7.15,-34.95,24.0,22.0,280,2,,6.21,29.852362,,,,,,,,,,-RA,BKN,2000,,,,,,,MVFR,,,,,,,,,,,,METAR,66.0
SBJE 140400Z 00000KT 9999 SCT020 29/23 Q1010,SBJE,2021-01-14T04:00:00Z,-2.9,-40.35,29.0,23.0,0,0,,6.21,29.822834,,,,,,,,,,,SCT,2000,,,,,,,VFR,,,,,,,,,,,,METAR,25.0
SBIZ 140400Z 12002KT CAVOK 27/24 Q1009,SBIZ,2021-01-14T04:00:00Z,-5.52,-47.45,27.0,24.0,120,2,,6.21,29.793306,,,,,,,,,,,CAVOK,,,,,,,,VFR,,,,,,,,,,,,METAR,131.0
SBIL 140400Z 23003KT 9999 SCT018 SCT030 25/24 Q1012,SBIL,2021-01-14T04:00:00Z,-14.8,-39.02,25.0,24.0,230,3,,6.21,29.88189,,,,,,,,,,,SCT,1800,SCT,3000,,,,,VFR,,,,,,,,,,,,METAR,9.0
SBGR 140400Z 07004KT 9999 BKN009 21/20 Q1016,SBGR,2021-01-14T04:00:00Z,-23.42,-46.47,21.0,20.0,70,4,,6.21,30.0,,,,,,,,,,,BKN,900,,,,,,,IFR,,,,,,,,,,,,METAR,745.0
SBGO 140400Z 30003KT 9999 FEW040 23/22 Q1013,SBGO,2021-01-14T04:00:00Z,-16.62,-49.22,23.0,22.0,300,3,,6.21,29.911417,,,,,,,,,,,FEW,4000,,,,,,,VFR,,,,,,,,,,,,METAR,740.0
SBGL 140400Z 11004KT 9999 FEW030 26/21 Q1012,SBGL,2021-01-14T04:00:00Z,-22.82,-43.25,26.0,21.0,110,4,,6.21,29.88189,,,,,,,,,,,FEW,3000,,,,,,,VFR,,,,,,,,,,,,METAR,3.0
SBFZ 140400Z 07007KT 9999 SCT022 27/22 Q1010,SBFZ,2021-01-14T04:00:00Z,-3.77,-38.52,27.0,22.0,70,7,,6.21,29.822834,,,,,,,,,,,SCT,2200,,,,,,,VFR,,,,,,,,,,,,METAR,32.0
SBFN 140400Z AUTO 10006KT 9999 FEW014 SCT017 26/22 Q1012,SBFN,2021-01-14T04:00:00Z,-3.85,-32.42,26.0,22.0,100,6,,6.21,29.88189,,,TRUE,,,,,,,,FEW,1400,SCT,1700,,,,,VFR,,,,,,,,,,,,METAR,52.0
SBFL 140400Z 15008KT 9999 FEW025 BKN060 23/19 Q1017,SBFL,2021-01-14T04:00:00Z,-27.67,-48.53,23.0,19.0,150,8,,6.21,30.029528,,,,,,,,,,,FEW,2500,BKN,6000,,,,,VFR,,,,,,,,,,,,METAR,5.0
SBFI 140400Z 15003KT 9999 FEW040TCU SCT080 23/23 Q1012,SBFI,2021-01-14T04:00:00Z,-25.6,-54.48,23.0,23.0,150,3,,6.21,29.88189,,,,,,,,,,,FEW,4000,SCT,8000,,,,,VFR,,,,,,,,,,,,METAR,233.0
SBEG 140400Z 00000KT CAVOK 24/24 Q1010,SBEG,2021-01-14T04:00:00Z,-3.03,-60.03,24.0,24.0,0,0,,6.21,29.822834,,,,,,,,,,,CAVOK,,,,,,,,VFR,,,,,,,,,,,,METAR,69.0
SBCY 140400Z 10003KT 9999 FEW020 SCT100 25/24 Q1010,SBCY,2021-01-14T04:00:00Z,-15.65,-56.12,25.0,24.0,100,3,,6.21,29.822834,,,,,,,,,,,FEW,2000,SCT,10000,,,,,VFR,,,,,,,,,,,,METAR,182.0
SBCT 140400Z 14010KT 9999 BKN009 18/18 Q1019,SBCT,2021-01-14T04:00:00Z,-25.52,-49.17,18.0,18.0,140,10,,6.21,30.088583,,,,,,,,,,,BKN,900,,,,,,,IFR,,,,,,,,,,,,METAR,914.0
SBCH 140400Z 13015KT CAVOK 22/19 Q1016,SBCH,2021-01-14T04:00:00Z,-27.13,-52.67,22.0,19.0,130,15,,6.21,30.0,,,,,,,,,,,CAVOK,,,,,,,,VFR,,,,,,,,,,,,METAR,639.0
SBCG 140400Z 14004KT 9999 FEW004 BKN007 FEW050TCU 22/21 Q1012,SBCG,2021-01-14T04:00:00Z,-20.47,-54.67,22.0,21.0,140,4,,6.21,29.88189,,,,,,,,,,,FEW,400,BKN,700,FEW,5000,,,IFR,,,,,,,,,,,,METAR,556.0
SBCF 140400Z 10008KT CAVOK 22/18 Q1016,SBCF,2021-01-14T04:00:00Z,-19.63,-43.97,22.0,18.0,100,8,,6.21,30.0,,,,,,,,,,,CAVOK,,,,,,,,VFR,,,,,,,,,,,,METAR,825.0
SBBV 140400Z 10011KT CAVOK 26/21 Q1012,SBBV,2021-01-14T04:00:00Z,2.85,-60.7,26.0,21.0,100,11,,6.21,29.88189,,,,,,,,,,,CAVOK,,,,,,,,VFR,,,,,,,,,,,,METAR,80.0
SBBR 140400Z 14008KT 9999 -RA VCTS SCT020 FEW040CB BKN070 22/18 Q1016 RERA,SBBR,2021-01-14T04:00:00Z,-15.87,-47.92,22.0,18.0,140,8,,6.21,30.0,,,,,,,,,,-RA VCTS,SCT,2000,FEW,4000,BKN,7000,,,VFR,,,,,,,,,,,,METAR,1051.0
SBBH 140400Z 10006KT CAVOK 22/17 Q1016,SBBH,2021-01-14T04:00:00Z,-19.85,-43.95,22.0,17.0,100,6,,6.21,30.0,,,,,,,,,,,CAVOK,,,,,,,,VFR,,,,,,,,,,,,METAR,799.0
SBBG 140400Z AUTO 08006KT CAVOK 15/13 Q1020,SBBG,2021-01-14T04:00:00Z,-31.38,-54.12,15.0,13.0,80,6,,6.21,30.11811,,,TRUE,,,,,,,,CAVOK,,,,,,,,VFR,,,,,,,,,,,,METAR,182.0
SBBE 140400Z 13002KT CAVOK 24/23 Q1010,SBBE,2021-01-14T04:00:00Z,-1.37,-48.47,24.0,23.0,130,2,,6.21,29.822834,,,,,,,,,,,CAVOK,,,,,,,,VFR,,,,,,,,,,,,METAR,16.0
SBAR 140400Z 08005KT 9999 FEW017 SCT070 26/22 Q1011,SBAR,2021-01-14T04:00:00Z,-10.98,-37.07,26.0,22.0,80,5,,6.21,29.852362,,,,,,,,,,,FEW,1700,SCT,7000,,,,,VFR,,,,,,,,,,,,METAR,4.0
SBAN 140400Z 19001KT 9999 FEW030 BKN100 21/19 Q1016,SBAN,2021-01-14T04:00:00Z,-16.22,-48.97,21.0,19.0,190,1,,6.21,30.0,,,,,,,,,,,FEW,3000,BKN,10000,,,,,VFR,,,,,,,,,,,,METAR,1131.0
SAZS 140400Z 27007KT CAVOK 14/07 Q1015,SAZS,2021-01-14T04:00:00Z,-41.15,-71.17,14.0,7.0,270,7,,6.21,29.970472,,,,,,,,,,,CAVOK,,,,,,,,VFR,,,,,,,,,,,,METAR,843.0
SAZN 140400Z 11006KT CAVOK 22/16 Q1011,SAZN,2021-01-14T04:00:00Z,-38.95,-68.15,22.0,16.0,110,6,,6.21,29.852362,,,,,,,,,,,CAVOK,,,,,,,,VFR,,,,,,,,,,,,METAR,273.0
SAZM 140400Z 07009KT CAVOK 17/08 Q1023,SAZM,2021-01-14T04:00:00Z,-37.92,-57.57,17.0,8.0,70,9,,6.21,30.206694,,,,,,,,,,,CAVOK,,,,,,,,VFR,,,,,,,,,,,,METAR,17.0
SAWH 140400Z 00000KT 9999 SCT040 BKN080 12/06 Q1005,SAWH,2021-01-14T04:00:00Z,-54.85,-68.3,12.0,6.0,0,0,,6.21,29.675198,,,,,,,,,,,SCT,4000,BKN,8000,,,,,VFR,,,,,,,,,,,,METAR,22.0
SAWG 140400Z 25004KT CAVOK 10/04 Q1011,SAWG,2021-01-14T04:00:00Z,-51.62,-69.27,10.0,4.0,250,4,,6.21,29.852362,,,,,,,,,,,CAVOK,,,,,,,,VFR,,,,,,,,,,,,METAR,15.0
SAWE 140400Z 29015KT 9999 -DZ SCT020 BKN050 10/09 Q1008,SAWE,2021-01-14T04:00:00Z,-53.78,-67.75,10.0,9.0,290,15,,6.21,29.763779,,,,,,,,,,-DZ,SCT,2000,BKN,5000,,,,,VFR,,,,,,,,,,,,METAR,22.0
SAVC 140400Z 00000KT CAVOK 13/11 Q1012,SAVC,2021-01-14T04:00:00Z,-45.78,-67.47,13.0,11.0,0,0,,6.21,29.88189,,,,,,,,,,,CAVOK,,,,,,,,VFR,,,,,,,,,,,,METAR,58.0
SASJ 140400Z 18005KT 9999 VCSH FEW008 OVC050 21/19 Q1018,SASJ,2021-01-14T04:00:00Z,-24.38,-65.1,21.0,19.0,180,5,,6.21,30.059055,,,,,,,,,,VCSH,FEW,800,OVC,5000,,,,,VFR,,,,,,,,,,,,METAR,913.0
SASA 140400Z 23004KT 6000 -DZ SCT008 OVC020 19/18 Q1020,SASA,2021-01-14T04:00:00Z,-24.85,-65.48,19.0,18.0,230,4,,3.73,30.11811,,,,,,,,,,-DZ,SCT,800,OVC,2000,,,,,MVFR,,,,,,,,,,,,METAR,1235.0
SARL 140400Z 09014KT CAVOK 21/17 Q1016,SARL,2021-01-14T04:00:00Z,-29.68,-57.15,21.0,17.0,90,14,,6.21,30.0,,,,,,,,,,,CAVOK,,,,,,,,VFR,,,,,,,,,,,,METAR,70.0
SARI 140400Z 00000KT CAVOK 22/22 Q1012,SARI,2021-01-14T04:00:00Z,-25.73,-54.47,22.0,22.0,0,0,,6.21,29.88189,,,,,,,,,,,CAVOK,,,,,,,,VFR,,,,,,,,,,,,METAR,268.0
SARF 140400Z 18007KT CAVOK 26/23 Q1011,SARF,2021-01-14T04:00:00Z,-26.22,-58.22,26.0,23.0,180,7,,6.21,29.852362,,,,,,,,,,,CAVOK,,,,,,,,VFR,,,,,,,,,,,,METAR,65.0
SARE 140400Z 11010KT CAVOK 25/20 Q1013,SARE,2021-01-14T04:00:00Z,-27.43,-59.05,25.0,20.0,110,10,,6.21,29.911417,,,,,,,,,,,CAVOK,,,,,,,,VFR,,,,,,,,,,,,METAR,52.0
SAME 140400Z 36010KT CAVOK 24/16 Q1014,SAME,2021-01-14T04:00:00Z,-32.82,-68.78,24.0,16.0,360,10,,6.21,29.940945,,,,,,,,,,,CAVOK,,,,,,,,VFR,,,,,,,,,,,,METAR,709.0
SAEZ 140400Z 09016KT CAVOK 21/13 Q1020 NOSIG,SAEZ,2021-01-14T04:00:00Z,-34.82,-58.53,21.0,13.0,90,16,,6.21,30.11811,,,,,,TRUE,,,,,CAVOK,,,,,,,,VFR,,,,,,,,,,,,METAR,16.0
SACO 140400Z 01004KT CAVOK 21/18 Q1018 NOSIG,SACO,2021-01-14T04:00:00Z,-31.32,-64.22,21.0,18.0,10,4,,6.21,30.059055,,,,,,TRUE,,,,,CAVOK,,,,,,,,VFR,,,,,,,,,,,,METAR,474.0
SABE 140400Z 09019KT CAVOK 20/13 Q1020 NOSIG,SABE,2021-01-14T04:00:00Z,-34.57,-58.42,20.0,13.0,90,19,,6.21,30.11811,,,,,,TRUE,,,,,CAVOK,,,,,,,,VFR,,,,,,,,,,,,METAR,3.0
SAAR 140400Z 09011KT CAVOK 21/13 Q1017,SAAR,2021-01-14T04:00:00Z,-32.92,-60.77,21.0,13.0,90,11,,6.21,30.029528,,,,,,,,,,,CAVOK,,,,,,,,VFR,,,,,,,,,,,,METAR,24.0
RPVP 140400Z 09008KT 9999 FEW019 31/23 Q1009 RMK A2980,RPVP,2021-01-14T04:00:00Z,9.75,118.75,31.0,23.0,90,8,,6.21,29.793306,,,,,,,,,,,FEW,1900,,,,,,,VFR,,,,,,,,,,,,METAR,15.0
"RPVM 140400Z 04010KT 9999 FEW018CB SCT100 BKN300 30/24 Q1009 RMK A2980 CB SSE,W",RPVM,2021-01-14T04:00:00Z,10.32,123.98,30.0,24.0,40,10,,6.21,29.793306,,,,,,,,,,,FEW,1800,SCT,10000,BKN,30000,,,VFR,,,,,,,,,,,,METAR,9.0
RPVD 140400Z 32006KT 9999 SCT015 OVC070 29/25 Q1008 RMK A2977,RPVD,2021-01-14T04:00:00Z,9.33,123.3,29.0,25.0,320,6,,6.21,29.763779,,,,,,,,,,,SCT,1500,OVC,7000,,,,,VFR,,,,,,,,,,,,METAR,11.0
"RPMZ 140400Z VRB02KT 9999 VCSH SCT016CB BKN090 28/25 Q1009 RMK A2980 CB ALQDS, OHD",RPMZ,2021-01-14T04:00:00Z,6.92,122.07,28.0,25.0,0,2,,6.21,29.793306,,,,,,,,,,VCSH,SCT,1600,BKN,9000,,,,,VFR,,,,,,,,,,,,METAR,8.0
RPMR 140400Z 16009KT 9999 FEW018 31/24 Q1008 RMK A2977,RPMR,2021-01-14T04:00:00Z,6.05,125.1,31.0,24.0,160,9,,6.21,29.763779,,,,,,,,,,,FEW,1800,,,,,,,VFR,,,,,,,,,,,,METAR,47.0
"RPMD 140400Z 06005KT 350V110 9999 FEW015CB BKN290 32/24 Q1008 RMK A2977 CB NE,S",RPMD,2021-01-14T04:00:00Z,7.12,125.65,32.0,24.0,60,5,,6.21,29.763779,,,,,,,,,,,FEW,1500,BKN,29000,,,,,VFR,,,,,,,,,,,,METAR,19.0
RPLL 140400Z 30005KT 9999 FEW023 SCT300 29/22 Q1010 NOSIG RMK A2983,RPLL,2021-01-14T04:00:00Z,14.52,121.0,29.0,22.0,300,5,,6.21,29.822834,,,,,,TRUE,,,,,FEW,2300,SCT,30000,,,,,VFR,,,,,,,,,,,,METAR,15.0
RPLI 140400Z 36010KT 9999 FEW018 28/21 Q1011 NOSIG RMK A2985,RPLI,2021-01-14T04:00:00Z,18.17,120.52,28.0,21.0,360,10,,6.21,29.852362,,,,,,TRUE,,,,,FEW,1800,,,,,,,VFR,,,,,,,,,,,,SPECI,5.0
RPLC 140400Z 02004KT 9999 SCT020 BKN300 30/20 Q1012 NOSIG RMK A2988,RPLC,2021-01-14T04:00:00Z,15.18,120.55,30.0,20.0,20,4,,6.21,29.88189,,,,,,TRUE,,,,,SCT,2000,BKN,30000,,,,,VFR,,,,,,,,,,,,METAR,138.0
RPLB 140400Z 05012KT 020V090 9999 FEW020 BKN300 31/19 Q1011 NOSIG RMK A2985,RPLB,2021-01-14T04:00:00Z,14.8,120.27,31.0,19.0,50,12,,6.21,29.852362,,,,,,TRUE,,,,,FEW,2000,BKN,30000,,,,,VFR,,,,,,,,,,,,METAR,19.0
ROYN 140400Z AUTO 04009KT 9999 NSC 20/10 Q1017,ROYN,2021-01-14T04:00:00Z,24.47,122.97,20.0,10.0,40,9,,6.21,30.029528,,,TRUE,,,,,,,,CLR,,,,,,,,VFR,,,,,,,,,,,,METAR,21.0
RORY 140400Z AUTO 06010KT 020V080 9999 // FEW036 SCT038 BKN047 19/10 Q1018,RORY,2021-01-14T04:00:00Z,27.05,128.4,19.0,10.0,60,10,,6.21,30.059055,,,TRUE,,,,,,,,FEW,3600,SCT,3800,BKN,4700,,,VFR,,,,,,,,,,,,METAR,13.0
RORS 140400Z 08010KT CAVOK 21/10 Q1017,RORS,2021-01-14T04:00:00Z,24.82,125.15,21.0,10.0,80,10,,6.21,30.029528,,,,,,,,,,,CAVOK,,,,,,,,VFR,,,,,,,,,,,,METAR,13.0
RORK 140400Z AUTO 06020KT 9999 FEW032 OVC042 20/13 Q1017,RORK,2021-01-14T04:00:00Z,25.93,131.32,20.0,13.0,60,20,,6.21,30.029528,,,TRUE,,,,,,,,FEW,3200,OVC,4200,,,,,VFR,,,,,,,,,,,,METAR,11.0
ROMY 140400Z 07010KT 030V100 9999 FEW038 SCT050 21/10 Q1017,ROMY,2021-01-14T04:00:00Z,24.78,125.27,21.0,10.0,70,10,,6.21,30.029528,,,,,,,,,,,FEW,3800,SCT,5000,,,,,VFR,,,,,,,,,,,,METAR,38.0
ROMD 140400Z AUTO 05015KT 9999 FEW030 OVC040 19/13 Q1016,ROMD,2021-01-14T04:00:00Z,25.83,131.25,19.0,13.0,50,15,,6.21,30.0,,,TRUE,,,,,,,,FEW,3000,OVC,4000,,,,,VFR,,,,,,,,,,,,METAR,45.0
ROIG 140400Z 04012KT 9999 BKN041 20/12 Q1016,ROIG,2021-01-14T04:00:00Z,24.33,124.18,20.0,12.0,40,12,,6.21,30.0,,,,,,,,,,,BKN,4100,,,,,,,VFR,,,,,,,,,,,,METAR,26.0
ROAH 140400Z 04010KT 010V080 9999 SCT040 BKN050 19/10 Q1018 RMK 4CU040 6SC050 A3006,ROAH,2021-01-14T04:00:00Z,26.18,127.65,19.0,10.0,40,10,,6.21,30.059055,,,,,,,,,,,SCT,4000,BKN,5000,,,,,VFR,,,,,,,,,,,,METAR,6.0
RKTU 140400Z 01001KT CAVOK 06/M07 Q1022,RKTU,2021-01-14T04:00:00Z,36.7,127.5,6.0,-7.0,10,1,,6.21,30.177166,,,,,,,,,,,CAVOK,,,,,,,,VFR,,,,,,,,,,,,METAR,46.0
RKTN 140400Z 32002KT CAVOK 11/M13 Q1022,RKTN,2021-01-14T04:00:00Z,35.88,128.65,11.0,-13.0,320,2,,6.21,30.177166,,,,,,,,,,,CAVOK,,,,,,,,VFR,,,,,,,,,,,,METAR,25.0
RKSS 140400Z 11008KT 080V140 CAVOK 05/M15 Q1022 NOSIG,RKSS,2021-01-14T04:00:00Z,37.55,126.78,5.0,-15.0,110,8,,6.21,30.177166,,,,,,TRUE,,,,,CAVOK,,,,,,,,VFR,,,,,,,,,,,,METAR,18.0
RKSM 140400Z 13003KT 9999 SKC 05/M12 A3020,RKSM,2021-01-14T04:00:00Z,37.43,127.12,5.0,-12.0,130,3,,6.21,30.200787,,,,,,,,,,,SKC,,,,,,,,VFR,,,,,,,,,,,,METAR,18.0
RKSI 140400Z 13006KT 050V170 CAVOK 04/M11 Q1022 NOSIG,RKSI,2021-01-14T04:00:00Z,37.47,126.45,4.0,-11.0,130,6,,6.21,30.177166,,,,,,TRUE,,,,,CAVOK,,,,,,,,VFR,,,,,,,,,,,,METAR,7.0
RKPK 140400Z 32004KT CAVOK 13/M11 Q1021,RKPK,2021-01-14T04:00:00Z,35.17,128.93,13.0,-11.0,320,4,,6.21,30.147638,,,,,,,,,,,CAVOK,,,,,,,,VFR,,,,,,,,,,,,METAR,3.0
RKPC 140400Z 05007KT 010V090 CAVOK 13/06 Q1020 NOSIG,RKPC,2021-01-14T04:00:00Z,33.5,126.48,13.0,6.0,50,7,,6.21,30.11811,,,,,,TRUE,,,,,CAVOK,,,,,,,,VFR,,,,,,,,,,,,METAR,23.0
RKNY 140400Z 10006KT CAVOK 06/M11 Q1021 NOSIG,RKNY,2021-01-14T04:00:00Z,38.07,128.67,6.0,-11.0,100,6,,6.21,30.147638,,,,,,TRUE,,,,,CAVOK,,,,,,,,VFR,,,,,,,,,,,,METAR,76.0
RKJB 140400Z 14004KT 120V200 8000 FEW030 11/02 Q1020 NOSIG,RKJB,2021-01-14T04:00:00Z,34.98,126.38,11.0,2.0,140,4,,4.97,30.11811,,,,,,TRUE,,,,,FEW,3000,,,,,,,MVFR,,,,,,,,,,,,METAR,16.0
RJTT 140400Z 17006KT 150V210 9999 FEW030 13/04 Q1015 NOSIG RMK 1CU030 A2998,RJTT,2021-01-14T04:00:00Z,35.55,139.77,13.0,4.0,170,6,,6.21,29.970472,,,,,,TRUE,,,,,FEW,3000,,,,,,,VFR,,,,,,,,,,,,SPECI,5.0
RJTO 140400Z 21009KT 170V250 CAVOK 15/04 Q1014,RJTO,2021-01-14T04:00:00Z,34.77,139.37,15.0,4.0,210,9,,6.21,29.940945,,,,,,,,,,,CAVOK,,,,,,,,VFR,,,,,,,,,,,,METAR,37.0
RJTI 140400Z 12004KT 090V150 CAVOK 11/03 Q1015,RJTI,2021-01-14T04:00:00Z,35.63,139.83,11.0,3.0,120,4,,6.21,29.970472,,,,,,,,,,,CAVOK,,,,,,,,VFR,,,,,,,,,,,,METAR,4.0
RJTF 140400Z VRB03KT 9999 FEW030 13/01 Q1015,RJTF,2021-01-14T04:00:00Z,35.67,139.52,13.0,1.0,0,3,,6.21,29.970472,,,,,,,,,,,FEW,3000,,,,,,,VFR,,,,,,,,,,,,METAR,37.0
RJSY 140400Z 31014G24KT 270V340 9999 VCSH FEW015 BKN040 BKN050 04/M04 Q1019,RJSY,2021-01-14T04:00:00Z,38.82,139.78,4.0,-4.0,310,14,24,6.21,30.088583,,,,,,,,,,VCSH,FEW,1500,BKN,4000,BKN,5000,,,VFR,,,,,,,,,,,,METAR,17.0
RJSS 140400Z 01010KT 9999 FEW020 SCT030 BKN040 06/01 Q1015,RJSS,2021-01-14T04:00:00Z,38.13,140.92,6.0,1.0,10,10,,6.21,29.970472,,,,,,,,,,,FEW,2000,SCT,3000,BKN,4000,,,VFR,,,,,,,,,,,,METAR,5.0
RJSR 140400Z 27020G30KT 9999 FEW040 SCT/// 01/M09 Q1016,RJSR,2021-01-14T04:00:00Z,40.18,140.37,1.0,-9.0,270,20,30,6.21,30.0,,,,,,,,,,,FEW,4000,,,,,,,VFR,,,,,,,,,,,,SPECI,83.0
RJSN 140400Z 33019KT 9999 FEW020 BKN030 BKN060 06/01 Q1019,RJSN,2021-01-14T04:00:00Z,37.95,139.12,6.0,1.0,330,19,,6.21,30.088583,,,,,,,,,,,FEW,2000,BKN,3000,BKN,6000,,,MVFR,,,,,,,,,,,,METAR,4.0
RJSM 140400Z 29028G38KT 9999 FEW015 SCT050 01/M10 Q1013,RJSM,2021-01-14T04:00:00Z,40.7,141.37,1.0,-10.0,290,28,38,6.21,29.911417,,,,,,,,,,,FEW,1500,SCT,5000,,,,,VFR,,,,,,,,,,,,METAR,31.0
RJSK 140400Z 30017KT 270V340 9999 VCSH FEW010 SCT030 BKN040 02/M07 Q1017,RJSK,2021-01-14T04:00:00Z,39.62,140.22,2.0,-7.0,300,17,,6.21,30.029528,,,,,,,,,,VCSH,FEW,1000,SCT,3000,BKN,4000,,,VFR,,,,,,,,,,,,METAR,95.0
RJSI 140400Z 28013G27KT 260V320 9999 -SHSN FEW015 SCT030 03/M03 Q1015,RJSI,2021-01-14T04:00:00Z,39.42,141.13,3.0,-3.0,280,13,27,6.21,29.970472,,,,,,,,,,-SHSN,FEW,1500,SCT,3000,,,,,VFR,,,,,,,,,,,,METAR,89.0
RJSF 140400Z 34016KT 9999 -SHRA FEW015 SCT030 BKN040 05/02 Q1015,RJSF,2021-01-14T04:00:00Z,37.22,140.42,5.0,2.0,340,16,,6.21,29.970472,,,,,,,,,,-SHRA,FEW,1500,SCT,3000,BKN,4000,,,VFR,,,,,,,,,,,,METAR,373.0
RJSC 140400Z 34008KT 300V020 9999 FEW010 SCT020 BKN040 03/00 Q1017,RJSC,2021-01-14T04:00:00Z,38.42,140.37,3.0,0.0,340,8,,6.21,30.029528,,,,,,,,,,,FEW,1000,SCT,2000,BKN,4000,,,VFR,,,,,,,,,,,,METAR,104.0
RJSA 140400Z 27023G33KT 9999 VCSH FEW020 SCT030 BKN050 M01/M09 Q1013,RJSA,2021-01-14T04:00:00Z,40.72,140.68,-1.0,-9.0,270,23,33,6.21,29.911417,,,,,,,,,,VCSH,FEW,2000,SCT,3000,BKN,5000,,,VFR,,,,,,,,,,,,METAR,196.0
RJOY 140400Z 26008KT 210V290 9999 FEW035 13/04 Q1020,RJOY,2021-01-14T04:00:00Z,34.6,135.6,13.0,4.0,260,8,,6.21,30.11811,,,,,,,,,,,FEW,3500,,,,,,,VFR,,,,,,,,,,,,METAR,10.0
RJOW 140400Z 32005KT 280V060 9999 FEW025 14/04 Q1021,RJOW,2021-01-14T04:00:00Z,34.67,131.8,14.0,4.0,320,5,,6.21,30.147638,,,,,,,,,,,FEW,2500,,,,,,,VFR,,,,,,,,,,,,METAR,54.0
RJOT 140400Z 29010KT 260V330 9999 FEW035 14/04 Q1020,RJOT,2021-01-14T04:00:00Z,34.22,134.02,14.0,4.0,290,10,,6.21,30.11811,,,,,,,,,,,FEW,3500,,,,,,,VFR,,,,,,,,,,,,METAR,181.0
RJOS 140400Z 03013KT 9999 FEW030 13/05 Q1020,RJOS,2021-01-14T04:00:00Z,34.12,134.62,13.0,5.0,30,13,,6.21,30.11811,,,,,,,,,,,FEW,3000,,,,,,,VFR,,,,,,,,,,,,METAR,3.0
RJOR 140400Z 36009KT 9999 FEW030 BKN040 10/05 Q1021,RJOR,2021-01-14T04:00:00Z,35.52,134.17,10.0,5.0,360,9,,6.21,30.147638,,,,,,,,,,,FEW,3000,BKN,4000,,,,,VFR,,,,,,,,,,,,METAR,11.0
RJOO 140400Z 21006KT 140V250 9999 FEW035 12/05 Q1020 RMK 1CU035 A3013,RJOO,2021-01-14T04:00:00Z,34.78,135.43,12.0,5.0,210,6,,6.21,30.11811,,,,,,,,,,,FEW,3500,,,,,,,VFR,,,,,,,,,,,,SPECI,11.0
RJOM 140400Z 24005KT 9999 FEW030 14/06 Q1021,RJOM,2021-01-14T04:00:00Z,33.82,132.68,14.0,6.0,240,5,,6.21,30.147638,,,,,,,,,,,FEW,3000,,,,,,,VFR,,,,,,,,,,,,METAR,3.0
RJOK 140400Z 22003KT 170V270 9999 FEW035 15/04 Q1019,RJOK,2021-01-14T04:00:00Z,33.53,133.67,15.0,4.0,220,3,,6.21,30.088583,,,,,,,,,,,FEW,3500,,,,,,,VFR,,,,,,,,,,,,METAR,7.0
RJOH 140400Z 35008KT 280V030 9999 FEW035 BKN045 11/05 Q1021,RJOH,2021-01-14T04:00:00Z,35.48,133.25,11.0,5.0,350,8,,6.21,30.147638,,,,,,,,,,,FEW,3500,BKN,4500,,,,,VFR,,,,,,,,,,,,METAR,6.0
RJOC 140400Z 29010KT 9999 FEW035 SCT045 13/03 Q1021,RJOC,2021-01-14T04:00:00Z,35.42,132.88,13.0,3.0,290,10,,6.21,30.147638,,,,,,,,,,,FEW,3500,SCT,4500,,,,,VFR,,,,,,,,,,,,METAR,2.0
RJOB 140400Z 24008KT 180V270 9999 FEW030 SCT040 13/01 Q1020,RJOB,2021-01-14T04:00:00Z,34.75,133.85,13.0,1.0,240,8,,6.21,30.11811,,,,,,,,,,,FEW,3000,SCT,4000,,,,,VFR,,,,,,,,,,,,METAR,242.0
RJOA 140400Z 29007KT 230V330 9999 FEW030 12/01 Q1020,RJOA,2021-01-14T04:00:00Z,34.43,132.92,12.0,1.0,290,7,,6.21,30.11811,,,,,,,,,,,FEW,3000,,,,,,,VFR,,,,,,,,,,,,METAR,318.0
RJNW 140400Z 32006KT 260V070 9999 FEW015 SCT030 05/02 Q1020,RJNW,2021-01-14T04:00:00Z,37.3,136.97,5.0,2.0,320,6,,6.21,30.11811,,,,,,,,,,,FEW,1500,SCT,3000,,,,,VFR,,,,,,,,,,,,METAR,222.0
RJNT 140400Z 14003KT 060V200 9999 -SHRA FEW005 SCT030 BKN035 06/01 Q1020,RJNT,2021-01-14T04:00:00Z,36.63,137.18,6.0,1.0,140,3,,6.21,30.11811,,,,,,,,,,-SHRA,FEW,500,SCT,3000,BKN,3500,,,VFR,,,,,,,,,,,,METAR,30.0
RJNS 140400Z 27016KT 9999 FEW030 15/M02 Q1014,RJNS,2021-01-14T04:00:00Z,34.8,138.18,15.0,-2.0,270,16,,6.21,29.940945,,,,,,,,,,,FEW,3000,,,,,,,VFR,,,,,,,,,,,,METAR,133.0
RJNK 140400Z VRB02KT 9999 FEW020 BKN030 BKN050 10/05 Q1020,RJNK,2021-01-14T04:00:00Z,36.38,136.42,10.0,5.0,0,2,,6.21,30.11811,,,,,,,,,,,FEW,2000,BKN,3000,BKN,5000,,,MVFR,,,,,,,,,,,,METAR,7.0
RJKI 140400Z AUTO 05011KT 9999 BKN042 18/08 Q1019,RJKI,2021-01-14T04:00:00Z,28.32,129.92,18.0,8.0,50,11,,6.21,30.088583,,,TRUE,,,,,,,,BKN,4200,,,,,,,VFR,,,,,,,,,,,,METAR,6.0
RJKA 140400Z 03010KT 9999 FEW040 BKN045 18/09 Q1019,RJKA,2021-01-14T04:00:00Z,28.42,129.72,18.0,9.0,30,10,,6.21,30.088583,,,,,,,,,,,FEW,4000,BKN,4500,,,,,VFR,,,,,,,,,,,,METAR,7.0
RJGG 140400Z 01012KT 9999 FEW030 11/02 Q1019 NOSIG,RJGG,2021-01-14T04:00:00Z,34.87,136.8,11.0,2.0,10,12,,6.21,30.088583,,,,,,TRUE,,,,,FEW,3000,,,,,,,VFR,,,,,,,,,,,,METAR,5.0
RJFU 140400Z 02004KT 9999 SCT045 14/07 Q1020,RJFU,2021-01-14T04:00:00Z,32.92,129.92,14.0,7.0,20,4,,6.21,30.11811,,,,,,,,,,,SCT,4500,,,,,,,VFR,,,,,,,,,,,,METAR,2.0
RJFT 140400Z VRB03KT 9999 FEW040 15/03 Q1020,RJFT,2021-01-14T04:00:00Z,32.83,130.85,15.0,3.0,0,3,,6.21,30.11811,,,,,,,,,,,FEW,4000,,,,,,,VFR,,,,,,,,,,,,METAR,188.0
RJFS 140400Z 20003KT 9999 FEW040 11/06 Q1021,RJFS,2021-01-14T04:00:00Z,33.15,130.3,11.0,6.0,200,3,,6.21,30.147638,,,,,,,,,,,FEW,4000,,,,,,,VFR,,,,,,,,,,,,METAR,2.0
RJFR 140400Z 06003KT 9999 FEW030 11/06 Q1021,RJFR,2021-01-14T04:00:00Z,33.83,131.03,11.0,6.0,60,3,,6.21,30.147638,,,,,,,,,,,FEW,3000,,,,,,,VFR,,,,,,,,,,,,METAR,9.0
RJFO 140400Z 03010KT 9999 FEW035 SCT040 12/07 Q1020,RJFO,2021-01-14T04:00:00Z,33.47,131.73,12.0,7.0,30,10,,6.21,30.11811,,,,,,,,,,,FEW,3500,SCT,4000,,,,,VFR,,,,,,,,,,,,METAR,3.0
RJFM 140400Z 09006KT 9999 FEW030 16/03 Q1020,RJFM,2021-01-14T04:00:00Z,31.87,131.43,16.0,3.0,90,6,,6.21,30.11811,,,,,,,,,,,FEW,3000,,,,,,,VFR,,,,,,,,,,,,METAR,10.0
RJFK 140400Z VRB03KT 9999 FEW040 SCT/// 14/04 Q1020 RMK 2CU040 A3012 VOLCANIC ASH CLOUD S,RJFK,2021-01-14T04:00:00Z,31.8,130.72,14.0,4.0,0,3,,6.21,30.11811,,,,,,,,,,,FEW,4000,,,,,,,VFR,,,,,,,,,,,,SPECI,271.0
RJFG 140400Z VRB02KT 9999 FEW030 14/03 Q1020,RJFG,2021-01-14T04:00:00Z,30.62,130.98,14.0,3.0,0,2,,6.21,30.11811,,,,,,,,,,,FEW,3000,,,,,,,VFR,,,,,,,,,,,,METAR,234.0
RJFF 140400Z 33004KT 280V020 9999 FEW030 14/06 Q1021 NOSIG RMK 1CU030 A3015,RJFF,2021-01-14T04:00:00Z,33.58,130.45,14.0,6.0,330,4,,6.21,30.147638,,,,,,TRUE,,,,,FEW,3000,,,,,,,VFR,,,,,,,,,,,,METAR,7.0
RJFE 140400Z 12003KT 060V180 9999 FEW035 SCT040 14/07 Q1020,RJFE,2021-01-14T04:00:00Z,32.67,128.82,14.0,7.0,120,3,,6.21,30.11811,,,,,,,,,,,FEW,3500,SCT,4000,,,,,VFR,,,,,,,,,,,,METAR,80.0
RJEC 140400Z 25011KT 9999 -SHSN FEW005 SCT015 BKN030 M03/M13 Q1004,RJEC,2021-01-14T04:00:00Z,43.67,142.43,-3.0,-13.0,250,11,,6.21,29.64567,,,,,,,,,,-SHSN,FEW,500,SCT,1500,BKN,3000,,,MVFR,,,,,,,,,,,,METAR,209.0
RJEB 140400Z 24023KT 9999 R32/2000N BLSN FEW020 M01/M09 Q0999,RJEB,2021-01-14T04:00:00Z,44.3,143.4,-1.0,-9.0,240,23,,6.21,29.498032,,,,,,,,,,BLSN,FEW,2000,,,,,,,VFR,,,,,,,,,,,,METAR,24.0
RJDT 140400Z 34007KT 290V010 9999 FEW040 13/03 Q1020,RJDT,2021-01-14T04:00:00Z,34.28,129.32,13.0,3.0,340,7,,6.21,30.11811,,,,,,,,,,,FEW,4000,,,,,,,VFR,,,,,,,,,,,,METAR,61.0
RJDC 140400Z 23005KT 9999 FEW025 13/06 Q1020,RJDC,2021-01-14T04:00:00Z,33.92,131.27,13.0,6.0,230,5,,6.21,30.11811,,,,,,,,,,,FEW,2500,,,,,,,VFR,,,,,,,,,,,,METAR,5.0
RJCN 140400Z 23012KT 9999 FEW020 SCT040 01/M03 Q0999,RJCN,2021-01-14T04:00:00Z,43.57,144.97,1.0,-3.0,230,12,,6.21,29.498032,,,,,,,,,,,FEW,2000,SCT,4000,,,,,VFR,,,,,,,,,,,,METAR,62.0
RJCM 140400Z 26009G19KT 210V330 9999 VCSH FEW015 01/M10 Q1001,RJCM,2021-01-14T04:00:00Z,43.88,144.17,1.0,-10.0,260,9,19,6.21,29.557087,,,,,,,,,,VCSH,FEW,1500,,,,,,,VFR,,,,,,,,,,,,METAR,30.0
RJCK 140400Z 27014G27KT 230V320 9999 FEW015 SCT030 01/M07 Q1002,RJCK,2021-01-14T04:00:00Z,43.03,144.18,1.0,-7.0,270,14,27,6.21,29.586615,,,,,,,,,,,FEW,1500,SCT,3000,,,,,VFR,,,,,,,,,,,,METAR,94.0
RJCC 140400Z 30010KT 9999 -SHSN FEW008 BKN050 M01/M05 Q1009 RMK 1ST008 5CU050 A2980,RJCC,2021-01-14T04:00:00Z,42.77,141.68,-1.0,-5.0,300,10,,6.21,29.793306,,,,,,,,,,-SHSN,FEW,800,BKN,5000,,,,,VFR,,,,,,,,,,,,SPECI,19.0
RJCB 140400Z 29007KT 250V330 9999 FEW015 SCT060 M02/M07 Q1003,RJCB,2021-01-14T04:00:00Z,42.72,143.22,-2.0,-7.0,290,7,,6.21,29.616142,,,,,,,,,,,FEW,1500,SCT,6000,,,,,VFR,,,,,,,,,,,,METAR,149.0
RJBT 140400Z 01007KT 9999 FEW015 BKN025 10/05 Q1020,RJBT,2021-01-14T04:00:00Z,35.5,134.8,10.0,5.0,10,7,,6.21,30.11811,,,,,,,,,,,FEW,1500,BKN,2500,,,,,MVFR,,,,,,,,,,,,METAR,172.0
RJBE 140400Z 24009KT 9999 FEW035 11/05 Q1021,RJBE,2021-01-14T04:00:00Z,34.63,135.23,11.0,5.0,240,9,,6.21,30.147638,,,,,,,,,,,FEW,3500,,,,,,,VFR,,,,,,,,,,,,METAR,5.0
RJBD 140400Z 34017KT 9999 FEW040 SCT045 14/03 Q1020,RJBD,2021-01-14T04:00:00Z,33.67,135.37,14.0,3.0,340,17,,6.21,30.11811,,,,,,,,,,,FEW,4000,SCT,4500,,,,,VFR,,,,,,,,,,,,METAR,91.0
RJBB 140400Z VRB02KT 9999 FEW030 11/04 Q1021 BECMG 28006KT,RJBB,2021-01-14T04:00:00Z,34.43,135.25,11.0,4.0,0,2,,6.21,30.147638,,,,,,,,,,,FEW,3000,,,,,,,VFR,,,,,,,,,,,,METAR,8.0
RJAH 140400Z 26009KT 9999 FEW050 13/M03 Q1014,RJAH,2021-01-14T04:00:00Z,36.17,140.42,13.0,-3.0,260,9,,6.21,29.940945,,,,,,,,,,,FEW,5000,,,,,,,VFR,,,,,,,,,,,,METAR,31.0
RJAF 140400Z 33008KT 290V360 9999 FEW060 11/M04 Q1015,RJAF,2021-01-14T04:00:00Z,36.17,137.92,11.0,-4.0,330,8,,6.21,29.970472,,,,,,,,,,,FEW,6000,,,,,,,VFR,,,,,,,,,,,,METAR,652.0
RJAA 140400Z 25005KT 220V310 CAVOK 13/01 Q1015 NOSIG RMK A2997,RJAA,2021-01-14T04:00:00Z,35.77,140.38,13.0,1.0,250,5,,6.21,29.970472,,,,,,TRUE,,,,,CAVOK,,,,,,,,VFR,,,,,,,,,,,,SPECI,36.0
RCTP 140400Z 31007KT 290V350 CAVOK 19/10 Q1017 NOSIG RMK A3004,RCTP,2021-01-14T04:00:00Z,25.07,121.22,19.0,10.0,310,7,,6.21,30.029528,,,,,,TRUE,,,,,CAVOK,,,,,,,,VFR,,,,,,,,,,,,METAR,33.0
RCSS 140400Z 08009KT 050V110 9999 FEW040 22/11 Q1017 NOSIG RMK A3004,RCSS,2021-01-14T04:00:00Z,25.07,121.55,22.0,11.0,80,9,,6.21,30.029528,,,,,,TRUE,,,,,FEW,4000,,,,,,,VFR,,,,,,,,,,,,SPECI,8.0
RCNN 140400Z 31003KT 9999 FEW012 21/08 Q1016 NOSIG RMK A3002,RCNN,2021-01-14T04:00:00Z,22.93,120.2,21.0,8.0,310,3,,6.21,30.0,,,,,,TRUE,,,,,FEW,1200,,,,,,,VFR,,,,,,,,,,,,SPECI,15.0
RCMQ 140400Z 35007KT 9999 FEW012 20/10 Q1016 NOSIG RMK A3001,RCMQ,2021-01-14T04:00:00Z,24.27,120.62,20.0,10.0,350,7,,6.21,30.0,,,,,,TRUE,,,,,FEW,1200,,,,,,,VFR,,,,,,,,,,,,SPECI,202.0
RCKH 140400Z 28009KT 240V350 9999 FEW016 22/08 Q1016 NOSIG RMK A3001,RCKH,2021-01-14T04:00:00Z,22.57,120.33,22.0,8.0,280,9,,6.21,30.0,,,,,,TRUE,,,,,FEW,1600,,,,,,,VFR,,,,,,,,,,,,METAR,6.0
RCFN 140400Z VRB06KT 9999 FEW025 21/09 Q1018 NOSIG RMK A3006,RCFN,2021-01-14T04:00:00Z,22.77,121.1,21.0,9.0,0,6,,6.21,30.059055,,,,,,TRUE,,,,,FEW,2500,,,,,,,VFR,,,,,,,,,,,,SPECI,42.0
PLCH 140400Z 11010G21KT 9999 FEW020 26/21 Q1010,PLCH,2021-01-14T04:00:00Z,1.98,-157.35,26.0,21.0,110,10,21,6.21,29.822834,,,,,,,,,,,FEW,2000,,,,,,,VFR,,,,,,,,,,,,METAR,5.0
OTHH 140400Z 27004KT 8000 NSC 13/06 Q1018 NOSIG,OTHH,2021-01-14T04:00:00Z,25.27,51.6,13.0,6.0,270,4,,4.97,30.059055,,,,,,TRUE,,,,,CLR,,,,,,,,MVFR,,,,,,,,,,,,METAR,3.0
OSLK 140400Z 24007KT 9999 FEW026 SCT030 16/09 Q1007,OSLK,2021-01-14T04:00:00Z,35.4,35.95,16.0,9.0,240,7,,6.21,29.734253,,,,,,,,,,,FEW,2600,SCT,3000,,,,,VFR,,,,,,,,,,,,METAR,47.0
OSDI 140400Z 19003KT 9999 FEW030 SCT100 09/04 Q1009,OSDI,2021-01-14T04:00:00Z,33.42,36.52,9.0,4.0,190,3,,6.21,29.793306,,,,,,,,,,,FEW,3000,SCT,10000,,,,,VFR,,,,,,,,,,,,METAR,614.0
ORSU 140400Z 33005KT CAVOK 04/02 Q1018,ORSU,2021-01-14T04:00:00Z,35.57,45.32,4.0,2.0,330,5,,6.21,30.059055,,,,,,,,,,,CAVOK,,,,,,,,VFR,,,,,,,,,,,,METAR,760.0
ORNI 140400Z 10003KT 8000 SCT040 10/M02 Q1015 NOSIG,ORNI,2021-01-14T04:00:00Z,31.98,44.4,10.0,-2.0,100,3,,4.97,29.970472,,,,,,TRUE,,,,,SCT,4000,,,,,,,MVFR,,,,,,,,,,,,METAR,33.0
ORMM 140400Z 13006KT 6000 NSC 09/03 Q1017 NOSIG,ORMM,2021-01-14T04:00:00Z,30.53,47.67,9.0,3.0,130,6,,3.73,30.029528,,,,,,TRUE,,,,,CLR,,,,,,,,MVFR,,,,,,,,,,,,METAR,2.0
ORER 140400Z 12012KT CAVOK 14/00 Q1016 NOSIG,ORER,2021-01-14T04:00:00Z,36.23,43.97,14.0,0.0,120,12,,6.21,30.0,,,,,,TRUE,,,,,CAVOK,,,,,,,,VFR,,,,,,,,,,,,METAR,397.0
ORBI 140400Z 11010KT CAVOK 12/00 Q1014 NOSIG,ORBI,2021-01-14T04:00:00Z,33.27,44.23,12.0,0.0,110,10,,6.21,29.940945,,,,,,TRUE,,,,,CAVOK,,,,,,,,VFR,,,,,,,,,,,,METAR,37.0
OPST 140400Z 09004KT 1500 BR SCT040 SCT100 10/08 Q1019 BECMG 2000 RH87,OPST,2021-01-14T04:00:00Z,32.53,74.37,10.0,8.0,90,4,,0.93,30.088583,,,,,,,,,,BR,SCT,4000,SCT,10000,,,,,LIFR,,,,,,,,,,,,METAR,234.0
OPSK 140400Z 00000KT 1200 HZ FEW035 SCT100 08/05 Q1014 BECMG 1500 HZ,OPSK,2021-01-14T04:00:00Z,27.72,68.8,8.0,5.0,0,0,,0.75,29.940945,,,,,,,,,,HZ,FEW,3500,SCT,10000,,,,,LIFR,,,,,,,,,,,,METAR,62.0
OPNH 140400Z 04504KT 1500 FU FEW100 11/05 Q1015 BECOM 2000 FU,OPNH,2021-01-14T04:00:00Z,26.22,68.38,11.0,5.0,45,4,,0.93,29.970472,,,,,,,,,,FU FU,FEW,10000,,,,,,,LIFR,,,,,,,,,,,,METAR,30.0
OMSJ 140400Z 15003KT 120V250 3500 HZ FEW035 15/12 Q1018 BECMG 5000,OMSJ,2021-01-14T04:00:00Z,25.32,55.52,15.0,12.0,150,3,,2.17,30.059055,,,,,,,,,,HZ,FEW,3500,,,,,,,IFR,,,,,,,,,,,,METAR,33.0
OMRK 140400Z 18007KT 6000 FEW040 16/13 Q1018 A3008,OMRK,2021-01-14T04:00:00Z,25.62,55.93,16.0,13.0,180,7,,3.73,30.059055,,,,,,,,,,,FEW,4000,,,,,,,MVFR,,,,,,,,,,,,METAR,18.0
OMFJ 140400Z 29014KT 8000 FEW020 20/12 Q1016 A3002,OMFJ,2021-01-14T04:00:00Z,25.1,56.32,20.0,12.0,290,14,,4.97,30.0,,,,,,,,,,,FEW,2000,,,,,,,MVFR,,,,,,,,,,,,METAR,27.0
OMDW 140400Z 21007KT 6000 NSC 15/11 Q1018 NOSIG,OMDW,2021-01-14T04:00:00Z,24.9,55.17,15.0,11.0,210,7,,3.73,30.059055,,,,,,TRUE,,,,,CLR,,,,,,,,MVFR,,,,,,,,,,,,METAR,34.0
OMDB 140400Z 17006KT 4000 HZ FEW040 15/12 Q1017 BECMG 5000,OMDB,2021-01-14T04:00:00Z,25.25,55.37,15.0,12.0,170,6,,2.49,30.029528,,,,,,,,,,HZ,FEW,4000,,,,,,,IFR,,,,,,,,,,,,METAR,5.0
OMAL 140400Z 02002KT 3000 BR FEW020 12/11 Q1019 NOSIG,OMAL,2021-01-14T04:00:00Z,24.25,55.6,12.0,11.0,20,2,,1.86,30.088583,,,,,,TRUE,,,,BR,FEW,2000,,,,,,,IFR,,,,,,,,,,,,METAR,247.0
OMAD 140400Z 20005KT 5000 HZ NSC 15/12 Q1018 BECMG 7000 NSW,OMAD,2021-01-14T04:00:00Z,24.42,54.47,15.0,12.0,200,5,,3.11,30.059055,,,,,,,,,,HZ,CLR,,,,,,,,MVFR,,,,,,,,,,,,METAR,9.0
OMAA 140400Z 20009KT 3500 HZ NSC 13/11 Q1018 BECMG 7000 NSW,OMAA,2021-01-14T04:00:00Z,24.42,54.65,13.0,11.0,200,9,,2.17,30.059055,,,,,,,,,,HZ,CLR,,,,,,,,IFR,,,,,,,,,,,,METAR,13.0
OLBA 140400Z 19013KT 150V220 6000 -SHRA FEW020CB BKN023 14/12 Q1010 RERA,OLBA,2021-01-14T04:00:00Z,33.82,35.48,14.0,12.0,190,13,,3.73,29.822834,,,,,,,,,,-SHRA,FEW,2000,BKN,2300,,,,,MVFR,,,,,,,,,,,,METAR,29.0
OKBK 140400Z 17006KT 7000 NSC 07/01 Q1017 NOSIG,OKBK,2021-01-14T04:00:00Z,29.22,47.97,7.0,1.0,170,6,,4.35,30.029528,,,,,,TRUE,,,,,CLR,,,,,,,,MVFR,,,,,,,,,,,,METAR,55.0
OJAM 140400Z 24010KT 5000 BR FEW030 SCT080 11/09 Q1011 NOSIG,OJAM,2021-01-14T04:00:00Z,31.98,35.98,11.0,9.0,240,10,,3.11,29.852362,,,,,,TRUE,,,,BR,FEW,3000,SCT,8000,,,,,MVFR,,,,,,,,,,,,METAR,765.0
OIZJ 140400Z 34006KT 6000 NSC 18/11 Q1015,OIZJ,2021-01-14T04:00:00Z,25.65,57.8,18.0,11.0,340,6,,3.73,29.970472,,,,,,,,,,,CLR,,,,,,,,MVFR,,,,,,,,,,,,METAR,6.0
OIZI 140400Z 00000KT CAVOK 07/M23 Q1018,OIZI,2021-01-14T04:00:00Z,27.23,60.72,7.0,-23.0,0,0,,6.21,30.059055,,,,,,,,,,,CAVOK,,,,,,,,VFR,,,,,,,,,,,,METAR,622.0
OIZH 140400Z 00000KT CAVOK 01/M23 Q1022 A3018,OIZH,2021-01-14T04:00:00Z,29.47,60.92,1.0,-23.0,0,0,,6.21,30.177166,,,,,,,,,,,CAVOK,,,,,,,,VFR,,,,,,,,,,,,METAR,1378.0
OIZC 140400Z 02002KT CAVOK 10/03 Q1015,OIZC,2021-01-14T04:00:00Z,25.45,60.38,10.0,3.0,20,2,,6.21,29.970472,,,,,,,,,,,CAVOK,,,,,,,,VFR,,,,,,,,,,,,METAR,13.0
OIZB 140400Z 36004KT CAVOK M03/M15 Q1023,OIZB,2021-01-14T04:00:00Z,31.1,61.55,-3.0,-15.0,360,4,,6.21,30.206694,,,,,,,,,,,CAVOK,,,,,,,,VFR,,,,,,,,,,,,METAR,483.0
OIYY 140400Z 14004KT CAVOK M01/M17 Q1022,OIYY,2021-01-14T04:00:00Z,31.9,54.28,-1.0,-17.0,140,4,,6.21,30.177166,,,,,,,,,,,CAVOK,,,,,,,,VFR,,,,,,,,,,,,METAR,1226.0
OITZ 140400Z 13006KT CAVOK 05/M06 Q1014 A2997,OITZ,2021-01-14T04:00:00Z,36.77,48.37,5.0,-6.0,130,6,,6.21,29.940945,,,,,,,,,,,CAVOK,,,,,,,,VFR,,,,,,,,,,,,METAR,1630.0
OITT 140400Z 05006KT 7000 FEW035 SCT080 02/M01 Q1014 A2995 NOSIG,OITT,2021-01-14T04:00:00Z,38.13,46.23,2.0,-1.0,50,6,,4.35,29.940945,,,,,,TRUE,,,,,FEW,3500,SCT,8000,,,,,MVFR,,,,,,,,,,,,METAR,1353.0
OITR 140400Z 35002KT 5000 HZ FEW035 BKN170 01/M02 Q1011,OITR,2021-01-14T04:00:00Z,37.67,45.07,1.0,-2.0,350,2,,3.11,29.852362,,,,,,,,,,HZ,FEW,3500,BKN,17000,,,,,MVFR,,,,,,,,,,,,METAR,1312.0
OITP 140400Z 25004KT 9999 OVC020 06/05 Q1007,OITP,2021-01-14T04:00:00Z,39.6,47.88,6.0,5.0,250,4,,6.21,29.734253,,,,,,,,,,,OVC,2000,,,,,,,MVFR,,,,,,,,,,,,METAR,72.0
OITM 140400Z 15006KT 9999 FEW090 BKN180 06/M03 Q1013,OITM,2021-01-14T04:00:00Z,37.35,46.15,6.0,-3.0,150,6,,6.21,29.911417,,,,,,,,,,,FEW,9000,BKN,18000,,,,,VFR,,,,,,,,,,,,METAR,1340.0
OITL 140400Z 17019KT 9999 SCT100 BKN190 07/M02 Q1012,OITL,2021-01-14T04:00:00Z,38.33,48.42,7.0,-2.0,170,19,,6.21,29.88189,,,,,,,,,,,SCT,10000,BKN,19000,,,,,VFR,,,,,,,,,,,,METAR,1314.0
OISY 140400Z 00000KT CAVOK M03/M14 Q1026,OISY,2021-01-14T04:00:00Z,30.7,51.55,-3.0,-14.0,0,0,,6.21,30.295275,,,,,,,,,,,CAVOK,,,,,,,,VFR,,,,,,,,,,,,METAR,1800.0
OISS 140400Z 00000KT 7000 NSC M02/M07 Q1022 A3021,OISS,2021-01-14T04:00:00Z,29.53,52.58,-2.0,-7.0,0,0,,4.35,30.177166,,,,,,,,,,,CLR,,,,,,,,MVFR,,,,,,,,,,,,METAR,1484.0
OISR 140400Z 30004KT CAVOK 04/M08 Q1019 A3010,OISR,2021-01-14T04:00:00Z,27.37,53.2,4.0,-8.0,300,4,,6.21,30.088583,,,,,,,,,,,CAVOK,,,,,,,,VFR,,,,,,,,,,,,METAR,402.0
OISL 140400Z 24004KT CAVOK 01/M11 Q1018 A3007,OISL,2021-01-14T04:00:00Z,27.67,54.37,1.0,-11.0,240,4,,6.21,30.059055,,,,,,,,,,,CAVOK,,,,,,,,VFR,,,,,,,,,,,,METAR,804.0
OISF 140400Z 33004KT CAVOK M01/M11 Q1019 A3010,OISF,2021-01-14T04:00:00Z,28.9,53.72,-1.0,-11.0,330,4,,6.21,30.088583,,,,,,,,,,,CAVOK,,,,,,,,VFR,,,,,,,,,,,,METAR,1305.0
OINZ 140400Z 00000KT CAVOK 04/02 Q1007,OINZ,2021-01-14T04:00:00Z,36.63,53.2,4.0,2.0,0,0,,6.21,29.734253,,,,,,,,,,,CAVOK,,,,,,,,VFR,,,,,,,,,,,,METAR,8.0
OINR 140400Z 27002KT 7000 2000N VCFG BKN035 08/08 Q1007,OINR,2021-01-14T04:00:00Z,36.9,50.67,8.0,8.0,270,2,,4.35,29.734253,,,,,,,,,,VCFG,BKN,3500,,,,,,,MVFR,,,,,,,,,,,,METAR,-19.0
OINN 140400Z 00000KT CAVOK 06/05 Q1007,OINN,2021-01-14T04:00:00Z,36.67,51.47,6.0,5.0,0,0,,6.21,29.734253,,,,,,,,,,,CAVOK,,,,,,,,VFR,,,,,,,,,,,,METAR,-25.0
OING 140400Z 00000KT CAVOK 01/M01 Q1009 NOSIG,OING,2021-01-14T04:00:00Z,36.9,54.4,1.0,-1.0,0,0,,6.21,29.793306,,,,,,TRUE,,,,,CAVOK,,,,,,,,VFR,,,,,,,,,,,,METAR,0.0
OINE 140400Z 00000KT CAVOK 15/M04 Q1009,OINE,2021-01-14T04:00:00Z,37.38,55.45,15.0,-4.0,0,0,,6.21,29.793306,,,,,,,,,,,CAVOK,,,,,,,,VFR,,,,,,,,,,,,METAR,125.0
OIMT 140400Z AUTO 09002KT //// // ////// M01/M19 Q1020,OIMT,2021-01-14T04:00:00Z,33.67,56.88,-1.0,-19.0,90,2,,,30.11811,,,TRUE,,,,,,,,,,,,,,,,,,,,,,,,,,,,METAR,693.0
OIMS 140400Z 08008KT CAVOK M05/M10 Q1022,OIMS,2021-01-14T04:00:00Z,36.17,57.6,-5.0,-10.0,80,8,,6.21,30.177166,,,,,,,,,,,CAVOK,,,,,,,,VFR,,,,,,,,,,,,METAR,920.0
OIMQ 140400Z 00000KT CAVOK M02/M11 Q1021,OIMQ,2021-01-14T04:00:00Z,35.27,58.47,-2.0,-11.0,0,0,,6.21,30.147638,,,,,,,,,,,CAVOK,,,,,,,,VFR,,,,,,,,,,,,METAR,1101.0
OIMN 140400Z 00000KT CAVOK M02/M07 Q1017,OIMN,2021-01-14T04:00:00Z,37.48,57.3,-2.0,-7.0,0,0,,6.21,30.029528,,,,,,,,,,,CAVOK,,,,,,,,VFR,,,,,,,,,,,,METAR,1065.0
OIMM 140400Z 00000KT CAVOK 01/M05 Q1018 A3007,OIMM,2021-01-14T04:00:00Z,36.23,59.63,1.0,-5.0,0,0,,6.21,30.059055,,,,,,,,,,,CAVOK,,,,,,,,VFR,,,,,,,,,,,,METAR,995.0
OIMD 140400Z 00000KT CAVOK M02/M18 Q1018,OIMD,2021-01-14T04:00:00Z,34.38,58.63,-2.0,-18.0,0,0,,6.21,30.059055,,,,,,,,,,,CAVOK,,,,,,,,VFR,,,,,,,,,,,,METAR,1097.0
OIMC 140400Z 17024KT CAVOK 10/M04 Q1013,OIMC,2021-01-14T04:00:00Z,36.5,61.07,10.0,-4.0,170,24,,6.21,29.911417,,,,,,,,,,,CAVOK,,,,,,,,VFR,,,,,,,,,,,,METAR,287.0
OIMB 140400Z 11008KT 9999 FEW035 M02/M22 Q1021,OIMB,2021-01-14T04:00:00Z,32.9,59.28,-2.0,-22.0,110,8,,6.21,30.147638,,,,,,,,,,,FEW,3500,,,,,,,VFR,,,,,,,,,,,,METAR,1512.0
OIKQ 140400Z 33004KT CAVOK 10/04 Q1016 NOSIG,OIKQ,2021-01-14T04:00:00Z,26.75,55.9,10.0,4.0,330,4,,6.21,30.0,,,,,,TRUE,,,,,CAVOK,,,,,,,,VFR,,,,,,,,,,,,METAR,9.0
OIKK 140400Z 00000KT 9999 FEW100 SCT200 M05/M18 Q1022 A3020,OIKK,2021-01-14T04:00:00Z,30.25,56.97,-5.0,-18.0,0,0,,6.21,30.177166,,,,,,,,,,,FEW,10000,SCT,20000,,,,,VFR,,,,,,,,,,,,METAR,1749.0
OIKB 140400Z 01004KT 9999 FEW100 07/M01 Q1016 A3003 NOSIG,OIKB,2021-01-14T04:00:00Z,27.22,56.37,7.0,-1.0,10,4,,6.21,30.0,,,,,,TRUE,,,,,FEW,10000,,,,,,,VFR,,,,,,,,,,,,METAR,6.0
OIIP 140400Z 15004KT 3000 HZ FEW040 SCT100 02/M07 Q1018 A3007,OIIP,2021-01-14T04:00:00Z,35.78,50.83,2.0,-7.0,150,4,,1.86,30.059055,,,,,,,,,,HZ,FEW,4000,SCT,10000,,,,,IFR,,,,,,,,,,,,METAR,1270.0
OIIK 140400Z 06004KT 5000 HZ NSC 02/M04 Q1018,OIIK,2021-01-14T04:00:00Z,36.25,50.05,2.0,-4.0,60,4,,3.11,30.059055,,,,,,,,,,HZ,CLR,,,,,,,,MVFR,,,,,,,,,,,,METAR,1278.0
OIII 140400Z 00000KT 3000 HZ NSC 02/M04 Q1019 A3011,OIII,2021-01-14T04:00:00Z,35.68,51.3,2.0,-4.0,0,0,,1.86,30.088583,,,,,,,,,,HZ,CLR,,,,,,,,IFR,,,,,,,,,,,,METAR,1182.0
OIIE 140400Z 28004KT 5000 HZ FEW100 M02/M06 Q1020,OIIE,2021-01-14T04:00:00Z,35.42,51.15,-2.0,-6.0,280,4,,3.11,30.11811,,,,,,,,,,HZ,FEW,10000,,,,,,,MVFR,,,,,,,,,,,,METAR,993.0
OIHH 140400Z 08006KT CAVOK M04/M07 Q1016,OIHH,2021-01-14T04:00:00Z,34.87,48.55,-4.0,-7.0,80,6,,6.21,30.0,,,,,,,,,,,CAVOK,,,,,,,,VFR,,,,,,,,,,,,METAR,1742.0
OIGG 140400Z 00000KT 2000 BR BKN025 08/08 Q1007,OIGG,2021-01-14T04:00:00Z,37.33,49.6,8.0,8.0,0,0,,1.24,29.734253,,,,,,,,,,BR,BKN,2500,,,,,,,IFR,,,,,,,,,,,,METAR,-16.0
OIFS 140400Z 32002KT CAVOK M12/M16 Q1023,OIFS,2021-01-14T04:00:00Z,32.28,50.85,-12.0,-16.0,320,2,,6.21,30.206694,,,,,,,,,,,CAVOK,,,,,,,,VFR,,,,,,,,,,,,METAR,2042.0
OIFM 140400Z 30004KT 6000 NSC M09/M14 Q1023 A3022,OIFM,2021-01-14T04:00:00Z,32.75,51.87,-9.0,-14.0,300,4,,3.73,30.206694,,,,,,,,,,,CLR,,,,,,,,MVFR,,,,,,,,,,,,METAR,1539.0
OICS 140400Z 34004KT CAVOK M01/M06 Q1016 A3003,OICS,2021-01-14T04:00:00Z,35.25,47.02,-1.0,-6.0,340,4,,6.21,30.0,,,,,,,,,,,CAVOK,,,,,,,,VFR,,,,,,,,,,,,METAR,1369.0
OICM 140400Z 09004KT CAVOK 12/M01 Q1015,OICM,2021-01-14T04:00:00Z,,,12.0,-1.0,90,4,,6.21,29.970472,,,,,,,,,,,CAVOK,,,,,,,,VFR,,,,,,,,,,,,METAR,
OICK 140400Z 00000KT CAVOK M01/M06 Q1018,OICK,2021-01-14T04:00:00Z,33.43,48.28,-1.0,-6.0,0,0,,6.21,30.059055,,,,,,,,,,,CAVOK,,,,,,,,VFR,,,,,,,,,,,,METAR,1156.0
OICI 140400Z 11002KT CAVOK 03/M14 Q1020 A3012,OICI,2021-01-14T04:00:00Z,33.58,46.4,3.0,-14.0,110,2,,6.21,30.11811,,,,,,,,,,,CAVOK,,,,,,,,VFR,,,,,,,,,,,,METAR,1323.0
OICC 140400Z 00000KT 9999 FEW080 BKN200 M02/M11 Q1018 A3008,OICC,2021-01-14T04:00:00Z,34.35,47.17,-2.0,-11.0,0,0,,6.21,30.059055,,,,,,,,,,,FEW,8000,BKN,20000,,,,,VFR,,,,,,,,,,,,METAR,1310.0
OIBV 140400Z 28004KT 7000 NSC 16/14 Q1016,OIBV,2021-01-14T04:00:00Z,26.82,53.35,16.0,14.0,280,4,,4.35,30.0,,,,,,,,,,,CLR,,,,,,,,MVFR,,,,,,,,,,,,METAR,23.0
OIBS 140400Z 00000KT CAVOK 20/16 Q1017,OIBS,2021-01-14T04:00:00Z,25.9,54.55,20.0,16.0,0,0,,6.21,30.029528,,,,,,,,,,,CAVOK,,,,,,,,VFR,,,,,,,,,,,,METAR,4.0
OIBQ 140400Z 00000KT 4000 BR NSC 10/09 Q1017,OIBQ,2021-01-14T04:00:00Z,29.27,50.32,10.0,9.0,0,0,,2.49,30.029528,,,,,,,,,,BR,CLR,,,,,,,,IFR,,,,,,,,,,,,METAR,3.0
OIBP 140400Z 16004KT 6000 NSC 07/04 Q1016 A3002,OIBP,2021-01-14T04:00:00Z,27.38,52.73,7.0,4.0,160,4,,3.73,30.0,,,,,,,,,,,CLR,,,,,,,,MVFR,,,,,,,,,,,,METAR,13.0
OIBL 140400Z 01004KT CAVOK 14/06 Q1016,OIBL,2021-01-14T04:00:00Z,26.53,54.82,14.0,6.0,10,4,,6.21,30.0,,,,,,,,,,,CAVOK,,,,,,,,VFR,,,,,,,,,,,,METAR,25.0
OIBK 140400Z 32004KT CAVOK 17/14 Q1016 NOSIG,OIBK,2021-01-14T04:00:00Z,26.53,53.98,17.0,14.0,320,4,,6.21,30.0,,,,,,TRUE,,,,,CAVOK,,,,,,,,VFR,,,,,,,,,,,,METAR,27.0
OIBJ 140400Z 00000KT CAVOK 07/M06 Q1019 A3011,OIBJ,2021-01-14T04:00:00Z,27.82,52.35,7.0,-6.0,0,0,,6.21,30.088583,,,,,,,,,,,CAVOK,,,,,,,,VFR,,,,,,,,,,,,METAR,647.0
OIBH 140400Z 00000KT CAVOK 05/04 Q1017 A3005,OIBH,2021-01-14T04:00:00Z,27.2,54.32,5.0,4.0,0,0,,6.21,30.029528,,,,,,,,,,,CAVOK,,,,,,,,VFR,,,,,,,,,,,,METAR,412.0
OIBB 140400Z 09004KT 5000 BR NSC 11/09 Q1017 A3004,OIBB,2021-01-14T04:00:00Z,28.93,50.83,11.0,9.0,90,4,,3.11,30.029528,,,,,,,,,,BR,CLR,,,,,,,,MVFR,,,,,,,,,,,,METAR,15.0
OIBA 140400Z 24006KT CAVOK 21/13 Q1016,OIBA,2021-01-14T04:00:00Z,25.88,55.03,21.0,13.0,240,6,,6.21,30.0,,,,,,,,,,,CAVOK,,,,,,,,VFR,,,,,,,,,,,,METAR,7.0
OIAW 140400Z 00000KT 6000 NSC 06/04 Q1017,OIAW,2021-01-14T04:00:00Z,31.33,48.77,6.0,4.0,0,0,,3.73,30.029528,,,,,,,,,,,CLR,,,,,,,,MVFR,,,,,,,,,,,,METAR,25.0
OIAM 140400Z 00000KT 2000 BR NSC 09/06 Q1017,OIAM,2021-01-14T04:00:00Z,30.55,49.15,9.0,6.0,0,0,,1.24,30.029528,,,,,,,,,,BR,CLR,,,,,,,,IFR,,,,,,,,,,,,METAR,7.0
OIAH 140400Z 00000KT CAVOK 03/01 Q1019,OIAH,2021-01-14T04:00:00Z,30.33,50.83,3.0,1.0,0,0,,6.21,30.088583,,,,,,,,,,,CAVOK,,,,,,,,VFR,,,,,,,,,,,,METAR,730.0
OIAG 140400Z 15002KT CAVOK 07/04 Q1017,OIAG,2021-01-14T04:00:00Z,30.73,49.68,7.0,4.0,150,2,,6.21,30.029528,,,,,,,,,,,CAVOK,,,,,,,,VFR,,,,,,,,,,,,METAR,17.0
OIAA 140400Z 18002KT 4000 BR NSC 09/06 Q1017,OIAA,2021-01-14T04:00:00Z,30.35,48.22,9.0,6.0,180,2,,2.49,30.029528,,,,,,,,,,BR,CLR,,,,,,,,IFR,,,,,,,,,,,,METAR,4.0
OEYN 140400Z 06004KT 9999 FEW040 18/09 Q1011 NOSIG,OEYN,2021-01-14T04:00:00Z,24.13,38.07,18.0,9.0,60,4,,6.21,29.852362,,,,,,TRUE,,,,,FEW,4000,,,,,,,VFR,,,,,,,,,,,,METAR,20.0
OEWJ 140400Z 11006KT CAVOK 21/10 Q1011 NOSIG,OEWJ,2021-01-14T04:00:00Z,26.18,36.47,21.0,10.0,110,6,,6.21,29.852362,,,,,,TRUE,,,,,CAVOK,,,,,,,,VFR,,,,,,,,,,,,METAR,8.0
OEWD 140400Z 06008KT CAVOK 10/00 Q1019 NOSIG,OEWD,2021-01-14T04:00:00Z,20.5,45.2,10.0,0.0,60,8,,6.21,30.088583,,,,,,TRUE,,,,,CAVOK,,,,,,,,VFR,,,,,,,,,,,,METAR,629.0
OETR 140400Z 24004KT 9999 FEW040 SCT100 10/03 Q1011 NOSIG,OETR,2021-01-14T04:00:00Z,31.7,38.73,10.0,3.0,240,4,,6.21,29.852362,,,,,,TRUE,,,,,FEW,4000,SCT,10000,,,,,VFR,,,,,,,,,,,,METAR,854.0
OETF 140400Z 24005KT CAVOK 11/07 Q1021 NOSIG,OETF,2021-01-14T04:00:00Z,21.47,40.53,11.0,7.0,240,5,,6.21,30.147638,,,,,,TRUE,,,,,CAVOK,,,,,,,,VFR,,,,,,,,,,,,METAR,1460.0
OETB 140400Z 16005KT 9999 FEW040 SCT100 13/06 Q1012 NOSIG,OETB,2021-01-14T04:00:00Z,28.37,36.62,13.0,6.0,160,5,,6.21,29.88189,,,,,,TRUE,,,,,FEW,4000,SCT,10000,,,,,VFR,,,,,,,,,,,,METAR,770.0
OESK 140400Z 20005KT CAVOK 12/01 Q1015,OESK,2021-01-14T04:00:00Z,29.78,40.1,12.0,1.0,200,5,,6.21,29.970472,,,,,,,,,,,CAVOK,,,,,,,,VFR,,,,,,,,,,,,METAR,671.0
OESH 140400Z 09004KT CAVOK 11/M04 Q1021 NOSIG,OESH,2021-01-14T04:00:00Z,17.47,47.12,11.0,-4.0,90,4,,6.21,30.147638,,,,,,TRUE,,,,,CAVOK,,,,,,,,VFR,,,,,,,,,,,,METAR,720.0
OERY 140400Z 00000KT CAVOK 08/M06 Q1020,OERY,2021-01-14T04:00:00Z,24.72,46.72,8.0,-6.0,0,0,,6.21,30.11811,,,,,,,,,,,CAVOK,,,,,,,,VFR,,,,,,,,,,,,METAR,611.0
OERR 140400Z 25007KT 9999 SCT040 SCT100 11/01 Q1011,OERR,2021-01-14T04:00:00Z,30.9,41.13,11.0,1.0,250,7,,6.21,29.852362,,,,,,,,,,,SCT,4000,SCT,10000,,,,,VFR,,,,,,,,,,,,METAR,554.0
OERK 140400Z 14002KT CAVOK 06/M01 Q1020 NOSIG,OERK,2021-01-14T04:00:00Z,24.95,46.72,6.0,-1.0,140,2,,6.21,30.11811,,,,,,TRUE,,,,,CAVOK,,,,,,,,VFR,,,,,,,,,,,,METAR,618.0
OERF 140400Z 19012KT 9999 SCT040 13/M02 Q1014,OERF,2021-01-14T04:00:00Z,29.62,43.48,13.0,-2.0,190,12,,6.21,29.940945,,,,,,,,,,,SCT,4000,,,,,,,VFR,,,,,,,,,,,,METAR,441.0
OEPA 140400Z 21010KT 9999 FEW035 09/04 Q1017 NOSIG,OEPA,2021-01-14T04:00:00Z,28.33,46.12,9.0,4.0,210,10,,6.21,30.029528,,,,,,TRUE,,,,,FEW,3500,,,,,,,VFR,,,,,,,,,,,,METAR,361.0
OENG 140400Z 00000KT CAVOK 09/M01 Q1021 NOSIG,OENG,2021-01-14T04:00:00Z,17.62,44.42,9.0,-1.0,0,0,,6.21,30.147638,,,,,,TRUE,,,,,CAVOK,,,,,,,,VFR,,,,,,,,,,,,METAR,1210.0
OEMA 140400Z 01005KT CAVOK 13/M04 Q1017 NOSIG,OEMA,2021-01-14T04:00:00Z,24.55,39.7,13.0,-4.0,10,5,,6.21,30.029528,,,,,,TRUE,,,,,CAVOK,,,,,,,,VFR,,,,,,,,,,,,METAR,639.0
OEKM 140400Z 00000KT CAVOK 08/05 Q1024 NOSIG,OEKM,2021-01-14T04:00:00Z,18.3,42.78,8.0,5.0,0,0,,6.21,30.236221,,,,,,TRUE,,,,,CAVOK,,,,,,,,VFR,,,,,,,,,,,,METAR,2038.0
OEKJ 140400Z 20005KT CAVOK 08/M10 Q1022,OEKJ,2021-01-14T04:00:00Z,24.07,47.58,8.0,-10.0,200,5,,6.21,30.177166,,,,,,,,,,,CAVOK,,,,,,,,VFR,,,,,,,,,,,,METAR,487.0
OEJN 140400Z 12004KT 8000 NSC 24/18 Q1012 NOSIG,OEJN,2021-01-14T04:00:00Z,21.68,39.15,24.0,18.0,120,4,,4.97,29.88189,,,,,,TRUE,,,,,CLR,,,,,,,,MVFR,,,,,,,,,,,,METAR,8.0
OEJB 140400Z AUTO 19003KT 110V250 CAVOK 08/M03 Q1018 NOSIG,OEJB,2021-01-14T04:00:00Z,27.05,49.4,8.0,-3.0,190,3,,6.21,30.059055,,,TRUE,,,TRUE,,,,,CAVOK,,,,,,,,VFR,,,,,,,,,,,,METAR,6.0
OEHL 140400Z 24008KT CAVOK 11/03 Q1017 NOSIG,OEHL,2021-01-14T04:00:00Z,27.43,41.68,11.0,3.0,240,8,,6.21,30.029528,,,,,,TRUE,,,,,CAVOK,,,,,,,,VFR,,,,,,,,,,,,METAR,1002.0
OEGT 140400Z 27012KT 9999 BKN040 14/09 Q1010 NOSIG,OEGT,2021-01-14T04:00:00Z,31.42,37.27,14.0,9.0,270,12,,6.21,29.822834,,,,,,TRUE,,,,,BKN,4000,,,,,,,VFR,,,,,,,,,,,,METAR,512.0
OEGS 140400Z 18007KT 9999 SCT030 10/06 Q1018,OEGS,2021-01-14T04:00:00Z,26.3,43.77,10.0,6.0,180,7,,6.21,30.059055,,,,,,,,,,,SCT,3000,,,,,,,VFR,,,,,,,,,,,,METAR,647.0
OEGN 140400Z 15005KT 8000 NSC 22/18 Q1014 NOSIG,OEGN,2021-01-14T04:00:00Z,16.9,42.58,22.0,18.0,150,5,,4.97,29.940945,,,,,,TRUE,,,,,CLR,,,,,,,,MVFR,,,,,,,,,,,,METAR,5.0
OEDR 140400Z 34008KT CAVOK 08/M03 Q1017,OEDR,2021-01-14T04:00:00Z,26.27,50.17,8.0,-3.0,340,8,,6.21,30.029528,,,,,,,,,,,CAVOK,,,,,,,,VFR,,,,,,,,,,,,METAR,17.0
OEDF 140400Z 00000KT CAVOK 05/M05 Q1018 NOSIG,OEDF,2021-01-14T04:00:00Z,26.43,49.82,5.0,-5.0,0,0,,6.21,30.059055,,,,,,TRUE,,,,,CAVOK,,,,,,,,VFR,,,,,,,,,,,,METAR,15.0
OEBH 140400Z 22002KT CAVOK 07/01 Q1019 NOSIG,OEBH,2021-01-14T04:00:00Z,19.98,42.62,7.0,1.0,220,2,,6.21,30.088583,,,,,,TRUE,,,,,CAVOK,,,,,,,,VFR,,,,,,,,,,,,METAR,1167.0
OEBA 140400Z 19003KT CAVOK 10/07 Q1021 NOSIG,OEBA,2021-01-14T04:00:00Z,20.3,41.63,10.0,7.0,190,3,,6.21,30.147638,,,,,,TRUE,,,,,CAVOK,,,,,,,,VFR,,,,,,,,,,,,METAR,1659.0
OEAR 140400Z 07002KT CAVOK 20/18 Q1013,OEAR,2021-01-14T04:00:00Z,,,20.0,18.0,70,2,,6.21,29.911417,,,,,,,,,,,CAVOK,,,,,,,,VFR,,,,,,,,,,,,METAR,
OEAO 140400Z 09006KT CAVOK 16/M01 Q1014,OEAO,2021-01-14T04:00:00Z,26.48,38.12,16.0,-1.0,90,6,,6.21,29.940945,,,,,,,,,,,CAVOK,,,,,,,,VFR,,,,,,,,,,,,METAR,615.0
OEAH 140400Z 28005KT CAVOK 07/M09 Q1019 NOSIG,OEAH,2021-01-14T04:00:00Z,25.28,49.48,7.0,-9.0,280,5,,6.21,30.088583,,,,,,TRUE,,,,,CAVOK,,,,,,,,VFR,,,,,,,,,,,,METAR,180.0
OEAB 140400Z 00000KT CAVOK 07/04 Q1024 NOSIG,OEAB,2021-01-14T04:00:00Z,18.23,42.65,7.0,4.0,0,0,,6.21,30.236221,,,,,,TRUE,,,,,CAVOK,,,,,,,,VFR,,,,,,,,,,,,METAR,2092.0
NZWN 140400Z AUTO 01007KT 330V040 9999 NCD 24/14 Q1014 BECMG 18010KT,NZWN,2021-01-14T04:00:00Z,-41.32,174.8,24.0,14.0,10,7,,6.21,29.940945,,,TRUE,,,,,,,,CLR,,,,,,,,VFR,,,,,,,,,,,,SPECI,12.0
NZCH 140400Z AUTO 09010KT 050V110 9999 NCD 22/16 Q1014 NOSIG,NZCH,2021-01-14T04:00:00Z,-43.48,172.52,22.0,16.0,90,10,,6.21,29.940945,,,TRUE,,,TRUE,,,,,CLR,,,,,,,,VFR,,,,,,,,,,,,METAR,36.0
NZAA 140400Z AUTO 23016KT 9999 NCD 24/17 Q1013 NOSIG,NZAA,2021-01-14T04:00:00Z,-37.02,174.8,24.0,17.0,230,16,,6.21,29.911417,,,TRUE,,,TRUE,,,,,CLR,,,,,,,,VFR,,,,,,,,,,,,METAR,7.0
NVVW 140400Z 36007KT 9999 SCT022 BKN110 28/26 Q1005,NVVW,2021-01-14T04:00:00Z,-19.45,169.22,28.0,26.0,360,7,,6.21,29.675198,,,,,,,,,,,SCT,2200,BKN,11000,,,,,VFR,,,,,,,,,,,,METAR,5.0
NVVV 140400Z 35004KT 9999 BKN020 FEW025TCU OVC110 28/25 Q1005 RMK REDZ,NVVV,2021-01-14T04:00:00Z,-17.68,168.3,28.0,25.0,350,4,,6.21,29.675198,,,,,,,,,,,BKN,2000,FEW,2500,OVC,11000,,,MVFR,,,,,,,,,,,,METAR,23.0
NVSS 140400Z 02006KT 9999 SCT018 BKN280 29/25 Q1005,NVSS,2021-01-14T04:00:00Z,-15.52,167.22,29.0,25.0,20,6,,6.21,29.675198,,,,,,,,,,,SCT,1800,BKN,28000,,,,,VFR,,,,,,,,,,,,METAR,47.0
NTAA 140400Z VRB03KT 9999 FEW026 30/22 Q1014 NOSIG,NTAA,2021-01-14T04:00:00Z,,,30.0,22.0,0,3,,6.21,29.940945,,,,,,TRUE,,,,,FEW,2600,,,,,,,VFR,,,,,,,,,,,,METAR,
NSFA 140400Z 07007KT 9999 SCT026 31/26 Q1010,NSFA,2021-01-14T04:00:00Z,,,31.0,26.0,70,7,,6.21,29.822834,,,,,,,,,,,SCT,2600,,,,,,,VFR,,,,,,,,,,,,METAR,
NLWW 140400Z 10003KT 040V190 9999 SCT019 SCT070 29/25 Q1008 TEMPO 3000 SHRA BKN009 SCT020CB,NLWW,2021-01-14T04:00:00Z,,,29.0,25.0,100,3,,6.21,29.763779,,,,,,,,,,,SCT,1900,SCT,7000,,,,,VFR,,,,,,,,,,,,METAR,
NIUE 140400Z AUTO 01006KT 320V050 // 24/23 Q1012,NIUE,2021-01-14T04:00:00Z,-19.07,-169.92,24.0,23.0,10,6,,,29.88189,,,TRUE,,,,,,,,,,,,,,,,,,,,,,,,,,,,METAR,22.0
NGTA 140400Z 09016KT 9999 SCT019 29/24 Q1005,NGTA,2021-01-14T04:00:00Z,1.37,173.13,29.0,24.0,90,16,,6.21,29.675198,,,,,,,,,,,SCT,1900,,,,,,,VFR,,,,,,,,,,,,METAR,8.0
NGFU 140400Z 04008KT 9999 FEW018TCU SCT020 BKN110 31/24 Q1007,NGFU,2021-01-14T04:00:00Z,-8.52,179.18,31.0,24.0,40,8,,6.21,29.734253,,,,,,,,,,,FEW,1800,SCT,2000,BKN,11000,,,VFR,,,,,,,,,,,,METAR,2.0
NFTV 140400Z 05007KT 9999 SCT018TCU 29/25 Q1011,NFTV,2021-01-14T04:00:00Z,-18.58,-173.97,29.0,25.0,50,7,,6.21,29.852362,,,,,,,,,,,SCT,1800,,,,,,,VFR,,,,,,,,,,,,METAR,71.0
NFTL 140400Z 08008KT 9999 FEW018TCU SCT300 28/25 Q1012,NFTL,2021-01-14T04:00:00Z,-19.78,-174.33,28.0,25.0,80,8,,6.21,29.88189,,,,,,,,,,,FEW,1800,SCT,30000,,,,,VFR,,,,,,,,,,,,METAR,10.0
NFTF 140400Z 07007KT 9999 FEW012 FEW015TCU BKN300 29/27 Q1013,NFTF,2021-01-14T04:00:00Z,-21.23,-175.15,29.0,27.0,70,7,,6.21,29.911417,,,,,,,,,,,FEW,1200,FEW,1500,BKN,30000,,,VFR,,,,,,,,,,,,METAR,38.0
NFNA 140400Z 06010KT 9999 SCT020 SCT290 31/25 Q1008,NFNA,2021-01-14T04:00:00Z,-18.05,178.57,31.0,25.0,60,10,,6.21,29.763779,,,,,,,,,,,SCT,2000,SCT,29000,,,,,VFR,,,,,,,,,,,,METAR,6.0
NFFN 140400Z 36009KT 9999 SCT026TCU SCT300 33/24 Q1007 NOSIG,NFFN,2021-01-14T04:00:00Z,-17.75,177.45,33.0,24.0,360,9,,6.21,29.734253,,,,,,TRUE,,,,,SCT,2600,SCT,30000,,,,,VFR,,,,,,,,,,,,METAR,14.0
NCSW 140400Z AUTO 07003KT //// ////// 29/24 Q1011,NCSW,2021-01-14T04:00:00Z,,,29.0,24.0,70,3,,,29.852362,,,TRUE,,,,,,,,,,,,,,,,,,,,,,,,,,,,METAR,
NCRK 140400Z AUTO 09003KT //// ////// 30/23 Q1010,NCRK,2021-01-14T04:00:00Z,,,30.0,23.0,90,3,,,29.822834,,,TRUE,,,,,,,,,,,,,,,,,,,,,,,,,,,,METAR,
NCRG 140400Z AUTO 08013KT 9999 BKN015/// BKN021/// BKN060/// 28/24 Q1016,NCRG,2021-01-14T04:00:00Z,,,28.0,24.0,80,13,,6.21,30.0,,,TRUE,,,,,,,,BKN,1500,BKN,2100,BKN,6000,,,MVFR,,,,,,,,,,,,METAR,
NCPY 140400Z AUTO 06008KT //// ////// 29/24 Q1010,NCPY,2021-01-14T04:00:00Z,,,29.0,24.0,60,8,,,29.822834,,,TRUE,,,,,,,,,,,,,,,,,,,,,,,,,,,,METAR,
NCPL 140400Z AUTO 06006KT //// ////// 29/25 Q1013,NCPL,2021-01-14T04:00:00Z,,,29.0,25.0,60,6,,,29.911417,,,TRUE,,,,,,,,,,,,,,,,,,,,,,,,,,,,METAR,
NCPK 140400Z AUTO NIL,NCPK,2021-01-14T04:00:00Z,,,,,,,,,,,,TRUE,,,,,,,,,,,,,,,,,,,,,,,,,,,,METAR,
NCNS 140400Z AUTO 05004KT //// ////// 30/24 Q1010,NCNS,2021-01-14T04:00:00Z,,,30.0,24.0,50,4,,,29.822834,,,TRUE,,,,,,,,,,,,,,,,,,,,,,,,,,,,METAR,
NCMR 140400Z AUTO 07007KT //// ////// ///// Q1014,NCMR,2021-01-14T04:00:00Z,,,,,70,7,,,29.940945,,,TRUE,,,,,,,,,,,,,,,,,,,,,,,,,,,,METAR,
NCMK 140400Z AUTO 09005KT //// ////// 29/25 Q1014,NCMK,2021-01-14T04:00:00Z,,,29.0,25.0,90,5,,,29.940945,,,TRUE,,,,,,,,,,,,,,,,,,,,,,,,,,,,METAR,
NCMH 140400Z AUTO 10004KT //// ////// ///// Q1010,NCMH,2021-01-14T04:00:00Z,,,,,100,4,,,29.822834,,,TRUE,,,,,,,,,,,,,,,,,,,,,,,,,,,,METAR,
NCMG 140400Z AUTO 09005KT //// ////// ///// Q////,NCMG,2021-01-14T04:00:00Z,,,,,90,5,,,,,,TRUE,,,,,,,,,,,,,,,,,,,,,,,,,,,,METAR,
NCAT 140400Z AUTO 09004KT //// ////// ///// Q////,NCAT,2021-01-14T04:00:00Z,-19.97,-158.12,,,90,4,,,,,,TRUE,,,,,,,,,,,,,,,,,,,,,,,,,,,,METAR,11.0
NCAI 140400Z AUTO 07007KT 030V120 28/24 Q1015,NCAI,2021-01-14T04:00:00Z,-18.82,-159.77,28.0,24.0,70,7,,,29.970472,,,TRUE,,,,,,,,,,,,,,,,,,,,,,,,,,,,METAR,7.0
MYSM 140400Z AUTO 07003KT CAVOK 21/21 A3002,MYSM,2021-01-14T04:00:00Z,24.05,-74.52,21.0,21.0,70,3,,6.21,30.02067,,,TRUE,,,,,,,,CAVOK,,,,,,,,VFR,,,,,,,,,,,,METAR,5.0
MYNN 140400Z 10003KT 070V160 9999 SCT045 BKN070 23/20 A3001,MYNN,2021-01-14T04:00:00Z,25.03,-77.47,23.0,20.0,100,3,,6.21,30.008858,,,,,,,,,,,SCT,4500,BKN,7000,,,,,VFR,,,,,,,,,,,,METAR,5.0
MYGF 140400Z AUTO 01004KT 340V050 9999 -SHRA FEW016/// OVC083/// 20/18 A3003,MYGF,2021-01-14T04:00:00Z,26.55,-78.7,20.0,18.0,10,4,,6.21,30.029528,,,TRUE,,,,,,,-SHRA,FEW,1600,OVC,8300,,,,,VFR,,,,,,,,,,,,METAR,2.0
MROC 140400Z 10006KT 060V150 CAVOK 21/15 A3000 NOSIG,MROC,2021-01-14T04:00:00Z,10.0,-84.22,21.0,15.0,100,6,,6.21,30.0,,,,,,TRUE,,,,,CAVOK,,,,,,,,VFR,,,,,,,,,,,,METAR,900.0
MRLB 140400Z 10012KT CAVOK 27/19 A2984,MRLB,2021-01-14T04:00:00Z,10.6,-85.55,27.0,19.0,100,12,,6.21,29.840551,,,,,,,,,,,CAVOK,,,,,,,,VFR,,,,,,,,,,,,METAR,79.0
MPTO 140400Z 00000KT CAVOK 23/22 Q1010 NOSIG,MPTO,2021-01-14T04:00:00Z,9.05,-79.38,23.0,22.0,0,0,,6.21,29.822834,,,,,,TRUE,,,,,CAVOK,,,,,,,,VFR,,,,,,,,,,,,METAR,7.0
MNMG 140400Z 00000KT 9999 FEW021 23/20 Q1012 A2989 NOSIG,MNMG,2021-01-14T04:00:00Z,12.15,-86.17,23.0,20.0,0,0,,6.21,29.88189,,,,,,TRUE,,,,,FEW,2100,,,,,,,VFR,,,,,,,,,,,,METAR,59.0
MKJS 140400Z 07003KT 9999 FEW022 24/21 Q1014,MKJS,2021-01-14T04:00:00Z,18.5,-77.92,24.0,21.0,70,3,,6.21,29.940945,,,,,,,,,,,FEW,2200,,,,,,,VFR,,,,,,,,,,,,METAR,3.0
MKJP 140400Z 32006KT 9999 FEW022 26/22 Q1014,MKJP,2021-01-14T04:00:00Z,17.93,-76.78,26.0,22.0,320,6,,6.21,29.940945,,,,,,,,,,,FEW,2200,,,,,,,VFR,,,,,,,,,,,,METAR,3.0
MHTG 140400Z 03006KT 9999 SCT028 19/15 Q1019 A3009 NOSIG,MHTG,2021-01-14T04:00:00Z,14.07,-87.22,19.0,15.0,30,6,,6.21,30.088583,,,,,,TRUE,,,,,SCT,2800,,,,,,,VFR,,,,,,,,,,,,METAR,1001.0
MHRO 140400Z 32005KT 9999 FEW025 BKN070 25/25 Q1016 A3000 NOSIG,MHRO,2021-01-14T04:00:00Z,16.32,-86.53,25.0,25.0,320,5,,6.21,30.0,,,,,,TRUE,,,,,FEW,2500,BKN,7000,,,,,VFR,,,,,,,,,,,,METAR,6.0
MHLC 140400Z 20003KT 5000 VCSH SCT020 OVC070 22/22 Q1016 A3000 NOSIG,MHLC,2021-01-14T04:00:00Z,15.75,-86.85,22.0,22.0,200,3,,3.11,30.0,,,,,,TRUE,,,,VCSH,SCT,2000,OVC,7000,,,,,MVFR,,,,,,,,,,,,METAR,13.0
MHCA 140400Z 00000KT 9999 SCT028 BKN070 21/19,MHCA,2021-01-14T04:00:00Z,14.87,-85.78,21.0,19.0,0,0,,6.21,,,,,,,,,,,,SCT,2800,BKN,7000,,,,,VFR,,,,,,,,,,,,METAR,386.0
MGPB 140400Z 27004KT 9000 RA SCT016 BKN080 22/21 Q1017 A3003,MGPB,2021-01-14T04:00:00Z,15.73,-88.58,22.0,21.0,270,4,,5.59,30.029528,,,,,,,,,,RA,SCT,1600,BKN,8000,,,,,VFR,,,,,,,,,,,,METAR,6.0
MGMM 140400Z 00000KT 9999 SCT016 BKN090 22/21 Q1019 A3009,MGMM,2021-01-14T04:00:00Z,16.9,-89.87,22.0,21.0,0,0,,6.21,30.088583,,,,,,,,,,,SCT,1600,BKN,9000,,,,,VFR,,,,,,,,,,,,METAR,105.0
MGGT 140400Z 36012KT 9999 FEW014 16/14 Q1026 A3030,MGGT,2021-01-14T04:00:00Z,14.58,-90.53,16.0,14.0,360,12,,6.21,30.295275,,,,,,,,,,,FEW,1400,,,,,,,VFR,,,,,,,,,,,,METAR,1497.0
MDST 140400Z 12005KT 9999 SCT018 22/21 Q1015,MDST,2021-01-14T04:00:00Z,19.4,-70.6,22.0,21.0,120,5,,6.21,29.970472,,,,,,,,,,,SCT,1800,,,,,,,VFR,,,,,,,,,,,,METAR,175.0
MDSD 140400Z 05004KT 9999 BKN016 SCT070 24/23 Q1015,MDSD,2021-01-14T04:00:00Z,18.42,-69.67,24.0,23.0,50,4,,6.21,29.970472,,,,,,,,,,,BKN,1600,SCT,7000,,,,,MVFR,,,,,,,,,,,,METAR,18.0
LZPP 140400Z AUTO 19004KT 2400 -SN BKN004/// BKN015/// OVC020/// M01/M01 Q1004 RESN,LZPP,2021-01-14T04:00:00Z,48.62,17.83,-1.0,-1.0,190,4,,1.49,29.64567,,,TRUE,,,,,,,-SN,BKN,400,BKN,1500,OVC,2000,,,LIFR,,,,,,,,,,,,METAR,160.0
LYVR 140400Z AUTO 17008KT 140V220 CAVOK 01/M04 Q1009,LYVR,2021-01-14T04:00:00Z,45.13,21.32,1.0,-4.0,170,8,,6.21,29.793306,,,TRUE,,,,,,,,CAVOK,,,,,,,,VFR,,,,,,,,,,,,METAR,82.0
LYUZ 140400Z AUTO VRB02KT CAVOK M09/M10 Q1007,LYUZ,2021-01-14T04:00:00Z,43.9,19.67,-9.0,-10.0,0,2,,6.21,29.734253,,,TRUE,,,,,,,,CAVOK,,,,,,,,VFR,,,,,,,,,,,,METAR,914.0
LYTV 140400Z VRB01KT CAVOK M00/M07 Q1012,LYTV,2021-01-14T04:00:00Z,42.4,18.72,0.0,-7.0,0,1,,6.21,29.88189,,,,,,,,,,,CAVOK,,,,,,,,VFR,,,,,,,,,,,,METAR,3.0
LYPG 140400Z 33007KT CAVOK 01/M09 Q1014 NOSIG,LYPG,2021-01-14T04:00:00Z,42.37,19.25,1.0,-9.0,330,7,,6.21,29.940945,,,,,,TRUE,,,,,CAVOK,,,,,,,,VFR,,,,,,,,,,,,METAR,32.0
LYNI 140400Z VRB01KT 9999 BKN033 M01/M03 Q1012 R11/2///95 NOSIG,LYNI,2021-01-14T04:00:00Z,43.33,21.85,-1.0,-3.0,0,1,,6.21,29.88189,,,,,,TRUE,,,,,BKN,3300,,,,,,,VFR,,,,,,,,,,,,METAR,197.0
LYKV 140400Z 00000KT CAVOK M13/M14 Q1012 NOSIG,LYKV,2021-01-14T04:00:00Z,43.82,20.58,-13.0,-14.0,0,0,,6.21,29.88189,,,,,,TRUE,,,,,CAVOK,,,,,,,,VFR,,,,,,,,,,,,METAR,209.0
LYBT 140400Z 16005KT 130V200 CAVOK M02/M04 Q1009 NOSIG,LYBT,2021-01-14T04:00:00Z,44.93,20.25,-2.0,-4.0,160,5,,6.21,29.793306,,,,,,TRUE,,,,,CAVOK,,,,,,,,VFR,,,,,,,,,,,,METAR,78.0
LYBE 140400Z 18012KT CAVOK M02/M05 Q1010 NOSIG,LYBE,2021-01-14T04:00:00Z,44.82,20.28,-2.0,-5.0,180,12,,6.21,29.822834,,,,,,TRUE,,,,,CAVOK,,,,,,,,VFR,,,,,,,,,,,,METAR,93.0
LRTZ 140400Z 32012KT 8000 SCT008 BKN120 00/M01 Q1008 BLU BLU,LRTZ,2021-01-14T04:00:00Z,43.98,28.62,0.0,-1.0,320,12,,4.97,29.763779,,,,,,,,,,,SCT,800,BKN,12000,,,,,MVFR,,,,,,,,,,,,METAR,45.0
LRTR 140400Z 17006KT CAVOK M00/M01 Q1008,LRTR,2021-01-14T04:00:00Z,45.82,21.33,0.0,-1.0,170,6,,6.21,29.763779,,,,,,,,,,,CAVOK,,,,,,,,VFR,,,,,,,,,,,,METAR,104.0
LRTM 140400Z AUTO 05004KT 7000 FEW100/// M05/M06 Q1007,LRTM,2021-01-14T04:00:00Z,46.47,24.42,-5.0,-6.0,50,4,,4.35,29.734253,,,TRUE,,,,,,,,FEW,10000,,,,,,,MVFR,,,,,,,,,,,,METAR,289.0
LRTC 140400Z AUTO 36005KT 9999 SCT034/// BKN045/// OVC120/// 00/M01 Q1008,LRTC,2021-01-14T04:00:00Z,45.07,28.72,0.0,-1.0,360,5,,6.21,29.763779,,,TRUE,,,,,,,,SCT,3400,BKN,4500,OVC,12000,,,VFR,,,,,,,,,,,,METAR,52.0
LRSV 140400Z 22004KT CAVOK M05/M06 Q1003 R16/490295,LRSV,2021-01-14T04:00:00Z,47.68,26.35,-5.0,-6.0,220,4,,6.21,29.616142,,,,,,,,,,,CAVOK,,,,,,,,VFR,,,,,,,,,,,,METAR,406.0
LRSM 140400Z AUTO 23009KT 2200 R19/1900VP2000U -SN FEW009 BKN012 OVC020 M01/M02 Q1005,LRSM,2021-01-14T04:00:00Z,47.7,22.88,-1.0,-2.0,230,9,,1.37,29.675198,,,TRUE,,,,,,,-SN,FEW,900,BKN,1200,OVC,2000,,,IFR,,,,,,,,,,,,METAR,123.0
LRSB 140400Z 06005KT 030V090 CAVOK M04/M07 Q1006 R27/490195,LRSB,2021-01-14T04:00:00Z,45.78,24.08,-4.0,-7.0,60,5,,6.21,29.704725,,,,,,,,,,,CAVOK,,,,,,,,VFR,,,,,,,,,,,,METAR,442.0
LROP 140400Z 26007KT CAVOK M04/M04 Q1009 R26L/19//95 NOSIG,LROP,2021-01-14T04:00:00Z,44.57,26.1,-4.0,-4.0,260,7,,6.21,29.793306,,,,,,TRUE,,,,,CAVOK,,,,,,,,VFR,,,,,,,,,,,,METAR,92.0
LROD 140400Z AUTO 21012KT 3000 -SN VV010 M00/M01 Q1007,LROD,2021-01-14T04:00:00Z,47.03,21.88,0.0,-1.0,210,12,,1.86,29.734253,,,TRUE,,,,,,,-SN,OVX,0,,,,,,,LIFR,,,,,,,,,,,1000,METAR,132.0
LRIA 140400Z 21003KT CAVOK M01/M03 Q1006,LRIA,2021-01-14T04:00:00Z,47.17,27.62,-1.0,-3.0,210,3,,6.21,29.704725,,,,,,,,,,,CAVOK,,,,,,,,VFR,,,,,,,,,,,,METAR,71.0
LRFT 140400Z 25005KT 4000 BR SCT050 BKN180 M01/M02 Q1009 GRN GRN,LRFT,2021-01-14T04:00:00Z,44.38,27.72,-1.0,-2.0,250,5,,2.49,29.793306,,,,,,,,,,BR,SCT,5000,BKN,18000,,,,,IFR,,,,,,,,,,,,METAR,54.0
LRCV 140400Z 25005KT CAVOK M03/M05 Q1009,LRCV,2021-01-14T04:00:00Z,44.32,23.88,-3.0,-5.0,250,5,,6.21,29.793306,,,,,,,,,,,CAVOK,,,,,,,,VFR,,,,,,,,,,,,METAR,192.0
LRCT 140400Z 16010KT 9000 OVC100 M08/M09 Q1006 BLU BLU,LRCT,2021-01-14T04:00:00Z,46.5,23.88,-8.0,-9.0,160,10,,5.59,29.704725,,,,,,,,,,,OVC,10000,,,,,,,VFR,,,,,,,,,,,,METAR,324.0
LRCL 140400Z 10001KT 8000 SCT061 M07/M08 Q1006 R07/19//95,LRCL,2021-01-14T04:00:00Z,46.78,23.68,-7.0,-8.0,100,1,,4.97,29.704725,,,,,,,,,,,SCT,6100,,,,,,,MVFR,,,,,,,,,,,,METAR,313.0
LRCK 140400Z 35005KT 9999 FEW045 M00/M01 Q1008 R36/19//95 NOSIG,LRCK,2021-01-14T04:00:00Z,44.37,28.48,0.0,-1.0,350,5,,6.21,29.763779,,,,,,TRUE,,,,,FEW,4500,,,,,,,VFR,,,,,,,,,,,,METAR,108.0
LRBS 140400Z 27005KT CAVOK M03/M05 Q1010 R07/19//95 NOSIG,LRBS,2021-01-14T04:00:00Z,44.5,26.08,-3.0,-5.0,270,5,,6.21,29.822834,,,,,,TRUE,,,,,CAVOK,,,,,,,,VFR,,,,,,,,,,,,METAR,91.0
LRBO 140400Z VRB02KT 9999 SCT100 M01/M04 Q1008 BLU BLU,LRBO,2021-01-14T04:00:00Z,45.22,26.97,-1.0,-4.0,0,2,,6.21,29.763779,,,,,,,,,,,SCT,10000,,,,,,,VFR,,,,,,,,,,,,METAR,104.0
LRBM 140400Z AUTO 04003KT 4200 -SN OVC017/// M01/M02 Q1006,LRBM,2021-01-14T04:00:00Z,47.67,23.47,-1.0,-2.0,40,3,,2.61,29.704725,,,TRUE,,,,,,,-SN,OVC,1700,,,,,,,IFR,,,,,,,,,,,,METAR,180.0
LRBC 140400Z 19007KT 100V260 CAVOK M06/M08 Q1006 R16/920294,LRBC,2021-01-14T04:00:00Z,46.52,26.92,-6.0,-8.0,190,7,,6.21,29.704725,,,,,,,,,,,CAVOK,,,,,,,,VFR,,,,,,,,,,,,METAR,183.0
LRAR 140400Z 23005KT 200V270 9999 SCT045 M00/M02 Q1008 R09/590893,LRAR,2021-01-14T04:00:00Z,46.18,21.27,0.0,-2.0,230,5,,6.21,29.763779,,,,,,,,,,,SCT,4500,,,,,,,VFR,,,,,,,,,,,,METAR,102.0
LQTZ 140400Z VRB02KT 3000 BR BKN003 M09/M09 Q1008,LQTZ,2021-01-14T04:00:00Z,44.47,18.73,-9.0,-9.0,0,2,,1.86,29.763779,,,,,,,,,,BR,BKN,300,,,,,,,LIFR,,,,,,,,,,,,METAR,242.0
LQSA 140400Z 12004KT 7000 NSC M10/M10 Q1010,LQSA,2021-01-14T04:00:00Z,43.82,18.32,-10.0,-10.0,120,4,,4.35,29.822834,,,,,,,,,,,CLR,,,,,,,,MVFR,,,,,,,,,,,,METAR,505.0
LQMO 140400Z 33003KT 280V360 9999 FEW040 M03/M06 Q1012,LQMO,2021-01-14T04:00:00Z,43.28,17.83,-3.0,-6.0,330,3,,6.21,29.88189,,,,,,,,,,,FEW,4000,,,,,,,VFR,,,,,,,,,,,,METAR,49.0
LPPT 140400Z 00000KT 9999 FEW014 07/06 Q1030,LPPT,2021-01-14T04:00:00Z,38.77,-9.13,7.0,6.0,0,0,,6.21,30.413385,,,,,,,,,,,FEW,1400,,,,,,,VFR,,,,,,,,,,,,METAR,98.0
LPPS 140400Z 04009KT 9999 FEW015 14/08 Q1031,LPPS,2021-01-14T04:00:00Z,33.07,-16.35,14.0,8.0,40,9,,6.21,30.442913,,,,,,,,,,,FEW,1500,,,,,,,VFR,,,,,,,,,,,,METAR,89.0
LPPR 140400Z 00000KT 5000 BR FEW020 01/01 Q1031,LPPR,2021-01-14T04:00:00Z,41.23,-8.68,1.0,1.0,0,0,,3.11,30.442913,,,,,,,,,,BR,FEW,2000,,,,,,,MVFR,,,,,,,,,,,,METAR,64.0
LPPD 140400Z 21011KT 9999 FEW005 SCT016 BKN040 16/15 Q1028,LPPD,2021-01-14T04:00:00Z,37.73,-25.68,16.0,15.0,210,11,,6.21,30.35433,,,,,,,,,,,FEW,500,SCT,1600,BKN,4000,,,VFR,,,,,,,,,,,,METAR,62.0
LPMT 140400Z 14003KT 4000 BR NSC 01/01 Q1030,LPMT,2021-01-14T04:00:00Z,38.7,-9.05,1.0,1.0,140,3,,2.49,30.413385,,,,,,,,,,BR,CLR,,,,,,,,IFR,,,,,,,,,,,,METAR,4.0
LPMR 140400Z 02005KT 7000 BKN019 08/05 Q1031,LPMR,2021-01-14T04:00:00Z,39.82,-8.88,8.0,5.0,20,5,,4.35,30.442913,,,,,,,,,,,BKN,1900,,,,,,,MVFR,,,,,,,,,,,,METAR,50.0
LPMA 140400Z 36008KT 9999 SCT016 14/08 Q1031,LPMA,2021-01-14T04:00:00Z,32.7,-16.77,14.0,8.0,360,8,,6.21,30.442913,,,,,,,,,,,SCT,1600,,,,,,,VFR,,,,,,,,,,,,METAR,54.0
LPLA 140400Z /////KT 9999 FEW007 SCT020 16/14 Q1025,LPLA,2021-01-14T04:00:00Z,38.77,-27.1,16.0,14.0,,,,6.21,30.265747,,,,,,,,,,,FEW,700,SCT,2000,,,,,VFR,,,,,,,,,,,,SPECI,60.0
LPFR 140400Z 32009KT CAVOK 07/04 Q1029,LPFR,2021-01-14T04:00:00Z,37.02,-7.97,7.0,4.0,320,9,,6.21,30.383858,,,,,,,,,,,CAVOK,,,,,,,,VFR,,,,,,,,,,,,METAR,3.0
LPBJ 140400Z 28005KT 0400 FG NSC 02/02 Q1029,LPBJ,2021-01-14T04:00:00Z,38.08,-7.93,2.0,2.0,280,5,,0.25,30.383858,,,,,,,,,,FG,CLR,,,,,,,,LIFR,,,,,,,,,,,,METAR,196.0
LPAZ 140400Z 19012KT 9999 FEW007 SCT040 16/15 Q1029,LPAZ,2021-01-14T04:00:00Z,36.97,-25.17,16.0,15.0,190,12,,6.21,30.383858,,,,,,,,,,,FEW,700,SCT,4000,,,,,VFR,,,,,,,,,,,,METAR,96.0
LKTB 140400Z 31007KT 290V350 9999 SCT046 M01/M04 Q1004 R27/490392 NOSIG,LKTB,2021-01-14T04:00:00Z,49.15,16.68,-1.0,-4.0,310,7,,6.21,29.64567,,,,,,TRUE,,,,,SCT,4600,,,,,,,VFR,,,,,,,,,,,,METAR,233.0
LKPR 140400Z 27010KT 9999 -SN SCT014 SCT030 M01/M05 Q1005 R24/29//95 R30/520395 NOSIG,LKPR,2021-01-14T04:00:00Z,50.1,14.27,-1.0,-5.0,270,10,,6.21,29.675198,,,,,,TRUE,,,,-SN,SCT,1400,SCT,3000,,,,,VFR,,,,,,,,,,,,METAR,364.0
LKNA 140400Z 31015KT 9999 SCT023 M03/M06 Q1003 RMK BLU,LKNA,2021-01-14T04:00:00Z,49.17,16.12,-3.0,-6.0,310,15,,6.21,29.616142,,,,,,,,,,,SCT,2300,,,,,,,VFR,,,,,,,,,,,,SPECI,460.0
LKMT 140400Z 27007KT 240V310 1800 SN SCT010 BKN048 M01/M02 Q1003 R04/550494 TEMPO 35008KT 9999 -SN,LKMT,2021-01-14T04:00:00Z,49.68,18.12,-1.0,-2.0,270,7,,1.12,29.616142,,,,,,,,,,SN,SCT,1000,BKN,4800,,,,,IFR,,,,,,,,,,,,METAR,251.0
LKLN 140400Z AUTO 28009KT 240V320 CAVOK M01/M05 Q1008,LKLN,2021-01-14T04:00:00Z,49.68,13.27,-1.0,-5.0,280,9,,6.21,29.763779,,,TRUE,,,,,,,,CAVOK,,,,,,,,VFR,,,,,,,,,,,,METAR,353.0
LKKB 140400Z 28015KT 9999 -SN BKN036 OVC050 M01/M05 Q1005,LKKB,2021-01-14T04:00:00Z,50.12,14.53,-1.0,-5.0,280,15,,6.21,29.675198,,,,,,,,,,-SN,BKN,3600,OVC,5000,,,,,VFR,,,,,,,,,,,,METAR,281.0
LKCV 140400Z 29013KT 2000 -SN SCT020 BKN029 M02/M03 Q1005 NOSIG RMK YLO YLO,LKCV,2021-01-14T04:00:00Z,49.93,15.38,-2.0,-3.0,290,13,,1.24,29.675198,,,,,,TRUE,,,,-SN,SCT,2000,BKN,2900,,,,,IFR,,,,,,,,,,,,SPECI,234.0
LJPZ 140400Z AUTO VRB02KT 9999 FEW024/// SCT040/// BKN049/// 01/M01 Q1009,LJPZ,2021-01-14T04:00:00Z,45.47,13.62,1.0,-1.0,0,2,,6.21,29.793306,,,TRUE,,,,,,,,FEW,2400,SCT,4000,BKN,4900,,,VFR,,,,,,,,,,,,METAR,2.0
LJMB 140400Z AUTO VRB03KT 9999 NSC M03/M05 Q1005,LJMB,2021-01-14T04:00:00Z,46.47,15.67,-3.0,-5.0,0,3,,6.21,29.675198,,,TRUE,,,,,,,,CLR,,,,,,,,VFR,,,,,,,,,,,,METAR,263.0
LJLJ 140400Z VRB02KT 9999 FEW050 SCT130 BKN200 M08/M09 Q1007 NOSIG,LJLJ,2021-01-14T04:00:00Z,46.22,14.47,-8.0,-9.0,0,2,,6.21,29.734253,,,,,,TRUE,,,,,FEW,5000,SCT,13000,BKN,20000,,,VFR,,,,,,,,,,,,METAR,363.0
LJCE 140400Z AUTO VRB01KT 9999 NSC M04/M06 Q1007,LJCE,2021-01-14T04:00:00Z,45.9,15.52,-4.0,-6.0,0,1,,6.21,29.734253,,,TRUE,,,,,,,,CLR,,,,,,,,VFR,,,,,,,,,,,,METAR,153.0
LGKP 140400Z AUTO 29014KT //// // ////// 12/08 Q1006 RE//,LGKP,2021-01-14T04:00:00Z,35.42,27.15,12.0,8.0,290,14,,,29.704725,,,TRUE,,,,,,,,,,,,,,,,,,,,,,,,,,,,SPECI,20.0
LFYR 140400Z AUTO 24007KT 210V270 //// // BKN013 BKN022 OVC035 08/06 Q1023,LFYR,2021-01-14T04:00:00Z,47.32,1.68,8.0,6.0,240,7,,,30.206694,,,TRUE,,,,,,,,BKN,1300,BKN,2200,OVC,3500,,,,,,,,,,,,,,,METAR,83.0
LFTW 140400Z AUTO 32006KT CAVOK 06/01 Q1021 NOSIG,LFTW,2021-01-14T04:00:00Z,43.75,4.42,6.0,1.0,320,6,,6.21,30.147638,,,TRUE,,,TRUE,,,,,CAVOK,,,,,,,,VFR,,,,,,,,,,,,METAR,91.0
LFTH 140400Z AUTO 25007KT 220V290 CAVOK 11/04 Q1014 BECMG 28015G30KT,LFTH,2021-01-14T04:00:00Z,43.1,6.15,11.0,4.0,250,7,,6.21,29.940945,,,TRUE,,,,,,,,CAVOK,,,,,,,,VFR,,,,,,,,,,,,METAR,3.0
LFSX 140400Z AUTO 26012KT 9999 OVC009 07/06 Q1017,LFSX,2021-01-14T04:00:00Z,47.77,6.35,7.0,6.0,260,12,,6.21,30.029528,,,TRUE,,,,,,,,OVC,900,,,,,,,IFR,,,,,,,,,,,,METAR,266.0
LFST 140400Z AUTO 27004KT 240V300 9999 -RA FEW014 SCT023 BKN028 02/02 Q1017 BECMG 3000 -SN FEW005 OVC010,LFST,2021-01-14T04:00:00Z,48.53,7.63,2.0,2.0,270,4,,6.21,30.029528,,,TRUE,,,,,,,-RA,FEW,1400,SCT,2300,BKN,2800,,,MVFR,,,,,,,,,,,,METAR,149.0
LFSO 140400Z AUTO 01004KT 3800 DZ BR BKN004 OVC011 04/03 Q1017,LFSO,2021-01-14T04:00:00Z,48.57,5.97,4.0,3.0,10,4,,2.36,30.029528,,,TRUE,,,,,,,DZ BR,BKN,400,OVC,1100,,,,,LIFR,,,,,,,,,,,,METAR,328.0
LFSN 140400Z AUTO 04005KT 4100 -RA BR BKN006 BKN010 BKN014 03/03 Q1017,LFSN,2021-01-14T04:00:00Z,48.68,6.22,3.0,3.0,40,5,,2.55,30.029528,,,TRUE,,,,,,,-RA BR,BKN,600,BKN,1000,BKN,1400,,,IFR,,,,,,,,,,,,METAR,214.0
LFSM 140400Z AUTO 25017KT 9999 -DZ OVC010/// ///TCU 07/06 Q1018,LFSM,2021-01-14T04:00:00Z,,,7.0,6.0,250,17,,6.21,30.059055,,,TRUE,,,,,,,-DZ,OVC,1000,,,,,,,MVFR,,,,,,,,,,,,METAR,
LFSL 140400Z AUTO 27005KT 230V310 9999 BKN004 OVC009 06/06 Q1026 TEMPO 4000 -DZRA,LFSL,2021-01-14T04:00:00Z,45.03,1.48,6.0,6.0,270,5,,6.21,30.295275,,,TRUE,,,,,,,,BKN,400,OVC,900,,,,,LIFR,,,,,,,,,,,,METAR,300.0
LFSI 140400Z AUTO 26011KT 4500 -DZ BR OVC005 08/07 Q1017,LFSI,2021-01-14T04:00:00Z,48.62,4.9,8.0,7.0,260,11,,2.8,30.029528,,,TRUE,,,,,,,-DZ BR,OVC,500,,,,,,,IFR,,,,,,,,,,,,METAR,136.0
LFSG 140400Z AUTO 34007KT 290V010 4600 -RA BR BKN005 OVC009 05/04 Q1016,LFSG,2021-01-14T04:00:00Z,48.33,6.07,5.0,4.0,340,7,,2.86,30.0,,,TRUE,,,,,,,-RA BR,BKN,500,OVC,900,,,,,IFR,,,,,,,,,,,,METAR,320.0
LFSD 140400Z AUTO 25008KT 9999 OVC019 08/05 Q1020,LFSD,2021-01-14T04:00:00Z,47.27,5.08,8.0,5.0,250,8,,6.21,30.11811,,,TRUE,,,,,,,,OVC,1900,,,,,,,MVFR,,,,,,,,,,,,METAR,218.0
LFSB 140400Z AUTO 26017KT 9999 -RA BKN016 BKN024 BKN046 07/05 Q1016 TEMPO 26016G28KT RA BKN013,LFSB,2021-01-14T04:00:00Z,47.6,7.52,7.0,5.0,260,17,,6.21,30.0,,,TRUE,,,,,,,-RA,BKN,1600,BKN,2400,BKN,4600,,,MVFR,,,,,,,,,,,,METAR,262.0
LFRZ 140400Z AUTO 25009KT 9999 OVC033 10/07 Q1024 NOSIG,LFRZ,2021-01-14T04:00:00Z,47.32,-2.17,10.0,7.0,250,9,,6.21,30.236221,,,TRUE,,,TRUE,,,,,OVC,3300,,,,,,,VFR,,,,,,,,,,,,METAR,2.0
LFRV 140400Z AUTO 26009KT 230V290 8000 OVC007 09/08 Q1023,LFRV,2021-01-14T04:00:00Z,47.72,-2.72,9.0,8.0,260,9,,4.97,30.206694,,,TRUE,,,,,,,,OVC,700,,,,,,,IFR,,,,,,,,,,,,METAR,132.0
LFRS 140400Z AUTO 21005KT 9999 FEW029 OVC035 08/07 Q1024 NOSIG,LFRS,2021-01-14T04:00:00Z,47.17,-1.6,8.0,7.0,210,5,,6.21,30.236221,,,TRUE,,,TRUE,,,,,FEW,2900,OVC,3500,,,,,VFR,,,,,,,,,,,,METAR,26.0
LFRQ 140400Z AUTO 25013KT 220V280 3900 -DZ BR OVC004 10/10 Q1023,LFRQ,2021-01-14T04:00:00Z,47.97,-4.17,10.0,10.0,250,13,,2.42,30.206694,,,TRUE,,,,,,,-DZ BR,OVC,400,,,,,,,LIFR,,,,,,,,,,,,METAR,94.0
LFRO 140400Z AUTO 23013KT 9999 OVC007 10/09 Q1022,LFRO,2021-01-14T04:00:00Z,48.75,-3.47,10.0,9.0,230,13,,6.21,30.177166,,,TRUE,,,,,,,,OVC,700,,,,,,,IFR,,,,,,,,,,,,METAR,86.0
LFRN 140400Z AUTO 23007KT 9999 OVC021 10/07 Q1023 BECMG 4000 -RA OVC010,LFRN,2021-01-14T04:00:00Z,48.07,-1.73,10.0,7.0,230,7,,6.21,30.206694,,,TRUE,,,,,,,,OVC,2100,,,,,,,MVFR,,,,,,,,,,,,METAR,35.0
LFRM 140400Z AUTO 25005KT 210V280 9999 BKN013 OVC019 09/07 Q1023,LFRM,2021-01-14T04:00:00Z,47.95,0.2,9.0,7.0,250,5,,6.21,30.206694,,,TRUE,,,,,,,,BKN,1300,OVC,1900,,,,,MVFR,,,,,,,,,,,,METAR,51.0
LFRL 140400Z AUTO 24017KT 3800 -DZ BR OVC003 10/10 Q1022,LFRL,2021-01-14T04:00:00Z,48.27,-4.43,10.0,10.0,240,17,,2.36,30.177166,,,TRUE,,,,,,,-DZ BR,OVC,300,,,,,,,LIFR,,,,,,,,,,,,METAR,80.0
LFRK 140400Z AUTO 26016KT 9999 OVC010 09/08 Q1020,LFRK,2021-01-14T04:00:00Z,49.17,-0.45,9.0,8.0,260,16,,6.21,30.11811,,,TRUE,,,,,,,,OVC,1000,,,,,,,MVFR,,,,,,,,,,,,METAR,66.0
LFRJ 140400Z AUTO 23012KT 3800 -RA BR OVC005 10/09 Q1021,LFRJ,2021-01-14T04:00:00Z,48.52,-4.15,10.0,9.0,230,12,,2.36,30.147638,,,TRUE,,,,,,,-RA BR,OVC,500,,,,,,,IFR,,,,,,,,,,,,METAR,109.0
LFRI 140400Z AUTO 24005KT 9999 FEW006 SCT021 OVC034 08/07 Q1025,LFRI,2021-01-14T04:00:00Z,46.7,-1.37,8.0,7.0,240,5,,6.21,30.265747,,,TRUE,,,,,,,,FEW,600,SCT,2100,OVC,3400,,,VFR,,,,,,,,,,,,METAR,89.0
LFRH 140400Z AUTO 26015KT 9999 BKN006 OVC014 10/09 Q1023 BECMG 25015G25KT 4000 RA,LFRH,2021-01-14T04:00:00Z,47.77,-3.45,10.0,9.0,260,15,,6.21,30.206694,,,TRUE,,,,,,,,BKN,600,OVC,1400,,,,,IFR,,,,,,,,,,,,SPECI,46.0
LFRG 140400Z AUTO 25014KT 210V270 9999 OVC006 09/08 Q1020,LFRG,2021-01-14T04:00:00Z,49.37,0.15,9.0,8.0,250,14,,6.21,30.11811,,,TRUE,,,,,,,,OVC,600,,,,,,,IFR,,,,,,,,,,,,METAR,146.0
LFRD 140400Z AUTO 23010KT 9999 OVC017 09/07 Q1021 BECMG 4000 -RA OVC010,LFRD,2021-01-14T04:00:00Z,48.58,-2.07,9.0,7.0,230,10,,6.21,30.147638,,,TRUE,,,,,,,,OVC,1700,,,,,,,MVFR,,,,,,,,,,,,METAR,56.0
LFRC 140400Z AUTO 25017KT 4400 -DZ BR OVC005 09/09 Q1019,LFRC,2021-01-14T04:00:00Z,49.63,-1.47,9.0,9.0,250,17,,2.73,30.088583,,,TRUE,,,,,,,-DZ BR,OVC,500,,,,,,,IFR,,,,,,,,,,,,METAR,137.0
LFRB 140400Z AUTO 24016KT 5000 DZ BR OVC005 10/10 Q1022 TEMPO 2000 -RADZ BECMG 24015G25KT,LFRB,2021-01-14T04:00:00Z,48.45,-4.42,10.0,10.0,240,16,,3.11,30.177166,,,TRUE,,,,,,,DZ BR,OVC,500,,,,,,,IFR,,,,,,,,,,,,METAR,91.0
LFQQ 140400Z AUTO 11003KT 6000 -RA BKN002/// BKN009/// BKN013/// ///TCU 03/02 Q1018 TEMPO SCT007 OVC016,LFQQ,2021-01-14T04:00:00Z,50.57,3.1,3.0,2.0,110,3,,3.73,30.059055,,,TRUE,,,,,,,-RA,BKN,200,BKN,900,BKN,1300,,,LIFR,,,,,,,,,,,,METAR,43.0
LFQB 140400Z AUTO 26018KT 9000 OVC010 08/07 Q1019,LFQB,2021-01-14T04:00:00Z,48.32,4.02,8.0,7.0,260,18,,5.59,30.088583,,,TRUE,,,,,,,,OVC,1000,,,,,,,MVFR,,,,,,,,,,,,METAR,107.0
LFQA 140400Z AUTO 06006KT 2700 -RA BR OVC007 05/05 Q1017,LFQA,2021-01-14T04:00:00Z,49.2,4.15,5.0,5.0,60,6,,1.68,30.029528,,,TRUE,,,,,,,-RA BR,OVC,700,,,,,,,IFR,,,,,,,,,,,,METAR,92.0
LFPV 140400Z AUTO 26012KT 9999 OVC008 08/07 Q1019 NOSIG,LFPV,2021-01-14T04:00:00Z,48.77,2.2,8.0,7.0,260,12,,6.21,30.088583,,,TRUE,,,TRUE,,,,,OVC,800,,,,,,,IFR,,,,,,,,,,,,METAR,171.0
LFPT 140400Z AUTO 27011KT 9000 OVC009 09/08 Q1018,LFPT,2021-01-14T04:00:00Z,49.1,2.03,9.0,8.0,270,11,,5.59,30.059055,,,TRUE,,,,,,,,OVC,900,,,,,,,IFR,,,,,,,,,,,,METAR,91.0
LFPO 140400Z 25011KT 9999 OVC013 09/07 Q1019 TEMPO 4000 -DZRA BKN006,LFPO,2021-01-14T04:00:00Z,48.72,2.38,9.0,7.0,250,11,,6.21,30.088583,,,,,,,,,,,OVC,1300,,,,,,,MVFR,,,,,,,,,,,,METAR,88.0
LFPN 140400Z AUTO 26010KT 9999 OVC009 08/07 Q1019,LFPN,2021-01-14T04:00:00Z,48.75,2.12,8.0,7.0,260,10,,6.21,30.088583,,,TRUE,,,,,,,,OVC,900,,,,,,,IFR,,,,,,,,,,,,METAR,152.0
LFPM 140400Z AUTO 25014KT 9999 BKN009 OVC013 08/07 Q1019,LFPM,2021-01-14T04:00:00Z,48.62,2.67,8.0,7.0,250,14,,6.21,30.088583,,,TRUE,,,,,,,,BKN,900,OVC,1300,,,,,IFR,,,,,,,,,,,,METAR,91.0
LFPG 140400Z 25013KT 9999 BKN009 09/07 Q1018 TEMPO OVC006,LFPG,2021-01-14T04:00:00Z,49.02,2.53,9.0,7.0,250,13,,6.21,30.059055,,,,,,,,,,,BKN,900,,,,,,,IFR,,,,,,,,,,,,METAR,107.0
LFPB 140400Z AUTO 26010KT 230V290 9999 OVC011 09/08 Q1019 TEMPO 3000 -RADZ BKN004,LFPB,2021-01-14T04:00:00Z,48.97,2.42,9.0,8.0,260,10,,6.21,30.088583,,,TRUE,,,,,,,,OVC,1100,,,,,,,MVFR,,,,,,,,,,,,METAR,50.0
LFOZ 140400Z AUTO 24009KT 9999 FEW011 BKN017 OVC024 07/06 Q1022,LFOZ,2021-01-14T04:00:00Z,47.9,2.17,7.0,6.0,240,9,,6.21,30.177166,,,TRUE,,,,,,,,FEW,1100,BKN,1700,OVC,2400,,,MVFR,,,,,,,,,,,,METAR,121.0
LFOV 140400Z AUTO 25006KT 9999 OVC021 09/07 Q1023,LFOV,2021-01-14T04:00:00Z,48.03,-0.75,9.0,7.0,250,6,,6.21,30.206694,,,TRUE,,,,,,,,OVC,2100,,,,,,,MVFR,,,,,,,,,,,,METAR,99.0
LFOT 140400Z AUTO 25008KT 9999 BKN013 OVC026 08/07 Q1023 NOSIG,LFOT,2021-01-14T04:00:00Z,47.43,0.72,8.0,7.0,250,8,,6.21,30.206694,,,TRUE,,,TRUE,,,,,BKN,1300,OVC,2600,,,,,MVFR,,,,,,,,,,,,METAR,107.0
LFOP 140400Z AUTO 27013KT 7000 -DZ OVC004 08/08 Q1018,LFOP,2021-01-14T04:00:00Z,49.37,1.17,8.0,8.0,270,13,,4.35,30.059055,,,TRUE,,,,,,,-DZ,OVC,400,,,,,,,LIFR,,,,,,,,,,,,METAR,149.0
LFOK 140400Z AUTO 25014KT 5000 -DZ BR OVC004 08/07 Q1017 TEMPO 1500 DZRA BR,LFOK,2021-01-14T04:00:00Z,48.78,4.15,8.0,7.0,250,14,,3.11,30.029528,,,TRUE,,,,,,,-DZ BR,OVC,400,,,,,,,LIFR,,,,,,,,,,,,SPECI,166.0
LFOJ 140400Z AUTO 24012KT 9999 OVC023 08/06 Q1021,LFOJ,2021-01-14T04:00:00Z,47.98,1.75,8.0,6.0,240,12,,6.21,30.147638,,,TRUE,,,,,,,,OVC,2300,,,,,,,MVFR,,,,,,,,,,,,METAR,122.0
LFOH 140400Z AUTO 24018KT 9999 OVC005 09/08 Q1019,LFOH,2021-01-14T04:00:00Z,49.52,0.08,9.0,8.0,240,18,,6.21,30.088583,,,TRUE,,,,,,,,OVC,500,,,,,,,IFR,,,,,,,,,,,,METAR,87.0
LFOE 140400Z AUTO 25011KT 9000 OVC007 08/07 Q1019 TEMPO 3000 -RADZ OVC003 BECMG 27015G25KT,LFOE,2021-01-14T04:00:00Z,49.02,1.22,8.0,7.0,250,11,,5.59,30.088583,,,TRUE,,,,,,,,OVC,700,,,,,,,IFR,,,,,,,,,,,,METAR,132.0
LFOC 140400Z AUTO 25014KT 9999 ////// 08/06 Q1021,LFOC,2021-01-14T04:00:00Z,48.05,1.37,8.0,6.0,250,14,,6.21,30.147638,,,TRUE,,,,,,,,,,,,,,,,,,,,,,,,,,,,METAR,124.0
LFOB 140400Z AUTO 26012KT 9999 -DZ BKN008 OVC012 09/08 Q1017 TEMPO 1500 DZRA BR OVC003,LFOB,2021-01-14T04:00:00Z,49.47,2.12,9.0,8.0,260,12,,6.21,30.029528,,,TRUE,,,,,,,-DZ,BKN,800,OVC,1200,,,,,IFR,,,,,,,,,,,,METAR,99.0
LFOA 140400Z AUTO 26014KT 9999 OVC029 07/06 Q1023,LFOA,2021-01-14T04:00:00Z,47.05,2.63,7.0,6.0,260,14,,6.21,30.206694,,,TRUE,,,,,,,,OVC,2900,,,,,,,MVFR,,,,,,,,,,,,METAR,174.0
LFMY 140400Z AUTO 32018KT CAVOK 09/04 Q1019,LFMY,2021-01-14T04:00:00Z,43.6,5.1,9.0,4.0,320,18,,6.21,30.088583,,,TRUE,,,,,,,,CAVOK,,,,,,,,VFR,,,,,,,,,,,,METAR,57.0
LFMV 140400Z AUTO 34014KT 9999 BKN044 08/04 Q1021 TEMPO 33015G25KT,LFMV,2021-01-14T04:00:00Z,43.9,4.9,8.0,4.0,340,14,,6.21,30.147638,,,TRUE,,,,,,,,BKN,4400,,,,,,,VFR,,,,,,,,,,,,SPECI,33.0
LFMU 140400Z AUTO 31017KT CAVOK 10/03 Q1023 NOSIG,LFMU,2021-01-14T04:00:00Z,43.32,3.35,10.0,3.0,310,17,,6.21,30.206694,,,TRUE,,,TRUE,,,,,CAVOK,,,,,,,,VFR,,,,,,,,,,,,METAR,14.0
LFMT 140400Z AUTO 31020KT CAVOK 11/03 Q1022 NOSIG,LFMT,2021-01-14T04:00:00Z,43.57,3.97,11.0,3.0,310,20,,6.21,30.177166,,,TRUE,,,TRUE,,,,,CAVOK,,,,,,,,VFR,,,,,,,,,,,,METAR,1.0
LFMP 140400Z AUTO VRB10G24KT 9999 FEW039 10/02 Q1023 NOSIG,LFMP,2021-01-14T04:00:00Z,42.73,2.87,10.0,2.0,0,10,24,6.21,30.206694,,,TRUE,,,TRUE,,,,,FEW,3900,,,,,,,VFR,,,,,,,,,,,,METAR,41.0
LFMO 140400Z AUTO 34016KT 9999 OVC044 09/04 Q1021 TEMPO 35025G35KT,LFMO,2021-01-14T04:00:00Z,44.13,4.87,9.0,4.0,340,16,,6.21,30.147638,,,TRUE,,,,,,,,OVC,4400,,,,,,,VFR,,,,,,,,,,,,SPECI,56.0
LFMN 140400Z 32009KT CAVOK 05/01 Q1011 NOSIG,LFMN,2021-01-14T04:00:00Z,43.65,7.2,5.0,1.0,320,9,,6.21,29.852362,,,,,,TRUE,,,,,CAVOK,,,,,,,,VFR,,,,,,,,,,,,METAR,4.0
LFML 140400Z AUTO 30024KT CAVOK 08/05 Q1019 BECMG 32020G30KT,LFML,2021-01-14T04:00:00Z,43.45,5.22,8.0,5.0,300,24,,6.21,30.088583,,,TRUE,,,,,,,,CAVOK,,,,,,,,VFR,,,,,,,,,,,,METAR,20.0
LFMK 140400Z AUTO 28014KT 9999 FEW007 BKN016 BKN025 07/07 Q1027 TEMPO BKN008 BECMG 28015G25KT,LFMK,2021-01-14T04:00:00Z,43.22,2.32,7.0,7.0,280,14,,6.21,30.324802,,,TRUE,,,,,,,,FEW,700,BKN,1600,BKN,2500,,,MVFR,,,,,,,,,,,,SPECI,124.0
LFMI 140400Z AUTO 32014KT CAVOK 07/04 Q1020 TEMPO 32015G25KT,LFMI,2021-01-14T04:00:00Z,43.52,4.93,7.0,4.0,320,14,,6.21,30.11811,,,TRUE,,,,,,,,CAVOK,,,,,,,,VFR,,,,,,,,,,,,SPECI,20.0
LFMH 140400Z AUTO 36010KT 9999 OVC037 06/02 Q1023,LFMH,2021-01-14T04:00:00Z,45.52,4.28,6.0,2.0,360,10,,6.21,30.206694,,,TRUE,,,,,,,,OVC,3700,,,,,,,VFR,,,,,,,,,,,,METAR,400.0
LFMD 140400Z AUTO 01006KT 320V040 CAVOK 03/02 Q1011 NOSIG,LFMD,2021-01-14T04:00:00Z,43.53,6.95,3.0,2.0,10,6,,6.21,29.852362,,,TRUE,,,TRUE,,,,,CAVOK,,,,,,,,VFR,,,,,,,,,,,,METAR,2.0
LFMC 140400Z AUTO 26012KT 9999 ////// 10/04 Q1014,LFMC,2021-01-14T04:00:00Z,43.37,6.38,10.0,4.0,260,12,,6.21,29.940945,,,TRUE,,,,,,,,,,,,,,,,,,,,,,,,,,,,METAR,79.0
LFLY 140400Z AUTO 29013KT 9999 BKN038 OVC046 08/04 Q1023 TEMPO 2000 -RADZ OVC004,LFLY,2021-01-14T04:00:00Z,45.72,4.95,8.0,4.0,290,13,,6.21,30.206694,,,TRUE,,,,,,,,BKN,3800,OVC,4600,,,,,VFR,,,,,,,,,,,,METAR,197.0
LFLX 140400Z AUTO 24014KT 9000 -DZ BKN007 BKN011 BKN017 07/06 Q1024 TEMPO BKN012,LFLX,2021-01-14T04:00:00Z,46.87,1.73,7.0,6.0,240,14,,5.59,30.236221,,,TRUE,,,,,,,-DZ,BKN,700,BKN,1100,BKN,1700,,,IFR,,,,,,,,,,,,SPECI,157.0
LFLS 140400Z AUTO 08004KT 9999 FEW018 BKN032 OVC039 05/04 Q1023 TEMPO 2800 -RA BR FEW006 BKN011,LFLS,2021-01-14T04:00:00Z,45.37,5.32,5.0,4.0,80,4,,6.21,30.206694,,,TRUE,,,,,,,,FEW,1800,BKN,3200,OVC,3900,,,VFR,,,,,,,,,,,,METAR,386.0
LFLP 140400Z AUTO 05004KT 8000 -DZ FEW005 OVC031 02/02 Q1023 TEMPO 3800 -RA BR BKN008 BKN014,LFLP,2021-01-14T04:00:00Z,45.92,6.1,2.0,2.0,50,4,,4.97,30.206694,,,TRUE,,,,,,,-DZ,FEW,500,OVC,3100,,,,,MVFR,,,,,,,,,,,,METAR,460.0
LFLN 140400Z AUTO 27009KT 7000 -DZ BKN008 OVC012 06/05 Q1023,LFLN,2021-01-14T04:00:00Z,46.42,4.02,6.0,5.0,270,9,,4.35,30.206694,,,TRUE,,,,,,,-DZ,BKN,800,OVC,1200,,,,,IFR,,,,,,,,,,,,METAR,238.0
LFLL 140400Z 23004KT 190V270 9999 BKN033 06/05 Q1023 NOSIG,LFLL,2021-01-14T04:00:00Z,45.72,5.07,6.0,5.0,230,4,,6.21,30.206694,,,,,,TRUE,,,,,BKN,3300,,,,,,,VFR,,,,,,,,,,,,METAR,234.0
LFLC 140400Z AUTO 31003KT 280V360 9999 BKN030 OVC036 07/02 Q1024 TEMPO 27020G35KT,LFLC,2021-01-14T04:00:00Z,45.78,3.17,7.0,2.0,310,3,,6.21,30.236221,,,TRUE,,,,,,,,BKN,3000,OVC,3600,,,,,MVFR,,,,,,,,,,,,METAR,325.0
LFLB 140400Z AUTO VRB03KT 3700 -DZ BR SCT021 BKN036 OVC047 04/03 Q1024 TEMPO BKN011,LFLB,2021-01-14T04:00:00Z,45.63,5.87,4.0,3.0,0,3,,2.3,30.236221,,,TRUE,,,,,,,-DZ BR,SCT,2100,BKN,3600,OVC,4700,,,IFR,,,,,,,,,,,,METAR,234.0
LFKS 140400Z AUTO 27006KT 9999 ////// 06/04 Q1011,LFKS,2021-01-14T04:00:00Z,41.92,9.4,6.0,4.0,270,6,,6.21,29.852362,,,TRUE,,,,,,,,,,,,,,,,,,,,,,,,,,,,METAR,22.0
LFKJ 140400Z AUTO 03005KT 9999 FEW030 OVC040 08/06 Q1015 NOSIG,LFKJ,2021-01-14T04:00:00Z,41.92,8.8,8.0,6.0,30,5,,6.21,29.970472,,,TRUE,,,TRUE,,,,,FEW,3000,OVC,4000,,,,,VFR,,,,,,,,,,,,METAR,9.0
LFKF 140400Z AUTO 26015KT 230V290 9999 BKN027 BKN034 BKN042 12/08 Q1013 TEMPO 28015G35KT,LFKF,2021-01-14T04:00:00Z,41.5,9.08,12.0,8.0,260,15,,6.21,29.911417,,,TRUE,,,,,,,,BKN,2700,BKN,3400,BKN,4200,,,MVFR,,,,,,,,,,,,METAR,15.0
LFKC 140400Z AUTO 21016G28KT 170V260 CAVOK 13/07 Q1011 NOSIG,LFKC,2021-01-14T04:00:00Z,42.52,8.8,13.0,7.0,210,16,28,6.21,29.852362,,,TRUE,,,TRUE,,,,,CAVOK,,,,,,,,VFR,,,,,,,,,,,,METAR,38.0
LFKB 140400Z AUTO 22005KT CAVOK 03/02 Q1012 NOSIG,LFKB,2021-01-14T04:00:00Z,42.55,9.48,3.0,2.0,220,5,,6.21,29.88189,,,TRUE,,,TRUE,,,,,CAVOK,,,,,,,,VFR,,,,,,,,,,,,METAR,7.0
LFJR 140400Z AUTO 24008KT 9999 OVC029 09/07 Q1024,LFJR,2021-01-14T04:00:00Z,47.57,-0.32,9.0,7.0,240,8,,6.21,30.236221,,,TRUE,,,,,,,,OVC,2900,,,,,,,MVFR,,,,,,,,,,,,METAR,50.0
LFJL 140400Z AUTO 35004KT 4300 -RA BR BKN006 OVC029 02/02 Q1017 NOSIG,LFJL,2021-01-14T04:00:00Z,48.97,6.25,2.0,2.0,350,4,,2.67,30.029528,,,TRUE,,,TRUE,,,,-RA BR,BKN,600,OVC,2900,,,,,IFR,,,,,,,,,,,,METAR,259.0
LFGJ 140400Z AUTO 21010KT 9999 OVC022 06/05 Q1021,LFGJ,2021-01-14T04:00:00Z,47.05,5.43,6.0,5.0,210,10,,6.21,30.147638,,,TRUE,,,,,,,,OVC,2200,,,,,,,MVFR,,,,,,,,,,,,METAR,191.0
LFGA 140400Z AUTO 05004KT 020V090 9000 RA OVC004 03/02 Q1017,LFGA,2021-01-14T04:00:00Z,48.1,7.35,3.0,2.0,50,4,,5.59,30.029528,,,TRUE,,,,,,,RA,OVC,400,,,,,,,LIFR,,,,,,,,,,,,METAR,191.0
LFCR 140400Z AUTO 30012KT 9999 BKN008 BKN013 BKN020 04/03 Q1025 TEMPO 2000 -RADZ OVC002,LFCR,2021-01-14T04:00:00Z,44.4,2.47,4.0,3.0,300,12,,6.21,30.265747,,,TRUE,,,,,,,,BKN,800,BKN,1300,BKN,2000,,,IFR,,,,,,,,,,,,SPECI,576.0
LFCK 140400Z AUTO 30012KT 9999 BKN006 OVC013 07/06 Q1028,LFCK,2021-01-14T04:00:00Z,43.55,2.28,7.0,6.0,300,12,,6.21,30.35433,,,TRUE,,,,,,,,BKN,600,OVC,1300,,,,,IFR,,,,,,,,,,,,METAR,223.0
LFBZ 140400Z AUTO 18003KT 9999 BKN032 OVC038 08/07 Q1030 NOSIG,LFBZ,2021-01-14T04:00:00Z,43.47,-1.53,8.0,7.0,180,3,,6.21,30.413385,,,TRUE,,,TRUE,,,,,BKN,3200,OVC,3800,,,,,VFR,,,,,,,,,,,,METAR,70.0
LFBY 140400Z AUTO 00000KT 0750 // ////// 07/06 Q1029,LFBY,2021-01-14T04:00:00Z,43.68,-1.07,7.0,6.0,0,0,,0.47,30.383858,,,TRUE,,,,,,,,,,,,,,,,,,,,,,,,,,,,METAR,32.0
LFBU 140400Z AUTO 22004KT 160V260 6000 OVC002 07/07 Q1027,LFBU,2021-01-14T04:00:00Z,45.72,0.22,7.0,7.0,220,4,,3.73,30.324802,,,TRUE,,,,,,,,OVC,200,,,,,,,LIFR,,,,,,,,,,,,METAR,124.0
LFBT 140400Z AUTO 23007KT 9999 OVC027 04/01 Q1029 NOSIG,LFBT,2021-01-14T04:00:00Z,43.18,0.0,4.0,1.0,230,7,,6.21,30.383858,,,TRUE,,,TRUE,,,,,OVC,2700,,,,,,,MVFR,,,,,,,,,,,,METAR,359.0
LFBP 140400Z AUTO 18005KT 9999 OVC040 07/06 Q1029 TEMPO BKN014,LFBP,2021-01-14T04:00:00Z,43.38,-0.42,7.0,6.0,180,5,,6.21,30.383858,,,TRUE,,,,,,,,OVC,4000,,,,,,,VFR,,,,,,,,,,,,METAR,182.0
LFBO 140400Z AUTO 26008KT 9999 BKN008 BKN012 BKN025 07/06 Q1028 NOSIG,LFBO,2021-01-14T04:00:00Z,43.62,1.37,7.0,6.0,260,8,,6.21,30.35433,,,TRUE,,,TRUE,,,,,BKN,800,BKN,1200,BKN,2500,,,IFR,,,,,,,,,,,,METAR,150.0
LFBM 140400Z AUTO 24002KT 1600 0700 R27/1500D BCFG SCT023 BKN042 BKN048 06/05 Q1029 TEMPO 0400 FG VV///,LFBM,2021-01-14T04:00:00Z,43.92,-0.5,6.0,5.0,240,2,,0.99,30.383858,,,TRUE,,,,,,,BCFG,SCT,2300,BKN,4200,BKN,4800,,,LIFR,,,,,,,,,,,,METAR,56.0
LFBL 140400Z AUTO /////KT 1300 0800 R21/3900D R03/0900U DZ BCFG OVC002 05/05 Q1025,LFBL,2021-01-14T04:00:00Z,45.87,1.17,5.0,5.0,,,,0.81,30.265747,,,TRUE,,,,,,,BCFG DZ,OVC,200,,,,,,,LIFR,,,,,,,,,,,,METAR,402.0
LFBI 140400Z AUTO 23008KT 9999 SCT015 BKN020 OVC032 07/06 Q1025 TEMPO 2500 RADZ OVC004,LFBI,2021-01-14T04:00:00Z,46.58,0.32,7.0,6.0,230,8,,6.21,30.265747,,,TRUE,,,,,,,,SCT,1500,BKN,2000,OVC,3200,,,MVFR,,,,,,,,,,,,METAR,117.0
LFBH 140400Z AUTO 27006KT 9999 FEW007 SCT020 OVC035 09/08 Q1026 NOSIG,LFBH,2021-01-14T04:00:00Z,46.18,-1.2,9.0,8.0,270,6,,6.21,30.295275,,,TRUE,,,TRUE,,,,,FEW,700,SCT,2000,OVC,3500,,,VFR,,,,,,,,,,,,METAR,18.0
LFBG 140400Z AUTO 24005KT 9999 FEW006 BKN034 OVC041 07/07 Q1027,LFBG,2021-01-14T04:00:00Z,45.67,-0.32,7.0,7.0,240,5,,6.21,30.324802,,,TRUE,,,,,,,,FEW,600,BKN,3400,OVC,4100,,,VFR,,,,,,,,,,,,METAR,28.0
LFBE 140400Z AUTO 24004KT 9999 BKN007 BKN019 OVC042 07/07 Q1028,LFBE,2021-01-14T04:00:00Z,44.82,0.52,7.0,7.0,240,4,,6.21,30.35433,,,TRUE,,,,,,,,BKN,700,BKN,1900,OVC,4200,,,IFR,,,,,,,,,,,,METAR,49.0
LFBD 140400Z AUTO 21005KT 9999 SCT030 OVC037 08/07 Q1028 NOSIG,LFBD,2021-01-14T04:00:00Z,44.82,-0.7,8.0,7.0,210,5,,6.21,30.35433,,,TRUE,,,TRUE,,,,,SCT,3000,OVC,3700,,,,,VFR,,,,,,,,,,,,METAR,48.0
LFBC 140400Z AUTO 20003KT 9999 OVC034 08/08 Q1028,LFBC,2021-01-14T04:00:00Z,44.52,-1.12,8.0,8.0,200,3,,6.21,30.35433,,,TRUE,,,,,,,,OVC,3400,,,,,,,VFR,,,,,,,,,,,,METAR,22.0
LFBA 140400Z AUTO 26005KT 9999 BKN009 OVC018 07/07 Q1028,LFBA,2021-01-14T04:00:00Z,44.17,0.6,7.0,7.0,260,5,,6.21,30.35433,,,TRUE,,,,,,,,BKN,900,OVC,1800,,,,,IFR,,,,,,,,,,,,METAR,68.0
LFAT 140400Z AUTO 29008KT 260V320 4700 -RA BR OVC003/// ///TCU 09/09 Q1016,LFAT,2021-01-14T04:00:00Z,50.52,1.62,9.0,9.0,290,8,,2.92,30.0,,,TRUE,,,,,,,-RA BR,OVC,300,,,,,,,LIFR,,,,,,,,,,,,METAR,2.0
LFAQ 140400Z AUTO 09008KT 4000 -RA BR BKN004/// OVC008/// ///TCU 04/04 Q1017,LFAQ,2021-01-14T04:00:00Z,49.97,2.7,4.0,4.0,90,8,,2.49,30.029528,,,TRUE,,,,,,,-RA BR,BKN,400,OVC,800,,,,,LIFR,,,,,,,,,,,,METAR,107.0
LFAC 140400Z AUTO 13007KT 7000 RA BKN005 BKN011 OVC019 04/03 Q1017,LFAC,2021-01-14T04:00:00Z,50.97,1.95,4.0,3.0,130,7,,4.35,30.029528,,,TRUE,,,,,,,RA,BKN,500,BKN,1100,OVC,1900,,,IFR,,,,,,,,,,,,METAR,3.0
LEZL 140400Z AUTO 09001KT 3900 BR NCD 01/00 Q1029,LEZL,2021-01-14T04:00:00Z,37.42,-5.9,1.0,0.0,90,1,,2.42,30.383858,,,TRUE,,,,,,,BR,CLR,,,,,,,,IFR,,,,,,,,,,,,METAR,26.0
LEZG 140400Z 28014KT CAVOK 05/02 Q1026,LEZG,2021-01-14T04:00:00Z,41.67,-1.02,5.0,2.0,280,14,,6.21,30.295275,,,,,,,,,,,CAVOK,,,,,,,,VFR,,,,,,,,,,,,METAR,245.0
LEXJ 140400Z AUTO 20005KT 130V240 9999 BKN038 06/03 Q1031,LEXJ,2021-01-14T04:00:00Z,43.42,-3.82,6.0,3.0,200,5,,6.21,30.442913,,,TRUE,,,,,,,,BKN,3800,,,,,,,VFR,,,,,,,,,,,,METAR,1.0
LEVX 140400Z 35003KT 320V030 6000 FEW022 03/02 Q1031 TEMPO 1000 BCFG,LEVX,2021-01-14T04:00:00Z,42.23,-8.62,3.0,2.0,350,3,,3.73,30.442913,,,,,,,,,,,FEW,2200,,,,,,,MVFR,,,,,,,,,,,,SPECI,253.0
LEVT 140400Z 36001KT 0150 R04/0500N R22/0375N FZFG VV001 M03/M03 Q1030,LEVT,2021-01-14T04:00:00Z,42.87,-2.72,-3.0,-3.0,360,1,,0.09,30.413385,,,,,,,,,,FZFG,OVX,0,,,,,,,LIFR,,,,,,,,,,,100,SPECI,501.0
LEVS 140400Z AUTO VRB01KT 9000 NSC M07/M08 Q1027,LEVS,2021-01-14T04:00:00Z,40.37,-3.78,-7.0,-8.0,0,1,,5.59,30.324802,,,TRUE,,,,,,,,CLR,,,,,,,,VFR,,,,,,,,,,,,METAR,683.0
LEVD 140400Z AUTO 12002KT 0200 0050NE R23/0225N R05/0650N FZFG VV001 M07/M08 Q1029,LEVD,2021-01-14T04:00:00Z,41.72,-4.85,-7.0,-8.0,120,2,,0.12,30.383858,,,TRUE,,,,,,,FZFG,OVX,0,,,,,,,LIFR,,,,,,,,,,,100,SPECI,844.0
LEVC 140400Z 30005KT CAVOK 01/M01 Q1025 NOSIG,LEVC,2021-01-14T04:00:00Z,39.5,-0.47,1.0,-1.0,300,5,,6.21,30.265747,,,,,,TRUE,,,,,CAVOK,,,,,,,,VFR,,,,,,,,,,,,METAR,58.0
LETU 140400Z AUTO 31014KT 9999 NCD 05/01 Q1028,LETU,2021-01-14T04:00:00Z,,,5.0,1.0,310,14,,6.21,30.35433,,,TRUE,,,,,,,,CLR,,,,,,,,VFR,,,,,,,,,,,,METAR,
LETL 140400Z AUTO 28003KT CAVOK M12/M13 Q1026,LETL,2021-01-14T04:00:00Z,40.42,-1.22,-12.0,-13.0,280,3,,6.21,30.295275,,,TRUE,,,,,,,,CAVOK,,,,,,,,VFR,,,,,,,,,,,,METAR,1024.0
LEST 140400Z 15005KT 9999 BKN018 04/02 Q1031 TEMPO 4000 BR BKN012,LEST,2021-01-14T04:00:00Z,42.88,-8.42,4.0,2.0,150,5,,6.21,30.442913,,,,,,,,,,,BKN,1800,,,,,,,MVFR,,,,,,,,,,,,SPECI,363.0
LESO 140400Z AUTO 20005KT 9999 SCT022 BKN028 09/07 Q1030,LESO,2021-01-14T04:00:00Z,43.35,-1.8,9.0,7.0,200,5,,6.21,30.413385,,,TRUE,,,,,,,,SCT,2200,BKN,2800,,,,,MVFR,,,,,,,,,,,,METAR,3.0
LESB 140400Z AUTO 06003KT CAVOK 03/02 Q1025,LESB,2021-01-14T04:00:00Z,39.6,2.7,3.0,2.0,60,3,,6.21,30.265747,,,TRUE,,,,,,,,CAVOK,,,,,,,,VFR,,,,,,,,,,,,METAR,48.0
LESA 140400Z AUTO 00000KT CAVOK M10/M12 Q1029,LESA,2021-01-14T04:00:00Z,40.95,-5.5,-10.0,-12.0,0,0,,6.21,30.383858,,,TRUE,,,,,,,,CAVOK,,,,,,,,VFR,,,,,,,,,,,,METAR,788.0
LERT 140400Z 07002KT CAVOK 04/02 Q1029 NOSIG,LERT,2021-01-14T04:00:00Z,36.63,-6.33,4.0,2.0,70,2,,6.21,30.383858,,,,,,TRUE,,,,,CAVOK,,,,,,,,VFR,,,,,,,,,,,,METAR,27.0
LERS 140400Z AUTO VRB02KT CAVOK M00/M01 Q1024,LERS,2021-01-14T04:00:00Z,41.13,1.17,0.0,-1.0,0,2,,6.21,30.236221,,,TRUE,,,,,,,,CAVOK,,,,,,,,VFR,,,,,,,,,,,,METAR,68.0
LEPP 140400Z AUTO 32007KT 9999 OVC021 06/03 Q1028,LEPP,2021-01-14T04:00:00Z,42.77,-1.65,6.0,3.0,320,7,,6.21,30.35433,,,TRUE,,,,,,,,OVC,2100,,,,,,,MVFR,,,,,,,,,,,,METAR,448.0
LEPA 140400Z VRB01KT CAVOK 01/00 Q1024 NOSIG,LEPA,2021-01-14T04:00:00Z,39.55,2.73,1.0,0.0,0,1,,6.21,30.236221,,,,,,TRUE,,,,,CAVOK,,,,,,,,VFR,,,,,,,,,,,,METAR,8.0
LEMI 140400Z AUTO 32005KT CAVOK 08/M03 Q1025,LEMI,2021-01-14T04:00:00Z,37.8,-1.12,8.0,-3.0,320,5,,6.21,30.265747,,,TRUE,,,,,,,,CAVOK,,,,,,,,VFR,,,,,,,,,,,,METAR,193.0
LEMH 140400Z AUTO VRB02KT 9999 BKN021/// 07/06 Q1023,LEMH,2021-01-14T04:00:00Z,39.87,4.22,7.0,6.0,0,2,,6.21,30.206694,,,TRUE,,,,,,,,BKN,2100,,,,,,,MVFR,,,,,,,,,,,,METAR,82.0
LEMG 140400Z 28014KT CAVOK 11/M00 Q1026 NOSIG,LEMG,2021-01-14T04:00:00Z,36.67,-4.47,11.0,0.0,280,14,,6.21,30.295275,,,,,,TRUE,,,,,CAVOK,,,,,,,,VFR,,,,,,,,,,,,METAR,5.0
LEMD 140400Z 36002KT 7000 NSC M09/M10 Q1027 NOSIG,LEMD,2021-01-14T04:00:00Z,40.45,-3.57,-9.0,-10.0,360,2,,4.35,30.324802,,,,,,TRUE,,,,,CLR,,,,,,,,MVFR,,,,,,,,,,,,METAR,589.0
LELO 140400Z AUTO 25007KT CAVOK 00/M01 Q1030,LELO,2021-01-14T04:00:00Z,42.45,-2.32,0.0,-1.0,250,7,,6.21,30.413385,,,TRUE,,,,,,,,CAVOK,,,,,,,,VFR,,,,,,,,,,,,METAR,352.0
LELN 140400Z AUTO 00000KT 9999 0300SW R23/P2000 R05/0700U BCFG VV002 M10/M11 Q1028,LELN,2021-01-14T04:00:00Z,42.58,-5.65,-10.0,-11.0,0,0,,6.21,30.35433,,,TRUE,,,,,,,BCFG,OVX,0,,,,,,,LIFR,,,,,,,,,,,200,SPECI,911.0
LELL 140400Z AUTO 30004KT CAVOK 02/01 Q1024,LELL,2021-01-14T04:00:00Z,41.52,2.1,2.0,1.0,300,4,,6.21,30.236221,,,TRUE,,,,,,,,CAVOK,,,,,,,,VFR,,,,,,,,,,,,METAR,136.0
LELC 140400Z AUTO 25005KT 9000 NCD 02/01 Q1025,LELC,2021-01-14T04:00:00Z,37.77,-0.8,2.0,1.0,250,5,,5.59,30.265747,,,TRUE,,,,,,,,CLR,,,,,,,,VFR,,,,,,,,,,,,METAR,3.0
LEIB 140400Z AUTO 00000KT CAVOK 03/02 Q1024,LEIB,2021-01-14T04:00:00Z,38.87,1.38,3.0,2.0,0,0,,6.21,30.236221,,,TRUE,,,,,,,,CAVOK,,,,,,,,VFR,,,,,,,,,,,,METAR,4.0
LEHC 140400Z AUTO 00000KT 0050 R30L/0250N R12R/0075N FZFG VV001 M01/M01 Q1024,LEHC,2021-01-14T04:00:00Z,42.08,-0.32,-1.0,-1.0,0,0,,0.03,30.236221,,,TRUE,,,,,,,FZFG,OVX,0,,,,,,,LIFR,,,,,,,,,,,100,METAR,540.0
LEGR 140400Z AUTO 00000KT 9999 ////// M04/M04 Q1028,LEGR,2021-01-14T04:00:00Z,37.18,-3.78,-4.0,-4.0,0,0,,6.21,30.35433,,,TRUE,,,,,,,,,,,,,,,,,,,,,,,,,,,,SPECI,560.0
LEGE 140400Z 00000KT CAVOK M02/M02 Q1023,LEGE,2021-01-14T04:00:00Z,41.9,2.77,-2.0,-2.0,0,0,,6.21,30.206694,,,,,,,,,,,CAVOK,,,,,,,,VFR,,,,,,,,,,,,METAR,140.0
LEDA 140400Z AUTO 00000KT 3000 BR OVC006 01/01 Q1025,LEDA,2021-01-14T04:00:00Z,41.73,0.53,1.0,1.0,0,0,,1.86,30.265747,,,TRUE,,,,,,,BR,OVC,600,,,,,,,IFR,,,,,,,,,,,,METAR,352.0
LECO 140400Z AUTO 17004KT 9999 OVC031 07/05 Q1031,LECO,2021-01-14T04:00:00Z,43.3,-8.37,7.0,5.0,170,4,,6.21,30.442913,,,TRUE,,,,,,,,OVC,3100,,,,,,,VFR,,,,,,,,,,,,METAR,80.0
LECH 140400Z AUTO 23003KT 160V320 CAVOK 01/M01 Q1024,LECH,2021-01-14T04:00:00Z,40.92,-1.28,1.0,-1.0,230,3,,6.21,30.236221,,,TRUE,,,,,,,,CAVOK,,,,,,,,VFR,,,,,,,,,,,,METAR,885.0
LEBT 140400Z AUTO VRB01KT CAVOK M01/M02 Q1024,LEBT,2021-01-14T04:00:00Z,39.58,-0.45,-1.0,-2.0,0,1,,6.21,30.236221,,,TRUE,,,,,,,,CAVOK,,,,,,,,VFR,,,,,,,,,,,,METAR,50.0
LEBR 140400Z AUTO 29014KT 9999 OVC027 06/01 Q1028,LEBR,2021-01-14T04:00:00Z,42.2,-1.43,6.0,1.0,290,14,,6.21,30.35433,,,TRUE,,,,,,,,OVC,2700,,,,,,,MVFR,,,,,,,,,,,,METAR,347.0
LEBL 140400Z 32013KT 9999 FEW015 05/02 Q1024 NOSIG,LEBL,2021-01-14T04:00:00Z,41.28,2.07,5.0,2.0,320,13,,6.21,30.236221,,,,,,TRUE,,,,,FEW,1500,,,,,,,VFR,,,,,,,,,,,,METAR,2.0
LEBG 140400Z AUTO 06001KT 0150 0100SW FZFG VV002 M07/M07 Q1029,LEBG,2021-01-14T04:00:00Z,42.37,-3.62,-7.0,-7.0,60,1,,0.09,30.383858,,,TRUE,,,,,,,FZFG,OVX,0,,,,,,,LIFR,,,,,,,,,,,200,METAR,892.0
LEBB 140400Z VRB02KT 9999 BKN036 06/05 Q1031 NOSIG,LEBB,2021-01-14T04:00:00Z,43.28,-2.92,6.0,5.0,0,2,,6.21,30.442913,,,,,,TRUE,,,,,BKN,3600,,,,,,,VFR,,,,,,,,,,,,METAR,38.0
LEBA 140400Z AUTO 24001KT 9000 NCD M02/M02 Q1029,LEBA,2021-01-14T04:00:00Z,37.85,-4.83,-2.0,-2.0,240,1,,5.59,30.383858,,,TRUE,,,,,,,,CLR,,,,,,,,VFR,,,,,,,,,,,,METAR,88.0
LEAS 140400Z AUTO 24008KT 9999 OVC026 04/01 Q1031,LEAS,2021-01-14T04:00:00Z,43.57,-6.03,4.0,1.0,240,8,,6.21,30.442913,,,TRUE,,,,,,,,OVC,2600,,,,,,,MVFR,,,,,,,,,,,,METAR,120.0
LEAM 140400Z VRB01KT CAVOK 05/02 Q1025,LEAM,2021-01-14T04:00:00Z,36.85,-2.37,5.0,2.0,0,1,,6.21,30.265747,,,,,,,,,,,CAVOK,,,,,,,,VFR,,,,,,,,,,,,METAR,16.0
LEAL 140400Z 31002KT CAVOK 03/M01 Q1025 NOSIG,LEAL,2021-01-14T04:00:00Z,38.27,-0.55,3.0,-1.0,310,2,,6.21,30.265747,,,,,,TRUE,,,,,CAVOK,,,,,,,,VFR,,,,,,,,,,,,METAR,26.0
LEAG 140400Z AUTO 31009KT 270V350 CAVOK 11/04 Q1028,LEAG,2021-01-14T04:00:00Z,36.12,-5.45,11.0,4.0,310,9,,6.21,30.35433,,,TRUE,,,,,,,,CAVOK,,,,,,,,VFR,,,,,,,,,,,,METAR,4.0
LEAB 140400Z 04002KT CAVOK M07/M08 Q1026 NOSIG,LEAB,2021-01-14T04:00:00Z,38.95,-1.85,-7.0,-8.0,40,2,,6.21,30.295275,,,,,,TRUE,,,,,CAVOK,,,,,,,,VFR,,,,,,,,,,,,METAR,704.0
LCPH 140400Z 23006KT 9999 FEW030 SCT070 15/09 Q1006,LCPH,2021-01-14T04:00:00Z,34.72,32.47,15.0,9.0,230,6,,6.21,29.704725,,,,,,,,,,,FEW,3000,SCT,7000,,,,,VFR,,,,,,,,,,,,METAR,8.0
LCLK 140400Z 22004KT 9999 FEW025 13/10 Q1006 NOSIG,LCLK,2021-01-14T04:00:00Z,34.87,33.62,13.0,10.0,220,4,,6.21,29.704725,,,,,,TRUE,,,,,FEW,2500,,,,,,,VFR,,,,,,,,,,,,METAR,2.0
LBPL 140400Z 19006KT 9999 SCT100 M02/M04 Q1013,LBPL,2021-01-14T04:00:00Z,43.45,24.5,-2.0,-4.0,190,6,,6.21,29.911417,,,,,,,,,,,SCT,10000,,,,,,,VFR,,,,,,,,,,,,METAR,93.0
LBPG 140400Z 24012KT 9999 BKN100 M01/M06 Q1010,LBPG,2021-01-14T04:00:00Z,42.28,24.72,-1.0,-6.0,240,12,,6.21,29.822834,,,,,,,,,,,BKN,10000,,,,,,,VFR,,,,,,,,,,,,METAR,198.0
LBIA 140400Z 25004KT 9999 BKN100 01/M02 Q1010,LBIA,2021-01-14T04:00:00Z,42.45,26.35,1.0,-2.0,250,4,,6.21,29.822834,,,,,,,,,,,BKN,10000,,,,,,,VFR,,,,,,,,,,,,METAR,155.0
KNEL 140400Z 00000KT 10SM CLR M04/M04 A2991 RMK AO2 SLP129 T10391044 $,KNEL,2021-01-14T04:00:00Z,40.03,-74.33,-3.9,-4.4,0,0,,10.0,29.911417,1012.9,,,TRUE,TRUE,,,,,,CLR,,,,,,,,VFR,,,,,,,,,,,,METAR,26.0
KJSL 140400Z AUTO 00000KT 10SM CLR 16/08 A3014 RMK A01,KJSL,2021-01-14T04:00:00Z,26.23,-95.22,16.0,8.0,0,0,,10.0,30.138779,,,TRUE,TRUE,,,,,,,CLR,,,,,,,,VFR,,,,,,,,,,,,METAR,45.0
KGZN 140400Z AUTO 21011KT 10SM 11/M02 A2986 RMK AO2,KGZN,2021-01-14T04:00:00Z,32.37,-99.02,11.0,-2.0,210,11,,10.0,29.861221,,,TRUE,TRUE,,,,,,,,,,,,,,,,,,,,,,,,,,,METAR,522.0
HTZA 140400Z 00000KT 9999 SCT012 25/24 Q1012 NOSIG,HTZA,2021-01-14T04:00:00Z,-6.22,39.22,25.0,24.0,0,0,,6.21,29.88189,,,,,,TRUE,,,,,SCT,1200,,,,,,,VFR,,,,,,,,,,,,METAR,19.0
HTTB 140400Z 00000KT 9999 SCT016 19/19 Q1018 NOSIG,HTTB,2021-01-14T04:00:00Z,-5.07,32.82,19.0,19.0,0,0,,6.21,30.059055,,,,,,TRUE,,,,,SCT,1600,,,,,,,VFR,,,,,,,,,,,,METAR,1185.0
HTSU 140400Z 00000KT 9999 FEW016 FEW018CB BKN200 14/14 Q1022,HTSU,2021-01-14T04:00:00Z,-7.95,31.6,14.0,14.0,0,0,,6.21,30.177166,,,,,,,,,,,FEW,1600,FEW,1800,BKN,20000,,,VFR,,,,,,,,,,,,METAR,1820.0
HTSO 140400Z 00000KT 9999 FEW016 FEW017CB BKN070 19/18Q1016,HTSO,2021-01-14T04:00:00Z,-10.67,35.58,,,0,0,,6.21,30.0,,,,,,,,,,,FEW,1600,FEW,1700,BKN,7000,,,VFR,,,,,,,,,,,,SPECI,1058.0
HTMW 140400Z 14011KT 9999 FEW017 FEW018CB BKN080 21/19 Q1016 NOSIG,HTMW,2021-01-14T04:00:00Z,-2.43,32.92,21.0,19.0,140,11,,6.21,30.0,,,,,,TRUE,,,,,FEW,1700,FEW,1800,BKN,8000,,,VFR,,,,,,,,,,,,METAR,1144.0
HTMU 140400Z 00000KT 9999 -RA SCT012 FEW014CB OVC090 19/18 Q1018,HTMU,2021-01-14T04:00:00Z,-1.5,33.8,19.0,18.0,0,0,,6.21,30.059055,,,,,,,,,,-RA,SCT,1200,FEW,1400,OVC,9000,,,VFR,,,,,,,,,,,,METAR,1154.0
HTMT 140400Z 29008KT 9999 BKN020 FEW021CB 2/24 Q1012,HTMT,2021-01-14T04:00:00Z,-10.33,40.18,,,290,8,,6.21,29.88189,,,,,,,,,,,BKN,2000,FEW,2100,,,,,MVFR,,,,,,,,,,,,METAR,114.0
HTMP 140400Z 00000KT 9999 BKN016 FEW017CB SCT070 20/19 Q1018,HTMP,2021-01-14T04:00:00Z,,,20.0,19.0,0,0,,6.21,30.059055,,,,,,,,,,,BKN,1600,FEW,1700,SCT,7000,,,MVFR,,,,,,,,,,,,METAR,
HTMG 140400Z 00000KT 9999 BKN022 21/21 Q1014,HTMG,2021-01-14T04:00:00Z,-6.78,37.65,21.0,21.0,0,0,,6.21,29.940945,,,,,,,,,,,BKN,2200,,,,,,,MVFR,,,,,,,,,,,,METAR,512.0
HTKJ 140400Z 07005KT 9999 SCT023 20/19 Q1017 NOSIG,HTKJ,2021-01-14T04:00:00Z,-3.42,37.07,20.0,19.0,70,5,,6.21,30.029528,,,,,,TRUE,,,,,SCT,2300,,,,,,,VFR,,,,,,,,,,,,METAR,893.0
HTKA 140400Z 00000KT 9999 FEW018 FEW019CB BKN090 21/21 Q1013,HTKA,2021-01-14T04:00:00Z,-4.88,29.67,21.0,21.0,0,0,,6.21,29.911417,,,,,,,,,,,FEW,1800,FEW,1900,BKN,9000,,,VFR,,,,,,,,,,,,METAR,819.0
HTIB 140400Z 00000KT 9999 TS FEW018 FEW019CB BKN080 20/19 Q1016,HTIB,2021-01-14T04:00:00Z,,,20.0,19.0,0,0,,6.21,30.0,,,,,,,,,,TS,FEW,1800,FEW,1900,BKN,8000,,,VFR,,,,,,,,,,,,METAR,
HTDO 140400Z 00000KT 8000 RA FEW008 SCT018 FEW019CB OVC070 19/18 Q1019,HTDO,2021-01-14T04:00:00Z,-6.17,35.77,19.0,18.0,0,0,,4.97,30.088583,,,,,,,,,,RA,FEW,800,SCT,1800,FEW,1900,OVC,7000,MVFR,,,,,,,,,,,,METAR,1119.0
HTDA 140400Z 00000KT 9999 FEW011 SCT013 25/24 Q1013 NOSIG,HTDA,2021-01-14T04:00:00Z,-6.88,39.2,25.0,24.0,0,0,,6.21,29.911417,,,,,,TRUE,,,,,FEW,1100,SCT,1300,,,,,VFR,,,,,,,,,,,,METAR,53.0
HTBU 140400Z 00000KT 9999 SCT014 FEW016CB BKN080 21/18 Q1015,HTBU,2021-01-14T04:00:00Z,-1.32,31.82,21.0,18.0,0,0,,6.21,29.970472,,,,,,,,,,,SCT,1400,FEW,1600,BKN,8000,,,VFR,,,,,,,,,,,,METAR,1144.0
HTAR 140400Z 00000KT 9999 FEW020 BKN080 17/16 Q1020 NOSIG,HTAR,2021-01-14T04:00:00Z,-3.37,36.63,17.0,16.0,0,0,,6.21,30.11811,,,,,,TRUE,,,,,FEW,2000,BKN,8000,,,,,VFR,,,,,,,,,,,,METAR,1386.0
HESH 140400Z 21008KT 9999 SCT025 22/10 Q1009 NOSIG,HESH,2021-01-14T04:00:00Z,27.97,34.38,22.0,10.0,210,8,,6.21,29.793306,,,,,,TRUE,,,,,SCT,2500,,,,,,,VFR,,,,,,,,,,,,METAR,50.0
HESG 140400Z 33007KT CAVOK 14/03 Q1014 NOSIG,HESG,2021-01-14T04:00:00Z,26.33,31.75,14.0,3.0,330,7,,6.21,29.940945,,,,,,TRUE,,,,,CAVOK,,,,,,,,VFR,,,,,,,,,,,,METAR,70.0
HESC 140400Z 22005KT CAVOK 11/03 Q1020 NOSIG,HESC,2021-01-14T04:00:00Z,28.68,34.07,11.0,3.0,220,5,,6.21,30.11811,,,,,,TRUE,,,,,CAVOK,,,,,,,,VFR,,,,,,,,,,,,METAR,1332.0
HEPS 140400Z 25008KT 9999 SCT025 13/11 Q1012 NOSIG,HEPS,2021-01-14T04:00:00Z,31.28,32.25,13.0,11.0,250,8,,6.21,29.88189,,,,,,TRUE,,,,,SCT,2500,,,,,,,VFR,,,,,,,,,,,,METAR,2.0
HEMM 140400Z 22012KT 9999 FEW020 12/07 Q1013 NOSIG,HEMM,2021-01-14T04:00:00Z,31.32,27.22,12.0,7.0,220,12,,6.21,29.911417,,,,,,TRUE,,,,,FEW,2000,,,,,,,VFR,,,,,,,,,,,,METAR,26.0
HELX 140400Z 32004KT CAVOK 16/10 Q1015 NOSIG,HELX,2021-01-14T04:00:00Z,25.67,32.7,16.0,10.0,320,4,,6.21,29.970472,,,,,,TRUE,,,,,CAVOK,,,,,,,,VFR,,,,,,,,,,,,METAR,86.0
HEGN 140400Z 31010KT CAVOK 20/06 Q1012 NOSIG,HEGN,2021-01-14T04:00:00Z,27.18,33.8,20.0,6.0,310,10,,6.21,29.88189,,,,,,TRUE,,,,,CAVOK,,,,,,,,VFR,,,,,,,,,,,,METAR,14.0
HEBL 140400Z 31010KT CAVOK 14/04 Q1014 NOSIG,HEBL,2021-01-14T04:00:00Z,22.38,31.62,14.0,4.0,310,10,,6.21,29.940945,,,,,,TRUE,,,,,CAVOK,,,,,,,,VFR,,,,,,,,,,,,METAR,184.0
HEBA 140400Z 21007KT 9999 SCT020 11/07 Q1012 NOSIG,HEBA,2021-01-14T04:00:00Z,30.92,29.7,11.0,7.0,210,7,,6.21,29.88189,,,,,,TRUE,,,,,SCT,2000,,,,,,,VFR,,,,,,,,,,,,METAR,41.0
HEAX 140400Z 26008KT 9999 SCT020 SCT022 15/11 Q1011 NOSIG,HEAX,2021-01-14T04:00:00Z,31.18,29.93,15.0,11.0,260,8,,6.21,29.852362,,,,,,TRUE,,,,,SCT,2000,SCT,2200,,,,,VFR,,,,,,,,,,,,METAR,-2.0
HEAT 140400Z 34010KT CAVOK 09/05 Q1018 NOSIG,HEAT,2021-01-14T04:00:00Z,27.05,31.02,9.0,5.0,340,10,,6.21,30.059055,,,,,,TRUE,,,,,CAVOK,,,,,,,,VFR,,,,,,,,,,,,METAR,229.0
HAAB 140400Z 30002KT 9999 BKN025 11/05 Q1026,HAAB,2021-01-14T04:00:00Z,8.97,38.78,11.0,5.0,300,2,,6.21,30.295275,,,,,,,,,,,BKN,2500,,,,,,,MVFR,,,,,,,,,,,,METAR,2319.0
GVSV 140400Z 05029KT 9999 SCT020 21/14 Q1017 NOSIG,GVSV,2021-01-14T04:00:00Z,16.83,-25.07,21.0,14.0,50,29,,6.21,30.029528,,,,,,TRUE,,,,,SCT,2000,,,,,,,VFR,,,,,,,,,,,,METAR,16.0
GVNP 140400Z 04017KT 9999 SCT016 21/15 Q1017 NOSIG,GVNP,2021-01-14T04:00:00Z,14.95,-23.48,21.0,15.0,40,17,,6.21,30.029528,,,,,,TRUE,,,,,SCT,1600,,,,,,,VFR,,,,,,,,,,,,METAR,70.0
GVAC 140400Z 05018KT 9999 SCT014 BKN200 20/14 Q1018 NOSIG,GVAC,2021-01-14T04:00:00Z,16.73,-22.93,20.0,14.0,50,18,,6.21,30.059055,,,,,,TRUE,,,,,SCT,1400,BKN,20000,,,,,VFR,,,,,,,,,,,,METAR,54.0
GQPP 140400Z 02012KT 8000 NSC 15/09 Q1020 NOSIG,GQPP,2021-01-14T04:00:00Z,20.92,-17.02,15.0,9.0,20,12,,4.97,30.11811,,,,,,TRUE,,,,,CLR,,,,,,,,MVFR,,,,,,,,,,,,METAR,5.0
GQNO 140400Z 02010KT 8000 NSC 15/M06 Q1017 NOSIG,GQNO,2021-01-14T04:00:00Z,18.3,-15.97,15.0,-6.0,20,10,,4.97,30.029528,,,,,,TRUE,,,,,CLR,,,,,,,,MVFR,,,,,,,,,,,,METAR,1.0
GMTN 140400Z AUTO 26010KT 220V340 10/04 Q1028,GMTN,2021-01-14T04:00:00Z,35.58,-5.32,10.0,4.0,260,10,,,30.35433,,,TRUE,,,,,,,,,,,,,,,,,,,,,,,,,,,,METAR,10.0
GMTA 140400Z 17005KT CAVOK 08/02 Q1027 NOSIG,GMTA,2021-01-14T04:00:00Z,35.17,-3.85,8.0,2.0,170,5,,6.21,30.324802,,,,,,TRUE,,,,,CAVOK,,,,,,,,VFR,,,,,,,,,,,,METAR,14.0
GMMZ 140400Z 00000KT CAVOK 01/M04 Q1027 NOSIG,GMMZ,2021-01-14T04:00:00Z,30.93,-6.9,1.0,-4.0,0,0,,6.21,30.324802,,,,,,TRUE,,,,,CAVOK,,,,,,,,VFR,,,,,,,,,,,,METAR,1139.0
GMMW 140400Z 27003KT CAVOK 02/M00 Q1027 NOSIG,GMMW,2021-01-14T04:00:00Z,34.98,-3.02,2.0,0.0,270,3,,6.21,30.324802,,,,,,TRUE,,,,,CAVOK,,,,,,,,VFR,,,,,,,,,,,,METAR,174.0
GMMN 140400Z AUTO 12003KT 8000 NCD 03/03 Q1029 TEMPO 5000 BR,GMMN,2021-01-14T04:00:00Z,33.37,-7.58,3.0,3.0,120,3,,4.97,30.383858,,,TRUE,,,,,,,,CLR,,,,,,,,MVFR,,,,,,,,,,,,METAR,196.0
GMML 140400Z 07014KT CAVOK 12/08 Q1026 NOSIG,GMML,2021-01-14T04:00:00Z,27.13,-13.23,12.0,8.0,70,14,,6.21,30.295275,,,,,,TRUE,,,,,CAVOK,,,,,,,,VFR,,,,,,,,,,,,METAR,63.0
GMMB 140400Z AUTO 14007KT 9999NDV ////// 05/04 Q1029 NOSIG,GMMB,2021-01-14T04:00:00Z,33.65,-7.22,5.0,4.0,140,7,,,30.383858,,,TRUE,,,TRUE,,,,,,,,,,,,,,,,,,,,,,,,,METAR,191.0
GMFO 140400Z 16010KT CAVOK 03/M01 Q1027 NOSIG,GMFO,2021-01-14T04:00:00Z,34.78,-1.92,3.0,-1.0,160,10,,6.21,30.324802,,,,,,TRUE,,,,,CAVOK,,,,,,,,VFR,,,,,,,,,,,,METAR,452.0
GMFM 140400Z 17005KT CAVOK 00/M01 Q1028 NOSIG,GMFM,2021-01-14T04:00:00Z,33.87,-5.52,0.0,-1.0,170,5,,6.21,30.35433,,,,,,TRUE,,,,,CAVOK,,,,,,,,VFR,,,,,,,,,,,,METAR,569.0
GMFK 140400Z 00000KT CAVOK 02/M07 Q1027 NOSIG,GMFK,2021-01-14T04:00:00Z,31.95,-4.4,2.0,-7.0,0,0,,6.21,30.324802,,,,,,TRUE,,,,,CAVOK,,,,,,,,VFR,,,,,,,,,,,,METAR,1033.0
GMAG 140400Z 05010KT CAVOK 07/04 Q1027,GMAG,2021-01-14T04:00:00Z,29.03,-10.05,7.0,4.0,50,10,,6.21,30.324802,,,,,,,,,,,CAVOK,,,,,,,,VFR,,,,,,,,,,,,METAR,333.0
GEML 140400Z AUTO VRB02KT CAVOK 06/04 Q1027,GEML,2021-01-14T04:00:00Z,35.27,-2.95,6.0,4.0,0,2,,6.21,30.324802,,,TRUE,,,,,,,,CAVOK,,,,,,,,VFR,,,,,,,,,,,,METAR,48.0
GCXO 140400Z AUTO 00000KT CAVOK 09/07 Q1028,GCXO,2021-01-14T04:00:00Z,28.48,-16.35,9.0,7.0,0,0,,6.21,30.35433,,,TRUE,,,,,,,,CAVOK,,,,,,,,VFR,,,,,,,,,,,,METAR,623.0
GCTS 140400Z 05010KT 9999 FEW035 16/04 Q1027 NOSIG,GCTS,2021-01-14T04:00:00Z,28.05,-16.57,16.0,4.0,50,10,,6.21,30.324802,,,,,,TRUE,,,,,FEW,3500,,,,,,,VFR,,,,,,,,,,,,METAR,59.0
GCRR 140400Z AUTO 36007KT 320V030 CAVOK 14/10 Q1028,GCRR,2021-01-14T04:00:00Z,28.95,-13.58,14.0,10.0,360,7,,6.21,30.35433,,,TRUE,,,,,,,,CAVOK,,,,,,,,VFR,,,,,,,,,,,,METAR,9.0
GCLP 140400Z 35006KT 9999 FEW025 SCT035 16/11 Q1027 NOSIG,GCLP,2021-01-14T04:00:00Z,27.92,-15.38,16.0,11.0,350,6,,6.21,30.324802,,,,,,TRUE,,,,,FEW,2500,SCT,3500,,,,,VFR,,,,,,,,,,,,METAR,16.0
GCLA 140400Z AUTO 31008KT CAVOK 16/09 Q1029,GCLA,2021-01-14T04:00:00Z,28.62,-17.75,16.0,9.0,310,8,,6.21,30.383858,,,TRUE,,,,,,,,CAVOK,,,,,,,,VFR,,,,,,,,,,,,METAR,20.0
GCHI 140400Z AUTO 04014KT 360V070 CAVOK 18/10 Q1028,GCHI,2021-01-14T04:00:00Z,27.82,-17.88,18.0,10.0,40,14,,6.21,30.35433,,,TRUE,,,,,,,,CAVOK,,,,,,,,VFR,,,,,,,,,,,,METAR,21.0
GCGM 140400Z AUTO VRB08KT CAVOK 15/07 Q1028 RMK R09/35009KT 320V040 ARP/36010KT 320V050,GCGM,2021-01-14T04:00:00Z,28.03,-17.22,15.0,7.0,0,8,,6.21,30.35433,,,TRUE,,,,,,,,CAVOK,,,,,,,,VFR,,,,,,,,,,,,METAR,217.0
GCFV 140400Z AUTO 35007KT 300V010 CAVOK 15/09 Q1028,GCFV,2021-01-14T04:00:00Z,28.43,-13.87,15.0,9.0,350,7,,6.21,30.35433,,,TRUE,,,,,,,,CAVOK,,,,,,,,VFR,,,,,,,,,,,,METAR,11.0
GBYD 140400Z 03009KT CAVOK 20/11 Q1012,GBYD,2021-01-14T04:00:00Z,13.33,-16.65,20.0,11.0,30,9,,6.21,29.88189,,,,,,,,,,,CAVOK,,,,,,,,VFR,,,,,,,,,,,,METAR,29.0
GABS 140400Z 03003KT CAVOK 20/02 Q1015 NOSIG,GABS,2021-01-14T04:00:00Z,12.53,-7.95,20.0,2.0,30,3,,6.21,29.970472,,,,,,TRUE,,,,,CAVOK,,,,,,,,VFR,,,,,,,,,,,,METAR,375.0
FZAA 140400Z 25002KT 8000 FEW014 BKN090 24/22 Q1012 NOSIG,FZAA,2021-01-14T04:00:00Z,-4.38,15.45,24.0,22.0,250,2,,4.97,29.88189,,,,,,TRUE,,,,,FEW,1400,BKN,9000,,,,,MVFR,,,,,,,,,,,,METAR,309.0
FYWW 140400Z AUTO 00000KT //// // ////// 17/17 Q1017,FYWW,2021-01-14T04:00:00Z,-22.57,17.1,17.0,17.0,0,0,,,30.029528,,,TRUE,,,,,,,,,,,,,,,,,,,,,,,,,,,,SPECI,1672.0
FYWH 140400Z 09003KT 9999 FEW006 BKN015 18/18 Q1018 NOSIG,FYWH,2021-01-14T04:00:00Z,-22.47,17.47,18.0,18.0,90,3,,6.21,30.059055,,,,,,TRUE,,,,,FEW,600,BKN,1500,,,,,MVFR,,,,,,,,,,,,METAR,1699.0
FYWE 140400Z 00000KT 9999 FEW010 BKN090 18/16 Q1018,FYWE,2021-01-14T04:00:00Z,-22.62,17.08,18.0,16.0,0,0,,6.21,30.059055,,,,,,,,,,,FEW,1000,BKN,9000,,,,,VFR,,,,,,,,,,,,METAR,1700.0
FYWB 140400Z AUTO 32006KT //// // ////// 20/17 Q1012,FYWB,2021-01-14T04:00:00Z,-22.98,14.65,20.0,17.0,320,6,,,29.88189,,,TRUE,,,,,,,,,,,,,,,,,,,,,,,,,,,,METAR,87.0
FYRU 140400Z 00000KT 9999 FEW015 BKN080 ///// Q1016,FYRU,2021-01-14T04:00:00Z,-17.95,19.72,,,0,0,,6.21,30.0,,,,,,,,,,,FEW,1500,BKN,8000,,,,,VFR,,,,,,,,,,,,METAR,1104.0
FYOW 140400Z AUTO 24002KT //// // ////// 17/17 Q1015,FYOW,2021-01-14T04:00:00Z,-20.43,16.67,17.0,17.0,240,2,,,29.970472,,,TRUE,,,,,,,,,,,,,,,,,,,,,,,,,,,,SPECI,1480.0
FYOO 140400Z AUTO 00000KT //// // ////// 19/13 Q1014,FYOO,2021-01-14T04:00:00Z,-19.15,15.92,19.0,13.0,0,0,,,29.940945,,,TRUE,,,,,,,,,,,,,,,,,,,,,,,,,,,,METAR,1105.0
FYOA 140400Z AUTO 19003KT //// // ////// 24/14 Q1013,FYOA,2021-01-14T04:00:00Z,-17.88,15.97,24.0,14.0,190,3,,,29.911417,,,TRUE,,,,,,,,,,,,,,,,,,,,,,,,,,,,METAR,1099.0
FYML 140400Z AUTO 07001KT //// // ////// 22/18 Q1015,FYML,2021-01-14T04:00:00Z,-24.6,17.93,22.0,18.0,70,1,,,29.970472,,,TRUE,,,,,,,,,,,,,,,,,,,,,,,,,,,,SPECI,1113.0
FYLZ 140400Z AUTO 32001KT //// // ////// 16/15 Q1009,FYLZ,2021-01-14T04:00:00Z,-26.68,15.25,16.0,15.0,320,1,,,29.793306,,,TRUE,,,,,,,,,,,,,,,,,,,,,,,,,,,,METAR,129.0
FYKT 140400Z AUTO 07004KT //// // ////// 21/20 Q1014,FYKT,2021-01-14T04:00:00Z,-26.53,18.12,21.0,20.0,70,4,,,29.940945,,,TRUE,,,,,,,,,,,,,,,,,,,,,,,,,,,,METAR,1064.0
FYKM 140400Z AUTO 10003KT //// // ////// 21/21 Q1013,FYKM,2021-01-14T04:00:00Z,-17.63,24.18,21.0,21.0,100,3,,,29.911417,,,TRUE,,,,,,,,,,,,,,,,,,,,,,,,,,,,METAR,959.0
FYGB 140400Z AUTO 08001KT //// // ////// 20/19 Q1017,FYGB,2021-01-14T04:00:00Z,-22.5,18.97,20.0,19.0,80,1,,,30.029528,,,TRUE,,,,,,,,,,,,,,,,,,,,,,,,,,,,METAR,1436.0
FTTJ 140400Z 01004KT 8000 NSC 15/M01 Q1012 NOSIG,FTTJ,2021-01-14T04:00:00Z,12.13,15.03,15.0,-1.0,10,4,,4.97,29.88189,,,,,,TRUE,,,,,CLR,,,,,,,,MVFR,,,,,,,,,,,,METAR,295.0
FTTA 140400Z 00000KT CAVOK 18/09 Q1011,FTTA,2021-01-14T04:00:00Z,9.15,18.37,18.0,9.0,0,0,,6.21,29.852362,,,,,,,,,,,CAVOK,,,,,,,,VFR,,,,,,,,,,,,METAR,361.0
FSIA 140400Z 31006KT 9999 FEW010 SCT020 28/25 Q1011 NOSIG,FSIA,2021-01-14T04:00:00Z,-4.67,55.52,28.0,25.0,310,6,,6.21,29.852362,,,,,,TRUE,,,,,FEW,1000,SCT,2000,,,,,VFR,,,,,,,,,,,,METAR,3.0
FQVL 140400Z 19005KT 9999 SCT020 27/26 Q1010,FQVL,2021-01-14T04:00:00Z,-22.0,35.32,27.0,26.0,190,5,,6.21,29.822834,,,,,,,,,,,SCT,2000,,,,,,,VFR,,,,,,,,,,,,METAR,15.0
FQTT 140400Z 11003KT 9999 BKN014 BKN020 25/25 Q1011,FQTT,2021-01-14T04:00:00Z,-16.1,33.63,25.0,25.0,110,3,,6.21,29.852362,,,,,,,,,,,BKN,1400,BKN,2000,,,,,MVFR,,,,,,,,,,,,METAR,146.0
FQQL 140400Z 26003KT 9999 FEW020 SCT100 25/23 Q1010,FQQL,2021-01-14T04:00:00Z,-17.87,36.87,25.0,23.0,260,3,,6.21,29.822834,,,,,,,,,,,FEW,2000,SCT,10000,,,,,VFR,,,,,,,,,,,,METAR,5.0
FQPB 140400Z 35009KT 9999 FEW020 25/24 Q1012,FQPB,2021-01-14T04:00:00Z,-12.98,40.52,25.0,24.0,350,9,,6.21,29.88189,,,,,,,,,,,FEW,2000,,,,,,,VFR,,,,,,,,,,,,METAR,101.0
FQNP 140400Z 36003KT 330V040 9999 SCT020 25/22 Q1013,FQNP,2021-01-14T04:00:00Z,-15.1,39.27,25.0,22.0,360,3,,6.21,29.911417,,,,,,,,,,,SCT,2000,,,,,,,VFR,,,,,,,,,,,,METAR,434.0
FQMA 140400Z 22003KT 9999 FEW020 25/23 Q1012 NOSIG,FQMA,2021-01-14T04:00:00Z,-25.92,32.57,25.0,23.0,220,3,,6.21,29.88189,,,,,,TRUE,,,,,FEW,2000,,,,,,,VFR,,,,,,,,,,,,METAR,34.0
FQIN 140400Z 00000KT 9999 FEW020 25/25 Q1012,FQIN,2021-01-14T04:00:00Z,-23.87,35.38,25.0,25.0,0,0,,6.21,29.88189,,,,,,,,,,,FEW,2000,,,,,,,VFR,,,,,,,,,,,,METAR,10.0
FQBR 140400Z 12009KT 7000 -RA SCT017 BKN030 OVC070 25/25 Q1009,FQBR,2021-01-14T04:00:00Z,-19.8,34.9,25.0,25.0,120,9,,4.35,29.793306,,,,,,,,,,-RA,SCT,1700,BKN,3000,OVC,7000,,,MVFR,,,,,,,,,,,,METAR,14.0
FNLU 140400Z VRB03KT 9999 SCT020 24/22 Q1010 NOSIG,FNLU,2021-01-14T04:00:00Z,-8.85,13.22,24.0,22.0,0,3,,6.21,29.822834,,,,,,TRUE,,,,,SCT,2000,,,,,,,VFR,,,,,,,,,,,,METAR,75.0
FMSD 140400Z 10006KT 9999 SCT016 SCT033 29/26 Q1011,FMSD,2021-01-14T04:00:00Z,-25.03,46.95,29.0,26.0,100,6,,6.21,29.852362,,,,,,,,,,,SCT,1600,SCT,3300,,,,,VFR,,,,,,,,,,,,METAR,7.0
FMNN 140400Z 23004KT 9999 SCT020CB 28/// Q1011,FMNN,2021-01-14T04:00:00Z,-13.32,48.32,,,230,4,,6.21,29.852362,,,,,,,,,,,SCT,2000,,,,,,,VFR,,,,,,,,,,,,METAR,10.0
FMNM 140400Z 25004KT 220V300 9999 FEW020CB 28/25 Q1010 NOSIG,FMNM,2021-01-14T04:00:00Z,-15.67,46.35,28.0,25.0,250,4,,6.21,29.822834,,,,,,TRUE,,,,,FEW,2000,,,,,,,VFR,,,,,,,,,,,,METAR,18.0
FMNA 140400Z 28006KT 9999 BKN020 28/21 Q1010,FMNA,2021-01-14T04:00:00Z,-12.33,49.28,28.0,21.0,280,6,,6.21,29.822834,,,,,,,,,,,BKN,2000,,,,,,,MVFR,,,,,,,,,,,,METAR,108.0
FMMT 140400Z 31002KT 9999 SCT017 BKN033 26/25 Q1010 NOSIG,FMMT,2021-01-14T04:00:00Z,-18.12,49.38,26.0,25.0,310,2,,6.21,29.822834,,,,,,TRUE,,,,,SCT,1700,BKN,3300,,,,,VFR,,,,,,,,,,,,METAR,13.0
FMEP 140400Z AUTO 24003KT 210V300 CAVOK 29/23 Q1010 NOSIG,FMEP,2021-01-14T04:00:00Z,-21.32,55.42,29.0,23.0,240,3,,6.21,29.822834,,,TRUE,,,TRUE,,,,,CAVOK,,,,,,,,VFR,,,,,,,,,,,,METAR,21.0
FMEE 140400Z AUTO 14009KT 9999 FEW018 SCT026 OVC031 25/23 Q1011 TEMPO 2000 SHRA BKN010,FMEE,2021-01-14T04:00:00Z,-20.88,55.52,25.0,23.0,140,9,,6.21,29.852362,,,TRUE,,,,,,,,FEW,1800,SCT,2600,OVC,3100,,,VFR,,,,,,,,,,,,SPECI,20.0
FMCZ 140400Z AUTO 29004KT 9999 FEW024 BKN029 BKN035 28/24 Q1012 NOSIG,FMCZ,2021-01-14T04:00:00Z,-12.8,45.27,28.0,24.0,290,4,,6.21,29.88189,,,TRUE,,,TRUE,,,,,FEW,2400,BKN,2900,BKN,3500,,,MVFR,,,,,,,,,,,,METAR,7.0
FKYS 140400Z 22002KT 6000 SCT006 21/21 Q1016 NOSIG,FKYS,2021-01-14T04:00:00Z,3.82,11.52,21.0,21.0,220,2,,3.73,30.0,,,,,,TRUE,,,,,SCT,600,,,,,,,MVFR,,,,,,,,,,,,METAR,694.0
FKKD 140400Z 00000KT 8000 TS SCT013 FEW016CB 23/23 Q1010 BECMG NSW,FKKD,2021-01-14T04:00:00Z,4.0,9.72,23.0,23.0,0,0,,4.97,29.822834,,,,,,,,,,TS,SCT,1300,FEW,1600,,,,,MVFR,,,,,,,,,,,,METAR,10.0
FIMP 140400Z 09010KT 9999 SCT016 27/23 Q1012,FIMP,2021-01-14T04:00:00Z,-20.43,57.68,27.0,23.0,90,10,,6.21,29.88189,,,,,,,,,,,SCT,1600,,,,,,,VFR,,,,,,,,,,,,METAR,57.0
FGSL 140400Z 24003KT 9999 FEW010 25/25 Q1011 NOSIG,FGSL,2021-01-14T04:00:00Z,3.75,8.72,25.0,25.0,240,3,,6.21,29.852362,,,,,,TRUE,,,,,FEW,1000,,,,,,,VFR,,,,,,,,,,,,METAR,23.0
FGBT 140400Z 00000KT 9999 SCT010 25/25 Q1011,FGBT,2021-01-14T04:00:00Z,1.9,9.8,25.0,25.0,0,0,,6.21,29.852362,,,,,,,,,,,SCT,1000,,,,,,,VFR,,,,,,,,,,,,METAR,2.0
FEFF 140400Z VRB03KT 6000 NSC 20/19 Q1011 TEMPO 4000 BR,FEFF,2021-01-14T04:00:00Z,4.4,18.52,20.0,19.0,0,3,,3.73,29.852362,,,,,,,,,,,CLR,,,,,,,,MVFR,,,,,,,,,,,,SPECI,364.0
FDST 140400Z AUTO 07003KT //// // ////// 18/16 Q1015,FDST,2021-01-14T04:00:00Z,-26.43,31.95,18.0,16.0,70,3,,,29.970472,,,TRUE,,,,,,,,,,,,,,,,,,,,,,,,,,,,METAR,642.0
FDPP 140400Z AUTO 35001KT //// // ////// 23/23 Q1021,FDPP,2021-01-14T04:00:00Z,-25.97,31.25,23.0,23.0,350,1,,,30.147638,,,TRUE,,,,,,,,,,,,,,,,,,,,,,,,,,,,METAR,1023.0
FDOT 140400Z AUTO 15001KT //// // ////// 24/21 Q1015,FDOT,2021-01-14T04:00:00Z,-26.7,31.43,24.0,21.0,150,1,,,29.970472,,,TRUE,,,,,,,,,,,,,,,,,,,,,,,,,,,,METAR,342.0
FDMY 140400Z AUTO 21001KT //// // ////// 23/21 Q1024,FDMY,2021-01-14T04:00:00Z,-25.88,31.52,23.0,21.0,210,1,,,30.236221,,,TRUE,,,,,,,,,,,,,,,,,,,,,,,,,,,,METAR,401.0
FDBB 140400Z AUTO 22002KT //// // ////// 23/22 Q1012,FDBB,2021-01-14T04:00:00Z,-26.8,31.93,23.0,22.0,220,2,,,29.88189,,,TRUE,,,,,,,,,,,,,,,,,,,,,,,,,,,,METAR,106.0
FCPP 140400Z VRB03KT 9999 FEW020 OVC028 24/24 Q1011 NOSIG,FCPP,2021-01-14T04:00:00Z,-4.82,11.9,24.0,24.0,0,3,,6.21,29.852362,,,,,,TRUE,,,,,FEW,2000,OVC,2800,,,,,MVFR,,,,,,,,,,,,METAR,18.0
FCBB 140400Z 28006KT 250V310 9999 FEW016 23/21 Q1013 NOSIG,FCBB,2021-01-14T04:00:00Z,-4.25,15.25,23.0,21.0,280,6,,6.21,29.911417,,,,,,TRUE,,,,,FEW,1600,,,,,,,VFR,,,,,,,,,,,,METAR,316.0
FBSP 140400Z 11004KT CAVOK 21/20 Q1015,FBSP,2021-01-14T04:00:00Z,-22.05,27.82,21.0,20.0,110,4,,6.21,29.970472,,,,,,,,,,,CAVOK,,,,,,,,VFR,,,,,,,,,,,,METAR,889.0
FBSK 140400Z 14005KT 110V170 9999 FEW030CB OVC060 20/20 Q1016 NOSIG,FBSK,2021-01-14T04:00:00Z,-24.55,25.92,20.0,20.0,140,5,,6.21,30.0,,,,,,TRUE,,,,,FEW,3000,OVC,6000,,,,,VFR,,,,,,,,,,,,METAR,1007.0
FBMN 140400Z 08003KT CAVOK 21/21 Q1013,FBMN,2021-01-14T04:00:00Z,-19.97,23.42,21.0,21.0,80,3,,6.21,29.911417,,,,,,,,,,,CAVOK,,,,,,,,VFR,,,,,,,,,,,,METAR,946.0
FAWB 140400Z AUTO 10005KT //// // ////// 19/17 Q1018,FAWB,2021-01-14T04:00:00Z,-25.65,28.22,19.0,17.0,100,5,,,30.059055,,,TRUE,,,,,,,,,,,,,,,,,,,,,,,,,,,,METAR,1245.0
FAUT 140400Z 08001KT 9999 SCT020 20/19 Q1016,FAUT,2021-01-14T04:00:00Z,-31.53,28.67,20.0,19.0,80,1,,6.21,30.0,,,,,,,,,,,SCT,2000,,,,,,,VFR,,,,,,,,,,,,METAR,735.0
FAUP 140400Z 07004KT CAVOK 24/18 Q1013 NOSIG,FAUP,2021-01-14T04:00:00Z,-28.38,21.27,24.0,18.0,70,4,,6.21,29.911417,,,,,,TRUE,,,,,CAVOK,,,,,,,,VFR,,,,,,,,,,,,METAR,845.0
FAPP 140400Z 01001KT 9999 BKN012 19/17 Q1018 TEMPO BKN010,FAPP,2021-01-14T04:00:00Z,-23.83,29.45,19.0,17.0,10,1,,6.21,30.059055,,,,,,,,,,,BKN,1200,,,,,,,MVFR,,,,,,,,,,,,SPECI,1238.0
FAPE 140400Z 08012KT 8000 OVC003 20/20 Q1012 NOSIG,FAPE,2021-01-14T04:00:00Z,-33.98,25.6,20.0,20.0,80,12,,4.97,29.88189,,,,,,TRUE,,,,,OVC,300,,,,,,,LIFR,,,,,,,,,,,,METAR,58.0
FAOB 140400Z AUTO 14009KT //// // ////// 20/18 Q1010,FAOB,2021-01-14T04:00:00Z,-34.55,20.23,20.0,18.0,140,9,,,29.822834,,,TRUE,,,,,,,,,,,,,,,,,,,,,,,,,,,,METAR,15.0
FAMM 140400Z 03011KT CAVOK 19/17 Q1017 NOSIG,FAMM,2021-01-14T04:00:00Z,-25.8,25.53,19.0,17.0,30,11,,6.21,30.029528,,,,,,TRUE,,,,,CAVOK,,,,,,,,VFR,,,,,,,,,,,,METAR,1280.0
FALW 140400Z AUTO 05005KT //// // ////// 17/14 Q1006,FALW,2021-01-14T04:00:00Z,-32.97,18.17,17.0,14.0,50,5,,,29.704725,,,TRUE,,,,,,,,,,,,,,,,,,,,,,,,,,,,METAR,31.0
FALE 140400Z VRB01KT 9999 FEW049 23/21 Q1012 NOSIG,FALE,2021-01-14T04:00:00Z,-29.62,31.12,23.0,21.0,0,1,,6.21,29.88189,,,,,,TRUE,,,,,FEW,4900,,,,,,,VFR,,,,,,,,,,,,METAR,109.0
FALA 140400Z AUTO 24002KT //// // ////// 17/16 Q1020,FALA,2021-01-14T04:00:00Z,-25.93,27.92,17.0,16.0,240,2,,,30.11811,,,TRUE,,,,,,,,,,,,,,,,,,,,,,,,,,,,METAR,1365.0
FAKN 140400Z AUTO 00000KT //// // ////// 20/19 Q1019,FAKN,2021-01-14T04:00:00Z,-25.38,31.1,20.0,19.0,0,0,,,30.088583,,,TRUE,,,,,,,,,,,,,,,,,,,,,,,,,,,,METAR,864.0
FAKM 140400Z 07004KT 9999 FEW050 SCT090 17/16 Q1017,FAKM,2021-01-14T04:00:00Z,-28.8,24.77,17.0,16.0,70,4,,6.21,30.029528,,,,,,,,,,,FEW,5000,SCT,9000,,,,,VFR,,,,,,,,,,,,METAR,1203.0
FAHS 140400Z AUTO 19004KT //// // ////// 23/21 Q1015,FAHS,2021-01-14T04:00:00Z,-24.37,31.03,23.0,21.0,190,4,,,29.970472,,,TRUE,,,,,,,,,,,,,,,,,,,,,,,,,,,,METAR,532.0
FACT 140400Z 21007KT CAVOK 19/16 Q1007 NOSIG,FACT,2021-01-14T04:00:00Z,-33.97,18.6,19.0,16.0,210,7,,6.21,29.734253,,,,,,TRUE,,,,,CAVOK,,,,,,,,VFR,,,,,,,,,,,,METAR,48.0
FABL 140400Z 03003KT 9999 SCT025 18/17 Q1019 NOSIG,FABL,2021-01-14T04:00:00Z,-29.1,26.3,18.0,17.0,30,3,,6.21,30.088583,,,,,,TRUE,,,,,SCT,2500,,,,,,,VFR,,,,,,,,,,,,METAR,1348.0
EPZG 140400Z 28004KT 250V310 9999 BKN022 OVC031 M00/M01 Q1004,EPZG,2021-01-14T04:00:00Z,52.13,15.77,0.0,-1.0,280,4,,6.21,29.64567,,,,,,,,,,,BKN,2200,OVC,3100,,,,,MVFR,,,,,,,,,,,,METAR,59.0
EPWR 140400Z 30013KT 9999 -SN BKN013 M01/M02 Q1004 R29/55//94,EPWR,2021-01-14T04:00:00Z,51.1,16.88,-1.0,-2.0,300,13,,6.21,29.64567,,,,,,,,,,-SN,BKN,1300,,,,,,,MVFR,,,,,,,,,,,,SPECI,118.0
EPWA 140400Z VRB03KT 5000 -SN BR SCT007 BKN048 M01/M01 Q1003 R88/2///95 TEMPO BKN006,EPWA,2021-01-14T04:00:00Z,52.17,20.97,-1.0,-1.0,0,3,,3.11,29.616142,,,,,,,,,,-SN BR,SCT,700,BKN,4800,,,,,MVFR,,,,,,,,,,,,METAR,107.0
EPSY 140400Z 02004KT 5000 BR OVC011 M02/M02 Q1004,EPSY,2021-01-14T04:00:00Z,53.47,20.93,-2.0,-2.0,20,4,,3.11,29.64567,,,,,,,,,,BR,OVC,1100,,,,,,,MVFR,,,,,,,,,,,,METAR,136.0
EPSC 140400Z 03006KT 350V060 9999 FEW006 BKN008 01/M00 Q1007 R13/55//95,EPSC,2021-01-14T04:00:00Z,53.58,14.9,1.0,0.0,30,6,,6.21,29.734253,,,,,,,,,,,FEW,600,BKN,800,,,,,IFR,,,,,,,,,,,,METAR,47.0
EPRZ 140400Z 23002KT 3000 -SN BR BKN006 M01/M01 Q1002,EPRZ,2021-01-14T04:00:00Z,50.1,22.02,-1.0,-1.0,230,2,,1.86,29.586615,,,,,,,,,,-SN BR,BKN,600,,,,,,,IFR,,,,,,,,,,,,METAR,206.0
EPPO 140400Z 34006KT 4000 -SN OVC004 M00/M00 Q1003 RESN,EPPO,2021-01-14T04:00:00Z,52.42,16.83,0.0,0.0,340,6,,2.49,29.616142,,,,,,,,,,-SN,OVC,400,,,,,,,LIFR,,,,,,,,,,,,METAR,87.0
EPMO 140400Z 35003KT 2000 BR SCT009 BKN040 M02/M02 Q1003,EPMO,2021-01-14T04:00:00Z,52.45,20.65,-2.0,-2.0,350,3,,1.24,29.616142,,,,,,,,,,BR,SCT,900,BKN,4000,,,,,IFR,,,,,,,,,,,,METAR,102.0
EPLL 140400Z 07004KT 1500 -SN BR BKN007 M00/M01 Q1002,EPLL,2021-01-14T04:00:00Z,51.72,19.4,0.0,-1.0,70,4,,0.93,29.586615,,,,,,,,,,-SN BR,BKN,700,,,,,,,LIFR,,,,,,,,,,,,METAR,176.0
EPLB 140400Z 31003KT 7000 BKN010 OVC044 M01/M01 Q1003,EPLB,2021-01-14T04:00:00Z,51.23,22.72,-1.0,-1.0,310,3,,4.35,29.616142,,,,,,,,,,,BKN,1000,OVC,4400,,,,,MVFR,,,,,,,,,,,,METAR,206.0
EPKT 140400Z 25009KT 2700 SN BR FEW005 SCT008 BKN011 M01/M02 Q1001 R99/220394,EPKT,2021-01-14T04:00:00Z,50.47,19.08,-1.0,-2.0,250,9,,1.68,29.557087,,,,,,,,,,SN BR,FEW,500,SCT,800,BKN,1100,,,IFR,,,,,,,,,,,,METAR,296.0
EPKK 140400Z 19004KT 2000 -SN BR FEW008 BKN011 M01/M01 Q1002 R25/52//94,EPKK,2021-01-14T04:00:00Z,50.07,19.8,-1.0,-1.0,190,4,,1.24,29.586615,,,,,,,,,,-SN BR,FEW,800,BKN,1100,,,,,IFR,,,,,,,,,,,,METAR,237.0
EPGD 140400Z VRB02KT 2500 -SHSN BR FEW005 SCT031TCU BKN042 M05/M06 Q1005 R11/290095,EPGD,2021-01-14T04:00:00Z,54.37,18.47,-5.0,-6.0,0,2,,1.55,29.675198,,,,,,,,,,-SHSN BR,FEW,500,SCT,3100,BKN,4200,,,IFR,,,,,,,,,,,,METAR,136.0
EPBY 140400Z 05009KT 5000 BR OVC005 00/M01 Q1004,EPBY,2021-01-14T04:00:00Z,53.1,18.0,0.0,-1.0,50,9,,3.11,29.64567,,,,,,,,,,BR,OVC,500,,,,,,,IFR,,,,,,,,,,,,METAR,66.0
EINN 140400Z 32007KT 9999 SCT014 BKN026 BKN180 08/06 Q1019 NOSIG,EINN,2021-01-14T04:00:00Z,52.7,-8.92,8.0,6.0,320,7,,6.21,30.088583,,,,,,TRUE,,,,,SCT,1400,BKN,2600,BKN,18000,,,MVFR,,,,,,,,,,,,METAR,20.0
EIME 140400Z 28016KT 9999 OVC008 08/07 Q1015,EIME,2021-01-14T04:00:00Z,53.3,-6.45,8.0,7.0,280,16,,6.21,29.970472,,,,,,,,,,,OVC,800,,,,,,,IFR,,,,,,,,,,,,METAR,90.0
EIDW 140400Z 29018KT 7000 -DZ SCT005 BKN010 09/08 Q1014 TEMPO 3000 BKN004,EIDW,2021-01-14T04:00:00Z,53.42,-6.28,9.0,8.0,290,18,,4.35,29.940945,,,,,,,,,,-DZ,SCT,500,BKN,1000,,,,,MVFR,,,,,,,,,,,,METAR,75.0
EICK 140400Z 30012KT 9999 BKN008 BKN013 08/07 Q1018 BECMG SCT030,EICK,2021-01-14T04:00:00Z,51.85,-8.47,8.0,7.0,300,12,,6.21,30.059055,,,,,,,,,,,BKN,800,BKN,1300,,,,,IFR,,,,,,,,,,,,METAR,158.0
EGOP 140400Z AUTO 25016KT 1100 // OVC003/// 09/09 Q1014,EGOP,2021-01-14T04:00:00Z,51.72,-4.37,9.0,9.0,250,16,,0.68,29.940945,,,TRUE,,,,,,,,OVC,300,,,,,,,LIFR,,,,,,,,,,,,SPECI,8.0
DXXX 140400Z 24005KT 9999 FEW010 26/24 Q1011 NOSIG,DXXX,2021-01-14T04:00:00Z,6.17,1.25,26.0,24.0,240,5,,6.21,29.852362,,,,,,TRUE,,,,,FEW,1000,,,,,,,VFR,,,,,,,,,,,,METAR,22.0
DTTX 140400Z VRB02KT 9999 FEW026 09/03 Q1022,DTTX,2021-01-14T04:00:00Z,34.72,10.68,9.0,3.0,0,2,,6.21,30.177166,,,,,,,,,,,FEW,2600,,,,,,,VFR,,,,,,,,,,,,METAR,17.0
DTTR 140400Z AUTO 00000KT NCD 02/M05 Q1025,DTTR,2021-01-14T04:00:00Z,31.7,9.27,2.0,-5.0,0,0,,,30.265747,,,TRUE,,,,,,,,CLR,,,,,,,,,,,,,,,,,,,,METAR,253.0
DTTN 140400Z 23007KT 8000 SCT020 SCT030 09/06 Q1022,DTTN,2021-01-14T04:00:00Z,36.47,8.8,9.0,6.0,230,7,,4.97,30.177166,,,,,,,,,,,SCT,2000,SCT,3000,,,,,MVFR,,,,,,,,,,,,METAR,145.0
DTTL 140400Z AUTO 28008G18KT 200V330 NCD 14/10 Q1019,DTTL,2021-01-14T04:00:00Z,36.85,11.07,14.0,10.0,280,8,18,,30.088583,,,TRUE,,,,,,,,CLR,,,,,,,,,,,,,,,,,,,,METAR,18.0
DTTK 140400Z 29004KT 220V020 9999 BKN023 12/06 Q1022,DTTK,2021-01-14T04:00:00Z,35.67,10.08,12.0,6.0,290,4,,6.21,30.177166,,,,,,,,,,,BKN,2300,,,,,,,MVFR,,,,,,,,,,,,METAR,65.0
DTTJ 140400Z 28010KT CAVOK 12/05 Q1023 NOSIG,DTTJ,2021-01-14T04:00:00Z,33.87,10.77,12.0,5.0,280,10,,6.21,30.206694,,,,,,TRUE,,,,,CAVOK,,,,,,,,VFR,,,,,,,,,,,,METAR,3.0
DTTG 140400Z 28007KT CAVOK Q1023 NOSIG,DTTG,2021-01-14T04:00:00Z,33.73,9.92,,,280,7,,6.21,30.206694,,,,,,TRUE,,,,,CAVOK,,,,,,,,VFR,,,,,,,,,,,,METAR,120.0
DTTF 140400Z 05006KT CAVOK 06/01 Q1023 NOSIG,DTTF,2021-01-14T04:00:00Z,34.42,8.82,6.0,1.0,50,6,,6.21,30.206694,,,,,,TRUE,,,,,CAVOK,,,,,,,,VFR,,,,,,,,,,,,METAR,314.0
DTTD 140400Z AUTO 25004KT 220V280 NCD 07/M03 Q1023,DTTD,2021-01-14T04:00:00Z,32.32,10.4,7.0,-3.0,250,4,,,30.206694,,,TRUE,,,,,,,,CLR,,,,,,,,,,,,,,,,,,,,METAR,306.0
DTTB 140400Z 27017KT 8000 BKN020 SCT030 14/07 Q1020,DTTB,2021-01-14T04:00:00Z,37.25,9.8,14.0,7.0,270,17,,4.97,30.11811,,,,,,,,,,,BKN,2000,SCT,3000,,,,,MVFR,,,,,,,,,,,,METAR,4.0
DTTA 140400Z 27013KT 9999 SCT026 14/06 Q1020,DTTA,2021-01-14T04:00:00Z,36.85,10.22,14.0,6.0,270,13,,6.21,30.11811,,,,,,,,,,,SCT,2600,,,,,,,VFR,,,,,,,,,,,,METAR,4.0
DTNH 140400Z 28010KT 9999 BKN046 13/07 Q1021,DTNH,2021-01-14T04:00:00Z,36.07,10.43,13.0,7.0,280,10,,6.21,30.147638,,,,,,,,,,,BKN,4600,,,,,,,VFR,,,,,,,,,,,,METAR,1.0
DTMB 140400Z 28010KT 8000 NSC 13/07 Q1021,DTMB,2021-01-14T04:00:00Z,35.77,10.75,13.0,7.0,280,10,,4.97,30.147638,,,,,,,,,,,CLR,,,,,,,,MVFR,,,,,,,,,,,,METAR,1.0
DTKA 140400Z 26010KT 9999 SCT020 11/08 Q1022 NOSIG,DTKA,2021-01-14T04:00:00Z,36.98,8.88,11.0,8.0,260,10,,6.21,30.177166,,,,,,TRUE,,,,,SCT,2000,,,,,,,VFR,,,,,,,,,,,,METAR,70.0
DRRT 140400Z 06008KT CAVOK 20/M03 Q1014,DRRT,2021-01-14T04:00:00Z,14.87,5.27,20.0,-3.0,60,8,,6.21,29.940945,,,,,,,,,,,CAVOK,,,,,,,,VFR,,,,,,,,,,,,METAR,387.0
DRRN 140400Z 36004KT CAVOK 20/M02 Q1012 NOSIG,DRRN,2021-01-14T04:00:00Z,13.47,2.17,20.0,-2.0,360,4,,6.21,29.88189,,,,,,TRUE,,,,,CAVOK,,,,,,,,VFR,,,,,,,,,,,,METAR,223.0
DRRM 140400Z 08008KT CAVOK 15/M02 Q1014,DRRM,2021-01-14T04:00:00Z,13.5,7.12,15.0,-2.0,80,8,,6.21,29.940945,,,,,,,,,,,CAVOK,,,,,,,,VFR,,,,,,,,,,,,METAR,374.0
DNKN 140400Z 31003KT CAVOK 13/03 Q1017 NOSIG,DNKN,2021-01-14T04:00:00Z,12.05,8.52,13.0,3.0,310,3,,6.21,30.029528,,,,,,TRUE,,,,,CAVOK,,,,,,,,VFR,,,,,,,,,,,,METAR,471.0
DIBK 140400Z 22006KT 6000 NSC 23/23 Q1013 NOSIG,DIBK,2021-01-14T04:00:00Z,7.73,-5.07,23.0,23.0,220,6,,3.73,29.911417,,,,,,TRUE,,,,,CLR,,,,,,,,MVFR,,,,,,,,,,,,METAR,363.0
DIAP 140400Z 26003KT CAVOK 25/24 Q1010 NOSIG,DIAP,2021-01-14T04:00:00Z,5.25,-3.92,25.0,24.0,260,3,,6.21,29.822834,,,,,,TRUE,,,,,CAVOK,,,,,,,,VFR,,,,,,,,,,,,METAR,4.0
DGAA 140400Z 26007KT 9999 BKN013 26/24 Q1010 NOSIG,DGAA,2021-01-14T04:00:00Z,5.58,-0.17,26.0,24.0,260,7,,6.21,29.822834,,,,,,TRUE,,,,,BKN,1300,,,,,,,MVFR,,,,,,,,,,,,METAR,68.0
DFOO 140400Z 06006KT CAVOK 23/04 Q1013,DFOO,2021-01-14T04:00:00Z,11.17,-4.32,23.0,4.0,60,6,,6.21,29.911417,,,,,,,,,,,CAVOK,,,,,,,,VFR,,,,,,,,,,,,METAR,461.0
DFFD 140400Z 35002KT CAVOK 19/02 Q1013 NOSIG,DFFD,2021-01-14T04:00:00Z,12.35,-1.52,19.0,2.0,350,2,,6.21,29.911417,,,,,,TRUE,,,,,CAVOK,,,,,,,,VFR,,,,,,,,,,,,METAR,309.0
DBBB 140400Z VRB02KT 8000 SCT012 26/25 Q1010 TEMPO BKN009,DBBB,2021-01-14T04:00:00Z,6.35,2.38,26.0,25.0,0,2,,4.97,29.822834,,,,,,,,,,,SCT,1200,,,,,,,MVFR,,,,,,,,,,,,SPECI,4.0
DAUZ 140400Z 06009KT CAVOK 02/M09 Q1022,DAUZ,2021-01-14T04:00:00Z,28.05,9.63,2.0,-9.0,60,9,,6.21,30.177166,,,,,,,,,,,CAVOK,,,,,,,,VFR,,,,,,,,,,,,METAR,567.0
DAUU 140400Z 00000KT CAVOK 01/M07 Q1024,DAUU,2021-01-14T04:00:00Z,31.92,5.4,1.0,-7.0,0,0,,6.21,30.236221,,,,,,,,,,,CAVOK,,,,,,,,VFR,,,,,,,,,,,,METAR,147.0
DAUT 140400Z 06004KT CAVOK 03/M05 Q1024,DAUT,2021-01-14T04:00:00Z,29.25,0.27,3.0,-5.0,60,4,,6.21,30.236221,,,,,,,,,,,CAVOK,,,,,,,,VFR,,,,,,,,,,,,METAR,307.0
DAUO 140400Z 25005KT CAVOK 05/M03 Q1024,DAUO,2021-01-14T04:00:00Z,33.5,6.78,5.0,-3.0,250,5,,6.21,30.236221,,,,,,,,,,,CAVOK,,,,,,,,VFR,,,,,,,,,,,,METAR,55.0
DAUK 140400Z 19004KT CAVOK 03/M04 Q1024,DAUK,2021-01-14T04:00:00Z,33.08,6.08,3.0,-4.0,190,4,,6.21,30.236221,,,,,,,,,,,CAVOK,,,,,,,,VFR,,,,,,,,,,,,METAR,83.0
DAUI 140400Z 04014KT CAVOK 10/M04 Q1020,DAUI,2021-01-14T04:00:00Z,27.25,2.52,10.0,-4.0,40,14,,6.21,30.11811,,,,,,,,,,,CAVOK,,,,,,,,VFR,,,,,,,,,,,,METAR,271.0
DAUH 140400Z 00000KT CAVOK 00/M07 Q1024,DAUH,2021-01-14T04:00:00Z,31.67,6.15,0.0,-7.0,0,0,,6.21,30.236221,,,,,,,,,,,CAVOK,,,,,,,,VFR,,,,,,,,,,,,METAR,141.0
DAUG 140400Z VRB02KT CAVOK 02/M06 Q1025,DAUG,2021-01-14T04:00:00Z,32.38,3.78,2.0,-6.0,0,2,,6.21,30.265747,,,,,,,,,,,CAVOK,,,,,,,,VFR,,,,,,,,,,,,METAR,444.0
DAUE 140400Z 35003KT CAVOK M01/M07 Q1025,DAUE,2021-01-14T04:00:00Z,30.57,2.87,-1.0,-7.0,350,3,,6.21,30.265747,,,,,,,,,,,CAVOK,,,,,,,,VFR,,,,,,,,,,,,METAR,396.0
DAUB 140400Z 32008KT CAVOK 08/00 Q1024,DAUB,2021-01-14T04:00:00Z,34.78,5.73,8.0,0.0,320,8,,6.21,30.236221,,,,,,,,,,,CAVOK,,,,,,,,VFR,,,,,,,,,,,,METAR,75.0
DAUA 140400Z 01005KT CAVOK 04/M06 Q1024,DAUA,2021-01-14T04:00:00Z,27.83,-0.18,4.0,-6.0,10,5,,6.21,30.236221,,,,,,,,,,,CAVOK,,,,,,,,VFR,,,,,,,,,,,,METAR,278.0
DAOY 140400Z VRB02KT CAVOK M05/M07 Q1025,DAOY,2021-01-14T04:00:00Z,33.72,1.08,-5.0,-7.0,0,2,,6.21,30.265747,,,,,,,,,,,CAVOK,,,,,,,,VFR,,,,,,,,,,,,METAR,1340.0
DAOV 140400Z 11001KT 8000 NSC M01/M01 Q1027,DAOV,2021-01-14T04:00:00Z,35.2,0.15,-1.0,-1.0,110,1,,4.97,30.324802,,,,,,,,,,,CLR,,,,,,,,MVFR,,,,,,,,,,,,METAR,506.0
DAOR 140400Z 36005KT CAVOK M01/M11 Q1026,DAOR,2021-01-14T04:00:00Z,31.65,-2.27,-1.0,-11.0,360,5,,6.21,30.295275,,,,,,,,,,,CAVOK,,,,,,,,VFR,,,,,,,,,,,,METAR,809.0
DAOO 140400Z VRB02KT CAVOK 03/02 Q1026,DAOO,2021-01-14T04:00:00Z,35.62,-0.62,3.0,2.0,0,2,,6.21,30.295275,,,,,,,,,,,CAVOK,,,,,,,,VFR,,,,,,,,,,,,METAR,87.0
DAON 140400Z 15003KT CAVOK 02/02 Q1028,DAON,2021-01-14T04:00:00Z,35.02,-1.47,2.0,2.0,150,3,,6.21,30.35433,,,,,,,,,,,CAVOK,,,,,,,,VFR,,,,,,,,,,,,METAR,245.0
DAOI 140400Z 05006KT CAVOK 06/04 Q1026,DAOI,2021-01-14T04:00:00Z,36.22,1.32,6.0,4.0,50,6,,6.21,30.295275,,,,,,,,,,,CAVOK,,,,,,,,VFR,,,,,,,,,,,,METAR,141.0
DAOF 140400Z 03004KT CAVOK 05/M01 Q1026,DAOF,2021-01-14T04:00:00Z,27.7,-8.17,5.0,-1.0,30,4,,6.21,30.295275,,,,,,,,,,,CAVOK,,,,,,,,VFR,,,,,,,,,,,,METAR,441.0
DAOB 140400Z 21006KT CAVOK M02/M02 Q1026,DAOB,2021-01-14T04:00:00Z,35.33,1.47,-2.0,-2.0,210,6,,6.21,30.295275,,,,,,,,,,,CAVOK,,,,,,,,VFR,,,,,,,,,,,,METAR,984.0
DABT 140400Z 13003KT CAVOK M01/M02 Q1025,DABT,2021-01-14T04:00:00Z,35.75,6.32,-1.0,-2.0,130,3,,6.21,30.265747,,,,,,,,,,,CAVOK,,,,,,,,VFR,,,,,,,,,,,,METAR,813.0
DABS 140400Z 30004KT 9999 SCT023 SCT030 05/01 Q1024,DABS,2021-01-14T04:00:00Z,35.43,8.12,5.0,1.0,300,4,,6.21,30.236221,,,,,,,,,,,SCT,2300,SCT,3000,,,,,VFR,,,,,,,,,,,,METAR,806.0
DABC 140400Z VRB02KT 9999 SCT026 01/M00 Q1025,DABC,2021-01-14T04:00:00Z,36.27,6.62,1.0,0.0,0,2,,6.21,30.265747,,,,,,,,,,,SCT,2600,,,,,,,VFR,,,,,,,,,,,,METAR,700.0
DABB 140400Z 24008KT 9999 FEW023 08/07 Q1023,DABB,2021-01-14T04:00:00Z,36.82,7.82,8.0,7.0,240,8,,6.21,30.206694,,,,,,,,,,,FEW,2300,,,,,,,VFR,,,,,,,,,,,,METAR,3.0
DAAY 140400Z 00000KT CAVOK M04/M08 Q1028,DAAY,2021-01-14T04:00:00Z,33.53,-0.25,-4.0,-8.0,0,0,,6.21,30.35433,,,,,,,,,,,CAVOK,,,,,,,,VFR,,,,,,,,,,,,METAR,1116.0
DAAV 140400Z 17003KT 9999 FEW020 07/05 Q1025,DAAV,2021-01-14T04:00:00Z,36.8,5.88,7.0,5.0,170,3,,6.21,30.265747,,,,,,,,,,,FEW,2000,,,,,,,VFR,,,,,,,,,,,,METAR,11.0
DAAT 140400Z VRB01KT CAVOK 10/M08 Q1022,DAAT,2021-01-14T04:00:00Z,22.82,5.47,10.0,-8.0,0,1,,6.21,30.177166,,,,,,,,,,,CAVOK,,,,,,,,VFR,,,,,,,,,,,,METAR,1372.0
DAAS 140400Z 36004KT CAVOK M02/M03 Q1024,DAAS,2021-01-14T04:00:00Z,36.18,5.33,-2.0,-3.0,360,4,,6.21,30.236221,,,,,,,,,,,CAVOK,,,,,,,,VFR,,,,,,,,,,,,METAR,1012.0
DAAP 140400Z 09007KT CAVOK 06/M07 Q1021,DAAP,2021-01-14T04:00:00Z,26.72,8.62,6.0,-7.0,90,7,,6.21,30.147638,,,,,,,,,,,CAVOK,,,,,,,,VFR,,,,,,,,,,,,METAR,542.0
DAAJ 140400Z 00000KT CAVOK 07/M07 Q1021,DAAJ,2021-01-14T04:00:00Z,24.28,9.47,7.0,-7.0,0,0,,6.21,30.147638,,,,,,,,,,,CAVOK,,,,,,,,VFR,,,,,,,,,,,,METAR,962.0
DAAG 140400Z VRB02KT 9999 FEW023 04/03 Q1027,DAAG,2021-01-14T04:00:00Z,36.68,3.22,4.0,3.0,0,2,,6.21,30.324802,,,,,,,,,,,FEW,2300,,,,,,,VFR,,,,,,,,,,,,METAR,18.0
CZZJ 140400Z AUTO 26008KT M03/M10 RMK AO1 SOG 12 3022 SLP191 T10271095,CZZJ,2021-01-14T04:00:00Z,53.58,-116.47,-2.7,-9.5,260,8,,,,1019.1,,TRUE,TRUE,,,,,,,,,,,,,,,,,,,,,,,,,,,METAR,927.0
CZVL 140400Z AUTO 29019G27KT 9SM CLR 00/M09 A2988 RMK SLP152,CZVL,2021-01-14T04:00:00Z,53.67,-113.85,0.0,-9.0,290,19,27,9.0,29.878937,1015.2,,TRUE,,,,,,,,CLR,,,,,,,,VFR,,,,,,,,,,,,METAR,685.0
CZTB 140400Z AUTO 28001KT M02/M03 RMK AO1 SOG 16 8002 SLP049 T10221033,CZTB,2021-01-14T04:00:00Z,48.37,-89.32,-2.2,-3.3,280,1,,,,1004.9,,TRUE,TRUE,,,,,,,,,,,,,,,,,,,,,,,,,,,METAR,197.0
CZSP 140400Z AUTO 17005KT M03/M06 RMK AO1 SOG 11 8004 SLP143 T10251057,CZSP,2021-01-14T04:00:00Z,46.45,-62.58,-2.5,-5.7,170,5,,,,1014.3,,TRUE,TRUE,,,,,,,,,,,,,,,,,,,,,,,,,,,METAR,31.0
CZSM 140400Z AUTO 28006KT M07/M09 RMK AO1 SOG 45 3040 PK WND 30017/0312 SLP013 T10661088,CZSM,2021-01-14T04:00:00Z,60.03,-111.93,-6.6,-8.8,280,6,,,,1001.3,,TRUE,TRUE,,,,,,,,,,,,,,,,,,,,,,,,,,,METAR,203.0
CZSJ 140400Z AUTO 13006KT 9SM OVC006 M02/M02 A2944 RMK SLP989,CZSJ,2021-01-14T04:00:00Z,53.07,-93.35,-2.0,-2.0,130,6,,9.0,29.438976,998.9,,TRUE,,,,,,,,OVC,600,,,,,,,IFR,,,,,,,,,,,,METAR,286.0
CZPC 140400Z AUTO 25016KT 9SM M01/M10 A3005 RMK CLD MISG SLP213,CZPC,2021-01-14T04:00:00Z,49.52,-114.0,-1.0,-10.0,250,16,,9.0,30.050198,1021.3,,TRUE,,,,,,,,,,,,,,,,,,,,,,,,,,,,SPECI,1187.0
CZOL 140400Z AUTO 30012KT 00/M09 RMK AO1 PK WND 29023/0339 T00001089,CZOL,2021-01-14T04:00:00Z,53.65,-113.35,0.0,-8.9,300,12,,,,,,TRUE,TRUE,,,,,,,,,,,,,,,,,,,,,,,,,,,METAR,645.0
CZMJ 140400Z AUTO 31033G45KT M00/M01 RMK AO1 5PAST HR PRESRR 3034 PK WND 31051/0301 SLP934 P0002 T10011008 50005,CZMJ,2021-01-14T04:00:00Z,50.33,-105.53,-0.1,-0.8,310,33,45,,,993.4,,TRUE,TRUE,,,,,,,,,,,,,,,,0.5,,,,,0.02,,,,,,METAR,571.0
CZMD 140400Z AUTO 18007KT 140V210 9SM OVC007 M02/M03 A2949 RMK SLP003,CZMD,2021-01-14T04:00:00Z,53.43,-91.77,-2.0,-3.0,180,7,,9.0,29.489174,1000.3,,TRUE,,,,,,,,OVC,700,,,,,,,IFR,,,,,,,,,,,,METAR,276.0
CZHY 140400Z AUTO 30015KT M08/M10 RMK AO1 SOG 16 3052 PK WND 30023/0313 SLP069 T10831101 50004,CZHY,2021-01-14T04:00:00Z,60.83,-115.78,-8.3,-10.1,300,15,,,,1006.9,,TRUE,TRUE,,,,,,,,,,,,,,,,0.4,,,,,,,,,,,METAR,159.0
CZFS 140400Z AUTO 31008KT M15/M18 RMK AO1 SOG 25 1040 SLP130 T11481175,CZFS,2021-01-14T04:00:00Z,61.77,-121.23,-14.8,-17.5,310,8,,,,1013.0,,TRUE,TRUE,,,,,,,,,,,,,,,,,,,,,,,,,,,METAR,174.0
CZEV 140400Z AUTO 00000KT M26/M29 RMK AO1 SOG 23 1022 SLP178 T12621290,CZEV,2021-01-14T04:00:00Z,68.32,-133.48,-26.2,-29.0,0,0,,,,1017.8,,TRUE,TRUE,,,,,,,,,,,,,,,,,,,,,,,,,,,METAR,92.0
CZEL 140400Z AUTO 28003KT M03/M03 RMK AO1 SOG 12 6004 SLP076 T10281032,CZEL,2021-01-14T04:00:00Z,43.65,-80.42,-2.8,-3.2,280,3,,,,1007.6,,TRUE,TRUE,,,,,,,,,,,,,,,,,,,,,,,,,,,METAR,370.0
CZDB 140400Z AUTO 36005KT M02/M05 RMK AO1 SOG 14 8003 SLP142 T10241054,CZDB,2021-01-14T04:00:00Z,45.42,-63.47,-2.4,-5.4,360,5,,,,1014.2,,TRUE,TRUE,,,,,,,,,,,,,,,,,,,,,,,,,,,METAR,38.0
CZCR 140400Z AUTO 12001KT M04/M05 RMK AO1 SOG 07 6003 SLP107 T10351053,CZCR,2021-01-14T04:00:00Z,47.98,-66.33,-3.5,-5.3,120,1,,,,1010.7,,TRUE,TRUE,,,,,,,,,,,,,,,,,,,,,,,,,,,METAR,39.0
CZCP 140400Z AUTO 29007KT ////SM //// OVC065 M25/M27 A2990,CZCP,2021-01-14T04:00:00Z,70.17,-124.68,-25.0,-27.0,290,7,,,29.899607,,,TRUE,,,,,,,,OVC,6500,,,,,,,,,,,,,,,,,,,SPECI,23.0
CZBF 140400Z AUTO 17003KT 9SM OVC055 M03/M05 A2985 RMK SLP117,CZBF,2021-01-14T04:00:00Z,47.62,-65.75,-3.0,-5.0,170,3,,9.0,29.84941,1011.7,,TRUE,,,,,,,,OVC,5500,,,,,,,VFR,,,,,,,,,,,,SPECI,60.0
CYZY 140400Z AUTO VRB04KT 9SM CLR M06/M09 A3015 RMK SLP262,CYZY,2021-01-14T04:00:00Z,55.3,-123.13,-6.0,-9.0,0,4,,9.0,30.15059,1026.2,,TRUE,,,,,,,,CLR,,,,,,,,VFR,,,,,,,,,,,,SPECI,694.0
CYZV 140400Z 04007KT 10SM -SN OVC040 M06/M08 A2980 RMK SC8 SLP098,CYZV,2021-01-14T04:00:00Z,50.22,-66.27,-6.0,-8.0,40,7,,10.0,29.799213,1009.8,,,,,,,,,-SN,OVC,4000,,,,,,,VFR,,,,,,,,,,,,SPECI,43.0
CYZU 140400Z 28013KT 15SM SKC M02/M09 A2994 RMK SLP177,CYZU,2021-01-14T04:00:00Z,54.15,-115.78,-2.0,-9.0,280,13,,15.0,29.940945,1017.7,,,,,,,,,,SKC,,,,,,,,VFR,,,,,,,,,,,,SPECI,785.0
CYZT 140400Z 15003KT 15SM OVC050 04/03 A3040 RMK SC8 SLP297,CYZT,2021-01-14T04:00:00Z,50.68,-127.37,4.0,3.0,150,3,,15.0,30.398623,1029.7,,,,,,,,,,OVC,5000,,,,,,,VFR,,,,,,,,,,,,SPECI,13.0
CYZS 140400Z 13008KT 10SM -SN SCT015 BKN085 OVC100 M16/M18 A2958 RMK SC3AC4AC1 SLP025,CYZS,2021-01-14T04:00:00Z,64.2,-83.35,-16.0,-18.0,130,8,,10.0,29.58071,1002.5,,,,,,,,,-SN,SCT,1500,BKN,8500,OVC,10000,,,VFR,,,,,,,,,,,,SPECI,60.0
CYZR 140400Z AUTO 21004KT 9SM SCT140 BKN160 02/M00 A2971 RMK SLP069,CYZR,2021-01-14T04:00:00Z,43.0,-82.3,2.0,0.0,210,4,,9.0,29.71063,1006.9,,TRUE,,,,,,,,SCT,14000,BKN,16000,,,,,VFR,,,,,,,,,,,,SPECI,181.0
CYZP 140400Z AUTO 15003KT 9SM SCT150 BKN170 03/01 A3023 RMK SLP239,CYZP,2021-01-14T04:00:00Z,53.25,-131.82,3.0,1.0,150,3,,9.0,30.230314,1023.9,,TRUE,,,,,,,,SCT,15000,BKN,17000,,,,,VFR,,,,,,,,,,,,SPECI,7.0
CYZF 140400Z 35008KT 15SM -SN OVC100 M11/M13 A2966 RMK AC8 PRESRR SLP065,CYZF,2021-01-14T04:00:00Z,62.47,-114.45,-11.0,-13.0,350,8,,15.0,29.660433,1006.5,,,,,,,,,-SN,OVC,10000,,,,,,,VFR,,,,,,,,,,,,SPECI,202.0
CYZE 140400Z AUTO VRB02KT 9SM OVC019 M00/M02 A2968 RMK SLP061,CYZE,2021-01-14T04:00:00Z,45.88,-82.57,0.0,-2.0,0,2,,9.0,29.681103,1006.1,,TRUE,,,,,,,,OVC,1900,,,,,,,MVFR,,,,,,,,,,,,SPECI,189.0
CYYZ 140400Z 00000KT 12SM FEW170 M00/M02 A2971 RMK AC2 SLP070,CYYZ,2021-01-14T04:00:00Z,43.67,-79.62,0.0,-2.0,0,0,,12.0,29.71063,1007.0,,,,,,,,,,FEW,17000,,,,,,,VFR,,,,,,,,,,,,SPECI,171.0
CYYY 140400Z 20009KT 15SM OVC065 M01/M06 A2979 RMK SC8 SLP093,CYYY,2021-01-14T04:00:00Z,48.6,-68.22,-1.0,-6.0,200,9,,15.0,29.790354,1009.3,,,,,,,,,,OVC,6500,,,,,,,VFR,,,,,,,,,,,,SPECI,43.0
CYYW 140400Z AUTO 16007KT 9SM OVC007 M03/M03 A2961 RMK SLP050,CYYW,2021-01-14T04:00:00Z,50.3,-88.9,-3.0,-3.0,160,7,,9.0,29.610237,1005.0,,TRUE,,,,,,,,OVC,700,,,,,,,IFR,,,,,,,,,,,,METAR,320.0
CYYU 140400Z 34003KT 10SM SCT011 OVC015 M03/M04 A2965 RMK SC3SC5 SLP055,CYYU,2021-01-14T04:00:00Z,49.42,-82.47,-3.0,-4.0,340,3,,10.0,29.648623,1005.5,,,,,,,,,,SCT,1100,OVC,1500,,,,,MVFR,,,,,,,,,,,,SPECI,228.0
CYYT 140400Z 19007KT 15SM BKN022 OVC063 M02/M03 A2993 RMK SC5SC3 SLP144,CYYT,2021-01-14T04:00:00Z,47.62,-52.73,-2.0,-3.0,190,7,,15.0,29.929134,1014.4,,,,,,,,,,BKN,2200,OVC,6300,,,,,MVFR,,,,,,,,,,,,SPECI,128.0
CYYR 140400Z 15003KT 15SM SCT050 OVC070 M09/M11 A2975 RMK SC3AC5 SLP078,CYYR,2021-01-14T04:00:00Z,53.32,-60.42,-9.0,-11.0,150,3,,15.0,29.749016,1007.8,,,,,,,,,,SCT,5000,OVC,7000,,,,,VFR,,,,,,,,,,,,SPECI,42.0
CYYQ 140400Z 15005KT 15SM -SN OVC014 M04/M04 A2941 RMK SC8 SLP962,CYYQ,2021-01-14T04:00:00Z,58.75,-94.07,-4.0,-4.0,150,5,,15.0,29.409449,996.2,,,,,,,,,-SN,OVC,1400,,,,,,,MVFR,,,,,,,,,,,,SPECI,20.0
CYYJ 140400Z 23003KT 20SM FEW050 FEW180 SCT220 03/01 A3050 RMK SC1AC1CI1 SLP330,CYYJ,2021-01-14T04:00:00Z,48.63,-123.42,3.0,1.0,230,3,,20.0,30.499016,1033.0,,,,,,,,,,FEW,5000,FEW,18000,SCT,22000,,,VFR,,,,,,,,,,,,SPECI,16.0
CYYH 140400Z 09021G27KT 1SM -SN BLSN BKN020 OVC040 M17/M20 A2946 RMK BLSN4SC2SC2 SLP980,CYYH,2021-01-14T04:00:00Z,69.53,-93.57,-17.0,-20.0,90,21,27,1.0,29.459646,998.0,,,,,,,,,-SN BLSN,BKN,2000,OVC,4000,,,,,IFR,,,,,,,,,,,,SPECI,19.0
CYYG 140400Z 17005KT 15SM SCT040 OVC058 M02/M04 A2991 RMK SC3SC5 SLP133,CYYG,2021-01-14T04:00:00Z,46.28,-63.12,-2.0,-4.0,170,5,,15.0,29.911417,1013.3,,,,,,,,,,SCT,4000,OVC,5800,,,,,VFR,,,,,,,,,,,,SPECI,48.0
CYYF 140400Z 01003KT 270V040 15SM FEW070 M01/M07 A3043 RMK AC1 SLP318,CYYF,2021-01-14T04:00:00Z,49.47,-119.6,-1.0,-7.0,10,3,,15.0,30.431103,1031.8,,,,,,,,,,FEW,7000,,,,,,,VFR,,,,,,,,,,,,SPECI,342.0
CYYE 140400Z VRB02KT 15SM BKN150 M11/M12 A2985 RMK AC6 SLP143,CYYE,2021-01-14T04:00:00Z,58.83,-122.58,-11.0,-12.0,0,2,,15.0,29.84941,1014.3,,,,,,,,,,BKN,15000,,,,,,,VFR,,,,,,,,,,,,SPECI,379.0
CYYD 140400Z 31003KT 25SM BKN060 M05/M07 A3024 RMK SC5 LASTG STFD OBS/NXT 141500Z SLP270,CYYD,2021-01-14T04:00:00Z,54.82,-127.18,-5.0,-7.0,310,3,,25.0,30.239174,1027.0,,,,,,,,,,BKN,6000,,,,,,,VFR,,,,,,,,,,,,SPECI,527.0
CYYC 140400Z 28013G20KT 15SM FEW100 00/M11 A2997 RMK AC1 AC TR PRESRR SLP189,CYYC,2021-01-14T04:00:00Z,51.12,-114.02,0.0,-11.0,280,13,20,15.0,29.970472,1018.9,,,,,,,,,,FEW,10000,,,,,,,VFR,,,,,,,,,,,,SPECI,1085.0
CYYB 140400Z AUTO 23005KT 3SM BR BKN005 OVC018 M01/M02 A2963 RMK SLP051,CYYB,2021-01-14T04:00:00Z,46.35,-79.42,-1.0,-2.0,230,5,,3.0,29.630905,1005.1,,TRUE,,,,,,,BR,BKN,500,OVC,1800,,,,,IFR,,,,,,,,,,,,METAR,360.0
CYXY 140400Z 16011KT 130V200 15SM FEW140 M05/M10 A2986 RMK AC1 SLP163,CYXY,2021-01-14T04:00:00Z,60.72,-135.07,-5.0,-10.0,160,11,,15.0,29.861221,1016.3,,,,,,,,,,FEW,14000,,,,,,,VFR,,,,,,,,,,,,SPECI,677.0
CYXX 140400Z 00000KT 15SM FEW070 03/01 A3052 RMK AC1 SLP337,CYXX,2021-01-14T04:00:00Z,49.03,-122.38,3.0,1.0,0,0,,15.0,30.519686,1033.7,,,,,,,,,,FEW,7000,,,,,,,VFR,,,,,,,,,,,,SPECI,54.0
CYXU 140400Z 23008KT 15SM OVC150 02/M00 A2970 RMK AC8 SLP070,CYXU,2021-01-14T04:00:00Z,43.03,-81.15,2.0,0.0,230,8,,15.0,29.698818,1007.0,,,,,,,,,,OVC,15000,,,,,,,VFR,,,,,,,,,,,,SPECI,278.0
CYXT 140400Z 17009KT 10SM FEW006 SCT060 OVC220 01/00 A3031 RMK SF2SC2CI4 SLP277,CYXT,2021-01-14T04:00:00Z,54.47,-128.57,1.0,0.0,170,9,,10.0,30.31004,1027.7,,,,,,,,,,FEW,600,SCT,6000,OVC,22000,,,VFR,,,,,,,,,,,,SPECI,213.0
CYXS 140400Z AUTO 18009KT 9SM CLR M01/M07 A3022 RMK SLP272,CYXS,2021-01-14T04:00:00Z,53.88,-122.68,-1.0,-7.0,180,9,,9.0,30.221457,1027.2,,TRUE,,,,,,,,CLR,,,,,,,,VFR,,,,,,,,,,,,SPECI,685.0
CYXR 140400Z AUTO 30006KT 9SM OVC032 M01/M03 A2963 RMK SLP048,CYXR,2021-01-14T04:00:00Z,47.7,-79.85,-1.0,-3.0,300,6,,9.0,29.630905,1004.8,,TRUE,,,,,,,,OVC,3200,,,,,,,VFR,,,,,,,,,,,,SPECI,244.0
CYXJ 140400Z 24015KT 15SM SKC M02/M10 A2995 RMK SLP184,CYXJ,2021-01-14T04:00:00Z,56.25,-120.73,-2.0,-10.0,240,15,,15.0,29.949802,1018.4,,,,,,,,,,SKC,,,,,,,,VFR,,,,,,,,,,,,SPECI,700.0
CYXH 140400Z AUTO 29019G27KT 9SM BKN180 01/M08 A2994 RMK SLP156,CYXH,2021-01-14T04:00:00Z,50.02,-110.72,1.0,-8.0,290,19,27,9.0,29.940945,1015.6,,TRUE,,,,,,,,BKN,18000,,,,,,,VFR,,,,,,,,,,,,METAR,717.0
CYXE 140400Z 33037G52KT 1/4SM R09/P6000FT/N -FZRA -SN BLSN VV007 M00/M01 A2940 RMK SN8 PRESRR SLP985,CYXE,2021-01-14T04:00:00Z,52.17,-106.7,0.0,-1.0,330,37,52,0.25,29.40059,998.5,,,,,,,,,BLSN -FZRA -SN,OVX,0,,,,,,,LIFR,,,,,,,,,,,700,SPECI,504.0
CYXC 140400Z 27008KT 240V300 25SM FEW050 FEW080 01/M07 A3018 RMK SC1AC1 SLP249,CYXC,2021-01-14T04:00:00Z,49.6,-115.78,1.0,-7.0,270,8,,25.0,30.180119,1024.9,,,,,,,,,,FEW,5000,FEW,8000,,,,,VFR,,,,,,,,,,,,SPECI,928.0
CYWL 140400Z 13003KT 110V180 15SM SKC M06/M07 A3028 RMK SLP305,CYWL,2021-01-14T04:00:00Z,52.18,-122.07,-6.0,-7.0,130,3,,15.0,30.280512,1030.5,,,,,,,,,,SKC,,,,,,,,VFR,,,,,,,,,,,,SPECI,942.0
CYWH 140400Z VRB02KT 15SM FEW030 SCT050 BKN210 07/03 A3050 RMK SC1SC3CI3 SLP331,CYWH,2021-01-14T04:00:00Z,48.42,-123.38,7.0,3.0,0,2,,15.0,30.499016,1033.1,,,,,,,,,,FEW,3000,SCT,5000,BKN,21000,,,VFR,,,,,,,,,,,,SPECI,4.0
CYWA 140400Z AUTO 00000KT 6SM OVC040 00/M02 A2969 RMK SLP061,CYWA,2021-01-14T04:00:00Z,45.95,-77.32,0.0,-2.0,0,0,,6.0,29.68996,1006.1,,TRUE,,,,,,,,OVC,4000,,,,,,,VFR,,,,,,,,,,,,SPECI,121.0
CYVT 140400Z AUTO 30013G20KT 9SM FEW150 M02/M08 A2956 RMK SLP037,CYVT,2021-01-14T04:00:00Z,55.83,-108.42,-2.0,-8.0,300,13,20,9.0,29.56004,1003.7,,TRUE,,,,,,,,FEW,15000,,,,,,,VFR,,,,,,,,,,,,SPECI,438.0
CYVR 140400Z 08004KT 20SM FEW060 FEW240 05/01 A3051 RMK SC1CI1 SC TR SLP332,CYVR,2021-01-14T04:00:00Z,49.17,-123.17,5.0,1.0,80,4,,20.0,30.510826,1033.2,,,,,,,,,,FEW,6000,FEW,24000,,,,,VFR,,,,,,,,,,,,SPECI,2.0
CYVQ 140400Z 29006KT 30SM -SN OVC052 M17/M19 A2997 RMK SC8 SLP161,CYVQ,2021-01-14T04:00:00Z,65.27,-126.78,-17.0,-19.0,290,6,,30.0,29.970472,1016.1,,,,,,,,,-SN,OVC,5200,,,,,,,VFR,,,,,,,,,,,,SPECI,63.0
CYVP 140400Z 34005KT 15SM -SN FEW021 OVC039 M11/M13 A2969 RMK SC2SC6 SLP061,CYVP,2021-01-14T04:00:00Z,58.12,-68.42,-11.0,-13.0,340,5,,15.0,29.68996,1006.1,,,,,,,,,-SN,FEW,2100,OVC,3900,,,,,VFR,,,,,,,,,,,,SPECI,28.0
CYVO 140400Z AUTO 24004KT 210V300 9SM SCT007 BKN016 BKN037 OVC047 M01/M02 A2958 RMK SLP041,CYVO,2021-01-14T04:00:00Z,48.07,-77.77,-1.0,-2.0,240,4,,9.0,29.58071,1004.1,,TRUE,,,,,,,,SCT,700,BKN,1600,BKN,3700,OVC,4700,MVFR,,,,,,,,,,,,METAR,329.0
CYVM 140400Z AUTO 21005KT 9SM OVC050 M20/M22 A2976 RMK SLP079,CYVM,2021-01-14T04:00:00Z,67.55,-64.02,-20.0,-22.0,210,5,,9.0,29.760826,1007.9,,TRUE,,,,,,,,OVC,5000,,,,,,,VFR,,,,,,,,,,,,SPECI,3.0
CYVL 140400Z AUTO 01007KT 9SM M19/M22 A2986 RMK CLD MISG SLP148,CYVL,2021-01-14T04:00:00Z,67.02,-126.13,-19.0,-22.0,10,7,,9.0,29.861221,1014.8,,TRUE,,,,,,,,,,,,,,,,,,,,,,,,,,,,METAR,261.0
CYVC 140400Z 30014G20KT 10SM -SN DRSN VV050 00/M03 A2944 RMK SN8 SLP992,CYVC,2021-01-14T04:00:00Z,55.15,-105.27,0.0,-3.0,300,14,20,10.0,29.438976,999.2,,,,,,,,,-SN DRSN,OVX,0,,,,,,,LIFR,,,,,,,,,,,5000,SPECI,378.0
CYUY 140400Z 25003KT 15SM FEW018 OVC035 M02/M02 A2960 RMK SC2SC6 SLP041,CYUY,2021-01-14T04:00:00Z,48.2,-78.82,-2.0,-2.0,250,3,,15.0,29.601377,1004.1,,,,,,,,,,FEW,1800,OVC,3500,,,,,VFR,,,,,,,,,,,,SPECI,304.0
CYUX 140400Z AUTO 28005KT 9SM OVC009 M19/M21 A2971 RMK SLP063,CYUX,2021-01-14T04:00:00Z,68.77,-81.22,-19.0,-21.0,280,5,,9.0,29.71063,1006.3,,TRUE,,,,,,,,OVC,900,,,,,,,IFR,,,,,,,,,,,,SPECI,8.0
CYUS 140400Z AUTO 11022KT ////SM //// SCT005 BKN012 BKN025 M17/M19 A2940,CYUS,2021-01-14T04:00:00Z,68.78,-93.42,-17.0,-19.0,110,22,,,29.40059,,,TRUE,,,,,,,,SCT,500,BKN,1200,BKN,2500,,,,,,,,,,,,,,,SPECI,30.0
CYUL 140400Z 17008KT 15SM -SN BKN020 OVC030 01/M03 A2976 RMK SC7SC1 SLP081,CYUL,2021-01-14T04:00:00Z,45.47,-73.73,1.0,-3.0,170,8,,15.0,29.760826,1008.1,,,,,,,,,-SN,BKN,2000,OVC,3000,,,,,MVFR,,,,,,,,,,,,SPECI,31.0
CYUB 140400Z 36005KT 10SM -SN OVC018 M23/M26 A3005 RMK SC8 SLP177,CYUB,2021-01-14T04:00:00Z,69.43,-133.02,-23.0,-26.0,360,5,,10.0,30.050198,1017.7,,,,,,,,,-SN,OVC,1800,,,,,,,MVFR,,,,,,,,,,,,SPECI,5.0
CYUA 140400Z AUTO 25005KT 220V290 ////SM BKN110 M34/M39 A3002,CYUA,2021-01-14T04:00:00Z,68.92,-137.23,-34.0,-39.0,250,5,,,30.02067,,,TRUE,,,,,,,,BKN,11000,,,,,,,,,,,,,,,,,,,SPECI,25.0
CYTZ 140400Z AUTO 00000KT 4SM BR CLR M00/M01 A2972 RMK SLP072,CYTZ,2021-01-14T04:00:00Z,43.63,-79.4,0.0,-1.0,0,0,,4.0,29.719488,1007.2,,TRUE,,,,,,,BR,CLR,,,,,,,,MVFR,,,,,,,,,,,,METAR,76.0
CYTS 140400Z 31003KT 250V330 8SM -SN BKN006 OVC010 M02/M03 A2963 RMK SC5SC3 FROIN SLP051,CYTS,2021-01-14T04:00:00Z,48.57,-81.37,-2.0,-3.0,310,3,,8.0,29.630905,1005.1,,,,,,,,,-SN,BKN,600,OVC,1000,,,,,IFR,,,,,,,,,,,,SPECI,290.0
CYTR 140400Z AUTO 23004KT 5SM OVC024 03/00 A2973 RMK SLP073,CYTR,2021-01-14T04:00:00Z,44.12,-77.52,3.0,0.0,230,4,,5.0,29.731298,1007.3,,TRUE,,,,,,,,OVC,2400,,,,,,,MVFR,,,,,,,,,,,,METAR,80.0
CYTL 140400Z AUTO 20007KT 9SM -SN OVC008 M03/M03 A2952 RMK SLP015,CYTL,2021-01-14T04:00:00Z,53.82,-89.88,-3.0,-3.0,200,7,,9.0,29.518702,1001.5,,TRUE,,,,,,,-SN,OVC,800,,,,,,,IFR,,,,,,,,,,,,SPECI,218.0
CYTH 140400Z 09004KT 060V150 15SM -SN OVC003 M03/M03 A2932 RMK ST8 SLP945,CYTH,2021-01-14T04:00:00Z,55.8,-97.83,-3.0,-3.0,90,4,,15.0,29.320866,994.5,,,,,,,,,-SN,OVC,300,,,,,,,LIFR,,,,,,,,,,,,SPECI,212.0
CYSM 140400Z 29015G20KT 12SM -SN SCT015 OVC033 M07/M09 A2953 RMK SC4SC4 SLP016,CYSM,2021-01-14T04:00:00Z,60.03,-111.92,-7.0,-9.0,290,15,20,12.0,29.530512,1001.6,,,,,,,,,-SN,SCT,1500,OVC,3300,,,,,VFR,,,,,,,,,,,,SPECI,203.0
CYSF 140400Z AUTO 26007KT 9SM BKN013 OVC020 M06/M07 A2941 RMK SLP977,CYSF,2021-01-14T04:00:00Z,59.25,-105.83,-6.0,-7.0,260,7,,9.0,29.409449,997.7,,TRUE,,,,,,,,BKN,1300,OVC,2000,,,,,MVFR,,,,,,,,,,,,SPECI,238.0
CYSC 140400Z AUTO 17004KT 9SM OVC038 M01/M05 A2978 RMK SLP095,CYSC,2021-01-14T04:00:00Z,45.43,-71.68,-1.0,-5.0,170,4,,9.0,29.778543,1009.5,,TRUE,,,,,,,,OVC,3800,,,,,,,VFR,,,,,,,,,,,,SPECI,236.0
CYSB 140400Z 22003KT 3SM BR OVC024 M01/M01 A2963 RMK SC8 SLP050,CYSB,2021-01-14T04:00:00Z,46.63,-80.8,-1.0,-1.0,220,3,,3.0,29.630905,1005.0,,,,,,,,,BR,OVC,2400,,,,,,,MVFR,,,,,,,,,,,,SPECI,349.0
CYRT 140400Z 34011KT 4SM -SN BR OVC012 M14/M16 A2943 RMK SC8 SLP972,CYRT,2021-01-14T04:00:00Z,62.82,-92.12,-14.0,-16.0,340,11,,4.0,29.430119,997.2,,,,,,,,,-SN BR,OVC,1200,,,,,,,MVFR,,,,,,,,,,,,SPECI,29.0
CYRQ 140400Z AUTO 19009KT 9SM -SN OVC024 M00/M02 A2976 RMK SLP082,CYRQ,2021-01-14T04:00:00Z,46.35,-72.68,0.0,-2.0,190,9,,9.0,29.760826,1008.2,,TRUE,,,,,,,-SN,OVC,2400,,,,,,,MVFR,,,,,,,,,,,,METAR,58.0
CYRJ 140400Z 19008KT 25SM -SN OVC060 M02/M04 A2967 RMK SC8 SLP059,CYRJ,2021-01-14T04:00:00Z,48.52,-72.27,-2.0,-4.0,190,8,,25.0,29.66929,1005.9,,,,,,,,,-SN,OVC,6000,,,,,,,VFR,,,,,,,,,,,,SPECI,173.0
CYRB 140400Z 06017KT 15SM IC DRSN OVC057 M18/M21 A2971 RMK SC8 SLP074,CYRB,2021-01-14T04:00:00Z,74.72,-94.97,-18.0,-21.0,60,17,,15.0,29.71063,1007.4,,,,,,,,,IC DRSN,OVC,5700,,,,,,,VFR,,,,,,,,,,,,SPECI,59.0
CYQZ 140400Z AUTO VRB02KT 9SM CLR M03/M05 A3029 RMK SLP291,CYQZ,2021-01-14T04:00:00Z,53.02,-122.52,-3.0,-5.0,0,2,,9.0,30.28937,1029.1,,TRUE,,,,,,,,CLR,,,,,,,,VFR,,,,,,,,,,,,SPECI,548.0
CYQY 140400Z 24007KT 15SM FEW030 M06/M08 A2995 RMK SC1 SLP147,CYQY,2021-01-14T04:00:00Z,46.17,-60.03,-6.0,-8.0,240,7,,15.0,29.949802,1014.7,,,,,,,,,,FEW,3000,,,,,,,VFR,,,,,,,,,,,,SPECI,58.0
CYQX 140400Z 14006KT 12SM -SHSN FEW005 OVC022 M03/M04 A2990 RMK SF1SC7 CVCTV CLD EMBD SLP134,CYQX,2021-01-14T04:00:00Z,48.95,-54.58,-3.0,-4.0,140,6,,12.0,29.899607,1013.4,,,,,,,,,-SHSN,FEW,500,OVC,2200,,,,,MVFR,,,,,,,,,,,,SPECI,144.0
CYQW 140400Z AUTO 31029G41KT 9SM OVC120 M00/M04 A2961 RMK SLP055,CYQW,2021-01-14T04:00:00Z,52.77,-108.25,0.0,-4.0,310,29,41,9.0,29.610237,1005.5,,TRUE,,,,,,,,OVC,12000,,,,,,,VFR,,,,,,,,,,,,SPECI,545.0
CYQV 140400Z AUTO 21014G20KT 9SM OVC017 02/M01 A2907 RMK SLP873,CYQV,2021-01-14T04:00:00Z,51.27,-102.47,2.0,-1.0,210,14,20,9.0,29.069881,987.3,,TRUE,,,,,,,,OVC,1700,,,,,,,MVFR,,,,,,,,,,,,SPECI,493.0
CYQU 140400Z 26019G25KT 25SM FEW120 M02/M08 A2999 RMK AC1 SLP193,CYQU,2021-01-14T04:00:00Z,55.18,-118.88,-2.0,-8.0,260,19,25,25.0,29.991142,1019.3,,,,,,,,,,FEW,12000,,,,,,,VFR,,,,,,,,,,,,SPECI,668.0
CYQT 140400Z 30002KT 15SM OVC016 M02/M03 A2964 RMK SC8 SLP050,CYQT,2021-01-14T04:00:00Z,48.37,-89.32,-2.0,-3.0,300,2,,15.0,29.639763,1005.0,,,,,,,,,,OVC,1600,,,,,,,MVFR,,,,,,,,,,,,SPECI,197.0
CYQQ 140400Z 24002KT 20SM SCT200 01/00 A3048 RMK CI4 SLP322,CYQQ,2021-01-14T04:00:00Z,49.72,-124.9,1.0,0.0,240,2,,20.0,30.481298,1032.2,,,,,,,,,,SCT,20000,,,,,,,VFR,,,,,,,,,,,,SPECI,24.0
CYQM 140400Z 17004KT 15SM -SHSN BKN030 BKN050 M02/M05 A2989 RMK SC6SC1 CVCTV CLD EMBD SLP126,CYQM,2021-01-14T04:00:00Z,46.12,-64.67,-2.0,-5.0,170,4,,15.0,29.890747,1012.6,,,,,,,,,-SHSN,BKN,3000,BKN,5000,,,,,MVFR,,,,,,,,,,,,SPECI,67.0
CYQL 140400Z 22007KT 20SM SCT070 M01/M05 A3002 RMK AC4 SLP194,CYQL,2021-01-14T04:00:00Z,49.63,-112.8,-1.0,-5.0,220,7,,20.0,30.02067,1019.4,,,,,,,,,,SCT,7000,,,,,,,VFR,,,,,,,,,,,,SPECI,923.0
CYQK 140400Z 14008KT 20SM SCT140 SCT230 M03/M06 A2942 RMK AC3CI1 SLP989,CYQK,2021-01-14T04:00:00Z,49.78,-94.37,-3.0,-6.0,140,8,,20.0,29.421259,998.9,,,,,,,,,,SCT,14000,SCT,23000,,,,,VFR,,,,,,,,,,,,SPECI,413.0
CYQI 140400Z 18010KT 15SM BKN025 OVC050 03/M01 A2991 RMK SC6NS2 SLP131,CYQI,2021-01-14T04:00:00Z,43.83,-66.08,3.0,-1.0,180,10,,15.0,29.911417,1013.1,,,,,,,,,,BKN,2500,OVC,5000,,,,,MVFR,,,,,,,,,,,,SPECI,37.0
CYQH 140400Z VRB02KT 20SM SKC M15/M17 A2989 RMK SLP182,CYQH,2021-01-14T04:00:00Z,60.12,-128.82,-15.0,-17.0,0,2,,20.0,29.890747,1018.2,,,,,,,,,,SKC,,,,,,,,VFR,,,,,,,,,,,,SPECI,692.0
CYQG 140400Z AUTO 23009KT 9SM BKN130 OVC150 03/00 A2972 RMK SLP077,CYQG,2021-01-14T04:00:00Z,42.27,-82.97,3.0,0.0,230,9,,9.0,29.719488,1007.7,,TRUE,,,,,,,,BKN,13000,OVC,15000,,,,,VFR,,,,,,,,,,,,SPECI,189.0
CYQF 140400Z AUTO 30013G20KT 9SM CLR M01/M12 A2994 RMK SLP187,CYQF,2021-01-14T04:00:00Z,52.17,-113.9,-1.0,-12.0,300,13,20,9.0,29.940945,1018.7,,TRUE,,,,,,,,CLR,,,,,,,,VFR,,,,,,,,,,,,SPECI,912.0
CYQB 140400Z 04002KT 6SM -SN OVC038 M02/M02 A2979 RMK SN2SC6 SLP093,CYQB,2021-01-14T04:00:00Z,46.78,-71.38,-2.0,-2.0,40,2,,6.0,29.790354,1009.3,,,,,,,,,-SN,OVC,3800,,,,,,,VFR,,,,,,,,,,,,SPECI,73.0
CYQA 140400Z AUTO 18006KT 3SM BR OVC017 00/M01 A2966 RMK SLP059,CYQA,2021-01-14T04:00:00Z,44.97,-79.3,0.0,-1.0,180,6,,3.0,29.660433,1005.9,,TRUE,,,,,,,BR,OVC,1700,,,,,,,MVFR,,,,,,,,,,,,SPECI,277.0
CYPR 140400Z AUTO 12007KT 9SM BKN210 04/01 A3028 RMK SLP255,CYPR,2021-01-14T04:00:00Z,54.28,-130.45,4.0,1.0,120,7,,9.0,30.280512,1025.5,,TRUE,,,,,,,,BKN,21000,,,,,,,VFR,,,,,,,,,,,,SPECI,30.0
CYPQ 140400Z AUTO 20004KT 5SM BR OVC018 01/M00 A2971 RMK SLP071,CYPQ,2021-01-14T04:00:00Z,44.22,-78.37,1.0,0.0,200,4,,5.0,29.71063,1007.1,,TRUE,,,,,,,BR,OVC,1800,,,,,,,MVFR,,,,,,,,,,,,SPECI,190.0
CYPO 140400Z AUTO 18005KT 9SM SCT006 OVC020 M06/M07 A2963 RMK SLP036,CYPO,2021-01-14T04:00:00Z,54.98,-85.43,-6.0,-7.0,180,5,,9.0,29.630905,1003.6,,TRUE,,,,,,,,SCT,600,OVC,2000,,,,,MVFR,,,,,,,,,,,,METAR,49.0
CYPL 140400Z AUTO 18006KT 9SM OVC005 M04/M05 A2955 RMK SLP032,CYPL,2021-01-14T04:00:00Z,51.43,-90.22,-4.0,-5.0,180,6,,9.0,29.551182,1003.2,,TRUE,,,,,,,,OVC,500,,,,,,,IFR,,,,,,,,,,,,SPECI,390.0
CYPE 140400Z 29021G28KT 15SM SKC M02/M10 A2985 RMK SLP141,CYPE,2021-01-14T04:00:00Z,56.22,-117.45,-2.0,-10.0,290,21,28,15.0,29.84941,1014.1,,,,,,,,,,SKC,,,,,,,,VFR,,,,,,,,,,,,SPECI,572.0
CYPD 140400Z AUTO VRB02KT 9SM BKN055 M05/M07 A2994 RMK SLP146,CYPD,2021-01-14T04:00:00Z,45.67,-61.37,-5.0,-7.0,0,2,,9.0,29.940945,1014.6,,TRUE,,,,,,,,BKN,5500,,,,,,,VFR,,,,,,,,,,,,METAR,106.0
CYOW 140400Z CCA 22004KT 1 1/2SM -DZ BR OVC002 00/M00 A2973 RMK FG2ST6 SLP075,CYOW,2021-01-14T04:00:00Z,45.32,-75.67,0.0,0.0,220,4,,1.5,29.731298,1007.5,,,,,,,,,-DZ BR,OVC,200,,,,,,,LIFR,,,,,,,,,,,,SPECI,111.0
CYOO 140400Z AUTO 22002KT 5SM BR OVC021 02/M00 A2972 RMK SLP072,CYOO,2021-01-14T04:00:00Z,43.92,-78.9,2.0,0.0,220,2,,5.0,29.719488,1007.2,,TRUE,,,,,,,BR,OVC,2100,,,,,,,MVFR,,,,,,,,,,,,METAR,136.0
CYOJ 140400Z 30012G18KT 270V340 15SM OVC085 00/M05 A2970 RMK AC8 SLP083,CYOJ,2021-01-14T04:00:00Z,58.62,-117.17,0.0,-5.0,300,12,18,15.0,29.698818,1008.3,,,,,,,,,,OVC,8500,,,,,,,VFR,,,,,,,,,,,,SPECI,339.0
CYOD 140400Z 30015KT 15SM BKN170 M03/M06 A2971 RMK AC6 SLP092,CYOD,2021-01-14T04:00:00Z,54.4,-110.28,-3.0,-6.0,300,15,,15.0,29.71063,1009.2,,,,,,,,,,BKN,17000,,,,,,,VFR,,,,,,,,,,,,SPECI,540.0
CYNE 140400Z AUTO 12008KT 9SM BKN180 M02/M05 A2925 RMK SLP921,CYNE,2021-01-14T04:00:00Z,53.97,-97.83,-2.0,-5.0,120,8,,9.0,29.25,992.1,,TRUE,,,,,,,,BKN,18000,,,,,,,VFR,,,,,,,,,,,,SPECI,220.0
CYNA 140400Z AUTO 04003KT 9SM OVC025 M08/M10 A2986 RMK SLP113,CYNA,2021-01-14T04:00:00Z,50.18,-61.78,-8.0,-10.0,40,3,,9.0,29.861221,1011.3,,TRUE,,,,,,,,OVC,2500,,,,,,,MVFR,,,,,,,,,,,,SPECI,9.0
CYMX 140400Z 00000KT 3SM -FZDZ BR OVC009 M00/M01 A2975 RMK ST8 SLP080,CYMX,2021-01-14T04:00:00Z,45.67,-74.03,0.0,-1.0,0,0,,3.0,29.749016,1008.0,,,,,,,,,-FZDZ BR,OVC,900,,,,,,,IFR,,,,,,,,,,,,SPECI,78.0
CYMT 140400Z AUTO 17005KT 9SM -SN BKN015 OVC110 M04/M04 A2957 RMK SLP038,CYMT,2021-01-14T04:00:00Z,49.77,-74.52,-4.0,-4.0,170,5,,9.0,29.568897,1003.8,,TRUE,,,,,,,-SN,BKN,1500,OVC,11000,,,,,MVFR,,,,,,,,,,,,SPECI,388.0
CYMO 140400Z AUTO 31003KT 290V360 9SM OVC008 M04/M05 A2966 RMK SLP050,CYMO,2021-01-14T04:00:00Z,51.28,-80.62,-4.0,-5.0,310,3,,9.0,29.660433,1005.0,,TRUE,,,,,,,,OVC,800,,,,,,,IFR,,,,,,,,,,,,SPECI,8.0
CYMM 140400Z AUTO 27012G17KT 9SM SCT060 OVC220 M01/M10 A2963 RMK SLP055,CYMM,2021-01-14T04:00:00Z,56.65,-111.22,-1.0,-10.0,270,12,17,9.0,29.630905,1005.5,,TRUE,,,,,,,,SCT,6000,OVC,22000,,,,,VFR,,,,,,,,,,,,SPECI,371.0
CYMH 140400Z AUTO 22003KT 9SM CLR M12/M14 A2984 RMK SLP105,CYMH,2021-01-14T04:00:00Z,52.3,-55.82,-12.0,-14.0,220,3,,9.0,29.840551,1010.5,,TRUE,,,,,,,,CLR,,,,,,,,VFR,,,,,,,,,,,,SPECI,18.0
CYMA 140400Z 00000KT 20SM FEW130 M16/M18 A2978 RMK AC1 AC TR SLP133,CYMA,2021-01-14T04:00:00Z,63.62,-135.87,-16.0,-18.0,0,0,,20.0,29.778543,1013.3,,,,,,,,,,FEW,13000,,,,,,,VFR,,,,,,,,,,,,SPECI,519.0
CYLW 140400Z AUTO 00000KT 9SM CLR M01/M02 A3040 RMK SLP316,CYLW,2021-01-14T04:00:00Z,49.95,-119.37,-1.0,-2.0,0,0,,9.0,30.398623,1031.6,,TRUE,,,,,,,,CLR,,,,,,,,VFR,,,,,,,,,,,,SPECI,420.0
CYLL 140400Z 30018G26KT 15SM SCT150 BKN200 M03/M07 A2970 RMK AC3CI3 SLP093,CYLL,2021-01-14T04:00:00Z,53.32,-110.07,-3.0,-7.0,300,18,26,15.0,29.698818,1009.3,,,,,,,,,,SCT,15000,BKN,20000,,,,,VFR,,,,,,,,,,,,SPECI,664.0
CYKY 140400Z 31030G37KT 6SM BLSN OVC160 M01/M06 A2969 RMK AC8 SLP080,CYKY,2021-01-14T04:00:00Z,51.52,-109.17,-1.0,-6.0,310,30,37,6.0,29.68996,1008.0,,,,,,,,,BLSN,OVC,16000,,,,,,,VFR,,,,,,,,,,,,SPECI,692.0
CYKL 140400Z AUTO 23006KT 9SM -SN FEW039 OVC055 M05/M07 A2950 RMK SLP031,CYKL,2021-01-14T04:00:00Z,54.8,-66.8,-5.0,-7.0,230,6,,9.0,29.500984,1003.1,,TRUE,,,,,,,-SN,FEW,3900,OVC,5500,,,,,VFR,,,,,,,,,,,,SPECI,507.0
CYKJ 140400Z AUTO 29008KT 9SM BKN110 M04/M06 A2941 RMK SLP996,CYKJ,2021-01-14T04:00:00Z,57.25,-105.62,-4.0,-6.0,290,8,,9.0,29.409449,999.6,,TRUE,,,,,,,,BKN,11000,,,,,,,VFR,,,,,,,,,,,,SPECI,519.0
CYKF 140400Z AUTO 24005KT 6SM BR FEW170 M00/M02 A2969 RMK SLP068,CYKF,2021-01-14T04:00:00Z,43.47,-80.38,0.0,-2.0,240,5,,6.0,29.68996,1006.8,,TRUE,,,,,,,BR,FEW,17000,,,,,,,VFR,,,,,,,,,,,,METAR,312.0
CYKA 140400Z 28003KT 220V290 40SM SKC M01/M03 A3042 RMK SLP318,CYKA,2021-01-14T04:00:00Z,50.7,-120.45,-1.0,-3.0,280,3,,40.0,30.41929,1031.8,,,,,,,,,,SKC,,,,,,,,VFR,,,,,,,,,,,,SPECI,344.0
CYIO 140400Z AUTO 17005KT 9SM CLR M26/M29 A2976 RMK SLP090,CYIO,2021-01-14T04:00:00Z,72.68,-77.97,-26.0,-29.0,170,5,,9.0,29.760826,1009.0,,TRUE,,,,,,,,CLR,,,,,,,,VFR,,,,,,,,,,,,SPECI,61.0
CYIN 140400Z AUTO 10003KT 060V140 9SM CLR M13/M15 A3028 RMK SLP318,CYIN,2021-01-14T04:00:00Z,51.27,-121.68,-13.0,-15.0,100,3,,9.0,30.280512,1031.8,,TRUE,,,,,,,,CLR,,,,,,,,VFR,,,,,,,,,,,,METAR,1127.0
CYHZ 140400Z 15006KT 15SM OVC050 M02/M04 A2992 RMK SC8 SLP140,CYHZ,2021-01-14T04:00:00Z,44.87,-63.5,-2.0,-4.0,150,6,,15.0,29.920275,1014.0,,,,,,,,,,OVC,5000,,,,,,,VFR,,,,,,,,,,,,SPECI,136.0
CYHM 140400Z 22007KT 6SM BR OVC180 01/00 A2971 RMK AC8 SLP070,CYHM,2021-01-14T04:00:00Z,43.17,-79.93,1.0,0.0,220,7,,6.0,29.71063,1007.0,,,,,,,,,BR,OVC,18000,,,,,,,VFR,,,,,,,,,,,,METAR,237.0
CYHD 140400Z AUTO 13011G17KT 9SM CLR M06/M07 A2949 RMK SLP016,CYHD,2021-01-14T04:00:00Z,49.82,-92.75,-6.0,-7.0,130,11,17,9.0,29.489174,1001.6,,TRUE,,,,,,,,CLR,,,,,,,,VFR,,,,,,,,,,,,SPECI,414.0
CYGX 140400Z 14003KT 15SM OVC011 M03/M03 A2939 RMK SC8 SLP965,CYGX,2021-01-14T04:00:00Z,56.35,-94.7,-3.0,-3.0,140,3,,15.0,29.388779,996.5,,,,,,,,,,OVC,1100,,,,,,,MVFR,,,,,,,,,,,,SPECI,145.0
CYGR 140400Z 20006KT 15SM BKN056 M01/M04 A2991 RMK SC7 LAST STFD OBS/NXT 141000Z SLP130,CYGR,2021-01-14T04:00:00Z,47.42,-61.77,-1.0,-4.0,200,6,,15.0,29.911417,1013.0,,,,,,,,,,BKN,5600,,,,,,,VFR,,,,,,,,,,,,SPECI,4.0
CYGQ 140400Z 00000KT 12SM OVC006 M03/M04 A2962 RMK SC8 SLP053,CYGQ,2021-01-14T04:00:00Z,49.77,-86.92,-3.0,-4.0,0,0,,12.0,29.619095,1005.3,,,,,,,,,,OVC,600,,,,,,,IFR,,,,,,,,,,,,SPECI,340.0
CYGP 140400Z 00000KT 15SM FEW140 M08/M09 A2985 RMK AC2 SLP111,CYGP,2021-01-14T04:00:00Z,48.77,-64.47,-8.0,-9.0,0,0,,15.0,29.84941,1011.1,,,,,,,,,,FEW,14000,,,,,,,VFR,,,,,,,,,,,,SPECI,31.0
CYGL 140400Z 32003KT 280V340 15SM OVC011 M04/M06 A2959 RMK SC8 SLP034,CYGL,2021-01-14T04:00:00Z,53.62,-77.7,-4.0,-6.0,320,3,,15.0,29.589567,1003.4,,,,,,,,,,OVC,1100,,,,,,,MVFR,,,,,,,,,,,,SPECI,192.0
CYGK 140400Z 20009KT 15SM OVC023 03/00 A2974 RMK SC8 LAST STFD OBS/NXT 141100Z SLP075,CYGK,2021-01-14T04:00:00Z,44.22,-76.58,3.0,0.0,200,9,,15.0,29.740158,1007.5,,,,,,,,,,OVC,2300,,,,,,,MVFR,,,,,,,,,,,,SPECI,91.0
CYFS 140400Z 34007KT 15SM SCT080 BKN100 BKN250 M15/M18 A2986 RMK AC3AC3CI1 SLP129,CYFS,2021-01-14T04:00:00Z,61.75,-121.22,-15.0,-18.0,340,7,,15.0,29.861221,1012.9,,,,,,,,,,SCT,8000,BKN,10000,BKN,25000,,,VFR,,,,,,,,,,,,SPECI,174.0
CYFC 140400Z AUTO 19006KT 9SM OVC055 M02/M06 A2990 RMK SLP125,CYFC,2021-01-14T04:00:00Z,45.87,-66.53,-2.0,-6.0,190,6,,9.0,29.899607,1012.5,,TRUE,,,,,,,,OVC,5500,,,,,,,VFR,,,,,,,,,,,,SPECI,16.0
CYFB 140400Z 35003KT 15SM SKC M28/M31 A2976 RMK FROIN SLP084,CYFB,2021-01-14T04:00:00Z,63.75,-68.55,-28.0,-31.0,350,3,,15.0,29.760826,1008.4,,,,,,,,,,SKC,,,,,,,,VFR,,,,,,,,,,,,SPECI,23.0
CYET 140400Z AUTO 25010G15KT 9SM CLR M03/M10 A2996 RMK SLP193,CYET,2021-01-14T04:00:00Z,53.57,-116.47,-3.0,-10.0,250,10,15,9.0,29.958662,1019.3,,TRUE,,,,,,,,CLR,,,,,,,,VFR,,,,,,,,,,,,SPECI,925.0
CYER 140400Z AUTO 21006KT 9SM OVC029 M04/M04 A2957 RMK SLP015,CYER,2021-01-14T04:00:00Z,56.02,-87.68,-4.0,-4.0,210,6,,9.0,29.568897,1001.5,,TRUE,,,,,,,,OVC,2900,,,,,,,MVFR,,,,,,,,,,,,METAR,11.0
CYEG 140400Z 29023G34KT 20SM DRSN SKC 00/M10 A2991 RMK SLP163,CYEG,2021-01-14T04:00:00Z,53.3,-113.58,0.0,-10.0,290,23,34,20.0,29.911417,1016.3,,,,,,,,,DRSN,SKC,,,,,,,,VFR,,,,,,,,,,,,SPECI,710.0
CYED 140400Z AUTO 29015G25KT 9SM CLR 00/M09 A2987 RMK SLP148,CYED,2021-01-14T04:00:00Z,53.67,-113.47,0.0,-9.0,290,15,25,9.0,29.870079,1014.8,,TRUE,,,,,,,,CLR,,,,,,,,VFR,,,,,,,,,,,,SPECI,688.0
CYDQ 140400Z AUTO 26017G24KT 9SM CLR M00/M10 A2996 RMK SLP188,CYDQ,2021-01-14T04:00:00Z,55.75,-120.18,0.0,-10.0,260,17,24,9.0,29.958662,1018.8,,TRUE,,,,,,,,CLR,,,,,,,,VFR,,,,,,,,,,,,SPECI,658.0
CYDN 140400Z AUTO 22010KT BKN130 OVC150 A2913 RMK WX MISG VIS MISG PCPN MISG T MISG TD MISG DENSITY ALT MISG,CYDN,2021-01-14T04:00:00Z,51.1,-100.05,,,220,10,,,29.128937,,,TRUE,,,,,,,,BKN,13000,OVC,15000,,,,,,,,,,,,,,,,,SPECI,302.0
CYDL 140400Z AUTO 00000KT 9SM CLR M11/M13 A3001 RMK SLP221,CYDL,2021-01-14T04:00:00Z,58.42,-130.02,-11.0,-13.0,0,0,,9.0,30.008858,1022.1,,TRUE,,,,,,,,CLR,,,,,,,,VFR,,,,,,,,,,,,METAR,804.0
CYDF 140400Z 00000KT 15SM -SN OVC044 M03/M04 A2989 RMK SC8 SLP125,CYDF,2021-01-14T04:00:00Z,49.22,-57.4,-3.0,-4.0,0,0,,15.0,29.890747,1012.5,,,,,,,,,-SN,OVC,4400,,,,,,,VFR,,,,,,,,,,,,SPECI,15.0
CYDB 140400Z AUTO 29003KT 210V300 9SM CLR M19/M22 A2978 RMK SLP163,CYDB,2021-01-14T04:00:00Z,61.37,-139.02,-19.0,-22.0,290,3,,9.0,29.778543,1016.3,,TRUE,,,,,,,,CLR,,,,,,,,VFR,,,,,,,,,,,,SPECI,807.0
CYCY 140400Z AUTO 30007KT 9SM OVC075 M20/M22 A2974 RMK SLP080,CYCY,2021-01-14T04:00:00Z,70.48,-68.52,-20.0,-22.0,300,7,,9.0,29.740158,1008.0,,TRUE,,,,,,,,OVC,7500,,,,,,,VFR,,,,,,,,,,,,SPECI,73.0
CYCX 140400Z AUTO 19005KT 9SM OVC054 M01/M07 A2990 RMK SLP127,CYCX,2021-01-14T04:00:00Z,45.83,-66.45,-1.0,-7.0,190,5,,9.0,29.899607,1012.7,,TRUE,,,,,,,,OVC,5400,,,,,,,VFR,,,,,,,,,,,,SPECI,46.0
CYCO 140400Z 31006KT 10SM IC BKN052 M21/M25 A2985 RMK SC6 SLP112,CYCO,2021-01-14T04:00:00Z,67.82,-115.15,-21.0,-25.0,310,6,,10.0,29.84941,1011.2,,,,,,,,,IC,BKN,5200,,,,,,,VFR,,,,,,,,,,,,SPECI,20.0
CYCK 140400Z AUTO 24010KT 9SM CLR 02/00 A2973 RMK SLP077,CYCK,2021-01-14T04:00:00Z,42.3,-82.08,2.0,0.0,240,10,,9.0,29.731298,1007.7,,TRUE,,,,,,,,CLR,,,,,,,,VFR,,,,,,,,,,,,METAR,196.0
CYCD 140400Z 29005KT 220V310 15SM FEW050 SCT180 02/M00 A3049 RMK SC1AC2 SLP327,CYCD,2021-01-14T04:00:00Z,49.05,-123.87,2.0,0.0,290,5,,15.0,30.490158,1032.7,,,,,,,,,,FEW,5000,SCT,18000,,,,,VFR,,,,,,,,,,,,SPECI,30.0
CYCB 140400Z 32012KT 12SM -SN DRSA FEW009 BKN064 M20/M23 A2953 RMK SF1SC6 SLP007,CYCB,2021-01-14T04:00:00Z,69.1,-105.12,-20.0,-23.0,320,12,,12.0,29.530512,1000.7,,,,,,,,,-SN DRSA,FEW,900,BKN,6400,,,,,VFR,,,,,,,,,,,,SPECI,19.0
CYCA 140400Z AUTO 20008KT 9SM SCT140 BKN170 M09/M11 A2978 RMK SLP088,CYCA,2021-01-14T04:00:00Z,53.68,-57.03,-9.0,-11.0,200,8,,9.0,29.778543,1008.8,,TRUE,,,,,,,,SCT,14000,BKN,17000,,,,,VFR,,,,,,,,,,,,METAR,12.0
CYBX 140400Z 02003KT 15SM -SN OVC026 M07/M10 A2984 RMK SC8 SLP109,CYBX,2021-01-14T04:00:00Z,51.45,-57.18,-7.0,-10.0,20,3,,15.0,29.840551,1010.9,,,,,,,,,-SN,OVC,2600,,,,,,,MVFR,,,,,,,,,,,,SPECI,32.0
CYBW 140400Z AUTO 28016G22KT 9SM CLR M01/M11 A2998 RMK SLP193,CYBW,2021-01-14T04:00:00Z,51.1,-114.37,-1.0,-11.0,280,16,22,9.0,29.97933,1019.3,,TRUE,,,,,,,,CLR,,,,,,,,VFR,,,,,,,,,,,,SPECI,1197.0
CYBR 140400Z 24010KT 15SM BKN120 OVC240 03/M01 A2924 RMK AC6CI2 SLP926,CYBR,2021-01-14T04:00:00Z,49.92,-99.95,3.0,-1.0,240,10,,15.0,29.241142,992.6,,,,,,,,,,BKN,12000,OVC,24000,,,,,VFR,,,,,,,,,,,,METAR,405.0
CYBQ 140400Z AUTO 00000KT 9SM OVC010 M03/M03 A2933 RMK SLP951,CYBQ,2021-01-14T04:00:00Z,58.7,-98.5,-3.0,-3.0,0,0,,9.0,29.329725,995.1,,TRUE,,,,,,,,OVC,1000,,,,,,,MVFR,,,,,,,,,,,,METAR,272.0
CYBN 140400Z AUTO 18003KT 5SM OVC016 01/00 A2969 RMK SLP065,CYBN,2021-01-14T04:00:00Z,44.27,-79.92,1.0,0.0,180,3,,5.0,29.68996,1006.5,,TRUE,,,,,,,,OVC,1600,,,,,,,MVFR,,,,,,,,,,,,SPECI,223.0
CYBL 140400Z VRB02KT 15SM FEW210 M01/M01 A3046 RMK CI2 SLP323,CYBL,2021-01-14T04:00:00Z,49.95,-125.27,-1.0,-1.0,0,2,,15.0,30.46063,1032.3,,,,,,,,,,FEW,21000,,,,,,,VFR,,,,,,,,,,,,SPECI,94.0
CYBK 140400Z 30007KT 15SM SCT140 BKN210 M23/M26 A2950 RMK AC4CI2 SLP993,CYBK,2021-01-14T04:00:00Z,64.3,-96.07,-23.0,-26.0,300,7,,15.0,29.500984,999.3,,,,,,,,,,SCT,14000,BKN,21000,,,,,VFR,,,,,,,,,,,,SPECI,14.0
CYBG 140400Z 09006KT 7SM -SN BKN030 OVC045 M03/M04 A2972 RMK SC5SC3 SLP074,CYBG,2021-01-14T04:00:00Z,48.33,-70.98,-3.0,-4.0,90,6,,7.0,29.719488,1007.4,,,,,,,,,-SN,BKN,3000,OVC,4500,,,,,MVFR,,,,,,,,,,,,SPECI,151.0
CYBB 140400Z 13020KT 3SM BLSN BKN009 M16/M19 A2950 RMK BLSN3ST3 WX CALLOUT SLP995,CYBB,2021-01-14T04:00:00Z,68.53,-89.78,-16.0,-19.0,130,20,,3.0,29.500984,999.5,,,,,,,,,BLSN,BKN,900,,,,,,,IFR,,,,,,,,,,,,SPECI,13.0
CYAY 140400Z AUTO 23003KT 9SM OVC033 M06/M07 A2984 RMK SLP108,CYAY,2021-01-14T04:00:00Z,51.38,-56.07,-6.0,-7.0,230,3,,9.0,29.840551,1010.8,,TRUE,,,,,,,,OVC,3300,,,,,,,VFR,,,,,,,,,,,,SPECI,23.0
CYAM 140400Z 19004KT 5SM -SN FEW012 SCT018 BKN029 OVC032 M00/M01 A2967 RMK SC2SC2SC3SC1 SLP059,CYAM,2021-01-14T04:00:00Z,46.48,-84.52,0.0,-1.0,190,4,,5.0,29.66929,1005.9,,,,,,,,,-SN,FEW,1200,SCT,1800,BKN,2900,OVC,3200,MVFR,,,,,,,,,,,,SPECI,186.0
CYAH 140400Z AUTO 20008KT 9SM -SN BKN013 OVC024 M03/M04 A2954 RMK SLP023,CYAH,2021-01-14T04:00:00Z,53.75,-73.67,-3.0,-4.0,200,8,,9.0,29.53937,1002.3,,TRUE,,,,,,,-SN,BKN,1300,OVC,2400,,,,,MVFR,,,,,,,,,,,,SPECI,298.0
CXZV 140400Z AUTO 03004KT M07/M08 RMK AO1 SOG 26 6004 SLP097 T10651082,CXZV,2021-01-14T04:00:00Z,50.22,-66.25,-6.5,-8.2,30,4,,,,1009.7,,TRUE,TRUE,,,,,,,,,,,,,,,,,,,,,,,,,,,METAR,43.0
CXZC 140400Z AUTO 31002KT M04/M05 RMK AO1 SOG 37 3008 SLP052 T10411052,CXZC,2021-01-14T04:00:00Z,51.3,-80.62,-4.1,-5.2,310,2,,,,1005.2,,TRUE,TRUE,,,,,,,,,,,,,,,,,,,,,,,,,,,METAR,8.0
CXYH 140400Z AUTO 34002KT M19/M21 RMK AO1 SLP118 T11851213 52041,CXYH,2021-01-14T04:00:00Z,61.25,-123.75,-18.5,-21.3,340,2,,,,1011.8,,TRUE,TRUE,,,,,,,,,,,,,,,,4.1,,,,,,,,,,,METAR,197.0
CXWN 140400Z AUTO 20004KT 01/M01 RMK AO1 1PAST HR 6015 SLP943 P0000 T00111014 50001,CXWN,2021-01-14T04:00:00Z,49.88,-97.13,1.1,-1.4,200,4,,,,994.3,,TRUE,TRUE,,,,,,,,,,,,,,,,0.1,,,,,0.005,,,,,,METAR,232.0
CXWM 140400Z AUTO 27017KT M00/M04 RMK AO1 PK WND 26025/0358 T10041035,CXWM,2021-01-14T04:00:00Z,49.5,-112.12,-0.4,-3.5,270,17,,,,,,TRUE,TRUE,,,,,,,,,,,,,,,,,,,,,,,,,,,METAR,947.0
CXVW 140400Z AUTO 26017KT M01/M09 RMK AO1 PK WND 26028/0337 T10121092,CXVW,2021-01-14T04:00:00Z,55.1,-117.2,-1.2,-9.2,260,17,,,,,,TRUE,TRUE,,,,,,,,,,,,,,,,,,,,,,,,,,,METAR,696.0
CXVN 140400Z AUTO 21007KT 04/01 RMK AO1 SLP072 T00350005 56006,CXVN,2021-01-14T04:00:00Z,43.18,-79.4,3.5,0.5,210,7,,,,1007.2,,TRUE,TRUE,,,,,,,,,,,,,,,,-0.6,,,,,,,,,,,METAR,86.0
CXVM 140400Z AUTO 30014KT M02/M07 RMK AO1 PK WND 30020/0305 T10221066,CXVM,2021-01-14T04:00:00Z,53.35,-110.88,-2.2,-6.6,300,14,,,,,,TRUE,TRUE,,,,,,,,,,,,,,,,,,,,,,,,,,,METAR,622.0
CXTV 140400Z AUTO 00000KT M24/M26 RMK AO1 SOG 19 2026 SLP169 T12381263,CXTV,2021-01-14T04:00:00Z,68.75,-133.5,-23.8,-26.3,0,0,,,,1016.9,,TRUE,TRUE,,,,,,,,,,,,,,,,,,,,,,,,,,,METAR,91.0
CXTP 140400Z AUTO 20002KT M03/M04 RMK AO1 SOG 01 8005 SLP131 T10331041,CXTP,2021-01-14T04:00:00Z,48.55,-53.97,-3.3,-4.1,200,2,,,,1013.1,,TRUE,TRUE,,,,,,,,,,,,,,,,,,,,,,,,,,,METAR,104.0
CXTO 140400Z AUTO 02/M01 RMK AO1 SLP072 T00221009 56006,CXTO,2021-01-14T04:00:00Z,43.67,-79.4,2.2,-0.9,,,,,,1007.2,,TRUE,TRUE,,,,,,,,,,,,,,,,-0.6,,,,,,,,,,,METAR,115.0
CXTN 140400Z AUTO 22005KT M31/M34 RMK AO1 SOG 112 2026 SLP135 T13121342,CXTN,2021-01-14T04:00:00Z,69.2,-122.35,-31.2,-34.2,220,5,,,,1013.5,,TRUE,TRUE,,,,,,,,,,,,,,,,,,,,,,,,,,,METAR,564.0
CXTH 140400Z AUTO 28026KT M03/M05 RMK AO1 PK WND 28032/0346 T10281046,CXTH,2021-01-14T04:00:00Z,53.63,-111.68,-2.8,-4.6,280,26,,,,,,TRUE,TRUE,,,,,,,,,,,,,,,,,,,,,,,,,,,METAR,679.0
CXTD 140400Z AUTO 19010KT M02/M06 RMK AO1 SOG 02 6003 SLP153 T10241057,CXTD,2021-01-14T04:00:00Z,45.62,-61.68,-2.4,-5.7,190,10,,,,1015.3,,TRUE,TRUE,,,,,,,,,,,,,,,,,,,,,,,,,,,METAR,58.0
CXSP 140400Z AUTO 28016KT M01/M08 RMK AO1 PK WND 27026/0318 T10131077,CXSP,2021-01-14T04:00:00Z,54.02,-111.27,-1.3,-7.7,280,16,,,,,,TRUE,TRUE,,,,,,,,,,,,,,,,,,,,,,,,,,,METAR,652.0
CXSL 140400Z AUTO 29011KT M03/M08 RMK AO1 PK WND 29017/0331 T10301078,CXSL,2021-01-14T04:00:00Z,54.28,-112.5,-3.0,-7.8,290,11,,,,,,TRUE,TRUE,,,,,,,,,,,,,,,,,,,,,,,,,,,METAR,680.0
CXSH 140400Z AUTO 21005KT M01/M02 RMK AO1 SLP077 T10101020 55003,CXSH,2021-01-14T04:00:00Z,46.55,-72.73,-1.0,-2.0,210,5,,,,1007.7,,TRUE,TRUE,,,,,,,,,,,,,,,,-0.3,,,,,,,,,,,METAR,106.0
CXSE 140400Z AUTO 07001KT M19/M21 RMK AO1 2PAST HR SOG 21 3013 SLP046 P0001 T11891208 50007,CXSE,2021-01-14T04:00:00Z,73.77,-105.28,-18.9,-20.8,70,1,,,,1004.6,,TRUE,TRUE,,,,,,,,,,,,,,,,0.7,,,,,0.01,,,,,,METAR,11.0
CXSC 140400Z AUTO 30025KT M01/M06 RMK AO1 PK WND 31041/0300 T10081055,CXSC,2021-01-14T04:00:00Z,50.3,-110.08,-0.8,-5.5,300,25,,,,,,TRUE,TRUE,,,,,,,,,,,,,,,,,,,,,,,,,,,METAR,809.0
CXRL 140400Z AUTO 23014KT M02/M08 RMK AO1 PK WND 24025/0313 T10231083,CXRL,2021-01-14T04:00:00Z,54.5,-111.7,-2.3,-8.3,230,14,,,,,,TRUE,TRUE,,,,,,,,,,,,,,,,,,,,,,,,,,,METAR,585.0
CXRH 140400Z AUTO 15003KT M03/M04 RMK AO1 T10291038,CXRH,2021-01-14T04:00:00Z,49.57,-57.88,-2.9,-3.8,150,3,,,,,,TRUE,TRUE,,,,,,,,,,,,,,,,,,,,,,,,,,,METAR,68.0
CXRB 140400Z AUTO 07012KT M18/M20 RMK AO1 SOG 10 1012 SLP076 T11801202,CXRB,2021-01-14T04:00:00Z,74.72,-94.98,-18.0,-20.2,70,12,,,,1007.6,,TRUE,TRUE,,,,,,,,,,,,,,,,,,,,,,,,,,,METAR,30.0
CXPL 140400Z AUTO 30021KT M02/M06 RMK AO1 PK WND 30025/0349 T10161064,CXPL,2021-01-14T04:00:00Z,51.13,-111.7,-1.6,-6.4,300,21,,,,,,TRUE,TRUE,,,,,,,,,,,,,,,,,,,,,,,,,,,METAR,735.0
CXPC 140400Z AUTO 01/M01 RMK AO1 SOG 18 8002 SLP047 T00121011,CXPC,2021-01-14T04:00:00Z,45.35,-80.05,1.2,-1.1,,,,,,1004.7,,TRUE,TRUE,,,,,,,,,,,,,,,,,,,,,,,,,,,METAR,176.0
CXPA 140400Z AUTO 26011KT M01/M09 RMK AO1 PK WND 24019/0335 T10141086,CXPA,2021-01-14T04:00:00Z,55.62,-118.3,-1.4,-8.6,260,11,,,,,,TRUE,TRUE,,,,,,,,,,,,,,,,,,,,,,,,,,,METAR,628.0
CXOY 140400Z AUTO 31026KT M02/M05 RMK AO1 PK WND 32045/0302 T10241052,CXOY,2021-01-14T04:00:00Z,51.35,-110.35,-2.4,-5.2,310,26,,,,,,TRUE,TRUE,,,,,,,,,,,,,,,,,,,,,,,,,,,METAR,784.0
CXOX 140400Z AUTO 32011G17KT 00/M02 RMK AO1 1PAST HR SOG 43 2039 PK WND 32017/0350 SLP986 P0000 T00001023 50052,CXOX,2021-01-14T04:00:00Z,55.15,-105.27,0.0,-2.3,320,11,17,,,998.6,,TRUE,TRUE,,,,,,,,,,,,,,,,5.2,,,,,0.005,,,,,,METAR,381.0
CXOL 140400Z AUTO 28010KT M05/M14 RMK AO1 T10541141,CXOL,2021-01-14T04:00:00Z,51.77,-114.08,-5.4,-14.1,280,10,,,,,,TRUE,TRUE,,,,,,,,,,,,,,,,,,,,,,,,,,,METAR,1026.0
CXNP 140400Z AUTO 17005KT M01/M03 RMK AO1 SOG 19 8003 SLP132 T10121028,CXNP,2021-01-14T04:00:00Z,45.75,-64.23,-1.2,-2.8,170,5,,,,1013.2,,TRUE,TRUE,,,,,,,,,,,,,,,,,,,,,,,,,,,METAR,19.0
CXNM 140400Z AUTO M06/M06 RMK AO1 SOG 92 T10621063,CXNM,2021-01-14T04:00:00Z,46.82,-60.67,-6.2,-6.3,,,,,,,,TRUE,TRUE,,,,,,,,,,,,,,,,,,,,,,,,,,,METAR,452.0
CXMY 140400Z AUTO M04/M04 RMK AO1 T10351035,CXMY,2021-01-14T04:00:00Z,44.98,-62.48,-3.5,-3.5,,,,,,,,TRUE,TRUE,,,,,,,,,,,,,,,,,,,,,,,,,,,METAR,37.0
CXMO 140400Z AUTO 32012KT M02/M08 RMK AO1 PK WND 34023/0312 T10151082,CXMO,2021-01-14T04:00:00Z,51.67,-112.68,-1.5,-8.2,320,12,,,,,,TRUE,TRUE,,,,,,,,,,,,,,,,,,,,,,,,,,,METAR,837.0
CXMM 140400Z AUTO 00027KT M01/M09 RMK AO1 SOG 19 3022 SLP047 T10071092,CXMM,2021-01-14T04:00:00Z,56.65,-111.22,-0.7,-9.2,0,27,,,,1004.7,,TRUE,TRUE,,,,,,,,,,,,,,,,,,,,,,,,,,,METAR,372.0
CXMI 140400Z AUTO 18004KT 02/M03 RMK AO1 SLP136 T00151034 58007,CXMI,2021-01-14T04:00:00Z,44.6,-63.53,1.5,-3.4,180,4,,,,1013.6,,TRUE,TRUE,,,,,,,,,,,,,,,,-0.7,,,,,,,,,,,METAR,15.0
CXMG 140400Z AUTO 27011KT M02/M09 RMK AO1 T10181093,CXMG,2021-01-14T04:00:00Z,56.97,-117.45,-1.8,-9.3,270,11,,,,,,TRUE,TRUE,,,,,,,,,,,,,,,,,,,,,,,,,,,METAR,467.0
CXMD 140400Z AUTO 24006KT 04/02 RMK AO1 3PAST HR 8017 SLP936 P0001 T00430023 50022,CXMD,2021-01-14T04:00:00Z,49.18,-98.08,4.3,2.3,240,6,,,,993.6,,TRUE,TRUE,,,,,,,,,,,,,,,,2.2,,,,,0.01,,,,,,METAR,297.0
CXLL 140400Z AUTO 00000KT M20/M22 RMK AO1 SOG 45 3043 SLP141 T12011215,CXLL,2021-01-14T04:00:00Z,61.12,-122.85,-20.1,-21.5,0,0,,,,1014.1,,TRUE,TRUE,,,,,,,,,,,,,,,,,,,,,,,,,,,METAR,180.0
CXLB 140400Z AUTO 14006KT 02/M02 RMK AO1 SLP128 T00221015 58008,CXLB,2021-01-14T04:00:00Z,44.37,-64.3,2.2,-1.5,140,6,,,,1012.8,,TRUE,TRUE,,,,,,,,,,,,,,,,-0.8,,,,,,,,,,,METAR,4.0
CXKT 140400Z AUTO 22004KT M00/M04 RMK AO1 SOG 10 6007 SLP131 T10031040,CXKT,2021-01-14T04:00:00Z,45.07,-64.48,-0.3,-4.0,220,4,,,,1013.1,,TRUE,TRUE,,,,,,,,,,,,,,,,,,,,,,,,,,,METAR,48.0
CXKM 140400Z AUTO 30021KT M01/M08 RMK AO1 PK WND 29031/0337 T10141075,CXKM,2021-01-14T04:00:00Z,52.83,-111.87,-1.4,-7.5,300,21,,,,,,TRUE,TRUE,,,,,,,,,,,,,,,,,,,,,,,,,,,METAR,679.0
CXKI 140400Z AUTO M02/M03 RMK AO1 SOG 27 1007 SLP043 T10221033,CXKI,2021-01-14T04:00:00Z,48.13,-80.0,-2.2,-3.3,,,,,,1004.3,,TRUE,TRUE,,,,,,,,,,,,,,,,,,,,,,,,,,,METAR,328.0
CXKE 140400Z AUTO 19002KT M00/M01 RMK AO1 2PAST HR SOG 10 8005 SLP071 P0001 T10021011 50002,CXKE,2021-01-14T04:00:00Z,45.0,-75.63,-0.2,-1.1,190,2,,,,1007.1,,TRUE,TRUE,,,,,,,,,,,,,,,,0.2,,,,,0.01,,,,,,METAR,99.0
CXKA 140400Z AUTO 34003KT M03/M04 RMK AO1 SOG 51 3008 SLP048 T10281039,CXKA,2021-01-14T04:00:00Z,49.4,-82.45,-2.8,-3.9,340,3,,,,1004.8,,TRUE,TRUE,,,,,,,,,,,,,,,,,,,,,,,,,,,METAR,221.0
CXIB 140400Z AUTO 24005KT M02/M06 RMK AO1 SOG 04 3001 SLP137 T10191056,CXIB,2021-01-14T04:00:00Z,46.67,-60.4,-1.9,-5.6,240,5,,,,1013.7,,TRUE,TRUE,,,,,,,,,,,,,,,,,,,,,,,,,,,METAR,6.0
CXHR 140400Z AUTO 31019KT M03/M10 RMK AO1 PK WND 31025/0325 T10271096,CXHR,2021-01-14T04:00:00Z,51.18,-112.5,-2.7,-9.6,310,19,,,,,,TRUE,TRUE,,,,,,,,,,,,,,,,,,,,,,,,,,,METAR,975.0
CXHP 140400Z AUTO 26017KT M01/M09 RMK AO1 PK WND 26026/0344 T10111088,CXHP,2021-01-14T04:00:00Z,55.4,-116.48,-1.1,-8.8,260,17,,,,,,TRUE,TRUE,,,,,,,,,,,,,,,,,,,,,,,,,,,METAR,601.0
CXHM 140400Z AUTO 28003KT 02/M00 RMK AO1 SLP070 T00191003 55005,CXHM,2021-01-14T04:00:00Z,43.28,-79.9,1.9,-0.3,280,3,,,,1007.0,,TRUE,TRUE,,,,,,,,,,,,,,,,-0.5,,,,,,,,,,,METAR,105.0
CXHF 140400Z AUTO M01/M01 RMK AO1 T10081014,CXHF,2021-01-14T04:00:00Z,45.83,-75.65,-0.8,-1.4,,,,,,,,TRUE,TRUE,,,,,,,,,,,,,,,,,,,,,,,,,,,METAR,185.0
CXHD 140400Z AUTO 29019KT M02/M08 RMK AO1 PK WND 28026/0346 T10171082,CXHD,2021-01-14T04:00:00Z,53.18,-112.25,-1.7,-8.2,290,19,,,,,,TRUE,TRUE,,,,,,,,,,,,,,,,,,,,,,,,,,,METAR,688.0
CXHA 140400Z AUTO 22006KT 03/M00 RMK AO1 SLP083 T00331003 56003,CXHA,2021-01-14T04:00:00Z,42.03,-82.9,3.3,-0.3,220,6,,,,1008.3,,TRUE,TRUE,,,,,,,,,,,,,,,,-0.3,,,,,,,,,,,METAR,193.0
CXGH 140400Z AUTO 18009KT M03/M06 RMK AO1 SLP929 T10301057 56015,CXGH,2021-01-14T04:00:00Z,50.63,-97.0,-3.0,-5.7,180,9,,,,992.9,,TRUE,TRUE,,,,,,,,,,,,,,,,-1.5,,,,,,,,,,,METAR,217.0
CXFR 140400Z AUTO 26015KT M03/M09 RMK AO1 PK WND 27022/0324 T10301091,CXFR,2021-01-14T04:00:00Z,56.08,-118.43,-3.0,-9.1,260,15,,,,,,TRUE,TRUE,,,,,,,,,,,,,,,,,,,,,,,,,,,METAR,657.0
CXFM 140400Z AUTO 28012KT 01/M04 RMK AO1 PK WND 29018/0345 T00071042,CXFM,2021-01-14T04:00:00Z,49.48,-111.48,0.7,-4.2,280,12,,,,,,TRUE,TRUE,,,,,,,,,,,,,,,,,,,,,,,,,,,METAR,884.0
CXET 140400Z AUTO 20004KT 01/M01 RMK AO1 SOG 12 6004 SLP063 T00101007,CXET,2021-01-14T04:00:00Z,44.23,-79.78,1.0,-0.7,200,4,,,,1006.3,,TRUE,TRUE,,,,,,,,,,,,,,,,,,,,,,,,,,,METAR,250.0
CXEG 140400Z AUTO 30022G31KT M00/M09 RMK AO1 SOG 17 3026 PK WND 30031/0350 SLP158 T10011092,CXEG,2021-01-14T04:00:00Z,53.3,-113.6,-0.1,-9.2,300,22,31,,,1015.8,,TRUE,TRUE,,,,,,,,,,,,,,,,,,,,,,,,,,,METAR,706.0
CXEC 140400Z AUTO 29014G20KT M00/M10 RMK AO1 SOG 18 3026 PK WND 28024/0336 SLP154 T10031096,CXEC,2021-01-14T04:00:00Z,53.57,-113.52,-0.3,-9.6,290,14,20,,,1015.4,,TRUE,TRUE,,,,,,,,,,,,,,,,,,,,,,,,,,,METAR,666.0
CXEA 140400Z AUTO 12005KT M04/M05 RMK AO1 SOG 22 6015 SLP996 T10411046,CXEA,2021-01-14T04:00:00Z,50.63,-93.22,-4.1,-4.6,120,5,,,,999.6,,TRUE,TRUE,,,,,,,,,,,,,,,,,,,,,,,,,,,METAR,351.0
CXDW 140400Z AUTO 23013KT 05/02 RMK AO1 8014 PK WND 22017/0313 SLP936 T00450019 50013,CXDW,2021-01-14T04:00:00Z,49.4,-98.32,4.5,1.9,230,13,,,,993.6,,TRUE,TRUE,,,,,,,,,,,,,,,,1.3,,,,,,,,,,,METAR,341.0
CXDP 140400Z AUTO 26014KT M03/M07 RMK AO1 PK WND 26021/0314 T10271067,CXDP,2021-01-14T04:00:00Z,54.32,-113.92,-2.7,-6.7,260,14,,,,,,TRUE,TRUE,,,,,,,,,,,,,,,,,,,,,,,,,,,METAR,613.0
CXDK 140400Z AUTO 14001KT M19/M20 RMK AO1 SOG 35 3034 SLP107 T11871195,CXDK,2021-01-14T04:00:00Z,61.27,-124.47,-18.7,-19.5,140,1,,,,1010.7,,TRUE,TRUE,,,,,,,,,,,,,,,,,,,,,,,,,,,METAR,269.0
CXDI 140400Z AUTO 23005KT 03/M00 RMK AO1 SLP076 T00271004 57008,CXDI,2021-01-14T04:00:00Z,42.87,-80.55,2.7,-0.4,230,5,,,,1007.6,,TRUE,TRUE,,,,,,,,,,,,,,,,-0.8,,,,,,,,,,,METAR,234.0
CXDE 140400Z AUTO 33006KT M17/M19 RMK AO1 SOG 27 1032 SLP137 T11661186,CXDE,2021-01-14T04:00:00Z,65.22,-123.43,-16.6,-18.6,330,6,,,,1013.7,,TRUE,TRUE,,,,,,,,,,,,,,,,,,,,,,,,,,,METAR,208.0
CXDB 140400Z AUTO 26009KT M03/M07 RMK AO1 T10271069,CXDB,2021-01-14T04:00:00Z,49.05,-112.82,-2.7,-6.9,260,9,,,,,,TRUE,TRUE,,,,,,,,,,,,,,,,,,,,,,,,,,,METAR,1311.0
CXCS 140400Z AUTO 30027KT M01/M08 RMK AO1 PK WND 32038/0314 T10051077,CXCS,2021-01-14T04:00:00Z,51.93,-110.72,-0.5,-7.7,300,27,,,,,,TRUE,TRUE,,,,,,,,,,,,,,,,,,,,,,,,,,,METAR,771.0
CXCP 140400Z AUTO 29010KT M01/M06 RMK AO1 T10091064,CXCP,2021-01-14T04:00:00Z,50.28,-113.35,-0.9,-6.4,290,10,,,,,,TRUE,TRUE,,,,,,,,,,,,,,,,,,,,,,,,,,,METAR,999.0
CXCK 140400Z AUTO 00000KT M17/M19 RMK AO1 SOG 37 1039 SLP164 T11721191,CXCK,2021-01-14T04:00:00Z,62.12,-136.2,-17.2,-19.1,0,0,,,,1016.4,,TRUE,TRUE,,,,,,,,,,,,,,,,,,,,,,,,,,,METAR,526.0
CXCD 140400Z AUTO 28014KT M01/M10 RMK AO1 PK WND 29022/0333 T10061101,CXCD,2021-01-14T04:00:00Z,56.32,-119.75,-0.6,-10.1,280,14,,,,,,TRUE,TRUE,,,,,,,,,,,,,,,,,,,,,,,,,,,METAR,628.0
CXCA 140400Z AUTO 15003KT M02/M04 RMK AO1 SOG 13 8003 SLP049 T10241038,CXCA,2021-01-14T04:00:00Z,49.15,-88.35,-2.4,-3.8,150,3,,,,1004.9,,TRUE,TRUE,,,,,,,,,,,,,,,,,,,,,,,,,,,METAR,228.0
CXBW 140400Z AUTO 29009KT 00/00 RMK AO1 T00000000,CXBW,2021-01-14T04:00:00Z,49.8,-112.3,0.0,0.0,290,9,,,,,,TRUE,TRUE,,,,,,,,,,,,,,,,,,,,,,,,,,,METAR,823.0
CXBR 140400Z AUTO 26013KT M00/M12 RMK AO1 PK WND 25018/0351 T10031117,CXBR,2021-01-14T04:00:00Z,49.62,-113.82,-0.3,-11.7,260,13,,,,,,TRUE,TRUE,,,,,,,,,,,,,,,,,,,,,,,,,,,METAR,1137.0
CXBO 140400Z AUTO 03003KT M01/M02 RMK AO1 T10111020 50002,CXBO,2021-01-14T04:00:00Z,46.83,-71.2,-1.1,-2.0,30,3,,,,,,TRUE,TRUE,,,,,,,,,,,,,,,,0.2,,,,,,,,,,,METAR,8.0
CXBK 140400Z AUTO 30029G40KT M01/M02 RMK AO1 PK WND 29040/0357 SLP897 T10051021 53014,CXBK,2021-01-14T04:00:00Z,50.2,-104.7,-0.5,-2.1,300,29,40,,,989.7,,TRUE,TRUE,,,,,,,,,,,,,,,,1.4,,,,,,,,,,,METAR,585.0
CXBI 140400Z AUTO 21002KT 01/M01 RMK AO1 SOG 25 6003 SLP067 T00071013,CXBI,2021-01-14T04:00:00Z,44.48,-79.55,0.7,-1.3,210,2,,,,1006.7,,TRUE,TRUE,,,,,,,,,,,,,,,,,,,,,,,,,,,METAR,287.0
CXBA 140400Z AUTO 31022KT M01/M06 RMK AO1 PK WND 31032/0333 T10081059,CXBA,2021-01-14T04:00:00Z,52.12,-110.1,-0.8,-5.9,310,22,,,,,,TRUE,TRUE,,,,,,,,,,,,,,,,,,,,,,,,,,,METAR,696.0
CXAT 140400Z AUTO 36001KT M24/M27 RMK AO1 SLP085 T12421270 52007,CXAT,2021-01-14T04:00:00Z,73.0,-85.03,-24.2,-27.0,360,1,,,,1008.5,,TRUE,TRUE,,,,,,,,,,,,,,,,0.7,,,,,,,,,,,METAR,10.0
CXAK 140400Z AUTO 28017KT M02/M07 RMK AO1 PK WND 29026/0304 T10211066,CXAK,2021-01-14T04:00:00Z,52.35,-112.6,-2.1,-6.6,280,17,,,,,,TRUE,TRUE,,,,,,,,,,,,,,,,,,,,,,,,,,,METAR,799.0
CXAJ 140400Z AUTO 28011KT M03/M08 RMK AO1 SOG 24 PK WND 27017/0331 T10291079,CXAJ,2021-01-14T04:00:00Z,54.78,-112.82,-2.9,-7.9,280,11,,,,,,TRUE,TRUE,,,,,,,,,,,,,,,,,,,,,,,,,,,METAR,586.0
CXAF 140400Z AUTO 29013KT M03/M07 RMK AO1 PK WND 29019/0349 T10271067,CXAF,2021-01-14T04:00:00Z,54.28,-112.97,-2.7,-6.7,290,13,,,,,,TRUE,TRUE,,,,,,,,,,,,,,,,,,,,,,,,,,,METAR,667.0
CWZW 140400Z AUTO 00000KT M11/M12 RMK AO1 SOG 54 1035 SLP197 T11081118,CWZW,2021-01-14T04:00:00Z,60.17,-132.73,-10.8,-11.8,0,0,,,,1019.7,,TRUE,TRUE,,,,,,,,,,,,,,,,,,,,,,,,,,,METAR,683.0
CWZO 140400Z AUTO 25007KT RMK AO1,CWZO,2021-01-14T04:00:00Z,48.57,-123.25,,,250,7,,,,,,TRUE,TRUE,,,,,,,,,,,,,,,,,,,,,,,,,,,METAR,5.0
CWZL 140400Z AUTO 17008KT 07/ RMK AO1 SLP246 T0065 58001,CWZL,2021-01-14T04:00:00Z,53.03,-131.6,6.5,,170,8,,,,1024.6,,TRUE,TRUE,,,,,,,,,,,,,,,,-0.1,,,,,,,,,,,METAR,17.0
CWZG 140400Z AUTO 27003KT M03/M10 RMK AO1 SOG 19 3034 SLP222 T10291098,CWZG,2021-01-14T04:00:00Z,51.2,-115.55,-2.9,-9.8,270,3,,,,1022.2,,TRUE,TRUE,,,,,,,,,,,,,,,,,,,,,,,,,,,METAR,1402.0
CWZA 140400Z AUTO 11002KT 03/M00 RMK AO1 SLP333 T00251001 53016,CWZA,2021-01-14T04:00:00Z,49.25,-121.77,2.5,-0.1,110,2,,,,1033.3,,TRUE,TRUE,,,,,,,,,,,,,,,,1.6,,,,,,,,,,,METAR,18.0
CWYY 140400Z AUTO 12002KT 03/M06 RMK AO1 SLP319 T00331062 53028,CWYY,2021-01-14T04:00:00Z,49.03,-119.43,3.3,-6.2,120,2,,,,1031.9,,TRUE,TRUE,,,,,,,,,,,,,,,,2.8,,,,,,,,,,,METAR,284.0
CWYL 140400Z AUTO 26009G19KT M06/M07 RMK AO1 SOG 91 3031 PK WND 25019/0350 SLP230 T10611071,CWYL,2021-01-14T04:00:00Z,51.45,-116.33,-6.1,-7.1,260,9,19,,,1023.0,,TRUE,TRUE,,,,,,,,,,,,,,,,,,,,,,,,,,,METAR,1602.0
CWYJ 140400Z AUTO 27002KT 05/02 RMK AO1 SLP331 T00460015 50004,CWYJ,2021-01-14T04:00:00Z,48.45,-123.3,4.6,1.5,270,2,,,,1033.1,,TRUE,TRUE,,,,,,,,,,,,,,,,0.4,,,,,,,,,,,METAR,59.0
CWXL 140400Z AUTO 29009KT M01/M08 RMK AO1 SLP174 T10091084 51038,CWXL,2021-01-14T04:00:00Z,49.73,-111.45,-0.9,-8.4,290,9,,,,1017.4,,TRUE,TRUE,,,,,,,,,,,,,,,,3.8,,,,,,,,,,,METAR,815.0
CWXI 140400Z AUTO M02/M04 RMK AO1 SLP094 T10181043 58007,CWXI,2021-01-14T04:00:00Z,51.02,-57.1,-1.8,-4.3,,,,,,1009.4,,TRUE,TRUE,,,,,,,,,,,,,,,,-0.7,,,,,,,,,,,METAR,15.0
CWXC 140400Z AUTO 21001KT M04/M04 RMK AO1 T10361040,CWXC,2021-01-14T04:00:00Z,48.88,-71.03,-3.6,-4.0,210,1,,,,,,TRUE,TRUE,,,,,,,,,,,,,,,,,,,,,,,,,,,METAR,306.0
CWXA 140400Z AUTO 26011G20KT M01/M13 RMK AO1 PK WND 25025/0328 SLP214 T10051134 53034,CWXA,2021-01-14T04:00:00Z,51.07,-115.07,-0.5,-13.4,260,11,20,,,1021.4,,TRUE,TRUE,,,,,,,,,,,,,,,,3.4,,,,,,,,,,,METAR,1303.0
CWWZ 140400Z AUTO 22007KT 03/01 RMK AO1 SLP071 T00330009 56008,CWWZ,2021-01-14T04:00:00Z,43.25,-79.22,3.3,0.9,220,7,,,,1007.1,,TRUE,TRUE,,,,,,,,,,,,,,,,-0.8,,,,,,,,,,,METAR,75.0
CWWX 140400Z AUTO 34008KT 02/M01 RMK AO1 PK WND 33019/0324 SLP054 T00201013 53003,CWWX,2021-01-14T04:00:00Z,45.32,-81.73,2.0,-1.3,340,8,,,,1005.4,,TRUE,TRUE,,,,,,,,,,,,,,,,0.3,,,,,,,,,,,METAR,181.0
CWWS 140400Z AUTO M02/M05 RMK AO1 19 0301Z SOG 02 8016 SLP915 T10201051,CWWS,2021-01-14T04:00:00Z,52.82,-97.62,-2.0,-5.1,,,,,,991.5,,TRUE,TRUE,,,,,,,,,,,,,,,,,,,,,,,,,,,METAR,220.0
CWWL 140400Z AUTO 16013KT 07/03 RMK AO1 PK WND 16018/0330 SLP248 T00690026 51005,CWWL,2021-01-14T04:00:00Z,53.5,-130.63,6.9,2.6,160,13,,,,1024.8,,TRUE,TRUE,,,,,,,,,,,,,,,,0.5,,,,,,,,,,,METAR,8.0
CWWK 140400Z AUTO 06002KT RMK AO1 SOG 01 3014,CWWK,2021-01-14T04:00:00Z,49.02,-122.78,,,60,2,,,,,,TRUE,TRUE,,,,,,,,,,,,,,,,,,,,,,,,,,,METAR,10.0
CWWF 140400Z AUTO 30022G32KT M00/M03 RMK AO1 SOG 04 6030 PK WND 29037/0331 SLP911 T10011026,CWWF,2021-01-14T04:00:00Z,49.7,-103.8,-0.1,-2.6,300,22,32,,,991.1,,TRUE,TRUE,,,,,,,,,,,,,,,,,,,,,,,,,,,METAR,583.0
CWWE 140400Z AUTO 17011KT 03/M02 RMK AO1 SLP136 T00281021 58008,CWWE,2021-01-14T04:00:00Z,43.98,-64.67,2.8,-2.1,170,11,,,,1013.6,,TRUE,TRUE,,,,,,,,,,,,,,,,-0.8,,,,,,,,,,,METAR,4.0
CWWB 140400Z AUTO 28003KT 03/M00 RMK AO1 SLP068 T00261003 55004,CWWB,2021-01-14T04:00:00Z,43.3,-79.78,2.6,-0.3,280,3,,,,1006.8,,TRUE,TRUE,,,,,,,,,,,,,,,,-0.4,,,,,,,,,,,METAR,77.0
CWWA 140400Z AUTO 04001KT 04/01 RMK AO1 SLP330 T00430009 53013,CWWA,2021-01-14T04:00:00Z,49.35,-123.18,4.3,0.9,40,1,,,,1033.0,,TRUE,TRUE,,,,,,,,,,,,,,,,1.3,,,,,,,,,,,METAR,172.0
CWVU 140400Z AUTO 13008KT 01/01 RMK AO1 8PAST HR 6009 SLP129 P0003 T00110011 50020,CWVU,2021-01-14T04:00:00Z,44.28,-66.33,1.1,1.1,130,8,,,,1012.9,,TRUE,TRUE,,,,,,,,,,,,,,,,2.0,,,,,0.03,,,,,,METAR,4.0
CWVT 140400Z AUTO 29007KT M02/M05 RMK AO1 SOG 25 1031 PK WND 30019/0313 SLP049 T10191049,CWVT,2021-01-14T04:00:00Z,55.83,-108.42,-1.9,-4.9,290,7,,,,1004.9,,TRUE,TRUE,,,,,,,,,,,,,,,,,,,,,,,,,,,METAR,431.0
CWVQ 140400Z AUTO 19004KT 01/M02 RMK AO1 SOG 13 7006 SLP080 T00091022,CWVQ,2021-01-14T04:00:00Z,45.42,-73.92,0.9,-2.2,190,4,,,,1008.0,,TRUE,TRUE,,,,,,,,,,,,,,,,,,,,,,,,,,,METAR,38.0
CWVI 140400Z AUTO 29021G27KT M01/M08 RMK AO1 SOG 19 1031 PK WND 28027/0349 SLP128 T10111076,CWVI,2021-01-14T04:00:00Z,53.52,-112.1,-1.1,-7.6,290,21,27,,,1012.8,,TRUE,TRUE,,,,,,,,,,,,,,,,,,,,,,,,,,,METAR,640.0
CWVF 140400Z AUTO 11009KT 07/02 RMK AO1 T00690018,CWVF,2021-01-14T04:00:00Z,49.1,-123.3,6.9,1.8,110,9,,,,,,TRUE,TRUE,,,,,,,,,,,,,,,,,,,,,,,,,,,METAR,13.0
CWUX 140400Z AUTO 10001KT M03/M05 RMK AO1 SLP069 T10331050 56004,CWUX,2021-01-14T04:00:00Z,48.3,-70.93,-3.3,-5.0,100,1,,,,1006.9,,TRUE,TRUE,,,,,,,,,,,,,,,,-0.4,,,,,,,,,,,METAR,150.0
CWUW 140400Z AUTO 01006KT ////SM NCD M20/M22 A2954,CWUW,2021-01-14T04:00:00Z,68.62,-71.12,-20.0,-22.0,10,6,,,29.53937,,,TRUE,,,,,,,,CLR,,,,,,,,,,,,,,,,,,,,SPECI,173.0
CWUS 140400Z AUTO 15003KT 03/M07 RMK AO1 SLP328 T00261068 53029,CWUS,2021-01-14T04:00:00Z,49.57,-119.65,2.6,-6.8,150,3,,,,1032.8,,TRUE,TRUE,,,,,,,,,,,,,,,,2.9,,,,,,,,,,,METAR,455.0
CWTY 140400Z AUTO 19006KT M00/M02 RMK AO1 SLP080 T10011021 57004,CWTY,2021-01-14T04:00:00Z,46.35,-72.52,-0.1,-2.1,190,6,,,,1008.0,,TRUE,TRUE,,,,,,,,,,,,,,,,-0.4,,,,,,,,,,,METAR,8.0
CWTT 140400Z AUTO 20005KT M01/M05 RMK AO1 T10061046,CWTT,2021-01-14T04:00:00Z,45.27,-72.17,-0.6,-4.6,200,5,,,,,,TRUE,TRUE,,,,,,,,,,,,,,,,,,,,,,,,,,,METAR,210.0
CWTN 140400Z AUTO 28002KT M02/M02 RMK AO1 2PAST HR 6006 SLP092 P0001 T10151024 50005,CWTN,2021-01-14T04:00:00Z,47.07,-70.78,-1.5,-2.4,280,2,,,,1009.2,,TRUE,TRUE,,,,,,,,,,,,,,,,0.5,,,,,0.01,,,,,,METAR,5.0
CWTG 140400Z AUTO 20007KT M01/M02 RMK AO1 SLP092 T10121023 56003,CWTG,2021-01-14T04:00:00Z,49.32,-67.37,-1.2,-2.3,200,7,,,,1009.2,,TRUE,TRUE,,,,,,,,,,,,,,,,-0.3,,,,,,,,,,,METAR,6.0
CWTA 140400Z AUTO 20003KT 01/M02 RMK AO1 SOG 19 6006 SLP080 T00071015,CWTA,2021-01-14T04:00:00Z,45.5,-73.58,0.7,-1.5,200,3,,,,1008.0,,TRUE,TRUE,,,,,,,,,,,,,,,,,,,,,,,,,,,METAR,71.0
CWST 140400Z AUTO 17007KT M01/M04 RMK AO1 SOG 02 6007 SLP086 T10081044,CWST,2021-01-14T04:00:00Z,47.35,-70.02,-0.8,-4.4,170,7,,,,1008.6,,TRUE,TRUE,,,,,,,,,,,,,,,,,,,,,,,,,,,METAR,31.0
CWSS 140400Z AUTO 00000KT M03/M05 RMK AO1 SOG 10 8002 SLP131 T10281051,CWSS,2021-01-14T04:00:00Z,45.2,-67.25,-2.8,-5.1,0,0,,,,1013.1,,TRUE,TRUE,,,,,,,,,,,,,,,,,,,,,,,,,,,METAR,27.0
CWSR 140400Z AUTO 32016KT M01/M03 RMK AO1 SOG 12 1072 PK WND 33020/0336 SLP012 T10101030 50010,CWSR,2021-01-14T04:00:00Z,53.37,-107.55,-1.0,-3.0,320,16,,,,1001.2,,TRUE,TRUE,,,,,,,,,,,,,,,,1.0,,,,,,,,,,,METAR,589.0
CWSP 140400Z AUTO 04004KT 07/03 RMK AO1 5000 SLP331 T00730027 50006,CWSP,2021-01-14T04:00:00Z,48.38,-123.92,7.3,2.7,40,4,,,,1033.1,,TRUE,TRUE,,,,,,,,,,,,,,,,0.6,,,,,,,,,,,METAR,2.0
CWSL 140400Z AUTO 12002KT M00/M02 RMK AO1 SOG 03 3028 SLP311 T10031022,CWSL,2021-01-14T04:00:00Z,50.7,-119.28,-0.3,-2.2,120,2,,,,1031.1,,TRUE,TRUE,,,,,,,,,,,,,,,,,,,,,,,,,,,METAR,353.0
CWSK 140400Z AUTO 02001KT 01/M00 RMK AO1 SLP338 T00061004 51019,CWSK,2021-01-14T04:00:00Z,49.78,-123.17,0.6,-0.4,20,1,,,,1033.8,,TRUE,TRUE,,,,,,,,,,,,,,,,1.9,,,,,,,,,,,METAR,59.0
CWSG 140400Z AUTO 19004KT M01/M06 RMK AO1 SLP097 T10121055 56002,CWSG,2021-01-14T04:00:00Z,49.12,-66.65,-1.2,-5.5,190,4,,,,1009.7,,TRUE,TRUE,,,,,,,,,,,,,,,,-0.2,,,,,,,,,,,METAR,5.0
CWSF 140400Z AUTO 16007KT M02/M06 RMK AO1 SLP097 T10221060 56007,CWSF,2021-01-14T04:00:00Z,49.25,-65.32,-2.2,-6.0,160,7,,,,1009.7,,TRUE,TRUE,,,,,,,,,,,,,,,,-0.7,,,,,,,,,,,METAR,15.0
CWSD 140400Z AUTO 20009KT M01/M03 RMK AO1 SOG 06 8005 SLP131 T10131033,CWSD,2021-01-14T04:00:00Z,46.43,-63.85,-1.3,-3.3,200,9,,,,1013.1,,TRUE,TRUE,,,,,,,,,,,,,,,,,,,,,,,,,,,METAR,12.0
CWSA 140400Z AUTO 30004KT 230V320 9SM OVC020 00/M04 A2999 RMK SLP155,CWSA,2021-01-14T04:00:00Z,43.93,-60.0,0.0,-4.0,300,4,,9.0,29.991142,1015.5,,TRUE,,,,,,,,OVC,2000,,,,,,,MVFR,,,,,,,,,,,,SPECI,4.0
CWRZ 140400Z AUTO 27004KT M03/M05 RMK AO1 SLP109 T10311051 58004,CWRZ,2021-01-14T04:00:00Z,48.42,-64.32,-3.1,-5.1,270,4,,,,1010.9,,TRUE,TRUE,,,,,,,,,,,,,,,,-0.4,,,,,,,,,,,METAR,16.0
CWRY 140400Z AUTO 29027G37KT M00/M04 RMK AO1 SOG 01 1033 PK WND 29037/0359 SLP178 T10011035,CWRY,2021-01-14T04:00:00Z,49.12,-112.05,-0.1,-3.5,290,27,37,,,1017.8,,TRUE,TRUE,,,,,,,,,,,,,,,,,,,,,,,,,,,METAR,1048.0
CWRU 140400Z AUTO 11026G33KT 06/04 RMK AO1 2PAST HR 8003 PK WND 11035/0316 SLP281 P0001 T00600044 50006,CWRU,2021-01-14T04:00:00Z,50.12,-127.93,6.0,4.4,110,26,33,,,1028.1,,TRUE,TRUE,,,,,,,,,,,,,,,,0.6,,,,,0.01,,,,,,METAR,76.0
CWRT 140400Z AUTO 29008KT M01/M09 RMK AO1 T10071093,CWRT,2021-01-14T04:00:00Z,49.62,-114.47,-0.7,-9.3,290,8,,,,,,TRUE,TRUE,,,,,,,,,,,,,,,,,,,,,,,,,,,METAR,1311.0
CWRO 140400Z AUTO 18006KT 02/02 RMK AO1 SLP238 T00240017 51009,CWRO,2021-01-14T04:00:00Z,54.17,-131.67,2.4,1.7,180,6,,,,1023.8,,TRUE,TRUE,,,,,,,,,,,,,,,,0.9,,,,,,,,,,,METAR,7.0
CWRN 140400Z AUTO 20003KT M02/M04 RMK AO1 SLP154 T10211043 58001,CWRN,2021-01-14T04:00:00Z,45.35,-60.98,-2.1,-4.3,200,3,,,,1015.4,,TRUE,TRUE,,,,,,,,,,,,,,,,-0.1,,,,,,,,,,,METAR,8.0
CWRM 140400Z AUTO 29008KT M03/M12 RMK AO1 SOG 10 1028 SLP187 T10301123,CWRM,2021-01-14T04:00:00Z,52.42,-114.92,-3.0,-12.3,290,8,,,,1018.7,,TRUE,TRUE,,,,,,,,,,,,,,,,,,,,,,,,,,,METAR,986.0
CWRK 140400Z AUTO 19003KT M01/M02 RMK AO1 SOG 19 6006 SLP063 T10081024,CWRK,2021-01-14T04:00:00Z,45.07,-77.87,-0.8,-2.4,190,3,,,,1006.3,,TRUE,TRUE,,,,,,,,,,,,,,,,,,,,,,,,,,,METAR,328.0
CWRA 140400Z AUTO 03005KT M00/ RMK AO1 SLP141 T1004 58003,CWRA,2021-01-14T04:00:00Z,46.65,-53.07,-0.4,,30,5,,,,1014.1,,TRUE,TRUE,,,,,,,,,,,,,,,,-0.3,,,,,,,,,,,METAR,4.0
CWQV 140400Z AUTO 06005KT RMK AO1,CWQV,2021-01-14T04:00:00Z,48.27,-70.12,,,60,5,,,,,,TRUE,TRUE,,,,,,,,,,,,,,,,,,,,,,,,,,,METAR,4.0
CWQS 140400Z AUTO 10010KT 06/01 RMK AO1 PK WND 13019/0309 SLP223 T00580014 56003,CWQS,2021-01-14T04:00:00Z,53.32,-132.77,5.8,1.4,100,10,,,,1022.3,,TRUE,TRUE,,,,,,,,,,,,,,,,-0.3,,,,,,,,,,,METAR,10.0
CWQR 140400Z AUTO 19013KT M02/ RMK AO1 T1016,CWQR,2021-01-14T04:00:00Z,50.22,-64.22,-1.6,,190,13,,,,,,TRUE,TRUE,,,,,,,,,,,,,,,,,,,,,,,,,,,METAR,9.0
CWQP 140400Z AUTO 24011KT 02/01 RMK AO1 SOG 03 8007 SLP075 T00230009,CWQP,2021-01-14T04:00:00Z,43.83,-77.15,2.3,0.9,240,11,,,,1007.5,,TRUE,TRUE,,,,,,,,,,,,,,,,,,,,,,,,,,,METAR,77.0
CWQO 140400Z AUTO 20009KT 00/M05 RMK AO1 T00001047,CWQO,2021-01-14T04:00:00Z,48.42,-68.9,0.0,-4.7,200,9,,,,,,TRUE,TRUE,,,,,,,,,,,,,,,,,,,,,,,,,,,METAR,7.0
CWQK 140400Z AUTO 06003KT 07/ RMK AO1 SLP331 T0070 53008,CWQK,2021-01-14T04:00:00Z,48.3,-123.53,7.0,,60,3,,,,1033.1,,TRUE,TRUE,,,,,,,,,,,,,,,,0.8,,,,,,,,,,,METAR,5.0
CWQH 140400Z AUTO 19006KT M01/M05 RMK AO1 SOG 13 6008 SLP096 T10061049,CWQH,2021-01-14T04:00:00Z,45.37,-71.82,-0.6,-4.9,190,6,,,,1009.6,,TRUE,TRUE,,,,,,,,,,,,,,,,,,,,,,,,,,,METAR,181.0
CWPZ 140400Z AUTO 09001KT M12/M13 RMK AO1 SOG 42 1033 SLP289 T11171129,CWPZ,2021-01-14T04:00:00Z,54.38,-125.97,-11.7,-12.9,90,1,,,,1028.9,,TRUE,TRUE,,,,,,,,,,,,,,,,,,,,,,,,,,,METAR,715.0
CWPX 140400Z AUTO 34023KT ////SM //// OVC003 ///// A////,CWPX,2021-01-14T04:00:00Z,69.03,-107.82,,,340,23,,,,,,TRUE,,,,,,,,OVC,300,,,,,,,,,,,,,,,,,,,METAR,163.0
CWPR 140400Z AUTO 34003KT M01/M06 RMK AO1 SOG 27 3025 SLP325 T10121060,CWPR,2021-01-14T04:00:00Z,49.47,-120.52,-1.2,-6.0,340,3,,,,1032.5,,TRUE,TRUE,,,,,,,,,,,,,,,,,,,,,,,,,,,METAR,703.0
CWPO 140400Z AUTO 22007KT 02/01 RMK AO1 SOG 07 6016 SLP951 T00240010 50040,CWPO,2021-01-14T04:00:00Z,49.2,-98.9,2.4,1.0,220,7,,,,995.1,,TRUE,TRUE,,,,,,,,,,,,,,,,4.0,,,,,,,,,,,METAR,471.0
CWPK 140400Z AUTO 16002KT M04/M04 RMK AO1 4PAST HR SOG 42 6004 SLP047 P0002 T10381041 50012,CWPK,2021-01-14T04:00:00Z,47.92,-74.62,-3.8,-4.1,160,2,,,,1004.7,,TRUE,TRUE,,,,,,,,,,,,,,,,1.2,,,,,0.02,,,,,,METAR,443.0
CWPE 140400Z AUTO 29001KT M00/M04 RMK AO1 SOG 05 6003 SLP132 T10031040,CWPE,2021-01-14T04:00:00Z,45.07,-66.47,-0.3,-4.0,290,1,,,,1013.2,,TRUE,TRUE,,,,,,,,,,,,,,,,,,,,,,,,,,,METAR,9.0
CWPD 140400Z AUTO 18004KT M06/M07 RMK AO1 SLP061 T10571068 56003,CWPD,2021-01-14T04:00:00Z,47.57,-71.22,-5.7,-6.8,180,4,,,,1006.1,,TRUE,TRUE,,,,,,,,,,,,,,,,-0.3,,,,,,,,,,,METAR,795.0
CWPC 140400Z AUTO 23014KT 04/01 RMK AO1 PK WND 23017/0358 SLP078 T00400007 58006,CWPC,2021-01-14T04:00:00Z,42.87,-79.25,4.0,0.7,230,14,,,,1007.8,,TRUE,TRUE,,,,,,,,,,,,,,,,-0.6,,,,,,,,,,,METAR,174.0
CWOY 140400Z AUTO 29003KT M00/M01 RMK AO1 1PAST HR SOG 04 3021 SLP870 P0004 T10031009 50011,CWOY,2021-01-14T04:00:00Z,51.77,-104.2,-0.3,-0.9,290,3,,,,987.0,,TRUE,TRUE,,,,,,,,,,,,,,,,1.1,,,,,0.04,,,,,,METAR,557.0
CWOE 140400Z AUTO 31032G39KT M00/M08 RMK AO1 SOG 03 1044 PK WND 31039/0356 SLP138 T10021082,CWOE,2021-01-14T04:00:00Z,49.12,-110.47,-0.2,-8.2,310,32,39,,,1013.8,,TRUE,TRUE,,,,,,,,,,,,,,,,,,,,,,,,,,,METAR,931.0
CWOD 140400Z AUTO 09003KT M04/M05 RMK AO1 SOG 11 6002 SLP042 T10361051,CWOD,2021-01-14T04:00:00Z,48.85,-72.55,-3.6,-5.1,90,3,,,,1004.2,,TRUE,TRUE,,,,,,,,,,,,,,,,,,,,,,,,,,,METAR,150.0
CWOC 140400Z AUTO 26002KT M02/M04 RMK AO1 SLP108 T10201036 58005,CWOC,2021-01-14T04:00:00Z,48.02,-65.32,-2.0,-3.6,260,2,,,,1010.8,,TRUE,TRUE,,,,,,,,,,,,,,,,-0.5,,,,,,,,,,,METAR,42.0
CWOB 140400Z AUTO 20004KT ////SM OVC002 M17/M19 A2961,CWOB,2021-01-14T04:00:00Z,63.33,-64.15,-17.0,-19.0,200,4,,,29.610237,,,TRUE,,,,,,,,OVC,200,,,,,,,,,,,,,,,,,,,SPECI,369.0
CWNZ 140400Z AUTO 32002KT M03/M05 RMK AO1 SOG 44 0004 SLP057 T10321046,CWNZ,2021-01-14T04:00:00Z,49.75,-84.17,-3.2,-4.6,320,2,,,,1005.7,,TRUE,TRUE,,,,,,,,,,,,,,,,,,,,,,,,,,,METAR,261.0
CWNQ 140400Z AUTO 19006KT M00/M03 RMK AO1 SLP084 T10021031 56004,CWNQ,2021-01-14T04:00:00Z,46.22,-72.65,-0.2,-3.1,190,6,,,,1008.4,,TRUE,TRUE,,,,,,,,,,,,,,,,-0.4,,,,,,,,,,,METAR,9.0
CWNP 140400Z AUTO 07003KT M01/M03 RMK AO1 SOG 09 3028 SLP291 T10081028,CWNP,2021-01-14T04:00:00Z,50.27,-117.82,-0.8,-2.8,70,3,,,,1029.1,,TRUE,TRUE,,,,,,,,,,,,,,,,,,,,,,,,,,,METAR,517.0
CWNM 140400Z AUTO 18004KT 02/M01 RMK AO1 SLP294 T00181014 53033,CWNM,2021-01-14T04:00:00Z,49.5,-117.3,1.8,-1.4,180,4,,,,1029.4,,TRUE,TRUE,,,,,,,,,,,,,,,,3.3,,,,,,,,,,,METAR,533.0
CWNK 140400Z AUTO 00015KT 01/M00 RMK AO1 T00091003 50007,CWNK,2021-01-14T04:00:00Z,49.5,-98.03,0.9,-0.3,0,15,,,,,,TRUE,TRUE,,,,,,,,,,,,,,,,0.7,,,,,,,,,,,METAR,271.0
CWNH 140400Z AUTO 17004KT M02/M06 RMK AO1 SOG 04 6007 SLP090 T10181058,CWNH,2021-01-14T04:00:00Z,47.8,-69.53,-1.8,-5.8,170,4,,,,1009.0,,TRUE,TRUE,,,,,,,,,,,,,,,,,,,,,,,,,,,METAR,147.0
CWNE 140400Z AUTO 20008KT M02/M04 RMK AO1 SLP118 T10191044 58005,CWNE,2021-01-14T04:00:00Z,47.07,-64.0,-1.9,-4.4,200,8,,,,1011.8,,TRUE,TRUE,,,,,,,,,,,,,,,,-0.5,,,,,,,,,,,METAR,5.0
CWND 140400Z AUTO 09003KT M28/M31 RMK AO1 SLP153 T12791306 53029,CWND,2021-01-14T04:00:00Z,69.63,-135.43,-27.9,-30.6,90,3,,,,1015.3,,TRUE,TRUE,,,,,,,,,,,,,,,,2.9,,,,,,,,,,,METAR,14.0
CWNC 140400Z AUTO 32003KT 03/M00 RMK AO1 SOG 01 6007 SLP072 T00261002,CWNC,2021-01-14T04:00:00Z,43.95,-78.17,2.6,-0.2,320,3,,,,1007.2,,TRUE,TRUE,,,,,,,,,,,,,,,,,,,,,,,,,,,METAR,71.0
CWMT 140400Z AUTO 33005KT M12/M13 RMK AO1 SOG 30 1045 SLP089 T11181133 50003,CWMT,2021-01-14T04:00:00Z,63.13,-117.25,-11.8,-13.3,330,5,,,,1008.9,,TRUE,TRUE,,,,,,,,,,,,,,,,0.3,,,,,,,,,,,METAR,274.0
CWMM 140400Z AUTO 06003KT 04/01 RMK AO1 3014 SLP341 T00400011 50001,CWMM,2021-01-14T04:00:00Z,49.22,-122.68,4.0,1.1,60,3,,,,1034.1,,TRUE,TRUE,,,,,,,,,,,,,,,,0.1,,,,,,,,,,,METAR,2.0
CWMJ 140400Z AUTO 21003KT M01/M03 RMK AO1 SOG 15 5000 SLP061 T10071026,CWMJ,2021-01-14T04:00:00Z,46.27,-76.0,-0.7,-2.6,210,3,,,,1006.1,,TRUE,TRUE,,,,,,,,,,,,,,,,,,,,,,,,,,,METAR,198.0
CWME 140400Z AUTO 12003KT 03/02 RMK AO1 1012 SLP296 T00340021 50002,CWME,2021-01-14T04:00:00Z,52.18,-127.47,3.4,2.1,120,3,,,,1029.6,,TRUE,TRUE,,,,,,,,,,,,,,,,0.2,,,,,,,,,,,METAR,23.0
CWLY 140400Z AUTO 18009G19KT 140V220 9SM CLR 05/M02 A3045 RMK SLP318,CWLY,2021-01-14T04:00:00Z,50.22,-121.58,5.0,-2.0,180,9,19,9.0,30.448818,1031.8,,TRUE,,,,,,,,CLR,,,,,,,,VFR,,,,,,,,,,,,SPECI,228.0
CWLS 140400Z AUTO 21005KT M01/M02 RMK AO1 SOG 15 6002 SLP072 T10121020,CWLS,2021-01-14T04:00:00Z,43.97,-80.75,-1.2,-2.0,210,5,,,,1007.2,,TRUE,TRUE,,,,,,,,,,,,,,,,,,,,,,,,,,,METAR,413.0
CWLP 140400Z AUTO 13020KT 07/ RMK AO1 PK WND 13023/0400 SLP287 T0066 51003,CWLP,2021-01-14T04:00:00Z,50.93,-127.63,6.6,,130,20,,,,1028.7,,TRUE,TRUE,,,,,,,,,,,,,,,,0.3,,,,,,,,,,,METAR,15.0
CWLM 140400Z AUTO 01004KT 06/02 RMK AO1 SLP330 T00620015 53003,CWLM,2021-01-14T04:00:00Z,48.42,-123.32,6.2,1.5,10,4,,,,1033.0,,TRUE,TRUE,,,,,,,,,,,,,,,,0.3,,,,,,,,,,,METAR,62.0
CWLI 140400Z AUTO 33003KT ////SM //// OVC022 ///// A////,CWLI,2021-01-14T04:00:00Z,69.6,-130.9,,,330,3,,,,,,TRUE,,,,,,,,OVC,2200,,,,,,,,,,,,,,,,,,,SPECI,92.0
CWLC 140400Z AUTO 13022KT 06/02 RMK AO1 PK WND 13025/0358 T00550024,CWLC,2021-01-14T04:00:00Z,54.3,-130.62,5.5,2.4,130,22,,,,,,TRUE,TRUE,,,,,,,,,,,,,,,,,,,,,,,,,,,METAR,27.0
CWLB 140400Z AUTO 29013G18KT M02/M09 RMK AO1 SOG 16 3027 PK WND 29024/0316 SLP109 T10161093,CWLB,2021-01-14T04:00:00Z,54.77,-112.02,-1.6,-9.3,290,13,18,,,1010.9,,TRUE,TRUE,,,,,,,,,,,,,,,,,,,,,,,,,,,METAR,561.0
CWKX 140400Z AUTO 00000KT M12/M13 RMK AO1 SOG 38 1033 SLP239 T11151129,CWKX,2021-01-14T04:00:00Z,58.43,-130.02,-11.5,-12.9,0,0,,,,1023.9,,TRUE,TRUE,,,,,,,,,,,,,,,,,,,,,,,,,,,METAR,807.0
CWKO 140400Z AUTO 30039G57KT M02/M04 RMK AO1 PK WND 31057/0357 SLP992 T10171035 53012,CWKO,2021-01-14T04:00:00Z,49.17,-105.97,-1.7,-3.5,300,39,57,,,999.2,,TRUE,TRUE,,,,,,,,,,,,,,,,1.2,,,,,,,,,,,METAR,914.0
CWKK 140400Z AUTO 12009KT M02/M03 RMK AO1 SOG 18 8007 SLP030 T10231034,CWKK,2021-01-14T04:00:00Z,49.72,-88.33,-2.3,-3.4,120,9,,,,1003.0,,TRUE,TRUE,,,,,,,,,,,,,,,,,,,,,,,,,,,METAR,259.0
CWKH 140400Z AUTO 04/ RMK AO1 SLP318 T0035 50007,CWKH,2021-01-14T04:00:00Z,48.57,-123.55,3.5,,,,,,,1031.8,,TRUE,TRUE,,,,,,,,,,,,,,,,0.7,,,,,,,,,,,METAR,327.0
CWJX 140400Z AUTO 32028G39KT M00/M07 RMK AO1 SOG 10 1074 PK WND 31039/0353 SLP112 T10021073,CWJX,2021-01-14T04:00:00Z,50.88,-109.5,-0.2,-7.3,320,28,39,,,1011.2,,TRUE,TRUE,,,,,,,,,,,,,,,,,,,,,,,,,,,METAR,671.0
CWJW 140400Z AUTO 16002KT M07/M08 RMK AO1 SOG 18 1024 SLP247 T10731080,CWJW,2021-01-14T04:00:00Z,52.93,-118.03,-7.3,-8.0,160,2,,,,1024.7,,TRUE,TRUE,,,,,,,,,,,,,,,,,,,,,,,,,,,METAR,1022.0
CWJV 140400Z AUTO 15001KT M02/M03 RMK AO1 SLP311 T10171029 53026,CWJV,2021-01-14T04:00:00Z,50.22,-119.18,-1.7,-2.9,150,1,,,,1031.1,,TRUE,TRUE,,,,,,,,,,,,,,,,2.6,,,,,,,,,,,METAR,487.0
CWJR 140400Z AUTO 32005KT 04/M05 RMK AO1 SLP275 T00401051 52025,CWJR,2021-01-14T04:00:00Z,49.03,-116.5,4.0,-5.1,320,5,,,,1027.5,,TRUE,TRUE,,,,,,,,,,,,,,,,2.5,,,,,,,,,,,METAR,642.0
CWJO 140400Z AUTO 09004KT M02/M03 RMK AO1 SLP076 T10231033 58003,CWJO,2021-01-14T04:00:00Z,48.43,-71.15,-2.3,-3.3,90,4,,,,1007.6,,TRUE,TRUE,,,,,,,,,,,,,,,,-0.3,,,,,,,,,,,METAR,113.0
CWJH 140400Z AUTO 32003KT M04/M05 RMK AO1 3PAST HR SOG 49 1022 SLP972 P0001 T10371048 50026,CWJH,2021-01-14T04:00:00Z,56.32,-103.27,-3.7,-4.8,320,3,,,,997.2,,TRUE,TRUE,,,,,,,,,,,,,,,,2.6,,,,,0.01,,,,,,METAR,345.0
CWJD 140400Z AUTO 11002KT M03/M06 RMK AO1 SOG 26 6017 SLP893 T10261059,CWJD,2021-01-14T04:00:00Z,53.18,-99.27,-2.6,-5.9,110,2,,,,989.3,,TRUE,TRUE,,,,,,,,,,,,,,,,,,,,,,,,,,,METAR,222.0
CWJB 140400Z AUTO 23001KT M01/ RMK AO1 SOG 20 T1012,CWJB,2021-01-14T04:00:00Z,46.78,-71.28,-1.2,,230,1,,,,,,TRUE,TRUE,,,,,,,,,,,,,,,,,,,,,,,,,,,METAR,90.0
CWIZ 140400Z AUTO 19009KT M00/M02 RMK AO1 SOG 16 T10011021,CWIZ,2021-01-14T04:00:00Z,45.28,-73.33,-0.1,-2.1,190,9,,,,,,TRUE,TRUE,,,,,,,,,,,,,,,,,,,,,,,,,,,METAR,45.0
CWIW 140400Z AUTO 34035G42KT M01/M02 RMK AO1 2PAST HR PRESRR SOG 02 3077 PK WND 35050/0320 SLP915 P0001 T10051021 50017,CWIW,2021-01-14T04:00:00Z,51.67,-105.4,-0.5,-2.1,340,35,42,,,991.5,,TRUE,TRUE,,,,,,,,,,,,,,,,1.7,,,,,0.01,,,,,,METAR,524.0
CWIT 140400Z AUTO 17005KT 01/M03 RMK AO1 SOG 11 6006 SLP080 T00101031,CWIT,2021-01-14T04:00:00Z,45.17,-73.67,1.0,-3.1,170,5,,,,1008.0,,TRUE,TRUE,,,,,,,,,,,,,,,,,,,,,,,,,,,METAR,53.0
CWIS 140400Z AUTO 21006KT M06/M06 RMK AO1 SOG 20 6005 SLP072 T10571059,CWIS,2021-01-14T04:00:00Z,47.28,-70.63,-5.7,-5.9,210,6,,,,1007.2,,TRUE,TRUE,,,,,,,,,,,,,,,,,,,,,,,,,,,METAR,720.0
CWIP 140400Z AUTO 02002KT M05/M06 RMK AO1 T10481062,CWIP,2021-01-14T04:00:00Z,50.17,-66.43,-4.8,-6.2,20,2,,,,,,TRUE,TRUE,,,,,,,,,,,,,,,,,,,,,,,,,,,METAR,27.0
CWIL 140400Z AUTO 34014KT ////SM ////// M18/M20 A2942,CWIL,2021-01-14T04:00:00Z,68.32,-100.07,-18.0,-20.0,340,14,,,29.421259,,,TRUE,,,,,,,,,,,,,,,,,,,,,,,,,,,,SPECI,28.0
CWIK 140400Z AUTO 22014G20KT 01/M02 RMK AO1 SOG 04 8025 PK WND 24024/0302 SLP889 T00091020,CWIK,2021-01-14T04:00:00Z,50.37,-102.58,0.9,-2.0,220,14,20,,,988.9,,TRUE,TRUE,,,,,,,,,,,,,,,,,,,,,,,,,,,METAR,597.0
CWIJ 140400Z AUTO 00033KT M19/M21 RMK AO1 SOG 30 3032 SLP062 T11931214,CWIJ,2021-01-14T04:00:00Z,65.77,-111.23,-19.3,-21.4,0,33,,,,1006.2,,TRUE,TRUE,,,,,,,,,,,,,,,,,,,,,,,,,,,METAR,490.0
CWII 140400Z AUTO 13011KT M00/M06 RMK AO1 SLP946 T10021059 58012,CWII,2021-01-14T04:00:00Z,50.7,-96.57,-0.2,-5.9,130,11,,,,994.6,,TRUE,TRUE,,,,,,,,,,,,,,,,-1.2,,,,,,,,,,,METAR,216.0
CWIG 140400Z AUTO 25002KT RMK AO1,CWIG,2021-01-14T04:00:00Z,47.07,-70.53,,,250,2,,,,,,TRUE,TRUE,,,,,,,,,,,,,,,,,,,,,,,,,,,METAR,12.0
CWID 140400Z AUTO 28006KT M10/M11 RMK AO1 SLP097 T10961114 52052,CWID,2021-01-14T04:00:00Z,61.32,-117.6,-9.6,-11.4,280,6,,,,1009.7,,TRUE,TRUE,,,,,,,,,,,,,,,,5.2,,,,,,,,,,,METAR,160.0
CWHV 140400Z AUTO 17001KT M03/M05 RMK AO1 SLP089 T10251050 57007,CWHV,2021-01-14T04:00:00Z,46.2,-70.78,-2.5,-5.0,170,1,,,,1008.9,,TRUE,TRUE,,,,,,,,,,,,,,,,-0.7,,,,,,,,,,,METAR,227.0
CWHT 140400Z AUTO 11002KT M17/M19 RMK AO1 SOG 55 1031 SLP170 T11681187,CWHT,2021-01-14T04:00:00Z,60.77,-137.58,-16.8,-18.7,110,2,,,,1017.0,,TRUE,TRUE,,,,,,,,,,,,,,,,,,,,,,,,,,,METAR,601.0
CWHP 140400Z AUTO 23002KT RMK AO1 58001,CWHP,2021-01-14T04:00:00Z,49.08,-61.7,,,230,2,,,,,,TRUE,TRUE,,,,,,,,,,,,,,,,-0.1,,,,,,,,,,,METAR,7.0
CWHO 140400Z AUTO M08/M09 RMK AO1 SLP055 T10771089 58005,CWHO,2021-01-14T04:00:00Z,55.45,-60.22,-7.7,-8.9,,,,,,1005.5,,TRUE,TRUE,,,,,,,,,,,,,,,,-0.5,,,,,,,,,,,METAR,16.0
CWHN 140400Z AUTO 29009G16KT 260V320 9SM CLR M03/M07 A2964 RMK SLP075,CWHN,2021-01-14T04:00:00Z,54.9,-109.97,-3.0,-7.0,290,9,16,9.0,29.639763,1007.5,,TRUE,,,,,,,,CLR,,,,,,,,VFR,,,,,,,,,,,,METAR,635.0
CWHL 140400Z AUTO 13013KT 05/02 RMK AO1 PK WND 16018/0329 SLP251 T00530016 51012,CWHL,2021-01-14T04:00:00Z,54.17,-130.35,5.3,1.6,130,13,,,,1025.1,,TRUE,TRUE,,,,,,,,,,,,,,,,1.2,,,,,,,,,,,METAR,5.0
CWHI 140400Z AUTO 27011KT M06/M11 RMK AO1 T10601112,CWHI,2021-01-14T04:00:00Z,51.7,-113.22,-6.0,-11.2,270,11,,,,,,TRUE,TRUE,,,,,,,,,,,,,,,,,,,,,,,,,,,METAR,906.0
CWGY 140400Z AUTO 28023G32KT M01/M07 RMK AO1 PK WND 29035/0314 SLP120 T10051071 51064,CWGY,2021-01-14T04:00:00Z,51.67,-110.2,-0.5,-7.1,280,23,32,,,1012.0,,TRUE,TRUE,,,,,,,,,,,,,,,,6.4,,,,,,,,,,,METAR,709.0
CWGX 140400Z AUTO 13003KT M03/M03 RMK AO1 SOG 43 8011 SLP964 T10251034 50001,CWGX,2021-01-14T04:00:00Z,56.35,-94.7,-2.5,-3.4,130,3,,,,996.4,,TRUE,TRUE,,,,,,,,,,,,,,,,0.1,,,,,,,,,,,METAR,145.0
CWGW 140400Z AUTO 19004KT M00/M08 RMK AO1 SOG 23 3029 SLP234 T10021078,CWGW,2021-01-14T04:00:00Z,49.75,-114.9,-0.2,-7.8,190,4,,,,1023.4,,TRUE,TRUE,,,,,,,,,,,,,,,,,,,,,,,,,,,METAR,1137.0
CWGT 140400Z AUTO 14004KT 07/03 RMK AO1 SLP319 T00720027 50011,CWGT,2021-01-14T04:00:00Z,49.48,-124.43,7.2,2.7,140,4,,,,1031.9,,TRUE,TRUE,,,,,,,,,,,,,,,,1.1,,,,,,,,,,,METAR,5.0
CWGR 140400Z AUTO 19006KT M01/M04 RMK AO1 SLP128 T10061035 58005,CWGR,2021-01-14T04:00:00Z,47.42,-61.77,-0.6,-3.5,190,6,,,,1012.8,,TRUE,TRUE,,,,,,,,,,,,,,,,-0.5,,,,,,,,,,,METAR,4.0
CWGM 140400Z AUTO 25019G32KT M00/M11 RMK AO1 PK WND 25032/0358 T10011109,CWGM,2021-01-14T04:00:00Z,49.13,-113.8,-0.1,-10.9,250,19,32,,,,,TRUE,TRUE,,,,,,,,,,,,,,,,,,,,,,,,,,,METAR,1292.0
CWGL 140400Z AUTO 19007KT 01/M01 RMK AO1 SLP046 T00071007 55005,CWGL,2021-01-14T04:00:00Z,44.53,-79.22,0.7,-0.7,190,7,,,,1004.6,,TRUE,TRUE,,,,,,,,,,,,,,,,-0.5,,,,,,,,,,,METAR,220.0
CWGH 140400Z AUTO 18007KT 01/M03 RMK AO1 SLP080 T00111029 58009,CWGH,2021-01-14T04:00:00Z,44.42,-75.85,1.1,-2.9,180,7,,,,1008.0,,TRUE,TRUE,,,,,,,,,,,,,,,,-0.9,,,,,,,,,,,METAR,76.0
CWGD 140400Z AUTO 25002KT 02/M00 RMK AO1 SOG 01 5000 SLP078 T00161002,CWGD,2021-01-14T04:00:00Z,43.77,-81.72,1.6,-0.2,250,2,,,,1007.8,,TRUE,TRUE,,,,,,,,,,,,,,,,,,,,,,,,,,,METAR,214.0
CWGB 140400Z AUTO 14006KT 06/ RMK AO1 SLP319 T0063 50010,CWGB,2021-01-14T04:00:00Z,49.35,-124.13,6.3,,140,6,,,,1031.9,,TRUE,TRUE,,,,,,,,,,,,,,,,1.0,,,,,,,,,,,METAR,6.0
CWFQ 140400Z AUTO 18005KT M01/M04 RMK AO1 SOG 18 5006 SLP089 T10091041,CWFQ,2021-01-14T04:00:00Z,45.03,-72.85,-0.9,-4.1,180,5,,,,1008.9,,TRUE,TRUE,,,,,,,,,,,,,,,,,,,,,,,,,,,METAR,190.0
CWFJ 140400Z AUTO 28014G23KT 01/M10 RMK AO1 PK WND 26023/0355 T00071102,CWFJ,2021-01-14T04:00:00Z,49.2,-113.27,0.7,-10.2,280,14,23,,,,,TRUE,TRUE,,,,,,,,,,,,,,,,,,,,,,,,,,,METAR,1142.0
CWFF 140400Z AUTO 35024G34KT M03/M04 RMK AO1 2PAST HR SOG 31 1063 PK WND 35034/0351 SLP910 P0001 T10311041 50002,CWFF,2021-01-14T04:00:00Z,52.82,-104.6,-3.1,-4.1,350,24,34,,,991.0,,TRUE,TRUE,,,,,,,,,,,,,,,,0.2,,,,,0.01,,,,,,METAR,482.0
CWEZ 140400Z AUTO 23005KT 07/03 RMK AO1 SLP322 T00680029 50004,CWEZ,2021-01-14T04:00:00Z,48.78,-123.05,6.8,2.9,230,5,,,,1032.2,,TRUE,TRUE,,,,,,,,,,,,,,,,0.4,,,,,,,,,,,METAR,23.0
CWEW 140400Z AUTO 17005KT M00/M01 RMK AO1 2PAST HR SOG 09 6003 SLP089 P0001 T10011012 50002,CWEW,2021-01-14T04:00:00Z,45.82,-73.43,-0.1,-1.2,170,5,,,,1008.9,,TRUE,TRUE,,,,,,,,,,,,,,,,0.2,,,,,0.01,,,,,,METAR,17.0
CWER 140400Z AUTO 30004KT RMK AO1,CWER,2021-01-14T04:00:00Z,47.0,-70.82,,,300,4,,,,,,TRUE,TRUE,,,,,,,,,,,,,,,,,,,,,,,,,,,METAR,4.0
CWEQ 140400Z AUTO 26004KT M01/M02 RMK AO1 SOG 03 5007 SLP879 T10111019 50001,CWEQ,2021-01-14T04:00:00Z,52.12,-101.22,-1.1,-1.9,260,4,,,,987.9,,TRUE,TRUE,,,,,,,,,,,,,,,,0.1,,,,,,,,,,,METAR,331.0
CWEL 140400Z AUTO 18003KT 05/03 RMK AO1 SLP324 T00510029 50010,CWEL,2021-01-14T04:00:00Z,49.22,-123.8,5.1,2.9,180,3,,,,1032.4,,TRUE,TRUE,,,,,,,,,,,,,,,,1.0,,,,,,,,,,,METAR,0.0
CWEK 140400Z AUTO 15017KT 06/02 RMK AO1 1019 PK WND 16023/0322 T00580021 50004,CWEK,2021-01-14T04:00:00Z,54.58,-130.7,5.8,2.1,150,17,,,,,,TRUE,TRUE,,,,,,,,,,,,,,,,0.4,,,,,,,,,,,METAR,8.0
CWEB 140400Z AUTO 12007KT 05/05 RMK AO1 SLP309 T00500046 51003,CWEB,2021-01-14T04:00:00Z,49.38,-126.55,5.0,4.6,120,7,,,,1030.9,,TRUE,TRUE,,,,,,,,,,,,,,,,0.3,,,,,,,,,,,METAR,1.0
CWDZ 140400Z AUTO 32007KT M01/M09 RMK AO1 SLP172 T10071093 51036,CWDZ,2021-01-14T04:00:00Z,51.43,-112.67,-0.7,-9.3,320,7,,,,1017.2,,TRUE,TRUE,,,,,,,,,,,,,,,,3.6,,,,,,,,,,,METAR,689.0
CWDV 140400Z AUTO 16003KT M04/M04 RMK AO1 SOG 33 8002 SLP038 T10391043,CWDV,2021-01-14T04:00:00Z,49.02,-90.47,-3.9,-4.3,160,3,,,,1003.8,,TRUE,TRUE,,,,,,,,,,,,,,,,,,,,,,,,,,,METAR,487.0
CWDQ 140400Z AUTO 16002KT M02/M02 RMK AO1 SOG 10 6003 SLP068 T10161022,CWDQ,2021-01-14T04:00:00Z,47.42,-72.78,-1.6,-2.2,160,2,,,,1006.8,,TRUE,TRUE,,,,,,,,,,,,,,,,,,,,,,,,,,,METAR,174.0
CWDO 140400Z AUTO 25005KT M02/M05 RMK AO1 SLP117 T10171052 50000,CWDO,2021-01-14T04:00:00Z,49.68,-54.78,-1.7,-5.2,250,5,,,,1011.7,,TRUE,TRUE,,,,,,,,,,,,,,,,0.0,,,,,,,,,,,METAR,89.0
CWDM 140400Z AUTO 00000KT M09/M10 RMK AO1 SLP113 T10921099 58001,CWDM,2021-01-14T04:00:00Z,50.47,-59.63,-9.2,-9.9,0,0,,,,1011.3,,TRUE,TRUE,,,,,,,,,,,,,,,,-0.1,,,,,,,,,,,METAR,2.0
CWDK 140400Z AUTO 26009KT M01/M08 RMK AO1 PK WND 27017/0304 SLP185 T10081083 51024,CWDK,2021-01-14T04:00:00Z,50.02,-113.62,-0.8,-8.3,260,9,,,,1018.5,,TRUE,TRUE,,,,,,,,,,,,,,,,2.4,,,,,,,,,,,METAR,1014.0
CWDJ 140400Z AUTO 31035G42KT M01/M03 RMK AO1 2PAST HR SOG 01 5002 PK WND 30043/0340 SLP890 P0001 T10141034 50005,CWDJ,2021-01-14T04:00:00Z,50.4,-104.58,-1.4,-3.4,310,35,42,,,989.0,,TRUE,TRUE,,,,,,,,,,,,,,,,0.5,,,,,0.01,,,,,,METAR,576.0
CWDC 140400Z AUTO M06/M07 RMK AO1 SOG 56 3016 SLP986 T10581067,CWDC,2021-01-14T04:00:00Z,59.57,-108.48,-5.8,-6.7,,,,,,998.6,,TRUE,TRUE,,,,,,,,,,,,,,,,,,,,,,,,,,,METAR,311.0
CWCT 140400Z AUTO 30027KT M01/M08 RMK AO1 SOG 01 1042 PK WND 30034/0326 SLP136 T10131075,CWCT,2021-01-14T04:00:00Z,52.07,-111.43,-1.3,-7.5,300,27,,,,1013.6,,TRUE,TRUE,,,,,,,,,,,,,,,,,,,,,,,,,,,METAR,793.0
CWCO 140400Z AUTO 29004KT 03/M01 RMK AO1 SLP062 T00261008 55001,CWCO,2021-01-14T04:00:00Z,44.5,-80.22,2.6,-0.8,290,4,,,,1006.2,,TRUE,TRUE,,,,,,,,,,,,,,,,-0.1,,,,,,,,,,,METAR,182.0
CWCJ 140400Z AUTO 10002KT M01/M04 RMK AO1 SOG 20 0001 SLP055 T10101043,CWCJ,2021-01-14T04:00:00Z,48.6,-86.28,-1.0,-4.3,100,2,,,,1005.5,,TRUE,TRUE,,,,,,,,,,,,,,,,,,,,,,,,,,,METAR,207.0
CWCF 140400Z AUTO 13011KT M00/M06 RMK AO1 SOG 27 6018 PK WND 12018/0314 SLP925 T10041062,CWCF,2021-01-14T04:00:00Z,52.35,-97.03,-0.4,-6.2,130,11,,,,992.5,,TRUE,TRUE,,,,,,,,,,,,,,,,,,,,,,,,,,,METAR,219.0
CWBZ 140400Z AUTO 21005KT 01/M02 RMK AO1 SLP074 T00101022 58007,CWBZ,2021-01-14T04:00:00Z,45.12,-74.28,1.0,-2.2,210,5,,,,1007.4,,TRUE,TRUE,,,,,,,,,,,,,,,,-0.7,,,,,,,,,,,METAR,49.0
CWBY 140400Z AUTO 14003KT M03/M04 RMK AO1 SOG 02 8004 SLP104 T10291040,CWBY,2021-01-14T04:00:00Z,49.83,-64.28,-2.9,-4.0,140,3,,,,1010.4,,TRUE,TRUE,,,,,,,,,,,,,,,,,,,,,,,,,,,METAR,56.0
CWBV 140400Z AUTO 19012KT 01/M03 RMK AO1 T00071027,CWBV,2021-01-14T04:00:00Z,44.82,-62.33,0.7,-2.7,190,12,,,,,,TRUE,TRUE,,,,,,,,,,,,,,,,,,,,,,,,,,,METAR,16.0
CWBU 140400Z AUTO 35005KT M03/M04 RMK AO1 5PAST HR PRESRR SOG 24 3059 SLP923 P0002 T10301043 50005,CWBU,2021-01-14T04:00:00Z,53.33,-104.02,-3.0,-4.3,350,5,,,,992.3,,TRUE,TRUE,,,,,,,,,,,,,,,,0.5,,,,,0.02,,,,,,METAR,369.0
CWBT 140400Z AUTO 06003KT M05/M06 RMK AO1 2PAST HR 8005 SLP103 P0001 T10531055 50002,CWBT,2021-01-14T04:00:00Z,50.27,-64.23,-5.3,-5.5,60,3,,,,1010.3,,TRUE,TRUE,,,,,,,,,,,,,,,,0.2,,,,,0.01,,,,,,METAR,12.0
CWBS 140400Z AUTO 19015KT M00/M02 RMK AO1 PK WND 19018/0341 T10041022,CWBS,2021-01-14T04:00:00Z,46.18,-72.92,-0.4,-2.2,190,15,,,,,,TRUE,TRUE,,,,,,,,,,,,,,,,,,,,,,,,,,,METAR,3.0
CWBK 140400Z AUTO 19007KT M02/M05 RMK AO1 SLP137 T10151050 58004,CWBK,2021-01-14T04:00:00Z,45.77,-62.67,-1.5,-5.0,190,7,,,,1013.7,,TRUE,TRUE,,,,,,,,,,,,,,,,-0.4,,,,,,,,,,,METAR,2.0
CWBE 140400Z AUTO 30005KT M00/M02 RMK AO1 SLP056 T10041019 53001,CWBE,2021-01-14T04:00:00Z,45.98,-81.48,-0.4,-1.9,300,5,,,,1005.6,,TRUE,TRUE,,,,,,,,,,,,,,,,0.1,,,,,,,,,,,METAR,188.0
CWBA 140400Z AUTO 27004KT 01/M01 RMK AO1 SOG 30 T00081008,CWBA,2021-01-14T04:00:00Z,46.72,-79.1,0.8,-0.8,270,4,,,,,,TRUE,TRUE,,,,,,,,,,,,,,,,,,,,,,,,,,,METAR,181.0
CWAV 140400Z AUTO 26005KT M05/M15 RMK AO1 SOG 12 3029 SLP198 T10481151,CWAV,2021-01-14T04:00:00Z,51.77,-114.67,-4.8,-15.1,260,5,,,,1019.8,,TRUE,TRUE,,,,,,,,,,,,,,,,,,,,,,,,,,,METAR,1115.0
CWAQ 140400Z AUTO 29036G47KT M01/M02 RMK AO1 PK WND 28047/0359 SLP978 T10071023 53011,CWAQ,2021-01-14T04:00:00Z,49.05,-105.48,-0.7,-2.3,290,36,47,,,997.8,,TRUE,TRUE,,,,,,,,,,,,,,,,1.1,,,,,,,,,,,METAR,761.0
CWAJ 140400Z AUTO 22006KT 03/01 RMK AO1 SLP075 T00300012 56003,CWAJ,2021-01-14T04:00:00Z,42.25,-81.9,3.0,1.2,220,6,,,,1007.5,,TRUE,TRUE,,,,,,,,,,,,,,,,-0.3,,,,,,,,,,,METAR,177.0
CWAF 140400Z AUTO 20013KT M00/M03 RMK AO1 T10011034,CWAF,2021-01-14T04:00:00Z,48.07,-69.55,-0.1,-3.4,200,13,,,,,,TRUE,TRUE,,,,,,,,,,,,,,,,,,,,,,,,,,,METAR,6.0
CTRA 140400Z AUTO 16004KT M05/M06 RMK AO1 SOG 21 6019 SLP003 T10461063,CTRA,2021-01-14T04:00:00Z,49.67,-93.73,-4.6,-6.3,160,4,,,,1000.3,,TRUE,TRUE,,,,,,,,,,,,,,,,,,,,,,,,,,,METAR,432.0
CTNK 140400Z AUTO 00000KT M01/M02 RMK AO1 SOG 33 5001 SLP056 T10121021,CTNK,2021-01-14T04:00:00Z,45.53,-78.27,-1.2,-2.1,0,0,,,,1005.6,,TRUE,TRUE,,,,,,,,,,,,,,,,,,,,,,,,,,,METAR,405.0
CTCK 140400Z AUTO 19003KT M00/M01 RMK AO1 SOG 08 6004 SLP076 T10021012,CTCK,2021-01-14T04:00:00Z,45.25,-74.97,-0.2,-1.2,190,3,,,,1007.6,,TRUE,TRUE,,,,,,,,,,,,,,,,,,,,,,,,,,,METAR,84.0
CPXL 140400Z AUTO 31007KT 01/M11 RMK AO1 T00101111,CPXL,2021-01-14T04:00:00Z,49.87,-111.38,1.0,-11.1,310,7,,,,,,TRUE,TRUE,,,,,,,,,,,,,,,,,,,,,,,,,,,METAR,801.0
CPSV 140400Z AUTO 30018KT 01/M08 RMK AO1 PK WND 31026/0300 T00091078,CPSV,2021-01-14T04:00:00Z,49.92,-110.92,0.9,-7.8,300,18,,,,,,TRUE,TRUE,,,,,,,,,,,,,,,,,,,,,,,,,,,METAR,766.0
CPST 140400Z AUTO 31010KT M03/M10 RMK AO1 T10271095,CPST,2021-01-14T04:00:00Z,51.03,-113.28,-2.7,-9.5,310,10,,,,,,TRUE,TRUE,,,,,,,,,,,,,,,,,,,,,,,,,,,METAR,1005.0
CPRY 140400Z AUTO 25007KT 01/M06 RMK AO1 PK WND 27023/0300 T00091055,CPRY,2021-01-14T04:00:00Z,49.48,-112.68,0.9,-5.5,250,7,,,,,,TRUE,TRUE,,,,,,,,,,,,,,,,,,,,,,,,,,,METAR,947.0
CPRO 140400Z AUTO 29014KT M02/M08 RMK AO1 PK WND 30024/0305 T10231075,CPRO,2021-01-14T04:00:00Z,50.83,-112.05,-2.3,-7.5,290,14,,,,,,TRUE,TRUE,,,,,,,,,,,,,,,,,,,,,,,,,,,METAR,733.0
CPIR 140400Z AUTO 27010KT M00/M03 RMK AO1 PK WND 28017/0302 T10041034,CPIR,2021-01-14T04:00:00Z,49.9,-112.73,-0.4,-3.4,270,10,,,,,,TRUE,TRUE,,,,,,,,,,,,,,,,,,,,,,,,,,,METAR,895.0
CPFI 140400Z AUTO 28009KT M00/M04 RMK AO1 PK WND 30017/0319 T10011040,CPFI,2021-01-14T04:00:00Z,49.8,-112.03,-0.1,-4.0,280,9,,,,,,TRUE,TRUE,,,,,,,,,,,,,,,,,,,,,,,,,,,METAR,804.0
CPEH 140400Z AUTO 28008KT M01/M10 RMK AO1 PK WND 31017/0301 T10071097,CPEH,2021-01-14T04:00:00Z,50.18,-112.43,-0.7,-9.7,280,8,,,,,,TRUE,TRUE,,,,,,,,,,,,,,,,,,,,,,,,,,,METAR,814.0
CMGB 140400Z AUTO 19004KT M00/M03 RMK AO1 SOG 13 6007 SLP088 T10041032,CMGB,2021-01-14T04:00:00Z,45.37,-72.77,-0.4,-3.2,190,4,,,,1008.8,,TRUE,TRUE,,,,,,,,,,,,,,,,,,,,,,,,,,,METAR,87.0
CMFM 140400Z AUTO 22005KT M05/M06 RMK AO1 4PAST HR SOG 22 6004 SLP064 P0002 T10461057 50007,CMFM,2021-01-14T04:00:00Z,47.32,-71.15,-4.6,-5.7,220,5,,,,1006.4,,TRUE,TRUE,,,,,,,,,,,,,,,,0.7,,,,,0.02,,,,,,METAR,663.0
CBBC 140400Z AUTO /////KT 9SM SCT025 BKN034 04/03 A3036 RMK WND MISG SLP283,CBBC,2021-01-14T04:00:00Z,52.18,-128.15,4.0,3.0,,,,9.0,30.360237,1028.3,,TRUE,,,,,,,,SCT,2500,BKN,3400,,,,,VFR,,,,,,,,,,,,METAR,36.0
CAHR 140400Z AUTO 19005KT M02/M04 RMK AO1 SOG 08 8005 SLP130 T10191042,CAHR,2021-01-14T04:00:00Z,46.35,-63.17,-1.9,-4.2,190,5,,,,1013.0,,TRUE,TRUE,,,,,,,,,,,,,,,,,,,,,,,,,,,METAR,52.0
BIRK 140400Z 11009KT 9999 SCT022 BKN055 04/01 Q1006,BIRK,2021-01-14T04:00:00Z,64.13,-21.93,4.0,1.0,110,9,,6.21,29.704725,,,,,,,,,,,SCT,2200,BKN,5500,,,,,VFR,,,,,,,,,,,,METAR,12.0
BIKF 140400Z 15012KT 9999 FEW023 03/01 Q1005,BIKF,2021-01-14T04:00:00Z,63.98,-22.6,3.0,1.0,150,12,,6.21,29.675198,,,,,,,,,,,FEW,2300,,,,,,,VFR,,,,,,,,,,,,METAR,49.0
BIEG 140400Z 00000KT 9999 FEW024 BKN035 BKN049 05/01 Q1012 R04/190095,BIEG,2021-01-14T04:00:00Z,65.27,-14.4,5.0,1.0,0,0,,6.21,29.88189,,,,,,,,,,,FEW,2400,BKN,3500,BKN,4900,,,VFR,,,,,,,,,,,,METAR,20.0
BIAR 140400Z 15004KT 120V210 9999 DZ OVC042 03/M00 Q1009,BIAR,2021-01-14T04:00:00Z,65.67,-18.07,3.0,0.0,150,4,,6.21,29.793306,,,,,,,,,,DZ,OVC,4200,,,,,,,VFR,,,,,,,,,,,,METAR,1.0
AYPY 140400Z 29012KT 9999 SCT030 BKN080 32/25 Q1004,AYPY,2021-01-14T04:00:00Z,-9.43,147.22,32.0,25.0,290,12,,6.21,29.64567,,,,,,,,,,,SCT,3000,BKN,8000,,,,,VFR,,,,,,,,,,,,METAR,44.0
AYNZ 140400Z 08010KT 9999 FEW035 BKN070 34/23 Q1003,AYNZ,2021-01-14T04:00:00Z,-6.57,146.72,34.0,23.0,80,10,,6.21,29.616142,,,,,,,,,,,FEW,3500,BKN,7000,,,,,VFR,,,,,,,,,,,,METAR,74.0
AYMH 140400Z 27010G20KT 9999 -SHRA BKN030 /// Q1014,AYMH,2021-01-14T04:00:00Z,-5.83,144.3,,,270,10,20,6.21,29.940945,,,,,,,,,,-SHRA,BKN,3000,,,,,,,MVFR,,,,,,,,,,,,METAR,1634.0
ANYN 140400Z 07010KT 9999 FEW020 31/24 Q1006,ANYN,2021-01-14T04:00:00Z,-0.55,166.92,31.0,24.0,70,10,,6.21,29.704725,,,,,,,,,,,FEW,2000,,,,,,,VFR,,,,,,,,,,,,METAR,7.0
AGGM 140400Z 05008KT 9999 SCT018 FEW019CB BKN100 29/25 Q1006,AGGM,2021-01-14T04:00:00Z,-8.32,157.27,29.0,25.0,50,8,,6.21,29.704725,,,,,,,,,,,SCT,1800,FEW,1900,BKN,10000,,,VFR,,,,,,,,,,,,METAR,6.0
AGGH 140400Z METAR ,AGGH,2021-01-14T04:00:00Z,-9.42,160.05,,,,,,,,,,,,,,,,,,,,,,,,,,,,,,,,,,,,,,METAR,6.0
MUCF 140359Z AUTO 05003KT 22/21 Q1016,MUCF,2021-01-14T03:59:00Z,22.15,-80.4,22.0,21.0,50,3,,,30.0,,,TRUE,,,,,,,,,,,,,,,,,,,,,,,,,,,,METAR,35.0
MTPP 140359Z AUTO 12008KT 8000 ////// 25/21 Q1014 A2996 NOSIG,MTPP,2021-01-14T03:59:00Z,18.57,-72.3,25.0,21.0,120,8,,4.97,29.940945,,,TRUE,,,TRUE,,,,,,,,,,,,,,,,,,,,,,,,,METAR,36.0
KP92 140359Z AUTO 00000KT 07/06 A3010 RMK AO1 SLP192 T00720061,KP92,2021-01-14T03:59:00Z,29.57,-91.53,7.2,6.1,0,0,,,30.100393,1019.2,,TRUE,TRUE,,,,,,,,,,,,,,,,,,,,,,,,,,,METAR,1.0
KNOZ 140359Z AUTO 32006KT 10SM CLR 13/M10 A3016 RMK AO2 SLP163 T01331100 $,KNOZ,2021-01-14T03:59:00Z,32.53,-114.5,13.3,-10.0,320,6,,10.0,30.159449,1016.3,,TRUE,TRUE,TRUE,,,,,,CLR,,,,,,,,VFR,,,,,,,,,,,,METAR,78.0
KNGU 140359Z 20006KT 10SM CLR 06/M02 A2994 RMK AO2 SLP139 I1000 T00561017 $,KNGU,2021-01-14T03:59:00Z,36.93,-76.27,5.6,-1.7,200,6,,10.0,29.940945,1013.9,,,TRUE,TRUE,,,,,,CLR,,,,,,,,VFR,,,,,,,,,,,,METAR,3.0
KEGI 140359Z 31006KT 7SM CLR 02/00 A3009 RMK SLP195 WND DATA ESTMD ALSTG/SLP ESTMD,KEGI,2021-01-14T03:59:00Z,30.65,-86.52,2.0,0.0,310,6,,7.0,30.088583,1019.5,,,,,,,,,,CLR,,,,,,,,VFR,,,,,,,,,,,,SPECI,59.0
KAFF 140359Z AUTO 29013G26KT 10SM CLR 09/M06 A2990 RMK AO2 WSHFT 58 SLP087,KAFF,2021-01-14T03:59:00Z,38.97,-104.82,9.0,-6.0,290,13,26,10.0,29.899607,1008.7,,TRUE,TRUE,,,,,,,CLR,,,,,,,,VFR,,,,,,,,,,,,METAR,2003.0
RKSY 140358Z AUTO 06003KT 9999 CLR 04/M11 A3018 RMK AO2 SLPNO T00431111 $,RKSY,2021-01-14T03:58:00Z,37.52,126.97,4.3,-11.1,60,3,,6.21,30.180119,,,TRUE,TRUE,TRUE,,,,,,CLR,,,,,,,,VFR,,,,,,,,,,,,SPECI,16.0
RKSO 140358Z 06006KT 7SM CLR 06/M09 A3017 RMK AO2A SLPNO T00601092 $,RKSO,2021-01-14T03:58:00Z,37.08,127.02,6.0,-9.2,60,6,,7.0,30.171259,,,,TRUE,TRUE,,,,,,CLR,,,,,,,,VFR,,,,,,,,,,,,SPECI,10.0
PWAK 140358Z AUTO 06013KT 9999 FEW029 29/20 A2995 RMK AO2 SLPNO T02880202 $,PWAK,2021-01-14T03:58:00Z,19.28,166.62,28.8,20.2,60,13,,6.21,29.949802,,,TRUE,TRUE,TRUE,,,,,,FEW,2900,,,,,,,VFR,,,,,,,,,,,,METAR,7.0
PHSF 140358Z AUTO 15003KT 10SM FEW006 13/12 A3030 RMK AO2 SLPNO T01290115 $,PHSF,2021-01-14T03:58:00Z,19.77,-155.55,12.9,11.5,150,3,,10.0,30.301182,,,TRUE,TRUE,TRUE,,,,,,FEW,600,,,,,,,VFR,,,,,,,,,,,,METAR,1863.0
PASY 140358Z AUTO 05013KT 7SM BKN036 M02/M08 A2956 RMK AO2 SLPNO T10161080 PNO FZRANO $,PASY,2021-01-14T03:58:00Z,52.72,174.12,-1.6,-8.0,50,13,,7.0,29.56004,,,TRUE,TRUE,TRUE,,,TRUE,,,BKN,3600,,,,,,,VFR,,,,,,,,,,,,METAR,6.0
PAFB 140358Z VRB01KT 10SM SCT100 BKN200 M20/M23 A2969 RMK AO2A SLP078 WND DATA ESTMD ALSTG/SLP ESTMD T12001226 $,PAFB,2021-01-14T03:58:00Z,64.83,-147.62,-20.0,-22.6,0,1,,10.0,29.68996,1007.8,,,TRUE,TRUE,,,,,,SCT,10000,BKN,20000,,,,,VFR,,,,,,,,,,,,METAR,137.0
OKAS 140358Z 22007KT 9999 BKN250 09/M01 A3002 RMK AO2A SLP166 T00921010 $,OKAS,2021-01-14T03:58:00Z,29.35,47.52,9.2,-1.0,220,7,,6.21,30.02067,1016.6,,,TRUE,TRUE,,,,,,BKN,25000,,,,,,,VFR,,,,,,,,,,,,METAR,144.0
OAIX 140358Z 25004KT 9000 HZ SCT290 M01/M08 A3019 RMK AO2A SLP215 T10081076 $,OAIX,2021-01-14T03:58:00Z,34.95,69.27,-0.8,-7.6,250,4,,5.59,30.188976,1021.5,,,TRUE,TRUE,,,,,HZ,SCT,29000,,,,,,,VFR,,,,,,,,,,,,METAR,1480.0
KVBG 140358Z AUTO 06011KT 10SM CLR 19/00 A3021 RMK AO2 SLP233 T01911004,KVBG,2021-01-14T03:58:00Z,34.73,-120.58,19.1,-0.4,60,11,,10.0,30.209646,1023.3,,TRUE,TRUE,,,,,,,CLR,,,,,,,,VFR,,,,,,,,,,,,SPECI,96.0
KTCM 140358Z AUTO 12003KT 10SM CLR 03/02 A3051 RMK AO2 SLP338 T00310024 $,KTCM,2021-01-14T03:58:00Z,47.13,-122.47,3.1,2.4,120,3,,10.0,30.510826,1033.8,,TRUE,TRUE,TRUE,,,,,,CLR,,,,,,,,VFR,,,,,,,,,,,,METAR,87.0
KT70 140358Z AUTO 14006KT 10SM CLR 08/M01 A2998 RMK AO2 SLP153 T00821006 $,KT70,2021-01-14T03:58:00Z,29.12,-100.48,8.2,-0.6,140,6,,10.0,29.97933,1015.3,,TRUE,TRUE,TRUE,,,,,,CLR,,,,,,,,VFR,,,,,,,,,,,,METAR,296.0
KSXS 140358Z AUTO 30004KT 10SM CLR 04/M00 A3006 RMK AO2 SLP183 T00381003,KSXS,2021-01-14T03:58:00Z,31.37,-85.85,3.8,-0.3,300,4,,10.0,30.059055,1018.3,,TRUE,TRUE,,,,,,,CLR,,,,,,,,VFR,,,,,,,,,,,,METAR,120.0
KSUU 140358Z AUTO 02009KT 10SM CLR 12/10 A3038 RMK AO2 SLP295 T01210097 $,KSUU,2021-01-14T03:58:00Z,38.27,-121.93,12.1,9.7,20,9,,10.0,30.380905,1029.5,,TRUE,TRUE,TRUE,,,,,,CLR,,,,,,,,VFR,,,,,,,,,,,,METAR,9.0
KSLI 140358Z 00000KT 10SM BKN250 13/03 A3016 RMK AO2A SLP216 T01250032,KSLI,2021-01-14T03:58:00Z,33.78,-118.03,12.5,3.2,0,0,,10.0,30.159449,1021.6,,,TRUE,,,,,,,BKN,25000,,,,,,,VFR,,,,,,,,,,,,METAR,8.0
KSKA 140358Z 23013KT 10SM CLR 00/M03 A3040 RMK AO2A SLP320 T10021034 $,KSKA,2021-01-14T03:58:00Z,47.62,-117.67,-0.2,-3.4,230,13,,10.0,30.398623,1032.0,,,TRUE,TRUE,,,,,,CLR,,,,,,,,VFR,,,,,,,,,,,,METAR,754.0
KSEQ 140358Z AUTO 20009KT 10SM CLR 08/02 A3007 RMK AO2 SLP185 T00780019,KSEQ,2021-01-14T03:58:00Z,29.57,-97.9,7.8,1.9,200,9,,10.0,30.070866,1018.5,,TRUE,TRUE,,,,,,,CLR,,,,,,,,VFR,,,,,,,,,,,,METAR,160.0
KROG 140358Z AUTO 20010KT 10SM CLR 07/M02 A2979 RMK AO2 SLP088 T00721017,KROG,2021-01-14T03:58:00Z,36.37,-94.1,7.2,-1.7,200,10,,10.0,29.790354,1008.8,,TRUE,TRUE,,,,,,,CLR,,,,,,,,VFR,,,,,,,,,,,,METAR,407.0
KRIV 140358Z AUTO 00000KT 10SM CLR 11/M02 A3018 RMK AO2 SLP218 T01141024,KRIV,2021-01-14T03:58:00Z,33.87,-117.23,11.4,-2.4,0,0,,10.0,30.180119,1021.8,,TRUE,TRUE,,,,,,,CLR,,,,,,,,VFR,,,,,,,,,,,,METAR,454.0
KPRN 140358Z AUTO 35003KT 10SM CLR 01/M03 A3006 RMK AO2 SLP129 T00061028,KPRN,2021-01-14T03:58:00Z,31.85,-86.62,0.6,-2.8,350,3,,10.0,30.059055,1012.9,,TRUE,TRUE,,,,,,,CLR,,,,,,,,VFR,,,,,,,,,,,,METAR,137.0
KPOE 140358Z AUTO 19006KT 10SM CLR 06/02 A3008 RMK AO2 SLP189 T00630022,KPOE,2021-01-14T03:58:00Z,31.05,-93.2,6.3,2.2,190,6,,10.0,30.079725,1018.9,,TRUE,TRUE,,,,,,,CLR,,,,,,,,VFR,,,,,,,,,,,,METAR,98.0
KMUO 140358Z AUTO 31004KT 10SM CLR M01/M01 A3047 RMK AO2 SLP338 T10071007 $,KMUO,2021-01-14T03:58:00Z,43.03,-115.87,-0.7,-0.7,310,4,,10.0,30.469488,1033.8,,TRUE,TRUE,TRUE,,,,,,CLR,,,,,,,,VFR,,,,,,,,,,,,METAR,915.0
KMRH 140358Z AUTO 00000KT 10SM FEW042 BKN110 07/07 A2995 RMK AO2 SLP143 I1000 T00720067 TSNO,KMRH,2021-01-14T03:58:00Z,34.73,-76.65,7.2,6.7,0,0,,10.0,29.949802,1014.3,,TRUE,TRUE,,,TRUE,,,,FEW,4200,BKN,11000,,,,,VFR,,,,,,,,,,,,METAR,2.0
KMEI 140358Z 00000KT 10SM CLR M01/M03 A3005 RMK AO2 SLP176 I1003 T10111028,KMEI,2021-01-14T03:58:00Z,32.33,-88.75,-1.1,-2.8,0,0,,10.0,30.050198,1017.6,,,TRUE,,,,,,,CLR,,,,,,,,VFR,,,,,,,,,,,,METAR,90.0
KLUF 140358Z AUTO 32006KT 10SM CLR 10/M01 A3014 RMK AO2 SLP208 T00971014,KLUF,2021-01-14T03:58:00Z,33.53,-112.37,9.7,-1.4,320,6,,10.0,30.138779,1020.8,,TRUE,TRUE,,,,,,,CLR,,,,,,,,VFR,,,,,,,,,,,,METAR,333.0
KLSV 140358Z 07003KT 10SM CLR 08/M12 A3024 RMK AO2A SLPNO WND DATA ESTMD ALSTG/SLP ESTMD T00831125 $,KLSV,2021-01-14T03:58:00Z,36.23,-115.05,8.3,-12.5,70,3,,10.0,30.239174,,,,TRUE,TRUE,,,,,,CLR,,,,,,,,VFR,,,,,,,,,,,,METAR,563.0
KLOR 140358Z AUTO 00000KT 10SM CLR 00/M00 A3007 RMK AO2 SLP168 T00021003 FZRANO,KLOR,2021-01-14T03:58:00Z,31.35,-85.75,0.2,-0.3,0,0,,10.0,30.070866,1016.8,,TRUE,TRUE,,,,TRUE,,,CLR,,,,,,,,VFR,,,,,,,,,,,,METAR,92.0
KLGF 140358Z AUTO 30012KT 10SM CLR 20/M11 A3020 RMK AO2 SLP227,KLGF,2021-01-14T03:58:00Z,32.87,-114.4,20.0,-11.0,300,12,,10.0,30.200787,1022.7,,TRUE,TRUE,,,,,,,CLR,,,,,,,,VFR,,,,,,,,,,,,METAR,118.0
KINS 140358Z AUTO 27009KT 10SM CLR 11/M11 A3025 RMK AO2 SLP241 T01071114 $,KINS,2021-01-14T03:58:00Z,36.58,-115.68,10.7,-11.4,270,9,,10.0,30.250984,1024.1,,TRUE,TRUE,TRUE,,,,,,CLR,,,,,,,,VFR,,,,,,,,,,,,METAR,954.0
KHMN 140358Z AUTO 05003KT 10SM CLR 03/M16 A3011 RMK AO2 SLP198 T00271159 $,KHMN,2021-01-14T03:58:00Z,32.85,-106.1,2.7,-15.9,50,3,,10.0,30.109253,1019.8,,TRUE,TRUE,TRUE,,,,,,CLR,,,,,,,,VFR,,,,,,,,,,,,METAR,1240.0
KHLR 140358Z AUTO 20005KT 9SM CLR 09/02 A2997 RMK AO2 SLP149 T00870018,KHLR,2021-01-14T03:58:00Z,31.13,-97.72,8.7,1.8,200,5,,9.0,29.970472,1014.9,,TRUE,TRUE,,,,,,,CLR,,,,,,,,VFR,,,,,,,,,,,,METAR,271.0
KHIF 140358Z 32007KT 10SM BKN075 03/M08 A3036 RMK AO2A SLP288 MIDFLD WND 31010G15KT T00291076,KHIF,2021-01-14T03:58:00Z,41.12,-111.97,2.9,-7.6,320,7,,10.0,30.360237,1028.8,,,TRUE,,,,,,,BKN,7500,,,,,,,VFR,,,,,,,,,,,,METAR,1461.0
KHEY 140358Z AUTO 00000KT 10SM CLR 01/00 A3006 RMK AO2 SLP184 T00080002 FZRANO,KHEY,2021-01-14T03:58:00Z,31.35,-85.65,0.8,0.2,0,0,,10.0,30.059055,1018.4,,TRUE,TRUE,,,,TRUE,,,CLR,,,,,,,,VFR,,,,,,,,,,,,METAR,95.0
KGXF 140358Z 17007KT 10SM BKN250 10/M16 A3014 RMK AO2A SLP206 T00991156,KGXF,2021-01-14T03:58:00Z,32.88,-112.72,9.9,-15.6,170,7,,10.0,30.138779,1020.6,,,TRUE,,,,,,,BKN,25000,,,,,,,VFR,,,,,,,,,,,,METAR,261.0
KGUR 140358Z AUTO 31012KT 10SM FEW009 BKN085 OVC100 01/M01 A2991 RMK AO2 PK WND 33027/0258 SNE44 PRESRR SLP138 P0004 T00111013,KGUR,2021-01-14T03:58:00Z,42.25,-104.72,1.1,-1.3,310,12,,10.0,29.911417,1013.8,,TRUE,TRUE,,,,,,,FEW,900,BKN,8500,OVC,10000,,,VFR,,,,,,0.04,,,,,,METAR,1341.0
KGRK 140358Z AUTO 16006KT 10SM CLR 08/02 A2995 RMK AO2 SLP144 T00780015,KGRK,2021-01-14T03:58:00Z,31.07,-97.83,7.8,1.5,160,6,,10.0,29.949802,1014.4,,TRUE,TRUE,,,,,,,CLR,,,,,,,,VFR,,,,,,,,,,,,METAR,311.0
KGRF 140358Z 00000KT 10SM CLR 03/03 A3050 RMK AO2A SLP334 T00340034 $,KGRF,2021-01-14T03:58:00Z,47.07,-122.57,3.4,3.4,0,0,,10.0,30.499016,1033.4,,,TRUE,TRUE,,,,,,CLR,,,,,,,,VFR,,,,,,,,,,,,METAR,91.0
KGFA 140358Z AUTO 21010KT 10SM OVC090 M02/M03 A3009 RMK AO2 SLP215 T10161031 $,KGFA,2021-01-14T03:58:00Z,47.5,-111.18,-1.6,-3.1,210,10,,10.0,30.088583,1021.5,,TRUE,TRUE,TRUE,,,,,,OVC,9000,,,,,,,VFR,,,,,,,,,,,,METAR,1058.0
KFHU 140358Z AUTO 26011KT 10SM CLR 10/M26 A3021 RMK AO2 SLP209 T01001257,KFHU,2021-01-14T03:58:00Z,31.58,-110.35,10.0,-25.7,260,11,,10.0,30.209646,1020.9,,TRUE,TRUE,,,,,,,CLR,,,,,,,,VFR,,,,,,,,,,,,METAR,1424.0
KFCS 140358Z AUTO 22012KT 10SM CLR 10/M06 A2986 RMK AO2 SLP111 T00981057 $,KFCS,2021-01-14T03:58:00Z,38.67,-104.77,9.8,-5.7,220,12,,10.0,29.861221,1011.1,,TRUE,TRUE,TRUE,,,,,,CLR,,,,,,,,VFR,,,,,,,,,,,,METAR,1789.0
KEUF 140358Z AUTO 00000KT 10SM CLR 01/M01 A3007 RMK AO2 SLP181 I1017 T00111011,KEUF,2021-01-14T03:58:00Z,31.95,-85.13,1.1,-1.1,0,0,,10.0,30.070866,1018.1,,TRUE,TRUE,,,,,,,CLR,,,,,,,,VFR,,,,,,,,,,,,METAR,87.0
KEDW 140358Z 01005KT 50SM BKN300 08/M08 A3025 RMK AO2A SLP253 T00811080,KEDW,2021-01-14T03:58:00Z,34.9,-117.87,8.1,-8.0,10,5,,50.0,30.250984,1025.3,,,TRUE,,,,,,,BKN,30000,,,,,,,VFR,,,,,,,,,,,,METAR,698.0
KDMA 140358Z 21005KT 10SM CLR 10/M13 A3017 RMK AO2A SLPNO WND DATA ESTMD ALSTG ESTMD T00961129 FZRANO $,KDMA,2021-01-14T03:58:00Z,32.17,-110.88,9.6,-12.9,210,5,,10.0,30.171259,,,,TRUE,TRUE,,,TRUE,,,CLR,,,,,,,,VFR,,,,,,,,,,,,METAR,804.0
KCWN 140358Z AUTO 18007KT 10SM CLR 08/M07 A2986 RMK AO2 SLP983 T00811071 PWINO $,KCWN,2021-01-14T03:58:00Z,38.75,-104.85,8.1,-7.1,180,7,,10.0,29.861221,998.3,,TRUE,TRUE,TRUE,,,,TRUE,,CLR,,,,,,,,VFR,,,,,,,,,,,,METAR,2040.0
KCVS 140358Z AUTO 28014KT 10SM CLR 07/M03 A2989 RMK AO2 SLP119 T00671033 $,KCVS,2021-01-14T03:58:00Z,34.37,-103.32,6.7,-3.3,280,14,,10.0,29.890747,1011.9,,TRUE,TRUE,TRUE,,,,,,CLR,,,,,,,,VFR,,,,,,,,,,,,METAR,1305.0
KBYS 140358Z AUTO 03005KT 10SM CLR 06/M14 A3026 RMK AO2 SLP250 T00611136 $,KBYS,2021-01-14T03:58:00Z,35.28,-116.63,6.1,-13.6,30,5,,10.0,30.259842,1025.0,,TRUE,TRUE,TRUE,,,,,,CLR,,,,,,,,VFR,,,,,,,,,,,,METAR,717.0
KBKF 140358Z 25006KT 10SM FEW140 FEW220 07/M06 A2985 RMK AO2A SLP084 T00711063,KBKF,2021-01-14T03:58:00Z,39.72,-104.75,7.1,-6.3,250,6,,10.0,29.84941,1008.4,,,TRUE,,,,,,,FEW,14000,FEW,22000,,,,,VFR,,,,,,,,,,,,METAR,1703.0
KBJC 140358Z 30015G30KT 30SM SCT100 12/M07 A2984,KBJC,2021-01-14T03:58:00Z,39.9,-105.1,12.0,-7.0,300,15,30,30.0,29.840551,,,,,,,,,,,SCT,10000,,,,,,,VFR,,,,,,,,,,,,METAR,1694.0
KBIF 140358Z AUTO 11007KT 10SM CLR 06/M13 A3010 RMK AO2 SLP191 T00591132 $,KBIF,2021-01-14T03:58:00Z,31.85,-106.38,5.9,-13.2,110,7,,10.0,30.100393,1019.1,,TRUE,TRUE,TRUE,,,,,,CLR,,,,,,,,VFR,,,,,,,,,,,,METAR,1201.0
KBAB 140358Z AUTO 35007KT 8SM CLR 09/09 A3038 RMK AO2 SLP291 T00920086 $,KBAB,2021-01-14T03:58:00Z,39.13,-121.43,9.2,8.6,350,7,,8.0,30.380905,1029.1,,TRUE,TRUE,TRUE,,,,,,CLR,,,,,,,,VFR,,,,,,,,,,,,METAR,31.0
KAPG 140358Z AUTO 00000KT 10SM CLR M04/M05 A2991 RMK AO2 SLP132 T10401048 $,KAPG,2021-01-14T03:58:00Z,39.47,-76.17,-4.0,-4.8,0,0,,10.0,29.911417,1013.2,,TRUE,TRUE,TRUE,,,,,,CLR,,,,,,,,VFR,,,,,,,,,,,,METAR,18.0
KABH 140358Z AUTO 00000KT 10SM CLR 02/M04 A2991 RMK AO2 SLP131 T00191036,KABH,2021-01-14T03:58:00Z,38.75,-104.3,1.9,-3.6,0,0,,10.0,29.911417,1013.1,,TRUE,TRUE,,,,,,,CLR,,,,,,,,VFR,,,,,,,,,,,,METAR,1838.0
K9L2 140358Z AUTO 32004KT 9SM CLR 04/M08 A3027 RMK AO2 SLP262 T00441080 $,K9L2,2021-01-14T03:58:00Z,34.98,-117.87,4.4,-8.0,320,4,,9.0,30.268702,1026.2,,TRUE,TRUE,TRUE,,,,,,CLR,,,,,,,,VFR,,,,,,,,,,,,METAR,697.0
K4MR 140358Z AUTO 28017KT 10SM FEW230 09/M05 A2990 RMK AO2 SLP115 T00891046 $,K4MR,2021-01-14T03:58:00Z,34.3,-103.8,8.9,-4.6,280,17,,10.0,29.899607,1011.5,,TRUE,TRUE,TRUE,,,,,,FEW,23000,,,,,,,VFR,,,,,,,,,,,,METAR,1339.0
K1YT 140358Z AUTO 20003KT 10SM CLR 01/M02 A3050 RMK AO2 SLPNO T00131025 $,K1YT,2021-01-14T03:58:00Z,46.67,-120.45,1.3,-2.5,200,3,,10.0,30.499016,,,TRUE,TRUE,TRUE,,,,,,CLR,,,,,,,,VFR,,,,,,,,,,,,METAR,423.0
K1OW 140358Z AUTO 31030G41KT 10SM BKN075 BKN085 09/M04 A2980 RMK AO2 PK WND 30041/48 SLP075 T00851045 $,K1OW,2021-01-14T03:58:00Z,40.88,-104.0,8.5,-4.5,310,30,41,10.0,29.799213,1007.5,,TRUE,TRUE,TRUE,,,,,,BKN,7500,BKN,8500,,,,,VFR,,,,,,,,,,,,METAR,1650.0
K1OM 140358Z AUTO 28028G42KT 10SM FEW150 01/M06 A2990 RMK AO2 PK WND 30045/20 SLP138 T00061059 $,K1OM,2021-01-14T03:58:00Z,47.33,-108.93,0.6,-5.9,280,28,42,10.0,29.899607,1013.8,,TRUE,TRUE,TRUE,,,,,,FEW,15000,,,,,,,VFR,,,,,,,,,,,,METAR,1088.0
K1NW 140358Z AUTO 31030G42KT 10SM CLR 10/M05 A2978 RMK AO2 PK WND 30042/48 SLP067 T01011049 $,K1NW,2021-01-14T03:58:00Z,40.63,-103.83,10.1,-4.9,310,30,42,10.0,29.778543,1006.7,,TRUE,TRUE,TRUE,,,,,,CLR,,,,,,,,VFR,,,,,,,,,,,,METAR,1461.0
K1MW 140358Z AUTO 30017KT 10SM FEW095 FEW110 07/M04 A2978 RMK AO2 SLP075 T00691044 $,K1MW,2021-01-14T03:58:00Z,40.7,-103.48,6.9,-4.4,300,17,,10.0,29.778543,1007.5,,TRUE,TRUE,TRUE,,,,,,FEW,9500,FEW,11000,,,,,VFR,,,,,,,,,,,,METAR,1338.0
K1LW 140358Z AUTO 31031G35KT 10SM BKN080 09/M04 A2980 RMK AO2 SLP070 T00921036 $,K1LW,2021-01-14T03:58:00Z,40.92,-103.7,9.2,-3.6,310,31,35,10.0,29.799213,1007.0,,TRUE,TRUE,TRUE,,,,,,BKN,8000,,,,,,,VFR,,,,,,,,,,,,METAR,1514.0
K1LM 140358Z AUTO 33005KT 10SM -SHSN OVC008 M03/M05 A3003 RMK AO2 SNE23SHSNB41 SLP198 T10331048 $,K1LM,2021-01-14T03:58:00Z,46.7,-109.73,-3.3,-4.8,330,5,,10.0,30.029528,1019.8,,TRUE,TRUE,TRUE,,,,,-SHSN,OVC,800,,,,,,,IFR,,,,,,,,,,,,METAR,1417.0
K1KM 140358Z AUTO 27024KT 10SM BKN055 00/M08 A3004 RMK AO2 PK WND 26031/37 SLP190 T10041082 $,K1KM,2021-01-14T03:58:00Z,46.45,-109.8,-0.4,-8.2,270,24,,10.0,30.041338,1019.0,,TRUE,TRUE,TRUE,,,,,,BKN,5500,,,,,,,VFR,,,,,,,,,,,,METAR,1332.0
K1J0 140358Z AUTO 00000KT 9SM CLR 02/01 A3009 RMK AO2 SLP177 T00170011,K1J0,2021-01-14T03:58:00Z,30.85,-85.6,1.7,1.1,0,0,,9.0,30.088583,1017.7,,TRUE,TRUE,,,,,,,CLR,,,,,,,,VFR,,,,,,,,,,,,METAR,26.0
K1IM 140358Z AUTO 31014KT 10SM BKN085 02/M10 A3009 RMK AO2 SLP215 T00181100 $,K1IM,2021-01-14T03:58:00Z,47.32,-111.47,1.8,-10.0,310,14,,10.0,30.088583,1021.5,,TRUE,TRUE,TRUE,,,,,,BKN,8500,,,,,,,VFR,,,,,,,,,,,,METAR,1110.0
K1HW 140358Z AUTO 35039G55KT 1 3/8SM RA BR SQ SCT013 BKN075 03/M01 A2980 RMK AO2 PK WND 36055/47 VIS 1 3/8V10 SHRAB48E49RAB49 SLP098 T00311011 $,K1HW,2021-01-14T03:58:00Z,41.32,-102.83,3.1,-1.1,350,39,55,1.38,29.799213,1009.8,,TRUE,TRUE,TRUE,,,,,RA BR SQ,SCT,1300,BKN,7500,,,,,IFR,,,,,,,,,,,,METAR,1265.0
K1HM 140358Z AUTO 33005KT 10SM SCT085 BKN130 01/M11 A3006 RMK AO2 PK WND 29026/07 SLP196 T00091113 $,K1HM,2021-01-14T03:58:00Z,47.7,-111.95,0.9,-11.3,330,5,,10.0,30.059055,1019.6,,TRUE,TRUE,TRUE,,,,,,SCT,8500,BKN,13000,,,,,VFR,,,,,,,,,,,,METAR,1181.0
K1GM 140358Z AUTO 28018G25KT 10SM OVC090 00/M11 A3006 RMK AO2 PK WND 29030/0257 SLP202 T10051110 $,K1GM,2021-01-14T03:58:00Z,47.33,-112.1,-0.5,-11.0,280,18,25,10.0,30.059055,1020.2,,TRUE,TRUE,TRUE,,,,,,OVC,9000,,,,,,,VFR,,,,,,,,,,,,METAR,1317.0
K1EM 140358Z AUTO 27020G34KT 10SM FEW065 BKN110 01/M06 A2997 RMK AO2 PK WND 27035/40 SLP173 T00101060 $,K1EM,2021-01-14T03:58:00Z,47.45,-109.42,1.0,-6.0,270,20,34,10.0,29.970472,1017.3,,TRUE,TRUE,TRUE,,,,,,FEW,6500,BKN,11000,,,,,VFR,,,,,,,,,,,,METAR,1118.0
K1DM 140358Z AUTO 27015KT 10SM FEW075 SCT120 BKN190 M01/M04 A2997 RMK AO2 PK WND 27028/0258 SHSNE02 SLP177 T10061044 $,K1DM,2021-01-14T03:58:00Z,47.37,-109.8,-0.6,-4.4,270,15,,10.0,29.970472,1017.7,,TRUE,TRUE,TRUE,,,,,,FEW,7500,SCT,12000,BKN,19000,,,VFR,,,,,,,,,,,,METAR,1093.0
K1CW 140358Z AUTO 36026G36KT 4SM -SHSN BR BKN014 BKN043 OVC055 01/M01 A2990 RMK AO2 PK WND 33060/14 RAB15E37SNB37E43SHSNB43 SLP122 T00061012 $,K1CW,2021-01-14T03:58:00Z,41.58,-103.57,0.6,-1.2,360,26,36,4.0,29.899607,1012.2,,TRUE,TRUE,TRUE,,,,,-SHSN BR,BKN,1400,BKN,4300,OVC,5500,,,MVFR,,,,,,,,,,,,METAR,1370.0
K1CM 140358Z AUTO 29022KT 8SM -SN OVC027 M02/M04 A3003 RMK AO2 SLP192 T10251038 $,K1CM,2021-01-14T03:58:00Z,47.1,-110.17,-2.5,-3.8,290,22,,8.0,30.029528,1019.2,,TRUE,TRUE,TRUE,,,,,-SN,OVC,2700,,,,,,,MVFR,,,,,,,,,,,,METAR,1338.0
K1BW 140358Z AUTO 35023G36KT 1 1/4SM -SHSN BKN003 M01/M02 A2988 RMK AO2 PK WND 31065/10 VIS 1 1/4V3 RAB21E32SNB32E37SHSNB37 CIG 003V005 SLP121 T10101023 $,K1BW,2021-01-14T03:58:00Z,41.52,-104.0,-1.0,-2.3,350,23,36,1.25,29.878937,1012.1,,TRUE,TRUE,TRUE,,,,,-SHSN,BKN,300,,,,,,,LIFR,,,,,,,,,,,,METAR,1606.0
K1AM 140358Z AUTO 20009KT 10SM -SHSN BKN050 OVC080 M01/M04 A3009 RMK AO2 SHSNE45SHSNB50 SLP160 T10121040 $,K1AM,2021-01-14T03:58:00Z,47.28,-110.8,-1.2,-4.0,200,9,,10.0,30.088583,1016.0,,TRUE,TRUE,TRUE,,,,,-SHSN,BKN,5000,OVC,8000,,,,,VFR,,,,,,,,,,,,METAR,1228.0
PHNG 140357Z 36010KT 10SM BKN030 BKN080 BKN200 25/19 A2995 RMK AO2 SLP136 T02500194 PNO,PHNG,2021-01-14T03:57:00Z,21.43,-157.77,25.0,19.4,360,10,,10.0,29.949802,1013.6,,,TRUE,,,,,,,BKN,3000,BKN,8000,BKN,20000,,,MVFR,,,,,,,,,,,,SPECI,1.0
KP58 140357Z AUTO 24005KT 02/M02 A2969 RMK AO1 SLP062 T00221017,KP58,2021-01-14T03:57:00Z,44.02,-82.8,2.2,-1.7,240,5,,,29.68996,1006.2,,TRUE,TRUE,,,,,,,,,,,,,,,,,,,,,,,,,,,METAR,180.0
KNYL 140357Z 32003KT 7SM CLR 16/M06 A3015 RMK AO2 SLP210 T01561061 $,KNYL,2021-01-14T03:57:00Z,32.65,-114.62,15.6,-6.1,320,3,,7.0,30.15059,1021.0,,,TRUE,TRUE,,,,,,CLR,,,,,,,,VFR,,,,,,,,,,,,METAR,58.0
KNJM 140357Z AUTO 26004KT 10SM FEW120 09/06 A2996 RMK AO2 SLP148 T00890061,KNJM,2021-01-14T03:57:00Z,34.68,-77.02,8.9,6.1,260,4,,10.0,29.958662,1014.8,,TRUE,TRUE,,,,,,,FEW,12000,,,,,,,VFR,,,,,,,,,,,,METAR,5.0
KFLG 140357Z AUTO 36006KT 10SM CLR 07/M06 A3030 RMK AO2 SLP246 T00671056 TSNO,KFLG,2021-01-14T03:57:00Z,35.13,-111.67,6.7,-5.6,360,6,,10.0,30.301182,1024.6,,TRUE,TRUE,,,TRUE,,,,CLR,,,,,,,,VFR,,,,,,,,,,,,METAR,2134.0
KAQV 140357Z AUTO 19004KT 10SM CLR 05/02 A3003 RMK AO2 SLP170 T00500017,KAQV,2021-01-14T03:57:00Z,31.4,-93.3,5.0,1.7,190,4,,10.0,30.029528,1017.0,,TRUE,TRUE,,,,,,,CLR,,,,,,,,VFR,,,,,,,,,,,,METAR,123.0
TJSJ 140356Z 12003KT 10SM FEW042 SCT060 25/22 A3001 RMK AO2 SLP162 T02500217 402890239,TJSJ,2021-01-14T03:56:00Z,18.43,-66.02,25.0,21.7,120,3,,10.0,30.008858,1016.2,,,TRUE,,,,,,,FEW,4200,SCT,6000,,,,,VFR,,,,28.9,23.9,,,,,,,METAR,3.0
ROTM 140356Z 07005KT 9999 FEW037 BKN050 18/06 A3009 RMK SLP176 T01830056,ROTM,2021-01-14T03:56:00Z,26.27,127.75,18.3,5.6,70,5,,6.21,30.088583,1017.6,,,,,,,,,,FEW,3700,BKN,5000,,,,,VFR,,,,,,,,,,,,SPECI,80.0
RODN 140356Z AUTO 06011KT 10SM BKN043 OVC050 20/09 A3006 RMK AO2 SLPNO T01980094 $,RODN,2021-01-14T03:56:00Z,26.35,127.77,19.8,9.4,60,11,,10.0,30.059055,,,TRUE,TRUE,TRUE,,,,,,BKN,4300,OVC,5000,,,,,VFR,,,,,,,,,,,,SPECI,38.0
RKSG 140356Z 09007KT 4SM HZ CLR 06/M10 A3017 RMK AO2A SLPNO T00611098 $,RKSG,2021-01-14T03:56:00Z,36.97,127.02,6.1,-9.8,90,7,,4.0,30.171259,,,,TRUE,TRUE,,,,,HZ,CLR,,,,,,,,MVFR,,,,,,,,,,,,SPECI,12.0
RKJK 140356Z 05006KT 10SM CLR 07/M06 A3012 RMK AO2A SLP204 T00721058 FZRANO $,RKJK,2021-01-14T03:56:00Z,35.9,126.62,7.2,-5.8,50,6,,10.0,30.121063,1020.4,,,TRUE,TRUE,,,TRUE,,,CLR,,,,,,,,VFR,,,,,,,,,,,,SPECI,8.0
RJTY 140356Z AUTO 00000KT 10SM CLR 13/00 A3001 RMK AO2 SLPNO T01320002 FZRANO $,RJTY,2021-01-14T03:56:00Z,35.75,139.33,13.2,0.2,0,0,,10.0,30.008858,,,TRUE,TRUE,TRUE,,,TRUE,,,CLR,,,,,,,,VFR,,,,,,,,,,,,SPECI,136.0
PPIZ 140356Z AUTO 06033G39KT 1/2SM SN FZFG OVC004 M24/M26 A2991 RMK AO2 PK WND 06041/0326 SLP131 P0000 T12391261 FZRANO,PPIZ,2021-01-14T03:56:00Z,69.73,-163.0,-23.9,-26.1,60,33,39,0.5,29.911417,1013.1,,TRUE,TRUE,,,,TRUE,,SN FZFG,OVC,400,,,,,,,LIFR,,,,,,0.005,,,,,,METAR,5.0
PPIT 140356Z AUTO 28003KT 1 1/4SM BR OVC006 M10/M10 A2955 RMK AO2 SLP011 T11001100 PWINO FZRANO TSNO $,PPIT,2021-01-14T03:56:00Z,60.9,-162.43,-10.0,-10.0,280,3,,1.25,29.551182,1001.1,,TRUE,TRUE,TRUE,,TRUE,TRUE,TRUE,BR,OVC,600,,,,,,,IFR,,,,,,,,,,,,METAR,4.0
PMDY 140356Z AUTO 21021G26KT 6SM HZ OVC033 23/16 A2995 RMK AO2 PK WND 21026/0356 SLP141 T02280161,PMDY,2021-01-14T03:56:00Z,28.22,-177.37,22.8,16.1,210,21,26,6.0,29.949802,1014.1,,TRUE,TRUE,,,,,,HZ,OVC,3300,,,,,,,VFR,,,,,,,,,,,,SPECI,6.0
PHHI 140356Z AUTO 35007KT 10SM SCT019 24/19 A2998 RMK AO2 SLPNO T02350192 $,PHHI,2021-01-14T03:56:00Z,21.48,-158.05,23.5,19.2,350,7,,10.0,29.97933,,,TRUE,TRUE,TRUE,,,,,,SCT,1900,,,,,,,VFR,,,,,,,,,,,,SPECI,246.0
PGUA 140356Z 11014G20KT 10SM SCT021 29/23 A2984 RMK AO2A SLPNO T02910230 $,PGUA,2021-01-14T03:56:00Z,13.57,144.92,29.1,23.0,110,14,20,10.0,29.840551,,,,TRUE,TRUE,,,,,,SCT,2100,,,,,,,VFR,,,,,,,,,,,,METAR,159.0
PFYU 140356Z 00000KT 9SM OVC020 M22/M24 A2980 RMK AO2 SNB14E33 SLP110 P0000 T12221244,PFYU,2021-01-14T03:56:00Z,66.57,-145.23,-22.2,-24.4,0,0,,9.0,29.799213,1011.0,,,TRUE,,,,,,,OVC,2000,,,,,,,MVFR,,,,,,0.005,,,,,,METAR,130.0
PFSH 140356Z AUTO 06003KT 10SM CLR M18/M19 A2960 RMK AO2 SLP022 T11781189 FZRANO,PFSH,2021-01-14T03:56:00Z,64.37,-161.22,-17.8,-18.9,60,3,,10.0,29.601377,1002.2,,TRUE,TRUE,,,,TRUE,,,CLR,,,,,,,,VFR,,,,,,,,,,,,METAR,6.0
PFNO 140356Z AUTO 07019KT 9SM CLR M12/M14 A2963 RMK AO2 SLP118 T11171144 FZRANO,PFNO,2021-01-14T03:56:00Z,66.82,-161.02,-11.7,-14.4,70,19,,9.0,29.630905,1011.8,,TRUE,TRUE,,,,TRUE,,,CLR,,,,,,,,VFR,,,,,,,,,,,,METAR,14.0
PFEL 140356Z AUTO 34003KT 10SM OVC005 M10/M11 A2957 RMK AO2 SLP018 T11001111 FZRANO,PFEL,2021-01-14T03:56:00Z,64.62,-162.27,-10.0,-11.1,340,3,,10.0,29.568897,1001.8,,TRUE,TRUE,,,,TRUE,,,OVC,500,,,,,,,IFR,,,,,,,,,,,,METAR,50.0
PFCL 140356Z AUTO 13005KT 10SM FEW015 OVC029 M02/M03 A2956 RMK AO2 SLP003 T10221028 FZRANO TSNO,PFCL,2021-01-14T03:56:00Z,58.83,-158.53,-2.2,-2.8,130,5,,10.0,29.56004,1000.3,,TRUE,TRUE,,,TRUE,TRUE,,,FEW,1500,OVC,2900,,,,,MVFR,,,,,,,,,,,,METAR,23.0
PAZK 140356Z AUTO 36009KT 10SM CLR M14/M16 A2963 RMK AO2 SLP119 T11391156 FZRANO,PAZK,2021-01-14T03:56:00Z,61.93,-147.17,-13.9,-15.6,360,9,,10.0,29.630905,1011.9,,TRUE,TRUE,,,,TRUE,,,CLR,,,,,,,,VFR,,,,,,,,,,,,METAR,1002.0
PAWS 140356Z AUTO 08006KT 10SM FEW046 BKN055 OVC070 M01/M08 A2973 RMK AO2 SLP073 T10061083 FZRANO,PAWS,2021-01-14T03:56:00Z,61.57,-149.53,-0.6,-8.3,80,6,,10.0,29.731298,1007.3,,TRUE,TRUE,,,,TRUE,,,FEW,4600,BKN,5500,OVC,7000,,,VFR,,,,,,,,,,,,METAR,102.0
PAWN 140356Z AUTO 34005KT 10SM CLR M17/M19 A2965 RMK AO2 SLP055 T11671189 FZRANO,PAWN,2021-01-14T03:56:00Z,67.57,-162.98,-16.7,-18.9,340,5,,10.0,29.648623,1005.5,,TRUE,TRUE,,,,TRUE,,,CLR,,,,,,,,VFR,,,,,,,,,,,,METAR,26.0
PAWM 140356Z AUTO 11005KT 6SM BR OVC005 M09/M10 A2956 RMK AO2 SNB06E16B35E45 SLP017 P0000 T10891100 FZRANO,PAWM,2021-01-14T03:56:00Z,64.68,-163.42,-8.9,-10.0,110,5,,6.0,29.56004,1001.7,,TRUE,TRUE,,,,TRUE,,BR,OVC,500,,,,,,,IFR,,,,,,0.005,,,,,,METAR,80.0
PAWG 140356Z 13005KT 10SM SCT030 OVC046 03/01 A3022 RMK AO2 SLP235 P0001 T00330011,PAWG,2021-01-14T03:56:00Z,56.48,-132.37,3.3,1.1,130,5,,10.0,30.221457,1023.5,,,TRUE,,,,,,,SCT,3000,OVC,4600,,,,,VFR,,,,,,0.01,,,,,,METAR,6.0
PAVA 140356Z AUTO 30003KT 9SM -SN OVC014 M12/M13 A2957 RMK AO2 SLP019 P0000 T11221133 FZRANO,PAVA,2021-01-14T03:56:00Z,61.53,-165.6,-12.2,-13.3,300,3,,9.0,29.568897,1001.9,,TRUE,TRUE,,,,TRUE,,-SN,OVC,1400,,,,,,,MVFR,,,,,,0.005,,,,,,METAR,14.0
PAUN 140356Z AUTO 08011KT 10SM OVC100 M12/M14 A2959 RMK AO2 SLP023 T11171144 FZRANO,PAUN,2021-01-14T03:56:00Z,63.88,-160.8,-11.7,-14.4,80,11,,10.0,29.589567,1002.3,,TRUE,TRUE,,,,TRUE,,,OVC,10000,,,,,,,VFR,,,,,,,,,,,,METAR,4.0
PATQ 140356Z AUTO 08019KT 2 1/2SM -SN BR BKN011 M23/M26 A3009 RMK AO2 SLP196 T12331256 FZRANO TSNO PNO $,PATQ,2021-01-14T03:56:00Z,70.47,-157.43,-23.3,-25.6,80,19,,2.5,30.088583,1019.6,,TRUE,TRUE,TRUE,,TRUE,TRUE,,-SN BR,BKN,1100,,,,,,,IFR,,,,,,,,,,,,METAR,28.0
PATE 140356Z AUTO 13008KT 10SM OVC034 M12/M14 A2952 RMK AO2 SNB19E28 SLP008 P0000 T11221139 FZRANO,PATE,2021-01-14T03:56:00Z,65.23,-166.33,-12.2,-13.9,130,8,,10.0,29.518702,1000.8,,TRUE,TRUE,,,,TRUE,,,OVC,3400,,,,,,,VFR,,,,,,0.005,,,,,,METAR,93.0
PASX 140356Z AUTO 07003KT 10SM CLR M09/M10 A2971 RMK AO2 SLP070 T10891100 FZRANO,PASX,2021-01-14T03:56:00Z,60.48,-151.05,-8.9,-10.0,70,3,,10.0,29.71063,1007.0,,TRUE,TRUE,,,,TRUE,,,CLR,,,,,,,,VFR,,,,,,,,,,,,METAR,28.0
PASM 140356Z AUTO 11004KT 10SM OVC004 M10/M11 A2955 RMK AO2 SNE13 SLP019 P0000 T11001111 FZRANO,PASM,2021-01-14T03:56:00Z,62.07,-163.3,-10.0,-11.1,110,4,,10.0,29.551182,1001.9,,TRUE,TRUE,,,,TRUE,,,OVC,400,,,,,,,LIFR,,,,,,0.005,,,,,,METAR,108.0
PASL 140356Z AUTO 00000KT 9SM -SN OVC017 M14/M15 A2965 RMK AO2 SLP034 P0000 T11391150 FZRANO,PASL,2021-01-14T03:56:00Z,61.68,-157.15,-13.9,-15.0,0,0,,9.0,29.648623,1003.4,,TRUE,TRUE,,,,TRUE,,-SN,OVC,1700,,,,,,,MVFR,,,,,,0.005,,,,,,METAR,64.0
PASK 140356Z AUTO 07009KT 8SM -SN CLR M17/M19 A2966 RMK AO2 SLP041 P0000 T11721194 FZRANO,PASK,2021-01-14T03:56:00Z,66.6,-160.0,-17.2,-19.4,70,9,,8.0,29.660433,1004.1,,TRUE,TRUE,,,,TRUE,,-SN,CLR,,,,,,,,VFR,,,,,,0.005,,,,,,METAR,3.0
PASD 140356Z 05004KT 10SM SCT035 BKN060 M01/M04 A2948 RMK AO2 SLP984 LAST T10061044 PNO $,PASD,2021-01-14T03:56:00Z,55.33,-160.52,-0.6,-4.4,50,4,,10.0,29.480314,998.4,,,TRUE,TRUE,,,,,,SCT,3500,BKN,6000,,,,,VFR,,,,,,,,,,,,METAR,6.0
PASA 140356Z AUTO 17006KT 10SM SCT080 M18/M21 A2957 RMK AO2 SNE16 SLP015 P0000 T11831206 FZRANO,PASA,2021-01-14T03:56:00Z,63.68,-170.5,-18.3,-20.6,170,6,,10.0,29.568897,1001.5,,TRUE,TRUE,,,,TRUE,,,SCT,8000,,,,,,,VFR,,,,,,0.005,,,,,,METAR,9.0
PARS 140356Z AUTO 25003KT 10SM OVC009 M12/M13 A2957 RMK AO2 SLP016 T11221133 PWINO FZRANO $,PARS,2021-01-14T03:56:00Z,61.77,-161.32,-12.2,-13.3,250,3,,10.0,29.568897,1001.6,,TRUE,TRUE,TRUE,,,TRUE,TRUE,,OVC,900,,,,,,,IFR,,,,,,,,,,,,METAR,15.0
PARC 140356Z AUTO 00000KT 9SM FEW039 M19/M22 A2965 RMK AO2 SLP121 T11941217 FZRANO,PARC,2021-01-14T03:56:00Z,68.12,-145.58,-19.4,-21.7,0,0,,9.0,29.648623,1012.1,,TRUE,TRUE,,,,TRUE,,,FEW,3900,,,,,,,VFR,,,,,,,,,,,,METAR,626.0
PAPO 140356Z AUTO 07009KT 9SM -SN CLR M11/M12 A2965 RMK AO2 SLP040 P0000 T11061122 FZRANO,PAPO,2021-01-14T03:56:00Z,68.35,-166.8,-10.6,-12.2,70,9,,9.0,29.648623,1004.0,,TRUE,TRUE,,,,TRUE,,-SN,CLR,,,,,,,,VFR,,,,,,0.005,,,,,,METAR,4.0
PAPN 140356Z AUTO 10006KT 10SM BKN038 M04/M05 A2925 RMK AO2 SLP919 T10441050 FZRANO,PAPN,2021-01-14T03:56:00Z,57.58,-157.57,-4.4,-5.0,100,6,,10.0,29.25,991.9,,TRUE,TRUE,,,,TRUE,,,BKN,3800,,,,,,,VFR,,,,,,,,,,,,METAR,19.0
PAPH 140356Z AUTO 13003KT 10SM OVC032 M03/M04 A2954 RMK AO2 SLP003 T10331039 FZRANO,PAPH,2021-01-14T03:56:00Z,56.95,-158.62,-3.3,-3.9,130,3,,10.0,29.53937,1000.3,,TRUE,TRUE,,,,TRUE,,,OVC,3200,,,,,,,VFR,,,,,,,,,,,,METAR,29.0
PAPG 140356Z 00000KT 10SM -RA FEW016 OVC021 02/01 A3020 RMK AO2 UPB14E19RAB19 SLP230 P0000 T00170011,PAPG,2021-01-14T03:56:00Z,56.82,-132.93,1.7,1.1,0,0,,10.0,30.200787,1023.0,,,TRUE,,,,,,-RA,FEW,1600,OVC,2100,,,,,MVFR,,,,,,0.005,,,,,,METAR,24.0
PAOU 140356Z AUTO 06007KT 10SM OVC022 M01/M04 A2951 RMK AO2 SLP991 T10111039 FZRANO PNO $,PAOU,2021-01-14T03:56:00Z,56.0,-161.17,-1.1,-3.9,60,7,,10.0,29.509842,999.1,,TRUE,TRUE,TRUE,,,TRUE,,,OVC,2200,,,,,,,MVFR,,,,,,,,,,,,METAR,3.0
PANW 140356Z AUTO 15004KT 7SM M02/M02 A2958 RMK AO2 SNE01 SLP026 P0000 T10221022 FZRANO $,PANW,2021-01-14T03:56:00Z,59.45,-157.32,-2.2,-2.2,150,4,,7.0,29.58071,1002.6,,TRUE,TRUE,TRUE,,,TRUE,,,,,,,,,,,,,,,,,0.005,,,,,,METAR,100.0
PANI 140356Z AUTO 00000KT 9SM -SN OVC027 M13/M15 A2960 RMK AO2 SNE03B23 SLP017 P0000 T11331150 FZRANO,PANI,2021-01-14T03:56:00Z,61.58,-159.53,-13.3,-15.0,0,0,,9.0,29.601377,1001.7,,TRUE,TRUE,,,,TRUE,,-SN,OVC,2700,,,,,,,MVFR,,,,,,0.005,,,,,,METAR,21.0
PAMK 140356Z AUTO 00000KT OVC004 M10/M11 A2957 RMK AO2 SLP016 T11001111 PWINO FZRANO,PAMK,2021-01-14T03:56:00Z,63.48,-162.12,-10.0,-11.1,0,0,,,29.568897,1001.6,,TRUE,TRUE,,,,TRUE,TRUE,,OVC,400,,,,,,,,,,,,,,,,,,,METAR,31.0
PAMH 140356Z AUTO 00000KT 10SM FEW090 M20/M22 A2968 RMK AO2 SLP067 T12001217 FZRANO,PAMH,2021-01-14T03:56:00Z,63.9,-152.28,-20.0,-21.7,0,0,,10.0,29.681103,1006.7,,TRUE,TRUE,,,,TRUE,,,FEW,9000,,,,,,,VFR,,,,,,,,,,,,METAR,200.0
PAMD 140356Z AUTO 15012G20KT 10SM FEW014 BKN030 OVC040 03/02 A2981 RMK AO2,PAMD,2021-01-14T03:56:00Z,59.43,-146.3,3.0,2.0,150,12,20,10.0,29.811024,,,TRUE,TRUE,,,,,,,FEW,1400,BKN,3000,OVC,4000,,,MVFR,,,,,,,,,,,,METAR,20.0
PAKP 140356Z AUTO 02006KT 10SM CLR M29/M32 A2965 RMK AO2 SLP140 T12941322 FZRANO,PAKP,2021-01-14T03:56:00Z,68.13,-151.73,-29.4,-32.2,20,6,,10.0,29.648623,1014.0,,TRUE,TRUE,,,,TRUE,,,CLR,,,,,,,,VFR,,,,,,,,,,,,METAR,649.0
PAKK 140356Z AUTO 02003KT 10SM CLR M16/M17 A2954 RMK AO2 SLP014 T11611172 FZRANO,PAKK,2021-01-14T03:56:00Z,64.93,-161.15,-16.1,-17.2,20,3,,10.0,29.53937,1001.4,,TRUE,TRUE,,,,TRUE,,,CLR,,,,,,,,VFR,,,,,,,,,,,,METAR,56.0
PAKF 140356Z AUTO 24005KT 10SM FEW110 A2947 RMK AO2 SLPNO FZRANO $,PAKF,2021-01-14T03:56:00Z,54.85,-163.42,,,240,5,,10.0,29.471457,,,TRUE,TRUE,TRUE,,,TRUE,,,FEW,11000,,,,,,,VFR,,,,,,,,,,,,METAR,6.0
PAIW 140356Z AUTO 06012KT 9SM -SN SCT015 BKN021 OVC036 M12/M14 A2955 RMK AO2 SLP009 P0000 T11221139 FZRANO,PAIW,2021-01-14T03:56:00Z,65.62,-168.1,-12.2,-13.9,60,12,,9.0,29.551182,1000.9,,TRUE,TRUE,,,,TRUE,,-SN,SCT,1500,BKN,2100,OVC,3600,,,MVFR,,,,,,0.005,,,,,,METAR,6.0
PAIN 140356Z AUTO VRB06KT 10SM CLR M03/M08 A2964 RMK AO2 SLP078 T10281078 FZRANO,PAIN,2021-01-14T03:56:00Z,63.73,-148.92,-2.8,-7.8,0,6,,10.0,29.639763,1007.8,,TRUE,TRUE,,,,TRUE,,,CLR,,,,,,,,VFR,,,,,,,,,,,,METAR,525.0
PAIK 140356Z AUTO 10009KT 10SM CLR M14/M17 A2967 RMK AO2 SLP054 T11391167 FZRANO,PAIK,2021-01-14T03:56:00Z,66.98,-160.43,-13.9,-16.7,100,9,,10.0,29.66929,1005.4,,TRUE,TRUE,,,,TRUE,,,CLR,,,,,,,,VFR,,,,,,,,,,,,METAR,49.0
PAIG 140356Z AUTO 00000KT OVC060 M02/M04 A2959 RMK AO2 SLP030 T10221039 PWINO FZRANO $,PAIG,2021-01-14T03:56:00Z,59.32,-155.9,-2.2,-3.9,0,0,,,29.589567,1003.0,,TRUE,TRUE,TRUE,,,TRUE,TRUE,,OVC,6000,,,,,,,,,,,,,,,,,,,METAR,24.0
PAHL 140356Z AUTO 00000KT 10SM CLR M19/M22 A2965 RMK AO2 SLP049 T11941217 FZRANO,PAHL,2021-01-14T03:56:00Z,65.7,-156.35,-19.4,-21.7,0,0,,10.0,29.648623,1004.9,,TRUE,TRUE,,,,TRUE,,,CLR,,,,,,,,VFR,,,,,,,,,,,,METAR,49.0
PAGS 140356Z AUTO 13008KT 10SM OVC045 03/01 A3011 RMK AO2 SLP194 T00280011,PAGS,2021-01-14T03:56:00Z,58.42,-135.7,2.8,1.1,130,8,,10.0,30.109253,1019.4,,TRUE,TRUE,,,,,,,OVC,4500,,,,,,,VFR,,,,,,,,,,,,METAR,9.0
PAGN 140356Z AUTO VRB03KT 10SM OVC033 01/01 A3015 RMK AO2 SLP200 T00110011 FZRANO,PAGN,2021-01-14T03:56:00Z,57.5,-134.58,1.1,1.1,0,3,,10.0,30.15059,1020.0,,TRUE,TRUE,,,,TRUE,,,OVC,3300,,,,,,,VFR,,,,,,,,,,,,METAR,2.0
PAGM 140356Z AUTO 10009KT 10SM OVC034 M13/M16 A2956 RMK AO2 SNE0259 SLP015 P0000 T11331156 FZRANO,PAGM,2021-01-14T03:56:00Z,63.77,-171.73,-13.3,-15.6,100,9,,10.0,29.56004,1001.5,,TRUE,TRUE,,,,TRUE,,,OVC,3400,,,,,,,VFR,,,,,,0.005,,,,,,METAR,6.0
PAGH 140356Z AUTO 09014KT 10SM CLR M10/M13 A2967 RMK AO2 SLP055 T11001128 FZRANO,PAGH,2021-01-14T03:56:00Z,66.88,-157.17,-10.0,-12.8,90,14,,10.0,29.66929,1005.5,,TRUE,TRUE,,,,TRUE,,,CLR,,,,,,,,VFR,,,,,,,,,,,,METAR,56.0
PAGA 140356Z AUTO 00000KT 10SM FEW038 SCT080 BKN110 M22/M24 A2965 RMK AO2 SLP047 T12221244 FZRANO,PAGA,2021-01-14T03:56:00Z,64.73,-156.93,-22.2,-24.4,0,0,,10.0,29.648623,1004.7,,TRUE,TRUE,,,,TRUE,,,FEW,3800,SCT,8000,BKN,11000,,,VFR,,,,,,,,,,,,METAR,39.0
PAFM 140356Z AUTO 02011KT 10SM CLR M14/M19 A2970 RMK AO2 SLP068 T11441189 FZRANO,PAFM,2021-01-14T03:56:00Z,67.1,-157.85,-14.4,-18.9,20,11,,10.0,29.698818,1006.8,,TRUE,TRUE,,,,TRUE,,,CLR,,,,,,,,VFR,,,,,,,,,,,,METAR,79.0
PAFE 140356Z AUTO 10008KT 10SM OVC014 03/02 A3018 RMK AO2 SLP232 T00280017 $,PAFE,2021-01-14T03:56:00Z,56.97,-133.92,2.8,1.7,100,8,,10.0,30.180119,1023.2,,TRUE,TRUE,TRUE,,,,,,OVC,1400,,,,,,,MVFR,,,,,,,,,,,,METAR,1.0
PAEI 140356Z 00000KT 10SM BKN200 M21/M25 A2968 RMK AO2A SLP071 T12141247 $,PAEI,2021-01-14T03:56:00Z,64.67,-147.1,-21.4,-24.7,0,0,,10.0,29.681103,1007.1,,,TRUE,TRUE,,,,,,BKN,20000,,,,,,,VFR,,,,,,,,,,,,METAR,166.0
PADL 140356Z 16005KT 10SM OVC010 M01/M02 A2956 RMK AO2 CIG 007V013 SLP015 T10111022,PADL,2021-01-14T03:56:00Z,59.05,-158.5,-1.1,-2.2,160,5,,10.0,29.56004,1001.5,,,TRUE,,,,,,,OVC,1000,,,,,,,MVFR,,,,,,,,,,,,METAR,20.0
PADK 140356Z AUTO 11016G22KT 10SM FEW027 M01/M03 A2951 RMK AO2 SLP993 T10111033 FZRANO,PADK,2021-01-14T03:56:00Z,51.88,-176.65,-1.1,-3.3,110,16,22,10.0,29.509842,999.3,,TRUE,TRUE,,,,TRUE,,,FEW,2700,,,,,,,VFR,,,,,,,,,,,,METAR,3.0
PACM 140356Z AUTO 00000KT 8SM -SN OVC018 M12/M13 A2960 RMK AO2 SNB05 SLP018 T11171133 FZRANO PNO $,PACM,2021-01-14T03:56:00Z,61.85,-165.57,-11.7,-13.3,0,0,,8.0,29.601377,1001.8,,TRUE,TRUE,TRUE,,,TRUE,,-SN,OVC,1800,,,,,,,MVFR,,,,,,,,,,,,METAR,3.0
PABV 140356Z AUTO 00000KT 10SM FEW036 BKN046 OVC060 M04/M06 A2972 RMK AO2 SNB31E45 SLP073 P0000 T10391056 FZRANO,PABV,2021-01-14T03:56:00Z,61.42,-149.52,-3.9,-5.6,0,0,,10.0,29.719488,1007.3,,TRUE,TRUE,,,,TRUE,,,FEW,3600,BKN,4600,OVC,6000,,,VFR,,,,,,0.005,,,,,,METAR,21.0
PABL 140356Z AUTO 00000KT 10SM CLR M19/M21 A2962 RMK AO2 SLP033 T11941211 FZRANO,PABL,2021-01-14T03:56:00Z,65.98,-161.15,-19.4,-21.1,0,0,,10.0,29.619095,1003.3,,TRUE,TRUE,,,,TRUE,,,CLR,,,,,,,,VFR,,,,,,,,,,,,METAR,7.0
PAAK 140356Z AUTO 27003KT CLR M06/M11 A2957 RMK AO2 SLP015 T10561106 PWINO FZRANO,PAAK,2021-01-14T03:56:00Z,52.22,-174.2,-5.6,-10.6,270,3,,,29.568897,1001.5,,TRUE,TRUE,,,,TRUE,TRUE,,CLR,,,,,,,,,,,,,,,,,,,,METAR,11.0
OTBH 140356Z 29004KT 8000 HZ CLR 09/06 A3009 RMK AO2A SLP192 T00870063,OTBH,2021-01-14T03:56:00Z,25.12,51.32,8.7,6.3,290,4,,4.97,30.088583,1019.2,,,TRUE,,,,,,HZ,CLR,,,,,,,,MVFR,,,,,,,,,,,,METAR,40.0
OEPS 140356Z 00000KT 9999 CLR 07/M09 A3026 RMK AO2A SLP249 WND DATA ESTMD T00741092,OEPS,2021-01-14T03:56:00Z,24.07,47.58,7.4,-9.2,0,0,,6.21,30.259842,1024.9,,,TRUE,,,,,,,CLR,,,,,,,,VFR,,,,,,,,,,,,METAR,503.0
KYKN 140356Z AUTO 00000KT 10SM OVC090 04/01 A2948 RMK AO2 RAE55 SLP004 P0000 T00390011,KYKN,2021-01-14T03:56:00Z,42.92,-97.37,3.9,1.1,0,0,,10.0,29.480314,1000.4,,TRUE,TRUE,,,,,,,OVC,9000,,,,,,,VFR,,,,,,0.005,,,,,,METAR,388.0
KWWD 140356Z AUTO 20005KT 5SM BR CLR 03/03 A2993 RMK AO2 SLP138 T00330028 $,KWWD,2021-01-14T03:56:00Z,39.02,-74.92,3.3,2.8,200,5,,5.0,29.929134,1013.8,,TRUE,TRUE,TRUE,,,,,BR,CLR,,,,,,,,MVFR,,,,,,,,,,,,METAR,4.0
KWVL 140356Z AUTO 00000KT 10SM OVC044 M01/M06 A2984 RMK AO2 SLP137 T10111056 FZRANO,KWVL,2021-01-14T03:56:00Z,44.52,-69.67,-1.1,-5.6,0,0,,10.0,29.840551,1013.7,,TRUE,TRUE,,,,TRUE,,,OVC,4400,,,,,,,VFR,,,,,,,,,,,,METAR,87.0
KWRI 140356Z AUTO 00000KT 10SM CLR M01/M04 A2991 RMK AO2 SLP129 T10101044 $,KWRI,2021-01-14T03:56:00Z,40.02,-74.58,-1.0,-4.4,0,0,,10.0,29.911417,1012.9,,TRUE,TRUE,TRUE,,,,,,CLR,,,,,,,,VFR,,,,,,,,,,,,METAR,35.0
KWRB 140356Z 26006KT 10SM CLR 06/M01 A3002 RMK AO2A SLP169 T00571015,KWRB,2021-01-14T03:56:00Z,32.63,-83.58,5.7,-1.5,260,6,,10.0,30.02067,1016.9,,,TRUE,,,,,,,CLR,,,,,,,,VFR,,,,,,,,,,,,METAR,82.0
KWJF 140356Z 26003KT 10SM CLR 09/M06 A3028 RMK AO2 SLP268 T00891061,KWJF,2021-01-14T03:56:00Z,34.73,-118.22,8.9,-6.1,260,3,,10.0,30.280512,1026.8,,,TRUE,,,,,,,CLR,,,,,,,,VFR,,,,,,,,,,,,METAR,712.0
KVPZ 140356Z AUTO 20008KT 10SM BKN100 OVC120 03/00 A2973 RMK AO2 SLP074 T00280000,KVPZ,2021-01-14T03:56:00Z,41.45,-87.0,2.8,0.0,200,8,,10.0,29.731298,1007.4,,TRUE,TRUE,,,,,,,BKN,10000,OVC,12000,,,,,VFR,,,,,,,,,,,,METAR,235.0
KVPS 140356Z AUTO 31008KT 10SM CLR 04/02 A3008 RMK AO2 SLP194 T00350022 $,KVPS,2021-01-14T03:56:00Z,30.47,-86.52,3.5,2.2,310,8,,10.0,30.079725,1019.4,,TRUE,TRUE,TRUE,,,,,,CLR,,,,,,,,VFR,,,,,,,,,,,,METAR,21.0
KVOK 140356Z 13003KT 10SM OVC095 00/00 A2959 RMK AO2A SLP033,KVOK,2021-01-14T03:56:00Z,43.93,-90.27,0.0,0.0,130,3,,10.0,29.589567,1003.3,,,TRUE,,,,,,,OVC,9500,,,,,,,VFR,,,,,,,,,,,,METAR,278.0
KVIS 140356Z AUTO 08004KT 5SM HZ CLR 09/04 A3035 RMK AO2 SLP288 T00890044,KVIS,2021-01-14T03:56:00Z,36.32,-119.4,8.9,4.4,80,4,,5.0,30.351377,1028.8,,TRUE,TRUE,,,,,,HZ,CLR,,,,,,,,MVFR,,,,,,,,,,,,METAR,92.0
KVBT 140356Z AUTO 20009KT 10SM CLR 07/M01 A2980 RMK AO2 SLP099 T00721011 TSNO,KVBT,2021-01-14T03:56:00Z,36.35,-94.22,7.2,-1.1,200,9,,10.0,29.799213,1009.9,,TRUE,TRUE,,,TRUE,,,,CLR,,,,,,,,VFR,,,,,,,,,,,,METAR,390.0
KVAD 140356Z AUTO 19004KT 10SM CLR 03/02 A3005 RMK AO2 SLP180 T00310016 $,KVAD,2021-01-14T03:56:00Z,30.97,-83.2,3.1,1.6,190,4,,10.0,30.050198,1018.0,,TRUE,TRUE,TRUE,,,,,,CLR,,,,,,,,VFR,,,,,,,,,,,,METAR,70.0
KUKI 140356Z AUTO 00000KT 10SM OVC006 13/12 A3039 RMK AO2 SLP287 T01330122,KUKI,2021-01-14T03:56:00Z,39.12,-123.2,13.3,12.2,0,0,,10.0,30.389763,1028.7,,TRUE,TRUE,,,,,,,OVC,600,,,,,,,IFR,,,,,,,,,,,,METAR,183.0
KUDG 140356Z AUTO 25005KT 6SM BR OVC008 06/05 A2997 RMK AO2 PRESFR SLP150 T00560050 400890017,KUDG,2021-01-14T03:56:00Z,34.45,-79.88,5.6,5.0,250,5,,6.0,29.970472,1015.0,,TRUE,TRUE,,,,,,BR,OVC,800,,,,,,,IFR,,,,8.9,1.7,,,,,,,METAR,57.0
KUCP 140356Z AUTO 22004KT 10SM OVC110 04/M02 RMK AO2 SLPNO T00391017 PWINO $,KUCP,2021-01-14T03:56:00Z,41.03,-80.42,3.9,-1.7,220,4,,10.0,,,,TRUE,TRUE,TRUE,,,,TRUE,,OVC,11000,,,,,,,VFR,,,,,,,,,,,,METAR,313.0
KTVF 140356Z AUTO 19007KT 10SM CLR 01/M02 A2939 RMK AO2 SLP968 T00061022 FZRANO,KTVF,2021-01-14T03:56:00Z,48.07,-96.17,0.6,-2.2,190,7,,10.0,29.388779,996.8,,TRUE,TRUE,,,,TRUE,,,CLR,,,,,,,,VFR,,,,,,,,,,,,METAR,339.0
KTPH 140356Z AUTO 36011KT 10SM CLR 08/M01 A3040 RMK AO2 SLP303 T00831011,KTPH,2021-01-14T03:56:00Z,38.05,-117.08,8.3,-1.1,360,11,,10.0,30.398623,1030.3,,TRUE,TRUE,,,,,,,CLR,,,,,,,,VFR,,,,,,,,,,,,METAR,1647.0
KTIK 140356Z AUTO 19010KT 10SM CLR 06/M02 A2976 RMK AO2 SLP091 T00591020 $,KTIK,2021-01-14T03:56:00Z,35.4,-97.38,5.9,-2.0,190,10,,10.0,29.760826,1009.1,,TRUE,TRUE,TRUE,,,,,,CLR,,,,,,,,VFR,,,,,,,,,,,,METAR,387.0
KTDR 140356Z AUTO 34003KT 10SM CLR 05/04 A3009 RMK AO2 SLP193 T00480038 $,KTDR,2021-01-14T03:56:00Z,30.05,-85.52,4.8,3.8,340,3,,10.0,30.088583,1019.3,,TRUE,TRUE,TRUE,,,,,,CLR,,,,,,,,VFR,,,,,,,,,,,,SPECI,4.0
KSZL 140356Z 21013KT 10SM CLR 08/00 A2964 RMK AO2A SLP042 T00760001 $,KSZL,2021-01-14T03:56:00Z,38.73,-93.53,7.6,0.1,210,13,,10.0,29.639763,1004.2,,,TRUE,TRUE,,,,,,CLR,,,,,,,,VFR,,,,,,,,,,,,METAR,259.0
KSXT 140356Z AUTO 11006KT 10SM CLR 06/04 A3040 RMK AO2 SLP298 T00560044,KSXT,2021-01-14T03:56:00Z,42.6,-123.37,5.6,4.4,110,6,,10.0,30.398623,1029.8,,TRUE,TRUE,,,,,,,CLR,,,,,,,,VFR,,,,,,,,,,,,METAR,1151.0
KSVN 140356Z AUTO 19004KT 10SM BKN100 BKN110 07/04 A3000 RMK AO2 RAE07 SLP162 P0000 T00660039 $,KSVN,2021-01-14T03:56:00Z,32.02,-81.12,6.6,3.9,190,4,,10.0,30.0,1016.2,,TRUE,TRUE,TRUE,,,,,,BKN,10000,BKN,11000,,,,,VFR,,,,,,0.005,,,,,,METAR,13.0
KSUE 140356Z AUTO 00000KT 4SM BR CLR M05/M06 A2966 RMK AO2 SLPNO T10501061 FZRANO,KSUE,2021-01-14T03:56:00Z,44.85,-87.42,-5.0,-6.1,0,0,,4.0,29.660433,,,TRUE,TRUE,,,,TRUE,,BR,CLR,,,,,,,,MVFR,,,,,,,,,,,,METAR,215.0
KSRC 140356Z AUTO 20005KT 10SM CLR 03/M01 A2990 RMK AO2 SLP125 T00281011,KSRC,2021-01-14T03:56:00Z,35.22,-91.73,2.8,-1.1,200,5,,10.0,29.899607,1012.5,,TRUE,TRUE,,,,,,,CLR,,,,,,,,VFR,,,,,,,,,,,,METAR,80.0
KSQI 140356Z 11004KT 10SM CLR 00/M01 A2966 RMK AO2 SLP913 T00001011 FZRANO,KSQI,2021-01-14T03:56:00Z,41.75,-89.67,0.0,-1.1,110,4,,10.0,29.660433,991.3,,,TRUE,,,,TRUE,,,CLR,,,,,,,,VFR,,,,,,,,,,,,METAR,196.0
KSPD 140356Z AUTO 29015KT 08/M01 A2980 RMK AO1 SLP072 T00781006,KSPD,2021-01-14T03:56:00Z,37.28,-102.62,7.8,-0.6,290,15,,,29.799213,1007.2,,TRUE,TRUE,,,,,,,,,,,,,,,,,,,,,,,,,,,METAR,1340.0
KSOP 140356Z AUTO 24003KT 8SM -RA OVC007 06/05 A2994 RMK AO2 RAB53 SLP145 T00610050 PNO $,KSOP,2021-01-14T03:56:00Z,35.23,-79.4,6.1,5.0,240,3,,8.0,29.940945,1014.5,,TRUE,TRUE,TRUE,,,,,-RA,OVC,700,,,,,,,IFR,,,,,,,,,,,,METAR,135.0
KSMP 140356Z AUTO VRB03KT 10SM BKN027 M01/M03 A3042 RMK AO2 SLP333 T10111028,KSMP,2021-01-14T03:56:00Z,47.28,-121.33,-1.1,-2.8,0,3,,10.0,30.41929,1033.3,,TRUE,TRUE,,,,,,,BKN,2700,,,,,,,MVFR,,,,,,,,,,,,METAR,1206.0
KSLG 140356Z AUTO 19011KT 10SM CLR 06/M01 A2980 RMK AO2 SLP096 T00611011 TSNO,KSLG,2021-01-14T03:56:00Z,36.2,-94.48,6.1,-1.1,190,11,,10.0,29.799213,1009.6,,TRUE,TRUE,,,TRUE,,,,CLR,,,,,,,,VFR,,,,,,,,,,,,METAR,361.0
KSLE 140356Z 00000KT 10SM CLR 06/03 A3044 RMK AO2 SLP309 T00560033,KSLE,2021-01-14T03:56:00Z,44.9,-123.0,5.6,3.3,0,0,,10.0,30.43996,1030.9,,,TRUE,,,,,,,CLR,,,,,,,,VFR,,,,,,,,,,,,METAR,63.0
KSKX 140356Z AUTO 28006KT 10SM CLR M02/M09 A3016 RMK AO2 SLP260 T10171089 FZRANO,KSKX,2021-01-14T03:56:00Z,36.45,-105.67,-1.7,-8.9,280,6,,10.0,30.159449,1026.0,,TRUE,TRUE,,,,TRUE,,,CLR,,,,,,,,VFR,,,,,,,,,,,,METAR,2163.0
KSKF 140356Z AUTO 21003KT 10SM CLR 08/M00 A3000 RMK AO2 SLP161 T00781002 $,KSKF,2021-01-14T03:56:00Z,29.38,-98.57,7.8,-0.2,210,3,,10.0,30.0,1016.1,,TRUE,TRUE,TRUE,,,,,,CLR,,,,,,,,VFR,,,,,,,,,,,,METAR,214.0
KSHV 140356Z 20006KT 10SM CLR 08/01 A2998 RMK AO2 SLP151 T00830011,KSHV,2021-01-14T03:56:00Z,32.45,-93.83,8.3,1.1,200,6,,10.0,29.97933,1015.1,,,TRUE,,,,,,,CLR,,,,,,,,VFR,,,,,,,,,,,,METAR,70.0
KSGU 140356Z AUTO 00000KT 10SM CLR 06/M14 A3027 RMK AO2 SLP263 T00561139,KSGU,2021-01-14T03:56:00Z,37.03,-113.52,5.6,-13.9,0,0,,10.0,30.268702,1026.3,,TRUE,TRUE,,,,,,,CLR,,,,,,,,VFR,,,,,,,,,,,,METAR,877.0
KSGT 140356Z AUTO 18007KT 10SM CLR 05/01 A2994 RMK AO2 SLP141 T00500011 PNO $,KSGT,2021-01-14T03:56:00Z,34.6,-91.57,5.0,1.1,180,7,,10.0,29.940945,1014.1,,TRUE,TRUE,TRUE,,,,,,CLR,,,,,,,,VFR,,,,,,,,,,,,METAR,67.0
KSGH 140356Z AUTO 23011KT 10SM SCT080 SCT100 BKN120 04/M01 A2982 RMK AO2 SLP109 T00391011 400721033,KSGH,2021-01-14T03:56:00Z,39.83,-83.83,3.9,-1.1,230,11,,10.0,29.819881,1010.9,,TRUE,TRUE,,,,,,,SCT,8000,SCT,10000,BKN,12000,,,VFR,,,,7.2,-3.3,,,,,,,METAR,318.0
KSFZ 140356Z AUTO 00000KT 10SM CLR 01/M03 A2989 RMK AO2 SLP071 T00061028 FZRANO PNO $,KSFZ,2021-01-14T03:56:00Z,41.92,-71.5,0.6,-2.8,0,0,,10.0,29.890747,1007.1,,TRUE,TRUE,TRUE,,,TRUE,,,CLR,,,,,,,,VFR,,,,,,,,,,,,METAR,129.0
KSFO 140356Z 29006KT 10SM CLR 14/12 A3035 RMK AO2 SLP277 T01440117,KSFO,2021-01-14T03:56:00Z,37.62,-122.37,14.4,11.7,290,6,,10.0,30.351377,1027.7,,,TRUE,,,,,,,CLR,,,,,,,,VFR,,,,,,,,,,,,METAR,2.0
KSFM 140356Z AUTO 21004KT 10SM 01/M03 A2988 RMK AO2 SLP123 T00061033 400331028 FZRANO $,KSFM,2021-01-14T03:56:00Z,43.38,-70.72,0.6,-3.3,210,4,,10.0,29.878937,1012.3,,TRUE,TRUE,TRUE,,,TRUE,,,,,,,,,,,,,,,3.3,-2.8,,,,,,,METAR,70.0
KSDF 140356Z 15006KT 10SM BKN200 OVC250 04/M02 A2987 RMK AO2 SLP116 T00441022,KSDF,2021-01-14T03:56:00Z,38.18,-85.73,4.4,-2.2,150,6,,10.0,29.870079,1011.6,,,TRUE,,,,,,,BKN,20000,OVC,25000,,,,,VFR,,,,,,,,,,,,METAR,146.0
KSBP 140356Z 20006KT 10SM CLR 18/02 A3022 RMK AO2 SLP234 T01780017,KSBP,2021-01-14T03:56:00Z,35.23,-120.63,17.8,1.7,200,6,,10.0,30.221457,1023.4,,,TRUE,,,,,,,CLR,,,,,,,,VFR,,,,,,,,,,,,METAR,52.0
KRYM 140356Z AUTO 14004KT 10SM BKN180 M01/M02 A2949 RMK AO2 SLP005 T10081025 $,KRYM,2021-01-14T03:56:00Z,46.08,-94.37,-0.8,-2.5,140,4,,10.0,29.489174,1000.5,,TRUE,TRUE,TRUE,,,,,,BKN,18000,,,,,,,VFR,,,,,,,,,,,,SPECI,344.0
KRUT 140356Z AUTO 00000KT 10SM OVC034 M01/M03 A2984 RMK AO2 SLP109 T10111033 FZRANO $,KRUT,2021-01-14T03:56:00Z,43.53,-72.95,-1.1,-3.3,0,0,,10.0,29.840551,1010.9,,TRUE,TRUE,TRUE,,,TRUE,,,OVC,3400,,,,,,,VFR,,,,,,,,,,,,METAR,238.0
KRND 140356Z AUTO 21006KT 10SM CLR 10/00 A3001 RMK AO2 SLP163 T01010001 $,KRND,2021-01-14T03:56:00Z,29.53,-98.27,10.1,0.1,210,6,,10.0,30.008858,1016.3,,TRUE,TRUE,TRUE,,,,,,CLR,,,,,,,,VFR,,,,,,,,,,,,METAR,224.0
KRKD 140356Z AUTO 21003KT 10SM OVC048 02/M04 A2990 RMK AO2 SLP123 T00221039 FZRANO,KRKD,2021-01-14T03:56:00Z,44.07,-69.1,2.2,-3.9,210,3,,10.0,29.899607,1012.3,,TRUE,TRUE,,,,TRUE,,,OVC,4800,,,,,,,VFR,,,,,,,,,,,,METAR,15.0
KRDM 140356Z 00000KT 10SM CLR M01/M07 A3046 RMK AO2 SLP333 T10061072,KRDM,2021-01-14T03:56:00Z,44.25,-121.15,-0.6,-7.2,0,0,,10.0,30.46063,1033.3,,,TRUE,,,,,,,CLR,,,,,,,,VFR,,,,,,,,,,,,METAR,930.0
KQRH 140356Z AUTO 00000KT 9999 CLR 21/16 A3001 RMK AO2 SLP165 WND DATA ESTMD T02110164,KQRH,2021-01-14T03:56:00Z,,,21.1,16.4,0,0,,6.21,30.008858,1016.5,,TRUE,TRUE,,,,,,,CLR,,,,,,,,VFR,,,,,,,,,,,,METAR,
KQN3 140356Z AUTO 00000KT 9999 FEW230 21/M02 A2992 RMK AO2 SLP122 WND DATA ESTMD T02091024,KQN3,2021-01-14T03:56:00Z,,,20.9,-2.4,0,0,,6.21,29.920275,1012.2,,TRUE,TRUE,,,,,,,FEW,23000,,,,,,,VFR,,,,,,,,,,,,METAR,
KQHY 140356Z AUTO 00000KT 10SM CLR 06/03 A3009 RMK AO2 SLPNO T00550032,KQHY,2021-01-14T03:56:00Z,,,5.5,3.2,0,0,,10.0,30.088583,,,TRUE,TRUE,,,,,,,CLR,,,,,,,,VFR,,,,,,,,,,,,METAR,
KQDG 140356Z AUTO 26029G37KT 9999 BKN055 02/M11 A2992 RMK AO2 SLPNO T00221109 $,KQDG,2021-01-14T03:56:00Z,,,2.2,-10.9,260,29,37,6.21,29.920275,,,TRUE,TRUE,TRUE,,,,,,BKN,5500,,,,,,,VFR,,,,,,,,,,,,METAR,
KQD3 140356Z AUTO VRB03KT 9999 CLR 21/17 A3002 RMK AO2 SLP150 WND DATA ESTMD T02110170,KQD3,2021-01-14T03:56:00Z,,,21.1,17.0,0,3,,6.21,30.02067,1015.0,,TRUE,TRUE,,,,,,,CLR,,,,,,,,VFR,,,,,,,,,,,,METAR,
KQBL 140356Z AUTO 00000KT M /// /// CLR 05/03 A3012 RMK AO2 SLPNO WND DATA ESTMD T00500034 $,KQBL,2021-01-14T03:56:00Z,,,5.0,3.4,0,0,,,30.121063,,,TRUE,TRUE,TRUE,,,,,,CLR,,,,,,,,,,,,,,,,,,,,METAR,
KQAZ 140356Z AUTO 09009KT 9999 CLR 19/M03 A2997 RMK AO2 SLP149 WND DATA ESTMD T01851028,KQAZ,2021-01-14T03:56:00Z,,,18.5,-2.8,90,9,,6.21,29.970472,1014.9,,TRUE,TRUE,,,,,,,CLR,,,,,,,,VFR,,,,,,,,,,,,SPECI,
KQAJ 140356Z 24003KT 9999 BKN220 08/M01 A3005 RMK AO2A SLP190 WND DATA ESTMD T00801008,KQAJ,2021-01-14T03:56:00Z,,,8.0,-0.8,240,3,,6.21,30.050198,1019.0,,,TRUE,,,,,,,BKN,22000,,,,,,,VFR,,,,,,,,,,,,METAR,
KPWT 140356Z AUTO 00000KT 10SM CLR 02/02 A3050 RMK AO2 SLP335 T00220017 FZRANO $,KPWT,2021-01-14T03:56:00Z,47.5,-122.77,2.2,1.7,0,0,,10.0,30.499016,1033.5,,TRUE,TRUE,TRUE,,,TRUE,,,CLR,,,,,,,,VFR,,,,,,,,,,,,METAR,143.0
KPWG 140356Z AUTO 18005KT 10SM CLR 08/03 A2997 RMK AO2 SLP150 T00780033 $,KPWG,2021-01-14T03:56:00Z,31.48,-97.32,7.8,3.3,180,5,,10.0,29.970472,1015.0,,TRUE,TRUE,TRUE,,,,,,CLR,,,,,,,,VFR,,,,,,,,,,,,METAR,178.0
KPVU 140356Z 30016KT 10SM BKN060 OVC080 03/M02 A3035 RMK AO2 SLP293 T00331017,KPVU,2021-01-14T03:56:00Z,40.22,-111.72,3.3,-1.7,300,16,,10.0,30.351377,1029.3,,,TRUE,,,,,,,BKN,6000,OVC,8000,,,,,VFR,,,,,,,,,,,,SPECI,1370.0
KPVC 140356Z AUTO 22006KT 10SM OVC039 03/M01 A2993 RMK AO2 SLP133 T00331011 $,KPVC,2021-01-14T03:56:00Z,42.07,-70.22,3.3,-1.1,220,6,,10.0,29.929134,1013.3,,TRUE,TRUE,TRUE,,,,,,OVC,3900,,,,,,,VFR,,,,,,,,,,,,METAR,1.0
KPTV 140356Z AUTO 10004KT 5SM HZ CLR 08/05 A3036 RMK AO2 SLP282 T00780050,KPTV,2021-01-14T03:56:00Z,36.02,-119.07,7.8,5.0,100,4,,5.0,30.360237,1028.2,,TRUE,TRUE,,,,,,HZ,CLR,,,,,,,,MVFR,,,,,,,,,,,,METAR,132.0
KPTN 140356Z AUTO 00000KT 10SM CLR 04/04 A3012 RMK AO2 SLP200 T00390039 $,KPTN,2021-01-14T03:56:00Z,29.72,-91.33,3.9,3.9,0,0,,10.0,30.121063,1020.0,,TRUE,TRUE,TRUE,,,,,,CLR,,,,,,,,VFR,,,,,,,,,,,,METAR,2.0
KPSM 140356Z 20003KT 10SM OVC039 02/M06 A2987 RMK AO2A SLP118 T00161062 RVRNO $,KPSM,2021-01-14T03:56:00Z,43.08,-70.82,1.6,-6.2,200,3,,10.0,29.870079,1011.8,,,TRUE,TRUE,,,,,,OVC,3900,,,,,,,VFR,,,,,,,,,,,,METAR,34.0
KPRX 140356Z AUTO 18008KT 10SM CLR 05/00 A2992 RMK AO2 SLP149 T00500000,KPRX,2021-01-14T03:56:00Z,33.63,-95.45,5.0,0.0,180,8,,10.0,29.920275,1014.9,,TRUE,TRUE,,,,,,,CLR,,,,,,,,VFR,,,,,,,,,,,,SPECI,165.0
KPQI 140356Z AUTO 20004KT 10SM FEW044 BKN060 M03/M07 A2984 RMK AO2 SLP138 T10331072,KPQI,2021-01-14T03:56:00Z,46.68,-68.05,-3.3,-7.2,200,4,,10.0,29.840551,1013.8,,TRUE,TRUE,,,,,,,FEW,4400,BKN,6000,,,,,VFR,,,,,,,,,,,,METAR,154.0
KPIB 140356Z AUTO 20005KT 10SM CLR 05/02 A3007 RMK AO2 SLP183 T00500022,KPIB,2021-01-14T03:56:00Z,31.47,-89.33,5.0,2.2,200,5,,10.0,30.070866,1018.3,,TRUE,TRUE,,,,,,,CLR,,,,,,,,VFR,,,,,,,,,,,,METAR,91.0
KPAM 140356Z AUTO 00000KT 10SM CLR 05/03 A3009 RMK AO2 SLP193 T00460031 $,KPAM,2021-01-14T03:56:00Z,30.07,-85.57,4.6,3.1,0,0,,10.0,30.088583,1019.3,,TRUE,TRUE,TRUE,,,,,,CLR,,,,,,,,VFR,,,,,,,,,,,,METAR,4.0
KP60 140356Z AUTO 28006G16KT M08/M16 A3014 RMK AO1 SLP237 T10781156,KP60,2021-01-14T03:56:00Z,44.55,-110.42,-7.8,-15.6,280,6,16,,30.138779,1023.7,,TRUE,TRUE,,,,,,,,,,,,,,,,,,,,,,,,,,,METAR,2377.0
KP53 140356Z AUTO 19005KT M03/M04 A2967 RMK AO1 SLPNO T10281044,KP53,2021-01-14T03:56:00Z,46.42,-86.65,-2.8,-4.4,190,5,,,29.66929,,,TRUE,TRUE,,,,,,,,,,,,,,,,,,,,,,,,,,,METAR,185.0
KP28 140356Z AUTO 34003KT 04/M03 A2972 RMK AO1 SLP077 T00391033 $,KP28,2021-01-14T03:56:00Z,37.28,-98.55,3.9,-3.3,340,3,,,29.719488,1007.7,,TRUE,TRUE,TRUE,,,,,,,,,,,,,,,,,,,,,,,,,,METAR,469.0
KOZR 140356Z AUTO 00000KT 10SM CLR 02/00 A3007 RMK AO2 SLP187 T00170002,KOZR,2021-01-14T03:56:00Z,31.28,-85.72,1.7,0.2,0,0,,10.0,30.070866,1018.7,,TRUE,TRUE,,,,,,,CLR,,,,,,,,VFR,,,,,,,,,,,,METAR,90.0
KOWB 140356Z 18007KT 10SM CLR 04/M01 A2988 RMK AO2 SLP120 T00391011,KOWB,2021-01-14T03:56:00Z,37.72,-87.17,3.9,-1.1,180,7,,10.0,29.878937,1012.0,,,TRUE,,,,,,,CLR,,,,,,,,VFR,,,,,,,,,,,,METAR,121.0
KOTH 140356Z 12004KT 10SM CLR 11/09 A3040 RMK AO2 SLP295 T01110089,KOTH,2021-01-14T03:56:00Z,43.42,-124.25,11.1,8.9,120,4,,10.0,30.398623,1029.5,,,TRUE,,,,,,,CLR,,,,,,,,VFR,,,,,,,,,,,,SPECI,3.0
KOTG 140356Z AUTO 22006KT 10SM CLR 02/M01 A2949 RMK AO2 SLP001 T00171006 FZRANO,KOTG,2021-01-14T03:56:00Z,43.65,-95.57,1.7,-0.6,220,6,,10.0,29.489174,1000.1,,TRUE,TRUE,,,,TRUE,,,CLR,,,,,,,,VFR,,,,,,,,,,,,METAR,478.0
KOLU 140356Z AUTO 00000KT 10SM SCT070 BKN090 BKN120 04/02 A2953 RMK AO2 RAB35E49 SLP010 P0000 T00390017,KOLU,2021-01-14T03:56:00Z,41.45,-97.33,3.9,1.7,0,0,,10.0,29.530512,1001.0,,TRUE,TRUE,,,,,,,SCT,7000,BKN,9000,BKN,12000,,,VFR,,,,,,0.005,,,,,,METAR,438.0
KOKK 140356Z AUTO 21011KT 10SM OVC110 04/M01 A2978 RMK AO2 SLP090 T00441006 400671017,KOKK,2021-01-14T03:56:00Z,40.53,-86.07,4.4,-0.6,210,11,,10.0,29.778543,1009.0,,TRUE,TRUE,,,,,,,OVC,11000,,,,,,,VFR,,,,6.7,-1.7,,,,,,,METAR,251.0
KOFK 140356Z AUTO 00000KT 10SM FEW065 BKN110 08/01 A2949 RMK AO2 RAB33E44 SLP993 P0000 T00780011,KOFK,2021-01-14T03:56:00Z,41.98,-97.43,7.8,1.1,0,0,,10.0,29.489174,999.3,,TRUE,TRUE,,,,,,,FEW,6500,BKN,11000,,,,,VFR,,,,,,0.005,,,,,,METAR,476.0
KOFF 140356Z AUTO 00000KT 10SM SCT140 04/00 A2954 RMK AO2 SLP015 T00410001 $,KOFF,2021-01-14T03:56:00Z,41.12,-95.92,4.1,0.1,0,0,,10.0,29.53937,1001.5,,TRUE,TRUE,TRUE,,,,,,SCT,14000,,,,,,,VFR,,,,,,,,,,,,METAR,308.0
KOCH 140356Z AUTO 18006KT 10SM CLR 07/03 A3002 RMK AO2 SLP173 T00670028,KOCH,2021-01-14T03:56:00Z,31.57,-94.72,6.7,2.8,180,6,,10.0,30.02067,1017.3,,TRUE,TRUE,,,,,,,CLR,,,,,,,,VFR,,,,,,,,,,,,SPECI,105.0
KOAJ 140356Z AUTO 20006KT 7SM FEW020 SCT110 07/06 A2997 RMK AO2 SLP151 T00670061 $,KOAJ,2021-01-14T03:56:00Z,34.82,-77.62,6.7,6.1,200,6,,7.0,29.970472,1015.1,,TRUE,TRUE,TRUE,,,,,,FEW,2000,SCT,11000,,,,,VFR,,,,,,,,,,,,METAR,26.0
KNYG 140356Z AUTO 28006KT 7SM CLR 00/M02 A2990 RMK AO2 SLP127 T00001017 $,KNYG,2021-01-14T03:56:00Z,38.5,-77.3,0.0,-1.7,280,6,,7.0,29.899607,1012.7,,TRUE,TRUE,TRUE,,,,,,CLR,,,,,,,,VFR,,,,,,,,,,,,METAR,2.0
KNXP 140356Z AUTO 30007KT 9SM CLR 13/M11 A3030 RMK AO2 SLP245 T01281106,KNXP,2021-01-14T03:56:00Z,34.28,-116.13,12.8,-10.6,300,7,,9.0,30.301182,1024.5,,TRUE,TRUE,,,,,,,CLR,,,,,,,,VFR,,,,,,,,,,,,METAR,610.0
KNUW 140356Z 00000KT 10SM SCT080 BKN150 BKN250 06/02 A3056 RMK AO2 SLP346 T00610022,KNUW,2021-01-14T03:56:00Z,48.35,-122.65,6.1,2.2,0,0,,10.0,30.561024,1034.6,,,TRUE,,,,,,,SCT,8000,BKN,15000,BKN,25000,,,VFR,,,,,,,,,,,,METAR,14.0
KNUC 140356Z 00000KT 13/ A3018 RMK AO2 SLP217 T0133 $,KNUC,2021-01-14T03:56:00Z,33.02,-118.57,13.3,,0,0,,,30.180119,1021.7,,,TRUE,TRUE,,,,,,,,,,,,,,,,,,,,,,,,,,METAR,52.0
KNTU 140356Z 00000KT 10SM SCT180 02/M03 A2994 RMK AO2 SLP141 T00171028,KNTU,2021-01-14T03:56:00Z,36.82,-76.02,1.7,-2.8,0,0,,10.0,29.940945,1014.1,,,TRUE,,,,,,,SCT,18000,,,,,,,VFR,,,,,,,,,,,,SPECI,6.0
KNSE 140356Z 29005KT 10SM CLR 04/01 A3009 RMK SLP180 T00390011,KNSE,2021-01-14T03:56:00Z,30.73,-87.02,3.9,1.1,290,5,,10.0,30.088583,1018.0,,,,,,,,,,CLR,,,,,,,,VFR,,,,,,,,,,,,METAR,56.0
KNRS 140356Z 24004KT 8SM BKN250 14/11 A3017 RMK AO2 SLP216 T01440111 $,KNRS,2021-01-14T03:56:00Z,32.57,-117.12,14.4,11.1,240,4,,8.0,30.171259,1021.6,,,TRUE,TRUE,,,,,,BKN,25000,,,,,,,VFR,,,,,,,,,,,,METAR,15.0
KNQI 140356Z 18009KT 10SM FEW250 07/05 A3009 RMK AO2 SLP186 T00720050 $,KNQI,2021-01-14T03:56:00Z,27.5,-97.82,7.2,5.0,180,9,,10.0,30.088583,1018.6,,,TRUE,TRUE,,,,,,FEW,25000,,,,,,,VFR,,,,,,,,,,,,METAR,15.0
KNOG 140356Z AUTO 20007KT 10SM CLR A3008 RMK AO2 SLPNO $,KNOG,2021-01-14T03:56:00Z,27.9,-98.05,,,200,7,,10.0,30.079725,,,TRUE,TRUE,TRUE,,,,,,CLR,,,,,,,,VFR,,,,,,,,,,,,METAR,72.0
KNMM 140356Z 00000KT 10SM CLR 00/M01 A3005 RMK AO2 SLP189 T00001011,KNMM,2021-01-14T03:56:00Z,32.53,-88.53,0.0,-1.1,0,0,,10.0,30.050198,1018.9,,,TRUE,,,,,,,CLR,,,,,,,,VFR,,,,,,,,,,,,METAR,94.0
KNLC 140356Z 17004KT 6SM HZ CLR 11/02 A3034 RMK AO2 SLP277 RH/54 T01110022,KNLC,2021-01-14T03:56:00Z,36.32,-119.95,11.1,2.2,170,4,,6.0,30.339567,1027.7,,,TRUE,,,,,,HZ,CLR,,,,,,,,VFR,,,,,,,,,,,,METAR,69.0
KNJK 140356Z 00000KT 10SM BKN250 12/M04 A3018 RMK SLP234 T01171044,KNJK,2021-01-14T03:56:00Z,32.82,-115.67,11.7,-4.4,0,0,,10.0,30.180119,1023.4,,,,,,,,,,BKN,25000,,,,,,,VFR,,,,,,,,,,,,METAR,-15.0
KNID 140356Z 27004KT 10SM BKN250 07/M08 A3027 RMK AO2 SLP263 T00671083 $,KNID,2021-01-14T03:56:00Z,35.68,-117.68,6.7,-8.3,270,4,,10.0,30.268702,1026.3,,,TRUE,TRUE,,,,,,BKN,25000,,,,,,,VFR,,,,,,,,,,,,METAR,682.0
KNGP 140356Z 19008KT 10SM SCT250 11/07 A3008 RMK AO2 SLP187 T01110072,KNGP,2021-01-14T03:56:00Z,27.68,-97.28,11.1,7.2,190,8,,10.0,30.079725,1018.7,,,TRUE,,,,,,,SCT,25000,,,,,,,VFR,,,,,,,,,,,,METAR,5.0
KNFL 140356Z VRB05KT 10SM FEW120 FEW250 07/01 A3041 RMK AO2 SLP253 T00670011,KNFL,2021-01-14T03:56:00Z,39.42,-118.7,6.7,1.1,0,5,,10.0,30.410433,1025.3,,,TRUE,,,,,,,FEW,12000,FEW,25000,,,,,VFR,,,,,,,,,,,,METAR,1199.0
KNFE 140356Z AUTO 00000KT 10SM CLR 01/M02 A2995 RMK AO2 SLP143 T00111022,KNFE,2021-01-14T03:56:00Z,36.7,-76.13,1.1,-2.2,0,0,,10.0,29.949802,1014.3,,TRUE,TRUE,,,,,,,CLR,,,,,,,,VFR,,,,,,,,,,,,METAR,4.0
KNDZ 140356Z 30003KT 8SM CLR 04/02 A3009 RMK SLP180 T00390017,KNDZ,2021-01-14T03:56:00Z,30.7,-87.02,3.9,1.7,300,3,,8.0,30.088583,1018.0,,,,,,,,,,CLR,,,,,,,,VFR,,,,,,,,,,,,METAR,51.0
KNCA 140356Z 24003KT 10SM FEW110 07/06 A2995 RMK AO2 SLP144 T00670056,KNCA,2021-01-14T03:56:00Z,34.72,-77.45,6.7,5.6,240,3,,10.0,29.949802,1014.4,,,TRUE,,,,,,,FEW,11000,,,,,,,VFR,,,,,,,,,,,,METAR,9.0
KNBT 140356Z AUTO 17004KT 5SM BR CLR 06/06 A2996 RMK AO2 SLP150 T00560056,KNBT,2021-01-14T03:56:00Z,35.02,-76.47,5.6,5.6,170,4,,5.0,29.958662,1015.0,,TRUE,TRUE,,,,,,BR,CLR,,,,,,,,MVFR,,,,,,,,,,,,METAR,5.0
KNBC 140356Z 17004KT 9SM OVC095 07/06 A3002 RMK AO2 RAB26E54 SLP164 P0000 T00720056,KNBC,2021-01-14T03:56:00Z,32.47,-80.72,7.2,5.6,170,4,,9.0,30.02067,1016.4,,,TRUE,,,,,,,OVC,9500,,,,,,,VFR,,,,,,0.005,,,,,,METAR,9.0
KMYR 140356Z AUTO 00000KT 10SM -RA FEW050 SCT075 OVC090 08/06 A2996 RMK AO2 RAE16B33 PRESFR SLP145 P0000 T00780061,KMYR,2021-01-14T03:56:00Z,33.68,-78.92,7.8,6.1,0,0,,10.0,29.958662,1014.5,,TRUE,TRUE,,,,,,-RA,FEW,5000,SCT,7500,OVC,9000,,,VFR,,,,,,0.005,,,,,,METAR,7.0
KMXF 140356Z AUTO 00000KT 10SM CLR 01/00 A3006 RMK AO2 SLP183 T00100003 $,KMXF,2021-01-14T03:56:00Z,32.38,-86.37,1.0,0.3,0,0,,10.0,30.059055,1018.3,,TRUE,TRUE,TRUE,,,,,,CLR,,,,,,,,VFR,,,,,,,,,,,,METAR,47.0
KMVN 140356Z AUTO 19006KT 10SM CLR 01/00 A2981 RMK AO2 SLP101 T00110000 FZRANO,KMVN,2021-01-14T03:56:00Z,38.32,-88.87,1.1,0.0,190,6,,10.0,29.811024,1010.1,,TRUE,TRUE,,,,TRUE,,,CLR,,,,,,,,VFR,,,,,,,,,,,,METAR,145.0
KMTW 140356Z AUTO 00000KT 5SM BR CLR M02/M03 A2966 RMK AO2 SLP052 T10221033 FZRANO,KMTW,2021-01-14T03:56:00Z,44.12,-87.67,-2.2,-3.3,0,0,,5.0,29.660433,1005.2,,TRUE,TRUE,,,,TRUE,,BR,CLR,,,,,,,,MVFR,,,,,,,,,,,,METAR,197.0
KMTC 140356Z 23008KT 10SM OVC130 04/02 A2971 RMK AO2A SLP070 T00400017 $,KMTC,2021-01-14T03:56:00Z,42.62,-82.83,4.0,1.7,230,8,,10.0,29.71063,1007.0,,,TRUE,TRUE,,,,,,OVC,13000,,,,,,,VFR,,,,,,,,,,,,METAR,177.0
KMSV 140356Z AUTO 00000KT 8SM CLR M03/M04 A2984 RMK AO2 SLP122 T10331044 FZRANO,KMSV,2021-01-14T03:56:00Z,41.7,-74.78,-3.3,-4.4,0,0,,8.0,29.840551,1012.2,,TRUE,TRUE,,,,TRUE,,,CLR,,,,,,,,VFR,,,,,,,,,,,,METAR,427.0
KMRF 140356Z AUTO 00000KT 10SM CLR 04/M15 A3015 RMK AO2 SLP205 T00391150,KMRF,2021-01-14T03:56:00Z,30.37,-104.02,3.9,-15.0,0,0,,10.0,30.15059,1020.5,,TRUE,TRUE,,,,,,,CLR,,,,,,,,VFR,,,,,,,,,,,,METAR,1476.0
KMQY 140356Z AUTO 17005KT 10SM CLR 01/M02 A2996 RMK AO2 SLP158 T00111017 PNO $,KMQY,2021-01-14T03:56:00Z,36.02,-86.52,1.1,-1.7,170,5,,10.0,29.958662,1015.8,,TRUE,TRUE,TRUE,,,,,,CLR,,,,,,,,VFR,,,,,,,,,,,,METAR,156.0
KMOB 140356Z 21004KT 10SM CLR 04/02 A3010 RMK AO2 SLP192 T00440022,KMOB,2021-01-14T03:56:00Z,30.68,-88.25,4.4,2.2,210,4,,10.0,30.100393,1019.2,,,TRUE,,,,,,,CLR,,,,,,,,VFR,,,,,,,,,,,,METAR,67.0
KMMT 140356Z 22003KT 10SM OVC010 05/05 A2997 RMK AO2A SLP153 T00530053 $,KMMT,2021-01-14T03:56:00Z,33.92,-80.8,5.3,5.3,220,3,,10.0,29.970472,1015.3,,,TRUE,TRUE,,,,,,OVC,1000,,,,,,,MVFR,,,,,,,,,,,,METAR,76.0
KMML 140356Z AUTO 24008KT 10SM CLR 04/00 A2948 RMK AO2 SLP992 T00390000,KMML,2021-01-14T03:56:00Z,44.45,-95.82,3.9,0.0,240,8,,10.0,29.480314,999.2,,TRUE,TRUE,,,,,,,CLR,,,,,,,,VFR,,,,,,,,,,,,METAR,358.0
KMKY 140356Z AUTO 00000KT 7SM -RA OVC050 14/14 A3008 RMK AO2 SLP185 P0002 T01440139 401940128 TSNO $,KMKY,2021-01-14T03:56:00Z,26.0,-81.67,14.4,13.9,0,0,,7.0,30.079725,1018.5,,TRUE,TRUE,TRUE,,TRUE,,,-RA,OVC,5000,,,,,,,VFR,,,,19.4,12.8,0.02,,,,,,METAR,2.0
KMKT 140356Z AUTO 17006KT 10SM CLR 02/01 A2950 RMK AO2 SLP002 T00170011 FZRANO,KMKT,2021-01-14T03:56:00Z,44.22,-93.92,1.7,1.1,170,6,,10.0,29.500984,1000.2,,TRUE,TRUE,,,,TRUE,,,CLR,,,,,,,,VFR,,,,,,,,,,,,METAR,309.0
KMJX 140356Z AUTO 00000KT 10SM CLR M04/M06 A2993 RMK AO2 SLP140 T10441061 FZRANO,KMJX,2021-01-14T03:56:00Z,39.93,-74.3,-4.4,-6.1,0,0,,10.0,29.929134,1014.0,,TRUE,TRUE,,,,TRUE,,,CLR,,,,,,,,VFR,,,,,,,,,,,,METAR,22.0
KMIB 140356Z AUTO 29020G33KT 10SM BKN038 BKN047 04/M01 A2937 RMK AO2 PK WND 30034/42 SLP964 T00391013 $,KMIB,2021-01-14T03:56:00Z,48.42,-101.35,3.9,-1.3,290,20,33,10.0,29.371063,996.4,,TRUE,TRUE,TRUE,,,,,,BKN,3800,BKN,4700,,,,,VFR,,,,,,,,,,,,METAR,505.0
KMHS 140356Z AUTO 00000KT 9SM CLR 03/02 A3045 RMK AO2 SLP340 T00280017,KMHS,2021-01-14T03:56:00Z,41.32,-122.32,2.8,1.7,0,0,,9.0,30.448818,1034.0,,TRUE,TRUE,,,,,,,CLR,,,,,,,,VFR,,,,,,,,,,,,METAR,1080.0
KMGE 140356Z 29007KT 10SM CLR 02/M02 A3000 RMK AO2A SLP167 T00181022 $,KMGE,2021-01-14T03:56:00Z,33.92,-84.52,1.8,-2.2,290,7,,10.0,30.0,1016.7,,,TRUE,TRUE,,,,,,CLR,,,,,,,,VFR,,,,,,,,,,,,METAR,309.0
KMEH 140356Z AUTO 00000KT 10SM CLR M01/M04 A3044 RMK AO2 SLP333 T10111039,KMEH,2021-01-14T03:56:00Z,45.52,-118.42,-1.1,-3.9,0,0,,10.0,30.43996,1033.3,,TRUE,TRUE,,,,,,,CLR,,,,,,,,VFR,,,,,,,,,,,,METAR,1138.0
KMDT 140356Z 11003KT 10SM BKN150 02/M03 A2988 RMK AO2 SLP121 T00171028,KMDT,2021-01-14T03:56:00Z,40.2,-76.77,1.7,-2.8,110,3,,10.0,29.878937,1012.1,,,TRUE,,,,,,,BKN,15000,,,,,,,VFR,,,,,,,,,,,,METAR,91.0
KM19 140356Z AUTO 20012KT 10SM CLR 04/01 A2986 RMK AO2 SLP112 T00390006,KM19,2021-01-14T03:56:00Z,35.65,-91.17,3.9,0.6,200,12,,10.0,29.861221,1011.2,,TRUE,TRUE,,,,,,,CLR,,,,,,,,VFR,,,,,,,,,,,,METAR,72.0
KLZU 140356Z AUTO 26006KT 10SM CLR 03/M03 A2998 RMK AO2 SLP166 T00281028,KLZU,2021-01-14T03:56:00Z,33.98,-83.97,2.8,-2.8,260,6,,10.0,29.97933,1016.6,,TRUE,TRUE,,,,,,,CLR,,,,,,,,VFR,,,,,,,,,,,,METAR,316.0
KLWS 140356Z 12005KT 10SM CLR 03/M04 A3046 RMK AO2 SLP325 T00331044,KLWS,2021-01-14T03:56:00Z,46.37,-117.02,3.3,-4.4,120,5,,10.0,30.46063,1032.5,,,TRUE,,,,,,,CLR,,,,,,,,VFR,,,,,,,,,,,,METAR,435.0
KLTS 140356Z 15003KT 10SM CLR 02/00 A2978 RMK AO2A SLP092 T00201245 $,KLTS,2021-01-14T03:56:00Z,34.67,-99.27,2.0,0.0,150,3,,10.0,29.778543,1009.2,,,TRUE,TRUE,,,,,,CLR,,,,,,,,VFR,,,,,,,,,,,,METAR,416.0
KLSF 140356Z AUTO 00000KT 10SM CLR 01/M02 A3004 RMK AO2 SLP179 T00051021,KLSF,2021-01-14T03:56:00Z,32.32,-84.97,0.5,-2.1,0,0,,10.0,30.041338,1017.9,,TRUE,TRUE,,,,,,,CLR,,,,,,,,VFR,,,,,,,,,,,,METAR,68.0
KLRF 140356Z AUTO 19007KT 10SM CLR 07/M01 A2990 RMK AO2 SLP129 T00661006,KLRF,2021-01-14T03:56:00Z,34.92,-92.12,6.6,-0.6,190,7,,10.0,29.899607,1012.9,,TRUE,TRUE,,,,,,,CLR,,,,,,,,VFR,,,,,,,,,,,,METAR,85.0
KLRD 140356Z 16005KT 10SM CLR 09/02 A3006 RMK AO2 SLP182 T00890022 $,KLRD,2021-01-14T03:56:00Z,27.55,-99.47,8.9,2.2,160,5,,10.0,30.059055,1018.2,,,TRUE,TRUE,,,,,,CLR,,,,,,,,VFR,,,,,,,,,,,,METAR,150.0
KLPC 140356Z AUTO 00000KT 10SM CLR 09/07 A3021 RMK AO2 SLP230 T00940072,KLPC,2021-01-14T03:56:00Z,34.67,-120.47,9.4,7.2,0,0,,10.0,30.209646,1023.0,,TRUE,TRUE,,,,,,,CLR,,,,,,,,VFR,,,,,,,,,,,,METAR,26.0
KLNR 140356Z AUTO 14003KT 10SM OVC100 01/M02 A2963 RMK AO2 SLP036 T00111017,KLNR,2021-01-14T03:56:00Z,43.22,-90.18,1.1,-1.7,140,3,,10.0,29.630905,1003.6,,TRUE,TRUE,,,,,,,OVC,10000,,,,,,,VFR,,,,,,,,,,,,METAR,218.0
KLHW 140356Z AUTO 00000KT 10SM FEW095 05/05 A3002 RMK AO2 SLP169 T00520045 $,KLHW,2021-01-14T03:56:00Z,31.88,-81.57,5.2,4.5,0,0,,10.0,30.02067,1016.9,,TRUE,TRUE,TRUE,,,,,,FEW,9500,,,,,,,VFR,,,,,,,,,,,,METAR,14.0
KLGD 140356Z AUTO 00000KT 10SM CLR M01/M03 A3050 RMK AO2 SLP348 T10061028 FZRANO,KLGD,2021-01-14T03:56:00Z,45.28,-118.0,-0.6,-2.8,0,0,,10.0,30.499016,1034.8,,TRUE,TRUE,,,,TRUE,,,CLR,,,,,,,,VFR,,,,,,,,,,,,METAR,827.0
KLFI 140356Z AUTO 18004KT 10SM FEW190 04/M01 A2993 RMK AO2 SLP142 T00431009 $,KLFI,2021-01-14T03:56:00Z,37.08,-76.33,4.3,-0.9,180,4,,10.0,29.929134,1014.2,,TRUE,TRUE,TRUE,,,,,,FEW,19000,,,,,,,VFR,,,,,,,,,,,,METAR,2.0
KLEW 140356Z AUTO 16004KT 10SM OVC046 00/M05 A2986 RMK AO2 SLP121 T00001050 FZRANO,KLEW,2021-01-14T03:56:00Z,44.03,-70.28,0.0,-5.0,160,4,,10.0,29.861221,1012.1,,TRUE,TRUE,,,,TRUE,,,OVC,4600,,,,,,,VFR,,,,,,,,,,,,METAR,81.0
KLCI 140356Z AUTO 00000KT 10SM OVC040 M01/M03 A2985 RMK AO2 SLP115 T10111028 FZRANO,KLCI,2021-01-14T03:56:00Z,43.57,-71.42,-1.1,-2.8,0,0,,10.0,29.84941,1011.5,,TRUE,TRUE,,,,TRUE,,,OVC,4000,,,,,,,VFR,,,,,,,,,,,,METAR,166.0
KLBL 140356Z AUTO 23009KT 10SM CLR 06/M02 A2976 RMK AO2 SLP085 T00561017,KLBL,2021-01-14T03:56:00Z,37.03,-100.97,5.6,-1.7,230,9,,10.0,29.760826,1008.5,,TRUE,TRUE,,,,,,,CLR,,,,,,,,VFR,,,,,,,,,,,,METAR,877.0
KLAS 140356Z 25006KT 10SM SCT250 12/M10 A3024 RMK AO2 SLP239 T01171100,KLAS,2021-01-14T03:56:00Z,36.07,-115.17,11.7,-10.0,250,6,,10.0,30.239174,1023.9,,,TRUE,,,,,,,SCT,25000,,,,,,,VFR,,,,,,,,,,,,METAR,662.0
KKLS 140356Z AUTO 00000KT 10SM CLR 06/04 A3051 RMK AO2 SLP334 T00560044,KKLS,2021-01-14T03:56:00Z,46.12,-122.9,5.6,4.4,0,0,,10.0,30.510826,1033.4,,TRUE,TRUE,,,,,,,CLR,,,,,,,,VFR,,,,,,,,,,,,METAR,4.0
KJXN 140356Z AUTO 22011KT 8SM -RA OVC043 03/01 A2973 RMK AO2 UPB33E47 SLP075 P0000 T00280006 $,KJXN,2021-01-14T03:56:00Z,42.27,-84.47,2.8,0.6,220,11,,8.0,29.731298,1007.5,,TRUE,TRUE,TRUE,,,,,-RA,OVC,4300,,,,,,,VFR,,,,,,0.005,,,,,,METAR,303.0
KJRB 140356Z AUTO 24004KT 10SM OVC110 04/M02 A2993 RMK AO2 SLP134 T00441017,KJRB,2021-01-14T03:56:00Z,40.7,-74.02,4.4,-1.7,240,4,,10.0,29.929134,1013.4,,TRUE,TRUE,,,,,,,OVC,11000,,,,,,,VFR,,,,,,,,,,,,METAR,2.0
KJMS 140356Z AUTO 28006KT 10SM BKN075 OVC090 06/03 A2940 RMK AO2 SLP965 T00560028,KJMS,2021-01-14T03:56:00Z,46.93,-98.67,5.6,2.8,280,6,,10.0,29.40059,996.5,,TRUE,TRUE,,,,,,,BKN,7500,OVC,9000,,,,,VFR,,,,,,,,,,,,METAR,455.0
KJHW 140356Z AUTO 20008KT 130V240 10SM BKN120 01/M02 A2976 RMK AO2 SLP099 T00111022 FZRANO,KJHW,2021-01-14T03:56:00Z,42.15,-79.27,1.1,-2.2,200,8,,10.0,29.760826,1009.9,,TRUE,TRUE,,,,TRUE,,,BKN,12000,,,,,,,VFR,,,,,,,,,,,,METAR,520.0
KJAX 140356Z 27004KT 10SM SCT016 BKN085 07/05 A3007 RMK AO2 SLP183 T00670050,KJAX,2021-01-14T03:56:00Z,30.5,-81.68,6.7,5.0,270,4,,10.0,30.070866,1018.3,,,TRUE,,,,,,,SCT,1600,BKN,8500,,,,,VFR,,,,,,,,,,,,METAR,8.0
KJAC 140356Z AUTO 24015G32KT 10SM CLR M03/M16 A3018 RMK AO2 PK WND 36044/0326 SLP255 T10331161 FZRANO,KJAC,2021-01-14T03:56:00Z,43.62,-110.73,-3.3,-16.1,240,15,32,10.0,30.180119,1025.5,,TRUE,TRUE,,,,TRUE,,,CLR,,,,,,,,VFR,,,,,,,,,,,,METAR,1967.0
KITH 140356Z AUTO 16007KT 10SM CLR M01/M03 A2979 RMK AO2 SLP099 T10061033 400171022,KITH,2021-01-14T03:56:00Z,42.48,-76.45,-0.6,-3.3,160,7,,10.0,29.790354,1009.9,,TRUE,TRUE,,,,,,,CLR,,,,,,,,VFR,,,,1.7,-2.2,,,,,,,METAR,338.0
KISP 140356Z 00000KT 8SM OVC100 M01/M04 A2992 RMK AO2 SLP132 T10111039,KISP,2021-01-14T03:56:00Z,40.8,-73.1,-1.1,-3.9,0,0,,8.0,29.920275,1013.2,,,TRUE,,,,,,,OVC,10000,,,,,,,VFR,,,,,,,,,,,,METAR,25.0
KISM 140356Z AUTO 30006KT 10SM BKN036 OVC110 12/11 A3010 RMK AO2 RAE00B29E53 SLP194 T01170111 PNO $,KISM,2021-01-14T03:56:00Z,28.28,-81.43,11.7,11.1,300,6,,10.0,30.100393,1019.4,,TRUE,TRUE,TRUE,,,,,,BKN,3600,OVC,11000,,,,,VFR,,,,,,,,,,,,METAR,25.0
KINW 140356Z AUTO 25006KT 10SM CLR M03/M21 A3028 RMK AO2 SLP291 T10331206 TSNO,KINW,2021-01-14T03:56:00Z,35.03,-110.72,-3.3,-20.6,250,6,,10.0,30.280512,1029.1,,TRUE,TRUE,,,TRUE,,,,CLR,,,,,,,,VFR,,,,,,,,,,,,METAR,1492.0
KIAB 140356Z AUTO 22012KT 10SM CLR 06/M00 A2969 RMK AO2 SLP064 T00571002 $,KIAB,2021-01-14T03:56:00Z,37.62,-97.27,5.7,-0.2,220,12,,10.0,29.68996,1006.4,,TRUE,TRUE,TRUE,,,,,,CLR,,,,,,,,VFR,,,,,,,,,,,,METAR,413.0
KHYS 140356Z AUTO 25007KT 10SM SCT120 11/M02 A2967 RMK AO2 SLP048 T01061022,KHYS,2021-01-14T03:56:00Z,38.85,-99.27,10.6,-2.2,250,7,,10.0,29.66929,1004.8,,TRUE,TRUE,,,,,,,SCT,12000,,,,,,,VFR,,,,,,,,,,,,METAR,607.0
KHYI 140356Z AUTO 21006KT 10SM CLR 07/02 A3002 RMK AO2 SLP163 T00670017,KHYI,2021-01-14T03:56:00Z,29.88,-97.87,6.7,1.7,210,6,,10.0,30.02067,1016.3,,TRUE,TRUE,,,,,,,CLR,,,,,,,,VFR,,,,,,,,,,,,METAR,180.0
KHYA 140356Z AUTO 00000KT 10SM OVC028 01/M02 A2991 RMK AO2 SLP129 T00111017,KHYA,2021-01-14T03:56:00Z,41.67,-70.27,1.1,-1.7,0,0,,10.0,29.911417,1012.9,,TRUE,TRUE,,,,,,,OVC,2800,,,,,,,MVFR,,,,,,,,,,,,METAR,11.0
KHWV 140356Z AUTO 00000KT 4SM HZ OVC100 M02/M04 A2993 RMK AO2 SLP137 T10171044,KHWV,2021-01-14T03:56:00Z,40.82,-72.87,-1.7,-4.4,0,0,,4.0,29.929134,1013.7,,TRUE,TRUE,,,,,,HZ,OVC,10000,,,,,,,MVFR,,,,,,,,,,,,METAR,20.0
KHST 140356Z AUTO 33007KT 10SM -RA BKN050 OVC060 17/13 A3003 RMK AO2 DZE12RAB12 SLP172 P0002 T01740129,KHST,2021-01-14T03:56:00Z,25.48,-80.37,17.4,12.9,330,7,,10.0,30.029528,1017.2,,TRUE,TRUE,,,,,,-RA,BKN,5000,OVC,6000,,,,,VFR,,,,,,0.02,,,,,,METAR,1.0
KHRT 140356Z 32005KT 10SM CLR 06/02 A3007 RMK AO2A SLP185 T00560019 $,KHRT,2021-01-14T03:56:00Z,30.42,-86.68,5.6,1.9,320,5,,10.0,30.070866,1018.5,,,TRUE,TRUE,,,,,,CLR,,,,,,,,VFR,,,,,,,,,,,,METAR,10.0
KHPN 140356Z 00000KT 8SM CLR 01/M04 A2989 RMK AO2 SLP130 T00111039,KHPN,2021-01-14T03:56:00Z,41.07,-73.7,1.1,-3.9,0,0,,8.0,29.890747,1013.0,,,TRUE,,,,,,,CLR,,,,,,,,VFR,,,,,,,,,,,,METAR,113.0
KHOP 140356Z AUTO 19007KT 10SM CLR 05/M02 A2989 RMK AO2 SLP127 T00481016 $,KHOP,2021-01-14T03:56:00Z,36.67,-87.5,4.8,-1.6,190,7,,10.0,29.890747,1012.7,,TRUE,TRUE,TRUE,,,,,,CLR,,,,,,,,VFR,,,,,,,,,,,,METAR,170.0
KHND 140356Z 19005KT 10SM CLR 07/M12 A3026 RMK AO2 SLP273 T00721117,KHND,2021-01-14T03:56:00Z,35.98,-115.13,7.2,-11.7,190,5,,10.0,30.259842,1027.3,,,TRUE,,,,,,,CLR,,,,,,,,VFR,,,,,,,,,,,,METAR,740.0
KHNB 140356Z AUTO 19008KT 10SM CLR 04/M01 A2986 RMK AO2 SLP115 T00441011 400891028,KHNB,2021-01-14T03:56:00Z,38.25,-86.95,4.4,-1.1,190,8,,10.0,29.861221,1011.5,,TRUE,TRUE,,,,,,,CLR,,,,,,,,VFR,,,,8.9,-2.8,,,,,,,METAR,159.0
KHFF 140356Z AUTO 24004KT 9SM -SHRA OVC009 06/06 A2995 RMK AO2 SHRAB09E11RAB11E17SHRAB17E30SHRAB31 SLP159 T00630055 $,KHFF,2021-01-14T03:56:00Z,35.03,-79.5,6.3,5.5,240,4,,9.0,29.949802,1015.9,,TRUE,TRUE,TRUE,,,,,-SHRA,OVC,900,,,,,,,IFR,,,,,,,,,,,,METAR,100.0
KHEZ 140356Z AUTO 20005KT 10SM CLR 06/01 A3005 RMK AO2 SLP178 T00610006,KHEZ,2021-01-14T03:56:00Z,31.62,-91.3,6.1,0.6,200,5,,10.0,30.050198,1017.8,,TRUE,TRUE,,,,,,,CLR,,,,,,,,VFR,,,,,,,,,,,,METAR,82.0
KHEF 140356Z AUTO 00000KT 10SM CLR M04/M06 A2989 RMK AO2 SLP128 T10441061 401111072 FZRANO,KHEF,2021-01-14T03:56:00Z,38.72,-77.52,-4.4,-6.1,0,0,,10.0,29.890747,1012.8,,TRUE,TRUE,,,,TRUE,,,CLR,,,,,,,,VFR,,,,11.1,-7.2,,,,,,,METAR,53.0
KHDN 140356Z AUTO 27017KT 10SM UP OVC035 M01/M06 A3013 RMK AO2 UPB45SNB05E16 SLP230 P0000 T10111056 FZRANO,KHDN,2021-01-14T03:56:00Z,40.48,-107.22,-1.1,-5.6,270,17,,10.0,30.129921,1023.0,,TRUE,TRUE,,,,TRUE,,UP,OVC,3500,,,,,,,VFR,,,,,,0.005,,,,,,METAR,2012.0
KGXY 140356Z AUTO 28019G26KT 10SM CLR 11/M06 A2980 RMK AO2 PK WND 27026/0352 SLP103 T01111061,KGXY,2021-01-14T03:56:00Z,40.43,-104.62,11.1,-6.1,280,19,26,10.0,29.799213,1010.3,,TRUE,TRUE,,,,,,,CLR,,,,,,,,VFR,,,,,,,,,,,,METAR,1420.0
KGVQ 140356Z AUTO 26008KT 10SM CLR 03/M02 A2973 RMK AO2 SLP074 T00331022,KGVQ,2021-01-14T03:56:00Z,43.03,-78.17,3.3,-2.2,260,8,,10.0,29.731298,1007.4,,TRUE,TRUE,,,,,,,CLR,,,,,,,,VFR,,,,,,,,,,,,METAR,279.0
KGUS 140356Z AUTO 23010KT 10SM BKN095 04/02 A2976 RMK AO2 SLP087 T00400015 $,KGUS,2021-01-14T03:56:00Z,40.63,-86.15,4.0,1.5,230,10,,10.0,29.760826,1008.7,,TRUE,TRUE,TRUE,,,,,,BKN,9500,,,,,,,VFR,,,,,,,,,,,,METAR,245.0
KGUC 140356Z AUTO 07003KT 10SM CLR M10/M14 A3021 RMK AO2 SLP350 T11001144 FZRANO,KGUC,2021-01-14T03:56:00Z,38.52,-106.93,-10.0,-14.4,70,3,,10.0,30.209646,1035.0,,TRUE,TRUE,,,,TRUE,,,CLR,,,,,,,,VFR,,,,,,,,,,,,METAR,2337.0
KGTU 140356Z 20009KT 10SM CLR 11/01 A3001 RMK AO2 SLP163 T01060011,KGTU,2021-01-14T03:56:00Z,30.68,-97.68,10.6,1.1,200,9,,10.0,30.008858,1016.3,,,TRUE,,,,,,,CLR,,,,,,,,VFR,,,,,,,,,,,,METAR,232.0
KGTR 140356Z AUTO 19003KT 10SM CLR 00/00 A3003 RMK AO2 SLP180 T00000000 FZRANO,KGTR,2021-01-14T03:56:00Z,33.45,-88.58,0.0,0.0,190,3,,10.0,30.029528,1018.0,,TRUE,TRUE,,,,TRUE,,,CLR,,,,,,,,VFR,,,,,,,,,,,,METAR,80.0
KGTB 140356Z AUTO 15010KT 10SM OVC028 M01/M04 A2974 RMK AO2 SLP079 T10061040 $,KGTB,2021-01-14T03:56:00Z,44.07,-75.72,-0.6,-4.0,150,10,,10.0,29.740158,1007.9,,TRUE,TRUE,TRUE,,,,,,OVC,2800,,,,,,,MVFR,,,,,,,,,,,,METAR,206.0
KGSB 140356Z AUTO 24007KT 10SM FEW130 06/04 A2994 RMK AO2 SLP142 T00640042 $,KGSB,2021-01-14T03:56:00Z,35.33,-77.93,6.4,4.2,240,7,,10.0,29.940945,1014.2,,TRUE,TRUE,TRUE,,,,,,FEW,13000,,,,,,,VFR,,,,,,,,,,,,METAR,33.0
KGRD 140356Z AUTO 00000KT 1/4SM FZFG VV002 M01/M01 A2997 RMK AO2 SLP151 T10061006,KGRD,2021-01-14T03:56:00Z,34.25,-82.15,-0.6,-0.6,0,0,,0.25,29.970472,1015.1,,TRUE,TRUE,,,,,,FZFG,OVX,0,,,,,,,LIFR,,,,,,,,,,,200,METAR,188.0
KGPZ 140356Z AUTO 15007KT 10SM CLR M01/M04 A2950 RMK AO2 SLP011 T10061039 FZRANO,KGPZ,2021-01-14T03:56:00Z,47.22,-93.52,-0.6,-3.9,150,7,,10.0,29.500984,1001.1,,TRUE,TRUE,,,,TRUE,,,CLR,,,,,,,,VFR,,,,,,,,,,,,METAR,410.0
KGON 140356Z AUTO 26003KT 9SM CLR 03/M03 A2991 RMK AO2 SLP129 T00281028 $,KGON,2021-01-14T03:56:00Z,41.33,-72.05,2.8,-2.8,260,3,,9.0,29.911417,1012.9,,TRUE,TRUE,TRUE,,,,,,CLR,,,,,,,,VFR,,,,,,,,,,,,METAR,2.0
KGNR 140356Z AUTO 12003KT M03/M09 A2977 RMK AO1 SLP102 T10331089,KGNR,2021-01-14T03:56:00Z,45.47,-69.55,-3.3,-8.9,120,3,,,29.769686,1010.2,,TRUE,TRUE,,,,,,,,,,,,,,,,,,,,,,,,,,,METAR,426.0
KGNA 140356Z AUTO 05004KT 00/M03 A2963 RMK AO1 SLP043 T00001028,KGNA,2021-01-14T03:56:00Z,47.75,-90.35,0.0,-2.8,50,4,,,29.630905,1004.3,,TRUE,TRUE,,,,,,,,,,,,,,,,,,,,,,,,,,,METAR,186.0
KGDV 140356Z AUTO 29039G48KT 10SM FEW033 02/M05 A2960 RMK AO2 PK WND 30054/0307 SLP040 T00171050 FZRANO $,KGDV,2021-01-14T03:56:00Z,47.13,-104.8,1.7,-5.0,290,39,48,10.0,29.601377,1004.0,,TRUE,TRUE,TRUE,,,TRUE,,,FEW,3300,,,,,,,VFR,,,,,,,,,,,,METAR,749.0
KGBD 140356Z AUTO 23010KT 10SM CLR 09/M02 A2969 RMK AO2 SLP057 T00891017,KGBD,2021-01-14T03:56:00Z,38.35,-98.87,8.9,-1.7,230,10,,10.0,29.68996,1005.7,,TRUE,TRUE,,,,,,,CLR,,,,,,,,VFR,,,,,,,,,,,,METAR,573.0
KGAI 140356Z AUTO 10003KT 10SM CLR M01/M02 A2988 RMK AO2 SLP138 T10061022 FZRANO,KGAI,2021-01-14T03:56:00Z,39.17,-77.17,-0.6,-2.2,100,3,,10.0,29.878937,1013.8,,TRUE,TRUE,,,,TRUE,,,CLR,,,,,,,,VFR,,,,,,,,,,,,METAR,151.0
KGAD 140356Z AUTO 00000KT 10SM CLR M03/M04 A3004 RMK AO2 SLP184 T10331039 FZRANO,KGAD,2021-01-14T03:56:00Z,33.97,-86.08,-3.3,-3.9,0,0,,10.0,30.041338,1018.4,,TRUE,TRUE,,,,TRUE,,,CLR,,,,,,,,VFR,,,,,,,,,,,,METAR,169.0
KFTK 140356Z AUTO 18003KT 10SM FEW170 00/M03 A2987 RMK AO2 SLP124 T00041032,KFTK,2021-01-14T03:56:00Z,37.9,-85.97,0.4,-3.2,180,3,,10.0,29.870079,1012.4,,TRUE,TRUE,,,,,,,FEW,17000,,,,,,,VFR,,,,,,,,,,,,METAR,225.0
KFSI 140356Z AUTO 22007KT 10SM CLR 08/01 A2978 RMK AO2 SLP088 T00830014 $,KFSI,2021-01-14T03:56:00Z,34.65,-98.4,8.3,1.4,220,7,,10.0,29.778543,1008.8,,TRUE,TRUE,TRUE,,,,,,CLR,,,,,,,,VFR,,,,,,,,,,,,METAR,360.0
KFSD 140356Z 00000KT 10SM BKN110 BKN140 04/01 A2948 RMK AO2 SLP992 T00440006,KFSD,2021-01-14T03:56:00Z,43.58,-96.75,4.4,0.6,0,0,,10.0,29.480314,999.2,,,TRUE,,,,,,,BKN,11000,BKN,14000,,,,,VFR,,,,,,,,,,,,METAR,433.0
KFRM 140356Z AUTO 18005KT 10SM CLR 01/M01 A2951 RMK AO2 SLP006 T00061006 FZRANO,KFRM,2021-01-14T03:56:00Z,43.63,-94.42,0.6,-0.6,180,5,,10.0,29.509842,1000.6,,TRUE,TRUE,,,,TRUE,,,CLR,,,,,,,,VFR,,,,,,,,,,,,METAR,353.0
KFRI 140356Z AUTO 24010KT 10SM CLR 08/00 A2963 RMK AO2 SLP036 T00770000,KFRI,2021-01-14T03:56:00Z,39.05,-96.77,7.7,0.0,240,10,,10.0,29.630905,1003.6,,TRUE,TRUE,,,,,,,CLR,,,,,,,,VFR,,,,,,,,,,,,METAR,232.0
KFOD 140356Z AUTO 20006KT 10SM CLR 01/00 A2954 RMK AO2 SLP041 T00110000 FZRANO,KFOD,2021-01-14T03:56:00Z,42.53,-94.17,1.1,0.0,200,6,,10.0,29.53937,1004.1,,TRUE,TRUE,,,,TRUE,,,CLR,,,,,,,,VFR,,,,,,,,,,,,METAR,347.0
KFNL 140356Z 29030G44KT 10SM CLR 11/M06 A2982 RMK AO2 PK WND 29044/0351 SLP090 T01111061,KFNL,2021-01-14T03:56:00Z,40.45,-105.02,11.1,-6.1,290,30,44,10.0,29.819881,1009.0,,,TRUE,,,,,,,CLR,,,,,,,,VFR,,,,,,,,,,,,METAR,1529.0
KFLP 140356Z AUTO 00000KT 10SM CLR 05/M02 A2980 RMK AO2 SLP092 T00501017,KFLP,2021-01-14T03:56:00Z,36.28,-92.58,5.0,-1.7,0,0,,10.0,29.799213,1009.2,,TRUE,TRUE,,,,,,,CLR,,,,,,,,VFR,,,,,,,,,,,,METAR,215.0
KFKL 140356Z AUTO 22007KT 10SM BKN095 02/M03 A2980 RMK AO2 SLP106 T00221028 FZRANO,KFKL,2021-01-14T03:56:00Z,41.37,-79.87,2.2,-2.8,220,7,,10.0,29.799213,1010.6,,TRUE,TRUE,,,,TRUE,,,BKN,9500,,,,,,,VFR,,,,,,,,,,,,METAR,468.0
KFFO 140356Z 23009KT 10SM OVC090 05/M03 A2982 RMK AO2A SLP106 T00521034,KFFO,2021-01-14T03:56:00Z,39.83,-84.03,5.2,-3.4,230,9,,10.0,29.819881,1010.6,,,TRUE,,,,,,,OVC,9000,,,,,,,VFR,,,,,,,,,,,,METAR,250.0
KFCI 140356Z AUTO 00000KT 10SM CLR M01/M04 A2990 RMK AO2 SLP139 T10061044 FZRANO PNO $,KFCI,2021-01-14T03:56:00Z,37.4,-77.52,-0.6,-4.4,0,0,,10.0,29.899607,1013.9,,TRUE,TRUE,TRUE,,,TRUE,,,CLR,,,,,,,,VFR,,,,,,,,,,,,METAR,63.0
KFAM 140356Z AUTO 19008KT 10SM CLR 03/M01 A2977 RMK AO2 SLP097 T00281006,KFAM,2021-01-14T03:56:00Z,37.77,-90.42,2.8,-0.6,190,8,,10.0,29.769686,1009.7,,TRUE,TRUE,,,,,,,CLR,,,,,,,,VFR,,,,,,,,,,,,METAR,276.0
KFAF 140356Z AUTO 16003KT 10SM CLR 03/M01 A2991 RMK AO2 SLP132 T00331015 $,KFAF,2021-01-14T03:56:00Z,37.13,-76.62,3.3,-1.5,160,3,,10.0,29.911417,1013.2,,TRUE,TRUE,TRUE,,,,,,CLR,,,,,,,,VFR,,,,,,,,,,,,METAR,3.0
KEWK 140356Z AUTO 22011KT 10SM CLR 07/01 A2969 RMK AO2 SLP057 T00720006,KEWK,2021-01-14T03:56:00Z,38.05,-97.27,7.2,0.6,220,11,,10.0,29.68996,1005.7,,TRUE,TRUE,,,,,,,CLR,,,,,,,,VFR,,,,,,,,,,,,METAR,468.0
KEUL 140356Z AUTO 30004KT 10SM CLR 02/M03 A3050 RMK AO2 SLP340 T00171033 FZRANO,KEUL,2021-01-14T03:56:00Z,43.63,-116.62,1.7,-3.3,300,4,,10.0,30.499016,1034.0,,TRUE,TRUE,,,,TRUE,,,CLR,,,,,,,,VFR,,,,,,,,,,,,METAR,741.0
KESC 140356Z AUTO 00000KT 7SM CLR M08/M09 A2967 RMK AO2 SLP063 T10831094 FZRANO,KESC,2021-01-14T03:56:00Z,45.72,-87.08,-8.3,-9.4,0,0,,7.0,29.66929,1006.3,,TRUE,TRUE,,,,TRUE,,,CLR,,,,,,,,VFR,,,,,,,,,,,,METAR,180.0
KENV 140356Z AUTO 17008KT 10SM CLR 02/M03 A3038 RMK AO2 SLP321 T00171033 FZRANO PNO $,KENV,2021-01-14T03:56:00Z,40.72,-114.02,1.7,-3.3,170,8,,10.0,30.380905,1032.1,,TRUE,TRUE,TRUE,,,TRUE,,,CLR,,,,,,,,VFR,,,,,,,,,,,,METAR,1291.0
KEND 140356Z AUTO 21009KT 10SM CLR 05/00 A2973 RMK AO2 SLP076 T00480002 $,KEND,2021-01-14T03:56:00Z,36.33,-97.92,4.8,0.2,210,9,,10.0,29.731298,1007.6,,TRUE,TRUE,TRUE,,,,,,CLR,,,,,,,,VFR,,,,,,,,,,,,METAR,392.0
KELZ 140356Z AUTO 23006KT 10SM FEW120 01/M03 A2976 RMK AO2 SLP099 T00061028,KELZ,2021-01-14T03:56:00Z,42.1,-77.98,0.6,-2.8,230,6,,10.0,29.760826,1009.9,,TRUE,TRUE,,,,,,,FEW,12000,,,,,,,VFR,,,,,,,,,,,,METAR,639.0
KEKY 140356Z AUTO 18004KT 10SM CLR M02/M03 A3004 RMK AO2 SLP026 T10221033 FZRANO PNO $,KEKY,2021-01-14T03:56:00Z,33.32,-86.93,-2.2,-3.3,180,4,,10.0,30.041338,1002.6,,TRUE,TRUE,TRUE,,,TRUE,,,CLR,,,,,,,,VFR,,,,,,,,,,,,METAR,213.0
KEKQ 140356Z AUTO 04008KT 10SM CLR M07/M08 A2995 RMK AO2 SLP149 T10721083 400831111,KEKQ,2021-01-14T03:56:00Z,36.85,-84.85,-7.2,-8.3,40,8,,10.0,29.949802,1014.9,,TRUE,TRUE,,,,,,,CLR,,,,,,,,VFR,,,,8.3,-11.1,,,,,,,METAR,291.0
KEKO 140356Z AUTO 08003KT 10SM BKN046 OVC060 05/M01 A3043 RMK AO2 SLP317 T00501006,KEKO,2021-01-14T03:56:00Z,40.82,-115.78,5.0,-0.6,80,3,,10.0,30.431103,1031.7,,TRUE,TRUE,,,,,,,BKN,4600,OVC,6000,,,,,VFR,,,,,,,,,,,,METAR,1541.0
KEHR 140356Z AUTO 19005KT 10SM CLR 04/M01 A2986 RMK AO2 SLP113 T00441006,KEHR,2021-01-14T03:56:00Z,37.82,-87.67,4.4,-0.6,190,5,,10.0,29.861221,1011.3,,TRUE,TRUE,,,,,,,CLR,,,,,,,,VFR,,,,,,,,,,,,METAR,117.0
KEGE 140356Z AUTO 27008KT 10SM BKN065 01/M08 A3014 RMK AO2 SLP278 T00061078 FZRANO PNO $,KEGE,2021-01-14T03:56:00Z,39.63,-106.92,0.6,-7.8,270,8,,10.0,30.138779,1027.8,,TRUE,TRUE,TRUE,,,TRUE,,,BKN,6500,,,,,,,VFR,,,,,,,,,,,,METAR,1993.0
KEEN 140356Z AUTO 00000KT 10SM CLR M02/M04 A2987 RMK AO2 SLP124 T10171039 FZRANO $,KEEN,2021-01-14T03:56:00Z,42.88,-72.27,-1.7,-3.9,0,0,,10.0,29.870079,1012.4,,TRUE,TRUE,TRUE,,,TRUE,,,CLR,,,,,,,,VFR,,,,,,,,,,,,METAR,143.0
KEED 140356Z AUTO 26005KT 10SM CLR 13/M12 A3019 RMK AO2 SLP215 T01331122 PWINO $,KEED,2021-01-14T03:56:00Z,34.77,-114.62,13.3,-12.2,260,5,,10.0,30.188976,1021.5,,TRUE,TRUE,TRUE,,,,TRUE,,CLR,,,,,,,,VFR,,,,,,,,,,,,METAR,271.0
KEAU 140356Z AUTO 07003KT 10SM OVC100 01/M02 A2958 RMK AO2 SLP027 T00111017,KEAU,2021-01-14T03:56:00Z,44.87,-91.48,1.1,-1.7,70,3,,10.0,29.58071,1002.7,,TRUE,TRUE,,,,,,,OVC,10000,,,,,,,VFR,,,,,,,,,,,,METAR,271.0
KEAR 140356Z AUTO 24008KT 10SM FEW120 09/01 A2956 RMK AO2 SLP014 T00940006,KEAR,2021-01-14T03:56:00Z,40.72,-99.0,9.4,0.6,240,8,,10.0,29.56004,1001.4,,TRUE,TRUE,,,,,,,FEW,12000,,,,,,,VFR,,,,,,,,,,,,METAR,649.0
KDYS 140356Z AUTO 18009KT 10SM CLR 10/M03 A2985 RMK AO2 SLP105 T01011032,KDYS,2021-01-14T03:56:00Z,32.42,-99.83,10.1,-3.2,180,9,,10.0,29.84941,1010.5,,TRUE,TRUE,,,,,,,CLR,,,,,,,,VFR,,,,,,,,,,,,METAR,544.0
KDYR 140356Z AUTO 19006KT 10SM CLR 06/02 A2990 RMK AO2 SLP134 T00560022 PNO $,KDYR,2021-01-14T03:56:00Z,36.0,-89.4,5.6,2.2,190,6,,10.0,29.899607,1013.4,,TRUE,TRUE,TRUE,,,,,,CLR,,,,,,,,VFR,,,,,,,,,,,,METAR,98.0
KDVL 140356Z AUTO 24005KT 10SM OVC090 02/02 A2937 RMK AO2 SLP538 T00220017 FZRANO,KDVL,2021-01-14T03:56:00Z,48.12,-98.92,2.2,1.7,240,5,,10.0,29.371063,1053.8,,TRUE,TRUE,,,,TRUE,,,OVC,9000,,,,,,,VFR,,,,,,,,,,,,METAR,439.0
KDOV 140356Z AUTO 15004KT 10SM CLR 00/00 A2991 RMK AO2 SLP132 T00030002 $,KDOV,2021-01-14T03:56:00Z,39.12,-75.47,0.3,0.2,150,4,,10.0,29.911417,1013.2,,TRUE,TRUE,TRUE,,,,,,CLR,,,,,,,,VFR,,,,,,,,,,,,METAR,6.0
KDLF 140356Z AUTO 06005KT 10SM CLR 05/M01 A3002 RMK AO2 SLP170 T00461014 $,KDLF,2021-01-14T03:56:00Z,29.37,-100.78,4.6,-1.4,60,5,,10.0,30.02067,1017.0,,TRUE,TRUE,TRUE,,,,,,CLR,,,,,,,,VFR,,,,,,,,,,,,METAR,328.0
KDIK 140356Z AUTO 29036G47KT 10SM BKN035 OVC044 04/M04 A2954 RMK AO2 PK WND 30059/0316 SLP017 T00391044,KDIK,2021-01-14T03:56:00Z,46.8,-102.8,3.9,-4.4,290,36,47,10.0,29.53937,1001.7,,TRUE,TRUE,,,,,,,BKN,3500,OVC,4400,,,,,VFR,,,,,,,,,,,,METAR,788.0
KDIJ 140356Z AUTO VRB06KT 10SM CLR M07/M14 A3025 RMK AO2 WSHFT 0324 SLP285 T10721144,KDIJ,2021-01-14T03:56:00Z,43.75,-111.1,-7.2,-14.4,0,6,,10.0,30.250984,1028.5,,TRUE,TRUE,,,,,,,CLR,,,,,,,,VFR,,,,,,,,,,,,METAR,1896.0
KDAY 140356Z 22013KT 10SM SCT090 OVC110 06/M01 A2982 RMK AO2 SLP102 T00561011,KDAY,2021-01-14T03:56:00Z,39.9,-84.22,5.6,-1.1,220,13,,10.0,29.819881,1010.2,,,TRUE,,,,,,,SCT,9000,OVC,11000,,,,,VFR,,,,,,,,,,,,METAR,303.0
KDAA 140356Z AUTO 00000KT 10SM CLR M02/M03 A2989 RMK AO2 SLP125 T10161029 $,KDAA,2021-01-14T03:56:00Z,38.72,-77.17,-1.6,-2.9,0,0,,10.0,29.890747,1012.5,,TRUE,TRUE,TRUE,,,,,,CLR,,,,,,,,VFR,,,,,,,,,,,,METAR,17.0
KD07 140356Z AUTO 31033G47KT 07/M12 A2962 RMK AO1 PK WND 30052/0318 SLP043 T00671117,KD07,2021-01-14T03:56:00Z,45.03,-102.02,6.7,-11.7,310,33,47,,29.619095,1004.3,,TRUE,TRUE,,,,,,,,,,,,,,,,,,,,,,,,,,,METAR,786.0
KCXY 140356Z 00000KT 10SM CLR 01/M04 A2988 RMK AO2 SLP124 T00111039,KCXY,2021-01-14T03:56:00Z,40.22,-76.85,1.1,-3.9,0,0,,10.0,29.878937,1012.4,,,TRUE,,,,,,,CLR,,,,,,,,VFR,,,,,,,,,,,,METAR,102.0
KCWI 140356Z AUTO 14007KT 10SM CLR 00/M01 A2964 RMK AO2 SLP048 T00001011 FZRANO,KCWI,2021-01-14T03:56:00Z,41.82,-90.32,0.0,-1.1,140,7,,10.0,29.639763,1004.8,,TRUE,TRUE,,,,TRUE,,,CLR,,,,,,,,VFR,,,,,,,,,,,,SPECI,212.0
KCVO 140356Z AUTO 29005KT 10SM CLR 06/05 A3046 RMK AO2 SLP315 T00610050,KCVO,2021-01-14T03:56:00Z,44.5,-123.28,6.1,5.0,290,5,,10.0,30.46063,1031.5,,TRUE,TRUE,,,,,,,CLR,,,,,,,,VFR,,,,,,,,,,,,METAR,75.0
KCVN 140356Z AUTO 28012KT 10SM CLR 06/M02 A2987 RMK AO2 SLP123 T00561022,KCVN,2021-01-14T03:56:00Z,34.42,-103.07,5.6,-2.2,280,12,,10.0,29.870079,1012.3,,TRUE,TRUE,,,,,,,CLR,,,,,,,,VFR,,,,,,,,,,,,METAR,1278.0
KCTB 140356Z AUTO 00000KT 10SM BKN075 M03/M04 A3005 RMK AO2 SLP200 T10331044,KCTB,2021-01-14T03:56:00Z,48.6,-112.37,-3.3,-4.4,0,0,,10.0,30.050198,1020.0,,TRUE,TRUE,,,,,,,BKN,7500,,,,,,,VFR,,,,,,,,,,,,METAR,1172.0
KCOE 140356Z AUTO 25006KT 10SM FEW085 01/M04 A3038 RMK AO2 SLPNO T00061044 FZRANO,KCOE,2021-01-14T03:56:00Z,47.77,-116.82,0.6,-4.4,250,6,,10.0,30.380905,,,TRUE,TRUE,,,,TRUE,,,FEW,8500,,,,,,,VFR,,,,,,,,,,,,METAR,693.0
KCOD 140356Z AUTO 29012G16KT 10SM CLR 02/M19 A3000 RMK AO2 PK WND 28027/0309 SLP168 T00171189 FZRANO,KCOD,2021-01-14T03:56:00Z,44.52,-109.02,1.7,-18.9,290,12,16,10.0,30.0,1016.8,,TRUE,TRUE,,,,TRUE,,,CLR,,,,,,,,VFR,,,,,,,,,,,,METAR,1550.0
KCIU 140356Z AUTO 22004KT 4SM -SN BR OVC018 M01/M01 A2967 RMK AO2 UPB0259E26SNE0259B26 SLP057 P0000 T10061011 FZRANO,KCIU,2021-01-14T03:56:00Z,46.25,-84.47,-0.6,-1.1,220,4,,4.0,29.66929,1005.7,,TRUE,TRUE,,,,TRUE,,-SN BR,OVC,1800,,,,,,,MVFR,,,,,,0.005,,,,,,METAR,242.0
KCHS 140356Z 24008KT 5SM -RA BR FEW012 FEW060 OVC080 07/06 A3003 RMK AO2 PRESRR SLP170 P0004 T00670056,KCHS,2021-01-14T03:56:00Z,32.9,-80.03,6.7,5.6,240,8,,5.0,30.029528,1017.0,,,TRUE,,,,,,-RA BR,FEW,1200,FEW,6000,OVC,8000,,,MVFR,,,,,,0.04,,,,,,METAR,12.0
KCGZ 140356Z AUTO 36004KT 10SM CLR 12/M12 A3017 RMK AO2 SLP221 T01221122,KCGZ,2021-01-14T03:56:00Z,32.95,-111.77,12.2,-12.2,360,4,,10.0,30.171259,1022.1,,TRUE,TRUE,,,,,,,CLR,,,,,,,,VFR,,,,,,,,,,,,METAR,444.0
KCEF 140356Z 18003KT 10SM FEW140 SCT200 01/M04 A2987 RMK AO2A SLP123 WND DATA ESTMD T00051045,KCEF,2021-01-14T03:56:00Z,42.2,-72.52,0.5,-4.5,180,3,,10.0,29.870079,1012.3,,,TRUE,,,,,,,FEW,14000,SCT,20000,,,,,VFR,,,,,,,,,,,,METAR,72.0
KCAE 140356Z 21004KT 7SM SCT012 04/03 A2998 RMK AO2 SLP154 T00390033,KCAE,2021-01-14T03:56:00Z,33.93,-81.12,3.9,3.3,210,4,,7.0,29.97933,1015.4,,,TRUE,,,,,,,SCT,1200,,,,,,,VFR,,,,,,,,,,,,METAR,69.0
KBZN 140356Z 27016G23KT 10SM BKN075 OVC090 01/M11 A3017 RMK AO2 PK WND 28027/0308 SLP230 T00061111,KBZN,2021-01-14T03:56:00Z,45.78,-111.17,0.6,-11.1,270,16,23,10.0,30.171259,1023.0,,,TRUE,,,,,,,BKN,7500,OVC,9000,,,,,VFR,,,,,,,,,,,,METAR,1349.0
KBVX 140356Z AUTO 22010G26KT 10SM CLR 08/M01 A2985 RMK AO2 PK WND 23026/0348 SLP108 T00831006,KBVX,2021-01-14T03:56:00Z,35.73,-91.65,8.3,-0.6,220,10,26,10.0,29.84941,1010.8,,TRUE,TRUE,,,,,,,CLR,,,,,,,,VFR,,,,,,,,,,,,METAR,137.0
KBTP 140356Z AUTO 21006KT 10SM OVC090 03/M02 A2983 RMK AO2 SLP117 T00331022,KBTP,2021-01-14T03:56:00Z,40.77,-79.95,3.3,-2.2,210,6,,10.0,29.828741,1011.7,,TRUE,TRUE,,,,,,,OVC,9000,,,,,,,VFR,,,,,,,,,,,,METAR,375.0
KBOK 140356Z AUTO 00000KT 1/4SM FG OVC003 11/11 A3042 RMK AO2 RAB36E47 SLP301 P0000 T01060106,KBOK,2021-01-14T03:56:00Z,42.07,-124.28,10.6,10.6,0,0,,0.25,30.41929,1030.1,,TRUE,TRUE,,,,,,FG,OVC,300,,,,,,,LIFR,,,,,,0.005,,,,,,METAR,140.0
KBLV 140356Z AUTO 20006KT 10SM CLR 02/M01 A2976 RMK AO2 SLP084 T00221006 $,KBLV,2021-01-14T03:56:00Z,38.53,-89.83,2.2,-0.6,200,6,,10.0,29.760826,1008.4,,TRUE,TRUE,TRUE,,,,,,CLR,,,,,,,,VFR,,,,,,,,,,,,METAR,134.0
KBLM 140356Z AUTO 18003KT 10SM OVC100 01/M04 A2993 RMK AO2 SLP135 T00111039 FZRANO,KBLM,2021-01-14T03:56:00Z,40.17,-74.12,1.1,-3.9,180,3,,10.0,29.929134,1013.5,,TRUE,TRUE,,,,TRUE,,,OVC,10000,,,,,,,VFR,,,,,,,,,,,,METAR,45.0
KBKX 140356Z AUTO 19004KT 10SM OVC110 02/M01 A2948 RMK AO2 SLP009 T00221006 FZRANO,KBKX,2021-01-14T03:56:00Z,44.3,-96.82,2.2,-0.6,190,4,,10.0,29.480314,1000.9,,TRUE,TRUE,,,,TRUE,,,OVC,11000,,,,,,,VFR,,,,,,,,,,,,METAR,494.0
KBJJ 140356Z AUTO 22007KT 10SM OVC100 03/M02 A2980 RMK AO2 SLP101 T00331017,KBJJ,2021-01-14T03:56:00Z,40.87,-81.88,3.3,-1.7,220,7,,10.0,29.799213,1010.1,,TRUE,TRUE,,,,,,,OVC,10000,,,,,,,VFR,,,,,,,,,,,,METAR,338.0
KBIX 140356Z AUTO 24008KT 10SM CLR 08/05 A3009 RMK AO2 SLP193 T00780053,KBIX,2021-01-14T03:56:00Z,30.42,-88.92,7.8,5.3,240,8,,10.0,30.088583,1019.3,,TRUE,TRUE,,,,,,,CLR,,,,,,,,VFR,,,,,,,,,,,,METAR,4.0
KBIH 140356Z AUTO 30004KT 10SM CLR 06/M06 A3036 RMK AO2 SLP287 T00561061,KBIH,2021-01-14T03:56:00Z,37.37,-118.35,5.6,-6.1,300,4,,10.0,30.360237,1028.7,,TRUE,TRUE,,,,,,,CLR,,,,,,,,VFR,,,,,,,,,,,,METAR,1252.0
KBID 140356Z AUTO 27007KT 10SM SCT120 03/M02 A2993 RMK AO2 SLP135 T00331022 400440000,KBID,2021-01-14T03:56:00Z,41.17,-71.58,3.3,-2.2,270,7,,10.0,29.929134,1013.5,,TRUE,TRUE,,,,,,,SCT,12000,,,,,,,VFR,,,,4.4,,,,,,,,METAR,32.0
KBHB 140356Z AUTO 15003KT 10SM OVC050 00/M04 A2991 RMK AO2 SLP129 T00001039 400221028 FZRANO,KBHB,2021-01-14T03:56:00Z,44.45,-68.37,0.0,-3.9,150,3,,10.0,29.911417,1012.9,,TRUE,TRUE,,,,TRUE,,,OVC,5000,,,,,,,VFR,,,,2.2,-2.8,,,,,,,METAR,21.0
KBAD 140356Z AUTO 18006KT 10SM CLR 07/02 A2997 RMK AO2 SLP152 T00660017,KBAD,2021-01-14T03:56:00Z,32.5,-93.67,6.6,1.7,180,6,,10.0,29.970472,1015.2,,TRUE,TRUE,,,,,,,CLR,,,,,,,,VFR,,,,,,,,,,,,METAR,49.0
KAWO 140356Z AUTO 02003KT 10SM SCT038 03/02 A3054 RMK AO2 SLP348 T00330022,KAWO,2021-01-14T03:56:00Z,48.17,-122.17,3.3,2.2,20,3,,10.0,30.540354,1034.8,,TRUE,TRUE,,,,,,,SCT,3800,,,,,,,VFR,,,,,,,,,,,,METAR,38.0
KAUO 140356Z AUTO 28006KT 10SM CLR 04/M01 A3006 RMK AO2 SLP204 T00391006,KAUO,2021-01-14T03:56:00Z,32.62,-85.43,3.9,-0.6,280,6,,10.0,30.059055,1020.4,,TRUE,TRUE,,,,,,,CLR,,,,,,,,VFR,,,,,,,,,,,,METAR,231.0
KASH 140356Z AUTO 00000KT 10SM OVC036 02/M04 A2989 RMK AO2 SLP128 T00171044,KASH,2021-01-14T03:56:00Z,42.78,-71.52,1.7,-4.4,0,0,,10.0,29.890747,1012.8,,TRUE,TRUE,,,,,,,OVC,3600,,,,,,,VFR,,,,,,,,,,,,SPECI,56.0
KART 140356Z AUTO 19005KT 10SM OVC033 02/M03 A2975 RMK AO2 SLP077 T00221033,KART,2021-01-14T03:56:00Z,43.98,-76.03,2.2,-3.3,190,5,,10.0,29.749016,1007.7,,TRUE,TRUE,,,,,,,OVC,3300,,,,,,,VFR,,,,,,,,,,,,METAR,100.0
KARG 140356Z AUTO 19013KT 10SM CLR 05/02 A2984 RMK AO2 SLP108 T00500017,KARG,2021-01-14T03:56:00Z,36.12,-90.92,5.0,1.7,190,13,,10.0,29.840551,1010.8,,TRUE,TRUE,,,,,,,CLR,,,,,,,,VFR,,,,,,,,,,,,METAR,82.0
KALK 140356Z AUTO 23009KT 10SM CLR 09/M21 A3022 RMK AO2 SLP191 T00941206,KALK,2021-01-14T03:56:00Z,31.6,-110.43,9.4,-20.6,230,9,,10.0,30.221457,1019.1,,TRUE,TRUE,,,,,,,CLR,,,,,,,,VFR,,,,,,,,,,,,METAR,1451.0
KAJO 140356Z AUTO 09003KT 10SM CLR 13/01 A3017 RMK AO2 SLP216 T01330006,KAJO,2021-01-14T03:56:00Z,33.9,-117.6,13.3,0.6,90,3,,10.0,30.171259,1021.6,,TRUE,TRUE,,,,,,,CLR,,,,,,,,VFR,,,,,,,,,,,,METAR,161.0
KAIZ 140356Z AUTO 14004KT 10SM CLR 04/M03 A2974 RMK AO2 SLP073 T00391033,KAIZ,2021-01-14T03:56:00Z,38.1,-92.53,3.9,-3.3,140,4,,10.0,29.740158,1007.3,,TRUE,TRUE,,,,,,,CLR,,,,,,,,VFR,,,,,,,,,,,,METAR,263.0
KAFJ 140356Z AUTO 22006KT 10SM BKN110 04/M02 A2987 RMK AO2 SLP122 T00391017,KAFJ,2021-01-14T03:56:00Z,40.13,-80.28,3.9,-1.7,220,6,,10.0,29.870079,1012.2,,TRUE,TRUE,,,,,,,BKN,11000,,,,,,,VFR,,,,,,,,,,,,METAR,360.0
KADW 140356Z AUTO 16006KT 10SM CLR 02/M01 A2987 RMK AO2 SLP123 T00211010 $,KADW,2021-01-14T03:56:00Z,38.82,-76.87,2.1,-1.0,160,6,,10.0,29.870079,1012.3,,TRUE,TRUE,TRUE,,,,,,CLR,,,,,,,,VFR,,,,,,,,,,,,METAR,87.0
KADF 140356Z AUTO 00000KT 10SM CLR M01/M02 A2995 RMK AO2 SLP141 T10061017 FZRANO,KADF,2021-01-14T03:56:00Z,34.1,-93.07,-0.6,-1.7,0,0,,10.0,29.949802,1014.1,,TRUE,TRUE,,,,TRUE,,,CLR,,,,,,,,VFR,,,,,,,,,,,,METAR,54.0
K8D3 140356Z AUTO 23004KT 06/01 A2942 RMK AO1 SLP970 P0001 T00610011,K8D3,2021-01-14T03:56:00Z,45.67,-96.98,6.1,1.1,230,4,,,29.421259,997.0,,TRUE,TRUE,,,,,,,,,,,,,,,,,,,,,0.01,,,,,,METAR,535.0
K7N0 140356Z AUTO 21003KT 10SM CLR 08/03 A3012 RMK AO2 SLP199 T00830033,K7N0,2021-01-14T03:56:00Z,29.95,-90.07,8.3,3.3,210,3,,10.0,30.121063,1019.9,,TRUE,TRUE,,,,,,,CLR,,,,,,,,VFR,,,,,,,,,,,,METAR,0.0
K2WX 140356Z AUTO 30045G56KT 06/M09 A2961 RMK AO1 PK WND 31066/0329 SLP042 T00561089,K2WX,2021-01-14T03:56:00Z,45.6,-103.55,5.6,-8.9,300,45,56,,29.610237,1004.2,,TRUE,TRUE,,,,,,,,,,,,,,,,,,,,,,,,,,,METAR,925.0
K1M4 140356Z AUTO 20004KT 1 1/2SM BR OVC002 01/00 A3002 RMK AO2 SLP744 T00060000,K1M4,2021-01-14T03:56:00Z,34.28,-87.6,0.6,0.0,200,4,,1.5,30.02067,974.4,,TRUE,TRUE,,,,,,BR,OVC,200,,,,,,,LIFR,,,,,,,,,,,,METAR,283.0
ETOU 140356Z AUTO 35003KT 9999 SCT028 OVC110 02/M03 A3001 RMK AO2 SLP172 T00241031,ETOU,2021-01-14T03:56:00Z,50.03,8.32,2.4,-3.1,350,3,,6.21,30.008858,1017.2,,TRUE,TRUE,,,,,,,SCT,2800,OVC,11000,,,,,VFR,,,,,,,,,,,,METAR,141.0
ETIK 140356Z AUTO 30010KT M M M M M RMK AO2 SLPNO RVRNO PWINO FZRANO CHINO RWY06,ETIK,2021-01-14T03:56:00Z,49.47,10.38,,,300,10,,,,,,TRUE,TRUE,,,,TRUE,TRUE,,,,,,,,,,,,,,,,,,,,,,METAR,326.0
ETIC 140356Z 29011G19KT 9999 SCT025 M01/M05 A2983 RMK AO2A ALTSTG ESTMD SLPNO $,ETIC,2021-01-14T03:56:00Z,49.7,11.93,-1.0,-5.0,290,11,19,6.21,29.828741,,,,TRUE,TRUE,,,,,,SCT,2500,,,,,,,VFR,,,,,,,,,,,,METAR,414.0
BGTL 140356Z AUTO 00000KT 6000 BR CLR M21/M22 A2958 RMK AO2 SLP008 T12151218 411111231 TSNO $,BGTL,2021-01-14T03:56:00Z,76.53,-68.75,-21.5,-21.8,0,0,,3.73,29.58071,1000.8,,TRUE,TRUE,TRUE,,TRUE,,,BR,CLR,,,,,,,,MVFR,,,,-11.1,-23.1,,,,,,,METAR,79.0
TXKF 140355Z 36002KT 9999 FEW025 SCT300 15/15 Q1016 ,TXKF,2021-01-14T03:55:00Z,32.37,-64.68,15.0,15.0,360,2,,6.21,30.0,,,,,,,,,,,FEW,2500,SCT,30000,,,,,VFR,,,,,,,,,,,,METAR,4.0
TNCE 140355Z AUTO 09010KT 050V120 //// // ///////// 23/22 Q1016 RE//,TNCE,2021-01-14T03:55:00Z,17.48,-62.97,23.0,22.0,90,10,,,30.0,,,TRUE,,,,,,,,,,,,,,,,,,,,,,,,,,,,METAR,38.0
TNCB 140355Z AUTO 08013KT 9999 NSC 25/21 Q1012,TNCB,2021-01-14T03:55:00Z,12.13,-68.28,25.0,21.0,80,13,,6.21,29.88189,,,TRUE,,,,,,,,CLR,,,,,,,,VFR,,,,,,,,,,,,METAR,6.0
RJOI 140355Z 13007KT 9999 FEW030 13/05 A3016 RMK SLP212 T01330050,RJOI,2021-01-14T03:55:00Z,34.13,132.23,13.3,5.0,130,7,,6.21,30.159449,1021.2,,,,,,,,,,FEW,3000,,,,,,,VFR,,,,,,,,,,,,SPECI,2.0
PGWT 140355Z 10014KT 7SM FEW018 SCT100 30/22 A2982,PGWT,2021-01-14T03:55:00Z,14.98,145.62,30.0,22.0,100,14,,7.0,29.819881,,,,,,,,,,,FEW,1800,SCT,10000,,,,,VFR,,,,,,,,,,,,METAR,84.0
PATL 140355Z AUTO 04006KT 10SM -SN BKN017 M13/M13 A2962 RMK AO2 SHSNB0201E0333 SLP063 P0000 T11271134,PATL,2021-01-14T03:55:00Z,62.9,-155.97,-12.7,-13.4,40,6,,10.0,29.619095,1006.3,,TRUE,TRUE,,,,,,-SN,BKN,1700,,,,,,,MVFR,,,,,,0.005,,,,,,METAR,261.0
PATC 140355Z AUTO 03011KT 6SM -SN BKN011 M13/M15 A2951 RMK AO2 SNB0256 SLP002 P0000 T11311146,PATC,2021-01-14T03:55:00Z,65.57,-167.92,-13.1,-14.6,30,11,,6.0,29.509842,1000.2,,TRUE,TRUE,,,,,,-SN,BKN,1100,,,,,,,MVFR,,,,,,0.005,,,,,,METAR,77.0
PAIM 140355Z AUTO 00000KT 10SM CLR M15/M17 A2961 RMK AO2 SLP066 T11511167,PAIM,2021-01-14T03:55:00Z,66.0,-153.7,-15.1,-16.7,0,0,,10.0,29.610237,1006.6,,TRUE,TRUE,,,,,,,CLR,,,,,,,,VFR,,,,,,,,,,,,METAR,309.0
OPFA 140355Z 09004KT 0150 FG VV/// 07/07 Q1018 BECMG 0400,OPFA,2021-01-14T03:55:00Z,31.37,73.0,7.0,7.0,90,4,,0.09,30.059055,,,,,,,,,,FG,OVX,0,,,,,,,LIFR,,,,,,,,,,,,METAR,185.0
OAHR 140355Z 00000KT CAVOK 01/M10 Q1022 RMK SCT150 A3018 BLU,OAHR,2021-01-14T03:55:00Z,34.22,62.22,1.0,-10.0,0,0,,6.21,30.177166,,,,,,,,,,,CAVOK,,,,,,,,VFR,,,,,,,,,,,,SPECI,964.0
MUVR 140355Z 33011KT 7000 -RA FEW010 BKN019 21/17 Q1017,MUVR,2021-01-14T03:55:00Z,23.03,-81.43,21.0,17.0,330,11,,4.35,30.029528,,,,,,,,,,-RA,FEW,1000,BKN,1900,,,,,MVFR,,,,,,,,,,,,METAR,65.0
MUHA 140355Z 03008KT 9000 FEW009 BKN050 21/21 Q1017,MUHA,2021-01-14T03:55:00Z,22.98,-82.42,21.0,21.0,30,8,,5.59,30.029528,,,,,,,,,,,FEW,900,BKN,5000,,,,,VFR,,,,,,,,,,,,METAR,61.0
LIVR 140355Z 34010KT 9999 BKN010 SCT030 M05/M07 Q1005 RMK OVC MON GEN INC VIS MIN 9999,LIVR,2021-01-14T03:55:00Z,46.28,11.78,-5.0,-7.0,340,10,,6.21,29.675198,,,,,,,,,,,BKN,1000,SCT,3000,,,,,MVFR,,,,,,,,,,,,SPECI,1997.0
LIVP 140355Z 16007KT CAVOK M05/M12 Q1002 RMK BKN SCT060 SCT180 MON LIB VAL NIL VIS MIN 9999,LIVP,2021-01-14T03:55:00Z,46.15,11.03,-5.0,-12.0,160,7,,6.21,29.586615,,,,,,,,,,,CAVOK,,,,,,,,VFR,,,,,,,,,,,,SPECI,2099.0
LIVM 140355Z AUTO VRB02KT //// M00/M02 Q1010,LIVM,2021-01-14T03:55:00Z,44.45,12.3,0.0,-2.0,0,2,,,29.822834,,,TRUE,,,,,,,,,,,,,,,,,,,,,,,,,,,,SPECI,6.0
LIVF 140355Z 24008KT 9999 FEW030 05/01 Q1007 RMK FEW MON S CIME INC VAL NIL VIS MIN 9999,LIVF,2021-01-14T03:55:00Z,43.52,12.72,5.0,1.0,240,8,,6.21,29.734253,,,,,,,,,,,FEW,3000,,,,,,,VFR,,,,,,,,,,,,SPECI,549.0
LIVE 140355Z 03003KT 1500 SN BR OVC006 M02/M02 Q1010 RMK OVC VIS MIN 1500,LIVE,2021-01-14T03:55:00Z,46.82,10.5,-2.0,-2.0,30,3,,0.93,29.822834,,,,,,,,,,SN BR,OVC,600,,,,,,,LIFR,,,,,,,,,,,,SPECI,1684.0
LIVC 140355Z AUTO 26032G45KT 240V300 //// M02/M05 Q1008,LIVC,2021-01-14T03:55:00Z,44.2,10.68,-2.0,-5.0,260,32,45,,29.763779,,,TRUE,,,,,,,,,,,,,,,,,,,,,,,,,,,,SPECI,2139.0
LIRS 140355Z 02003KT CAVOK 01/M01 Q1013 RMK SKC VIS MIN 9999 WIND THR03 03003KT WIND THR21 VRB01KT BLU,LIRS,2021-01-14T03:55:00Z,42.75,11.07,1.0,-1.0,20,3,,6.21,29.911417,,,,,,,,,,,CAVOK,,,,,,,,VFR,,,,,,,,,,,,SPECI,3.0
LIRM 140355Z /////KT CAVOK 00/00 Q1015,LIRM,2021-01-14T03:55:00Z,41.05,14.07,0.0,0.0,,,,6.21,29.970472,,,,,,,,,,,CAVOK,,,,,,,,VFR,,,,,,,,,,,,METAR,6.0
LIRK 140355Z AUTO 30021KT //// M04/M08 Q1010,LIRK,2021-01-14T03:55:00Z,42.47,12.97,-4.0,-8.0,300,21,,,29.822834,,,TRUE,,,,,,,,,,,,,,,,,,,,,,,,,,,,SPECI,1721.0
LIRE 140355Z 10011KT CAVOK 07/05 Q1013 RMK SKC VIS MIN 9999 WIND THR13 14005KT WIND THR31 /////KT BLU,LIRE,2021-01-14T03:55:00Z,41.65,12.43,7.0,5.0,100,11,,6.21,29.911417,,,,,,,,,,,CAVOK,,,,,,,,VFR,,,,,,,,,,,,SPECI,16.0
LIPS 140355Z 36004KT CAVOK M02/M02 Q1009 RMK FEW FEW200 VIS MIN 9999 WIND THR26 33003KT WIND THR08 36004KT BLU,LIPS,2021-01-14T03:55:00Z,45.68,12.1,-2.0,-2.0,360,4,,6.21,29.793306,,,,,,,,,,,CAVOK,,,,,,,,VFR,,,,,,,,,,,,SPECI,42.0
LIPL 140355Z 30001KT CAVOK M03/M03 Q1009 RMK SKC VIS MIN 9999 WIND THR31 28001KT WIND THR13 32001KT BLU,LIPL,2021-01-14T03:55:00Z,45.42,10.27,-3.0,-3.0,300,1,,6.21,29.793306,,,,,,,,,,,CAVOK,,,,,,,,VFR,,,,,,,,,,,,SPECI,96.0
LIPI 140355Z 34004KT 9999 BKN040 00/M02 Q1009 RMK BKN VIS MIN 9999 WIND THR06 03003KT WIND THR24 35003KT BLU,LIPI,2021-01-14T03:55:00Z,45.97,13.05,0.0,-2.0,340,4,,6.21,29.793306,,,,,,,,,,,BKN,4000,,,,,,,VFR,,,,,,,,,,,,SPECI,49.0
LIPC 140355Z 31006KT CAVOK M02/M04 Q1010 RMK SKC VIS MIN 9999 WIND THR11 32006KT WIND THR29 /////KT BLU,LIPC,2021-01-14T03:55:00Z,44.22,12.3,-2.0,-4.0,310,6,,6.21,29.822834,,,,,,,,,,,CAVOK,,,,,,,,VFR,,,,,,,,,,,,SPECI,10.0
LIPA 140355Z 02003KT 9999 SCT070 M01/M02 Q1008 RMK SCT VIS MIN 9999 WIND THR05 /////KT WIND THR23 /////KT A2979 BLU,LIPA,2021-01-14T03:55:00Z,46.02,12.58,-1.0,-2.0,20,3,,6.21,29.763779,,,,,,,,,,,SCT,7000,,,,,,,VFR,,,,,,,,,,,,SPECI,113.0
LIMU 140355Z 02005KT CAVOK 08/06 Q1012 RMK SKC QUK / QUL / VIS MAR 20 KM VIS MIN 9999,LIMU,2021-01-14T03:55:00Z,43.95,8.17,8.0,6.0,20,5,,6.21,29.88189,,,,,,,,,,,CAVOK,,,,,,,,VFR,,,,,,,,,,,,SPECI,215.0
LIMK 140355Z 00000KT CAVOK 03/M07 Q1009 RMK SKC VAL NIL VIS MIN 9999,LIMK,2021-01-14T03:55:00Z,45.02,7.72,3.0,-7.0,0,0,,6.21,29.793306,,,,,,,,,,,CAVOK,,,,,,,,VFR,,,,,,,,,,,,SPECI,693.0
LIMH 140355Z 32039G70KT 0100 -SN FZFG VV/// M11/M11 Q1011 RMK MON INVIS VAL INVIS VIS MIN 0100,LIMH,2021-01-14T03:55:00Z,45.93,7.7,-11.0,-11.0,320,39,70,0.06,29.852362,,,,,,,,,,-SN FZFG,OVX,0,,,,,,,LIFR,,,,,,,,,,,,SPECI,3473.0
LIED 140355Z 30016KT 9999 FEW020 BKN030 12/10 Q1017 RMK OVC VIS MIN 9999 WIND THR 35 /////KT WIND THR 17 30017KT BLU,LIED,2021-01-14T03:55:00Z,39.35,8.97,12.0,10.0,300,16,,6.21,30.029528,,,,,,,,,,,FEW,2000,BKN,3000,,,,,MVFR,,,,,,,,,,,,SPECI,26.0
LIEB 140355Z 17003KT CAVOK 13/M30 Q1014 RMK SKC QUK / QUL / VIS MAR 30 KM MON INVIS VIS MIN 9999,LIEB,2021-01-14T03:55:00Z,39.93,9.72,13.0,-30.0,170,3,,6.21,29.940945,,,,,,,,,,,CAVOK,,,,,,,,VFR,,,,,,,,,,,,SPECI,126.0
LICZ 140355Z /////KT CAVOK 09/09 Q1018 RMK SKC VIS MIN 9999 WIND THR28 02004KT WIND THR10 01003KT A3007 BLU,LICZ,2021-01-14T03:55:00Z,37.4,14.92,9.0,9.0,,,,6.21,30.059055,,,,,,,,,,,CAVOK,,,,,,,,VFR,,,,,,,,,,,,SPECI,22.0
LICT 140355Z 31009KT 9999 FEW020 13/11 Q1017 RMK FEW VIS MIN 9999 WIND THR13 32014KT BLU,LICT,2021-01-14T03:55:00Z,37.92,12.5,13.0,11.0,310,9,,6.21,30.029528,,,,,,,,,,,FEW,2000,,,,,,,VFR,,,,,,,,,,,,SPECI,4.0
LICF 140355Z 35002KT 9999 SCT030 14/09 Q1015 RMK SCT QUK / QUL / VIS MAR 12 KM MON INVIS NC VIS MIN 9999,LICF,2021-01-14T03:55:00Z,38.2,15.55,14.0,9.0,350,2,,6.21,29.970472,,,,,,,,,,,SCT,3000,,,,,,,VFR,,,,,,,,,,,,SPECI,66.0
LIBV 140355Z 24004KT 8000 NSC 02/02 Q1012 RMK SKC VIS MIN 8000 WIND THR32 26007KT WIND THR14 24004KT BLU,LIBV,2021-01-14T03:55:00Z,40.77,16.93,2.0,2.0,240,4,,4.97,29.88189,,,,,,,,,,,CLR,,,,,,,,MVFR,,,,,,,,,,,,SPECI,344.0
LIBQ 140355Z 27004KT 9999 BKN006 M01/M02 Q1011 RMK BKN MON LIB VAL NIL VIS MIN 9999,LIBQ,2021-01-14T03:55:00Z,39.32,16.38,-1.0,-2.0,270,4,,6.21,29.852362,,,,,,,,,,,BKN,600,,,,,,,IFR,,,,,,,,,,,,SPECI,1660.0
LIBN 140355Z 24006KT 9999 FEW010 05/05 Q1014 RMK FEW VIS MIN 9999 WIND THR14 25006KT WIND THR32 25007KT BLU,LIBN,2021-01-14T03:55:00Z,40.23,18.13,5.0,5.0,240,6,,6.21,29.940945,,,,,,,,,,,FEW,1000,,,,,,,VFR,,,,,,,,,,,,METAR,46.0
LIBA 140355Z VRB01KT 8000 NSC 02/00 Q1012 RMK SKC VIS MIN 8000 WIND THR11 VRB01KT WIND THR29 /////KT BLU,LIBA,2021-01-14T03:55:00Z,41.53,15.72,2.0,0.0,0,1,,4.97,29.88189,,,,,,,,,,,CLR,,,,,,,,MVFR,,,,,,,,,,,,SPECI,55.0
KY19 140355Z AUTO 29013G20KT 10SM FEW070 SCT090 OVC110 05/01 A2951 RMK AO2 PWINO,KY19,2021-01-14T03:55:00Z,46.77,-100.9,5.0,1.0,290,13,20,10.0,29.509842,,,TRUE,TRUE,,,,,TRUE,,FEW,7000,SCT,9000,OVC,11000,,,VFR,,,,,,,,,,,,METAR,591.0
KXSA 140355Z AUTO 00000KT 10SM CLR M01/M01 A2992 RMK AO2 T10121012,KXSA,2021-01-14T03:55:00Z,37.87,-76.9,-1.2,-1.2,0,0,,10.0,29.920275,,,TRUE,TRUE,,,,,,,CLR,,,,,,,,VFR,,,,,,,,,,,,METAR,41.0
KX60 140355Z AUTO 30004KT 10SM OVC012 08/08 A3010 RMK AO2 T00820078,KX60,2021-01-14T03:55:00Z,29.35,-82.47,8.2,7.8,300,4,,10.0,30.100393,,,TRUE,TRUE,,,,,,,OVC,1200,,,,,,,MVFR,,,,,,,,,,,,METAR,21.0
KW31 140355Z AUTO 20006KT 10SM CLR 03/M01 A2989 RMK AO1 T00261012,KW31,2021-01-14T03:55:00Z,36.95,-78.18,2.6,-1.2,200,6,,10.0,29.890747,,,TRUE,TRUE,,,,,,,CLR,,,,,,,,VFR,,,,,,,,,,,,METAR,159.0
KVTI 140355Z AUTO 17004KT 10SM CLR M01/M02 A2960 RMK AO2 T10071025,KVTI,2021-01-14T03:55:00Z,42.22,-92.02,-0.7,-2.5,170,4,,10.0,29.601377,,,TRUE,TRUE,,,,,,,CLR,,,,,,,,VFR,,,,,,,,,,,,METAR,256.0
KVGC 140355Z AUTO 14006KT 7SM CLR M02/M04 A2979 RMK AO2,KVGC,2021-01-14T03:55:00Z,42.85,-75.57,-2.0,-4.0,140,6,,7.0,29.790354,,,TRUE,TRUE,,,,,,,CLR,,,,,,,,VFR,,,,,,,,,,,,METAR,346.0
KVBW 140355Z AUTO 00000KT 10SM CLR M04/M04 A2985 RMK AO1 T10361041,KVBW,2021-01-14T03:55:00Z,38.37,-78.97,-3.6,-4.1,0,0,,10.0,29.84941,,,TRUE,TRUE,,,,,,,CLR,,,,,,,,VFR,,,,,,,,,,,,METAR,362.0
KUGN 140355Z AUTO 22008KT 9SM SCT110 02/M01 A2966 RMK AO2 SLP053 T00221011,KUGN,2021-01-14T03:55:00Z,42.42,-87.87,2.2,-1.1,220,8,,9.0,29.660433,1005.3,,TRUE,TRUE,,,,,,,SCT,11000,,,,,,,VFR,,,,,,,,,,,,METAR,217.0
KTVK 140355Z AUTO 10SM CLR 02/02 A2961 RMK AO2,KTVK,2021-01-14T03:55:00Z,40.68,-92.9,2.0,2.0,,,,10.0,29.610237,,,TRUE,TRUE,,,,,,,CLR,,,,,,,,VFR,,,,,,,,,,,,SPECI,311.0
KTQK 140355Z AUTO 10SM CLR 09/M04 A2975 RMK AO1 T00901042,KTQK,2021-01-14T03:55:00Z,38.47,-100.88,9.0,-4.2,,,,10.0,29.749016,,,TRUE,TRUE,,,,,,,CLR,,,,,,,,VFR,,,,,,,,,,,,METAR,906.0
KTBN 140355Z 22008KT 10SM CLR 05/M05 A2975 RMK SLP082,KTBN,2021-01-14T03:55:00Z,37.73,-92.13,5.0,-5.0,220,8,,10.0,29.749016,1008.2,,,,,,,,,,CLR,,,,,,,,VFR,,,,,,,,,,,,METAR,349.0
KSXK 140355Z AUTO 17010KT 10SM FEW095 OVC120 03/03 A2949 RMK AO2,KSXK,2021-01-14T03:55:00Z,42.98,-96.17,3.0,3.0,170,10,,10.0,29.489174,,,TRUE,TRUE,,,,,,,FEW,9500,OVC,12000,,,,,VFR,,,,,,,,,,,,METAR,430.0
KSVE 140355Z AUTO 00000KT 10SM CLR 05/02 A3045 RMK AO2,KSVE,2021-01-14T03:55:00Z,40.37,-120.57,5.0,2.0,0,0,,10.0,30.448818,,,TRUE,TRUE,,,,,,,CLR,,,,,,,,VFR,,,,,,,,,,,,METAR,1263.0
KSQL 140355Z 00000KT 10SM SCT200 15/13 A3036,KSQL,2021-01-14T03:55:00Z,37.52,-122.25,15.0,13.0,0,0,,10.0,30.360237,,,,,,,,,,,SCT,20000,,,,,,,VFR,,,,,,,,,,,,METAR,1.0
KSDC 140355Z AUTO 00000KT 10SM CLR 01/M02 A2976 RMK AO2,KSDC,2021-01-14T03:55:00Z,43.23,-77.12,1.0,-2.0,0,0,,10.0,29.760826,,,TRUE,TRUE,,,,,,,CLR,,,,,,,,VFR,,,,,,,,,,,,METAR,127.0
KSCK 140355Z AUTO 32007KT 6SM HZ CLR 15/11 A3035 RMK AO2 SLP276 T01500111,KSCK,2021-01-14T03:55:00Z,37.88,-121.22,15.0,11.1,320,7,,6.0,30.351377,1027.6,,TRUE,TRUE,,,,,,HZ,CLR,,,,,,,,VFR,,,,,,,,,,,,METAR,8.0
KSCF 140355Z AUTO 00000KT 10SM CLR 12/07 A3011 RMK A01,KSCF,2021-01-14T03:55:00Z,29.12,-91.87,12.0,7.0,0,0,,10.0,30.109253,,,TRUE,TRUE,,,,,,,CLR,,,,,,,,VFR,,,,,,,,,,,,METAR,22.0
KRUG 140355Z AUTO 26009KT 10SM FEW060 SCT075 OVC110 03/00 A2935 RMK AO2,KRUG,2021-01-14T03:55:00Z,48.38,-100.02,3.0,0.0,260,9,,10.0,29.350393,,,TRUE,TRUE,,,,,,,FEW,6000,SCT,7500,OVC,11000,,,VFR,,,,,,,,,,,,METAR,469.0
KRNO 140355Z 19003KT 10SM CLR 09/02 A3044 RMK AO2 SLP292 T00890022,KRNO,2021-01-14T03:55:00Z,39.5,-119.77,8.9,2.2,190,3,,10.0,30.43996,1029.2,,,TRUE,,,,,,,CLR,,,,,,,,VFR,,,,,,,,,,,,METAR,1344.0
KRMG 140355Z AUTO 00000KT 3/4SM BR VV002 00/M01 A3002 RMK AO2 T00001011,KRMG,2021-01-14T03:55:00Z,34.35,-85.17,0.0,-1.1,0,0,,0.75,30.02067,,,TRUE,TRUE,,,,,,BR,OVX,0,,,,,,,LIFR,,,,,,,,,,,200,METAR,196.0
KRCE 140355Z AUTO 21012KT 10SM CLR 08/M00 A2976 RMK AO2,KRCE,2021-01-14T03:55:00Z,35.48,-97.82,8.0,0.0,210,12,,10.0,29.760826,,,TRUE,TRUE,,,,,,,CLR,,,,,,,,VFR,,,,,,,,,,,,METAR,412.0
KQTZ 140355Z 12008KT 9999 BKN150 BKN170 OVC190 12/01 A2994 RMK SLP143,KQTZ,2021-01-14T03:55:00Z,,,12.0,1.0,120,8,,6.21,29.940945,1014.3,,,,,,,,,,BKN,15000,BKN,17000,OVC,19000,,,VFR,,,,,,,,,,,,METAR,
KPHP 140355Z AUTO 32036G54KT 10SM OVC075 08/M05 A2965 RMK AO2 PK WND 33054/0355 RAE09 SLP045 P0000 T00781050 $,KPHP,2021-01-14T03:55:00Z,44.05,-101.6,7.8,-5.0,320,36,54,10.0,29.648623,1004.5,,TRUE,TRUE,TRUE,,,,,,OVC,7500,,,,,,,VFR,,,,,,0.005,,,,,,METAR,673.0
KPCZ 140355Z AUTO 00000KT 5SM BR CLR M02/M04 A2965 RMK AO2 T10251036,KPCZ,2021-01-14T03:55:00Z,44.33,-89.02,-2.5,-3.6,0,0,,5.0,29.648623,,,TRUE,TRUE,,,,,,BR,CLR,,,,,,,,MVFR,,,,,,,,,,,,METAR,248.0
KPCD 140355Z AUTO 10007KT 10SM CLR 02/M01 A2978 RMK AO2 T00231010,KPCD,2021-01-14T03:55:00Z,37.87,-89.87,2.3,-1.0,100,7,,10.0,29.778543,,,TRUE,TRUE,,,,,,,CLR,,,,,,,,VFR,,,,,,,,,,,,METAR,112.0
KOQN 140355Z AUTO 00000KT 10SM CLR 01/M02 A2990 RMK AO2,KOQN,2021-01-14T03:55:00Z,39.98,-75.58,1.0,-2.0,0,0,,10.0,29.899607,,,TRUE,TRUE,,,,,,,CLR,,,,,,,,VFR,,,,,,,,,,,,METAR,141.0
KNKX 140355Z 35004KT 10SM CLR 14/08 A3016 RMK AO2 SLP210 T01390083 $,KNKX,2021-01-14T03:55:00Z,32.87,-117.13,13.9,8.3,350,4,,10.0,30.159449,1021.0,,,TRUE,TRUE,,,,,,CLR,,,,,,,,VFR,,,,,,,,,,,,SPECI,138.0
KNFG 140355Z 07003KT 10SM CLR 11/03 A3016 RMK AO2 SLP212 T01110028 $,KNFG,2021-01-14T03:55:00Z,33.3,-117.35,11.1,2.8,70,3,,10.0,30.159449,1021.2,,,TRUE,TRUE,,,,,,CLR,,,,,,,,VFR,,,,,,,,,,,,METAR,21.0
KNBG 140355Z 00000KT 10SM FEW250 05/05 A3011 RMK AO2 SLP194 T00500050 $,KNBG,2021-01-14T03:55:00Z,29.83,-90.02,5.0,5.0,0,0,,10.0,30.109253,1019.4,,,TRUE,TRUE,,,,,,FEW,25000,,,,,,,VFR,,,,,,,,,,,,METAR,0.0
KMWN 140355Z 26022KT 0SM FZFG VV000 M13/M13 RMK VRY LGT ICG,KMWN,2021-01-14T03:55:00Z,44.27,-71.3,-13.0,-13.0,260,22,,0.0,,,,,,,,,,,FZFG,OVX,0,,,,,,,LIFR,,,,,,,,,,,0,METAR,1911.0
KMWC 140355Z AUTO 20005KT 10SM SCT100 01/M02 A2966 RMK AO2,KMWC,2021-01-14T03:55:00Z,43.12,-88.03,1.0,-2.0,200,5,,10.0,29.660433,,,TRUE,TRUE,,,,,,,SCT,10000,,,,,,,VFR,,,,,,,,,,,,METAR,225.0
KMRJ 140355Z AUTO 17004KT 10SM CLR 01/M01 A2961 RMK AO2,KMRJ,2021-01-14T03:55:00Z,42.88,-90.23,1.0,-1.0,170,4,,10.0,29.610237,,,TRUE,TRUE,,,,,,,CLR,,,,,,,,VFR,,,,,,,,,,,,METAR,350.0
KMKG 140355Z 22010KT 6SM -RA BR BKN045 BKN050 OVC080 03/02 A2970 RMK AO2 SLP063 LAST P0001 T00330017,KMKG,2021-01-14T03:55:00Z,43.17,-86.23,3.3,1.7,220,10,,6.0,29.698818,1006.3,,,TRUE,,,,,,-RA BR,BKN,4500,BKN,5000,OVC,8000,,,VFR,,,,,,0.01,,,,,,METAR,190.0
KLUX 140355Z AUTO 00000KT 1/2SM FG OVC001 02/02 A2995 RMK AO2,KLUX,2021-01-14T03:55:00Z,34.5,-81.95,2.0,2.0,0,0,,0.5,29.949802,,,TRUE,TRUE,,,,,,FG,OVC,100,,,,,,,LIFR,,,,,,,,,,,,METAR,213.0
KLNL 140355Z AUTO 00000KT 10SM CLR M10/M11 A2962 RMK AO2 T11001113,KLNL,2021-01-14T03:55:00Z,46.15,-89.22,-10.0,-11.3,0,0,,10.0,29.619095,,,TRUE,TRUE,,,,,,,CLR,,,,,,,,VFR,,,,,,,,,,,,METAR,517.0
KLLJ 140355Z AUTO 25007KT 10SM CLR M02/M17 A3033 RMK AO2 SLP302 T10221167,KLLJ,2021-01-14T03:55:00Z,44.52,-114.22,-2.2,-16.7,250,7,,10.0,30.33071,1030.2,,TRUE,TRUE,,,,,,,CLR,,,,,,,,VFR,,,,,,,,,,,,SPECI,1535.0
KLKU 140355Z AUTO 18003KT 10SM CLR M01/M05 A2992 RMK AO2 T10101055,KLKU,2021-01-14T03:55:00Z,38.02,-77.97,-1.0,-5.5,180,3,,10.0,29.920275,,,TRUE,TRUE,,,,,,,CLR,,,,,,,,VFR,,,,,,,,,,,,METAR,146.0
KLCK 140355Z AUTO 19009KT 10SM OVC100 04/M02 A2984 RMK AO2 T00351022,KLCK,2021-01-14T03:55:00Z,39.82,-82.92,3.5,-2.2,190,9,,10.0,29.840551,,,TRUE,TRUE,,,,,,,OVC,10000,,,,,,,VFR,,,,,,,,,,,,SPECI,225.0
KJXI 140355Z AUTO 07/02 A2997 RMK AO2 T00670015 PNO,KJXI,2021-01-14T03:55:00Z,32.7,-94.95,6.7,1.5,,,,,29.970472,,,TRUE,TRUE,,,,,,,,,,,,,,,,,,,,,,,,,,,METAR,130.0
KJVY 140355Z AUTO 17004KT 10SM CLR 02/M01 A2987 RMK AO2 T00211011 TSNO,KJVY,2021-01-14T03:55:00Z,38.37,-85.73,2.1,-1.1,170,4,,10.0,29.870079,,,TRUE,TRUE,,,TRUE,,,,CLR,,,,,,,,VFR,,,,,,,,,,,,METAR,141.0
KJNX 140355Z AUTO 21004KT 10SM CLR 06/05 A2995 RMK AO2,KJNX,2021-01-14T03:55:00Z,35.53,-78.38,6.0,5.0,210,4,,10.0,29.949802,,,TRUE,TRUE,,,,,,,CLR,,,,,,,,VFR,,,,,,,,,,,,METAR,41.0
KJFZ 140355Z AUTO 22007KT 10SM CLR 00/M07 A2989 RMK AO2 T00011073,KJFZ,2021-01-14T03:55:00Z,37.07,-81.8,0.1,-7.3,220,7,,10.0,29.890747,,,TRUE,TRUE,,,,,,,CLR,,,,,,,,VFR,,,,,,,,,,,,METAR,809.0
KJAQ 140355Z AUTO 35005KT 10SM CLR 13/11 A3036 RMK AO1 T01300106,KJAQ,2021-01-14T03:55:00Z,38.37,-120.8,13.0,10.6,350,5,,10.0,30.360237,,,TRUE,TRUE,,,,,,,CLR,,,,,,,,VFR,,,,,,,,,,,,METAR,518.0
KIRK 140355Z AUTO 21011G21KT 10SM CLR 06/M01 A2964 RMK AO2 SLP044 T00611011,KIRK,2021-01-14T03:55:00Z,40.1,-92.55,6.1,-1.1,210,11,21,10.0,29.639763,1004.4,,TRUE,TRUE,,,,,,,CLR,,,,,,,,VFR,,,,,,,,,,,,METAR,292.0
KI75 140355Z AUTO 18004KT 10SM CLR 02/M01 A2957 RMK AO2 T00201007,KI75,2021-01-14T03:55:00Z,41.05,-93.68,2.0,-0.7,180,4,,10.0,29.568897,,,TRUE,TRUE,,,,,,,CLR,,,,,,,,VFR,,,,,,,,,,,,METAR,336.0
KI68 140355Z AUTO 22008KT 10SM CLR 04/00 A2985 RMK AO1 T00401005,KI68,2021-01-14T03:55:00Z,39.47,-84.25,4.0,-0.5,220,8,,10.0,29.84941,,,TRUE,TRUE,,,,,,,CLR,,,,,,,,VFR,,,,,,,,,,,,METAR,274.0
KHZE 140355Z AUTO 29022G35KT 10SM BKN021 BKN040 OVC046 05/M02 A2953 RMK AO2,KHZE,2021-01-14T03:55:00Z,47.28,-101.58,5.0,-2.0,290,22,35,10.0,29.530512,,,TRUE,TRUE,,,,,,,BKN,2100,BKN,4000,OVC,4600,,,MVFR,,,,,,,,,,,,METAR,542.0
KHON 140355Z AUTO 28010KT 5SM -RA BR BKN050 OVC070 04/03 A2952 RMK AO2 SLP005 P0003 T00390028,KHON,2021-01-14T03:55:00Z,44.38,-98.23,3.9,2.8,280,10,,5.0,29.518702,1000.5,,TRUE,TRUE,,,,,,-RA BR,BKN,5000,OVC,7000,,,,,MVFR,,,,,,0.03,,,,,,METAR,391.0
KHOB 140355Z AUTO 26011KT 10SM CLR 06/M05 A2993 RMK AO2,KHOB,2021-01-14T03:55:00Z,32.67,-103.22,6.0,-5.0,260,11,,10.0,29.929134,,,TRUE,TRUE,,,,,,,CLR,,,,,,,,VFR,,,,,,,,,,,,METAR,1112.0
KHMT 140355Z AUTO 00000KT 10SM CLR 11/M03 A3020 RMK AO2 T01111028,KHMT,2021-01-14T03:55:00Z,33.73,-117.02,11.1,-2.8,0,0,,10.0,30.200787,,,TRUE,TRUE,,,,,,,CLR,,,,,,,,VFR,,,,,,,,,,,,METAR,462.0
KGYH 140355Z AUTO 00000KT 4SM BR CLR 02/02 A2994 RMK AO2,KGYH,2021-01-14T03:55:00Z,34.75,-82.38,2.0,2.0,0,0,,4.0,29.940945,,,TRUE,TRUE,,,,,,BR,CLR,,,,,,,,MVFR,,,,,,,,,,,,SPECI,283.0
KGPI 140355Z 20005KT 10SM OVC075 01/M07 A3021 RMK AO2 SLP248 T00111067,KGPI,2021-01-14T03:55:00Z,48.32,-114.25,1.1,-6.7,200,5,,10.0,30.209646,1024.8,,,TRUE,,,,,,,OVC,7500,,,,,,,VFR,,,,,,,,,,,,METAR,903.0
KFYJ 140355Z AUTO 00000KT 10SM CLR M01/M03 A2992 RMK AO1 T10081027,KFYJ,2021-01-14T03:55:00Z,37.52,-76.77,-0.8,-2.7,0,0,,10.0,29.920275,,,TRUE,TRUE,,,,,,,CLR,,,,,,,,VFR,,,,,,,,,,,,METAR,3.0
KFYG 140355Z AUTO 13004KT 10SM CLR 00/M02 A2973 RMK AO2,KFYG,2021-01-14T03:55:00Z,38.58,-91.0,0.0,-2.0,130,4,,10.0,29.731298,,,TRUE,TRUE,,,,,,,CLR,,,,,,,,VFR,,,,,,,,,,,,SPECI,147.0
KFIN 140355Z AUTO 29004KT 10SM SCT055 OVC080 09/08 A3008 RMK AO2 T00920080,KFIN,2021-01-14T03:55:00Z,29.47,-81.2,9.2,8.0,290,4,,10.0,30.079725,,,TRUE,TRUE,,,,,,,SCT,5500,OVC,8000,,,,,VFR,,,,,,,,,,,,METAR,10.0
KF70 140355Z AUTO 02005KT 10SM CLR 14/M04 A3019 RMK AO1,KF70,2021-01-14T03:55:00Z,33.57,-117.13,14.0,-4.0,20,5,,10.0,30.188976,,,TRUE,TRUE,,,,,,,CLR,,,,,,,,VFR,,,,,,,,,,,,METAR,406.0
KEZS 140355Z AUTO 00000KT 1/2SM FZFG BKN002 M05/M06 A2964 RMK AO2 T10541060,KEZS,2021-01-14T03:55:00Z,44.78,-88.57,-5.4,-6.0,0,0,,0.5,29.639763,,,TRUE,TRUE,,,,,,FZFG,BKN,200,,,,,,,LIFR,,,,,,,,,,,,METAR,247.0
KETC 140355Z AUTO 00000KT 10SM CLR 02/ A2993 RMK AO2 T0021////,KETC,2021-01-14T03:55:00Z,35.93,-77.55,2.1,,0,0,,10.0,29.929134,,,TRUE,TRUE,,,,,,,CLR,,,,,,,,VFR,,,,,,,,,,,,METAR,15.0
KEMV 140355Z AUTO 00000KT 10SM CLR M02/M03 A2994 RMK AO2 T10181035,KEMV,2021-01-14T03:55:00Z,36.68,-77.48,-1.8,-3.5,0,0,,10.0,29.940945,,,TRUE,TRUE,,,,,,,CLR,,,,,,,,VFR,,,,,,,,,,,,METAR,35.0
KEAT 140355Z AUTO VRB04KT 10SM CLR 01/M03 A3049 RMK AO2 SLP335 T00111028,KEAT,2021-01-14T03:55:00Z,47.4,-120.2,1.1,-2.8,0,4,,10.0,30.490158,1033.5,,TRUE,TRUE,,,,,,,CLR,,,,,,,,VFR,,,,,,,,,,,,METAR,375.0
KDNA 140355Z AUTO 21005KT 10SM CLR 06/M14 A3015 RMK AO2,KDNA,2021-01-14T03:55:00Z,31.88,-106.7,6.0,-14.0,210,5,,10.0,30.15059,,,TRUE,TRUE,,,,,,,CLR,,,,,,,,VFR,,,,,,,,,,,,METAR,1254.0
KD55 140355Z AUTO 23007KT 10SM FEW024 FEW031 SCT047 02/02 A2933 RMK AO2,KD55,2021-01-14T03:55:00Z,48.75,-98.4,2.0,2.0,230,7,,10.0,29.329725,,,TRUE,TRUE,,,,,,,FEW,2400,FEW,3100,SCT,4700,,,VFR,,,,,,,,,,,,METAR,488.0
KCNW 140355Z 17004KT 10SM SKC 07/03 A2997,KCNW,2021-01-14T03:55:00Z,31.63,-97.07,7.0,3.0,170,4,,10.0,29.970472,,,,,,,,,,,SKC,,,,,,,,VFR,,,,,,,,,,,,METAR,139.0
KCNK 140355Z AUTO 22011KT 10SM CLR 12/M03 A2959 RMK AO2 SLP022 T01221028,KCNK,2021-01-14T03:55:00Z,39.55,-97.65,12.2,-2.8,220,11,,10.0,29.589567,1002.2,,TRUE,TRUE,,,,,,,CLR,,,,,,,,VFR,,,,,,,,,,,,METAR,445.0
KCMA 140355Z 00000KT 10SM CLR 12/03 A3015 RMK AO2 SLP219 T01220033,KCMA,2021-01-14T03:55:00Z,34.22,-119.1,12.2,3.3,0,0,,10.0,30.15059,1021.9,,,TRUE,,,,,,,CLR,,,,,,,,VFR,,,,,,,,,,,,METAR,20.0
KCLW 140355Z AUTO 00000KT 10SM 11/10 A3010 RMK AO2,KCLW,2021-01-14T03:55:00Z,27.98,-82.75,11.0,10.0,0,0,,10.0,30.100393,,,TRUE,TRUE,,,,,,,,,,,,,,,,,,,,,,,,,,,METAR,21.0
KCEY 140355Z AUTO 19007KT 10SM CLR 05/00 A2987 RMK AO1,KCEY,2021-01-14T03:55:00Z,36.67,-88.37,5.0,0.0,190,7,,10.0,29.870079,,,TRUE,TRUE,,,,,,,CLR,,,,,,,,VFR,,,,,,,,,,,,METAR,172.0
KCBK 140355Z AUTO 30011KT 10SM CLR 11/M03 A2971 RMK AO2 PWINO,KCBK,2021-01-14T03:55:00Z,39.43,-101.05,11.0,-3.0,300,11,,10.0,29.71063,,,TRUE,TRUE,,,,,TRUE,,CLR,,,,,,,,VFR,,,,,,,,,,,,METAR,970.0
KCAO 140355Z AUTO 29003KT 10SM CLR 06/M04 A2987 RMK AO2 SLP094 T00611039,KCAO,2021-01-14T03:55:00Z,36.45,-103.15,6.1,-3.9,290,3,,10.0,29.870079,1009.4,,TRUE,TRUE,,,,,,,CLR,,,,,,,,VFR,,,,,,,,,,,,METAR,1517.0
KC35 140355Z AUTO 00000KT 10SM OVC100 01/M01 A2961 RMK AO2 T00131011 PWINO,KC35,2021-01-14T03:55:00Z,43.53,-89.98,1.3,-1.1,0,0,,10.0,29.610237,,,TRUE,TRUE,,,,,TRUE,,OVC,10000,,,,,,,VFR,,,,,,,,,,,,METAR,272.0
KBAC 140355Z AUTO 31014G21KT 7SM -RA SCT024 BKN031 OVC037 05/05 A2940 RMK AO2,KBAC,2021-01-14T03:55:00Z,46.93,-98.02,5.0,5.0,310,14,21,7.0,29.40059,,,TRUE,TRUE,,,,,,-RA,SCT,2400,BKN,3100,OVC,3700,,,VFR,,,,,,,,,,,,METAR,423.0
KAST 140355Z AUTO 07003KT 10SM CLR 06/04 A3046 RMK AO2 SLP314 T00610039,KAST,2021-01-14T03:55:00Z,46.15,-123.88,6.1,3.9,70,3,,10.0,30.46063,1031.4,,TRUE,TRUE,,,,,,,CLR,,,,,,,,VFR,,,,,,,,,,,,METAR,3.0
KANE 140355Z AUTO 13005KT 10SM CLR 02/M01 A2952 RMK AO2,KANE,2021-01-14T03:55:00Z,45.15,-93.22,2.0,-1.0,130,5,,10.0,29.518702,,,TRUE,TRUE,,,,,,,CLR,,,,,,,,VFR,,,,,,,,,,,,METAR,276.0
KAAT 140355Z AUTO 00000KT CLR 03/02 A3047 RMK AO2 SLP325 T00280017 $,KAAT,2021-01-14T03:55:00Z,41.48,-120.57,2.8,1.7,0,0,,,30.469488,1032.5,,TRUE,TRUE,TRUE,,,,,,CLR,,,,,,,,,,,,,,,,,,,,METAR,1336.0
K7W4 140355Z AUTO 21003KT 10SM CLR 00/M06 A2988 RMK AO1 T10051057,K7W4,2021-01-14T03:55:00Z,37.97,-77.75,-0.5,-5.7,210,3,,10.0,29.878937,,,TRUE,TRUE,,,,,,,CLR,,,,,,,,VFR,,,,,,,,,,,,METAR,115.0
K4S2 140355Z AUTO 00000KT 10SM CLR 03/02 A3052 RMK AO2,K4S2,2021-01-14T03:55:00Z,45.68,-121.55,3.0,2.0,0,0,,10.0,30.519686,,,TRUE,TRUE,,,,,,,CLR,,,,,,,,VFR,,,,,,,,,,,,METAR,183.0
K3D2 140355Z AUTO 00000KT 4SM BR CLR M02/M03 A2965 RMK AO2 T10221027,K3D2,2021-01-14T03:55:00Z,45.13,-87.18,-2.2,-2.7,0,0,,4.0,29.648623,,,TRUE,TRUE,,,,,,BR,CLR,,,,,,,,MVFR,,,,,,,,,,,,METAR,233.0
K24A 140355Z AUTO 00000KT 10SM SCT110 04/M03 A2991 RMK AO2 T00351033,K24A,2021-01-14T03:55:00Z,35.32,-83.2,3.5,-3.3,0,0,,10.0,29.911417,,,TRUE,TRUE,,,,,,,SCT,11000,,,,,,,VFR,,,,,,,,,,,,METAR,864.0
FJDG 140355Z 24011KT 9999 FEW018 SCT050 BKN250 27/25 A2979 RMK SLP085 T02730254,FJDG,2021-01-14T03:55:00Z,-7.32,72.42,27.3,25.4,240,11,,6.21,29.790354,1008.5,,,,,,,,,,FEW,1800,SCT,5000,BKN,25000,,,VFR,,,,,,,,,,,,SPECI,3.0
EHFS 140355Z AUTO 06014KT 9999 -DZ FEW008/// BKN011/// OVC015/// 04/02 Q1017 REDZ,EHFS,2021-01-14T03:55:00Z,51.45,3.6,4.0,2.0,60,14,,6.21,30.029528,,,TRUE,,,,,,,-DZ,FEW,800,BKN,1100,OVC,1500,,,MVFR,,,,,,,,,,,,METAR,1.0
EBFN 140355Z AUTO 13003KT 3000 -RA FEW011/// OVC031/// 03/03 Q1017 YLO,EBFN,2021-01-14T03:55:00Z,51.08,2.65,3.0,3.0,130,3,,1.86,30.029528,,,TRUE,,,,,,,-RA,FEW,1100,OVC,3100,,,,,IFR,,,,,,,,,,,,SPECI,9.0
EBBL 140355Z AUTO VRB02KT 9999 OVC031/// 01/01 Q1018 BLU,EBBL,2021-01-14T03:55:00Z,51.17,5.47,1.0,1.0,0,2,,6.21,30.059055,,,TRUE,,,,,,,,OVC,3100,,,,,,,VFR,,,,,,,,,,,,SPECI,50.0
PKMR 140354Z 06012KT 20SM SCT016 SCT300 30/24 A2971 RMK SLP063 T02950240,PKMR,2021-01-14T03:54:00Z,7.08,171.38,29.5,24.0,60,12,,20.0,29.71063,1006.3,,,,,,,,,,SCT,1600,SCT,30000,,,,,VFR,,,,,,,,,,,,METAR,7.0
PHOG 140354Z 05006KT 10SM FEW040 SCT050 26/19 A2998 RMK AO2 SLP158 T02560189 $,PHOG,2021-01-14T03:54:00Z,20.9,-156.43,25.6,18.9,50,6,,10.0,29.97933,1015.8,,,TRUE,TRUE,,,,,,FEW,4000,SCT,5000,,,,,VFR,,,,,,,,,,,,METAR,14.0
PHMK 140354Z 00000KT 10SM CLR 23/18 A3000 RMK AO2 SLP160 T02330183,PHMK,2021-01-14T03:54:00Z,21.15,-157.1,23.3,18.3,0,0,,10.0,30.0,1016.0,,,TRUE,,,,,,,CLR,,,,,,,,VFR,,,,,,,,,,,,METAR,135.0
PGUM 140354Z 08018G25KT 10SM CLR 29/22 A2982 RMK AO2 PK WND 08026/0259 SLP089 T02890217,PGUM,2021-01-14T03:54:00Z,13.48,144.8,28.9,21.7,80,18,25,10.0,29.819881,1008.9,,,TRUE,,,,,,,CLR,,,,,,,,VFR,,,,,,,,,,,,METAR,74.0
PGSN 140354Z 11016KT 10SM CLR 31/22 A2983 RMK AO2 SLP122 T03060222,PGSN,2021-01-14T03:54:00Z,15.12,145.72,30.6,22.2,110,16,,10.0,29.828741,1012.2,,,TRUE,,,,,,,CLR,,,,,,,,VFR,,,,,,,,,,,,METAR,65.0
PAHN 140354Z AUTO 09005KT 10SM UP OVC011 03/01 A3006 RMK AO2 UPB51 SLP180 P0000 T00330006 TSNO,PAHN,2021-01-14T03:54:00Z,59.25,-135.52,3.3,0.6,90,5,,10.0,30.059055,1018.0,,TRUE,TRUE,,,TRUE,,,UP,OVC,1100,,,,,,,MVFR,,,,,,0.005,,,,,,METAR,15.0
KWLD 140354Z AUTO 20006KT 10SM CLR 06/01 A2973 RMK AO2 SLP074 T00610006,KWLD,2021-01-14T03:54:00Z,37.17,-97.03,6.1,0.6,200,6,,10.0,29.731298,1007.4,,TRUE,TRUE,,,,,,,CLR,,,,,,,,VFR,,,,,,,,,,,,METAR,351.0
KWAL 140354Z AUTO 19007KT CLR 03/03 A2993 RMK AO2 SLP133 T00280028 $,KWAL,2021-01-14T03:54:00Z,37.93,-75.47,2.8,2.8,190,7,,,29.929134,1013.3,,TRUE,TRUE,TRUE,,,,,,CLR,,,,,,,,,,,,,,,,,,,,METAR,10.0
KVTA 140354Z AUTO 20005KT 10SM FEW095 SCT120 04/M02 A2983 RMK AO2 SLP106 T00391022,KVTA,2021-01-14T03:54:00Z,40.02,-82.47,3.9,-2.2,200,5,,10.0,29.828741,1010.6,,TRUE,TRUE,,,,,,,FEW,9500,SCT,12000,,,,,VFR,,,,,,,,,,,,METAR,268.0
KVSF 140354Z AUTO 00000KT 10SM OVC035 M01/M05 A2986 RMK AO2 SLP118 T10111050,KVSF,2021-01-14T03:54:00Z,43.35,-72.52,-1.1,-5.0,0,0,,10.0,29.861221,1011.8,,TRUE,TRUE,,,,,,,OVC,3500,,,,,,,VFR,,,,,,,,,,,,METAR,176.0
KVAY 140354Z AUTO 18004KT 10SM CLR 01/M03 A2992 RMK AO2 SLP131 T00061028,KVAY,2021-01-14T03:54:00Z,39.93,-74.83,0.6,-2.8,180,4,,10.0,29.920275,1013.1,,TRUE,TRUE,,,,,,,CLR,,,,,,,,VFR,,,,,,,,,,,,METAR,15.0
KUZA 140354Z AUTO 22005KT 6SM BR OVC005 04/03 A2994 RMK AO2 RAB38E47 SLP144 P0000 T00440033,KUZA,2021-01-14T03:54:00Z,34.98,-81.05,4.4,3.3,220,5,,6.0,29.940945,1014.4,,TRUE,TRUE,,,,,,BR,OVC,500,,,,,,,IFR,,,,,,0.005,,,,,,METAR,198.0
KUIN 140354Z AUTO 19010KT 10SM CLR 04/M02 A2966 RMK AO2 SLP047 T00441022,KUIN,2021-01-14T03:54:00Z,39.95,-91.2,4.4,-2.2,190,10,,10.0,29.660433,1004.7,,TRUE,TRUE,,,,,,,CLR,,,,,,,,VFR,,,,,,,,,,,,METAR,233.0
KTQE 140354Z AUTO 15004KT 10SM CLR 02/M01 A2954 RMK AO2 SLP006 T00171006,KTQE,2021-01-14T03:54:00Z,41.77,-96.18,1.7,-0.6,150,4,,10.0,29.53937,1000.6,,TRUE,TRUE,,,,,,,CLR,,,,,,,,VFR,,,,,,,,,,,,METAR,312.0
KTAD 140354Z AUTO 30020G30KT 10SM CLR 10/M04 A2990 RMK AO2 PK WND 31030/0347 SLP101 T01001039,KTAD,2021-01-14T03:54:00Z,37.27,-104.33,10.0,-3.9,300,20,30,10.0,29.899607,1010.1,,TRUE,TRUE,,,,,,,CLR,,,,,,,,VFR,,,,,,,,,,,,SPECI,1751.0
KSYR 140354Z 14003KT 10SM BKN180 00/M04 A2978 RMK AO2 SLP085 T00001044,KSYR,2021-01-14T03:54:00Z,43.12,-76.1,0.0,-4.4,140,3,,10.0,29.778543,1008.5,,,TRUE,,,,,,,BKN,18000,,,,,,,VFR,,,,,,,,,,,,METAR,125.0
KSUS 140354Z AUTO 00000KT 10SM CLR 00/M04 A2973 RMK AO2 SLP075 T00001039,KSUS,2021-01-14T03:54:00Z,38.65,-90.65,0.0,-3.9,0,0,,10.0,29.731298,1007.5,,TRUE,TRUE,,,,,,,CLR,,,,,,,,VFR,,,,,,,,,,,,METAR,140.0
KSLC 140354Z 29003KT 10SM BKN065 04/M03 A3038 RMK AO2 SLP297 T00391028,KSLC,2021-01-14T03:54:00Z,40.77,-111.97,3.9,-2.8,290,3,,10.0,30.380905,1029.7,,,TRUE,,,,,,,BKN,6500,,,,,,,VFR,,,,,,,,,,,,SPECI,1286.0
KSJN 140354Z AUTO 17005KT 10SM CLR M02/M17 A3027 RMK AO2 SLP271 T10171167,KSJN,2021-01-14T03:54:00Z,34.52,-109.38,-1.7,-16.7,170,5,,10.0,30.268702,1027.1,,TRUE,TRUE,,,,,,,CLR,,,,,,,,VFR,,,,,,,,,,,,METAR,1747.0
KSET 140354Z AUTO 09004KT 10SM CLR 01/M03 A2973 RMK AO2 SLP070 T00111033,KSET,2021-01-14T03:54:00Z,38.93,-90.43,1.1,-3.3,90,4,,10.0,29.731298,1007.0,,TRUE,TRUE,,,,,,,CLR,,,,,,,,VFR,,,,,,,,,,,,METAR,133.0
KSBN 140354Z 20006KT 10SM OVC090 04/M01 A2975 RMK AO2 SLP080 T00391006 $,KSBN,2021-01-14T03:54:00Z,41.7,-86.32,3.9,-0.6,200,6,,10.0,29.749016,1008.0,,,TRUE,TRUE,,,,,,OVC,9000,,,,,,,VFR,,,,,,,,,,,,METAR,236.0
KRST 140354Z 16007KT 8SM CLR M01/M03 A2955 RMK AO2 SLP020 T10111028,KRST,2021-01-14T03:54:00Z,43.9,-92.5,-1.1,-2.8,160,7,,8.0,29.551182,1002.0,,,TRUE,,,,,,,CLR,,,,,,,,VFR,,,,,,,,,,,,METAR,398.0
KRSP 140354Z AUTO 22007KT 10SM SCT120 04/M06 A2983 RMK AO2 SLP117 T00391056 TSNO PNO $,KRSP,2021-01-14T03:54:00Z,39.65,-77.47,3.9,-5.6,220,7,,10.0,29.828741,1011.7,,TRUE,TRUE,TRUE,,TRUE,,,,SCT,12000,,,,,,,VFR,,,,,,,,,,,,METAR,555.0
KROC 140354Z 22008KT 10SM BKN180 02/M02 A2974 RMK AO2 SLP081 T00221022,KROC,2021-01-14T03:54:00Z,43.12,-77.68,2.2,-2.2,220,8,,10.0,29.740158,1008.1,,,TRUE,,,,,,,BKN,18000,,,,,,,VFR,,,,,,,,,,,,METAR,166.0
KROA 140354Z 12003KT 10SM CLR M01/M06 A2989 RMK AO2 SLP128 T10061061,KROA,2021-01-14T03:54:00Z,37.32,-79.97,-0.6,-6.1,120,3,,10.0,29.890747,1012.8,,,TRUE,,,,,,,CLR,,,,,,,,VFR,,,,,,,,,,,,METAR,349.0
KRKS 140354Z AUTO 27026G43KT 10SM CLR M02/M13 A3016 RMK AO2 PK WND 27045/0335 SLP228 T10171128,KRKS,2021-01-14T03:54:00Z,41.6,-109.07,-1.7,-12.8,270,26,43,10.0,30.159449,1022.8,,TRUE,TRUE,,,,,,,CLR,,,,,,,,VFR,,,,,,,,,,,,METAR,2062.0
KRIC 140354Z 00000KT 10SM CLR 03/M06 A2990 RMK AO2 SLP130 T00281056,KRIC,2021-01-14T03:54:00Z,37.52,-77.32,2.8,-5.6,0,0,,10.0,29.899607,1013.0,,,TRUE,,,,,,,CLR,,,,,,,,VFR,,,,,,,,,,,,METAR,51.0
KRFD 140354Z 15007KT 8SM OVC130 02/M02 A2968 RMK AO2 SLP055 T00171017,KRFD,2021-01-14T03:54:00Z,42.2,-89.1,1.7,-1.7,150,7,,8.0,29.681103,1005.5,,,TRUE,,,,,,,OVC,13000,,,,,,,VFR,,,,,,,,,,,,METAR,222.0
KRDG 140354Z AUTO 35003KT 9SM CLR M01/M03 A2988 RMK AO2 SLP127 T10111033,KRDG,2021-01-14T03:54:00Z,40.37,-75.97,-1.1,-3.3,350,3,,9.0,29.878937,1012.7,,TRUE,TRUE,,,,,,,CLR,,,,,,,,VFR,,,,,,,,,,,,METAR,101.0
KPTW 140354Z AUTO 00000KT 9SM CLR M02/M04 A2991 RMK AO2 SLP129 T10221044,KPTW,2021-01-14T03:54:00Z,40.23,-75.55,-2.2,-4.4,0,0,,9.0,29.911417,1012.9,,TRUE,TRUE,,,,,,,CLR,,,,,,,,VFR,,,,,,,,,,,,METAR,88.0
KPSF 140354Z AUTO 00000KT 9SM CLR M02/M06 A2981 RMK AO2 SLP106 T10221056,KPSF,2021-01-14T03:54:00Z,42.43,-73.28,-2.2,-5.6,0,0,,9.0,29.811024,1010.6,,TRUE,TRUE,,,,,,,CLR,,,,,,,,VFR,,,,,,,,,,,,METAR,352.0
KPNE 140354Z AUTO 00000KT 9SM CLR 03/M03 A2993 RMK AO2 SLP134 T00281028,KPNE,2021-01-14T03:54:00Z,40.08,-75.02,2.8,-2.8,0,0,,9.0,29.929134,1013.4,,TRUE,TRUE,,,,,,,CLR,,,,,,,,VFR,,,,,,,,,,,,METAR,32.0
KPLN 140354Z AUTO 00000KT 10SM OVC019 M01/M03 A2969 RMK AO2 SLP062 T10061028,KPLN,2021-01-14T03:54:00Z,45.57,-84.8,-0.6,-2.8,0,0,,10.0,29.68996,1006.2,,TRUE,TRUE,,,,,,,OVC,1900,,,,,,,MVFR,,,,,,,,,,,,METAR,215.0
KPIA 140354Z 17005KT 10SM CLR 02/M01 A2970 RMK AO2 SLP063 T00221006,KPIA,2021-01-14T03:54:00Z,40.67,-89.68,2.2,-0.6,170,5,,10.0,29.698818,1006.3,,,TRUE,,,,,,,CLR,,,,,,,,VFR,,,,,,,,,,,,METAR,200.0
KPHL 140354Z 00000KT 10SM FEW250 02/M03 A2992 RMK AO2 SLP131 T00171033,KPHL,2021-01-14T03:54:00Z,39.87,-75.23,1.7,-3.3,0,0,,10.0,29.920275,1013.1,,,TRUE,,,,,,,FEW,25000,,,,,,,VFR,,,,,,,,,,,,SPECI,2.0
KPHF 140354Z AUTO 22004KT 10SM CLR 04/M02 A2993 RMK AO2 SLP135 T00391022,KPHF,2021-01-14T03:54:00Z,37.13,-76.5,3.9,-2.2,220,4,,10.0,29.929134,1013.5,,TRUE,TRUE,,,,,,,CLR,,,,,,,,VFR,,,,,,,,,,,,METAR,12.0
KORH 140354Z AUTO 23005KT 10SM CLR M01/M06 A2985 RMK AO2 SLP120 T10061056,KORH,2021-01-14T03:54:00Z,42.27,-71.87,-0.6,-5.6,230,5,,10.0,29.84941,1012.0,,TRUE,TRUE,,,,,,,CLR,,,,,,,,VFR,,,,,,,,,,,,METAR,306.0
KOLS 140354Z AUTO 08003KT 10SM CLR 07/M20 A3018 RMK AO2 SLP210 T00721200,KOLS,2021-01-14T03:54:00Z,31.42,-110.85,7.2,-20.0,80,3,,10.0,30.180119,1021.0,,TRUE,TRUE,,,,,,,CLR,,,,,,,,VFR,,,,,,,,,,,,SPECI,1194.0
KOLM 140354Z AUTO 00000KT 10SM CLR 03/02 A3050 RMK AO2 SLP331 T00280017,KOLM,2021-01-14T03:54:00Z,46.97,-122.9,2.8,1.7,0,0,,10.0,30.499016,1033.1,,TRUE,TRUE,,,,,,,CLR,,,,,,,,VFR,,,,,,,,,,,,SPECI,58.0
KOFP 140354Z AUTO 00000KT 10SM CLR M01/M05 A2990 RMK AO2 SLP128 T10061050,KOFP,2021-01-14T03:54:00Z,37.7,-77.43,-0.6,-5.0,0,0,,10.0,29.899607,1012.8,,TRUE,TRUE,,,,,,,CLR,,,,,,,,VFR,,,,,,,,,,,,METAR,63.0
KNAK 140354Z AUTO 00000KT 2 1/2SM BR CLR 02/02 A2990 RMK AO2 SLP126 T00170017,KNAK,2021-01-14T03:54:00Z,38.98,-76.48,1.7,1.7,0,0,,2.5,29.899607,1012.6,,TRUE,TRUE,,,,,,BR,CLR,,,,,,,,IFR,,,,,,,,,,,,METAR,2.0
KMVL 140354Z AUTO 21003KT 5SM BR OVC034 M02/M04 A2981 RMK AO2 SLP105 T10171039,KMVL,2021-01-14T03:54:00Z,44.53,-72.62,-1.7,-3.9,210,3,,5.0,29.811024,1010.5,,TRUE,TRUE,,,,,,BR,OVC,3400,,,,,,,MVFR,,,,,,,,,,,,METAR,226.0
KMTP 140354Z AUTO 22003KT 03/M01 A2993 RMK AO1 SLP136 T00331011,KMTP,2021-01-14T03:54:00Z,41.07,-71.92,3.3,-1.1,220,3,,,29.929134,1013.6,,TRUE,TRUE,,,,,,,,,,,,,,,,,,,,,,,,,,,METAR,2.0
KMRY 140354Z AUTO 11004KT 10SM CLR 13/09 A3031 RMK AO2 SLP278 T01280094,KMRY,2021-01-14T03:54:00Z,36.58,-121.85,12.8,9.4,110,4,,10.0,30.31004,1027.8,,TRUE,TRUE,,,,,,,CLR,,,,,,,,VFR,,,,,,,,,,,,SPECI,51.0
KMOT 140354Z 26022G34KT 10SM BKN039 OVC047 07/M03 A2939 RMK AO2 PK WND 26034/0349 SLP964 T00671028 $,KMOT,2021-01-14T03:54:00Z,48.25,-101.27,6.7,-2.8,260,22,34,10.0,29.388779,996.4,,,TRUE,TRUE,,,,,,BKN,3900,OVC,4700,,,,,VFR,,,,,,,,,,,,METAR,507.0
KMKC 140354Z 21007KT 10SM CLR 07/M01 A2964 RMK AO2 SLP040 T00721006,KMKC,2021-01-14T03:54:00Z,39.12,-94.6,7.2,-0.6,210,7,,10.0,29.639763,1004.0,,,TRUE,,,,,,,CLR,,,,,,,,VFR,,,,,,,,,,,,METAR,228.0
KMIV 140354Z AUTO 00000KT 10SM CLR M03/M06 A2992 RMK AO2 SLP132 T10331056,KMIV,2021-01-14T03:54:00Z,39.37,-75.08,-3.3,-5.6,0,0,,10.0,29.920275,1013.2,,TRUE,TRUE,,,,,,,CLR,,,,,,,,VFR,,,,,,,,,,,,METAR,18.0
KMGJ 140354Z AUTO 00000KT 9SM BKN120 M01/M03 A2987 RMK AO2 SLP119 T10061033,KMGJ,2021-01-14T03:54:00Z,41.52,-74.27,-0.6,-3.3,0,0,,9.0,29.870079,1011.9,,TRUE,TRUE,,,,,,,BKN,12000,,,,,,,VFR,,,,,,,,,,,,METAR,106.0
KMFI 140354Z AUTO 10004KT 9SM OVC095 01/M02 A2960 RMK AO2 SLP038 T00061017,KMFI,2021-01-14T03:54:00Z,44.63,-90.18,0.6,-1.7,100,4,,9.0,29.601377,1003.8,,TRUE,TRUE,,,,,,,OVC,9500,,,,,,,VFR,,,,,,,,,,,,METAR,383.0
KMEM 140354Z 19007KT 10SM SCT180 06/02 A2993 RMK AO2 SLP136 T00560017 $,KMEM,2021-01-14T03:54:00Z,35.07,-89.98,5.6,1.7,190,7,,10.0,29.929134,1013.6,,,TRUE,TRUE,,,,,,SCT,18000,,,,,,,VFR,,,,,,,,,,,,METAR,78.0
KLYH 140354Z AUTO 00000KT 10SM CLR M01/M06 A2987 RMK AO2 SLP118 T10061056,KLYH,2021-01-14T03:54:00Z,37.32,-79.2,-0.6,-5.6,0,0,,10.0,29.870079,1011.8,,TRUE,TRUE,,,,,,,CLR,,,,,,,,VFR,,,,,,,,,,,,METAR,282.0
KLWT 140354Z AUTO 26019G23KT 10SM BKN110 M02/M04 A3000 RMK AO2 PK WND 29027/0308 SNB08E21 SLP172 P0000 T10221044 $,KLWT,2021-01-14T03:54:00Z,47.05,-109.47,-2.2,-4.4,260,19,23,10.0,30.0,1017.2,,TRUE,TRUE,TRUE,,,,,,BKN,11000,,,,,,,VFR,,,,,,0.005,,,,,,SPECI,1254.0
KLWM 140354Z AUTO 21006KT 10SM OVC036 02/M05 A2991 RMK AO2 SLP129 T00221050,KLWM,2021-01-14T03:54:00Z,42.72,-71.13,2.2,-5.0,210,6,,10.0,29.911417,1012.9,,TRUE,TRUE,,,,,,,OVC,3600,,,,,,,VFR,,,,,,,,,,,,METAR,42.0
KLNK 140354Z 00000KT 10SM FEW120 06/01 A2957 RMK AO2 SLP018 T00610006,KLNK,2021-01-14T03:54:00Z,40.85,-96.77,6.1,0.6,0,0,,10.0,29.568897,1001.8,,,TRUE,,,,,,,FEW,12000,,,,,,,VFR,,,,,,,,,,,,METAR,357.0
KLEX 140354Z 19009KT 10SM CLR 00/M04 A2988 RMK AO2 SLP125 T00001039,KLEX,2021-01-14T03:54:00Z,38.03,-84.6,0.0,-3.9,190,9,,10.0,29.878937,1012.5,,,TRUE,,,,,,,CLR,,,,,,,,VFR,,,,,,,,,,,,METAR,294.0
KLAF 140354Z AUTO 21005KT 10SM BKN120 06/M01 A2977 RMK AO2 SLP083 T00561006,KLAF,2021-01-14T03:54:00Z,40.42,-86.93,5.6,-0.6,210,5,,10.0,29.769686,1008.3,,TRUE,TRUE,,,,,,,BKN,12000,,,,,,,VFR,,,,,,,,,,,,METAR,182.0
KJST 140354Z AUTO 23008KT 10SM FEW110 02/M04 A2980 RMK AO2 SLP112 T00221044,KJST,2021-01-14T03:54:00Z,40.32,-78.83,2.2,-4.4,230,8,,10.0,29.799213,1011.2,,TRUE,TRUE,,,,,,,FEW,11000,,,,,,,VFR,,,,,,,,,,,,METAR,695.0
KJAN 140354Z 19003KT 10SM CLR 02/M01 A3003 RMK AO2 SLP169 T00221006,KJAN,2021-01-14T03:54:00Z,32.32,-90.08,2.2,-0.6,190,3,,10.0,30.029528,1016.9,,,TRUE,,,,,,,CLR,,,,,,,,VFR,,,,,,,,,,,,METAR,92.0
KIZG 140354Z AUTO 00000KT 10SM OVC044 M02/M05 A2985 RMK AO2 SLP114 T10171050,KIZG,2021-01-14T03:54:00Z,43.98,-70.95,-1.7,-5.0,0,0,,10.0,29.84941,1011.4,,TRUE,TRUE,,,,,,,OVC,4400,,,,,,,VFR,,,,,,,,,,,,METAR,138.0
KISW 140354Z AUTO 11004KT 10SM OVC095 01/M02 A2962 RMK AO2 SLP041 T00061017,KISW,2021-01-14T03:54:00Z,44.37,-89.83,0.6,-1.7,110,4,,10.0,29.619095,1004.1,,TRUE,TRUE,,,,,,,OVC,9500,,,,,,,VFR,,,,,,,,,,,,METAR,311.0
KIPT 140354Z AUTO 00000KT 7SM BKN120 01/M03 A2985 RMK AO2 SLP113 T00061028,KIPT,2021-01-14T03:54:00Z,41.25,-76.92,0.6,-2.8,0,0,,7.0,29.84941,1011.3,,TRUE,TRUE,,,,,,,BKN,12000,,,,,,,VFR,,,,,,,,,,,,METAR,160.0
KINT 140354Z AUTO 23006KT 10SM CLR 06/04 A2992 RMK AO2 SLP131 T00560044,KINT,2021-01-14T03:54:00Z,36.13,-80.22,5.6,4.4,230,6,,10.0,29.920275,1013.1,,TRUE,TRUE,,,,,,,CLR,,,,,,,,VFR,,,,,,,,,,,,METAR,292.0
KINL 140354Z AUTO 11009KT 10SM CLR M04/M07 A2947 RMK AO2 SLP000 T10441072,KINL,2021-01-14T03:54:00Z,48.57,-93.4,-4.4,-7.2,110,9,,10.0,29.471457,1000.0,,TRUE,TRUE,,,,,,,CLR,,,,,,,,VFR,,,,,,,,,,,,METAR,353.0
KIND 140354Z 20010KT 10SM FEW120 BKN150 04/M02 A2980 RMK AO2 SLP095 T00391017,KIND,2021-01-14T03:54:00Z,39.72,-86.27,3.9,-1.7,200,10,,10.0,29.799213,1009.5,,,TRUE,,,,,,,FEW,12000,BKN,15000,,,,,VFR,,,,,,,,,,,,METAR,242.0
KIMT 140354Z AUTO 20003KT 8SM CLR M08/M09 A2962 RMK AO2 SLP051 I1000 T10781094,KIMT,2021-01-14T03:54:00Z,45.82,-88.12,-7.8,-9.4,200,3,,8.0,29.619095,1005.1,,TRUE,TRUE,,,,,,,CLR,,,,,,,,VFR,,,,,,,,,,,,METAR,343.0
KILN 140354Z AUTO 22011KT 10SM FEW090 BKN120 03/M02 A2983 RMK AO2 SLP121 T00331022 $,KILN,2021-01-14T03:54:00Z,39.43,-83.8,3.3,-2.2,220,11,,10.0,29.828741,1012.1,,TRUE,TRUE,TRUE,,,,,,FEW,9000,BKN,12000,,,,,VFR,,,,,,,,,,,,METAR,325.0
KHWD 140354Z 35004KT 10SM CLR 14/12 A3035 RMK AO2 SLP286 T01440117,KHWD,2021-01-14T03:54:00Z,37.67,-122.12,14.4,11.7,350,4,,10.0,30.351377,1028.6,,,TRUE,,,,,,,CLR,,,,,,,,VFR,,,,,,,,,,,,METAR,9.0
KGSO 140354Z 22007KT 10SM FEW009 BKN140 OVC200 05/04 A2990 RMK AO2 SLP127 T00500039,KGSO,2021-01-14T03:54:00Z,36.1,-79.95,5.0,3.9,220,7,,10.0,29.899607,1012.7,,,TRUE,,,,,,,FEW,900,BKN,14000,OVC,20000,,,VFR,,,,,,,,,,,,METAR,275.0
KGED 140354Z AUTO 00000KT 1/4SM FG VV003 02/02 A2992 RMK AO2 SLP133 T00220017 $,KGED,2021-01-14T03:54:00Z,38.68,-75.37,2.2,1.7,0,0,,0.25,29.920275,1013.3,,TRUE,TRUE,TRUE,,,,,FG,OVX,0,,,,,,,LIFR,,,,,,,,,,,300,METAR,15.0
KGCN 140354Z AUTO 00000KT 10SM CLR M03/M09 A3032 RMK AO2 SLP290 T10331089 TSNO,KGCN,2021-01-14T03:54:00Z,35.95,-112.15,-3.3,-8.9,0,0,,10.0,30.318897,1029.0,,TRUE,TRUE,,,TRUE,,,,CLR,,,,,,,,VFR,,,,,,,,,,,,METAR,1993.0
KGCK 140354Z AUTO 26007KT 10SM CLR 08/M04 A2975 RMK AO2 SLP075 T00831039 TSNO,KGCK,2021-01-14T03:54:00Z,37.92,-100.72,8.3,-3.9,260,7,,10.0,29.749016,1007.5,,TRUE,TRUE,,,TRUE,,,,CLR,,,,,,,,VFR,,,,,,,,,,,,METAR,877.0
KFZY 140354Z AUTO 13003KT 8SM CLR M01/M04 A2977 RMK AO2 SLP085 T10061044,KFZY,2021-01-14T03:54:00Z,43.35,-76.38,-0.6,-4.4,130,3,,8.0,29.769686,1008.5,,TRUE,TRUE,,,,,,,CLR,,,,,,,,VFR,,,,,,,,,,,,METAR,143.0
KFWA 140354Z 23009KT 10SM FEW075 OVC095 04/M01 A2977 RMK AO2 SLP085 T00441011,KFWA,2021-01-14T03:54:00Z,40.98,-85.2,4.4,-1.1,230,9,,10.0,29.769686,1008.5,,,TRUE,,,,,,,FEW,7500,OVC,9500,,,,,VFR,,,,,,,,,,,,METAR,243.0
KFIG 140354Z AUTO 20006KT 10SM OVC100 02/M03 A2981 RMK AO2 SLP109 T00221028,KFIG,2021-01-14T03:54:00Z,41.05,-78.42,2.2,-2.8,200,6,,10.0,29.811024,1010.9,,TRUE,TRUE,,,,,,,OVC,10000,,,,,,,VFR,,,,,,,,,,,,METAR,461.0
KFFZ 140354Z 00000KT 10SM CLR 11/M07 A3016 RMK AO2 SLP204 T01061072,KFFZ,2021-01-14T03:54:00Z,33.47,-111.72,10.6,-7.2,0,0,,10.0,30.159449,1020.4,,,TRUE,,,,,,,CLR,,,,,,,,VFR,,,,,,,,,,,,METAR,420.0
KEWN 140354Z AUTO 22004KT 10SM CLR 07/05 A2996 RMK AO2 SLP144 T00670050,KEWN,2021-01-14T03:54:00Z,35.07,-77.05,6.7,5.0,220,4,,10.0,29.958662,1014.4,,TRUE,TRUE,,,,,,,CLR,,,,,,,,VFR,,,,,,,,,,,,METAR,3.0
KEVV 140354Z 20006KT 10SM CLR 06/M02 A2986 RMK AO2 SLP112 T00561022,KEVV,2021-01-14T03:54:00Z,38.05,-87.52,5.6,-2.2,200,6,,10.0,29.861221,1011.2,,,TRUE,,,,,,,CLR,,,,,,,,VFR,,,,,,,,,,,,METAR,123.0
KEUG 140354Z 00000KT 10SM BKN180 BKN250 07/04 A3044 RMK AO2 SLP310 T00670044,KEUG,2021-01-14T03:54:00Z,44.13,-123.22,6.7,4.4,0,0,,10.0,30.43996,1031.0,,,TRUE,,,,,,,BKN,18000,BKN,25000,,,,,VFR,,,,,,,,,,,,METAR,109.0
KECG 140354Z AUTO 19003KT 10SM CLR 04/04 A2995 RMK AO2 SLP142 T00440039,KECG,2021-01-14T03:54:00Z,36.27,-76.18,4.4,3.9,190,3,,10.0,29.949802,1014.2,,TRUE,TRUE,,,,,,,CLR,,,,,,,,VFR,,,,,,,,,,,,METAR,2.0
KDYL 140354Z AUTO 20003KT 10SM FEW110 01/M04 A2989 RMK AO2 SLP128 T00061039,KDYL,2021-01-14T03:54:00Z,40.33,-75.12,0.6,-3.9,200,3,,10.0,29.890747,1012.8,,TRUE,TRUE,,,,,,,FEW,11000,,,,,,,VFR,,,,,,,,,,,,METAR,121.0
KDSV 140354Z AUTO 12010KT 10SM CLR 02/M03 A2977 RMK AO2 SLP095 T00171028,KDSV,2021-01-14T03:54:00Z,42.57,-77.72,1.7,-2.8,120,10,,10.0,29.769686,1009.5,,TRUE,TRUE,,,,,,,CLR,,,,,,,,VFR,,,,,,,,,,,,METAR,195.0
KDSM 140354Z 16006KT 10SM FEW170 OVC200 02/M02 A2958 RMK AO2 SLP022 T00171022,KDSM,2021-01-14T03:54:00Z,41.53,-93.67,1.7,-2.2,160,6,,10.0,29.58071,1002.2,,,TRUE,,,,,,,FEW,17000,OVC,20000,,,,,VFR,,,,,,,,,,,,METAR,286.0
KDEC 140354Z 20012KT 10SM CLR 03/00 A2974 RMK A02 SLP 077,KDEC,2021-01-14T03:54:00Z,39.83,-88.87,3.0,0.0,200,12,,10.0,29.740158,1007.7,,,TRUE,,,,,,,CLR,,,,,,,,VFR,,,,,,,,,,,,METAR,205.0
KDDH 140354Z AUTO 20003KT 10SM BKN035 OVC075 01/M06 A2984 RMK AO2 SLP112 T00061056,KDDH,2021-01-14T03:54:00Z,42.9,-73.25,0.6,-5.6,200,3,,10.0,29.840551,1011.2,,TRUE,TRUE,,,,,,,BKN,3500,OVC,7500,,,,,VFR,,,,,,,,,,,,METAR,241.0
KCRW 140354Z 00000KT 10SM FEW200 01/M03 A2989 RMK AO2 SLP127 T00061028,KCRW,2021-01-14T03:54:00Z,38.38,-81.58,0.6,-2.8,0,0,,10.0,29.890747,1012.7,,,TRUE,,,,,,,FEW,20000,,,,,,,VFR,,,,,,,,,,,,METAR,278.0
KCOU 140354Z AUTO 17007KT 10SM CLR 03/M03 A2969 RMK AO2 SLP058 T00331033,KCOU,2021-01-14T03:54:00Z,38.82,-92.22,3.3,-3.3,170,7,,10.0,29.68996,1005.8,,TRUE,TRUE,,,,,,,CLR,,,,,,,,VFR,,,,,,,,,,,,METAR,272.0
KCOS 140354Z 33020G32KT 10SM FEW250 10/M06 A2990 RMK AO2 PK WND 32038/0335 SLP087 T01001056,KCOS,2021-01-14T03:54:00Z,38.82,-104.68,10.0,-5.6,330,20,32,10.0,29.899607,1008.7,,,TRUE,,,,,,,FEW,25000,,,,,,,VFR,,,,,,,,,,,,METAR,1886.0
KCEU 140354Z AUTO 00000KT OVC004 03/02 A2995 RMK AO2 SLP144 T00280017 $,KCEU,2021-01-14T03:54:00Z,34.67,-82.88,2.8,1.7,0,0,,,29.949802,1014.4,,TRUE,TRUE,TRUE,,,,,,OVC,400,,,,,,,,,,,,,,,,,,,METAR,270.0
KCAR 140354Z AUTO 00000KT 10SM SCT050 BKN060 M03/M08 A2982 RMK AO2 SLP109 T10281083,KCAR,2021-01-14T03:54:00Z,46.87,-68.02,-2.8,-8.3,0,0,,10.0,29.819881,1010.9,,TRUE,TRUE,,,,,,,SCT,5000,BKN,6000,,,,,VFR,,,,,,,,,,,,METAR,189.0
KBWI 140354Z 00000KT 8SM CLR M01/M03 A2989 RMK AO2 SLP123 T10111028,KBWI,2021-01-14T03:54:00Z,39.17,-76.68,-1.1,-2.8,0,0,,8.0,29.890747,1012.3,,,TRUE,,,,,,,CLR,,,,,,,,VFR,,,,,,,,,,,,METAR,42.0
KBUY 140354Z AUTO 23003KT 10SM CLR 07/04 A2992 RMK AO2 SLP132 T00670039,KBUY,2021-01-14T03:54:00Z,36.05,-79.47,6.7,3.9,230,3,,10.0,29.920275,1013.2,,TRUE,TRUE,,,,,,,CLR,,,,,,,,VFR,,,,,,,,,,,,METAR,185.0
KBUF 140354Z 20011KT 10SM SCT180 BKN280 03/M02 A2973 RMK AO2 SLP077 T00281022 $,KBUF,2021-01-14T03:54:00Z,42.93,-78.73,2.8,-2.2,200,11,,10.0,29.731298,1007.7,,,TRUE,TRUE,,,,,,SCT,18000,BKN,28000,,,,,VFR,,,,,,,,,,,,METAR,217.0
KBTV 140354Z 17009KT 10SM OVC037 01/M04 A2981 RMK AO2 SLP100 T00061044,KBTV,2021-01-14T03:54:00Z,44.47,-73.15,0.6,-4.4,170,9,,10.0,29.811024,1010.0,,,TRUE,,,,,,,OVC,3700,,,,,,,VFR,,,,,,,,,,,,METAR,101.0
KBOS 140354Z 23006KT 10SM OVC039 02/M04 A2991 RMK AO2 SLP128 T00221044,KBOS,2021-01-14T03:54:00Z,42.37,-71.02,2.2,-4.4,230,6,,10.0,29.911417,1012.8,,,TRUE,,,,,,,OVC,3900,,,,,,,VFR,,,,,,,,,,,,METAR,4.0
KBKB 140354Z AUTO 00000KT 10SM CLR 06/02 A3004 RMK AO2 SLP202 T00560017 PNO,KBKB,2021-01-14T03:54:00Z,31.02,-92.92,5.6,1.7,0,0,,10.0,30.041338,1020.2,,TRUE,TRUE,,,,,,,CLR,,,,,,,,VFR,,,,,,,,,,,,METAR,74.0
KBFL 140354Z AUTO 07004KT 5SM HZ CLR 12/03 A3033 RMK AO2 SLP271 T01220028,KBFL,2021-01-14T03:54:00Z,35.43,-119.05,12.2,2.8,70,4,,5.0,30.33071,1027.1,,TRUE,TRUE,,,,,,HZ,CLR,,,,,,,,MVFR,,,,,,,,,,,,METAR,146.0
KAVP 140354Z 00000KT 7SM OVC090 02/M03 A2984 RMK AO2 SLP110 T00171033,KAVP,2021-01-14T03:54:00Z,41.33,-75.72,1.7,-3.3,0,0,,7.0,29.840551,1011.0,,,TRUE,,,,,,,OVC,9000,,,,,,,VFR,,,,,,,,,,,,METAR,290.0
KAVL 140354Z AUTO 35008KT 10SM FEW110 04/M07 A2990 RMK AO2 SLP130 T00391067,KAVL,2021-01-14T03:54:00Z,35.43,-82.53,3.9,-6.7,350,8,,10.0,29.899607,1013.0,,TRUE,TRUE,,,,,,,FEW,11000,,,,,,,VFR,,,,,,,,,,,,METAR,646.0
KAPN 140354Z AUTO 01003KT 6SM BR OVC020 01/M01 A2970 RMK AO2 SLP064 T00061006,KAPN,2021-01-14T03:54:00Z,45.07,-83.57,0.6,-0.6,10,3,,6.0,29.698818,1006.4,,TRUE,TRUE,,,,,,BR,OVC,2000,,,,,,,MVFR,,,,,,,,,,,,METAR,208.0
KAPC 140354Z AUTO 10004KT 6SM BR CLR 12/10 A3037 RMK AO2 SLP274 T01220100,KAPC,2021-01-14T03:54:00Z,38.2,-122.28,12.2,10.0,100,4,,6.0,30.369095,1027.4,,TRUE,TRUE,,,,,,BR,CLR,,,,,,,,VFR,,,,,,,,,,,,METAR,5.0
KALO 140354Z AUTO 18003KT 9SM CLR M01/M03 A2959 RMK AO2 SLP030 T10111033,KALO,2021-01-14T03:54:00Z,42.55,-92.4,-1.1,-3.3,180,3,,9.0,29.589567,1003.0,,TRUE,TRUE,,,,,,,CLR,,,,,,,,VFR,,,,,,,,,,,,METAR,264.0
KAKR 140354Z AUTO 21010KT 10SM BKN110 05/M02 A2979 RMK AO2 SLP094 T00501022,KAKR,2021-01-14T03:54:00Z,41.03,-81.47,5.0,-2.2,210,10,,10.0,29.790354,1009.4,,TRUE,TRUE,,,,,,,BKN,11000,,,,,,,VFR,,,,,,,,,,,,METAR,319.0
KAKQ 140354Z AUTO 00000KT 10SM CLR M01/M02 A2992 RMK AO2 SLP135 T10111022,KAKQ,2021-01-14T03:54:00Z,36.98,-77.0,-1.1,-2.2,0,0,,10.0,29.920275,1013.5,,TRUE,TRUE,,,,,,,CLR,,,,,,,,VFR,,,,,,,,,,,,METAR,34.0
KAKH 140354Z AUTO 20004KT 6SM BR BKN005 04/02 A2993 RMK AO2 SLP138 T00440022,KAKH,2021-01-14T03:54:00Z,35.2,-81.15,4.4,2.2,200,4,,6.0,29.929134,1013.8,,TRUE,TRUE,,,,,,BR,BKN,500,,,,,,,IFR,,,,,,,,,,,,METAR,242.0
KAAO 140354Z AUTO 21011KT 10SM CLR 08/01 A2969 RMK AO2 SLP061 T00830006,KAAO,2021-01-14T03:54:00Z,37.75,-97.22,8.3,0.6,210,11,,10.0,29.68996,1006.1,,TRUE,TRUE,,,,,,,CLR,,,,,,,,VFR,,,,,,,,,,,,METAR,429.0
K1V4 140354Z AUTO M01/M06 A2980 RMK AO1 SLP103 T10061056,K1V4,2021-01-14T03:54:00Z,44.42,-72.02,-0.6,-5.6,,,,,29.799213,1010.3,,TRUE,TRUE,,,,,,,,,,,,,,,,,,,,,,,,,,,METAR,213.0
K12N 140354Z AUTO 00000KT M01/M03 A2988 RMK AO1 SLP129 T10061033,K12N,2021-01-14T03:54:00Z,41.02,-74.73,-0.6,-3.3,0,0,,,29.878937,1012.9,,TRUE,TRUE,,,,,,,,,,,,,,,,,,,,,,,,,,,METAR,178.0
TJNR 140353Z AUTO 07007KT 10SM OVC047 26/22 A3002 RMK AO2 SLP167 T02560217 402940250,TJNR,2021-01-14T03:53:00Z,18.25,-65.63,25.6,21.7,70,7,,10.0,30.02067,1016.7,,TRUE,TRUE,,,,,,,OVC,4700,,,,,,,VFR,,,,29.4,25.0,,,,,,,METAR,7.0
TIST 140353Z AUTO 09011KT 10SM CLR 26/21 A3000 RMK AO2 SLP160 T02560206 403000244 $,TIST,2021-01-14T03:53:00Z,18.33,-64.98,25.6,20.6,90,11,,10.0,30.0,1016.0,,TRUE,TRUE,TRUE,,,,,,CLR,,,,,,,,VFR,,,,30.0,24.4,,,,,,,METAR,5.0
PTTP 140353Z 10013G24KT 15SM FEW018 SCT300 30/24 A2971 RMK SLP061 T02980240,PTTP,2021-01-14T03:53:00Z,6.97,158.22,29.8,24.0,100,13,24,15.0,29.71063,1006.1,,,,,,,,,,FEW,1800,SCT,30000,,,,,VFR,,,,,,,,,,,,METAR,36.0
PHTO 140353Z 13004KT 10SM CLR 24/19 A2999 RMK AO2 SLP152 T02440194,PHTO,2021-01-14T03:53:00Z,19.72,-155.05,24.4,19.4,130,4,,10.0,29.991142,1015.2,,,TRUE,,,,,,,CLR,,,,,,,,VFR,,,,,,,,,,,,METAR,9.0
PHNL 140353Z 20005KT 10SM FEW025 BKN040 BKN200 26/19 A2997 RMK AO2 SLP147 T02560194,PHNL,2021-01-14T03:53:00Z,21.33,-157.93,25.6,19.4,200,5,,10.0,29.970472,1014.7,,,TRUE,,,,,,,FEW,2500,BKN,4000,BKN,20000,,,VFR,,,,,,,,,,,,METAR,2.0
PHLI 140353Z 36012KT 10SM BKN044 22/19 A3001 RMK AO2 SLP158 T02220189,PHLI,2021-01-14T03:53:00Z,21.97,-159.33,22.2,18.9,360,12,,10.0,30.008858,1015.8,,,TRUE,,,,,,,BKN,4400,,,,,,,VFR,,,,,,,,,,,,METAR,32.0
PHKO 140353Z 29005KT 10SM SCT022 BKN045 24/20 A2996 RMK AO2 SLP145 T02390200,PHKO,2021-01-14T03:53:00Z,19.73,-156.05,23.9,20.0,290,5,,10.0,29.958662,1014.5,,,TRUE,,,,,,,SCT,2200,BKN,4500,,,,,VFR,,,,,,,,,,,,METAR,11.0
PHJR 140353Z 33005KT 10SM FEW030 OVC037 26/19 A2998 RMK AO2 SLP158 T02610189,PHJR,2021-01-14T03:53:00Z,21.32,-158.07,26.1,18.9,330,5,,10.0,29.97933,1015.8,,,TRUE,,,,,,,FEW,3000,OVC,3700,,,,,VFR,,,,,,,,,,,,METAR,9.0
PAYA 140353Z AUTO 08005KT 10SM FEW037 SCT050 01/00 A3000 RMK AO2 SLP159 T00060000 TSNO,PAYA,2021-01-14T03:53:00Z,59.52,-139.67,0.6,0.0,80,5,,10.0,30.0,1015.9,,TRUE,TRUE,,,TRUE,,,,FEW,3700,SCT,5000,,,,,VFR,,,,,,,,,,,,METAR,9.0
PAWD 140353Z AUTO 17003KT 3/4SM -SN BR VV008 01/M01 A2975 RMK AO2 UPB11E13SNE11B13 SLP074 P0001 T00061006 TSNO,PAWD,2021-01-14T03:53:00Z,60.12,-149.42,0.6,-0.6,170,3,,0.75,29.749016,1007.4,,TRUE,TRUE,,,TRUE,,,-SN BR,OVX,0,,,,,,,LIFR,,,,,,0.01,,,,,800,METAR,3.0
PAVL 140353Z AUTO 06013KT 8SM CLR M14/M17 A2961 RMK AO2 SLP029 T11391167 TSNO,PAVL,2021-01-14T03:53:00Z,67.73,-164.55,-13.9,-16.7,60,13,,8.0,29.610237,1002.9,,TRUE,TRUE,,,TRUE,,,,CLR,,,,,,,,VFR,,,,,,,,,,,,METAR,6.0
PATK 140353Z AUTO 02008KT 10SM SCT085 SCT100 M02/M11 A2973 RMK AO2 SLP075 T10221111 TSNO,PATK,2021-01-14T03:53:00Z,62.32,-150.1,-2.2,-11.1,20,8,,10.0,29.731298,1007.5,,TRUE,TRUE,,,TRUE,,,,SCT,8500,SCT,10000,,,,,VFR,,,,,,,,,,,,METAR,107.0
PASI 140353Z 11005KT 4SM RA BR OVC021 03/01 A3012 RMK AO2 RAE18B35 SLP198 P0003 T00280011,PASI,2021-01-14T03:53:00Z,57.03,-135.35,2.8,1.1,110,5,,4.0,30.121063,1019.8,,,TRUE,,,,,,RA BR,OVC,2100,,,,,,,MVFR,,,,,,0.03,,,,,,METAR,2.0
PASC 140353Z 07019KT 6SM OVC014 M20/M23 A3005 RMK AO2 PK WND 06027/0310 SLP179 T12001233,PASC,2021-01-14T03:53:00Z,70.2,-148.47,-20.0,-23.3,70,19,,6.0,30.050198,1017.9,,,TRUE,,,,,,,OVC,1400,,,,,,,MVFR,,,,,,,,,,,,METAR,17.0
PAPB 140353Z AUTO 01004KT 10SM FEW070 M08/M13 A2953 RMK AO2 SLP989 T10831133 TSNO,PAPB,2021-01-14T03:53:00Z,56.58,-169.67,-8.3,-13.3,10,4,,10.0,29.530512,998.9,,TRUE,TRUE,,,TRUE,,,,FEW,7000,,,,,,,VFR,,,,,,,,,,,,METAR,33.0
PAOT 140353Z 09011KT 10SM CLR M17/M18 A2961 RMK AO2 SLP027 T11671183,PAOT,2021-01-14T03:53:00Z,66.88,-162.6,-16.7,-18.3,90,11,,10.0,29.610237,1002.7,,,TRUE,,,,,,,CLR,,,,,,,,VFR,,,,,,,,,,,,METAR,3.0
PAOR 140353Z 26004KT 10SM FEW120 M26/M29 A2975 RMK AO2 SLP155 T12561289,PAOR,2021-01-14T03:53:00Z,62.97,-141.93,-25.6,-28.9,260,4,,10.0,29.749016,1015.5,,,TRUE,,,,,,,FEW,12000,,,,,,,VFR,,,,,,,,,,,,METAR,524.0
PANN 140353Z AUTO 00000KT 10SM CLR M22/M25 A2967 RMK AO2 SLP064 T12171250 TSNO $,PANN,2021-01-14T03:53:00Z,64.55,-149.08,-21.7,-25.0,0,0,,10.0,29.66929,1006.4,,TRUE,TRUE,TRUE,,TRUE,,,,CLR,,,,,,,,VFR,,,,,,,,,,,,METAR,110.0
PANC 140353Z 00000KT 10SM FEW070 SCT095 M05/M09 A2970 RMK AO2 SLP061 T10501089,PANC,2021-01-14T03:53:00Z,61.17,-150.02,-5.0,-8.9,0,0,,10.0,29.698818,1006.1,,,TRUE,,,,,,,FEW,7000,SCT,9500,,,,,VFR,,,,,,,,,,,,METAR,39.0
PAMR 140353Z 00000KT 10SM SCT120 M07/M10 A2969 RMK AO2 SLP058 T10671100,PAMR,2021-01-14T03:53:00Z,61.22,-149.85,-6.7,-10.0,0,0,,10.0,29.68996,1005.8,,,TRUE,,,,,,,SCT,12000,,,,,,,VFR,,,,,,,,,,,,METAR,43.0
PALH 140353Z 32004KT 10SM CLR M06/M08 A2971 RMK AO2 SLP062 T10611083 $,PALH,2021-01-14T03:53:00Z,61.18,-149.97,-6.1,-8.3,320,4,,10.0,29.71063,1006.2,,,TRUE,TRUE,,,,,,CLR,,,,,,,,VFR,,,,,,,,,,,,METAR,26.0
PAKT 140353Z 14006KT 10SM FEW011 BKN040 03/02 A3026 RMK AO2 RAB07E19 SLP246 HARBOR WIND 15013KT P0000 T00330022,PAKT,2021-01-14T03:53:00Z,55.35,-131.72,3.3,2.2,140,6,,10.0,30.259842,1024.6,,,TRUE,,,,,,,FEW,1100,BKN,4000,,,,,VFR,,,,,,0.005,,,,,,METAR,27.0
PAJN 140353Z 10008KT 10SM FEW022 BKN050 BKN065 03/00 A3011 RMK AO2 SLP195 T00280000,PAJN,2021-01-14T03:53:00Z,58.35,-134.55,2.8,0.0,100,8,,10.0,30.109253,1019.5,,,TRUE,,,,,,,FEW,2200,BKN,5000,BKN,6500,,,VFR,,,,,,,,,,,,METAR,6.0
PAIL 140353Z 07005KT 10SM SCT033 BKN070 BKN085 M01/M02 A2961 RMK AO2 SLP029 T10111022,PAIL,2021-01-14T03:53:00Z,59.75,-154.92,-1.1,-2.2,70,5,,10.0,29.610237,1002.9,,,TRUE,,,,,,,SCT,3300,BKN,7000,BKN,8500,,,VFR,,,,,,,,,,,,METAR,44.0
PAHO 140353Z 10006KT 10SM BKN043 03/00 A2968 RMK AO2 SLP052 T00330000,PAHO,2021-01-14T03:53:00Z,59.63,-151.48,3.3,0.0,100,6,,10.0,29.681103,1005.2,,,TRUE,,,,,,,BKN,4300,,,,,,,VFR,,,,,,,,,,,,METAR,6.0
PAGK 140353Z AUTO 00000KT 10SM CLR M20/M22 A2981 RMK AO2 SLP164 T12001222 TSNO,PAGK,2021-01-14T03:53:00Z,62.15,-145.45,-20.0,-22.2,0,0,,10.0,29.811024,1016.4,,TRUE,TRUE,,,TRUE,,,,CLR,,,,,,,,VFR,,,,,,,,,,,,METAR,481.0
PAFA 140353Z 00000KT 10SM SCT100 BKN200 M22/M25 A2968 RMK AO2 SLP067 T12171250,PAFA,2021-01-14T03:53:00Z,64.8,-147.87,-21.7,-25.0,0,0,,10.0,29.681103,1006.7,,,TRUE,,,,,,,SCT,10000,BKN,20000,,,,,VFR,,,,,,,,,,,,METAR,130.0
PAEN 140353Z 06005KT 10SM BKN070 OVC085 M04/M06 A2968 RMK AO2 SLP055 T10391056,PAEN,2021-01-14T03:53:00Z,60.57,-151.25,-3.9,-5.6,60,5,,10.0,29.681103,1005.5,,,TRUE,,,,,,,BKN,7000,OVC,8500,,,,,VFR,,,,,,,,,,,,METAR,30.0
PAEG 140353Z AUTO 21003KT 10SM BKN100 M23/M26 A2974 RMK AO2 SLP097 T12281256 TSNO,PAEG,2021-01-14T03:53:00Z,64.78,-141.15,-22.8,-25.6,210,3,,10.0,29.740158,1009.7,,TRUE,TRUE,,,TRUE,,,,BKN,10000,,,,,,,VFR,,,,,,,,,,,,METAR,273.0
PADQ 140353Z 00000KT 10SM CLR M01/M03 A2964 RMK AO2 SLP038 T10111028,PADQ,2021-01-14T03:53:00Z,57.75,-152.5,-1.1,-2.8,0,0,,10.0,29.639763,1003.8,,,TRUE,,,,,,,CLR,,,,,,,,VFR,,,,,,,,,,,,METAR,5.0
PABT 140353Z 03006KT 10SM FEW140 FEW180 M19/M22 A2973 RMK AO2 SLP090 T11941222 PNO,PABT,2021-01-14T03:53:00Z,66.92,-151.52,-19.4,-22.2,30,6,,10.0,29.731298,1009.0,,,TRUE,,,,,,,FEW,14000,FEW,18000,,,,,VFR,,,,,,,,,,,,METAR,195.0
PABR 140353Z 06015KT 10SM CLR M23/M26 A3016 RMK AO2 SLP216 T12281261,PABR,2021-01-14T03:53:00Z,71.28,-156.78,-22.8,-26.1,60,15,,10.0,30.159449,1021.6,,,TRUE,,,,,,,CLR,,,,,,,,VFR,,,,,,,,,,,,METAR,6.0
PABI 140353Z 13012G21KT 10SM FEW070 SCT100 BKN200 M06/M13 A2966 RMK AO2 PK WND 19028/0333 WSHFT 0319 SLP080 T10561128,PABI,2021-01-14T03:53:00Z,64.0,-145.72,-5.6,-12.8,130,12,21,10.0,29.660433,1008.0,,,TRUE,,,,,,,FEW,7000,SCT,10000,BKN,20000,,,VFR,,,,,,,,,,,,METAR,388.0
PABE 140353Z 00000KT 10SM OVC035 M11/M13 A2956 RMK AO2 UPB09E17SNB0256E09B17E19 SLP013 P0000 I1000 T11111128,PABE,2021-01-14T03:53:00Z,60.78,-161.83,-11.1,-12.8,0,0,,10.0,29.56004,1001.3,,,TRUE,,,,,,,OVC,3500,,,,,,,VFR,,,,,,0.005,,,,,,METAR,28.0
PAAQ 140353Z AUTO 35011KT 10SM BKN070 OVC080 M02/M10 A2971 RMK AO2 SLP067 T10221100 TSNO,PAAQ,2021-01-14T03:53:00Z,61.6,-149.08,-2.2,-10.0,350,11,,10.0,29.71063,1006.7,,TRUE,TRUE,,,TRUE,,,,BKN,7000,OVC,8000,,,,,VFR,,,,,,,,,,,,METAR,68.0
MMQT 140353Z 12007KT 8SM SCT020 11/00 A3032 RMK 8/500,MMQT,2021-01-14T03:53:00Z,20.62,-100.18,11.0,0.0,120,7,,8.0,30.318897,,,,,,,,,,,SCT,2000,,,,,,,VFR,,,,,,,,,,,,SPECI,1909.0
KZZV 140353Z AUTO 20004KT 10SM BKN100 OVC120 03/M02 A2984 RMK AO2 SLP111 T00331022,KZZV,2021-01-14T03:53:00Z,39.95,-81.9,3.3,-2.2,200,4,,10.0,29.840551,1011.1,,TRUE,TRUE,,,,,,,BKN,10000,OVC,12000,,,,,VFR,,,,,,,,,,,,METAR,268.0
KYKM 140353Z 31003KT 10SM CLR 02/M03 A3052 RMK AO2 SLP345 T00221028,KYKM,2021-01-14T03:53:00Z,46.57,-120.53,2.2,-2.8,310,3,,10.0,30.519686,1034.5,,,TRUE,,,,,,,CLR,,,,,,,,VFR,,,,,,,,,,,,METAR,319.0
KYIP 140353Z 21005KT 9SM OVC110 04/M01 A2974 RMK AO2 SLP073 T00391011,KYIP,2021-01-14T03:53:00Z,42.23,-83.53,3.9,-1.1,210,5,,9.0,29.740158,1007.3,,,TRUE,,,,,,,OVC,11000,,,,,,,VFR,,,,,,,,,,,,METAR,215.0
KXNA 140353Z 21010G20KT 10SM CLR 08/M02 A2979 RMK AO2 SLP088 T00781017,KXNA,2021-01-14T03:53:00Z,36.28,-94.3,7.8,-1.7,210,10,20,10.0,29.790354,1008.8,,,TRUE,,,,,,,CLR,,,,,,,,VFR,,,,,,,,,,,,METAR,390.0
KWVI 140353Z AUTO 00000KT 10SM CLR 14/11 A3032 RMK AO2 SLP266 T01390111,KWVI,2021-01-14T03:53:00Z,36.93,-121.78,13.9,11.1,0,0,,10.0,30.318897,1026.6,,TRUE,TRUE,,,,,,,CLR,,,,,,,,VFR,,,,,,,,,,,,METAR,47.0
KWST 140353Z AUTO 00000KT 8SM CLR 02/M03 A2991 RMK AO2 SLP130 T00171033,KWST,2021-01-14T03:53:00Z,41.35,-71.8,1.7,-3.3,0,0,,8.0,29.911417,1013.0,,TRUE,TRUE,,,,,,,CLR,,,,,,,,VFR,,,,,,,,,,,,METAR,20.0
KWRL 140353Z AUTO 32018G27KT 10SM SCT110 03/M13 A2999 RMK AO2 PK WND 31040/0258 SLP185 T00281133,KWRL,2021-01-14T03:53:00Z,43.97,-107.95,2.8,-13.3,320,18,27,10.0,29.991142,1018.5,,TRUE,TRUE,,,,,,,SCT,11000,,,,,,,VFR,,,,,,,,,,,,METAR,1281.0
KVUO 140353Z AUTO 11003KT 10SM CLR 08/03 A3047 RMK AO2 SLP319 T00780028,KVUO,2021-01-14T03:53:00Z,45.62,-122.65,7.8,2.8,110,3,,10.0,30.469488,1031.9,,TRUE,TRUE,,,,,,,CLR,,,,,,,,VFR,,,,,,,,,,,,METAR,7.0
KVRB 140353Z AUTO 17004KT 8SM OVC075 14/13 A3004 RMK AO2 SLP171 T01440133,KVRB,2021-01-14T03:53:00Z,27.65,-80.42,14.4,13.3,170,4,,8.0,30.041338,1017.1,,TRUE,TRUE,,,,,,,OVC,7500,,,,,,,VFR,,,,,,,,,,,,METAR,7.0
KVPC 140353Z AUTO 00000KT 10SM CLR 00/M02 A3003 RMK AO2 SLPNO T00001022,KVPC,2021-01-14T03:53:00Z,34.1,-84.85,0.0,-2.2,0,0,,10.0,30.029528,,,TRUE,TRUE,,,,,,,CLR,,,,,,,,VFR,,,,,,,,,,,,METAR,234.0
KVLD 140353Z 18003KT 7SM CLR 03/02 A3007 RMK AO2 SLP191 T00330022,KVLD,2021-01-14T03:53:00Z,30.78,-83.27,3.3,2.2,180,3,,7.0,30.070866,1019.1,,,TRUE,,,,,,,CLR,,,,,,,,VFR,,,,,,,,,,,,METAR,59.0
KVIH 140353Z AUTO 19009KT 10SM CLR 04/M03 A2974 RMK AO2 SLP074 T00391028,KVIH,2021-01-14T03:53:00Z,38.13,-91.77,3.9,-2.8,190,9,,10.0,29.740158,1007.4,,TRUE,TRUE,,,,,,,CLR,,,,,,,,VFR,,,,,,,,,,,,METAR,342.0
KVGT 140353Z AUTO 00000KT 10SM CLR 09/M11 A3021 RMK AO2 SLP251 T00891106,KVGT,2021-01-14T03:53:00Z,36.22,-115.2,8.9,-10.6,0,0,,10.0,30.209646,1025.1,,TRUE,TRUE,,,,,,,CLR,,,,,,,,VFR,,,,,,,,,,,,METAR,664.0
KVEL 140353Z AUTO 00000KT 7SM FEW090 M13/M16 A3025 RMK AO2 SLP328 T11331156,KVEL,2021-01-14T03:53:00Z,40.45,-109.52,-13.3,-15.6,0,0,,7.0,30.250984,1032.8,,TRUE,TRUE,,,,,,,FEW,9000,,,,,,,VFR,,,,,,,,,,,,METAR,1604.0
KVCB 140353Z AUTO 34006KT 6SM HZ CLR 12/09 A3039 RMK AO2 SLP291 T01220089,KVCB,2021-01-14T03:53:00Z,38.38,-121.95,12.2,8.9,340,6,,6.0,30.389763,1029.1,,TRUE,TRUE,,,,,,HZ,CLR,,,,,,,,VFR,,,,,,,,,,,,METAR,30.0
KUUU 140353Z AUTO VRB03KT 6SM HZ FEW039 03/M02 A2991 RMK AO2 SLP127 T00281022,KUUU,2021-01-14T03:53:00Z,41.53,-71.28,2.8,-2.2,0,3,,6.0,29.911417,1012.7,,TRUE,TRUE,,,,,,HZ,FEW,3900,,,,,,,VFR,,,,,,,,,,,,METAR,45.0
KUTS 140353Z AUTO 18007KT 10SM CLR 08/03 A3002 RMK AO2 SLP166 T00830033,KUTS,2021-01-14T03:53:00Z,30.75,-95.58,8.3,3.3,180,7,,10.0,30.02067,1016.6,,TRUE,TRUE,,,,,,,CLR,,,,,,,,VFR,,,,,,,,,,,,METAR,103.0
KUNO 140353Z AUTO 19005KT 10SM CLR 05/M02 A2978 RMK AO2 SLP087 T00501022,KUNO,2021-01-14T03:53:00Z,36.88,-91.9,5.0,-2.2,190,5,,10.0,29.778543,1008.7,,TRUE,TRUE,,,,,,,CLR,,,,,,,,VFR,,,,,,,,,,,,METAR,376.0
KUIL 140353Z AUTO 07003KT 10SM SCT027 04/03 A3049 RMK AO2 SLP325 T00440033,KUIL,2021-01-14T03:53:00Z,47.93,-124.55,4.4,3.3,70,3,,10.0,30.490158,1032.5,,TRUE,TRUE,,,,,,,SCT,2700,,,,,,,VFR,,,,,,,,,,,,METAR,58.0
KUAO 140353Z 35004KT 10SM CLR 07/04 A3047 RMK AO2 SLP317 T00670039,KUAO,2021-01-14T03:53:00Z,45.25,-122.77,6.7,3.9,350,4,,10.0,30.469488,1031.7,,,TRUE,,,,,,,CLR,,,,,,,,VFR,,,,,,,,,,,,METAR,60.0
KTYS 140353Z 00000KT 1/16SM FZFG VV001 M03/M03 A2997 RMK AO2 SLP157 I1001 T10331033 RVRNO,KTYS,2021-01-14T03:53:00Z,35.82,-83.98,-3.3,-3.3,0,0,,0.06,29.970472,1015.7,,,TRUE,,,,,,FZFG,OVX,0,,,,,,,LIFR,,,,,,,,,,,100,METAR,300.0
KTYR 140353Z AUTO 18009KT 10SM CLR 07/02 A2996 RMK AO2 SLP146 T00720017,KTYR,2021-01-14T03:53:00Z,32.37,-95.4,7.2,1.7,180,9,,10.0,29.958662,1014.6,,TRUE,TRUE,,,,,,,CLR,,,,,,,,VFR,,,,,,,,,,,,METAR,161.0
KTXK 140353Z AUTO 21008KT 10SM CLR 08/01 A2995 RMK AO2 SLP142 T00830011,KTXK,2021-01-14T03:53:00Z,33.45,-93.98,8.3,1.1,210,8,,10.0,29.949802,1014.2,,TRUE,TRUE,,,,,,,CLR,,,,,,,,VFR,,,,,,,,,,,,METAR,118.0
KTWF 140353Z AUTO 27015KT 10SM CLR 02/M06 A3043 RMK AO2 SLP298 T00171056,KTWF,2021-01-14T03:53:00Z,42.48,-114.48,1.7,-5.6,270,15,,10.0,30.431103,1029.8,,TRUE,TRUE,,,,,,,CLR,,,,,,,,VFR,,,,,,,,,,,,METAR,1269.0
KTVR 140353Z AUTO 19004KT 10SM CLR 08/01 A3002 RMK AO2 SLP172 T00780011,KTVR,2021-01-14T03:53:00Z,32.35,-91.03,7.8,1.1,190,4,,10.0,30.02067,1017.2,,TRUE,TRUE,,,,,,,CLR,,,,,,,,VFR,,,,,,,,,,,,METAR,25.0
KTVL 140353Z AUTO 18004KT 10SM CLR 00/M01 A3049 RMK AO2 SLP319 T00001011,KTVL,2021-01-14T03:53:00Z,38.9,-120.0,0.0,-1.1,180,4,,10.0,30.490158,1031.9,,TRUE,TRUE,,,,,,,CLR,,,,,,,,VFR,,,,,,,,,,,,METAR,1907.0
KTVC 140353Z AUTO 17006KT 6SM HZ OVC011 02/M01 A2967 RMK AO2 SLP055 T00221006,KTVC,2021-01-14T03:53:00Z,44.73,-85.58,2.2,-0.6,170,6,,6.0,29.66929,1005.5,,TRUE,TRUE,,,,,,HZ,OVC,1100,,,,,,,MVFR,,,,,,,,,,,,METAR,188.0
KTUS 140353Z 23003KT 10SM CLR 12/M13 A3019 RMK AO2 SLP212 T01221128,KTUS,2021-01-14T03:53:00Z,32.13,-110.95,12.2,-12.8,230,3,,10.0,30.188976,1021.2,,,TRUE,,,,,,,CLR,,,,,,,,VFR,,,,,,,,,,,,METAR,776.0
KTUL 140353Z 16004KT 10SM CLR 08/00 A2977 RMK AO2 SLP081 T00830000,KTUL,2021-01-14T03:53:00Z,36.2,-95.88,8.3,0.0,160,4,,10.0,29.769686,1008.1,,,TRUE,,,,,,,CLR,,,,,,,,VFR,,,,,,,,,,,,METAR,196.0
KTTN 140353Z AUTO 00000KT 7SM CLR 00/M04 A2990 RMK AO2 SLP121 T00001039,KTTN,2021-01-14T03:53:00Z,40.28,-74.82,0.0,-3.9,0,0,,7.0,29.899607,1012.1,,TRUE,TRUE,,,,,,,CLR,,,,,,,,VFR,,,,,,,,,,,,METAR,58.0
KTTD 140353Z 08008KT 10SM CLR 08/05 A3047 RMK AO2 SLP319 T00780050,KTTD,2021-01-14T03:53:00Z,45.55,-122.42,7.8,5.0,80,8,,10.0,30.469488,1031.9,,,TRUE,,,,,,,CLR,,,,,,,,VFR,,,,,,,,,,,,METAR,8.0
KTRL 140353Z AUTO 19006KT 10SM CLR 06/02 A2995 RMK AO2 SLP142 T00610017,KTRL,2021-01-14T03:53:00Z,32.72,-96.27,6.1,1.7,190,6,,10.0,29.949802,1014.2,,TRUE,TRUE,,,,,,,CLR,,,,,,,,VFR,,,,,,,,,,,,METAR,144.0
KTRI 140353Z 23003KT 9SM CLR M02/M03 A2996 RMK AO2 SLP147 T10171033,KTRI,2021-01-14T03:53:00Z,36.48,-82.4,-1.7,-3.3,230,3,,9.0,29.958662,1014.7,,,TRUE,,,,,,,CLR,,,,,,,,VFR,,,,,,,,,,,,METAR,456.0
KTPA 140353Z 35005KT 10SM -RA FEW018 OVC029 12/09 A3011 RMK AO2 RAB47 SLP195 P0000 T01170094,KTPA,2021-01-14T03:53:00Z,27.97,-82.53,11.7,9.4,350,5,,10.0,30.109253,1019.5,,,TRUE,,,,,,-RA,FEW,1800,OVC,2900,,,,,MVFR,,,,,,0.005,,,,,,METAR,2.0
KTOP 140353Z AUTO 19004KT 10SM CLR 09/M01 A2963 RMK AO2 SLP038 T00891006,KTOP,2021-01-14T03:53:00Z,39.07,-95.63,8.9,-0.6,190,4,,10.0,29.630905,1003.8,,TRUE,TRUE,,,,,,,CLR,,,,,,,,VFR,,,,,,,,,,,,METAR,268.0
KTOI 140353Z AUTO 00000KT 10SM CLR 02/M02 A3007 RMK AO2 SLP185 T00171017,KTOI,2021-01-14T03:53:00Z,31.85,-86.02,1.7,-1.7,0,0,,10.0,30.070866,1018.5,,TRUE,TRUE,,,,,,,CLR,,,,,,,,VFR,,,,,,,,,,,,SPECI,120.0
KTKI 140353Z AUTO 18011KT 10SM CLR 08/03 A2990 RMK AO2 PRESFR SLP134 T00830028,KTKI,2021-01-14T03:53:00Z,33.18,-96.58,8.3,2.8,180,11,,10.0,29.899607,1013.4,,TRUE,TRUE,,,,,,,CLR,,,,,,,,VFR,,,,,,,,,,,,METAR,173.0
KTIW 140353Z 00000KT 10SM CLR 05/02 A3050 RMK AO2 SLP332 T00500017,KTIW,2021-01-14T03:53:00Z,47.27,-122.58,5.0,1.7,0,0,,10.0,30.499016,1033.2,,,TRUE,,,,,,,CLR,,,,,,,,VFR,,,,,,,,,,,,METAR,89.0
KTHV 140353Z AUTO 00000KT 9SM CLR M01/M04 A2987 RMK AO2 SLP123 T10061044,KTHV,2021-01-14T03:53:00Z,39.92,-76.88,-0.6,-4.4,0,0,,9.0,29.870079,1012.3,,TRUE,TRUE,,,,,,,CLR,,,,,,,,VFR,,,,,,,,,,,,METAR,141.0
KTDZ 140353Z AUTO 23011KT 10SM OVC070 05/M01 A2977 RMK AO2 SLP085 T00501006 $,KTDZ,2021-01-14T03:53:00Z,41.57,-83.48,5.0,-0.6,230,11,,10.0,29.769686,1008.5,,TRUE,TRUE,TRUE,,,,,,OVC,7000,,,,,,,VFR,,,,,,,,,,,,METAR,189.0
KTCS 140353Z AUTO 27008KT 10SM CLR 08/M14 A3013 RMK AO2 SLP188 T00781139,KTCS,2021-01-14T03:53:00Z,33.23,-107.27,7.8,-13.9,270,8,,10.0,30.129921,1018.8,,TRUE,TRUE,,,,,,,CLR,,,,,,,,VFR,,,,,,,,,,,,METAR,1471.0
KTCC 140353Z AUTO 27008KT 10SM CLR 08/M02 A2984 RMK AO2 SLP098 T00831017,KTCC,2021-01-14T03:53:00Z,35.18,-103.6,8.3,-1.7,270,8,,10.0,29.840551,1009.8,,TRUE,TRUE,,,,,,,CLR,,,,,,,,VFR,,,,,,,,,,,,METAR,1233.0
KSWO 140353Z AUTO 00000KT 10SM CLR 08/M01 A2975 RMK AO2 SLP075 T00831011,KSWO,2021-01-14T03:53:00Z,36.17,-97.08,8.3,-1.1,0,0,,10.0,29.749016,1007.5,,TRUE,TRUE,,,,,,,CLR,,,,,,,,VFR,,,,,,,,,,,,METAR,293.0
KSTP 140353Z AUTO 15004KT 10SM CLR 01/M02 A2954 RMK AO2 SLP009 T00111017,KSTP,2021-01-14T03:53:00Z,44.93,-93.05,1.1,-1.7,150,4,,10.0,29.53937,1000.9,,TRUE,TRUE,,,,,,,CLR,,,,,,,,VFR,,,,,,,,,,,,METAR,213.0
KSTJ 140353Z AUTO 21004KT 10SM CLR 03/M02 A2962 RMK AO2 SLP034 T00331022,KSTJ,2021-01-14T03:53:00Z,39.77,-94.92,3.3,-2.2,210,4,,10.0,29.619095,1003.4,,TRUE,TRUE,,,,,,,CLR,,,,,,,,VFR,,,,,,,,,,,,METAR,247.0
KSTC 140353Z 10005KT 9SM CLR M01/M03 A2949 RMK AO2 SLP008 T10111028,KSTC,2021-01-14T03:53:00Z,45.55,-94.05,-1.1,-2.8,100,5,,9.0,29.489174,1000.8,,,TRUE,,,,,,,CLR,,,,,,,,VFR,,,,,,,,,,,,METAR,302.0
KSSF 140353Z AUTO 22005KT 10SM CLR 08/01 A3002 RMK AO2 SLP168 T00830006,KSSF,2021-01-14T03:53:00Z,29.33,-98.47,8.3,0.6,220,5,,10.0,30.02067,1016.8,,TRUE,TRUE,,,,,,,CLR,,,,,,,,VFR,,,,,,,,,,,,METAR,175.0
KSPW 140353Z AUTO 15004KT 10SM CLR 01/M01 A2950 RMK AO2 SLP001 T00111011 $,KSPW,2021-01-14T03:53:00Z,43.17,-95.22,1.1,-1.1,150,4,,10.0,29.500984,1000.1,,TRUE,TRUE,TRUE,,,,,,CLR,,,,,,,,VFR,,,,,,,,,,,,METAR,407.0
KSPG 140353Z AUTO 35005KT 10SM -RA OVC025 12/11 A3008 RMK AO2 RAB39 SLP186 P0000 T01170111,KSPG,2021-01-14T03:53:00Z,27.77,-82.63,11.7,11.1,350,5,,10.0,30.079725,1018.6,,TRUE,TRUE,,,,,,-RA,OVC,2500,,,,,,,MVFR,,,,,,0.005,,,,,,METAR,1.0
KSPB 140353Z AUTO 30003KT 10SM CLR 05/03 A3048 RMK AO2 SLP321 T00500033,KSPB,2021-01-14T03:53:00Z,45.77,-122.87,5.0,3.3,300,3,,10.0,30.481298,1032.1,,TRUE,TRUE,,,,,,,CLR,,,,,,,,VFR,,,,,,,,,,,,METAR,15.0
KSNS 140353Z AUTO 31003KT 8SM CLR 14/09 A3030 RMK AO2 SLP271 T01390094,KSNS,2021-01-14T03:53:00Z,36.67,-121.6,13.9,9.4,310,3,,8.0,30.301182,1027.1,,TRUE,TRUE,,,,,,,CLR,,,,,,,,VFR,,,,,,,,,,,,METAR,20.0
KSNA 140353Z 00000KT 10SM SCT250 15/05 A3016 RMK AO2 SLP212 T01500050,KSNA,2021-01-14T03:53:00Z,33.67,-117.87,15.0,5.0,0,0,,10.0,30.159449,1021.2,,,TRUE,,,,,,,SCT,25000,,,,,,,VFR,,,,,,,,,,,,METAR,14.0
KSMQ 140353Z AUTO 00000KT 8SM OVC110 M01/M04 A2989 RMK AO2 SLP125 T10111039,KSMQ,2021-01-14T03:53:00Z,40.62,-74.67,-1.1,-3.9,0,0,,8.0,29.890747,1012.5,,TRUE,TRUE,,,,,,,OVC,11000,,,,,,,VFR,,,,,,,,,,,,METAR,30.0
KSMF 140353Z 34008KT 6SM HZ FEW250 12/09 A3038 RMK AO2 SLP286 T01220094,KSMF,2021-01-14T03:53:00Z,38.7,-121.6,12.2,9.4,340,8,,6.0,30.380905,1028.6,,,TRUE,,,,,,HZ,FEW,25000,,,,,,,VFR,,,,,,,,,,,,METAR,7.0
KSLN 140353Z 19009KT 10SM CLR 05/M02 A2964 RMK AO2 SLP043 T00501017,KSLN,2021-01-14T03:53:00Z,38.8,-97.65,5.0,-1.7,190,9,,10.0,29.639763,1004.3,,,TRUE,,,,,,,CLR,,,,,,,,VFR,,,,,,,,,,,,METAR,377.0
KSJC 140353Z 00000KT 10SM FEW050 FEW100 SCT150 15/12 A3035 RMK AO2 SLP275 T01500117,KSJC,2021-01-14T03:53:00Z,37.37,-121.92,15.0,11.7,0,0,,10.0,30.351377,1027.5,,,TRUE,,,,,,,FEW,5000,FEW,10000,SCT,15000,,,VFR,,,,,,,,,,,,METAR,13.0
KSIY 140353Z AUTO 00000KT 10SM CLR 06/03 A3044 RMK AO2 SLP326 T00560033,KSIY,2021-01-14T03:53:00Z,41.77,-122.47,5.6,3.3,0,0,,10.0,30.43996,1032.6,,TRUE,TRUE,,,,,,,CLR,,,,,,,,VFR,,,,,,,,,,,,METAR,807.0
KSHR 140353Z AUTO 31040G49KT 10SM OVC080 04/M12 A2992 RMK AO2 PK WND 32052/0319 SLP153 T00441122,KSHR,2021-01-14T03:53:00Z,44.77,-106.97,4.4,-12.2,310,40,49,10.0,29.920275,1015.3,,TRUE,TRUE,,,,,,,OVC,8000,,,,,,,VFR,,,,,,,,,,,,METAR,1212.0
KSHN 140353Z AUTO 21004KT 10SM CLR 03/02 A3048 RMK AO2 SLP328 T00280022 $,KSHN,2021-01-14T03:53:00Z,47.23,-123.13,2.8,2.2,210,4,,10.0,30.481298,1032.8,,TRUE,TRUE,TRUE,,,,,,CLR,,,,,,,,VFR,,,,,,,,,,,,METAR,84.0
KSGR 140353Z AUTO 20007KT 10SM CLR 08/03 A3007 RMK AO2 SLP183 T00780033,KSGR,2021-01-14T03:53:00Z,29.62,-95.65,7.8,3.3,200,7,,10.0,30.070866,1018.3,,TRUE,TRUE,,,,,,,CLR,,,,,,,,VFR,,,,,,,,,,,,METAR,22.0
KSFF 140353Z AUTO VRB03KT 10SM CLR 02/M04 A3040 RMK AO2 SLP307 T00221039,KSFF,2021-01-14T03:53:00Z,47.68,-117.32,2.2,-3.9,0,3,,10.0,30.398623,1030.7,,TRUE,TRUE,,,,,,,CLR,,,,,,,,VFR,,,,,,,,,,,,METAR,593.0
KSFB 140353Z 30006KT 10SM SCT036 BKN046 12/09 A3008 RMK AO2 SLP186 T01170089,KSFB,2021-01-14T03:53:00Z,28.77,-81.23,11.7,8.9,300,6,,10.0,30.079725,1018.6,,,TRUE,,,,,,,SCT,3600,BKN,4600,,,,,VFR,,,,,,,,,,,,METAR,16.0
KSEG 140353Z AUTO 00000KT 8SM FEW110 00/M02 A2987 RMK AO2 SLP118 T00001022,KSEG,2021-01-14T03:53:00Z,40.82,-76.87,0.0,-2.2,0,0,,8.0,29.870079,1011.8,,TRUE,TRUE,,,,,,,FEW,11000,,,,,,,VFR,,,,,,,,,,,,METAR,136.0
KSEA 140353Z 13006KT 10SM CLR 07/02 A3051 RMK AO2 SLP341 T00670017,KSEA,2021-01-14T03:53:00Z,47.45,-122.32,6.7,1.7,130,6,,10.0,30.510826,1034.1,,,TRUE,,,,,,,CLR,,,,,,,,VFR,,,,,,,,,,,,METAR,115.0
KSDM 140353Z 00000KT 10SM CLR 12/04 A3016 RMK AO2 SLP212 T01220044,KSDM,2021-01-14T03:53:00Z,32.58,-117.0,12.2,4.4,0,0,,10.0,30.159449,1021.2,,,TRUE,,,,,,,CLR,,,,,,,,VFR,,,,,,,,,,,,METAR,161.0
KSDL 140353Z AUTO 00000KT 10SM CLR 12/M09 A3017 RMK AO2 SLP211 T01221089,KSDL,2021-01-14T03:53:00Z,33.62,-111.92,12.2,-8.9,0,0,,10.0,30.171259,1021.1,,TRUE,TRUE,,,,,,,CLR,,,,,,,,VFR,,,,,,,,,,,,METAR,438.0
KSDB 140353Z AUTO 06010G19KT 10SM CLR 14/02 A3033 RMK AO2 SLP241 T01440017,KSDB,2021-01-14T03:53:00Z,34.75,-118.72,14.4,1.7,60,10,19,10.0,30.33071,1024.1,,TRUE,TRUE,,,,,,,CLR,,,,,,,,VFR,,,,,,,,,,,,METAR,1377.0
KSBM 140353Z AUTO 00000KT 8SM CLR 00/M02 A2964 RMK AO2 SLP046 T00001017,KSBM,2021-01-14T03:53:00Z,43.78,-87.85,0.0,-1.7,0,0,,8.0,29.639763,1004.6,,TRUE,TRUE,,,,,,,CLR,,,,,,,,VFR,,,,,,,,,,,,METAR,225.0
KSBD 140353Z 00000KT 10SM SKC 14/M02 A3018,KSBD,2021-01-14T03:53:00Z,34.08,-117.25,14.0,-2.0,0,0,,10.0,30.180119,,,,,,,,,,,SKC,,,,,,,,VFR,,,,,,,,,,,,METAR,353.0
KSBA 140353Z 00000KT 10SM CLR 11/07 A3015 RMK AO2 SLP209 T01060072,KSBA,2021-01-14T03:53:00Z,34.43,-119.85,10.6,7.2,0,0,,10.0,30.15059,1020.9,,,TRUE,,,,,,,CLR,,,,,,,,VFR,,,,,,,,,,,,METAR,2.0
KSAV 140353Z 26007KT 10SM FEW070 SCT100 07/05 A3005 RMK AO2 RAE05 SLP176 P0001 T00670050,KSAV,2021-01-14T03:53:00Z,32.12,-81.2,6.7,5.0,260,7,,10.0,30.050198,1017.6,,,TRUE,,,,,,,FEW,7000,SCT,10000,,,,,VFR,,,,,,0.01,,,,,,METAR,10.0
KSAF 140353Z 34014KT 10SM CLR 03/M10 A3012 RMK AO2 SLP191 T00331100,KSAF,2021-01-14T03:53:00Z,35.62,-106.1,3.3,-10.0,340,14,,10.0,30.121063,1019.1,,,TRUE,,,,,,,CLR,,,,,,,,VFR,,,,,,,,,,,,METAR,1918.0
KSAC 140353Z 33007KT 6SM HZ CLR 13/09 A3037 RMK AO2 SLP285 T01280094 $,KSAC,2021-01-14T03:53:00Z,38.5,-121.5,12.8,9.4,330,7,,6.0,30.369095,1028.5,,,TRUE,TRUE,,,,,HZ,CLR,,,,,,,,VFR,,,,,,,,,,,,METAR,5.0
KRXE 140353Z AUTO 00000KT 10SM CLR M03/M15 A3027 RMK AO2 SLP284 T10331150,KRXE,2021-01-14T03:53:00Z,43.83,-111.8,-3.3,-15.0,0,0,,10.0,30.268702,1028.4,,TRUE,TRUE,,,,,,,CLR,,,,,,,,VFR,,,,,,,,,,,,METAR,1483.0
KRWL 140353Z AUTO 27030G51KT 9SM -SN SCT075 M01/M08 A3002 RMK AO2 PK WND 26058/0255 SLP170 P0000 T10061083,KRWL,2021-01-14T03:53:00Z,41.8,-107.2,-0.6,-8.3,270,30,51,9.0,30.02067,1017.0,,TRUE,TRUE,,,,,,-SN,SCT,7500,,,,,,,VFR,,,,,,0.005,,,,,,METAR,2066.0
KRWI 140353Z AUTO 00000KT 10SM CLR 04/03 A2993 RMK AO2 SLP137 T00440033,KRWI,2021-01-14T03:53:00Z,35.85,-77.9,4.4,3.3,0,0,,10.0,29.929134,1013.7,,TRUE,TRUE,,,,,,,CLR,,,,,,,,VFR,,,,,,,,,,,,METAR,46.0
KRWF 140353Z AUTO 21006KT 10SM CLR 01/M01 A2947 RMK AO2 SLP989 T00111006,KRWF,2021-01-14T03:53:00Z,44.55,-95.08,1.1,-0.6,210,6,,10.0,29.471457,998.9,,TRUE,TRUE,,,,,,,CLR,,,,,,,,VFR,,,,,,,,,,,,METAR,312.0
KRVS 140353Z 20006KT 10SM CLR 09/01 A2977 RMK AO2 SLP088 LAST T00890006,KRVS,2021-01-14T03:53:00Z,36.05,-95.98,8.9,0.6,200,6,,10.0,29.769686,1008.8,,,TRUE,,,,,,,CLR,,,,,,,,VFR,,,,,,,,,,,,METAR,191.0
KRUE 140353Z AUTO 00000KT 10SM CLR 04/M01 A2986 RMK AO2 SLP111 T00391006,KRUE,2021-01-14T03:53:00Z,35.25,-93.1,3.9,-0.6,0,0,,10.0,29.861221,1011.1,,TRUE,TRUE,,,,,,,CLR,,,,,,,,VFR,,,,,,,,,,,,METAR,119.0
KRTN 140353Z AUTO VRB04KT 10SM CLR 07/M06 A2994 RMK AO2 SLP120 T00721061,KRTN,2021-01-14T03:53:00Z,36.73,-104.5,7.2,-6.1,0,4,,10.0,29.940945,1012.0,,TRUE,TRUE,,,,,,,CLR,,,,,,,,VFR,,,,,,,,,,,,METAR,1939.0
KRSW 140353Z 00000KT 5SM RA BR FEW050 BKN060 OVC075 14/13 A3007 RMK AO2 SLP180 P0003 T01440133,KRSW,2021-01-14T03:53:00Z,26.53,-81.75,14.4,13.3,0,0,,5.0,30.070866,1018.0,,,TRUE,,,,,,RA BR,FEW,5000,BKN,6000,OVC,7500,,,MVFR,,,,,,0.03,,,,,,METAR,8.0
KRSL 140353Z AUTO 23013KT 10SM BKN110 10/M03 A2964 RMK AO2 SLP040 T01001033,KRSL,2021-01-14T03:53:00Z,38.87,-98.82,10.0,-3.3,230,13,,10.0,29.639763,1004.0,,TRUE,TRUE,,,,,,,BKN,11000,,,,,,,VFR,,,,,,,,,,,,METAR,569.0
KRQE 140353Z AUTO 00000KT 10SM CLR M02/M16 A3028 RMK AO2 SLP268 T10221156 TSNO,KRQE,2021-01-14T03:53:00Z,35.65,-109.07,-2.2,-15.6,0,0,,10.0,30.280512,1026.8,,TRUE,TRUE,,,TRUE,,,,CLR,,,,,,,,VFR,,,,,,,,,,,,METAR,2056.0
KRNT 140353Z 18004KT 10SM CLR 06/02 A3053 RMK AO2 SLP341 T00560022,KRNT,2021-01-14T03:53:00Z,47.5,-122.22,5.6,2.2,180,4,,10.0,30.528543,1034.1,,,TRUE,,,,,,,CLR,,,,,,,,VFR,,,,,,,,,,,,METAR,7.0
KRNM 140353Z AUTO 12004KT 10SM CLR 07/01 A3018 RMK AO2 SLP219 T00670006,KRNM,2021-01-14T03:53:00Z,33.03,-116.92,6.7,0.6,120,4,,10.0,30.180119,1021.9,,TRUE,TRUE,,,,,,,CLR,,,,,,,,VFR,,,,,,,,,,,,METAR,423.0
KRME 140353Z AUTO 09007KT 10SM OVC039 00/M04 A2981 RMK AO2 SLP099 T00001044,KRME,2021-01-14T03:53:00Z,43.22,-75.4,0.0,-4.4,90,7,,10.0,29.811024,1009.9,,TRUE,TRUE,,,,,,,OVC,3900,,,,,,,VFR,,,,,,,,,,,,METAR,146.0
KRKP 140353Z AUTO 18005KT 10SM CLR 11/07 A3008 RMK AO2 SLP186 T01060072,KRKP,2021-01-14T03:53:00Z,28.08,-97.05,10.6,7.2,180,5,,10.0,30.079725,1018.6,,TRUE,TRUE,,,,,,,CLR,,,,,,,,VFR,,,,,,,,,,,,METAR,8.0
KRIW 140353Z AUTO 29036G48KT 10SM CLR 01/M17 A3001 RMK AO2 PK WND 30059/0307 SLP177 T00061172,KRIW,2021-01-14T03:53:00Z,43.07,-108.43,0.6,-17.2,290,36,48,10.0,30.008858,1017.7,,TRUE,TRUE,,,,,,,CLR,,,,,,,,VFR,,,,,,,,,,,,METAR,1662.0
KRIL 140353Z AUTO 00000KT 10SM OVC090 M05/M11 A3022 RMK AO2 SLP290 T10501111,KRIL,2021-01-14T03:53:00Z,39.53,-107.73,-5.0,-11.1,0,0,,10.0,30.221457,1029.0,,TRUE,TRUE,,,,,,,OVC,9000,,,,,,,VFR,,,,,,,,,,,,METAR,1683.0
KRDD 140353Z 29004KT 10SM SCT029 13/10 A3041 RMK AO2 SLP296 T01280100,KRDD,2021-01-14T03:53:00Z,40.52,-122.3,12.8,10.0,290,4,,10.0,30.410433,1029.6,,,TRUE,,,,,,,SCT,2900,,,,,,,VFR,,,,,,,,,,,,METAR,152.0
KRBG 140353Z AUTO 00000KT 10SM CLR 09/06 A3043 RMK AO2 SLP306 T00890061,KRBG,2021-01-14T03:53:00Z,43.23,-123.35,8.9,6.1,0,0,,10.0,30.431103,1030.6,,TRUE,TRUE,,,,,,,CLR,,,,,,,,VFR,,,,,,,,,,,,METAR,152.0
KRBD 140353Z AUTO 18010KT 10SM CLR 09/02 A2991 RMK AO2 SLP127 T00940022,KRBD,2021-01-14T03:53:00Z,32.68,-96.87,9.4,2.2,180,10,,10.0,29.911417,1012.7,,TRUE,TRUE,,,,,,,CLR,,,,,,,,VFR,,,,,,,,,,,,METAR,200.0
KRAL 140353Z 00000KT 10SM CLR 16/M02 A3017 RMK AO2 SLP208 T01561017,KRAL,2021-01-14T03:53:00Z,33.95,-117.45,15.6,-1.7,0,0,,10.0,30.171259,1020.8,,,TRUE,,,,,,,CLR,,,,,,,,VFR,,,,,,,,,,,,METAR,254.0
KRAC 140353Z AUTO 20003KT 9SM OVC085 02/M01 A2969 RMK AO2 SLP058 T00221006,KRAC,2021-01-14T03:53:00Z,42.77,-87.82,2.2,-0.6,200,3,,9.0,29.68996,1005.8,,TRUE,TRUE,,,,,,,OVC,8500,,,,,,,VFR,,,,,,,,,,,,METAR,203.0
KPWA 140353Z AUTO 21013KT 10SM CLR 09/M01 A2976 RMK AO2 SLP081 T00891006,KPWA,2021-01-14T03:53:00Z,35.53,-97.65,8.9,-0.6,210,13,,10.0,29.760826,1008.1,,TRUE,TRUE,,,,,,,CLR,,,,,,,,VFR,,,,,,,,,,,,METAR,390.0
KPUW 140353Z AUTO 25008KT 10SM CLR 01/M03 A3043 RMK AO2 SLP325 T00111028,KPUW,2021-01-14T03:53:00Z,46.75,-117.12,1.1,-2.8,250,8,,10.0,30.431103,1032.5,,TRUE,TRUE,,,,,,,CLR,,,,,,,,VFR,,,,,,,,,,,,METAR,774.0
KPUC 140353Z AUTO 31006KT 10SM CLR M07/M11 A3023 RMK AO2 SLP303 T10671111,KPUC,2021-01-14T03:53:00Z,39.62,-110.75,-6.7,-11.1,310,6,,10.0,30.230314,1030.3,,TRUE,TRUE,,,,,,,CLR,,,,,,,,VFR,,,,,,,,,,,,METAR,1777.0
KPUB 140353Z 28018G22KT 10SM CLR 10/M04 A2985 RMK AO2 SLP086 T01001039,KPUB,2021-01-14T03:53:00Z,38.28,-104.5,10.0,-3.9,280,18,22,10.0,29.84941,1008.6,,,TRUE,,,,,,,CLR,,,,,,,,VFR,,,,,,,,,,,,METAR,1441.0
KPTK 140353Z 25005KT 10SM OVC130 02/M02 A2970 RMK AO2 SLP067 T00221017,KPTK,2021-01-14T03:53:00Z,42.67,-83.42,2.2,-1.7,250,5,,10.0,29.698818,1006.7,,,TRUE,,,,,,,OVC,13000,,,,,,,VFR,,,,,,,,,,,,METAR,295.0
KPSP 140353Z 33006KT 10SM CLR 16/M06 A3019 RMK AO2 SLP222 T01561056,KPSP,2021-01-14T03:53:00Z,33.82,-116.5,15.6,-5.6,330,6,,10.0,30.188976,1022.2,,,TRUE,,,,,,,CLR,,,,,,,,VFR,,,,,,,,,,,,METAR,123.0
KPSC 140353Z 01004KT 10SM CLR 06/M01 A3051 RMK AO2 SLP332 T00611006,KPSC,2021-01-14T03:53:00Z,46.27,-119.12,6.1,-0.6,10,4,,10.0,30.510826,1033.2,,,TRUE,,,,,,,CLR,,,,,,,,VFR,,,,,,,,,,,,METAR,121.0
KPRC 140353Z 00000KT 10SM CLR 07/M09 A3026 RMK AO2 SLP231 T00721094,KPRC,2021-01-14T03:53:00Z,34.65,-112.42,7.2,-9.4,0,0,,10.0,30.259842,1023.1,,,TRUE,,,,,,,CLR,,,,,,,,VFR,,,,,,,,,,,,METAR,1528.0
KPRB 140353Z AUTO 11003KT 10SM CLR 11/03 A3031 RMK AO2 SLP264 T01110028,KPRB,2021-01-14T03:53:00Z,35.67,-120.63,11.1,2.8,110,3,,10.0,30.31004,1026.4,,TRUE,TRUE,,,,,,,CLR,,,,,,,,VFR,,,,,,,,,,,,METAR,249.0
KPQL 140353Z AUTO 00000KT 10SM CLR 01/00 A3010 RMK AO2 SLP194 T00110000,KPQL,2021-01-14T03:53:00Z,30.47,-88.53,1.1,0.0,0,0,,10.0,30.100393,1019.4,,TRUE,TRUE,,,,,,,CLR,,,,,,,,VFR,,,,,,,,,,,,METAR,4.0
KPOU 140353Z AUTO 00000KT 9SM BKN110 M01/M03 A2989 RMK AO2 SLP120 T10061033 TSNO,KPOU,2021-01-14T03:53:00Z,41.63,-73.88,-0.6,-3.3,0,0,,9.0,29.890747,1012.0,,TRUE,TRUE,,,TRUE,,,,BKN,11000,,,,,,,VFR,,,,,,,,,,,,METAR,45.0
KPOF 140353Z AUTO 19005KT 10SM CLR 03/M01 A2983 RMK AO2 SLP107 T00331006,KPOF,2021-01-14T03:53:00Z,36.77,-90.32,3.3,-0.6,190,5,,10.0,29.828741,1010.7,,TRUE,TRUE,,,,,,,CLR,,,,,,,,VFR,,,,,,,,,,,,METAR,99.0
KPNS 140353Z 29006KT 10SM CLR 06/02 A3009 RMK AO2 SLP192 T00610022,KPNS,2021-01-14T03:53:00Z,30.48,-87.18,6.1,2.2,290,6,,10.0,30.088583,1019.2,,,TRUE,,,,,,,CLR,,,,,,,,VFR,,,,,,,,,,,,METAR,34.0
KPNC 140353Z AUTO 17004KT 10SM CLR 06/M01 A2974 RMK AO2 SLP074 T00611006,KPNC,2021-01-14T03:53:00Z,36.73,-97.1,6.1,-0.6,170,4,,10.0,29.740158,1007.4,,TRUE,TRUE,,,,,,,CLR,,,,,,,,VFR,,,,,,,,,,,,METAR,304.0
KPMP 140353Z AUTO 32005KT 6SM -RA BR FEW110 17/17 A3004 RMK AO2 SLP174 P0002 T01670167,KPMP,2021-01-14T03:53:00Z,26.25,-80.12,16.7,16.7,320,5,,6.0,30.041338,1017.4,,TRUE,TRUE,,,,,,-RA BR,FEW,11000,,,,,,,VFR,,,,,,0.02,,,,,,METAR,4.0
KPMD 140353Z 19009KT 10SM CLR 07/M05 A3028 RMK AO2 SLP258 T00721050,KPMD,2021-01-14T03:53:00Z,34.63,-118.08,7.2,-5.0,190,9,,10.0,30.280512,1025.8,,,TRUE,,,,,,,CLR,,,,,,,,VFR,,,,,,,,,,,,METAR,764.0
KPKD 140353Z AUTO 14006KT 10SM CLR 00/M03 A2943 RMK AO2 SLP984 T00001033,KPKD,2021-01-14T03:53:00Z,46.9,-95.07,0.0,-3.3,140,6,,10.0,29.430119,998.4,,TRUE,TRUE,,,,,,,CLR,,,,,,,,VFR,,,,,,,,,,,,METAR,439.0
KPKB 140353Z 19005KT 10SM SCT120 03/M03 A2988,KPKB,2021-01-14T03:53:00Z,39.35,-81.43,3.0,-3.0,190,5,,10.0,29.878937,,,,,,,,,,,SCT,12000,,,,,,,VFR,,,,,,,,,,,,METAR,245.0
KPIR 140353Z AUTO 31022G31KT 10SM FEW060 OVC080 09/M03 A2959 RMK AO2 PK WND 31051/0258 RAB15E21 SLP024 P0000 T00891028,KPIR,2021-01-14T03:53:00Z,44.38,-100.28,8.9,-2.8,310,22,31,10.0,29.589567,1002.4,,TRUE,TRUE,,,,,,,FEW,6000,OVC,8000,,,,,VFR,,,,,,0.005,,,,,,METAR,524.0
KPIL 140353Z AUTO 17006KT 10SM CLR 08/06 A3012 RMK AO2 SLP199 T00780056 TSNO,KPIL,2021-01-14T03:53:00Z,26.17,-97.33,7.8,5.6,170,6,,10.0,30.121063,1019.9,,TRUE,TRUE,,,TRUE,,,,CLR,,,,,,,,VFR,,,,,,,,,,,,METAR,5.0
KPIH 140353Z 26013KT 10SM CLR M01/M07 A3034 RMK AO2 SLP286 T10061067,KPIH,2021-01-14T03:53:00Z,42.92,-112.57,-0.6,-6.7,260,13,,10.0,30.339567,1028.6,,,TRUE,,,,,,,CLR,,,,,,,,VFR,,,,,,,,,,,,METAR,1357.0
KPIE 140353Z AUTO 35003KT 10SM BKN015 OVC025 12/11 A3010 RMK AO2 RAB34E44 SLP193 P0000 T01220106,KPIE,2021-01-14T03:53:00Z,27.92,-82.68,12.2,10.6,350,3,,10.0,30.100393,1019.3,,TRUE,TRUE,,,,,,,BKN,1500,OVC,2500,,,,,MVFR,,,,,,0.005,,,,,,METAR,1.0
KPHD 140353Z AUTO 21006KT 10SM OVC100 04/M02 A2984 RMK AO2 SLP112 T00441017,KPHD,2021-01-14T03:53:00Z,40.47,-81.42,4.4,-1.7,210,6,,10.0,29.840551,1011.2,,TRUE,TRUE,,,,,,,OVC,10000,,,,,,,VFR,,,,,,,,,,,,METAR,272.0
KPGD 140353Z AUTO 16005KT 5SM BR BKN070 OVC110 14/13 A3007 RMK AO2 RAB01E25 SLP182 P0000 T01390128,KPGD,2021-01-14T03:53:00Z,26.92,-82.0,13.9,12.8,160,5,,5.0,30.070866,1018.2,,TRUE,TRUE,,,,,,BR,BKN,7000,OVC,11000,,,,,MVFR,,,,,,0.005,,,,,,METAR,7.0
KPGA 140353Z AUTO 00000KT 3SM HZ CLR 02/M10 A3027 RMK AO2 SLP265 T00171100 TSNO,KPGA,2021-01-14T03:53:00Z,36.92,-111.45,1.7,-10.0,0,0,,3.0,30.268702,1026.5,,TRUE,TRUE,,,TRUE,,,HZ,CLR,,,,,,,,MVFR,,,,,,,,,,,,METAR,1310.0
KPEO 140353Z AUTO 21012KT 10SM CLR 02/M03 A2976 RMK AO2 SLP086 T00221028,KPEO,2021-01-14T03:53:00Z,42.65,-77.05,2.2,-2.8,210,12,,10.0,29.760826,1008.6,,TRUE,TRUE,,,,,,,CLR,,,,,,,,VFR,,,,,,,,,,,,METAR,268.0
KPDX 140353Z 11007KT 10SM SCT180 OVC240 07/04 A3048 RMK AO2 SLP320 T00720039,KPDX,2021-01-14T03:53:00Z,45.6,-122.62,7.2,3.9,110,7,,10.0,30.481298,1032.0,,,TRUE,,,,,,,SCT,18000,OVC,24000,,,,,VFR,,,,,,,,,,,,METAR,7.0
KPDT 140353Z 26012KT 10SM CLR 03/M01 A3049 RMK AO2 SLP328 T00331006,KPDT,2021-01-14T03:53:00Z,45.7,-118.83,3.3,-0.6,260,12,,10.0,30.490158,1032.8,,,TRUE,,,,,,,CLR,,,,,,,,VFR,,,,,,,,,,,,METAR,453.0
KPDK 140353Z AUTO 29006KT 10SM CLR 02/M02 A3000 RMK AO2 SLP171 T00221022,KPDK,2021-01-14T03:53:00Z,33.88,-84.3,2.2,-2.2,290,6,,10.0,30.0,1017.1,,TRUE,TRUE,,,,,,,CLR,,,,,,,,VFR,,,,,,,,,,,,METAR,299.0
KPBI 140353Z 32003KT 10SM -RA FEW025 BKN090 BKN120 16/15 A3005 RMK AO2 SLP176 P0000 T01610150 $,KPBI,2021-01-14T03:53:00Z,26.68,-80.1,16.1,15.0,320,3,,10.0,30.050198,1017.6,,,TRUE,TRUE,,,,,-RA,FEW,2500,BKN,9000,BKN,12000,,,VFR,,,,,,0.005,,,,,,METAR,4.0
KPBG 140353Z AUTO 20003KT 10SM OVC039 01/M04 A2981 RMK AO2 SLP096 T00061039,KPBG,2021-01-14T03:53:00Z,44.65,-73.47,0.6,-3.9,200,3,,10.0,29.811024,1009.6,,TRUE,TRUE,,,,,,,OVC,3900,,,,,,,VFR,,,,,,,,,,,,METAR,61.0
KPBF 140353Z AUTO 21005KT 10SM CLR 06/M02 A2994 RMK AO2 SLP139 T00561017,KPBF,2021-01-14T03:53:00Z,34.18,-91.93,5.6,-1.7,210,5,,10.0,29.940945,1013.9,,TRUE,TRUE,,,,,,,CLR,,,,,,,,VFR,,,,,,,,,,,,METAR,63.0
KPAH 140353Z 21007KT 10SM CLR 06/M01 A2985 RMK AO2 SLP110 T00611006,KPAH,2021-01-14T03:53:00Z,37.07,-88.77,6.1,-0.6,210,7,,10.0,29.84941,1011.0,,,TRUE,,,,,,,CLR,,,,,,,,VFR,,,,,,,,,,,,METAR,125.0
KPAE 140353Z 09008KT 10SM CLR 06/02 A3052 RMK AO2 SLP339 T00610022,KPAE,2021-01-14T03:53:00Z,47.92,-122.28,6.1,2.2,90,8,,10.0,30.519686,1033.9,,,TRUE,,,,,,,CLR,,,,,,,,VFR,,,,,,,,,,,,METAR,166.0
KP68 140353Z AUTO 31011KT 04/M01 A3039 RMK AO1 SLP289 T00441006,KP68,2021-01-14T03:53:00Z,39.6,-116.0,4.4,-0.6,310,11,,,30.389763,1028.9,,TRUE,TRUE,,,,,,,,,,,,,,,,,,,,,,,,,,,METAR,1813.0
KOXB 140353Z AUTO 22004KT 10SM CLR 04/04 A2994 RMK AO2 SLP137 T00440039,KOXB,2021-01-14T03:53:00Z,38.32,-75.12,4.4,3.9,220,4,,10.0,29.940945,1013.7,,TRUE,TRUE,,,,,,,CLR,,,,,,,,VFR,,,,,,,,,,,,METAR,2.0
KOWD 140353Z AUTO 00000KT 10SM OVC036 02/M04 A2991 RMK AO2 SLP127 T00171044,KOWD,2021-01-14T03:53:00Z,42.18,-71.17,1.7,-4.4,0,0,,10.0,29.911417,1012.7,,TRUE,TRUE,,,,,,,OVC,3600,,,,,,,VFR,,,,,,,,,,,,METAR,14.0
KOVE 140353Z AUTO 32003KT 8SM CLR 12/08 A3040 RMK AO2 SLP296 T01170083,KOVE,2021-01-14T03:53:00Z,39.5,-121.62,11.7,8.3,320,3,,8.0,30.398623,1029.6,,TRUE,TRUE,,,,,,,CLR,,,,,,,,VFR,,,,,,,,,,,,METAR,56.0
KOTM 140353Z AUTO 19007KT 10SM CLR 01/M02 A2960 RMK AO2 SLP030 T00111017,KOTM,2021-01-14T03:53:00Z,41.1,-92.45,1.1,-1.7,190,7,,10.0,29.601377,1003.0,,TRUE,TRUE,,,,,,,CLR,,,,,,,,VFR,,,,,,,,,,,,METAR,254.0
KOSU 140353Z 20010KT 10SM OVC095 04/M02 A2982 RMK AO2 SLP105 T00441017,KOSU,2021-01-14T03:53:00Z,40.08,-83.08,4.4,-1.7,200,10,,10.0,29.819881,1010.5,,,TRUE,,,,,,,OVC,9500,,,,,,,VFR,,,,,,,,,,,,METAR,276.0
KOSH 140353Z 00000KT 6SM BR CLR M01/M03 A2964 RMK AO2 SLP051 T10111028,KOSH,2021-01-14T03:53:00Z,43.98,-88.55,-1.1,-2.8,0,0,,6.0,29.639763,1005.1,,,TRUE,,,,,,BR,CLR,,,,,,,,VFR,,,,,,,,,,,,METAR,239.0
KORL 140353Z AUTO 28008KT 10SM -RA BKN034 BKN090 BKN110 12/10 A3009 RMK AO2 RAB20 SLP195 P0000 T01220100,KORL,2021-01-14T03:53:00Z,28.55,-81.33,12.2,10.0,280,8,,10.0,30.088583,1019.5,,TRUE,TRUE,,,,,,-RA,BKN,3400,BKN,9000,BKN,11000,,,VFR,,,,,,0.005,,,,,,METAR,32.0
KOQT 140353Z AUTO 00000KT 8SM CLR M03/M04 A2998 RMK AO2 SLP170 T10281039,KOQT,2021-01-14T03:53:00Z,36.02,-84.23,-2.8,-3.9,0,0,,8.0,29.97933,1017.0,,TRUE,TRUE,,,,,,,CLR,,,,,,,,VFR,,,,,,,,,,,,METAR,276.0
KOPF 140353Z AUTO 35005KT 5SM RA BR FEW007 BKN075 OVC090 17/15 A3006 RMK AO2 SLP179 P0009 T01670150,KOPF,2021-01-14T03:53:00Z,25.92,-80.28,16.7,15.0,350,5,,5.0,30.059055,1017.9,,TRUE,TRUE,,,,,,RA BR,FEW,700,BKN,7500,OVC,9000,,,MVFR,,,,,,0.09,,,,,,METAR,1.0
KONT 140353Z 06003KT 10SM SCT250 17/M02 A3018 RMK AO2 SLP216 T01671022,KONT,2021-01-14T03:53:00Z,34.05,-117.58,16.7,-2.2,60,3,,10.0,30.180119,1021.6,,,TRUE,,,,,,,SCT,25000,,,,,,,VFR,,,,,,,,,,,,METAR,279.0
KONO 140353Z AUTO 03004KT 10SM CLR 02/M03 A3051 RMK AO2 SLP351 T00221033,KONO,2021-01-14T03:53:00Z,44.02,-117.02,2.2,-3.3,30,4,,10.0,30.510826,1035.1,,TRUE,TRUE,,,,,,,CLR,,,,,,,,VFR,,,,,,,,,,,,METAR,668.0
KOMK 140353Z AUTO 27007KT 10SM CLR 04/M08 A3043 RMK AO2 SLP315 T00441078,KOMK,2021-01-14T03:53:00Z,48.47,-119.52,4.4,-7.8,270,7,,10.0,30.431103,1031.5,,TRUE,TRUE,,,,,,,CLR,,,,,,,,VFR,,,,,,,,,,,,SPECI,395.0
KOLF 140353Z AUTO 28029G43KT 10SM SCT040 BKN070 OVC090 03/M04 A2962 RMK AO2 PK WND 28048/0321 SLP049 T00281039,KOLF,2021-01-14T03:53:00Z,48.1,-105.58,2.8,-3.9,280,29,43,10.0,29.619095,1004.9,,TRUE,TRUE,,,,,,,SCT,4000,BKN,7000,OVC,9000,,,VFR,,,,,,,,,,,,METAR,605.0
KOJC 140353Z AUTO 22006KT 10SM CLR 06/00 A2966 RMK AO2 SLP047 T00610000 $,KOJC,2021-01-14T03:53:00Z,38.85,-94.73,6.1,0.0,220,6,,10.0,29.660433,1004.7,,TRUE,TRUE,TRUE,,,,,,CLR,,,,,,,,VFR,,,,,,,,,,,,METAR,328.0
KOGD 140353Z AUTO 35006KT 10SM FEW080 03/M08 A3036 RMK AO2 SLP286 T00331083,KOGD,2021-01-14T03:53:00Z,41.2,-112.02,3.3,-8.3,350,6,,10.0,30.360237,1028.6,,TRUE,TRUE,,,,,,,FEW,8000,,,,,,,VFR,,,,,,,,,,,,METAR,1356.0
KOGB 140353Z AUTO 26003KT 10SM SCT011 OVC100 05/04 A2999 RMK AO2 SLP154 T00500044,KOGB,2021-01-14T03:53:00Z,33.47,-80.85,5.0,4.4,260,3,,10.0,29.991142,1015.4,,TRUE,TRUE,,,,,,,SCT,1100,OVC,10000,,,,,VFR,,,,,,,,,,,,METAR,59.0
KODX 140353Z AUTO 22009KT 10SM CLR 07/00 A2951 RMK AO2 SLP003 T00720000,KODX,2021-01-14T03:53:00Z,41.62,-98.95,7.2,0.0,220,9,,10.0,29.509842,1000.3,,TRUE,TRUE,,,,,,,CLR,,,,,,,,VFR,,,,,,,,,,,,METAR,628.0
KODO 140353Z AUTO 26011KT 10SM CLR 10/M09 A2994 RMK AO2 SLP125 T01001089,KODO,2021-01-14T03:53:00Z,31.92,-102.4,10.0,-8.9,260,11,,10.0,29.940945,1012.5,,TRUE,TRUE,,,,,,,CLR,,,,,,,,VFR,,,,,,,,,,,,METAR,912.0
KOAK 140353Z 34004KT 10SM FEW200 16/12 A3035 RMK AO2 SLP278 T01560122,KOAK,2021-01-14T03:53:00Z,37.72,-122.23,15.6,12.2,340,4,,10.0,30.351377,1027.8,,,TRUE,,,,,,,FEW,20000,,,,,,,VFR,,,,,,,,,,,,METAR,3.0
KNUI 140353Z AUTO 00000KT 10SM CLR 02/M01 A2990 RMK AO2 SLP125 T00171011 $,KNUI,2021-01-14T03:53:00Z,38.15,-76.43,1.7,-1.1,0,0,,10.0,29.899607,1012.5,,TRUE,TRUE,TRUE,,,,,,CLR,,,,,,,,VFR,,,,,,,,,,,,METAR,4.0
KNSI 140353Z AUTO 29006KT 10SM CLR 18/M02 A3016 RMK AO2 SLP209 T01781022,KNSI,2021-01-14T03:53:00Z,33.23,-119.45,17.8,-2.2,290,6,,10.0,30.159449,1020.9,,TRUE,TRUE,,,,,,,CLR,,,,,,,,VFR,,,,,,,,,,,,METAR,161.0
KNQX 140353Z AUTO 03009KT BKN008 OVC045 18/18 A3006 RMK AO2 RAE20 CIG 005V011 SLP177 P0002 T01780178 $,KNQX,2021-01-14T03:53:00Z,24.57,-81.67,17.8,17.8,30,9,,,30.059055,1017.7,,TRUE,TRUE,TRUE,,,,,,BKN,800,OVC,4500,,,,,,,,,,,0.02,,,,,,METAR,2.0
KNIP 140353Z 26007KT 10SM FEW010 OVC017 08/06 A3008 RMK AO2 SLP182 T00830061,KNIP,2021-01-14T03:53:00Z,30.23,-81.67,8.3,6.1,260,7,,10.0,30.079725,1018.2,,,TRUE,,,,,,,FEW,1000,OVC,1700,,,,,MVFR,,,,,,,,,,,,METAR,3.0
KNEW 140353Z AUTO 22007KT 10SM CLR 09/03 A3011 RMK AO2 SLP190 T00890033,KNEW,2021-01-14T03:53:00Z,30.05,-90.03,8.9,3.3,220,7,,10.0,30.109253,1019.0,,TRUE,TRUE,,,,,,,CLR,,,,,,,,VFR,,,,,,,,,,,,METAR,1.0
KMYV 140353Z AUTO 34009KT 10SM CLR 13/08 A3039 RMK AO2 SLP294 T01330083,KMYV,2021-01-14T03:53:00Z,39.1,-121.57,13.3,8.3,340,9,,10.0,30.389763,1029.4,,TRUE,TRUE,,,,,,,CLR,,,,,,,,VFR,,,,,,,,,,,,METAR,18.0
KMYF 140353Z 36005KT 10SM CLR 14/ A3016 RMK AO2 SLP213 T0144 $,KMYF,2021-01-14T03:53:00Z,32.82,-117.13,14.4,,360,5,,10.0,30.159449,1021.3,,,TRUE,TRUE,,,,,,CLR,,,,,,,,VFR,,,,,,,,,,,,METAR,128.0
KMWT 140353Z AUTO 00000KT 10SM CLR 03/M01 A2986 RMK AO2 SLP122 T00281006,KMWT,2021-01-14T03:53:00Z,34.55,-93.58,2.8,-0.6,0,0,,10.0,29.861221,1012.2,,TRUE,TRUE,,,,,,,CLR,,,,,,,,VFR,,,,,,,,,,,,METAR,220.0
KMWL 140353Z AUTO 14009KT 10SM CLR 06/00 A2986 RMK AO2 SLP113 T00560000,KMWL,2021-01-14T03:53:00Z,32.78,-98.07,5.6,0.0,140,9,,10.0,29.861221,1011.3,,TRUE,TRUE,,,,,,,CLR,,,,,,,,VFR,,,,,,,,,,,,METAR,288.0
KMVY 140353Z AUTO 33003KT 10SM BKN042 02/M02 A2992 RMK AO2 SLP130 T00221022,KMVY,2021-01-14T03:53:00Z,41.4,-70.62,2.2,-2.2,330,3,,10.0,29.920275,1013.0,,TRUE,TRUE,,,,,,,BKN,4200,,,,,,,VFR,,,,,,,,,,,,METAR,18.0
KMTO 140353Z AUTO 19008KT 10SM CLR 04/M01 A2976 RMK AO2 SLP082 T00391011,KMTO,2021-01-14T03:53:00Z,39.47,-88.27,3.9,-1.1,190,8,,10.0,29.760826,1008.2,,TRUE,TRUE,,,,,,,CLR,,,,,,,,VFR,,,,,,,,,,,,METAR,216.0
KMTJ 140353Z AUTO 11004KT 10SM CLR M05/M10 A3027 RMK AO2 SLP282 T10501100,KMTJ,2021-01-14T03:53:00Z,38.5,-107.9,-5.0,-10.0,110,4,,10.0,30.268702,1028.2,,TRUE,TRUE,,,,,,,CLR,,,,,,,,VFR,,,,,,,,,,,,METAR,1755.0
KMTH 140353Z AUTO 02009KT 9SM BKN011 OVC025 18/17 A3005 RMK AO2 CIG 009V013 SLP175 T01780167 $,KMTH,2021-01-14T03:53:00Z,24.73,-81.05,17.8,16.7,20,9,,9.0,30.050198,1017.5,,TRUE,TRUE,TRUE,,,,,,BKN,1100,OVC,2500,,,,,MVFR,,,,,,,,,,,,METAR,1.0
KMSY 140353Z 23005KT 10SM FEW250 08/02 A3011 RMK AO2 SLP197 T00780022,KMSY,2021-01-14T03:53:00Z,30.0,-90.25,7.8,2.2,230,5,,10.0,30.109253,1019.7,,,TRUE,,,,,,,FEW,25000,,,,,,,VFR,,,,,,,,,,,,METAR,0.0
KMSS 140353Z AUTO 18010KT 10SM OVC034 01/M04 A2977 RMK AO2 SLP085 T00111039,KMSS,2021-01-14T03:53:00Z,44.93,-74.85,1.1,-3.9,180,10,,10.0,29.769686,1008.5,,TRUE,TRUE,,,,,,,OVC,3400,,,,,,,VFR,,,,,,,,,,,,METAR,60.0
KMSP 140353Z 17003KT 8SM SCT200 01/M01 A2953 RMK AO2 SLP007 T00061011,KMSP,2021-01-14T03:53:00Z,44.88,-93.23,0.6,-1.1,170,3,,8.0,29.530512,1000.7,,,TRUE,,,,,,,SCT,20000,,,,,,,VFR,,,,,,,,,,,,METAR,255.0
KMSO 140353Z 27010KT 10SM FEW070 OVC100 02/M07 A3029 RMK AO2 SLP277 T00171067,KMSO,2021-01-14T03:53:00Z,46.92,-114.1,1.7,-6.7,270,10,,10.0,30.28937,1027.7,,,TRUE,,,,,,,FEW,7000,OVC,10000,,,,,VFR,,,,,,,,,,,,METAR,974.0
KMSN 140353Z 18004KT 8SM BKN100 00/M02 A2964 RMK AO2 SLP044 T00001017,KMSN,2021-01-14T03:53:00Z,43.13,-89.35,0.0,-1.7,180,4,,8.0,29.639763,1004.4,,,TRUE,,,,,,,BKN,10000,,,,,,,VFR,,,,,,,,,,,,METAR,262.0
KMSL 140353Z AUTO 19007KT 10SM CLR 02/M02 A2999 RMK AO2 SLP158 T00171017,KMSL,2021-01-14T03:53:00Z,34.75,-87.6,1.7,-1.7,190,7,,10.0,29.991142,1015.8,,TRUE,TRUE,,,,,,,CLR,,,,,,,,VFR,,,,,,,,,,,,METAR,170.0
KMRB 140353Z AUTO 00000KT 10SM CLR M02/M06 A2986 RMK AO2 SLP115 T10171056,KMRB,2021-01-14T03:53:00Z,39.4,-77.98,-1.7,-5.6,0,0,,10.0,29.861221,1011.5,,TRUE,TRUE,,,,,,,CLR,,,,,,,,VFR,,,,,,,,,,,,METAR,165.0
KMPO 140353Z AUTO 24008KT 10SM OVC095 00/M05 A2981 RMK AO2 SLP117 T00001050,KMPO,2021-01-14T03:53:00Z,41.13,-75.38,0.0,-5.0,240,8,,10.0,29.811024,1011.7,,TRUE,TRUE,,,,,,,OVC,9500,,,,,,,VFR,,,,,,,,,,,,METAR,576.0
KMOD 140353Z 32008KT 8SM CLR 14/11 A3034 RMK AO2 SLP272 T01390111,KMOD,2021-01-14T03:53:00Z,37.62,-120.95,13.9,11.1,320,8,,8.0,30.339567,1027.2,,,TRUE,,,,,,,CLR,,,,,,,,VFR,,,,,,,,,,,,METAR,25.0
KMNN 140353Z AUTO 21010KT 8SM OVC070 04/M02 A2981 RMK AO2 SLP104 T00391017,KMNN,2021-01-14T03:53:00Z,40.62,-83.07,3.9,-1.7,210,10,,8.0,29.811024,1010.4,,TRUE,TRUE,,,,,,,OVC,7000,,,,,,,VFR,,,,,,,,,,,,METAR,301.0
KMMV 140353Z AUTO 35005KT 10SM CLR 07/04 A3046 RMK AO2 SLP315 T00670044,KMMV,2021-01-14T03:53:00Z,45.2,-123.13,6.7,4.4,350,5,,10.0,30.46063,1031.5,,TRUE,TRUE,,,,,,,CLR,,,,,,,,VFR,,,,,,,,,,,,METAR,48.0
KMMK 140353Z AUTO 18006KT 9SM CLR 01/M04 A2991 RMK AO2 SLP129 T00111039,KMMK,2021-01-14T03:53:00Z,41.52,-72.83,1.1,-3.9,180,6,,9.0,29.911417,1012.9,,TRUE,TRUE,,,,,,,CLR,,,,,,,,VFR,,,,,,,,,,,,METAR,30.0
KMLU 140353Z 19007KT 10SM CLR 07/02 A3000 RMK AO2 SLP157 T00670022,KMLU,2021-01-14T03:53:00Z,32.52,-92.03,6.7,2.2,190,7,,10.0,30.0,1015.7,,,TRUE,,,,,,,CLR,,,,,,,,VFR,,,,,,,,,,,,METAR,22.0
KMLT 140353Z AUTO 12004KT 10SM OVC046 M01/M08 A2986 RMK AO2 SLP123 T10111078,KMLT,2021-01-14T03:53:00Z,45.65,-68.7,-1.1,-7.8,120,4,,10.0,29.861221,1012.3,,TRUE,TRUE,,,,,,,OVC,4600,,,,,,,VFR,,,,,,,,,,,,METAR,121.0
KMLS 140353Z AUTO 30030G46KT 10SM CLR 02/M07 A2978 RMK AO2 PK WND 30050/0313 SLP102 T00221067,KMLS,2021-01-14T03:53:00Z,46.43,-105.88,2.2,-6.7,300,30,46,10.0,29.778543,1010.2,,TRUE,TRUE,,,,,,,CLR,,,,,,,,VFR,,,,,,,,,,,,METAR,800.0
KMLP 140353Z AUTO A3023 RMK AO2 SLPNO PWINO FZRANO $,KMLP,2021-01-14T03:53:00Z,47.45,-115.67,,,,,,,30.230314,,,TRUE,TRUE,TRUE,,,TRUE,TRUE,,,,,,,,,,,,,,,,,,,,,,METAR,1837.0
KMLC 140353Z AUTO 19007G16KT 10SM FEW080 SCT100 SCT120 09/00 A2984 RMK AO2 SLP106 T00890000,KMLC,2021-01-14T03:53:00Z,34.88,-95.78,8.9,0.0,190,7,16,10.0,29.840551,1010.6,,TRUE,TRUE,,,,,,,FEW,8000,SCT,10000,SCT,12000,,,VFR,,,,,,,,,,,,METAR,231.0
KMKO 140353Z AUTO 18007KT 10SM CLR 06/M01 A2982 RMK AO2 SLP098 T00561011,KMKO,2021-01-14T03:53:00Z,35.65,-95.37,5.6,-1.1,180,7,,10.0,29.819881,1009.8,,TRUE,TRUE,,,,,,,CLR,,,,,,,,VFR,,,,,,,,,,,,METAR,184.0
KMKL 140353Z AUTO 20008KT 10SM CLR 05/01 A2993 RMK AO2 SLP137 T00500006,KMKL,2021-01-14T03:53:00Z,35.6,-88.92,5.0,0.6,200,8,,10.0,29.929134,1013.7,,TRUE,TRUE,,,,,,,CLR,,,,,,,,VFR,,,,,,,,,,,,METAR,130.0
KMIW 140353Z AUTO 12006KT 9SM CLR M03/M04 A2956 RMK AO2 SLP021 T10281039,KMIW,2021-01-14T03:53:00Z,42.12,-92.92,-2.8,-3.9,120,6,,9.0,29.56004,1002.1,,TRUE,TRUE,,,,,,,CLR,,,,,,,,VFR,,,,,,,,,,,,METAR,296.0
KMIE 140353Z AUTO 22009KT 10SM BKN120 06/M02 A2978 RMK AO2 SLP086 T00611022,KMIE,2021-01-14T03:53:00Z,40.23,-85.4,6.1,-2.2,220,9,,10.0,29.778543,1008.6,,TRUE,TRUE,,,,,,,BKN,12000,,,,,,,VFR,,,,,,,,,,,,METAR,286.0
KMIC 140353Z 00000KT 3SM BR CLR M03/M05 A2951 RMK AO2 SLP002 T10331050,KMIC,2021-01-14T03:53:00Z,45.07,-93.35,-3.3,-5.0,0,0,,3.0,29.509842,1000.2,,,TRUE,,,,,,BR,CLR,,,,,,,,MVFR,,,,,,,,,,,,METAR,263.0
KMIA 140353Z 34006KT 2 1/2SM -RA BR FEW004 SCT070 OVC080 17/16 A3005 RMK AO2 SLP175 P0009 T01720161 $,KMIA,2021-01-14T03:53:00Z,25.8,-80.32,17.2,16.1,340,6,,2.5,30.050198,1017.5,,,TRUE,TRUE,,,,,-RA BR,FEW,400,SCT,7000,OVC,8000,,,IFR,,,,,,0.09,,,,,,METAR,1.0
KMHT 140353Z 19003KT 10SM OVC037 02/M06 A2987 RMK AO2 SLP133 T00221056,KMHT,2021-01-14T03:53:00Z,42.93,-71.43,2.2,-5.6,190,3,,10.0,29.870079,1013.3,,,TRUE,,,,,,,OVC,3700,,,,,,,VFR,,,,,,,,,,,,METAR,68.0
KMHE 140353Z AUTO 17006KT 10SM FEW080 BKN110 04/02 A2947 RMK AO2 RAE29 SLP988 P0000 T00440022 TSNO,KMHE,2021-01-14T03:53:00Z,43.77,-98.03,4.4,2.2,170,6,,10.0,29.471457,998.8,,TRUE,TRUE,,,TRUE,,,,FEW,8000,BKN,11000,,,,,VFR,,,,,,0.005,,,,,,METAR,397.0
KMGY 140353Z AUTO 22008KT 10SM CLR 05/M02 A2983 RMK AO2 SLP106 T00501022,KMGY,2021-01-14T03:53:00Z,39.6,-84.23,5.0,-2.2,220,8,,10.0,29.828741,1010.6,,TRUE,TRUE,,,,,,,CLR,,,,,,,,VFR,,,,,,,,,,,,METAR,290.0
KMGW 140353Z 19003KT 10SM CLR 01/M04 A2987 RMK AO2 SLP123 T00061039,KMGW,2021-01-14T03:53:00Z,39.65,-79.92,0.6,-3.9,190,3,,10.0,29.870079,1012.3,,,TRUE,,,,,,,CLR,,,,,,,,VFR,,,,,,,,,,,,METAR,375.0
KMGM 140353Z AUTO 22003KT 10SM CLR 02/M01 A3008 RMK AO2 SLP186 T00171011,KMGM,2021-01-14T03:53:00Z,32.3,-86.4,1.7,-1.1,220,3,,10.0,30.079725,1018.6,,TRUE,TRUE,,,,,,,CLR,,,,,,,,VFR,,,,,,,,,,,,METAR,64.0
KMFR 140353Z 34003KT 10SM CLR 11/07 A3040 RMK AO2 SLP296 T01110072,KMFR,2021-01-14T03:53:00Z,42.38,-122.87,11.1,7.2,340,3,,10.0,30.398623,1029.6,,,TRUE,,,,,,,CLR,,,,,,,,VFR,,,,,,,,,,,,METAR,397.0
KMFE 140353Z 15007KT 10SM CLR 10/05 A3012 RMK AO2 SLP199 T01000050 $,KMFE,2021-01-14T03:53:00Z,26.18,-98.25,10.0,5.0,150,7,,10.0,30.121063,1019.9,,,TRUE,TRUE,,,,,,CLR,,,,,,,,VFR,,,,,,,,,,,,METAR,29.0
KMDW 140353Z 21008KT 10SM FEW070 SCT110 OVC150 04/M01 A2970 RMK AO2 SLP066 T00391006 $,KMDW,2021-01-14T03:53:00Z,41.78,-87.75,3.9,-0.6,210,8,,10.0,29.698818,1006.6,,,TRUE,TRUE,,,,,,FEW,7000,SCT,11000,OVC,15000,,,VFR,,,,,,,,,,,,METAR,186.0
KMCW 140353Z AUTO 13007KT 10SM CLR M01/M03 A2953 RMK AO2 SLP007 T10061028,KMCW,2021-01-14T03:53:00Z,43.15,-93.33,-0.6,-2.8,130,7,,10.0,29.530512,1000.7,,TRUE,TRUE,,,,,,,CLR,,,,,,,,VFR,,,,,,,,,,,,METAR,363.0
KMCO 140353Z 29007KT 10SM -RA FEW015 BKN033 OVC120 11/10 A3010 RMK AO2 RAB0254E05B26 SLP190 P0000 T01110100,KMCO,2021-01-14T03:53:00Z,28.42,-81.33,11.1,10.0,290,7,,10.0,30.100393,1019.0,,,TRUE,,,,,,-RA,FEW,1500,BKN,3300,OVC,12000,,,VFR,,,,,,0.005,,,,,,METAR,27.0
KMCN 140353Z AUTO 28006KT 10SM CLR 04/M02 A3002 RMK AO2 SLP166 T00391017,KMCN,2021-01-14T03:53:00Z,32.68,-83.65,3.9,-1.7,280,6,,10.0,30.02067,1016.6,,TRUE,TRUE,,,,,,,CLR,,,,,,,,VFR,,,,,,,,,,,,METAR,104.0
KMCK 140353Z AUTO 27013G22KT 10SM CLR 14/M02 A2963 RMK AO2 PK WND 27026/0327 SLP034 T01391017,KMCK,2021-01-14T03:53:00Z,40.2,-100.58,13.9,-1.7,270,13,22,10.0,29.630905,1003.4,,TRUE,TRUE,,,,,,,CLR,,,,,,,,VFR,,,,,,,,,,,,METAR,780.0
KMCI 140353Z 21009KT 10SM CLR 08/01 A2963 RMK AO2 SLP036 T00830006,KMCI,2021-01-14T03:53:00Z,39.3,-94.73,8.3,0.6,210,9,,10.0,29.630905,1003.6,,,TRUE,,,,,,,CLR,,,,,,,,VFR,,,,,,,,,,,,METAR,308.0
KMCE 140353Z AUTO 00000KT 4SM HZ CLR 12/08 A3034 RMK AO2 SLP273 T01170083,KMCE,2021-01-14T03:53:00Z,37.28,-120.5,11.7,8.3,0,0,,4.0,30.339567,1027.3,,TRUE,TRUE,,,,,,HZ,CLR,,,,,,,,MVFR,,,,,,,,,,,,METAR,49.0
KMCB 140353Z AUTO 17003KT 10SM CLR 02/01 A3005 RMK AO2 SLP176 T00170006,KMCB,2021-01-14T03:53:00Z,31.18,-90.47,1.7,0.6,170,3,,10.0,30.050198,1017.6,,TRUE,TRUE,,,,,,,CLR,,,,,,,,VFR,,,,,,,,,,,,METAR,124.0
KMBS 140353Z AUTO 23006KT 3SM BR CLR 01/M01 A2971 RMK AO2 SLP067 T00061011 $,KMBS,2021-01-14T03:53:00Z,43.53,-84.08,0.6,-1.1,230,6,,3.0,29.71063,1006.7,,TRUE,TRUE,TRUE,,,,,BR,CLR,,,,,,,,MVFR,,,,,,,,,,,,METAR,201.0
KMAI 140353Z AUTO 00000KT 10SM CLR 03/01 A3007 RMK AO2 SLP182 T00330011,KMAI,2021-01-14T03:53:00Z,30.83,-85.18,3.3,1.1,0,0,,10.0,30.070866,1018.2,,TRUE,TRUE,,,,,,,CLR,,,,,,,,VFR,,,,,,,,,,,,METAR,33.0
KMAF 140353Z 25013KT 10SM CLR 10/M08 A2993 RMK AO2 SLP120 T01001078,KMAF,2021-01-14T03:53:00Z,31.95,-102.2,10.0,-7.8,250,13,,10.0,29.929134,1012.0,,,TRUE,,,,,,,CLR,,,,,,,,VFR,,,,,,,,,,,,METAR,874.0
KMAE 140353Z AUTO 00000KT 4SM HZ CLR 17/07 A3036 RMK AO2 SLP279 T01670067,KMAE,2021-01-14T03:53:00Z,36.98,-120.12,16.7,6.7,0,0,,4.0,30.360237,1027.9,,TRUE,TRUE,,,,,,HZ,CLR,,,,,,,,MVFR,,,,,,,,,,,,METAR,77.0
KLXV 140353Z AUTO 32010G26KT 10SM OVC033 M02/M08 A3010 RMK AO2 PK WND 30026/0351 SLP162 T10221083,KLXV,2021-01-14T03:53:00Z,39.23,-106.32,-2.2,-8.3,320,10,26,10.0,30.100393,1016.2,,TRUE,TRUE,,,,,,,OVC,3300,,,,,,,VFR,,,,,,,,,,,,METAR,3027.0
KLXT 140353Z AUTO 21010KT 10SM CLR 07/00 A2966 RMK AO2 SLP048 T00670000,KLXT,2021-01-14T03:53:00Z,38.97,-94.37,6.7,0.0,210,10,,10.0,29.660433,1004.8,,TRUE,TRUE,,,,,,,CLR,,,,,,,,VFR,,,,,,,,,,,,METAR,306.0
KLWV 140353Z AUTO 17007KT 10SM CLR 02/M01 A2983 RMK AO2 SLP103 T00221011,KLWV,2021-01-14T03:53:00Z,38.77,-87.6,2.2,-1.1,170,7,,10.0,29.828741,1010.3,,TRUE,TRUE,,,,,,,CLR,,,,,,,,VFR,,,,,,,,,,,,METAR,128.0
KLWD 140353Z AUTO 19007KT 10SM CLR 03/M02 A2958 RMK AO2 SLP025 T00331017,KLWD,2021-01-14T03:53:00Z,40.63,-93.9,3.3,-1.7,190,7,,10.0,29.58071,1002.5,,TRUE,TRUE,,,,,,,CLR,,,,,,,,VFR,,,,,,,,,,,,METAR,345.0
KLVS 140353Z AUTO 31011G19KT 10SM CLR 08/M08 A3000 RMK AO2 SLP094 T00831078,KLVS,2021-01-14T03:53:00Z,35.65,-105.13,8.3,-7.8,310,11,19,10.0,30.0,1009.4,,TRUE,TRUE,,,,,,,CLR,,,,,,,,VFR,,,,,,,,,,,,METAR,2095.0
KLVK 140353Z AUTO 08007KT 8SM CLR 13/11 A3036 RMK AO2 SLP280 T01330111,KLVK,2021-01-14T03:53:00Z,37.7,-121.82,13.3,11.1,80,7,,8.0,30.360237,1028.0,,TRUE,TRUE,,,,,,,CLR,,,,,,,,VFR,,,,,,,,,,,,METAR,120.0
KLVJ 140353Z AUTO 20003KT 10SM CLR 07/01 A3010 RMK AO2 SLP190 T00720011,KLVJ,2021-01-14T03:53:00Z,29.52,-95.25,7.2,1.1,200,3,,10.0,30.100393,1019.0,,TRUE,TRUE,,,,,,,CLR,,,,,,,,VFR,,,,,,,,,,,,METAR,11.0
KLUK 140353Z 20008KT 10SM CLR 02/M03 A2987 RMK AO2 SLP119 T00221028,KLUK,2021-01-14T03:53:00Z,39.1,-84.42,2.2,-2.8,200,8,,10.0,29.870079,1011.9,,,TRUE,,,,,,,CLR,,,,,,,,VFR,,,,,,,,,,,,METAR,144.0
KLSE 140353Z AUTO 12003KT 10SM OVC100 02/M01 A2960 RMK AO2 SLP034 T00171011,KLSE,2021-01-14T03:53:00Z,43.88,-91.25,1.7,-1.1,120,3,,10.0,29.601377,1003.4,,TRUE,TRUE,,,,,,,OVC,10000,,,,,,,VFR,,,,,,,,,,,,METAR,198.0
KLPR 140353Z AUTO 23012KT 10SM OVC100 05/M03 A2979 RMK AO2 SLP093 T00501028,KLPR,2021-01-14T03:53:00Z,41.35,-82.18,5.0,-2.8,230,12,,10.0,29.790354,1009.3,,TRUE,TRUE,,,,,,,OVC,10000,,,,,,,VFR,,,,,,,,,,,,METAR,241.0
KLOZ 140353Z AUTO 20003KT 10SM CLR 01/M04 A2992 RMK AO2 SLP138 T00061044 $,KLOZ,2021-01-14T03:53:00Z,37.08,-84.07,0.6,-4.4,200,3,,10.0,29.920275,1013.8,,TRUE,TRUE,TRUE,,,,,,CLR,,,,,,,,VFR,,,,,,,,,,,,METAR,361.0
KLOU 140353Z AUTO 17007KT 10SM CLR 03/M03 A2987 RMK AO2 SLP118 T00331028,KLOU,2021-01-14T03:53:00Z,38.22,-85.67,3.3,-2.8,170,7,,10.0,29.870079,1011.8,,TRUE,TRUE,,,,,,,CLR,,,,,,,,VFR,,,,,,,,,,,,METAR,165.0
KLOL 140353Z AUTO 07008KT 10SM CLR 06/ A3041 RMK AO2 SLP308 T0056 $,KLOL,2021-01-14T03:53:00Z,40.07,-118.57,5.6,,70,8,,10.0,30.410433,1030.8,,TRUE,TRUE,TRUE,,,,,,CLR,,,,,,,,VFR,,,,,,,,,,,,METAR,1191.0
KLNS 140353Z 07003KT 9SM CLR 00/M04 A2988 RMK AO2 SLP123 T00001039,KLNS,2021-01-14T03:53:00Z,40.12,-76.3,0.0,-3.9,70,3,,9.0,29.878937,1012.3,,,TRUE,,,,,,,CLR,,,,,,,,VFR,,,,,,,,,,,,METAR,122.0
KLND 140353Z AUTO 31020G34KT 10SM CLR 01/M16 A3002 RMK AO2 PK WND 30034/0342 SLP183 T00111156,KLND,2021-01-14T03:53:00Z,42.82,-108.73,1.1,-15.6,310,20,34,10.0,30.02067,1018.3,,TRUE,TRUE,,,,,,,CLR,,,,,,,,VFR,,,,,,,,,,,,METAR,1700.0
KLMT 140353Z 34004KT 10SM CLR 03/M01 A3044 RMK AO2 SLP308 LAST T00331006,KLMT,2021-01-14T03:53:00Z,42.15,-121.72,3.3,-0.6,340,4,,10.0,30.43996,1030.8,,,TRUE,,,,,,,CLR,,,,,,,,VFR,,,,,,,,,,,,METAR,1246.0
KLLQ 140353Z AUTO 20010KT 10SM CLR 08/02 A2996 RMK AO2 SLP145 T00780017,KLLQ,2021-01-14T03:53:00Z,33.63,-91.75,7.8,1.7,200,10,,10.0,29.958662,1014.5,,TRUE,TRUE,,,,,,,CLR,,,,,,,,VFR,,,,,,,,,,,,METAR,86.0
KLKV 140353Z AUTO 00000KT 10SM BKN016 02/01 A3047 RMK AO2 SLP341 T00170011 FZRANO $,KLKV,2021-01-14T03:53:00Z,42.17,-120.4,1.7,1.1,0,0,,10.0,30.469488,1034.1,,TRUE,TRUE,TRUE,,,TRUE,,,BKN,1600,,,,,,,MVFR,,,,,,,,,,,,METAR,1440.0
KLIT 140353Z 23008KT 10SM CLR 05/M01 A2992 RMK AO2 SLP136 T00501011,KLIT,2021-01-14T03:53:00Z,34.73,-92.23,5.0,-1.1,230,8,,10.0,29.920275,1013.6,,,TRUE,,,,,,,CLR,,,,,,,,VFR,,,,,,,,,,,,METAR,77.0
KLHX 140353Z AUTO 27015KT 10SM CLR 07/M01 A2982 RMK AO2 SLP084 T00671006,KLHX,2021-01-14T03:53:00Z,38.05,-103.52,6.7,-0.6,270,15,,10.0,29.819881,1008.4,,TRUE,TRUE,,,,,,,CLR,,,,,,,,VFR,,,,,,,,,,,,SPECI,1289.0
KLHQ 140353Z AUTO 19006KT 10SM OVC110 04/M02 A2985 RMK AO2 SLP112 T00441022,KLHQ,2021-01-14T03:53:00Z,39.75,-82.67,4.4,-2.2,190,6,,10.0,29.84941,1011.2,,TRUE,TRUE,,,,,,,OVC,11000,,,,,,,VFR,,,,,,,,,,,,METAR,259.0
KLGB 140353Z 00000KT 10SM CLR 14/07 A3016 RMK AO2 SLP212 T01440072,KLGB,2021-01-14T03:53:00Z,33.82,-118.15,14.4,7.2,0,0,,10.0,30.159449,1021.2,,,TRUE,,,,,,,CLR,,,,,,,,VFR,,,,,,,,,,,,METAR,10.0
KLFT 140353Z 00000KT 10SM CLR 05/02 A3010 RMK AO2 SLP194 T00500022,KLFT,2021-01-14T03:53:00Z,30.2,-91.97,5.0,2.2,0,0,,10.0,30.100393,1019.4,,,TRUE,,,,,,,CLR,,,,,,,,VFR,,,,,,,,,,,,METAR,9.0
KLFK 140353Z AUTO 17007KT 10SM CLR 06/04 A3003 RMK AO2 SLP169 T00610044,KLFK,2021-01-14T03:53:00Z,31.23,-94.75,6.1,4.4,170,7,,10.0,30.029528,1016.9,,TRUE,TRUE,,,,,,,CLR,,,,,,,,VFR,,,,,,,,,,,,METAR,87.0
KLEE 140353Z AUTO 29006KT 10SM FEW038 OVC048 11/08 A3011 RMK AO2 SLP194 T01060083,KLEE,2021-01-14T03:53:00Z,28.82,-81.82,10.6,8.3,290,6,,10.0,30.109253,1019.4,,TRUE,TRUE,,,,,,,FEW,3800,OVC,4800,,,,,VFR,,,,,,,,,,,,METAR,21.0
KLEB 140353Z AUTO 17006KT 10SM OVC035 01/M05 A2984 RMK AO2 SLP111 T00061050,KLEB,2021-01-14T03:53:00Z,43.63,-72.3,0.6,-5.0,170,6,,10.0,29.840551,1011.1,,TRUE,TRUE,,,,,,,OVC,3500,,,,,,,VFR,,,,,,,,,,,,METAR,169.0
KLCH 140353Z 00000KT 8SM CLR 03/03 A3009 RMK AO2 SLP197 T00330028,KLCH,2021-01-14T03:53:00Z,30.13,-93.22,3.3,2.8,0,0,,8.0,30.088583,1019.7,,,TRUE,,,,,,,CLR,,,,,,,,VFR,,,,,,,,,,,,METAR,2.0
KLBX 140353Z AUTO 00000KT 10SM CLR 04/01 A3008 RMK AO2 SLP186 T00390011,KLBX,2021-01-14T03:53:00Z,29.12,-95.47,3.9,1.1,0,0,,10.0,30.079725,1018.6,,TRUE,TRUE,,,,,,,CLR,,,,,,,,VFR,,,,,,,,,,,,METAR,4.0
KLBF 140353Z AUTO 26010KT 10SM CLR 08/M01 A2960 RMK AO2 SLP027 T00831006,KLBF,2021-01-14T03:53:00Z,41.12,-100.67,8.3,-0.6,260,10,,10.0,29.601377,1002.7,,TRUE,TRUE,,,,,,,CLR,,,,,,,,VFR,,,,,,,,,,,,METAR,843.0
KLBB 140353Z 28009KT 10SM CLR 03/M01 A2985 RMK AO2 SLP108 T00331011,KLBB,2021-01-14T03:53:00Z,33.67,-101.82,3.3,-1.1,280,9,,10.0,29.84941,1010.8,,,TRUE,,,,,,,CLR,,,,,,,,VFR,,,,,,,,,,,,METAR,996.0
KLAX 140353Z 26004KT 10SM CLR 16/09 A3016 RMK AO2 SLP211 T01560094 $,KLAX,2021-01-14T03:53:00Z,33.93,-118.38,15.6,9.4,260,4,,10.0,30.159449,1021.1,,,TRUE,TRUE,,,,,,CLR,,,,,,,,VFR,,,,,,,,,,,,METAR,30.0
KLAW 140353Z AUTO 21006KT 10SM CLR 06/01 A2979 RMK AO2 SLP095 T00610006,KLAW,2021-01-14T03:53:00Z,34.55,-98.42,6.1,0.6,210,6,,10.0,29.790354,1009.5,,TRUE,TRUE,,,,,,,CLR,,,,,,,,VFR,,,,,,,,,,,,METAR,328.0
KLAR 140353Z AUTO 29044G70KT 10SM FEW049 BKN060 BKN070 02/M09 A2988 RMK AO2 PK WND 29070/0346 RAB24E46 SLP092 P0000 T00171094 $,KLAR,2021-01-14T03:53:00Z,41.32,-105.67,1.7,-9.4,290,44,70,10.0,29.878937,1009.2,,TRUE,TRUE,TRUE,,,,,,FEW,4900,BKN,6000,BKN,7000,,,VFR,,,,,,0.005,,,,,,METAR,2217.0
KLAN 140353Z 23005KT 8SM FEW019 BKN100 OVC110 03/M01 A2972 RMK AO2 SLP072 T00281006,KLAN,2021-01-14T03:53:00Z,42.78,-84.58,2.8,-0.6,230,5,,8.0,29.719488,1007.2,,,TRUE,,,,,,,FEW,1900,BKN,10000,OVC,11000,,,VFR,,,,,,,,,,,,METAR,261.0
KLAA 140353Z AUTO 22010KT 10SM CLR 03/M02 A2977 RMK AO2 SLP085 T00281022,KLAA,2021-01-14T03:53:00Z,38.07,-102.68,2.8,-2.2,220,10,,10.0,29.769686,1008.5,,TRUE,TRUE,,,,,,,CLR,,,,,,,,VFR,,,,,,,,,,,,METAR,1129.0
KJLN 140353Z AUTO 21014KT 10SM CLR 08/M02 A2975 RMK AO2 SLP075 T00831017,KJLN,2021-01-14T03:53:00Z,37.15,-94.5,8.3,-1.7,210,14,,10.0,29.749016,1007.5,,TRUE,TRUE,,,,,,,CLR,,,,,,,,VFR,,,,,,,,,,,,METAR,297.0
KJKL 140353Z AUTO 24006KT 10SM CLR 02/M06 A2990 RMK AO2 SLP132 T00221056,KJKL,2021-01-14T03:53:00Z,37.6,-83.32,2.2,-5.6,240,6,,10.0,29.899607,1013.2,,TRUE,TRUE,,,,,,,CLR,,,,,,,,VFR,,,,,,,,,,,,METAR,414.0
KJER 140353Z AUTO 26013KT 10SM CLR 01/M04 A3042 RMK AO2 SLP321 T00111044,KJER,2021-01-14T03:53:00Z,42.72,-114.45,1.1,-4.4,260,13,,10.0,30.41929,1032.1,,TRUE,TRUE,,,,,,,CLR,,,,,,,,VFR,,,,,,,,,,,,METAR,1226.0
KJEF 140353Z AUTO 12005KT 10SM CLR 07/M03 A2972 RMK AO2 SLP056 T00671028,KJEF,2021-01-14T03:53:00Z,38.6,-92.15,6.7,-2.8,120,5,,10.0,29.719488,1005.6,,TRUE,TRUE,,,,,,,CLR,,,,,,,,VFR,,,,,,,,,,,,METAR,167.0
KJBR 140353Z AUTO 19008KT 10SM CLR 04/01 A2988 RMK AO2 SLP118 T00440006 TSNO $,KJBR,2021-01-14T03:53:00Z,35.83,-90.65,4.4,0.6,190,8,,10.0,29.878937,1011.8,,TRUE,TRUE,TRUE,,TRUE,,,,CLR,,,,,,,,VFR,,,,,,,,,,,,METAR,79.0
KIXD 140353Z 19008KT 10SM CLR 06/M01 A2966 RMK AO2 SLP048 T00611011,KIXD,2021-01-14T03:53:00Z,38.82,-94.88,6.1,-1.1,190,8,,10.0,29.660433,1004.8,,,TRUE,,,,,,,CLR,,,,,,,,VFR,,,,,,,,,,,,METAR,322.0
KIWI 140353Z AUTO 00000KT 10SM OVC043 00/M03 A2990 RMK AO2 SLP125 T00001033,KIWI,2021-01-14T03:53:00Z,43.97,-69.72,0.0,-3.3,0,0,,10.0,29.899607,1012.5,,TRUE,TRUE,,,,,,,OVC,4300,,,,,,,VFR,,,,,,,,,,,,METAR,16.0
KIPL 140353Z AUTO VRB03KT 10SM CLR 14/M02 A3015 RMK AO2 SLP209 T01391017,KIPL,2021-01-14T03:53:00Z,32.83,-115.58,13.9,-1.7,0,3,,10.0,30.15059,1020.9,,TRUE,TRUE,,,,,,,CLR,,,,,,,,VFR,,,,,,,,,,,,METAR,-16.0
KINK 140353Z AUTO 25011KT 10SM CLR 09/M08 A2993 RMK AO2 SLP126 T00941083,KINK,2021-01-14T03:53:00Z,31.78,-103.2,9.4,-8.3,250,11,,10.0,29.929134,1012.6,,TRUE,TRUE,,,,,,,CLR,,,,,,,,VFR,,,,,,,,,,,,METAR,857.0
KIML 140353Z AUTO 28022G35KT 10SM CLR 12/M02 A2965 RMK AO2 PK WND 28035/0352 SLP040 T01221017,KIML,2021-01-14T03:53:00Z,40.52,-101.62,12.2,-1.7,280,22,35,10.0,29.648623,1004.0,,TRUE,TRUE,,,,,,,CLR,,,,,,,,VFR,,,,,,,,,,,,METAR,997.0
KILM 140353Z AUTO 24003KT 10SM FEW025 BKN100 OVC110 08/07 A2996 RMK AO2 SLP146 LAST T00830067,KILM,2021-01-14T03:53:00Z,34.27,-77.9,8.3,6.7,240,3,,10.0,29.958662,1014.6,,TRUE,TRUE,,,,,,,FEW,2500,BKN,10000,OVC,11000,,,VFR,,,,,,,,,,,,METAR,9.0
KIDA 140353Z AUTO 30007KT 280V020 10SM CLR M05/M10 A3029 RMK AO2 SLP287 T10501100,KIDA,2021-01-14T03:53:00Z,43.52,-112.07,-5.0,-10.0,300,7,,10.0,30.28937,1028.7,,TRUE,TRUE,,,,,,,CLR,,,,,,,,VFR,,,,,,,,,,,,METAR,1444.0
KICT 140353Z 21007KT 10SM FEW150 SCT180 BKN220 04/01 A2970 RMK AO2 SLP064 T00440006,KICT,2021-01-14T03:53:00Z,37.65,-97.43,4.4,0.6,210,7,,10.0,29.698818,1006.4,,,TRUE,,,,,,,FEW,15000,SCT,18000,BKN,22000,,,VFR,,,,,,,,,,,,METAR,428.0
KICR 140353Z AUTO 31031G49KT 10SM -RA BKN040 OVC048 07/01 A2964 RMK AO2 PK WND 31053/0331 WSHFT 0255 RAB07 SLP043 P0001 T00720006,KICR,2021-01-14T03:53:00Z,43.38,-99.85,7.2,0.6,310,31,49,10.0,29.639763,1004.3,,TRUE,TRUE,,,,,,-RA,BKN,4000,OVC,4800,,,,,VFR,,,,,,0.01,,,,,,METAR,618.0
KIAH 140353Z 20005KT 10SM CLR 08/03 A3006 RMK AO2 SLP181 T00830028,KIAH,2021-01-14T03:53:00Z,30.0,-95.37,8.3,2.8,200,5,,10.0,30.059055,1018.1,,,TRUE,,,,,,,CLR,,,,,,,,VFR,,,,,,,,,,,,METAR,27.0
KIAG 140353Z 21007KT 9SM CLR 02/M01 A2973 RMK AO2 SLP080 T00171011,KIAG,2021-01-14T03:53:00Z,43.12,-78.93,1.7,-1.1,210,7,,9.0,29.731298,1008.0,,,TRUE,,,,,,,CLR,,,,,,,,VFR,,,,,,,,,,,,METAR,179.0
KHZY 140353Z AUTO 21008KT 10SM CLR 04/M02 A2978 RMK AO2 SLP091 T00391017,KHZY,2021-01-14T03:53:00Z,41.78,-80.7,3.9,-1.7,210,8,,10.0,29.778543,1009.1,,TRUE,TRUE,,,,,,,CLR,,,,,,,,VFR,,,,,,,,,,,,METAR,279.0
KHYR 140353Z AUTO 00000KT 10SM OVC090 M01/M03 A2957 RMK AO2 SLP029 T10061033,KHYR,2021-01-14T03:53:00Z,46.02,-91.45,-0.6,-3.3,0,0,,10.0,29.568897,1002.9,,TRUE,TRUE,,,,,,,OVC,9000,,,,,,,VFR,,,,,,,,,,,,METAR,369.0
KHVR 140353Z AUTO 27017G26KT 10SM CLR 02/M04 A2999 RMK AO2 PK WND 29029/0259 RAB0215RAEMM SLP167 T00171044 $,KHVR,2021-01-14T03:53:00Z,48.55,-109.77,1.7,-4.4,270,17,26,10.0,29.991142,1016.7,,TRUE,TRUE,TRUE,,,,,,CLR,,,,,,,,VFR,,,,,,,,,,,,METAR,789.0
KHVN 140353Z AUTO 24003KT 6SM HZ SCT120 04/M01 A2991 RMK AO2 SLP129 T00391011,KHVN,2021-01-14T03:53:00Z,41.27,-72.88,3.9,-1.1,240,3,,6.0,29.911417,1012.9,,TRUE,TRUE,,,,,,HZ,SCT,12000,,,,,,,VFR,,,,,,,,,,,,METAR,4.0
KHUL 140353Z AUTO 20005KT 10SM OVC050 M02/M08 A2985 RMK AO2 SLPNO T10171083,KHUL,2021-01-14T03:53:00Z,46.12,-67.8,-1.7,-8.3,200,5,,10.0,29.84941,,,TRUE,TRUE,,,,,,,OVC,5000,,,,,,,VFR,,,,,,,,,,,,METAR,148.0
KHUF 140353Z 20007KT 10SM FEW120 05/M01 A2980 RMK AO2 SLP095 T00501011,KHUF,2021-01-14T03:53:00Z,39.45,-87.32,5.0,-1.1,200,7,,10.0,29.799213,1009.5,,,TRUE,,,,,,,FEW,12000,,,,,,,VFR,,,,,,,,,,,,METAR,174.0
KHTL 140353Z AUTO 24003KT 4SM BR OVC012 M01/M02 A2968 RMK AO2 SLP062 T10061022,KHTL,2021-01-14T03:53:00Z,44.35,-84.67,-0.6,-2.2,240,3,,4.0,29.681103,1006.2,,TRUE,TRUE,,,,,,BR,OVC,1200,,,,,,,MVFR,,,,,,,,,,,,METAR,350.0
KHSI 140353Z AUTO 23005KT 10SM CLR 09/01 A2956 RMK AO2 SLP014 T00940006,KHSI,2021-01-14T03:53:00Z,40.6,-98.43,9.4,0.6,230,5,,10.0,29.56004,1001.4,,TRUE,TRUE,,,,,,,CLR,,,,,,,,VFR,,,,,,,,,,,,METAR,592.0
KHRO 140353Z AUTO 17007KT 10SM CLR 07/M04 A2977 RMK AO2 SLP083 T00671039,KHRO,2021-01-14T03:53:00Z,36.27,-93.15,6.7,-3.9,170,7,,10.0,29.769686,1008.3,,TRUE,TRUE,,,,,,,CLR,,,,,,,,VFR,,,,,,,,,,,,METAR,417.0
KHRI 140353Z AUTO 13004KT 10SM CLR 04/M01 A3051 RMK AO2 SLP332 T00391006,KHRI,2021-01-14T03:53:00Z,45.83,-119.27,3.9,-0.6,130,4,,10.0,30.510826,1033.2,,TRUE,TRUE,,,,,,,CLR,,,,,,,,VFR,,,,,,,,,,,,METAR,194.0
KHQM 140353Z AUTO 00000KT 10SM CLR 06/03 A3050 RMK AO2 SLP331 T00610033,KHQM,2021-01-14T03:53:00Z,46.97,-123.93,6.1,3.3,0,0,,10.0,30.499016,1033.1,,TRUE,TRUE,,,,,,,CLR,,,,,,,,VFR,,,,,,,,,,,,METAR,4.0
KHOU 140353Z 21005KT 10SM CLR 07/02 A3007 RMK AO2 SLP187 T00670017,KHOU,2021-01-14T03:53:00Z,29.63,-95.28,6.7,1.7,210,5,,10.0,30.070866,1018.7,,,TRUE,,,,,,,CLR,,,,,,,,VFR,,,,,,,,,,,,METAR,13.0
KHOT 140353Z AUTO 00000KT 10SM CLR 06/M01 A2991 RMK AO2 SLP128 T00561006,KHOT,2021-01-14T03:53:00Z,34.48,-93.1,5.6,-0.6,0,0,,10.0,29.911417,1012.8,,TRUE,TRUE,,,,,,,CLR,,,,,,,,VFR,,,,,,,,,,,,METAR,153.0
KHLN 140353Z 28014G22KT 10SM BKN110 02/M11 A3014 RMK AO2 PK WND 28040/0315 SLP232 T00171111,KHLN,2021-01-14T03:53:00Z,46.6,-111.98,1.7,-11.1,280,14,22,10.0,30.138779,1023.2,,,TRUE,,,,,,,BKN,11000,,,,,,,VFR,,,,,,,,,,,,METAR,1178.0
KHLG 140353Z AUTO 23007KT 10SM OVC100 04/M03 A2984 RMK AO2 SLP115 T00441033 TSNO,KHLG,2021-01-14T03:53:00Z,40.17,-80.65,4.4,-3.3,230,7,,10.0,29.840551,1011.5,,TRUE,TRUE,,,TRUE,,,,OVC,10000,,,,,,,VFR,,,,,,,,,,,,METAR,365.0
KHLC 140353Z AUTO 27009KT 10SM CLR 13/M03 A2966 RMK AO2 SLP038 T01331033,KHLC,2021-01-14T03:53:00Z,39.37,-99.83,13.3,-3.3,270,9,,10.0,29.660433,1003.8,,TRUE,TRUE,,,,,,,CLR,,,,,,,,VFR,,,,,,,,,,,,METAR,667.0
KHKY 140353Z AUTO 21004KT 4SM BR OVC004 04/03 A2990 RMK AO2 SLP119 T00390028,KHKY,2021-01-14T03:53:00Z,35.75,-81.38,3.9,2.8,210,4,,4.0,29.899607,1011.9,,TRUE,TRUE,,,,,,BR,OVC,400,,,,,,,LIFR,,,,,,,,,,,,METAR,357.0
KHKS 140353Z AUTO 20004KT 10SM CLR 06/M01 A3003 RMK AO2 SLP166 T00561011,KHKS,2021-01-14T03:53:00Z,32.33,-90.22,5.6,-1.1,200,4,,10.0,30.029528,1016.6,,TRUE,TRUE,,,,,,,CLR,,,,,,,,VFR,,,,,,,,,,,,METAR,103.0
KHKA 140353Z AUTO 19008KT 10SM CLR 06/01 A2988 RMK AO2 SLP121 T00560011 $,KHKA,2021-01-14T03:53:00Z,35.93,-89.83,5.6,1.1,190,8,,10.0,29.878937,1012.1,,TRUE,TRUE,TRUE,,,,,,CLR,,,,,,,,VFR,,,,,,,,,,,,METAR,78.0
KHJO 140353Z AUTO 08003KT 4SM BR CLR 08/06 A3035 RMK AO2 SLP279 T00780056,KHJO,2021-01-14T03:53:00Z,36.32,-119.62,7.8,5.6,80,3,,4.0,30.351377,1027.9,,TRUE,TRUE,,,,,,BR,CLR,,,,,,,,MVFR,,,,,,,,,,,,METAR,73.0
KHIO 140353Z AUTO 00000KT 10SM CLR 05/04 A3047 RMK AO2 SLP319 T00500039,KHIO,2021-01-14T03:53:00Z,45.55,-122.95,5.0,3.9,0,0,,10.0,30.469488,1031.9,,TRUE,TRUE,,,,,,,CLR,,,,,,,,VFR,,,,,,,,,,,,METAR,62.0
KHIB 140353Z AUTO 12003KT 10SM CLR M08/M09 A2951 RMK AO2 SLP022 I1000 T10781094,KHIB,2021-01-14T03:53:00Z,47.38,-92.83,-7.8,-9.4,120,3,,10.0,29.509842,1002.2,,TRUE,TRUE,,,,,,,CLR,,,,,,,,VFR,,,,,,,,,,,,METAR,409.0
KHHR 140353Z 00000KT 10SM CLR 14/08 A3016 RMK AO2 SLP212 T01440083,KHHR,2021-01-14T03:53:00Z,33.92,-118.33,14.4,8.3,0,0,,10.0,30.159449,1021.2,,,TRUE,,,,,,,CLR,,,,,,,,VFR,,,,,,,,,,,,METAR,21.0
KHGR 140353Z AUTO 00000KT 10SM CLR 04/M04 A2986 RMK AO2 SLP126 T00391044,KHGR,2021-01-14T03:53:00Z,39.7,-77.73,3.9,-4.4,0,0,,10.0,29.861221,1012.6,,TRUE,TRUE,,,,,,,CLR,,,,,,,,VFR,,,,,,,,,,,,METAR,206.0
KHFD 140353Z 18006KT 7SM CLR 02/M04 A2990 RMK AO2 SLP126 T00171039,KHFD,2021-01-14T03:53:00Z,41.73,-72.65,1.7,-3.9,180,6,,7.0,29.899607,1012.6,,,TRUE,,,,,,,CLR,,,,,,,,VFR,,,,,,,,,,,,METAR,3.0
KHEI 140353Z AUTO 30038G51KT 7SM FEW029 FEW060 04/M06 A2961 RMK AO2 PK WND 29055/0339 SLP040 T00441061,KHEI,2021-01-14T03:53:00Z,46.02,-102.65,4.4,-6.1,300,38,51,7.0,29.610237,1004.0,,TRUE,TRUE,,,,,,,FEW,2900,FEW,6000,,,,,VFR,,,,,,,,,,,,METAR,824.0
KHBR 140353Z AUTO 22009KT 10SM CLR 04/01 A2979 RMK AO2 SLP094 T00390006,KHBR,2021-01-14T03:53:00Z,34.98,-99.05,3.9,0.6,220,9,,10.0,29.790354,1009.4,,TRUE,TRUE,,,,,,,CLR,,,,,,,,VFR,,,,,,,,,,,,METAR,475.0
KHBG 140353Z AUTO 00000KT 10SM CLR 03/01 A3008 RMK AO2 SLP186 T00280006,KHBG,2021-01-14T03:53:00Z,31.27,-89.25,2.8,0.6,0,0,,10.0,30.079725,1018.6,,TRUE,TRUE,,,,,,,CLR,,,,,,,,VFR,,,,,,,,,,,,METAR,45.0
KHAO 140353Z AUTO 20005KT 10SM CLR 05/M03 A2986 RMK AO2 SLP115 T00501028,KHAO,2021-01-14T03:53:00Z,39.37,-84.52,5.0,-2.8,200,5,,10.0,29.861221,1011.5,,TRUE,TRUE,,,,,,,CLR,,,,,,,,VFR,,,,,,,,,,,,METAR,185.0
KGWO 140353Z AUTO 18006KT 10SM CLR 04/00 A2999 RMK AO2 SLP155 T00390000,KGWO,2021-01-14T03:53:00Z,33.5,-90.08,3.9,0.0,180,6,,10.0,29.991142,1015.5,,TRUE,TRUE,,,,,,,CLR,,,,,,,,VFR,,,,,,,,,,,,METAR,42.0
KGVL 140353Z AUTO 26011KT 10SM CLR 03/M05 A2996 RMK AO2 SLP149 T00281050,KGVL,2021-01-14T03:53:00Z,34.27,-83.83,2.8,-5.0,260,11,,10.0,29.958662,1014.9,,TRUE,TRUE,,,,,,,CLR,,,,,,,,VFR,,,,,,,,,,,,METAR,387.0
KGUY 140353Z AUTO 20005KT 10SM CLR 04/M02 A2977 RMK AO2 SLP077 T00441017,KGUY,2021-01-14T03:53:00Z,36.68,-101.5,4.4,-1.7,200,5,,10.0,29.769686,1007.7,,TRUE,TRUE,,,,,,,CLR,,,,,,,,VFR,,,,,,,,,,,,METAR,950.0
KGUP 140353Z AUTO 00000KT 10SM CLR M02/M16 A3028 RMK AO2 SLP314 T10221161,KGUP,2021-01-14T03:53:00Z,35.52,-108.8,-2.2,-16.1,0,0,,10.0,30.280512,1031.4,,TRUE,TRUE,,,,,,,CLR,,,,,,,,VFR,,,,,,,,,,,,METAR,1972.0
KGTF 140353Z 17006KT 10SM OVC100 M02/M04 A3008 RMK AO2 SLP210 T10171044 $,KGTF,2021-01-14T03:53:00Z,47.47,-111.38,-1.7,-4.4,170,6,,10.0,30.079725,1021.0,,,TRUE,TRUE,,,,,,OVC,10000,,,,,,,VFR,,,,,,,,,,,,METAR,1117.0
KGSH 140353Z AUTO 24005KT 9SM OVC080 03/M01 A2976 RMK AO2 SLP084 T00331006,KGSH,2021-01-14T03:53:00Z,41.53,-85.78,3.3,-0.6,240,5,,9.0,29.760826,1008.4,,TRUE,TRUE,,,,,,,OVC,8000,,,,,,,VFR,,,,,,,,,,,,METAR,252.0
KGRR 140353Z 21007KT 6SM -RA BR OVC042 02/01 A2972 RMK AO2 SLP069 P0000 T00220006,KGRR,2021-01-14T03:53:00Z,42.88,-85.52,2.2,0.6,210,7,,6.0,29.719488,1006.9,,,TRUE,,,,,,-RA BR,OVC,4200,,,,,,,VFR,,,,,,0.005,,,,,,METAR,239.0
KGRI 140353Z AUTO 24012KT 10SM CLR 09/01 A2955 RMK AO2 SLP015 T00940006 $,KGRI,2021-01-14T03:53:00Z,40.97,-98.32,9.4,0.6,240,12,,10.0,29.551182,1001.5,,TRUE,TRUE,TRUE,,,,,,CLR,,,,,,,,VFR,,,,,,,,,,,,METAR,562.0
KGPT 140353Z 00000KT 9SM CLR 08/05 A3010 RMK AO2 SLP191 T00780050,KGPT,2021-01-14T03:53:00Z,30.42,-89.08,7.8,5.0,0,0,,9.0,30.100393,1019.1,,,TRUE,,,,,,,CLR,,,,,,,,VFR,,,,,,,,,,,,METAR,5.0
KGOK 140353Z AUTO 22008KT 10SM CLR 10/M01 A2976 RMK AO2 SLP080 T01001006,KGOK,2021-01-14T03:53:00Z,35.85,-97.4,10.0,-0.6,220,8,,10.0,29.760826,1008.0,,TRUE,TRUE,,,,,,,CLR,,,,,,,,VFR,,,,,,,,,,,,METAR,326.0
KGNV 140353Z AUTO 29006KT 10SM OVC011 08/06 A3011 RMK AO2 SLP197 T00780061,KGNV,2021-01-14T03:53:00Z,29.7,-82.28,7.8,6.1,290,6,,10.0,30.109253,1019.7,,TRUE,TRUE,,,,,,,OVC,1100,,,,,,,MVFR,,,,,,,,,,,,METAR,41.0
KGLR 140353Z AUTO 26004KT 6SM HZ OVC008 02/M02 A2966 RMK AO2 SLP057 T00171017,KGLR,2021-01-14T03:53:00Z,45.02,-84.68,1.7,-1.7,260,4,,6.0,29.660433,1005.7,,TRUE,TRUE,,,,,,HZ,OVC,800,,,,,,,IFR,,,,,,,,,,,,METAR,403.0
KGLH 140353Z AUTO 19009KT 10SM CLR 04/01 A2997 RMK AO2 SLP156 T00390011,KGLH,2021-01-14T03:53:00Z,33.47,-90.98,3.9,1.1,190,9,,10.0,29.970472,1015.6,,TRUE,TRUE,,,,,,,CLR,,,,,,,,VFR,,,,,,,,,,,,METAR,40.0
KGLD 140353Z AUTO 27009KT 10SM CLR 09/M03 A2972 RMK AO2 SLP055 T00941033 $,KGLD,2021-01-14T03:53:00Z,39.37,-101.7,9.4,-3.3,270,9,,10.0,29.719488,1005.5,,TRUE,TRUE,TRUE,,,,,,CLR,,,,,,,,VFR,,,,,,,,,,,,METAR,1111.0
KGKY 140353Z AUTO 16009KT 10SM CLR 10/04 A2991 RMK AO2 SLP127 T01000039,KGKY,2021-01-14T03:53:00Z,32.67,-97.1,10.0,3.9,160,9,,10.0,29.911417,1012.7,,TRUE,TRUE,,,,,,,CLR,,,,,,,,VFR,,,,,,,,,,,,METAR,189.0
KGKJ 140353Z AUTO 21007KT 10SM SCT110 03/M03 A2978 RMK AO2 SLP095 T00281028,KGKJ,2021-01-14T03:53:00Z,41.63,-80.22,2.8,-2.8,210,7,,10.0,29.778543,1009.5,,TRUE,TRUE,,,,,,,SCT,11000,,,,,,,VFR,,,,,,,,,,,,METAR,428.0
KGJT 140353Z 04005KT 10SM FEW095 M07/M11 A3028 RMK AO2 SLP298 T10721111,KGJT,2021-01-14T03:53:00Z,39.13,-108.53,-7.2,-11.1,40,5,,10.0,30.280512,1029.8,,,TRUE,,,,,,,FEW,9500,,,,,,,VFR,,,,,,,,,,,,METAR,1475.0
KGIF 140353Z AUTO 31005KT 10SM -RA SCT032 BKN085 OVC110 11/10 A3010 RMK AO2 RAB35 SLP193 P0000 T01110100,KGIF,2021-01-14T03:53:00Z,28.07,-81.75,11.1,10.0,310,5,,10.0,30.100393,1019.3,,TRUE,TRUE,,,,,,-RA,SCT,3200,BKN,8500,OVC,11000,,,VFR,,,,,,0.005,,,,,,METAR,44.0
KGGW 140353Z AUTO 30038G63KT 10SM FEW040 BKN060 OVC120 03/M06 A2964 RMK AO2 PK WND 30064/0343 SLP055 T00281056,KGGW,2021-01-14T03:53:00Z,48.22,-106.62,2.8,-5.6,300,38,63,10.0,29.639763,1005.5,,TRUE,TRUE,,,,,,,FEW,4000,BKN,6000,OVC,12000,,,VFR,,,,,,,,,,,,METAR,698.0
KGGG 140353Z AUTO 19007KT 10SM CLR 04/01 A2997 RMK AO2 SLPNO T00440006,KGGG,2021-01-14T03:53:00Z,32.38,-94.72,4.4,0.6,190,7,,10.0,29.970472,,,TRUE,TRUE,,,,,,,CLR,,,,,,,,VFR,,,,,,,,,,,,METAR,107.0
KGFL 140353Z AUTO 00000KT 8SM OVC034 M02/M04 A2985 RMK AO2 SLP118 T10171039,KGFL,2021-01-14T03:53:00Z,43.33,-73.62,-1.7,-3.9,0,0,,8.0,29.84941,1011.8,,TRUE,TRUE,,,,,,,OVC,3400,,,,,,,VFR,,,,,,,,,,,,METAR,99.0
KGFK 140353Z 18003KT 10SM SCT075 OVC100 01/M01 A2938 RMK AO2 SLP960 T00111011,KGFK,2021-01-14T03:53:00Z,47.95,-97.18,1.1,-1.1,180,3,,10.0,29.379921,996.0,,,TRUE,,,,,,,SCT,7500,OVC,10000,,,,,VFR,,,,,,,,,,,,METAR,256.0
KGEZ 140353Z AUTO 18009KT 10SM CLR 04/M03 A2981 RMK AO2 SLP098 T00441028,KGEZ,2021-01-14T03:53:00Z,39.58,-85.8,4.4,-2.8,180,9,,10.0,29.811024,1009.8,,TRUE,TRUE,,,,,,,CLR,,,,,,,,VFR,,,,,,,,,,,,METAR,245.0
KGEY 140353Z AUTO 34024G35KT 10SM OVC120 04/M17 A2998 RMK AO2 PK WND 36035/0351 SLP178 T00441172,KGEY,2021-01-14T03:53:00Z,44.52,-108.08,4.4,-17.2,340,24,35,10.0,29.97933,1017.8,,TRUE,TRUE,,,,,,,OVC,12000,,,,,,,VFR,,,,,,,,,,,,METAR,1191.0
KGEG 140353Z 25016KT 10SM FEW030 01/M05 A3039 RMK AO2 SLP310 T00061050,KGEG,2021-01-14T03:53:00Z,47.62,-117.53,0.6,-5.0,250,16,,10.0,30.389763,1031.0,,,TRUE,,,,,,,FEW,3000,,,,,,,VFR,,,,,,,,,,,,METAR,718.0
KGCC 140353Z AUTO 32032G47KT 10SM CLR 02/M11 A2986 RMK AO2 PK WND 32048/0320 SLP117 T00171111,KGCC,2021-01-14T03:53:00Z,44.33,-105.55,1.7,-11.1,320,32,47,10.0,29.861221,1011.7,,TRUE,TRUE,,,,,,,CLR,,,,,,,,VFR,,,,,,,,,,,,METAR,1328.0
KGAG 140353Z AUTO 23006KT 10SM CLR 04/M03 A2977 RMK AO2 SLP090 T00441033 $,KGAG,2021-01-14T03:53:00Z,36.3,-99.77,4.4,-3.3,230,6,,10.0,29.769686,1009.0,,TRUE,TRUE,TRUE,,,,,,CLR,,,,,,,,VFR,,,,,,,,,,,,METAR,670.0
KFYV 140353Z AUTO 20011KT 10SM CLR 08/M01 A2980 RMK AO2 SLP094 T00781011,KFYV,2021-01-14T03:53:00Z,36.02,-94.17,7.8,-1.1,200,11,,10.0,29.799213,1009.4,,TRUE,TRUE,,,,,,,CLR,,,,,,,,VFR,,,,,,,,,,,,METAR,377.0
KFXE 140353Z 32004KT 9SM -RA SCT005 SCT048 BKN110 17/16 A3005 RMK AO2 SLP176 P0002 T01670161,KFXE,2021-01-14T03:53:00Z,26.2,-80.18,16.7,16.1,320,4,,9.0,30.050198,1017.6,,,TRUE,,,,,,-RA,SCT,500,SCT,4800,BKN,11000,,,VFR,,,,,,0.02,,,,,,METAR,3.0
KFWN 140353Z AUTO 00000KT 7SM OVC110 M01/M04 A2988 RMK AO2 SLP122 T10061039,KFWN,2021-01-14T03:53:00Z,41.2,-74.63,-0.6,-3.9,0,0,,7.0,29.878937,1012.2,,TRUE,TRUE,,,,,,,OVC,11000,,,,,,,VFR,,,,,,,,,,,,METAR,129.0
KFVE 140353Z AUTO 18004KT 10SM OVC060 M03/M07 A2979 RMK AO2 SLP097 T10331072,KFVE,2021-01-14T03:53:00Z,47.28,-68.3,-3.3,-7.2,180,4,,10.0,29.790354,1009.7,,TRUE,TRUE,,,,,,,OVC,6000,,,,,,,VFR,,,,,,,,,,,,METAR,299.0
KFUL 140353Z 00000KT 10SM CLR 14/03 A3015 RMK AO2 SLP209 T01440028,KFUL,2021-01-14T03:53:00Z,33.87,-117.98,14.4,2.8,0,0,,10.0,30.15059,1020.9,,,TRUE,,,,,,,CLR,,,,,,,,VFR,,,,,,,,,,,,METAR,23.0
KFTY 140353Z 00000KT 10SM CLR 02/M02 A3001 RMK AO2 SLP165 T00221022,KFTY,2021-01-14T03:53:00Z,33.78,-84.52,2.2,-2.2,0,0,,10.0,30.008858,1016.5,,,TRUE,,,,,,,CLR,,,,,,,,VFR,,,,,,,,,,,,METAR,245.0
KFTW 140353Z 16004KT 10SM CLR 07/01 A2989 RMK AO2 SLP123 T00670006,KFTW,2021-01-14T03:53:00Z,32.83,-97.37,6.7,0.6,160,4,,10.0,29.890747,1012.3,,,TRUE,,,,,,,CLR,,,,,,,,VFR,,,,,,,,,,,,METAR,213.0
KFST 140353Z AUTO 23014KT 10SM CLR 11/M09 A2999 RMK AO2 SLP132 T01061094,KFST,2021-01-14T03:53:00Z,30.92,-102.92,10.6,-9.4,230,14,,10.0,29.991142,1013.2,,TRUE,TRUE,,,,,,,CLR,,,,,,,,VFR,,,,,,,,,,,,METAR,917.0
KFSM 140353Z 08003KT 10SM CLR 02/M02 A2985 RMK AO2 SLP112 T00221017,KFSM,2021-01-14T03:53:00Z,35.33,-94.37,2.2,-1.7,80,3,,10.0,29.84941,1011.2,,,TRUE,,,,,,,CLR,,,,,,,,VFR,,,,,,,,,,,,METAR,136.0
KFRG 140353Z 00000KT 10SM BKN120 01/M04 A2992 RMK AO2 SLP132 T00061039,KFRG,2021-01-14T03:53:00Z,40.73,-73.42,0.6,-3.9,0,0,,10.0,29.920275,1013.2,,,TRUE,,,,,,,BKN,12000,,,,,,,VFR,,,,,,,,,,,,METAR,23.0
KFPR 140353Z AUTO 00000KT 7SM -RA SCT075 BKN090 OVC110 15/14 A3004 RMK AO2 RAB24 SLP173 P0001 T01500139,KFPR,2021-01-14T03:53:00Z,27.5,-80.38,15.0,13.9,0,0,,7.0,30.041338,1017.3,,TRUE,TRUE,,,,,,-RA,SCT,7500,BKN,9000,OVC,11000,,,VFR,,,,,,0.01,,,,,,METAR,7.0
KFOK 140353Z 00000KT 8SM BKN110 M05/M07 A2994 RMK AO2 SLP140 T10501067,KFOK,2021-01-14T03:53:00Z,40.85,-72.62,-5.0,-6.7,0,0,,8.0,29.940945,1014.0,,,TRUE,,,,,,,BKN,11000,,,,,,,VFR,,,,,,,,,,,,METAR,13.0
KFOE 140353Z 20010KT 10SM CLR 08/01 A2963 RMK AO2 SLP038 T00780011,KFOE,2021-01-14T03:53:00Z,38.93,-95.65,7.8,1.1,200,10,,10.0,29.630905,1003.8,,,TRUE,,,,,,,CLR,,,,,,,,VFR,,,,,,,,,,,,METAR,315.0
KFNT 140353Z 22005KT 10SM CLR 03/M01 A2972 RMK AO2 SLP072 T00331011 $,KFNT,2021-01-14T03:53:00Z,42.97,-83.75,3.3,-1.1,220,5,,10.0,29.719488,1007.2,,,TRUE,TRUE,,,,,,CLR,,,,,,,,VFR,,,,,,,,,,,,METAR,235.0
KFNB 140353Z AUTO 00000KT 10SM CLR 05/M01 A2960 RMK AO2 SLP028 T00501011,KFNB,2021-01-14T03:53:00Z,40.07,-95.58,5.0,-1.1,0,0,,10.0,29.601377,1002.8,,TRUE,TRUE,,,,,,,CLR,,,,,,,,VFR,,,,,,,,,,,,METAR,301.0
KFMN 140353Z AUTO VRB04KT 10SM CLR 01/M12 A3020 RMK AO2 SLP259 T00061117,KFMN,2021-01-14T03:53:00Z,36.75,-108.23,0.6,-11.7,0,4,,10.0,30.200787,1025.9,,TRUE,TRUE,,,,,,,CLR,,,,,,,,VFR,,,,,,,,,,,,METAR,1677.0
KFLO 140353Z AUTO 28004KT 8SM OVC012 06/04 A2997 RMK AO2 SLP148 T00610039,KFLO,2021-01-14T03:53:00Z,34.18,-79.73,6.1,3.9,280,4,,8.0,29.970472,1014.8,,TRUE,TRUE,,,,,,,OVC,1200,,,,,,,MVFR,,,,,,,,,,,,METAR,43.0
KFLL 140353Z 31004KT 8SM -RA SCT006 BKN090 OVC110 17/17 A3004 RMK AO2 SLP173 P0002 T01720167,KFLL,2021-01-14T03:53:00Z,26.07,-80.15,17.2,16.7,310,4,,8.0,30.041338,1017.3,,,TRUE,,,,,,-RA,SCT,600,BKN,9000,OVC,11000,,,VFR,,,,,,0.02,,,,,,METAR,1.0
KFLD 140353Z AUTO 18006KT 10SM BKN100 01/M02 A2964 RMK AO2 SLP047 T00111017,KFLD,2021-01-14T03:53:00Z,43.77,-88.48,1.1,-1.7,180,6,,10.0,29.639763,1004.7,,TRUE,TRUE,,,,,,,BKN,10000,,,,,,,VFR,,,,,,,,,,,,METAR,242.0
KFFT 140353Z AUTO 21008KT 10SM CLR 02/M03 A2987 RMK AO2 SLP121 T00221028,KFFT,2021-01-14T03:53:00Z,38.18,-84.9,2.2,-2.8,210,8,,10.0,29.870079,1012.1,,TRUE,TRUE,,,,,,,CLR,,,,,,,,VFR,,,,,,,,,,,,METAR,235.0
KFFC 140353Z AUTO 00000KT 10SM CLR 00/M02 A3002 RMK AO2 SLP173 T00001022,KFFC,2021-01-14T03:53:00Z,33.35,-84.57,0.0,-2.2,0,0,,10.0,30.02067,1017.3,,TRUE,TRUE,,,,,,,CLR,,,,,,,,VFR,,,,,,,,,,,,METAR,242.0
KFDY 140353Z AUTO 23010KT 10SM SCT110 05/M01 A2978 RMK AO2 SLP085 T00501011,KFDY,2021-01-14T03:53:00Z,41.02,-83.67,5.0,-1.1,230,10,,10.0,29.778543,1008.5,,TRUE,TRUE,,,,,,,SCT,11000,,,,,,,VFR,,,,,,,,,,,,METAR,247.0
KFDR 140353Z AUTO 24004KT 10SM CLR 04/01 A2976 RMK AO2 SLP081 T00390006,KFDR,2021-01-14T03:53:00Z,34.35,-98.98,3.9,0.6,240,4,,10.0,29.760826,1008.1,,TRUE,TRUE,,,,,,,CLR,,,,,,,,VFR,,,,,,,,,,,,METAR,378.0
KFCM 140353Z AUTO 11006KT 10SM CLR 01/M01 A2950 RMK AO2 SLP998 T00111011,KFCM,2021-01-14T03:53:00Z,44.83,-93.47,1.1,-1.1,110,6,,10.0,29.500984,999.8,,TRUE,TRUE,,,,,,,CLR,,,,,,,,VFR,,,,,,,,,,,,METAR,276.0
KFAT 140353Z 07004KT 6SM HZ FEW200 BKN250 12/05 A3035 RMK AO2 SLP277 T01170050,KFAT,2021-01-14T03:53:00Z,36.78,-119.72,11.7,5.0,70,4,,6.0,30.351377,1027.7,,,TRUE,,,,,,HZ,FEW,20000,BKN,25000,,,,,VFR,,,,,,,,,,,,METAR,102.0
KFAR 140353Z 18008KT 10SM SCT021 OVC090 02/M01 A2940 RMK AO2 SLP966 T00171006,KFAR,2021-01-14T03:53:00Z,46.9,-96.82,1.7,-0.6,180,8,,10.0,29.40059,996.6,,,TRUE,,,,,,,SCT,2100,OVC,9000,,,,,VFR,,,,,,,,,,,,METAR,276.0
KEYE 140353Z AUTO 20008KT 10SM CLR 05/M02 A2978 RMK AO2 SLP090 T00501022,KEYE,2021-01-14T03:53:00Z,39.83,-86.3,5.0,-2.2,200,8,,10.0,29.778543,1009.0,,TRUE,TRUE,,,,,,,CLR,,,,,,,,VFR,,,,,,,,,,,,METAR,248.0
KEVW 140353Z AUTO 30017G26KT 10SM CLR M02/M18 A3029 RMK AO2 PK WND 28032/0330 PRESRR SLP261 T10221183,KEVW,2021-01-14T03:53:00Z,41.27,-111.03,-2.2,-18.3,300,17,26,10.0,30.28937,1026.1,,TRUE,TRUE,,,,,,,CLR,,,,,,,,VFR,,,,,,,,,,,,METAR,2178.0
KESF 140353Z AUTO 21006KT 10SM CLR 07/02 A3005 RMK AO2 SLP177 T00670022,KESF,2021-01-14T03:53:00Z,31.4,-92.28,6.7,2.2,210,6,,10.0,30.050198,1017.7,,TRUE,TRUE,,,,,,,CLR,,,,,,,,VFR,,,,,,,,,,,,METAR,27.0
KEQY 140353Z AUTO 20003KT 6SM BR OVC005 04/04 A2992 RMK AO2 SLP147 T00440039,KEQY,2021-01-14T03:53:00Z,35.02,-80.62,4.4,3.9,200,3,,6.0,29.920275,1014.7,,TRUE,TRUE,,,,,,BR,OVC,500,,,,,,,IFR,,,,,,,,,,,,METAR,205.0
KEPH 140353Z AUTO 26015KT 10SM CLR 05/M04 A3047 RMK AO2 SLP327 T00501044,KEPH,2021-01-14T03:53:00Z,47.3,-119.52,5.0,-4.4,260,15,,10.0,30.469488,1032.7,,TRUE,TRUE,,,,,,,CLR,,,,,,,,VFR,,,,,,,,,,,,METAR,382.0
KENW 140353Z AUTO 21005KT 10SM OVC090 03/M01 A2967 RMK AO2 SLP052 T00331011,KENW,2021-01-14T03:53:00Z,42.6,-87.93,3.3,-1.1,210,5,,10.0,29.66929,1005.2,,TRUE,TRUE,,,,,,,OVC,9000,,,,,,,VFR,,,,,,,,,,,,METAR,222.0
KEMP 140353Z AUTO 24004KT 10SM CLR 08/01 A2966 RMK AO2 SLP052 T00780011,KEMP,2021-01-14T03:53:00Z,38.33,-96.2,7.8,1.1,240,4,,10.0,29.660433,1005.2,,TRUE,TRUE,,,,,,,CLR,,,,,,,,VFR,,,,,,,,,,,,METAR,366.0
KELY 140353Z AUTO 01008KT 10SM BKN065 07/M03 A3039 RMK AO2 SLP285 T00721033 $,KELY,2021-01-14T03:53:00Z,39.3,-114.85,7.2,-3.3,10,8,,10.0,30.389763,1028.5,,TRUE,TRUE,TRUE,,,,,,BKN,6500,,,,,,,VFR,,,,,,,,,,,,METAR,1906.0
KELN 140353Z AUTO 00000KT 10SM CLR 00/M03 A3049 RMK AO2 SLPNO T00001033,KELN,2021-01-14T03:53:00Z,47.03,-120.53,0.0,-3.3,0,0,,10.0,30.490158,,,TRUE,TRUE,,,,,,,CLR,,,,,,,,VFR,,,,,,,,,,,,METAR,532.0
KELM 140353Z AUTO 00000KT 9SM CLR M03/M05 A2980 RMK AO2 SLP100 T10331050,KELM,2021-01-14T03:53:00Z,42.15,-76.9,-3.3,-5.0,0,0,,9.0,29.799213,1010.0,,TRUE,TRUE,,,,,,,CLR,,,,,,,,VFR,,,,,,,,,,,,METAR,287.0
KELD 140353Z AUTO 19005KT 10SM CLR 06/01 A2997 RMK AO2 SLP148 T00610006,KELD,2021-01-14T03:53:00Z,33.22,-92.82,6.1,0.6,190,5,,10.0,29.970472,1014.8,,TRUE,TRUE,,,,,,,CLR,,,,,,,,VFR,,,,,,,,,,,,METAR,76.0
KEET 140353Z AUTO 00000KT 10SM CLR M01/M02 A3004 RMK AO2 SLP177 T10111022,KEET,2021-01-14T03:53:00Z,33.18,-86.78,-1.1,-2.2,0,0,,10.0,30.041338,1017.7,,TRUE,TRUE,,,,,,,CLR,,,,,,,,VFR,,,,,,,,,,,,METAR,172.0
KEEO 140353Z AUTO 21007KT 10SM OVC060 M03/M07 A3017 RMK AO2 SLP261 T10281072,KEEO,2021-01-14T03:53:00Z,40.05,-107.88,-2.8,-7.2,210,7,,10.0,30.171259,1026.1,,TRUE,TRUE,,,,,,,OVC,6000,,,,,,,VFR,,,,,,,,,,,,METAR,1957.0
KECP 140353Z AUTO 00000KT 10SM CLR 03/02 A3008 RMK AO2 SLP198 T00280017,KECP,2021-01-14T03:53:00Z,30.35,-85.8,2.8,1.7,0,0,,10.0,30.079725,1019.8,,TRUE,TRUE,,,,,,,CLR,,,,,,,,VFR,,,,,,,,,,,,METAR,17.0
KDXR 140353Z AUTO 00000KT 8SM BKN120 M02/M04 A2990 RMK AO2 SLP129 T10171044,KDXR,2021-01-14T03:53:00Z,41.37,-73.48,-1.7,-4.4,0,0,,8.0,29.899607,1012.9,,TRUE,TRUE,,,,,,,BKN,12000,,,,,,,VFR,,,,,,,,,,,,METAR,138.0
KDWH 140353Z AUTO 20006KT 10SM CLR 08/03 A3006 RMK AO2 SLP178 T00830028,KDWH,2021-01-14T03:53:00Z,30.07,-95.55,8.3,2.8,200,6,,10.0,30.059055,1017.8,,TRUE,TRUE,,,,,,,CLR,,,,,,,,VFR,,,,,,,,,,,,METAR,46.0
KDVT 140353Z 00000KT 10SM CLR 09/M11 A3016 RMK AO2 SLP210 T00941106,KDVT,2021-01-14T03:53:00Z,33.68,-112.07,9.4,-10.6,0,0,,10.0,30.159449,1021.0,,,TRUE,,,,,,,CLR,,,,,,,,VFR,,,,,,,,,,,,METAR,454.0
KDUJ 140353Z AUTO 24009KT 10SM OVC100 03/M03 A2979 RMK AO2 SLP102 T00281028,KDUJ,2021-01-14T03:53:00Z,41.17,-78.9,2.8,-2.8,240,9,,10.0,29.790354,1010.2,,TRUE,TRUE,,,,,,,OVC,10000,,,,,,,VFR,,,,,,,,,,,,METAR,552.0
KDTW 140353Z 22007KT 8SM OVC110 03/M01 A2974 RMK AO2 SLP077 T00331006,KDTW,2021-01-14T03:53:00Z,42.23,-83.33,3.3,-0.6,220,7,,8.0,29.740158,1007.7,,,TRUE,,,,,,,OVC,11000,,,,,,,VFR,,,,,,,,,,,,METAR,192.0
KDTS 140353Z AUTO 00000KT 10SM CLR 06/03 A3009 RMK AO2 SLP188 T00560028,KDTS,2021-01-14T03:53:00Z,30.4,-86.47,5.6,2.8,0,0,,10.0,30.088583,1018.8,,TRUE,TRUE,,,,,,,CLR,,,,,,,,VFR,,,,,,,,,,,,METAR,5.0
KDTO 140353Z 16009KT 10SM CLR 08/02 A2989 RMK AO2 SLP120 T00780017,KDTO,2021-01-14T03:53:00Z,33.2,-97.2,7.8,1.7,160,9,,10.0,29.890747,1012.0,,,TRUE,,,,,,,CLR,,,,,,,,VFR,,,,,,,,,,,,METAR,199.0
KDTN 140353Z 20007KT 10SM CLR 09/02 A2998 RMK AO2 SLP153 T00890017,KDTN,2021-01-14T03:53:00Z,32.55,-93.75,8.9,1.7,200,7,,10.0,29.97933,1015.3,,,TRUE,,,,,,,CLR,,,,,,,,VFR,,,,,,,,,,,,METAR,53.0
KDRT 140353Z AUTO 00000KT 10SM CLR 08/M01 A3002 RMK AO2 SLP163 T00831006 $,KDRT,2021-01-14T03:53:00Z,29.37,-100.92,8.3,-0.6,0,0,,10.0,30.02067,1016.3,,TRUE,TRUE,TRUE,,,,,,CLR,,,,,,,,VFR,,,,,,,,,,,,METAR,303.0
KDRO 140353Z AUTO 02006KT 10SM CLR M04/M09 A3020 RMK AO2 SLP287 T10441094,KDRO,2021-01-14T03:53:00Z,37.15,-107.77,-4.4,-9.4,20,6,,10.0,30.200787,1028.7,,TRUE,TRUE,,,,,,,CLR,,,,,,,,VFR,,,,,,,,,,,,METAR,2021.0
KDRA 140353Z AUTO 08004KT 10SM CLR 05/M13 A3028 RMK AO2 SLP251 T00501128,KDRA,2021-01-14T03:53:00Z,36.62,-116.03,5.0,-12.8,80,4,,10.0,30.280512,1025.1,,TRUE,TRUE,,,,,,,CLR,,,,,,,,VFR,,,,,,,,,,,,METAR,988.0
KDNL 140353Z AUTO 14004KT 9SM BKN100 06/04 A2997 RMK AO2 SLP149 T00560039,KDNL,2021-01-14T03:53:00Z,33.47,-82.03,5.6,3.9,140,4,,9.0,29.970472,1014.9,,TRUE,TRUE,,,,,,,BKN,10000,,,,,,,VFR,,,,,,,,,,,,METAR,126.0
KDMO 140353Z AUTO 21010KT 10SM CLR 07/M03 A2969 RMK AO2 SLP057 T00671028,KDMO,2021-01-14T03:53:00Z,38.72,-93.17,6.7,-2.8,210,10,,10.0,29.68996,1005.7,,TRUE,TRUE,,,,,,,CLR,,,,,,,,VFR,,,,,,,,,,,,METAR,271.0
KDMN 140353Z AUTO 21006KT 10SM CLR 04/M18 A3014 RMK AO2 SLP204 T00391183,KDMN,2021-01-14T03:53:00Z,32.27,-107.72,3.9,-18.3,210,6,,10.0,30.138779,1020.4,,TRUE,TRUE,,,,,,,CLR,,,,,,,,VFR,,,,,,,,,,,,METAR,1310.0
KDLS 140353Z AUTO 00000KT 10SM CLR 06/02 A3052 RMK AO2 SLP335 T00560017,KDLS,2021-01-14T03:53:00Z,45.62,-121.17,5.6,1.7,0,0,,10.0,30.519686,1033.5,,TRUE,TRUE,,,,,,,CLR,,,,,,,,VFR,,,,,,,,,,,,METAR,71.0
KDLN 140353Z AUTO 27014KT 10SM CLR M04/M13 A3023 RMK AO2 SLP254 T10391128,KDLN,2021-01-14T03:53:00Z,45.25,-112.55,-3.9,-12.8,270,14,,10.0,30.230314,1025.4,,TRUE,TRUE,,,,,,,CLR,,,,,,,,VFR,,,,,,,,,,,,METAR,1586.0
KDKK 140353Z AUTO 19012KT 10SM CLR 04/M02 A2976 RMK AO2 SLP084 T00441017,KDKK,2021-01-14T03:53:00Z,42.5,-79.28,4.4,-1.7,190,12,,10.0,29.760826,1008.4,,TRUE,TRUE,,,,,,,CLR,,,,,,,,VFR,,,,,,,,,,,,METAR,205.0
KDHT 140353Z AUTO 27009KT 10SM CLR 07/00 A2985 RMK AO2 SLP099 T00670000,KDHT,2021-01-14T03:53:00Z,36.02,-102.55,6.7,0.0,270,9,,10.0,29.84941,1009.9,,TRUE,TRUE,,,,,,,CLR,,,,,,,,VFR,,,,,,,,,,,,METAR,1217.0
KDHN 140353Z AUTO 00000KT 10SM CLR 04/01 A3009 RMK AO2 SLP190 T00390006 $,KDHN,2021-01-14T03:53:00Z,31.32,-85.45,3.9,0.6,0,0,,10.0,30.088583,1019.0,,TRUE,TRUE,TRUE,,,,,,CLR,,,,,,,,VFR,,,,,,,,,,,,METAR,113.0
KDGW 140353Z AUTO 30019G26KT 10SM CLR 01/M04 A2988 RMK AO2 PK WND 28027/0330 SLP120 T00061039,KDGW,2021-01-14T03:53:00Z,42.8,-105.38,0.6,-3.9,300,19,26,10.0,29.878937,1012.0,,TRUE,TRUE,,,,,,,CLR,,,,,,,,VFR,,,,,,,,,,,,METAR,1503.0
KDFW 140353Z 18010KT 10SM CLR 08/03 A2989 RMK AO2 SLP122 T00830033,KDFW,2021-01-14T03:53:00Z,32.9,-97.02,8.3,3.3,180,10,,10.0,29.890747,1012.2,,,TRUE,,,,,,,CLR,,,,,,,,VFR,,,,,,,,,,,,METAR,168.0
KDFI 140353Z AUTO 20008KT 10SM OVC085 05/M01 A2977 RMK AO2 SLP086 T00501011,KDFI,2021-01-14T03:53:00Z,41.33,-84.43,5.0,-1.1,200,8,,10.0,29.769686,1008.6,,TRUE,TRUE,,,,,,,OVC,8500,,,,,,,VFR,,,,,,,,,,,,METAR,215.0
KDEW 140353Z AUTO 25009KT 10SM CLR 01/M06 A3037 RMK AO2 SLP302 T00111061,KDEW,2021-01-14T03:53:00Z,47.97,-117.43,1.1,-6.1,250,9,,10.0,30.369095,1030.2,,TRUE,TRUE,,,,,,,CLR,,,,,,,,VFR,,,,,,,,,,,,METAR,672.0
KDET 140353Z 25010KT 10SM FEW120 04/M01 A2973 RMK AO2 SLP073 T00441006,KDET,2021-01-14T03:53:00Z,42.4,-83.02,4.4,-0.6,250,10,,10.0,29.731298,1007.3,,,TRUE,,,,,,,FEW,12000,,,,,,,VFR,,,,,,,,,,,,METAR,190.0
KDEQ 140353Z AUTO 00000KT 10SM CLR 00/M01 A2992 RMK AO2 SLP133 T00001006,KDEQ,2021-01-14T03:53:00Z,34.05,-94.4,0.0,-0.6,0,0,,10.0,29.920275,1013.3,,TRUE,TRUE,,,,,,,CLR,,,,,,,,VFR,,,,,,,,,,,,METAR,107.0
KDCU 140353Z AUTO 20004KT 7SM OVC005 01/M01 A3003 RMK AO2 SLP172 T00061006,KDCU,2021-01-14T03:53:00Z,34.65,-86.95,0.6,-0.6,200,4,,7.0,30.029528,1017.2,,TRUE,TRUE,,,,,,,OVC,500,,,,,,,IFR,,,,,,,,,,,,METAR,180.0
KDBQ 140353Z AUTO 17006KT 7SM CLR M03/M04 A2961 RMK AO2 SLP039 T10281044,KDBQ,2021-01-14T03:53:00Z,42.4,-90.7,-2.8,-4.4,170,6,,7.0,29.610237,1003.9,,TRUE,TRUE,,,,,,,CLR,,,,,,,,VFR,,,,,,,,,,,,METAR,317.0
KDAN 140353Z AUTO 21003KT 10SM CLR 01/M02 A2991 RMK AO2 SLP125 T00061022,KDAN,2021-01-14T03:53:00Z,36.57,-79.33,0.6,-2.2,210,3,,10.0,29.911417,1012.5,,TRUE,TRUE,,,,,,,CLR,,,,,,,,VFR,,,,,,,,,,,,METAR,170.0
KDAL 140353Z 18009G16KT 10SM FEW250 11/03 A2992 RMK AO2 SLP129 T01110028,KDAL,2021-01-14T03:53:00Z,32.85,-96.85,11.1,2.8,180,9,16,10.0,29.920275,1012.9,,,TRUE,,,,,,,FEW,25000,,,,,,,VFR,,,,,,,,,,,,METAR,148.0
KDAB 140353Z 27006KT 10SM FEW009 BKN120 OVC150 09/09 A3007 RMK AO2 SLP183 T00940094,KDAB,2021-01-14T03:53:00Z,29.18,-81.07,9.4,9.4,270,6,,10.0,30.070866,1018.3,,,TRUE,,,,,,,FEW,900,BKN,12000,OVC,15000,,,VFR,,,,,,,,,,,,METAR,8.0
KCYS 140353Z 28046G64KT 10SM -RA BKN043 OVC065 06/M04 A2986 RMK AO2 PK WND 27077/0303 RAB28 SLP086 P0000 T00611044 $,KCYS,2021-01-14T03:53:00Z,41.15,-104.8,6.1,-4.4,280,46,64,10.0,29.861221,1008.6,,,TRUE,TRUE,,,,,-RA,BKN,4300,OVC,6500,,,,,VFR,,,,,,0.005,,,,,,METAR,1868.0
KCXO 140353Z AUTO 00000KT 10SM CLR 04/02 A3006 RMK AO2 SLP177 T00390017,KCXO,2021-01-14T03:53:00Z,30.35,-95.42,3.9,1.7,0,0,,10.0,30.059055,1017.7,,TRUE,TRUE,,,,,,,CLR,,,,,,,,VFR,,,,,,,,,,,,METAR,69.0
KCUT 140353Z AUTO 30016G33KT 10SM FEW110 00/M12 A2968 RMK AO2 PK WND 32035/0332 PRESRR SLP057 T00001122,KCUT,2021-01-14T03:53:00Z,43.73,-103.62,0.0,-12.2,300,16,33,10.0,29.681103,1005.7,,TRUE,TRUE,,,,,,,FEW,11000,,,,,,,VFR,,,,,,,,,,,,METAR,1700.0
KCSV 140353Z AUTO 21003KT 10SM CLR M02/M04 A2993 RMK AO2 SLP147 T10171039,KCSV,2021-01-14T03:53:00Z,35.95,-85.08,-1.7,-3.9,210,3,,10.0,29.929134,1014.7,,TRUE,TRUE,,,,,,,CLR,,,,,,,,VFR,,,,,,,,,,,,METAR,569.0
KCSM 140353Z 23010KT 10SM CLR 04/M01 A2980 RMK AO2 SLP097 T00441011,KCSM,2021-01-14T03:53:00Z,35.35,-99.2,4.4,-1.1,230,10,,10.0,29.799213,1009.7,,,TRUE,,,,,,,CLR,,,,,,,,VFR,,,,,,,,,,,,METAR,586.0
KCRS 140353Z AUTO 18011KT 10SM CLR 09/02 A2997 RMK AO2 SLP149 T00890022,KCRS,2021-01-14T03:53:00Z,32.03,-96.4,8.9,2.2,180,11,,10.0,29.970472,1014.9,,TRUE,TRUE,,,,,,,CLR,,,,,,,,VFR,,,,,,,,,,,,METAR,136.0
KCRQ 140353Z 00000KT 10SM CLR 13/07 A3015 RMK AO2 SLP209 T01330072,KCRQ,2021-01-14T03:53:00Z,33.13,-117.28,13.3,7.2,0,0,,10.0,30.15059,1020.9,,,TRUE,,,,,,,CLR,,,,,,,,VFR,,,,,,,,,,,,METAR,96.0
KCRE 140353Z AUTO 27003KT 10SM -RA FEW065 BKN075 OVC090 08/07 A2996 RMK AO1 RAB14E27B50 SLP147 P0000 T00780067,KCRE,2021-01-14T03:53:00Z,33.82,-78.72,7.8,6.7,270,3,,10.0,29.958662,1014.7,,TRUE,TRUE,,,,,,-RA,FEW,6500,BKN,7500,OVC,9000,,,VFR,,,,,,0.005,,,,,,METAR,9.0
KCQC 140353Z AUTO 28020KT 10SM CLR 02/M11 A3009 RMK AO2 PK WND 29035/0309 SLP194 T00171106,KCQC,2021-01-14T03:53:00Z,35.0,-105.67,1.7,-10.6,280,20,,10.0,30.088583,1019.4,,TRUE,TRUE,,,,,,,CLR,,,,,,,,VFR,,,,,,,,,,,,METAR,2163.0
KCPS 140353Z AUTO 15004KT 10SM CLR 02/M02 A2976 RMK AO2 SLP080 T00221022,KCPS,2021-01-14T03:53:00Z,38.53,-90.15,2.2,-2.2,150,4,,10.0,29.760826,1008.0,,TRUE,TRUE,,,,,,,CLR,,,,,,,,VFR,,,,,,,,,,,,METAR,125.0
KCPR 140353Z 29020G28KT 10SM CLR M01/M11 A2991 RMK AO2 PK WND 30030/0336 SLP138 T10061106,KCPR,2021-01-14T03:53:00Z,42.9,-106.47,-0.6,-10.6,290,20,28,10.0,29.911417,1013.8,,,TRUE,,,,,,,CLR,,,,,,,,VFR,,,,,,,,,,,,METAR,1623.0
KCOT 140353Z AUTO 19006KT 10SM CLR 12/02 A3005 RMK AO2 SLP172 T01170017,KCOT,2021-01-14T03:53:00Z,28.45,-99.22,11.7,1.7,190,6,,10.0,30.050198,1017.2,,TRUE,TRUE,,,,,,,CLR,,,,,,,,VFR,,,,,,,,,,,,METAR,144.0
KCNY 140353Z AUTO 04004KT 10SM CLR M11/M13 A3028 RMK AO2 SLP315 T11061133,KCNY,2021-01-14T03:53:00Z,38.77,-109.75,-10.6,-13.3,40,4,,10.0,30.280512,1031.5,,TRUE,TRUE,,,,,,,CLR,,,,,,,,VFR,,,,,,,,,,,,METAR,1392.0
KCNO 140353Z AUTO 34003KT 6SM HZ CLR 13/04 A3018 RMK AO2 SLP220 T01280039,KCNO,2021-01-14T03:53:00Z,33.98,-117.62,12.8,3.9,340,3,,6.0,30.180119,1022.0,,TRUE,TRUE,,,,,,HZ,CLR,,,,,,,,VFR,,,,,,,,,,,,METAR,191.0
KCNM 140353Z AUTO 26018G25KT 10SM CLR 13/M11 A2992 RMK AO2 PK WND 25027/0310 SLP118 T01281106,KCNM,2021-01-14T03:53:00Z,32.33,-104.25,12.8,-10.6,260,18,25,10.0,29.920275,1011.8,,TRUE,TRUE,,,,,,,CLR,,,,,,,,VFR,,,,,,,,,,,,METAR,993.0
KCMI 140353Z AUTO 20011KT 10SM FEW120 03/M01 A2975 RMK AO2 SLP079 T00281006,KCMI,2021-01-14T03:53:00Z,40.03,-88.27,2.8,-0.6,200,11,,10.0,29.749016,1007.9,,TRUE,TRUE,,,,,,,FEW,12000,,,,,,,VFR,,,,,,,,,,,,METAR,227.0
KCLM 140353Z AUTO 24005KT 9SM CLR 03/01 A3050 RMK AO2 SLP332 T00330011,KCLM,2021-01-14T03:53:00Z,48.12,-123.5,3.3,1.1,240,5,,9.0,30.499016,1033.2,,TRUE,TRUE,,,,,,,CLR,,,,,,,,VFR,,,,,,,,,,,,METAR,81.0
KCLL 140353Z 17010KT 10SM CLR 09/04 A3002 RMK AO2 SLP163 T00890039,KCLL,2021-01-14T03:53:00Z,30.58,-96.37,8.9,3.9,170,10,,10.0,30.02067,1016.3,,,TRUE,,,,,,,CLR,,,,,,,,VFR,,,,,,,,,,,,METAR,96.0
KCKB 140353Z 00000KT 10SM FEW120 M01/M04 A2987 RMK AO2 SLP119 T10061039,KCKB,2021-01-14T03:53:00Z,39.3,-80.22,-0.6,-3.9,0,0,,10.0,29.870079,1011.9,,,TRUE,,,,,,,FEW,12000,,,,,,,VFR,,,,,,,,,,,,METAR,368.0
KCHO 140353Z 00000KT 10SM CLR 04/M07 A2986 RMK AO2 SLP111 T00391067,KCHO,2021-01-14T03:53:00Z,38.13,-78.45,3.9,-6.7,0,0,,10.0,29.861221,1011.1,,,TRUE,,,,,,,CLR,,,,,,,,VFR,,,,,,,,,,,,METAR,193.0
KCHA 140353Z 18004KT 8SM CLR 01/M01 A3000 RMK AO2 SLP160 T00111006,KCHA,2021-01-14T03:53:00Z,35.03,-85.2,1.1,-0.6,180,4,,8.0,30.0,1016.0,,,TRUE,,,,,,,CLR,,,,,,,,VFR,,,,,,,,,,,,METAR,203.0
KCGI 140353Z AUTO 20009KT 10SM CLR 05/00 A2984 RMK AO2 SLP105 T00500000,KCGI,2021-01-14T03:53:00Z,37.23,-89.58,5.0,0.0,200,9,,10.0,29.840551,1010.5,,TRUE,TRUE,,,,,,,CLR,,,,,,,,VFR,,,,,,,,,,,,METAR,103.0
KCEZ 140353Z AUTO 06008KT 10SM CLR M04/M09 A3025 RMK AO2 SLP267 T10441089,KCEZ,2021-01-14T03:53:00Z,37.3,-108.63,-4.4,-8.9,60,8,,10.0,30.250984,1026.7,,TRUE,TRUE,,,,,,,CLR,,,,,,,,VFR,,,,,,,,,,,,METAR,1801.0
KCEW 140353Z AUTO 00000KT 9SM CLR 01/M01 A3010 RMK AO2 SLP194 T00061006,KCEW,2021-01-14T03:53:00Z,30.78,-86.52,0.6,-0.6,0,0,,9.0,30.100393,1019.4,,TRUE,TRUE,,,,,,,CLR,,,,,,,,VFR,,,,,,,,,,,,METAR,47.0
KCDW 140353Z AUTO 00000KT 7SM BKN110 00/M03 A2992 RMK AO2 SLP138 T00001033,KCDW,2021-01-14T03:53:00Z,40.88,-74.28,0.0,-3.3,0,0,,7.0,29.920275,1013.8,,TRUE,TRUE,,,,,,,BKN,11000,,,,,,,VFR,,,,,,,,,,,,METAR,52.0
KCDS 140353Z AUTO 25006KT 10SM CLR 04/01 A2980 RMK AO2 SLP095 T00440006,KCDS,2021-01-14T03:53:00Z,34.43,-100.28,4.4,0.6,250,6,,10.0,29.799213,1009.5,,TRUE,TRUE,,,,,,,CLR,,,,,,,,VFR,,,,,,,,,,,,METAR,595.0
KCDR 140353Z AUTO 25006KT 10SM OVC095 02/M03 A2982 RMK AO2 PK WND 33049/0257 SLP118 T00221028 $,KCDR,2021-01-14T03:53:00Z,42.83,-103.1,2.2,-2.8,250,6,,10.0,29.819881,1011.8,,TRUE,TRUE,TRUE,,,,,,OVC,9500,,,,,,,VFR,,,,,,,,,,,,METAR,1002.0
KCDC 140353Z AUTO 19005KT 10SM CLR 04/M04 A3030 RMK AO2 SLP265 T00441044,KCDC,2021-01-14T03:53:00Z,37.7,-113.1,4.4,-4.4,190,5,,10.0,30.301182,1026.5,,TRUE,TRUE,,,,,,,CLR,,,,,,,,VFR,,,,,,,,,,,,METAR,1703.0
KCCR 140353Z 05007G17KT 7SM CLR 14/10 A3038 RMK AO2 SLP273 T01440100,KCCR,2021-01-14T03:53:00Z,38.0,-122.05,14.4,10.0,50,7,17,7.0,30.380905,1027.3,,,TRUE,,,,,,,CLR,,,,,,,,VFR,,,,,,,,,,,,METAR,6.0
KCAG 140353Z AUTO 26008KT 10SM OVC040 00/M05 A3015 RMK AO2 SLP253 T00001050,KCAG,2021-01-14T03:53:00Z,40.5,-107.52,0.0,-5.0,260,8,,10.0,30.15059,1025.3,,TRUE,TRUE,,,,,,,OVC,4000,,,,,,,VFR,,,,,,,,,,,,METAR,1888.0
KBYI 140353Z AUTO 27010G21KT 10SM CLR 02/M06 A3039 RMK AO2 PK WND 26027/0338 SLP294 T00221056,KBYI,2021-01-14T03:53:00Z,42.55,-113.77,2.2,-5.6,270,10,21,10.0,30.389763,1029.4,,TRUE,TRUE,,,,,,,CLR,,,,,,,,VFR,,,,,,,,,,,,METAR,1263.0
KBYG 140353Z AUTO 33026G36KT 10SM OVC080 02/M14 A2988 RMK AO2 PK WND 31055/0305 SLP116 T00221139,KBYG,2021-01-14T03:53:00Z,44.38,-106.72,2.2,-13.9,330,26,36,10.0,29.878937,1011.6,,TRUE,TRUE,,,,,,,OVC,8000,,,,,,,VFR,,,,,,,,,,,,METAR,1503.0
KBWG 140353Z AUTO 19003KT 10SM CLR 03/M02 A2991 RMK AO2 SLP130 T00331017,KBWG,2021-01-14T03:53:00Z,36.97,-86.42,3.3,-1.7,190,3,,10.0,29.911417,1013.0,,TRUE,TRUE,,,,,,,CLR,,,,,,,,VFR,,,,,,,,,,,,METAR,159.0
KBVY 140353Z AUTO 23007KT 10SM OVC037 03/M04 A2989 RMK AO2 SLP121 T00281044 PNO,KBVY,2021-01-14T03:53:00Z,42.58,-70.92,2.8,-4.4,230,7,,10.0,29.890747,1012.1,,TRUE,TRUE,,,,,,,OVC,3700,,,,,,,VFR,,,,,,,,,,,,METAR,28.0
KBVO 140353Z AUTO 21010KT 10SM CLR 09/M01 A2977 RMK AO2 SLP077 T00941011,KBVO,2021-01-14T03:53:00Z,36.77,-96.02,9.4,-1.1,210,10,,10.0,29.769686,1007.7,,TRUE,TRUE,,,,,,,CLR,,,,,,,,VFR,,,,,,,,,,,,METAR,210.0
KBUR 140353Z 00000KT 10SM CLR 16/M01 A3015 RMK AO2 SLP202 T01561011 $,KBUR,2021-01-14T03:53:00Z,34.2,-118.37,15.6,-1.1,0,0,,10.0,30.15059,1020.2,,,TRUE,TRUE,,,,,,CLR,,,,,,,,VFR,,,,,,,,,,,,METAR,221.0
KBTR 140353Z AUTO 23009KT 10SM CLR 07/03 A3010 RMK AO2 SLP192 T00720028,KBTR,2021-01-14T03:53:00Z,30.53,-91.15,7.2,2.8,230,9,,10.0,30.100393,1019.2,,TRUE,TRUE,,,,,,,CLR,,,,,,,,VFR,,,,,,,,,,,,METAR,20.0
KBTM 140353Z AUTO 30011KT 10SM CLR M03/M12 A3020 RMK AO2 PK WND 29029/0302 SLP239 T10281122,KBTM,2021-01-14T03:53:00Z,45.97,-112.5,-2.8,-12.2,300,11,,10.0,30.200787,1023.9,,TRUE,TRUE,,,,,,,CLR,,,,,,,,VFR,,,,,,,,,,,,METAR,1680.0
KBTL 140353Z 20006KT 9SM -RA OVC060 02/01 A2973 RMK AO2 SLP076 P0000 T00220006,KBTL,2021-01-14T03:53:00Z,42.32,-85.25,2.2,0.6,200,6,,9.0,29.731298,1007.6,,,TRUE,,,,,,-RA,OVC,6000,,,,,,,VFR,,,,,,0.005,,,,,,METAR,282.0
KBRO 140353Z 19003KT 10SM CLR 08/05 A3013 RMK AO2 SLP201 T00830050,KBRO,2021-01-14T03:53:00Z,25.92,-97.42,8.3,5.0,190,3,,10.0,30.129921,1020.1,,,TRUE,,,,,,,CLR,,,,,,,,VFR,,,,,,,,,,,,METAR,6.0
KBRL 140353Z AUTO 18005KT 10SM CLR 02/M02 A2964 RMK AO2 SLP043 T00221017,KBRL,2021-01-14T03:53:00Z,40.77,-91.13,2.2,-1.7,180,5,,10.0,29.639763,1004.3,,TRUE,TRUE,,,,,,,CLR,,,,,,,,VFR,,,,,,,,,,,,METAR,208.0
KBRD 140353Z AUTO 13007KT 9SM CLR 00/M03 A2948 RMK AO2 SLP000 T00001028,KBRD,2021-01-14T03:53:00Z,46.4,-94.13,0.0,-2.8,130,7,,9.0,29.480314,1000.0,,TRUE,TRUE,,,,,,,CLR,,,,,,,,VFR,,,,,,,,,,,,METAR,372.0
KBPT 140353Z AUTO 19004KT 10SM CLR 06/04 A3008 RMK AO2 SLP184 T00610039,KBPT,2021-01-14T03:53:00Z,29.95,-94.03,6.1,3.9,190,4,,10.0,30.079725,1018.4,,TRUE,TRUE,,,,,,,CLR,,,,,,,,VFR,,,,,,,,,,,,METAR,6.0
KBPK 140353Z AUTO 22005KT 10SM CLR 04/M03 A2978 RMK AO2 SLP088 T00441028,KBPK,2021-01-14T03:53:00Z,36.37,-92.47,4.4,-2.8,220,5,,10.0,29.778543,1008.8,,TRUE,TRUE,,,,,,,CLR,,,,,,,,VFR,,,,,,,,,,,,METAR,279.0
KBPI 140353Z AUTO 34016G21KT 10SM SCT048 M04/M10 A3017 RMK AO2 PK WND 35028/0339 SLP246 T10441100,KBPI,2021-01-14T03:53:00Z,42.58,-110.1,-4.4,-10.0,340,16,21,10.0,30.171259,1024.6,,TRUE,TRUE,,,,,,,SCT,4800,,,,,,,VFR,,,,,,,,,,,,METAR,2120.0
KBOI 140353Z 00000KT 10SM CLR 02/M03 A3047 RMK AO2 SLP328 T00171028,KBOI,2021-01-14T03:53:00Z,43.57,-116.23,1.7,-2.8,0,0,,10.0,30.469488,1032.8,,,TRUE,,,,,,,CLR,,,,,,,,VFR,,,,,,,,,,,,METAR,860.0
KBNO 140353Z AUTO 34005KT 10SM CLR M02/M06 A3048 RMK AO2 SLP345 T10221061,KBNO,2021-01-14T03:53:00Z,43.6,-118.95,-2.2,-6.1,340,5,,10.0,30.481298,1034.5,,TRUE,TRUE,,,,,,,CLR,,,,,,,,VFR,,,,,,,,,,,,METAR,1263.0
KBNA 140353Z 18007KT 10SM SCT250 01/M03 A2994 RMK AO2 SLP141 T00061033,KBNA,2021-01-14T03:53:00Z,36.12,-86.68,0.6,-3.3,180,7,,10.0,29.940945,1014.1,,,TRUE,,,,,,,SCT,25000,,,,,,,VFR,,,,,,,,,,,,METAR,168.0
KBMG 140353Z AUTO 22010G17KT 10SM CLR 06/M02 A2982 RMK AO2 SLP100 T00561022,KBMG,2021-01-14T03:53:00Z,39.15,-86.62,5.6,-2.2,220,10,17,10.0,29.819881,1010.0,,TRUE,TRUE,,,,,,,CLR,,,,,,,,VFR,,,,,,,,,,,,METAR,254.0
KBLI 140353Z 18003KT 10SM BKN070 06/03 A3051 RMK AO2 SLP341 T00610033,KBLI,2021-01-14T03:53:00Z,48.8,-122.53,6.1,3.3,180,3,,10.0,30.510826,1034.1,,,TRUE,,,,,,,BKN,7000,,,,,,,VFR,,,,,,,,,,,,METAR,46.0
KBKV 140353Z AUTO 00000KT 10SM FEW036 11/08 A3011 RMK AO2 SLP194 T01060083,KBKV,2021-01-14T03:53:00Z,28.47,-82.45,10.6,8.3,0,0,,10.0,30.109253,1019.4,,TRUE,TRUE,,,,,,,FEW,3600,,,,,,,VFR,,,,,,,,,,,,METAR,21.0
KBKL 140353Z 19012KT 10SM OVC100 07/M01 A2977 RMK AO2 SLP086 T00671011,KBKL,2021-01-14T03:53:00Z,41.53,-81.67,6.7,-1.1,190,12,,10.0,29.769686,1008.6,,,TRUE,,,,,,,OVC,10000,,,,,,,VFR,,,,,,,,,,,,METAR,177.0
KBKE 140353Z AUTO 22005KT 10SM CLR M02/M06 A3047 RMK AO2 SLP340 T10171056,KBKE,2021-01-14T03:53:00Z,44.85,-117.82,-1.7,-5.6,220,5,,10.0,30.469488,1034.0,,TRUE,TRUE,,,,,,,CLR,,,,,,,,VFR,,,,,,,,,,,,METAR,1025.0
KBIV 140353Z AUTO 23007KT 9SM OVC065 03/00 A2972 RMK AO2 SLP068 T00330000,KBIV,2021-01-14T03:53:00Z,42.75,-86.1,3.3,0.0,230,7,,9.0,29.719488,1006.8,,TRUE,TRUE,,,,,,,OVC,6500,,,,,,,VFR,,,,,,,,,,,,METAR,207.0
KBIL 140353Z 33019G26KT 10SM SCT065 01/M07 A3002 RMK AO2 PK WND 33039/0319 SLP179 T00061067,KBIL,2021-01-14T03:53:00Z,45.8,-108.55,0.6,-6.7,330,19,26,10.0,30.02067,1017.9,,,TRUE,,,,,,,SCT,6500,,,,,,,VFR,,,,,,,,,,,,METAR,1089.0
KBHM 140353Z 00000KT 6SM BR CLR M01/M03 A3006 RMK AO2 SLP182 T10111028,KBHM,2021-01-14T03:53:00Z,33.57,-86.75,-1.1,-2.8,0,0,,6.0,30.059055,1018.2,,,TRUE,,,,,,BR,CLR,,,,,,,,VFR,,,,,,,,,,,,METAR,191.0
KBGR 140353Z 16004KT 10SM OVC048 00/M06 A2988 RMK AO2 SLP121 T00001061,KBGR,2021-01-14T03:53:00Z,44.8,-68.82,0.0,-6.1,160,4,,10.0,29.878937,1012.1,,,TRUE,,,,,,,OVC,4800,,,,,,,VFR,,,,,,,,,,,,METAR,45.0
KBGM 140353Z AUTO 19005KT 7SM CLR M01/M04 A2978 RMK AO2 SLP103 T10111044,KBGM,2021-01-14T03:53:00Z,42.22,-75.98,-1.1,-4.4,190,5,,7.0,29.778543,1010.3,,TRUE,TRUE,,,,,,,CLR,,,,,,,,VFR,,,,,,,,,,,,METAR,485.0
KBFM 140353Z AUTO 26003KT 10SM CLR 04/02 A3012 RMK AO2 SLP199 T00390017,KBFM,2021-01-14T03:53:00Z,30.62,-88.07,3.9,1.7,260,3,,10.0,30.121063,1019.9,,TRUE,TRUE,,,,,,,CLR,,,,,,,,VFR,,,,,,,,,,,,METAR,7.0
KBFI 140353Z 12003KT 10SM CLR 06/02 A3052 RMK AO2 SLP335 T00610022,KBFI,2021-01-14T03:53:00Z,47.55,-122.32,6.1,2.2,120,3,,10.0,30.519686,1033.5,,,TRUE,,,,,,,CLR,,,,,,,,VFR,,,,,,,,,,,,METAR,7.0
KBFD 140353Z AUTO VRB05KT 10SM OVC100 03/M04 A2976 RMK AO2 SLP092 T00281039,KBFD,2021-01-14T03:53:00Z,41.8,-78.63,2.8,-3.9,0,5,,10.0,29.760826,1009.2,,TRUE,TRUE,,,,,,,OVC,10000,,,,,,,VFR,,,,,,,,,,,,METAR,642.0
KBEH 140353Z AUTO 19004KT 10SM OVC090 03/00 A2973 RMK AO2 SLP073 T00330000 $,KBEH,2021-01-14T03:53:00Z,42.13,-86.42,3.3,0.0,190,4,,10.0,29.731298,1007.3,,TRUE,TRUE,TRUE,,,,,,OVC,9000,,,,,,,VFR,,,,,,,,,,,,METAR,196.0
KBDE 140353Z AUTO 13008KT 10SM CLR M03/M07 A2942 RMK AO2 SLP981 T10281067,KBDE,2021-01-14T03:53:00Z,48.73,-94.62,-2.8,-6.7,130,8,,10.0,29.421259,998.1,,TRUE,TRUE,,,,,,,CLR,,,,,,,,VFR,,,,,,,,,,,,METAR,330.0
KBCE 140353Z AUTO 31010KT 10SM CLR 03/M04 A3032 RMK AO2 SLP244 T00281044,KBCE,2021-01-14T03:53:00Z,37.7,-112.15,2.8,-4.4,310,10,,10.0,30.318897,1024.4,,TRUE,TRUE,,,,,,,CLR,,,,,,,,VFR,,,,,,,,,,,,METAR,2311.0
KBBW 140353Z AUTO 24005KT 10SM OVC110 08/01 A2955 RMK AO2 SLP009 T00780011,KBBW,2021-01-14T03:53:00Z,41.43,-99.63,7.8,1.1,240,5,,10.0,29.551182,1000.9,,TRUE,TRUE,,,,,,,OVC,11000,,,,,,,VFR,,,,,,,,,,,,METAR,771.0
KBAF 140353Z AUTO 00000KT 10SM CLR 01/M04 A2987 RMK AO2 SLP122 T00061044,KBAF,2021-01-14T03:53:00Z,42.17,-72.72,0.6,-4.4,0,0,,10.0,29.870079,1012.2,,TRUE,TRUE,,,,,,,CLR,,,,,,,,VFR,,,,,,,,,,,,METAR,80.0
KAZO 140353Z 17004KT 9SM OVC080 03/M01 A2974 RMK AO2 RAE01 SLP077 P0000 T00281006,KAZO,2021-01-14T03:53:00Z,42.23,-85.55,2.8,-0.6,170,4,,9.0,29.740158,1007.7,,,TRUE,,,,,,,OVC,8000,,,,,,,VFR,,,,,,0.005,,,,,,METAR,264.0
KAXN 140353Z AUTO 15005KT 10SM CLR 01/M02 A2945 RMK AO2 SLP988 T00061017,KAXN,2021-01-14T03:53:00Z,45.87,-95.4,0.6,-1.7,150,5,,10.0,29.450787,998.8,,TRUE,TRUE,,,,,,,CLR,,,,,,,,VFR,,,,,,,,,,,,METAR,433.0
KAWM 140353Z AUTO 19012KT 10SM CLR 07/03 A2991 RMK AO2 SLP130 T00670028,KAWM,2021-01-14T03:53:00Z,35.13,-90.23,6.7,2.8,190,12,,10.0,29.911417,1013.0,,TRUE,TRUE,,,,,,,CLR,,,,,,,,VFR,,,,,,,,,,,,METAR,64.0
KAUS 140353Z 21004KT 10SM CLR 07/01 A3000 RMK AO2 SLP164 T00670011 $,KAUS,2021-01-14T03:53:00Z,30.18,-97.68,6.7,1.1,210,4,,10.0,30.0,1016.4,,,TRUE,TRUE,,,,,,CLR,,,,,,,,VFR,,,,,,,,,,,,METAR,148.0
KAUG 140353Z AUTO 16004KT 10SM OVC045 M01/M05 A2986 RMK AO2 SLP117 T10061050,KAUG,2021-01-14T03:53:00Z,44.32,-69.8,-0.6,-5.0,160,4,,10.0,29.861221,1011.7,,TRUE,TRUE,,,,,,,OVC,4500,,,,,,,VFR,,,,,,,,,,,,METAR,107.0
KATY 140353Z AUTO 21007KT 7SM -RA OVC050 02/01 A2945 RMK AO2 UPB17E30RAB30 SLP984 P0001 T00220011,KATY,2021-01-14T03:53:00Z,44.9,-97.15,2.2,1.1,210,7,,7.0,29.450787,998.4,,TRUE,TRUE,,,,,,-RA,OVC,5000,,,,,,,VFR,,,,,,0.01,,,,,,METAR,531.0
KASE 140353Z AUTO 01004KT 10SM OVC060 M01/M09 A3014 RMK AO2 SLP205 T10061089,KASE,2021-01-14T03:53:00Z,39.23,-106.87,-0.6,-8.9,10,4,,10.0,30.138779,1020.5,,TRUE,TRUE,,,,,,,OVC,6000,,,,,,,VFR,,,,,,,,,,,,METAR,2384.0
KASD 140353Z AUTO 00000KT 10SM CLR 04/02 A3010 RMK AO2 SLP191 T00390022,KASD,2021-01-14T03:53:00Z,30.35,-89.82,3.9,2.2,0,0,,10.0,30.100393,1019.1,,TRUE,TRUE,,,,,,,CLR,,,,,,,,VFR,,,,,,,,,,,,METAR,8.0
KARB 140353Z AUTO 27005KT 7SM OVC110 03/M01 A2973 RMK AO2 SLP074 T00281006 $,KARB,2021-01-14T03:53:00Z,42.22,-83.73,2.8,-0.6,270,5,,7.0,29.731298,1007.4,,TRUE,TRUE,TRUE,,,,,,OVC,11000,,,,,,,VFR,,,,,,,,,,,,METAR,251.0
KARA 140353Z AUTO 00000KT 10SM CLR 04/03 A3011 RMK AO2 SLP195 T00390028,KARA,2021-01-14T03:53:00Z,30.03,-91.88,3.9,2.8,0,0,,10.0,30.109253,1019.5,,TRUE,TRUE,,,,,,,CLR,,,,,,,,VFR,,,,,,,,,,,,METAR,5.0
KAPF 140353Z AUTO 07003KT 7SM OVC050 14/13 A3006 RMK AO2 RAB15E24 SLP176 P0000 T01440133,KAPF,2021-01-14T03:53:00Z,26.15,-81.77,14.4,13.3,70,3,,7.0,30.059055,1017.6,,TRUE,TRUE,,,,,,,OVC,5000,,,,,,,VFR,,,,,,0.005,,,,,,METAR,2.0
KAPA 140353Z 18008KT 10SM FEW070 FEW220 04/M06 A2983 RMK AO2 SLP095 T00441056,KAPA,2021-01-14T03:53:00Z,39.57,-104.85,4.4,-5.6,180,8,,10.0,29.828741,1009.5,,,TRUE,,,,,,,FEW,7000,FEW,22000,,,,,VFR,,,,,,,,,,,,METAR,1791.0
KAOO 140353Z AUTO 24006KT 10SM SCT110 03/M04 A2983 RMK AO2 SLP114 T00281039,KAOO,2021-01-14T03:53:00Z,40.3,-78.32,2.8,-3.9,240,6,,10.0,29.828741,1011.4,,TRUE,TRUE,,,,,,,SCT,11000,,,,,,,VFR,,,,,,,,,,,,METAR,450.0
KAOH 140353Z AUTO 21008KT 10SM OVC095 04/M02 A2979 RMK AO2 SLP092 T00391017,KAOH,2021-01-14T03:53:00Z,40.7,-84.02,3.9,-1.7,210,8,,10.0,29.790354,1009.2,,TRUE,TRUE,,,,,,,OVC,9500,,,,,,,VFR,,,,,,,,,,,,METAR,294.0
KANB 140353Z AUTO 22003KT 10SM CLR 01/M02 A3005 RMK AO2 SLP185 T00061017,KANB,2021-01-14T03:53:00Z,33.58,-85.85,0.6,-1.7,220,3,,10.0,30.050198,1018.5,,TRUE,TRUE,,,,,,,CLR,,,,,,,,VFR,,,,,,,,,,,,METAR,187.0
KAMG 140353Z AUTO 22003KT 8SM CLR 04/03 A3005 RMK AO2 SLP175 T00440028,KAMG,2021-01-14T03:53:00Z,31.53,-82.5,4.4,2.8,220,3,,8.0,30.050198,1017.5,,TRUE,TRUE,,,,,,,CLR,,,,,,,,VFR,,,,,,,,,,,,METAR,61.0
KAMA 140353Z 21009KT 10SM CLR 07/M06 A2981 RMK AO2 SLP089 T00721056,KAMA,2021-01-14T03:53:00Z,35.22,-101.72,7.2,-5.6,210,9,,10.0,29.811024,1008.9,,,TRUE,,,,,,,CLR,,,,,,,,VFR,,,,,,,,,,,,METAR,1102.0
KALW 140353Z AUTO 16011KT 10SM CLR 05/M01 A3050 RMK AO2 SLP334 T00501006,KALW,2021-01-14T03:53:00Z,46.1,-118.28,5.0,-0.6,160,11,,10.0,30.499016,1033.4,,TRUE,TRUE,,,,,,,CLR,,,,,,,,VFR,,,,,,,,,,,,METAR,355.0
KAKO 140353Z AUTO 27012KT 10SM CLR 02/M03 A2975 RMK AO2 SLP077 T00221033,KAKO,2021-01-14T03:53:00Z,40.17,-103.22,2.2,-3.3,270,12,,10.0,29.749016,1007.7,,TRUE,TRUE,,,,,,,CLR,,,,,,,,VFR,,,,,,,,,,,,METAR,1431.0
KAIA 140353Z AUTO 33028G41KT 10SM BKN055 02/M02 A2981 RMK AO2 PK WND 32067/0300 WSHFT 0252 RAB02RAEMMB06E10SNB10E34 SLP104 T00171022 PNO $,KAIA,2021-01-14T03:53:00Z,42.05,-102.8,1.7,-2.2,330,28,41,10.0,29.811024,1010.4,,TRUE,TRUE,TRUE,,,,,,BKN,5500,,,,,,,VFR,,,,,,,,,,,,METAR,1198.0
KAGC 140353Z 21006KT 10SM OVC110 03/M03 A2983 RMK AO2 SLP116 T00331028,KAGC,2021-01-14T03:53:00Z,40.35,-79.92,3.3,-2.8,210,6,,10.0,29.828741,1011.6,,,TRUE,,,,,,,OVC,11000,,,,,,,VFR,,,,,,,,,,,,METAR,380.0
KAFW 140353Z 17009KT 10SM FEW250 07/00 A2988 RMK AO2 SLP123 T00670000,KAFW,2021-01-14T03:53:00Z,32.97,-97.32,6.7,0.0,170,9,,10.0,29.878937,1012.3,,,TRUE,,,,,,,FEW,25000,,,,,,,VFR,,,,,,,,,,,,METAR,208.0
KAEX 140353Z 20008KT 10SM CLR 06/02 A3005 RMK AO2 SLP179 T00610022,KAEX,2021-01-14T03:53:00Z,31.33,-92.57,6.1,2.2,200,8,,10.0,30.050198,1017.9,,,TRUE,,,,,,,CLR,,,,,,,,VFR,,,,,,,,,,,,METAR,25.0
KADG 140353Z AUTO 26006KT 10SM OVC065 03/00 A2976 RMK AO2 SLP087 T00330000,KADG,2021-01-14T03:53:00Z,41.87,-84.08,3.3,0.0,260,6,,10.0,29.760826,1008.7,,TRUE,TRUE,,,,,,,OVC,6500,,,,,,,VFR,,,,,,,,,,,,METAR,244.0
KACK 140353Z AUTO 17010KT 10SM OVC034 05/01 A2992 RMK AO2 SLP131 T00500006,KACK,2021-01-14T03:53:00Z,41.25,-70.07,5.0,0.6,170,10,,10.0,29.920275,1013.1,,TRUE,TRUE,,,,,,,OVC,3400,,,,,,,VFR,,,,,,,,,,,,METAR,12.0
KABY 140353Z AUTO 00000KT 9SM CLR 02/01 A3008 RMK AO2 SLP188 T00220011,KABY,2021-01-14T03:53:00Z,31.53,-84.2,2.2,1.1,0,0,,9.0,30.079725,1018.8,,TRUE,TRUE,,,,,,,CLR,,,,,,,,VFR,,,,,,,,,,,,METAR,60.0
KABR 140353Z AUTO 25009KT 8SM -RA BKN045 OVC055 04/02 A2948 RMK AO2 UPB24E25 SLP994 P0002 T00390017,KABR,2021-01-14T03:53:00Z,45.45,-98.42,3.9,1.7,250,9,,8.0,29.480314,999.4,,TRUE,TRUE,,,,,,-RA,BKN,4500,OVC,5500,,,,,VFR,,,,,,0.02,,,,,,METAR,397.0
KAAF 140353Z AUTO 00000KT 10SM CLR 04/03 A3008 RMK AO2 SLP186 T00390033,KAAF,2021-01-14T03:53:00Z,29.73,-85.03,3.9,3.3,0,0,,10.0,30.079725,1018.6,,TRUE,TRUE,,,,,,,CLR,,,,,,,,VFR,,,,,,,,,,,,METAR,5.0
FACV 140353Z 01013KT CAVOK 25/15 Q1012,FACV,2021-01-14T03:53:00Z,-31.47,19.75,25.0,15.0,10,13,,6.21,29.88189,,,,,,,,,,,CAVOK,,,,,,,,VFR,,,,,,,,,,,,METAR,977.0
PATA 140352Z 09007KT 10SM CLR M13/M17 A2972 RMK AO2 SLP070 T11281172,PATA,2021-01-14T03:52:00Z,65.17,-152.1,-12.8,-17.2,90,7,,10.0,29.719488,1007.0,,,TRUE,,,,,,,CLR,,,,,,,,VFR,,,,,,,,,,,,METAR,62.0
PABA 140352Z AUTO 05009KT 10SM OVC008 M27/M29 A3009 RMK AO2 SLP198 T12671294 FZRANO,PABA,2021-01-14T03:52:00Z,70.13,-143.58,-26.7,-29.4,50,9,,10.0,30.088583,1019.8,,TRUE,TRUE,,,,TRUE,,,OVC,800,,,,,,,IFR,,,,,,,,,,,,METAR,1.0
OAKB 140352Z 23003KT 4000 2000SE-SW FU NSC 03/M09 Q1024 RMK A3024 GRN GRN,OAKB,2021-01-14T03:52:00Z,34.55,69.22,3.0,-9.0,230,3,,2.49,30.236221,,,,,,,,,,FU,CLR,,,,,,,,IFR,,,,,,,,,,,,METAR,1786.0
KVTN 140352Z AUTO 32032G51KT 6SM RA FEW018 OVC029 05/02 A2969 RMK AO2 PK WND 31061/0254 RAB0255 SLP063 P0008 T00500017,KVTN,2021-01-14T03:52:00Z,42.87,-100.55,5.0,1.7,320,32,51,6.0,29.68996,1006.3,,TRUE,TRUE,,,,,,RA,FEW,1800,OVC,2900,,,,,MVFR,,,,,,0.08,,,,,,METAR,790.0
KTRM 140352Z AUTO 00000KT 10SM CLR 11/M01 A3016 RMK AO2 SLP211 T01061011,KTRM,2021-01-14T03:52:00Z,33.63,-116.17,10.6,-1.1,0,0,,10.0,30.159449,1021.1,,TRUE,TRUE,,,,,,,CLR,,,,,,,,VFR,,,,,,,,,,,,METAR,-39.0
KTOL 140352Z 23009KT 10SM SCT060 OVC075 06/M01 A2976 RMK AO2 RAB39E49 SLP081 P0000 T00561006,KTOL,2021-01-14T03:52:00Z,41.58,-83.8,5.6,-0.6,230,9,,10.0,29.760826,1008.1,,,TRUE,,,,,,,SCT,6000,OVC,7500,,,,,VFR,,,,,,0.005,,,,,,METAR,206.0
KTAN 140352Z AUTO 14003KT 10SM OVC039 01/M03 A2991 RMK AO2 SLP127 T00111028,KTAN,2021-01-14T03:52:00Z,41.88,-71.02,1.1,-2.8,140,3,,10.0,29.911417,1012.7,,TRUE,TRUE,,,,,,,OVC,3900,,,,,,,VFR,,,,,,,,,,,,METAR,8.0
KSUX 140352Z AUTO 12005KT 10SM BKN110 02/00 A2952 RMK AO2 SLP004 T00220000,KSUX,2021-01-14T03:52:00Z,42.38,-96.38,2.2,0.0,120,5,,10.0,29.518702,1000.4,,TRUE,TRUE,,,,,,,BKN,11000,,,,,,,VFR,,,,,,,,,,,,METAR,332.0
KSPS 140352Z 18008KT 10SM CLR 07/M01 A2980 RMK AO2 SLP094 T00671006,KSPS,2021-01-14T03:52:00Z,33.98,-98.5,6.7,-0.6,180,8,,10.0,29.799213,1009.4,,,TRUE,,,,,,,CLR,,,,,,,,VFR,,,,,,,,,,,,METAR,310.0
KSPI 140352Z AUTO 18010KT 10SM CLR 03/M02 A2972 RMK AO2 SLP068 T00281017,KSPI,2021-01-14T03:52:00Z,39.85,-89.68,2.8,-1.7,180,10,,10.0,29.719488,1006.8,,TRUE,TRUE,,,,,,,CLR,,,,,,,,VFR,,,,,,,,,,,,METAR,179.0
KSGF 140352Z 18010KT 10SM CLR 04/M03 A2973 RMK AO2 SLP075 T00391033,KSGF,2021-01-14T03:52:00Z,37.23,-93.38,3.9,-3.3,180,10,,10.0,29.731298,1007.5,,,TRUE,,,,,,,CLR,,,,,,,,VFR,,,,,,,,,,,,METAR,387.0
KREO 140352Z AUTO 01008KT 03/M09 A3047 RMK AO1 SLP322 T00281094,KREO,2021-01-14T03:52:00Z,42.58,-117.87,2.8,-9.4,10,8,,,30.469488,1032.2,,TRUE,TRUE,,,,,,,,,,,,,,,,,,,,,,,,,,,METAR,1237.0
KRAP 140352Z 33032G44KT 10SM FEW120 05/M09 A2968 RMK AO2 PK WND 34044/0352 SLP060 T00501089,KRAP,2021-01-14T03:52:00Z,44.05,-103.05,5.0,-8.9,330,32,44,10.0,29.681103,1006.0,,,TRUE,,,,,,,FEW,12000,,,,,,,VFR,,,,,,,,,,,,METAR,965.0
KPYM 140352Z AUTO 00000KT 10SM OVC034 01/M03 A2990 RMK AO2 SLP127 T00111033,KPYM,2021-01-14T03:52:00Z,41.92,-70.73,1.1,-3.3,0,0,,10.0,29.899607,1012.7,,TRUE,TRUE,,,,,,,OVC,3400,,,,,,,VFR,,,,,,,,,,,,METAR,42.0
KPWK 140352Z 19005KT 9SM OVC110 03/00 A2970 RMK AO2 SLP061 T00280000,KPWK,2021-01-14T03:52:00Z,42.12,-87.9,2.8,0.0,190,5,,9.0,29.698818,1006.1,,,TRUE,,,,,,,OVC,11000,,,,,,,VFR,,,,,,,,,,,,METAR,194.0
KPSX 140352Z AUTO 21003KT 10SM CLR 09/07 A3008 RMK AO2 SLP184 T00940072,KPSX,2021-01-14T03:52:00Z,28.72,-96.25,9.4,7.2,210,3,,10.0,30.079725,1018.4,,TRUE,TRUE,,,,,,,CLR,,,,,,,,VFR,,,,,,,,,,,,METAR,4.0
KPPF 140352Z AUTO A2975 RMK AO2 SLPNO PWINO FZRANO TSNO $,KPPF,2021-01-14T03:52:00Z,37.33,-95.5,,,,,,,29.749016,,,TRUE,TRUE,TRUE,,TRUE,TRUE,TRUE,,,,,,,,,,,,,,,,,,,,,,METAR,265.0
KP69 140352Z AUTO 00000KT 02/00 A3046 RMK AO1 SLP335 T00170000 $,KP69,2021-01-14T03:52:00Z,46.15,-115.6,1.7,0.0,0,0,,,30.46063,1033.5,,TRUE,TRUE,TRUE,,,,,,,,,,,,,,,,,,,,,,,,,,METAR,447.0
KORE 140352Z AUTO 17003KT 10SM CLR M02/M04 A2987 RMK AO2 SLP122 T10171044,KORE,2021-01-14T03:52:00Z,42.57,-72.28,-1.7,-4.4,170,3,,10.0,29.870079,1012.2,,TRUE,TRUE,,,,,,,CLR,,,,,,,,VFR,,,,,,,,,,,,METAR,165.0
KOMA 140352Z 16007KT 10SM BKN150 OVC210 05/01 A2955 RMK AO2 SLP010 T00500011,KOMA,2021-01-14T03:52:00Z,41.32,-95.9,5.0,1.1,160,7,,10.0,29.551182,1001.0,,,TRUE,,,,,,,BKN,15000,OVC,21000,,,,,VFR,,,,,,,,,,,,METAR,299.0
KOKC 140352Z 19007KT 10SM FEW200 BKN250 04/M01 A2977 RMK AO2 SLP086 T00441011,KOKC,2021-01-14T03:52:00Z,35.38,-97.6,4.4,-1.1,190,7,,10.0,29.769686,1008.6,,,TRUE,,,,,,,FEW,20000,BKN,25000,,,,,VFR,,,,,,,,,,,,METAR,391.0
KOKB 140352Z AUTO 04004KT 9SM CLR 10/08 A3015 RMK AO2 SLP209 T01000083,KOKB,2021-01-14T03:52:00Z,33.22,-117.35,10.0,8.3,40,4,,9.0,30.15059,1020.9,,TRUE,TRUE,,,,,,,CLR,,,,,,,,VFR,,,,,,,,,,,,METAR,7.0
KNZY 140352Z 33005KT 10SM BKN250 15/11 A3016 RMK AO2 SLP211 T01500106,KNZY,2021-01-14T03:52:00Z,32.7,-117.22,15.0,10.6,330,5,,10.0,30.159449,1021.1,,,TRUE,,,,,,,BKN,25000,,,,,,,VFR,,,,,,,,,,,,METAR,4.0
KNTD 140352Z 34005KT 10SM SCT280 12/08 A3016 RMK AO2 SLP214 T01170083 VISNO N $,KNTD,2021-01-14T03:52:00Z,34.12,-119.12,11.7,8.3,340,5,,10.0,30.159449,1021.4,,,TRUE,TRUE,,,,,,SCT,28000,,,,,,,VFR,,,,,,,,,,,,METAR,1.0
KNHK 140352Z 18004KT 10SM CLR 06/M02 A2990 RMK AO2 SLP126 T00611017 $,KNHK,2021-01-14T03:52:00Z,38.28,-76.4,6.1,-1.7,180,4,,10.0,29.899607,1012.6,,,TRUE,TRUE,,,,,,CLR,,,,,,,,VFR,,,,,,,,,,,,SPECI,5.0
KNFW 140352Z 18006KT 10SM CLR 07/01 A2990 RMK AO2 SLP109 T00720011 $,KNFW,2021-01-14T03:52:00Z,32.78,-97.43,7.2,1.1,180,6,,10.0,29.899607,1010.9,,,TRUE,TRUE,,,,,,CLR,,,,,,,,VFR,,,,,,,,,,,,METAR,188.0
KN60 140352Z AUTO 29026G35KT 04/M03 A2945 RMK AO1 PK WND 29039/0341 SLP988 T00441028,KN60,2021-01-14T03:52:00Z,47.65,-101.43,4.4,-2.8,290,26,35,,29.450787,998.8,,TRUE,TRUE,,,,,,,,,,,,,,,,,,,,,,,,,,,METAR,582.0
KMWH 140352Z 27012KT 10SM CLR 05/M03 A3047 RMK AO2 SLP327 T00501033,KMWH,2021-01-14T03:52:00Z,47.2,-119.32,5.0,-3.3,270,12,,10.0,30.469488,1032.7,,,TRUE,,,,,,,CLR,,,,,,,,VFR,,,,,,,,,,,,METAR,355.0
KMLI 140352Z 00000KT 8SM CLR M02/M03 A2963 RMK AO2 SLP040 T10171033,KMLI,2021-01-14T03:52:00Z,41.45,-90.52,-1.7,-3.3,0,0,,8.0,29.630905,1004.0,,,TRUE,,,,,,,CLR,,,,,,,,VFR,,,,,,,,,,,,METAR,174.0
KMLF 140352Z AUTO 35011KT 10SM CLR 01/M03 A3030 RMK AO2 SLP286 T00061033,KMLF,2021-01-14T03:52:00Z,38.42,-113.02,0.6,-3.3,350,11,,10.0,30.301182,1028.6,,TRUE,TRUE,,,,,,,CLR,,,,,,,,VFR,,,,,,,,,,,,METAR,1537.0
KMKE 140352Z 00000KT 9SM BKN065 OVC090 02/M01 A2966 RMK AO2 SLP051 T00221011,KMKE,2021-01-14T03:52:00Z,42.95,-87.9,2.2,-1.1,0,0,,9.0,29.660433,1005.1,,,TRUE,,,,,,,BKN,6500,OVC,9000,,,,,VFR,,,,,,,,,,,,METAR,203.0
KMHK 140352Z 23009KT 10SM CLR 07/M01 A2963 RMK AO2 SLP038 T00721011,KMHK,2021-01-14T03:52:00Z,39.13,-96.68,7.2,-1.1,230,9,,10.0,29.630905,1003.8,,,TRUE,,,,,,,CLR,,,,,,,,VFR,,,,,,,,,,,,METAR,320.0
KMFD 140352Z 21016G24KT 10SM OVC085 05/M02 A2978 RMK AO2 SLP092 T00501017,KMFD,2021-01-14T03:52:00Z,40.82,-82.52,5.0,-1.7,210,16,24,10.0,29.778543,1009.2,,,TRUE,,,,,,,OVC,8500,,,,,,,VFR,,,,,,,,,,,,METAR,394.0
KMEB 140352Z AUTO 22005KT 7SM OVC008 07/06 A2996 RMK AO2 RAB23E36 CIG 007V011 SLP146 P0000 T00720056,KMEB,2021-01-14T03:52:00Z,34.78,-79.37,7.2,5.6,220,5,,7.0,29.958662,1014.6,,TRUE,TRUE,,,,,,,OVC,800,,,,,,,IFR,,,,,,0.005,,,,,,METAR,65.0
KMDH 140352Z AUTO 20012KT 10SM CLR 05/M01 A2981 RMK AO2 SLP095 T00501006,KMDH,2021-01-14T03:52:00Z,37.78,-89.25,5.0,-0.6,200,12,,10.0,29.811024,1009.5,,TRUE,TRUE,,,,,,,CLR,,,,,,,,VFR,,,,,,,,,,,,METAR,122.0
KMBG 140352Z AUTO 31009KT 10SM SCT050 OVC070 08/00 A2952 RMK AO2 PK WND 31039/0321 RAB16E31 SLP006 P0001 T00830000,KMBG,2021-01-14T03:52:00Z,45.55,-100.42,8.3,0.0,310,9,,10.0,29.518702,1000.6,,TRUE,TRUE,,,,,,,SCT,5000,OVC,7000,,,,,VFR,,,,,,0.01,,,,,,METAR,515.0
KLWC 140352Z AUTO 21009KT 10SM CLR 09/00 A2965 RMK AO1 SLP042 T00890000,KLWC,2021-01-14T03:52:00Z,39.02,-95.22,8.9,0.0,210,9,,10.0,29.648623,1004.2,,TRUE,TRUE,,,,,,,CLR,,,,,,,,VFR,,,,,,,,,,,,METAR,252.0
KIJD 140352Z AUTO 00000KT 9SM CLR M02/M04 A2990 RMK AO2 SLP127 T10171039,KIJD,2021-01-14T03:52:00Z,41.75,-72.18,-1.7,-3.9,0,0,,9.0,29.899607,1012.7,,TRUE,TRUE,,,,,,,CLR,,,,,,,,VFR,,,,,,,,,,,,METAR,73.0
KIEN 140352Z AUTO 29007G16KT 10SM BKN033 OVC070 03/M01 A2978 RMK AO2 PK WND 34035/0318 RAE49 SLP096 P0009 T00281006,KIEN,2021-01-14T03:52:00Z,43.03,-102.52,2.8,-0.6,290,7,16,10.0,29.778543,1009.6,,TRUE,TRUE,,,,,,,BKN,3300,OVC,7000,,,,,VFR,,,,,,0.09,,,,,,METAR,1002.0
KIAD 140352Z 33003KT 10SM CLR M02/M03 A2988 RMK AO2 SLP120 T10171033,KIAD,2021-01-14T03:52:00Z,38.93,-77.45,-1.7,-3.3,330,3,,10.0,29.878937,1012.0,,,TRUE,,,,,,,CLR,,,,,,,,VFR,,,,,,,,,,,,METAR,90.0
KHUT 140352Z 00000KT 10SM CLR 06/M03 A2968 RMK AO2 SLP049 T00611028,KHUT,2021-01-14T03:52:00Z,38.07,-97.87,6.1,-2.8,0,0,,10.0,29.681103,1004.9,,,TRUE,,,,,,,CLR,,,,,,,,VFR,,,,,,,,,,,,METAR,464.0
KHRL 140352Z 18006KT 10SM CLR 06/04 A3012 RMK AO2 SLP198 T00610044,KHRL,2021-01-14T03:52:00Z,26.23,-97.65,6.1,4.4,180,6,,10.0,30.121063,1019.8,,,TRUE,,,,,,,CLR,,,,,,,,VFR,,,,,,,,,,,,METAR,9.0
KHIE 140352Z AUTO 00000KT 10SM OVC036 M03/M05 A2981 RMK AO2 SLP109 T10331050,KHIE,2021-01-14T03:52:00Z,44.37,-71.55,-3.3,-5.0,0,0,,10.0,29.811024,1010.9,,TRUE,TRUE,,,,,,,OVC,3600,,,,,,,VFR,,,,,,,,,,,,METAR,321.0
KGLS 140352Z AUTO 23004KT 10SM CLR 09/04 A3010 RMK AO2 SLP191 T00940044,KGLS,2021-01-14T03:52:00Z,29.27,-94.87,9.4,4.4,230,4,,10.0,30.100393,1019.1,,TRUE,TRUE,,,,,,,CLR,,,,,,,,VFR,,,,,,,,,,,,METAR,2.0
KFIT 140352Z AUTO 00000KT 10SM OVC035 02/M04 A2988 RMK AO2 SLP123 T00171039,KFIT,2021-01-14T03:52:00Z,42.55,-71.75,1.7,-3.9,0,0,,10.0,29.878937,1012.3,,TRUE,TRUE,,,,,,,OVC,3500,,,,,,,VFR,,,,,,,,,,,,METAR,102.0
KEST 140352Z AUTO 19005KT 10SM CLR 00/M01 A2950 RMK AO2 SLP000 T00001006,KEST,2021-01-14T03:52:00Z,43.4,-94.75,0.0,-0.6,190,5,,10.0,29.500984,1000.0,,TRUE,TRUE,,,,,,,CLR,,,,,,,,VFR,,,,,,,,,,,,METAR,401.0
KDVN 140352Z AUTO 18007KT 10SM CLR 02/M02 A2965 RMK AO2 SLP044 T00171017,KDVN,2021-01-14T03:52:00Z,41.62,-90.58,1.7,-1.7,180,7,,10.0,29.648623,1004.4,,TRUE,TRUE,,,,,,,CLR,,,,,,,,VFR,,,,,,,,,,,,METAR,227.0
KDPA 140352Z 16003KT 8SM OVC110 02/M01 A2968 RMK AO2 SLP058 T00221006 $,KDPA,2021-01-14T03:52:00Z,41.88,-88.25,2.2,-0.6,160,3,,8.0,29.681103,1005.8,,,TRUE,TRUE,,,,,,OVC,11000,,,,,,,VFR,,,,,,,,,,,,METAR,228.0
KDDC 140352Z AUTO 25010KT 10SM CLR 12/M03 A2973 RMK AO2 SLP063 T01171033,KDDC,2021-01-14T03:52:00Z,37.77,-99.97,11.7,-3.3,250,10,,10.0,29.731298,1006.3,,TRUE,TRUE,,,,,,,CLR,,,,,,,,VFR,,,,,,,,,,,,METAR,786.0
KDCA 140352Z 00000KT 10SM FEW250 03/01 A2990 RMK AO2 SLP124 T00330006,KDCA,2021-01-14T03:52:00Z,38.85,-77.03,3.3,0.6,0,0,,10.0,29.899607,1012.4,,,TRUE,,,,,,,FEW,25000,,,,,,,VFR,,,,,,,,,,,,METAR,4.0
KCVG 140352Z COR 20008KT 10SM BKN180 OVC220 03/M03 A2984 RMK AO2 SLP108 T00331028,KCVG,2021-01-14T03:52:00Z,39.05,-84.67,3.3,-2.8,200,8,,10.0,29.840551,1010.8,TRUE,,TRUE,,,,,,,BKN,18000,OVC,22000,,,,,VFR,,,,,,,,,,,,SPECI,264.0
KCQT 140352Z AUTO 00000KT 10SM CLR 14/06 A3015 RMK AO2 SLP209 T01440061,KCQT,2021-01-14T03:52:00Z,34.02,-118.28,14.4,6.1,0,0,,10.0,30.15059,1020.9,,TRUE,TRUE,,,,,,,CLR,,,,,,,,VFR,,,,,,,,,,,,METAR,51.0
KCNU 140352Z AUTO 20007KT 10SM CLR 05/00 A2972 RMK AO2 SLP067 T00500000,KCNU,2021-01-14T03:52:00Z,37.67,-95.48,5.0,0.0,200,7,,10.0,29.719488,1006.7,,TRUE,TRUE,,,,,,,CLR,,,,,,,,VFR,,,,,,,,,,,,METAR,301.0
KCLT 140352Z 00000KT 5SM BR BKN005 OVC170 04/03 A2992 RMK AO2 SLP134 T00390028,KCLT,2021-01-14T03:52:00Z,35.22,-80.95,3.9,2.8,0,0,,5.0,29.920275,1013.4,,,TRUE,,,,,,BR,BKN,500,OVC,17000,,,,,IFR,,,,,,,,,,,,METAR,223.0
KCKV 140352Z AUTO 20006KT 10SM CLR 04/M01 A2990 RMK AO2 SLP127 T00391011,KCKV,2021-01-14T03:52:00Z,36.62,-87.42,3.9,-1.1,200,6,,10.0,29.899607,1012.7,,TRUE,TRUE,,,,,,,CLR,,,,,,,,VFR,,,,,,,,,,,,METAR,166.0
KCID 140352Z 17004KT 8SM CLR M03/M04 A2960 RMK AO2 SLP034 T10281044,KCID,2021-01-14T03:52:00Z,41.88,-91.72,-2.8,-4.4,170,4,,8.0,29.601377,1003.4,,,TRUE,,,,,,,CLR,,,,,,,,VFR,,,,,,,,,,,,METAR,257.0
KCFV 140352Z AUTO 18008KT 10SM CLR 07/M01 A2974 RMK AO2 SLP075 T00721006,KCFV,2021-01-14T03:52:00Z,37.08,-95.57,7.2,-0.6,180,8,,10.0,29.740158,1007.5,,TRUE,TRUE,,,,,,,CLR,,,,,,,,VFR,,,,,,,,,,,,METAR,228.0
KCDJ 140352Z AUTO 20006KT 05/00 A2965 RMK AO1 SLP047 T00500000,KCDJ,2021-01-14T03:52:00Z,39.77,-93.48,5.0,0.0,200,6,,,29.648623,1004.7,,TRUE,TRUE,,,,,,,,,,,,,,,,,,,,,,,,,,,METAR,236.0
KBML 140352Z AUTO 00000KT 10SM OVC035 M03/M05 A2980 RMK AO2 SLP106 T10281050,KBML,2021-01-14T03:52:00Z,44.58,-71.18,-2.8,-5.0,0,0,,10.0,29.799213,1010.6,,TRUE,TRUE,,,,,,,OVC,3500,,,,,,,VFR,,,,,,,,,,,,METAR,344.0
KBLU 140352Z AUTO 06004KT 10SM CLR 07/02 A3046 RMK AO2 SLP291 T00720022,KBLU,2021-01-14T03:52:00Z,39.28,-120.7,7.2,2.2,60,4,,10.0,30.46063,1029.1,,TRUE,TRUE,,,,,,,CLR,,,,,,,,VFR,,,,,,,,,,,,METAR,1605.0
KBLH 140352Z AUTO 33006KT 10SM CLR 15/M11 A3017 RMK AO2 SLP213 T01501106,KBLH,2021-01-14T03:52:00Z,33.62,-114.72,15.0,-10.6,330,6,,10.0,30.171259,1021.3,,TRUE,TRUE,,,,,,,CLR,,,,,,,,VFR,,,,,,,,,,,,METAR,119.0
KBLF 140352Z AUTO 26006KT 10SM CLR 00/M13 A2986 RMK AO2 SLP126 T00001133,KBLF,2021-01-14T03:52:00Z,37.3,-81.2,0.0,-13.3,260,6,,10.0,29.861221,1012.6,,TRUE,TRUE,,,,,,,CLR,,,,,,,,VFR,,,,,,,,,,,,METAR,871.0
KBIS 140352Z AUTO 29014G22KT 10SM BKN110 07/M01 A2951 RMK AO2 PK WND 35031/0255 RAE07 SLP002 P0000 T00721006,KBIS,2021-01-14T03:52:00Z,46.77,-100.75,7.2,-0.6,290,14,22,10.0,29.509842,1000.2,,TRUE,TRUE,,,,,,,BKN,11000,,,,,,,VFR,,,,,,0.005,,,,,,METAR,506.0
KBDR 140352Z AUTO 21007KT 9SM CLR 03/M01 A2992 RMK AO2 SLP131 T00331011,KBDR,2021-01-14T03:52:00Z,41.17,-73.13,3.3,-1.1,210,7,,9.0,29.920275,1013.1,,TRUE,TRUE,,,,,,,CLR,,,,,,,,VFR,,,,,,,,,,,,METAR,5.0
KBAN 140352Z AUTO 36003KT 10SM CLR 03/M04 A3046 RMK AO2 SLP313 T00331044 $,KBAN,2021-01-14T03:52:00Z,38.35,-119.52,3.3,-4.4,360,3,,10.0,30.46063,1031.3,,TRUE,TRUE,TRUE,,,,,,CLR,,,,,,,,VFR,,,,,,,,,,,,METAR,2067.0
KATL 140352Z 29007KT 10SM CLR 03/M03 A3000 RMK AO2 SLP165 T00281028,KATL,2021-01-14T03:52:00Z,33.63,-84.45,2.8,-2.8,290,7,,10.0,30.0,1016.5,,,TRUE,,,,,,,CLR,,,,,,,,VFR,,,,,,,,,,,,METAR,309.0
KARR 140352Z AUTO 16007KT 10SM FEW120 02/M01 A2969 RMK AO2 SLP059 T00171006,KARR,2021-01-14T03:52:00Z,41.77,-88.48,1.7,-0.6,160,7,,10.0,29.68996,1005.9,,TRUE,TRUE,,,,,,,FEW,12000,,,,,,,VFR,,,,,,,,,,,,METAR,213.0
KAQW 140352Z AUTO 00000KT 10SM CLR M02/M05 A2986 RMK AO2 SLP119 T10171050,KAQW,2021-01-14T03:52:00Z,42.7,-73.17,-1.7,-5.0,0,0,,10.0,29.861221,1011.9,,TRUE,TRUE,,,,,,,CLR,,,,,,,,VFR,,,,,,,,,,,,METAR,196.0
KALS 140352Z AUTO 22006KT 10SM CLR M07/M12 A3012 RMK AO2 SLP254 T10721117,KALS,2021-01-14T03:52:00Z,37.43,-105.87,-7.2,-11.7,220,6,,10.0,30.121063,1025.4,,TRUE,TRUE,,,,,,,CLR,,,,,,,,VFR,,,,,,,,,,,,METAR,2299.0
KAFN 140352Z AUTO 19003KT 10SM CLR M01/M06 A2984 RMK AO2 SLP121 T10111061,KAFN,2021-01-14T03:52:00Z,42.8,-72.0,-1.1,-6.1,190,3,,10.0,29.840551,1012.1,,TRUE,TRUE,,,,,,,CLR,,,,,,,,VFR,,,,,,,,,,,,METAR,308.0
KABQ 140352Z 34014KT 10SM FEW180 BKN250 07/M13 A3017 RMK AO2 SLP215 T00721128,KABQ,2021-01-14T03:52:00Z,35.05,-106.62,7.2,-12.8,340,14,,10.0,30.171259,1021.5,,,TRUE,,,,,,,FEW,18000,BKN,25000,,,,,VFR,,,,,,,,,,,,METAR,1620.0
KABI 140352Z 20010KT 10SM CLR 10/M01 A2986 RMK AO2 SLP110 T01001011,KABI,2021-01-14T03:52:00Z,32.42,-99.68,10.0,-1.1,200,10,,10.0,29.861221,1011.0,,,TRUE,,,,,,,CLR,,,,,,,,VFR,,,,,,,,,,,,METAR,543.0
PTYA 140351Z 13008KT 8SM -SHRA SCT016CB BKN130 OVC300 28/26 A2977 RMK SHRAB45 CB ALQDS SLP081 T02830260,PTYA,2021-01-14T03:51:00Z,9.48,138.08,28.3,26.0,130,8,,8.0,29.769686,1008.1,,,,,,,,,-SHRA,SCT,1600,BKN,13000,OVC,30000,,,VFR,,,,,,,,,,,,METAR,4.0
MUGM 140351Z 02004KT 10SM FEW025 BKN250 23/21 A2999 RMK AO2 SLP154 T02280206 $,MUGM,2021-01-14T03:51:00Z,19.9,-75.2,22.8,20.6,20,4,,10.0,29.991142,1015.4,,,TRUE,TRUE,,,,,,FEW,2500,BKN,25000,,,,,VFR,,,,,,,,,,,,METAR,21.0
LHDC 140351Z AUTO 23013KT 5000 -SHSN OVC041 M00/M01 Q1006,LHDC,2021-01-14T03:51:00Z,47.48,21.62,0.0,-1.0,230,13,,3.11,29.704725,,,TRUE,,,,,,,-SHSN,OVC,4100,,,,,,,MVFR,,,,,,,,,,,,SPECI,105.0
KYNG 140351Z 22009G17KT 10SM OVC100 04/M03 A2980 RMK AO2 SLP099 T00441028 $,KYNG,2021-01-14T03:51:00Z,41.25,-80.67,4.4,-2.8,220,9,17,10.0,29.799213,1009.9,,,TRUE,TRUE,,,,,,OVC,10000,,,,,,,VFR,,,,,,,,,,,,METAR,356.0
KVNY 140351Z 01007KT 10SM CLR 21/M03 A3015 RMK AO2 SLP203 T02061033,KVNY,2021-01-14T03:51:00Z,34.22,-118.48,20.6,-3.3,10,7,,10.0,30.15059,1020.3,,,TRUE,,,,,,,CLR,,,,,,,,VFR,,,,,,,,,,,,METAR,241.0
KVCT 140351Z AUTO 19004KT 10SM CLR 05/02 A3007 RMK AO2 SLP182 T00500022,KVCT,2021-01-14T03:51:00Z,28.87,-96.93,5.0,2.2,190,4,,10.0,30.070866,1018.2,,TRUE,TRUE,,,,,,,CLR,,,,,,,,VFR,,,,,,,,,,,,METAR,33.0
KTPL 140351Z AUTO 18011KT 10SM CLR 07/03 A2998 RMK AO2 SLP149 T00720028,KTPL,2021-01-14T03:51:00Z,31.15,-97.4,7.2,2.8,180,11,,10.0,29.97933,1014.9,,TRUE,TRUE,,,,,,,CLR,,,,,,,,VFR,,,,,,,,,,,,METAR,206.0
KTEB 140351Z 00000KT 8SM CLR 01/M03 A2991 RMK AO2 SLP127 T00111033,KTEB,2021-01-14T03:51:00Z,40.87,-74.05,1.1,-3.3,0,0,,8.0,29.911417,1012.7,,,TRUE,,,,,,,CLR,,,,,,,,VFR,,,,,,,,,,,,METAR,3.0
KSTL 140351Z 16007KT 10SM CLR 06/M03 A2975 RMK AO2 SLP077 T00611033,KSTL,2021-01-14T03:51:00Z,38.75,-90.37,6.1,-3.3,160,7,,10.0,29.749016,1007.7,,,TRUE,,,,,,,CLR,,,,,,,,VFR,,,,,,,,,,,,METAR,163.0
KSNT 140351Z AUTO 00000KT M07/M13 A3036 RMK AO1 SLP274 T10671128,KSNT,2021-01-14T03:51:00Z,44.17,-114.93,-6.7,-12.8,0,0,,,30.360237,1027.4,,TRUE,TRUE,,,,,,,,,,,,,,,,,,,,,,,,,,,METAR,1980.0
KSMX 140351Z 01009KT 10SM CLR 19/M01 A3022 RMK AO2 SLP237 T01891006,KSMX,2021-01-14T03:51:00Z,34.9,-120.45,18.9,-0.6,10,9,,10.0,30.221457,1023.7,,,TRUE,,,,,,,CLR,,,,,,,,VFR,,,,,,,,,,,,METAR,73.0
KSMO 140351Z AUTO 09003KT 10SM CLR 13/10 A3016 RMK AO2 SLP211 T01280100,KSMO,2021-01-14T03:51:00Z,34.02,-118.45,12.8,10.0,90,3,,10.0,30.159449,1021.1,,TRUE,TRUE,,,,,,,CLR,,,,,,,,VFR,,,,,,,,,,,,METAR,56.0
KSLK 140351Z AUTO 23006KT 10SM OVC022 M03/M05 A2972 RMK AO2 SLP083 T10281050,KSLK,2021-01-14T03:51:00Z,44.4,-74.2,-2.8,-5.0,230,6,,10.0,29.719488,1008.3,,TRUE,TRUE,,,,,,,OVC,2200,,,,,,,MVFR,,,,,,,,,,,,METAR,502.0
KSJT 140351Z AUTO 23009KT 10SM CLR 06/M01 A2994 RMK AO2 SLP143 T00611011,KSJT,2021-01-14T03:51:00Z,31.37,-100.5,6.1,-1.1,230,9,,10.0,29.940945,1014.3,,TRUE,TRUE,,,,,,,CLR,,,,,,,,VFR,,,,,,,,,,,,METAR,582.0
KSAT 140351Z 22006KT 10SM CLR 11/M01 A3003 RMK AO2 SLP160 T01061006,KSAT,2021-01-14T03:51:00Z,29.53,-98.48,10.6,-0.6,220,6,,10.0,30.029528,1016.0,,,TRUE,,,,,,,CLR,,,,,,,,VFR,,,,,,,,,,,,METAR,246.0
KSAN 140351Z 35004KT 10SM BKN250 16/09 A3017 RMK AO2 SLP217 T01610094,KSAN,2021-01-14T03:51:00Z,32.73,-117.18,16.1,9.4,350,4,,10.0,30.171259,1021.7,,,TRUE,,,,,,,BKN,25000,,,,,,,VFR,,,,,,,,,,,,METAR,3.0
KSAD 140351Z AUTO 00000KT 10SM CLR 04/M12 A3017 RMK AO2 SLP221 T00391117,KSAD,2021-01-14T03:51:00Z,32.85,-109.63,3.9,-11.7,0,0,,10.0,30.171259,1022.1,,TRUE,TRUE,,,,,,,CLR,,,,,,,,VFR,,,,,,,,,,,,METAR,937.0
KROW 140351Z AUTO 17007KT 10SM CLR 09/M06 A2992 RMK AO2 SLP122 T00891056,KROW,2021-01-14T03:51:00Z,33.3,-104.5,8.9,-5.6,170,7,,10.0,29.920275,1012.2,,TRUE,TRUE,,,,,,,CLR,,,,,,,,VFR,,,,,,,,,,,,METAR,1105.0
KPWM 140351Z 21003KT 10SM OVC044 02/M03 A2988 RMK AO2 SLP118 T00221033,KPWM,2021-01-14T03:51:00Z,43.65,-70.3,2.2,-3.3,210,3,,10.0,29.878937,1011.8,,,TRUE,,,,,,,OVC,4400,,,,,,,VFR,,,,,,,,,,,,METAR,15.0
KPVD 140351Z 00000KT 10SM SCT036 BKN250 02/M03 A2991 RMK AO2 SLP129 T00171033,KPVD,2021-01-14T03:51:00Z,41.72,-71.43,1.7,-3.3,0,0,,10.0,29.911417,1012.9,,,TRUE,,,,,,,SCT,3600,BKN,25000,,,,,VFR,,,,,,,,,,,,METAR,15.0
KPIT 140351Z 21006KT 10SM BKN100 OVC140 04/M03 A2983 RMK AO2 SLP118 T00391028 $,KPIT,2021-01-14T03:51:00Z,40.47,-80.2,3.9,-2.8,210,6,,10.0,29.828741,1011.8,,,TRUE,TRUE,,,,,,BKN,10000,OVC,14000,,,,,VFR,,,,,,,,,,,,METAR,339.0
KPHX 140351Z 00000KT 10SM CLR 13/M09 A3014 RMK AO2 SLP204 T01331094,KPHX,2021-01-14T03:51:00Z,33.43,-112.02,13.3,-9.4,0,0,,10.0,30.138779,1020.4,,,TRUE,,,,,,,CLR,,,,,,,,VFR,,,,,,,,,,,,METAR,338.0
KP59 140351Z AUTO 00000KT 01/M02 A2964 RMK AO1 SLP045 T00061022,KP59,2021-01-14T03:51:00Z,47.47,-87.88,0.6,-2.2,0,0,,,29.639763,1004.5,,TRUE,TRUE,,,,,,,,,,,,,,,,,,,,,,,,,,,METAR,185.0
KOXR 140351Z 00000KT 7SM CLR 12/11 A3015 RMK AO2 SLP211 T01170106,KOXR,2021-01-14T03:51:00Z,34.2,-119.2,11.7,10.6,0,0,,7.0,30.15059,1021.1,,,TRUE,,,,,,,CLR,,,,,,,,VFR,,,,,,,,,,,,METAR,12.0
KOXC 140351Z AUTO 23004KT 8SM CLR M01/M03 A2989 RMK AO2 SLP142 T10061028 FZRANO,KOXC,2021-01-14T03:51:00Z,41.47,-73.13,-0.6,-2.8,230,4,,8.0,29.890747,1014.2,,TRUE,TRUE,,,,TRUE,,,CLR,,,,,,,,VFR,,,,,,,,,,,,METAR,211.0
KORF 140351Z 21004KT 9SM CLR 04/M02 A2994 RMK AO2 SLP136 T00391022,KORF,2021-01-14T03:51:00Z,36.9,-76.2,3.9,-2.2,210,4,,9.0,29.940945,1013.6,,,TRUE,,,,,,,CLR,,,,,,,,VFR,,,,,,,,,,,,METAR,5.0
KORD 140351Z 00000KT 10SM FEW090 BKN110 OVC150 03/00 A2969 RMK AO2 SLP059 T00330000,KORD,2021-01-14T03:51:00Z,41.95,-87.93,3.3,0.0,0,0,,10.0,29.68996,1005.9,,,TRUE,,,,,,,FEW,9000,BKN,11000,OVC,15000,,,VFR,,,,,,,,,,,,METAR,202.0
KOCF 140351Z AUTO 00000KT 10SM BKN046 09/08 A3010 RMK AO2 SLP194 T00940083 $,KOCF,2021-01-14T03:51:00Z,29.17,-82.22,9.4,8.3,0,0,,10.0,30.100393,1019.4,,TRUE,TRUE,TRUE,,,,,,BKN,4600,,,,,,,VFR,,,,,,,,,,,,METAR,24.0
KNYC 140351Z AUTO 00000KT 9SM BKN120 05/M03 A2993 RMK AO2 SLP125 T00501033 $,KNYC,2021-01-14T03:51:00Z,40.78,-73.97,5.0,-3.3,0,0,,9.0,29.929134,1012.5,,TRUE,TRUE,TRUE,,,,,,BKN,12000,,,,,,,VFR,,,,,,,,,,,,METAR,33.0
KMYL 140351Z AUTO 00000KT 10SM CLR M07/M11 A3038 RMK AO2 SLP324 T10721106,KMYL,2021-01-14T03:51:00Z,44.9,-116.1,-7.2,-10.6,0,0,,10.0,30.380905,1032.4,,TRUE,TRUE,,,,,,,CLR,,,,,,,,VFR,,,,,,,,,,,,METAR,1532.0
KMQE 140351Z AUTO 22006KT 01/M04 A2987 RMK AO1 SLP131 T00111044,KMQE,2021-01-14T03:51:00Z,42.22,-71.12,1.1,-4.4,220,6,,,29.870079,1013.1,,TRUE,TRUE,,,,,,,,,,,,,,,,,,,,,,,,,,,METAR,192.0
KMPV 140351Z AUTO 16009KT 10SM OVC025 M01/M05 A2983 RMK AO2 SLP118 T10111050,KMPV,2021-01-14T03:51:00Z,44.2,-72.57,-1.1,-5.0,160,9,,10.0,29.828741,1011.8,,TRUE,TRUE,,,,,,,OVC,2500,,,,,,,MVFR,,,,,,,,,,,,METAR,336.0
KLGU 140351Z AUTO 27008KT 10SM CLR 01/M12 A3036 RMK AO2 WSHFT 0250 SLP297 T00111122,KLGU,2021-01-14T03:51:00Z,41.78,-111.85,1.1,-12.2,270,8,,10.0,30.360237,1029.7,,TRUE,TRUE,,,,,,,CLR,,,,,,,,VFR,,,,,,,,,,,,METAR,1359.0
KLGA 140351Z 20004KT 10SM OVC120 06/M03 A2991 RMK AO2 SLP128 T00561033,KLGA,2021-01-14T03:51:00Z,40.78,-73.88,5.6,-3.3,200,4,,10.0,29.911417,1012.8,,,TRUE,,,,,,,OVC,12000,,,,,,,VFR,,,,,,,,,,,,METAR,9.0
KJFK 140351Z 20007KT 10SM OVC110 03/M01 A2993 RMK AO2 SLP133 T00281006,KJFK,2021-01-14T03:51:00Z,40.63,-73.77,2.8,-0.6,200,7,,10.0,29.929134,1013.3,,,TRUE,,,,,,,OVC,11000,,,,,,,VFR,,,,,,,,,,,,METAR,3.0
KJCT 140351Z AUTO 00000KT 10SM CLR 09/M03 A3001 RMK AO2 SLP149 T00891033,KJCT,2021-01-14T03:51:00Z,30.5,-99.77,8.9,-3.3,0,0,,10.0,30.008858,1014.9,,TRUE,TRUE,,,,,,,CLR,,,,,,,,VFR,,,,,,,,,,,,METAR,522.0
KILG 140351Z 00000KT 7SM CLR 00/M02 A2992 RMK AO2 SLP131 T00001022 $,KILG,2021-01-14T03:51:00Z,39.67,-75.6,0.0,-2.2,0,0,,7.0,29.920275,1013.1,,,TRUE,TRUE,,,,,,CLR,,,,,,,,VFR,,,,,,,,,,,,METAR,22.0
KIGM 140351Z AUTO 00000KT 10SM CLR 07/M14 A3026 RMK AO2 SLP227 T00721139,KIGM,2021-01-14T03:51:00Z,35.25,-113.93,7.2,-13.9,0,0,,10.0,30.259842,1022.7,,TRUE,TRUE,,,,,,,CLR,,,,,,,,VFR,,,,,,,,,,,,METAR,1045.0
KHTS 140351Z 00000KT 10SM CLR 03/M05 A2989 RMK AO2 SLP126 T00331050,KHTS,2021-01-14T03:51:00Z,38.37,-82.55,3.3,-5.0,0,0,,10.0,29.890747,1012.6,,,TRUE,,,,,,,CLR,,,,,,,,VFR,,,,,,,,,,,,METAR,252.0
KHSE 140351Z AUTO 09003KT 7SM CLR 02/02 A2996 RMK AO2 SLP147 T00220017,KHSE,2021-01-14T03:51:00Z,35.23,-75.62,2.2,1.7,90,3,,7.0,29.958662,1014.7,,TRUE,TRUE,,,,,,,CLR,,,,,,,,VFR,,,,,,,,,,,,METAR,4.0
KHDO 140351Z AUTO 18003KT 10SM CLR 04/M02 A3004 RMK AO2 SLP169 T00391017,KHDO,2021-01-14T03:51:00Z,29.37,-99.17,3.9,-1.7,180,3,,10.0,30.041338,1016.9,,TRUE,TRUE,,,,,,,CLR,,,,,,,,VFR,,,,,,,,,,,,METAR,280.0
KGDP 140351Z AUTO 22026G33KT 10SM CLR 04/ RMK AO2 PK WND 22033/0347 SLPNO T0044 $,KGDP,2021-01-14T03:51:00Z,31.83,-104.82,4.4,,220,26,33,10.0,,,,TRUE,TRUE,TRUE,,,,,,CLR,,,,,,,,VFR,,,,,,,,,,,,METAR,1664.0
KEWR 140351Z 00000KT 9SM BKN110 BKN130 BKN250 03/M02 A2991 RMK AO2 SLP128 T00281022,KEWR,2021-01-14T03:51:00Z,40.68,-74.17,2.8,-2.2,0,0,,9.0,29.911417,1012.8,,,TRUE,,,,,,,BKN,11000,BKN,13000,BKN,25000,,,VFR,,,,,,,,,,,,METAR,2.0
KERI 140351Z AUTO 20013G21KT 10SM CLR 06/M02 A2977 RMK AO2 SLP088 T00561022,KERI,2021-01-14T03:51:00Z,42.08,-80.18,5.6,-2.2,200,13,21,10.0,29.769686,1008.8,,TRUE,TRUE,,,,,,,CLR,,,,,,,,VFR,,,,,,,,,,,,METAR,222.0
KELP 140351Z 18005KT 10SM FEW250 11/M13 A3011 RMK AO2 SLP178 T01111133,KELP,2021-01-14T03:51:00Z,31.82,-106.35,11.1,-13.3,180,5,,10.0,30.109253,1017.8,,,TRUE,,,,,,,FEW,25000,,,,,,,VFR,,,,,,,,,,,,METAR,1205.0
KEKN 140351Z AUTO 00000KT 10SM CLR M03/M06 A2987 RMK AO2 SLP137 T10331061,KEKN,2021-01-14T03:51:00Z,38.88,-79.85,-3.3,-6.1,0,0,,10.0,29.870079,1013.7,,TRUE,TRUE,,,,,,,CLR,,,,,,,,VFR,,,,,,,,,,,,METAR,596.0
KDAW 140351Z AUTO 00000KT 10SM OVC043 01/M05 A2987 RMK AO2 SLP115 T00111050,KDAW,2021-01-14T03:51:00Z,43.28,-70.92,1.1,-5.0,0,0,,10.0,29.870079,1011.5,,TRUE,TRUE,,,,,,,OVC,4300,,,,,,,VFR,,,,,,,,,,,,METAR,100.0
KCSG 140351Z AUTO 28006KT 10SM CLR 05/M01 A3005 RMK AO2 SLP175 T00501011,KCSG,2021-01-14T03:51:00Z,32.52,-84.95,5.0,-1.1,280,6,,10.0,30.050198,1017.5,,TRUE,TRUE,,,,,,,CLR,,,,,,,,VFR,,,,,,,,,,,,METAR,120.0
KCRP 140351Z 18008KT 10SM CLR 07/05 A3008 RMK AO2 SLP187 T00720050,KCRP,2021-01-14T03:51:00Z,27.77,-97.5,7.2,5.0,180,8,,10.0,30.079725,1018.7,,,TRUE,,,,,,,CLR,,,,,,,,VFR,,,,,,,,,,,,METAR,11.0
KCON 140351Z AUTO 19003KT 10SM OVC040 01/M06 A2987 RMK AO2 SLP118 T00061056,KCON,2021-01-14T03:51:00Z,43.2,-71.5,0.6,-5.6,190,3,,10.0,29.870079,1011.8,,TRUE,TRUE,,,,,,,OVC,4000,,,,,,,VFR,,,,,,,,,,,,METAR,102.0
KCMH 140351Z 20005KT 10SM OVC110 04/M02 A2984 RMK AO2 SLP110 T00391017,KCMH,2021-01-14T03:51:00Z,40.0,-82.88,3.9,-1.7,200,5,,10.0,29.840551,1011.0,,,TRUE,,,,,,,OVC,11000,,,,,,,VFR,,,,,,,,,,,,METAR,257.0
KCLE 140351Z 20009KT 10SM OVC100 04/M01 A2977 RMK AO2 SLP103 T00441011 $,KCLE,2021-01-14T03:51:00Z,41.42,-81.85,4.4,-1.1,200,9,,10.0,29.769686,1010.3,,,TRUE,TRUE,,,,,,OVC,10000,,,,,,,VFR,,,,,,,,,,,,METAR,237.0
KCAK 140351Z 21008KT 8SM BKN095 OVC180 04/M02 A2980 RMK AO2 SLP102 T00391017,KCAK,2021-01-14T03:51:00Z,40.92,-81.45,3.9,-1.7,210,8,,8.0,29.799213,1010.2,,,TRUE,,,,,,,BKN,9500,OVC,18000,,,,,VFR,,,,,,,,,,,,METAR,369.0
KBKW 140351Z AUTO 22004KT 10SM CLR 00/M08 A2986 RMK AO2 SLP139 T00001083 TSNO,KBKW,2021-01-14T03:51:00Z,37.8,-81.12,0.0,-8.3,220,4,,10.0,29.861221,1013.9,,TRUE,TRUE,,,TRUE,,,,CLR,,,,,,,,VFR,,,,,,,,,,,,METAR,762.0
KBHK 140351Z AUTO 30027G38KT 10SM BKN030 BKN038 02/M04 A2969 RMK AO2 PK WND 30051/0301 SLP066 T00221044,KBHK,2021-01-14T03:51:00Z,46.35,-104.25,2.2,-4.4,300,27,38,10.0,29.68996,1006.6,,TRUE,TRUE,,,,,,,BKN,3000,BKN,3800,,,,,MVFR,,,,,,,,,,,,METAR,904.0
KBGD 140351Z AUTO 23008KT 10SM CLR 09/M05 A2981 RMK AO2 SLP089 T00941050,KBGD,2021-01-14T03:51:00Z,35.7,-101.4,9.4,-5.0,230,8,,10.0,29.811024,1008.9,,TRUE,TRUE,,,,,,,CLR,,,,,,,,VFR,,,,,,,,,,,,METAR,928.0
KBED 140351Z 20004KT 10SM OVC037 02/M04 A2989 RMK AO2 SLP136 T00171044,KBED,2021-01-14T03:51:00Z,42.47,-71.3,1.7,-4.4,200,4,,10.0,29.890747,1013.6,,,TRUE,,,,,,,OVC,3700,,,,,,,VFR,,,,,,,,,,,,METAR,39.0
KBDL 140351Z 16005KT 8SM FEW038 BKN140 OVC250 M01/M04 A2989 RMK AO2 SLP122 T10061044 $,KBDL,2021-01-14T03:51:00Z,41.93,-72.68,-0.6,-4.4,160,5,,8.0,29.890747,1012.2,,,TRUE,TRUE,,,,,,FEW,3800,BKN,14000,OVC,25000,,,VFR,,,,,,,,,,,,METAR,52.0
KBAZ 140351Z AUTO 19008KT 10SM CLR 06/01 A3001 RMK AO2 SLP164 T00610006,KBAZ,2021-01-14T03:51:00Z,29.72,-98.05,6.1,0.6,190,8,,10.0,30.008858,1016.4,,TRUE,TRUE,,,,,,,CLR,,,,,,,,VFR,,,,,,,,,,,,METAR,199.0
KAVX 140351Z AUTO 32004KT 10SM CLR 20/M07 A3020 RMK AO2 SLP213 T02001067,KAVX,2021-01-14T03:51:00Z,33.4,-118.42,20.0,-6.7,320,4,,10.0,30.200787,1021.3,,TRUE,TRUE,,,,,,,CLR,,,,,,,,VFR,,,,,,,,,,,,METAR,482.0
KATT 140351Z AUTO 19003KT 10SM CLR 08/01 A3001 RMK AO2 SLP166 T00830011,KATT,2021-01-14T03:51:00Z,30.32,-97.77,8.3,1.1,190,3,,10.0,30.008858,1016.6,,TRUE,TRUE,,,,,,,CLR,,,,,,,,VFR,,,,,,,,,,,,METAR,203.0
KALB 140351Z 13003KT 10SM SCT085 SCT180 BKN250 M02/M05 A2986 RMK AO2 SLP113 T10221050,KALB,2021-01-14T03:51:00Z,42.75,-73.8,-2.2,-5.0,130,3,,10.0,29.861221,1011.3,,,TRUE,,,,,,,SCT,8500,SCT,18000,BKN,25000,,,VFR,,,,,,,,,,,,METAR,82.0
KAHN 140351Z AUTO 26004KT 10SM CLR 04/M02 A2997 RMK AO2 SLP155 T00391022,KAHN,2021-01-14T03:51:00Z,33.95,-83.33,3.9,-2.2,260,4,,10.0,29.970472,1015.5,,TRUE,TRUE,,,,,,,CLR,,,,,,,,VFR,,,,,,,,,,,,METAR,241.0
KACT 140351Z 17009KT 10SM CLR 08/03 A2996 RMK AO2 SLP144 T00830028,KACT,2021-01-14T03:51:00Z,31.62,-97.23,8.3,2.8,170,9,,10.0,29.958662,1014.4,,,TRUE,,,,,,,CLR,,,,,,,,VFR,,,,,,,,,,,,METAR,150.0
KABE 140351Z 32003KT 7SM BKN110 M02/M04 A2989 RMK AO2 SLP127 T10171044,KABE,2021-01-14T03:51:00Z,40.65,-75.45,-1.7,-4.4,320,3,,7.0,29.890747,1012.7,,,TRUE,,,,,,,BKN,11000,,,,,,,VFR,,,,,,,,,,,,METAR,117.0
K6R6 140351Z AUTO 25014KT 11/M06 A3002 RMK AO1 SLP154 T01111061,K6R6,2021-01-14T03:51:00Z,30.05,-102.22,11.1,-6.1,250,14,,,30.02067,1015.4,,TRUE,TRUE,,,,,,,,,,,,,,,,,,,,,,,,,,,METAR,702.0
PTRO 140350Z 03009KT 14SM BKN016 BKN120 BKN300 29/24 A2977 ,PTRO,2021-01-14T03:50:00Z,7.37,134.55,29.0,24.0,30,9,,14.0,29.769686,,,,,,,,,,,BKN,1600,BKN,12000,BKN,30000,,,MVFR,,,,,,,,,,,,METAR,30.0
PTKK 140350Z 05012G20KT 15SM FEW014 SCT120 OVC280 30/25 A2970 RMK SLP057 T02990246,PTKK,2021-01-14T03:50:00Z,7.47,151.85,29.9,24.6,50,12,20,15.0,29.698818,1005.7,,,,,,,,,,FEW,1400,SCT,12000,OVC,28000,,,VFR,,,,,,,,,,,,METAR,3.0
PGRO 140350Z 08013KT 7SM SCT015 28/22 A2980,PGRO,2021-01-14T03:50:00Z,14.18,145.25,28.0,22.0,80,13,,7.0,29.799213,,,,,,,,,,,SCT,1500,,,,,,,VFR,,,,,,,,,,,,METAR,181.0
OOSA 140350Z 04016KT 9999 FEW025 SCT080 23/03 Q1017 NOSIG,OOSA,2021-01-14T03:50:00Z,17.03,54.1,23.0,3.0,40,16,,6.21,30.029528,,,,,,TRUE,,,,,FEW,2500,SCT,8000,,,,,VFR,,,,,,,,,,,,METAR,20.0
OOMS 140350Z 20003KT CAVOK 18/07 Q1016 NOSIG,OOMS,2021-01-14T03:50:00Z,23.58,58.28,18.0,7.0,200,3,,6.21,30.0,,,,,,TRUE,,,,,CAVOK,,,,,,,,VFR,,,,,,,,,,,,METAR,8.0
OODQ 140350Z AUTO 32012KT CAVOK ////// 18/05 Q1017 NOSIG RMK RH43? 0,OODQ,2021-01-14T03:50:00Z,19.52,57.65,18.0,5.0,320,12,,6.21,30.029528,,,TRUE,,,TRUE,,,,,CAVOK,,,,,,,,VFR,,,,,,,,,,,,METAR,116.0
OAMS 140350Z 14001KT 9999 SKC 04/M02 Q1019 BLU+BLU+ TEMPO YLO,OAMS,2021-01-14T03:50:00Z,36.7,67.2,4.0,-2.0,140,1,,6.21,30.088583,,,,,,,,,,,SKC,,,,,,,,VFR,,,,,,,,,,,,METAR,382.0
NSTU 140350Z 07008KT 12SM FEW023 SCT040 BKN100 29/27 A2983 RMK SLP102 T02900267,NSTU,2021-01-14T03:50:00Z,,,29.0,26.7,70,8,,12.0,29.828741,1010.2,,,,,,,,,,FEW,2300,SCT,4000,BKN,10000,,,VFR,,,,,,,,,,,,METAR,
MUSC 140350Z VRB01KT 8000 SCT025 22/21 Q1016,MUSC,2021-01-14T03:50:00Z,22.5,-79.92,22.0,21.0,0,1,,4.97,30.0,,,,,,,,,,,SCT,2500,,,,,,,MVFR,,,,,,,,,,,,METAR,97.0
MUHG 140350Z 08004KT 9000 SKC 22/20 Q1016,MUHG,2021-01-14T03:50:00Z,20.78,-76.32,22.0,20.0,80,4,,5.59,30.0,,,,,,,,,,,SKC,,,,,,,,VFR,,,,,,,,,,,,METAR,100.0
MUCU 140350Z 05006KT 9000 FEW020 22/20 Q1015,MUCU,2021-01-14T03:50:00Z,19.97,-75.83,22.0,20.0,50,6,,5.59,29.970472,,,,,,,,,,,FEW,2000,,,,,,,VFR,,,,,,,,,,,,METAR,70.0
MUCM 140350Z 05006KT 9000 FEW020 21/21 Q1016,MUCM,2021-01-14T03:50:00Z,21.42,-77.85,21.0,21.0,50,6,,5.59,30.0,,,,,,,,,,,FEW,2000,,,,,,,VFR,,,,,,,,,,,,METAR,125.0
MUCC 140350Z 09005KT 9000 SCT020 23/22 Q1015,MUCC,2021-01-14T03:50:00Z,22.47,-78.33,23.0,22.0,90,5,,5.59,29.970472,,,,,,,,,,,SCT,2000,,,,,,,VFR,,,,,,,,,,,,METAR,7.0
MSLP 140350Z VRB02KT CAVOK 24/22 Q1012 A2990 NOSIG,MSLP,2021-01-14T03:50:00Z,13.43,-89.05,24.0,22.0,0,2,,6.21,29.88189,,,,,,TRUE,,,,,CAVOK,,,,,,,,VFR,,,,,,,,,,,,METAR,25.0
MMMM 140350Z 00000KT 8SM SKC 13/05 A3023 RMK RTS,MMMM,2021-01-14T03:50:00Z,19.85,-101.03,13.0,5.0,0,0,,8.0,30.230314,,,,,,,,,,,SKC,,,,,,,,VFR,,,,,,,,,,,,METAR,1840.0
LXGB 140350Z AUTO 27013KT 9999 NCD 12/06 Q1028,LXGB,2021-01-14T03:50:00Z,36.15,-5.33,12.0,6.0,270,13,,6.21,30.35433,,,TRUE,,,,,,,,CLR,,,,,,,,VFR,,,,,,,,,,,,METAR,5.0
LTFH 140350Z 28003KT 8000 -RA SCT010 BKN028 BKN080 07/06 Q1008 NOSIG,LTFH,2021-01-14T03:50:00Z,41.27,36.57,7.0,6.0,280,3,,4.97,29.763779,,,,,,TRUE,,,,-RA,SCT,1000,BKN,2800,BKN,8000,,,MVFR,,,,,,,,,,,,METAR,7.0
LTFG 140350Z 06006KT 020V110 9999 FEW020CB SCT030 13/10 Q1004,LTFG,2021-01-14T03:50:00Z,36.3,32.3,13.0,10.0,60,6,,6.21,29.64567,,,,,,,,,,,FEW,2000,SCT,3000,,,,,VFR,,,,,,,,,,,,METAR,26.0
LTFD 140350Z 08013KT 9999 SCT035 BKN100 07/02 Q1008,LTFD,2021-01-14T03:50:00Z,39.55,27.02,7.0,2.0,80,13,,6.21,29.763779,,,,,,,,,,,SCT,3500,BKN,10000,,,,,VFR,,,,,,,,,,,,METAR,15.0
LTDA 140350Z 03004KT 360V060 0400 R22/0450N R04/0500N FG VV002 07/07 Q1007 NOSIG,LTDA,2021-01-14T03:50:00Z,36.37,36.28,7.0,7.0,30,4,,0.25,29.734253,,,,,,TRUE,,,,FG,OVX,0,,,,,,,LIFR,,,,,,,,,,,200,METAR,80.0
LTCV 140350Z 09014KT 9999 -TSRA FEW025CB SCT035 BKN100 10/03 Q1011 RETS,LTCV,2021-01-14T03:50:00Z,37.37,42.07,10.0,3.0,90,14,,6.21,29.852362,,,,,,,,,,-TSRA,FEW,2500,SCT,3500,BKN,10000,,,VFR,,,,,,,,,,,,METAR,620.0
LTCR 140350Z 09013KT 9999 RA BKN033 BKN090 08/06 Q1010,LTCR,2021-01-14T03:50:00Z,37.22,40.63,8.0,6.0,90,13,,6.21,29.822834,,,,,,,,,,RA,BKN,3300,BKN,9000,,,,,VFR,,,,,,,,,,,,METAR,529.0
LTCP 140350Z 09013KT 9999 FEW010 SCT035 BKN090 07/04 Q1008,LTCP,2021-01-14T03:50:00Z,37.73,38.47,7.0,4.0,90,13,,6.21,29.763779,,,,,,,,,,,FEW,1000,SCT,3500,BKN,9000,,,VFR,,,,,,,,,,,,METAR,672.0
LTCN 140350Z 35003KT 260V050 4800 RA FEW020CB BKN030 08/08 Q1006 BECMG TL0430 6000 NSW,LTCN,2021-01-14T03:50:00Z,37.53,36.95,8.0,8.0,350,3,,2.98,29.704725,,,,,,,,,,RA,FEW,2000,BKN,3000,,,,,IFR,,,,,,,,,,,,METAR,505.0
LTCK 140350Z VRB06KT 8000 -RA FEW015 BKN030 OVC070 04/01 Q1011,LTCK,2021-01-14T03:50:00Z,38.75,41.67,4.0,1.0,0,6,,4.97,29.852362,,,,,,,,,,-RA,FEW,1500,BKN,3000,OVC,7000,,,MVFR,,,,,,,,,,,,METAR,1267.0
LTCI 140350Z 13014G24KT 100V180 9999 FEW040 SCT100 06/M04 Q1011 TEMPO 18020G30KT,LTCI,2021-01-14T03:50:00Z,38.47,43.33,6.0,-4.0,130,14,24,6.21,29.852362,,,,,,,,,,,FEW,4000,SCT,10000,,,,,VFR,,,,,,,,,,,,METAR,1654.0
LTCF 140350Z 17010KT 9999 SCT035 BKN070 02/M02 Q1008,LTCF,2021-01-14T03:50:00Z,40.57,43.12,2.0,-2.0,170,10,,6.21,29.763779,,,,,,,,,,,SCT,3500,BKN,7000,,,,,VFR,,,,,,,,,,,,METAR,1794.0
LTCD 140350Z 20003KT 160V240 9999 BKN025 OVC060 04/01 Q1006 RERA BECMG 09015G30KT,LTCD,2021-01-14T03:50:00Z,39.72,39.52,4.0,1.0,200,3,,6.21,29.704725,,,,,,,,,,,BKN,2500,OVC,6000,,,,,MVFR,,,,,,,,,,,,SPECI,1146.0
LTCB 140350Z 16004KT 130V240 8000 -SHRA SCT014 BKN028 07/07 Q1009,LTCB,2021-01-14T03:50:00Z,40.97,38.07,7.0,7.0,160,4,,4.97,29.793306,,,,,,,,,,-SHRA,SCT,1400,BKN,2800,,,,,MVFR,,,,,,,,,,,,METAR,5.0
LTCA 140350Z 10008KT 060V130 9999 BKN030 OVC080 06/02 Q1008 NOSIG,LTCA,2021-01-14T03:50:00Z,38.6,39.28,6.0,2.0,100,8,,6.21,29.763779,,,,,,TRUE,,,,,BKN,3000,OVC,8000,,,,,MVFR,,,,,,,,,,,,METAR,887.0
LTBY 140350Z 27009KT 6000 -RA FEW009 BKN035 01/00 Q1004,LTBY,2021-01-14T03:50:00Z,39.82,30.52,1.0,0.0,270,9,,3.73,29.64567,,,,,,,,,,-RA,FEW,900,BKN,3500,,,,,MVFR,,,,,,,,,,,,METAR,788.0
LTBQ 140350Z VRB01KT 8000 -SHRA FEW012 BKN020 BKN070 04/04 Q1008 NOSIG,LTBQ,2021-01-14T03:50:00Z,40.73,30.07,4.0,4.0,0,1,,4.97,29.763779,,,,,,TRUE,,,,-SHRA,FEW,1200,BKN,2000,BKN,7000,,,MVFR,,,,,,,,,,,,METAR,51.0
LTBH 140350Z 06011KT 9999 SCT035 BKN100 05/M01 Q1010,LTBH,2021-01-14T03:50:00Z,40.13,26.42,5.0,-1.0,60,11,,6.21,29.822834,,,,,,,,,,,SCT,3500,BKN,10000,,,,,VFR,,,,,,,,,,,,METAR,8.0
LTBF 140350Z 35007KT 9999 SCT020 BKN035 05/03 Q1008 NOSIG,LTBF,2021-01-14T03:50:00Z,39.62,27.92,5.0,3.0,350,7,,6.21,29.763779,,,,,,TRUE,,,,,SCT,2000,BKN,3500,,,,,VFR,,,,,,,,,,,,METAR,95.0
LTAY 140350Z 28010KT 6000 -RA FEW015 BKN030 OVC090 01/M00 Q1005,LTAY,2021-01-14T03:50:00Z,37.78,29.7,1.0,0.0,280,10,,3.73,29.675198,,,,,,,,,,-RA,FEW,1500,BKN,3000,OVC,9000,,,MVFR,,,,,,,,,,,,METAR,851.0
LTAR 140350Z 00000KT 4000 -SN FEW012 BKN025 BKN070 M01/M01 Q1004,LTAR,2021-01-14T03:50:00Z,39.8,36.9,-1.0,-1.0,0,0,,2.49,29.64567,,,,,,,,,,-SN,FEW,1200,BKN,2500,BKN,7000,,,IFR,,,,,,,,,,,,METAR,1601.0
LTAN 140350Z 02003KT 0300 R01/0550N R19/0650N FG VV002 01/01 Q1004 NOSIG,LTAN,2021-01-14T03:50:00Z,37.97,32.55,1.0,1.0,20,3,,0.19,29.64567,,,,,,TRUE,,,,FG,OVX,0,,,,,,,LIFR,,,,,,,,,,,200,METAR,1029.0
LTAE 140350Z VRB01KT 6000 SCT011 BKN030 02/02 Q1004 NOSIG RMK RWY21 19003KT 160V220,LTAE,2021-01-14T03:50:00Z,40.07,32.57,2.0,2.0,0,1,,3.73,29.64567,,,,,,TRUE,,,,,SCT,1100,BKN,3000,,,,,MVFR,,,,,,,,,,,,METAR,836.0
LLHA 140350Z AUTO 19007KT 150V220 9999 FEW030 16/11 Q1009 RMK BKN070,LLHA,2021-01-14T03:50:00Z,32.8,35.03,16.0,11.0,190,7,,6.21,29.793306,,,TRUE,,,,,,,,FEW,3000,,,,,,,VFR,,,,,,,,,,,,METAR,3.0
LIEE 140350Z 31009KT 9999 SCT040 13/09 Q1018,LIEE,2021-01-14T03:50:00Z,39.25,9.07,13.0,9.0,310,9,,6.21,30.059055,,,,,,,,,,,SCT,4000,,,,,,,VFR,,,,,,,,,,,,METAR,1.0
LGSM 140350Z 34008KT 9000 -RA FEW015TCU BKN018 08/06 Q1007,LGSM,2021-01-14T03:50:00Z,37.68,26.92,8.0,6.0,340,8,,5.59,29.734253,,,,,,,,,,-RA,FEW,1500,BKN,1800,,,,,MVFR,,,,,,,,,,,,METAR,5.0
LGHI 140350Z 22002KT 9999 FEW020 09/07 Q1006,LGHI,2021-01-14T03:50:00Z,38.33,26.13,9.0,7.0,220,2,,6.21,29.704725,,,,,,,,,,,FEW,2000,,,,,,,VFR,,,,,,,,,,,,METAR,6.0
LGEL 140350Z 01010KT 9999 FEW025 08/04 Q1007,LGEL,2021-01-14T03:50:00Z,38.07,23.55,8.0,4.0,10,10,,6.21,29.734253,,,,,,,,,,,FEW,2500,,,,,,,VFR,,,,,,,,,,,,METAR,21.0
LCRA 140350Z 31004KT 9999 FEW032 SCT040 BKN190 12/10 Q1006 BLU NOSIG,LCRA,2021-01-14T03:50:00Z,34.58,32.98,12.0,10.0,310,4,,6.21,29.704725,,,,,,TRUE,,,,,FEW,3200,SCT,4000,BKN,19000,,,VFR,,,,,,,,,,,,METAR,23.0
KWHP 140350Z 31006KT 10SM SKC 18/M04 A3019,KWHP,2021-01-14T03:50:00Z,34.25,-118.42,18.0,-4.0,310,6,,10.0,30.188976,,,,,,,,,,,SKC,,,,,,,,VFR,,,,,,,,,,,,METAR,302.0
KRYY 140350Z AUTO 27005KT 10SM CLR 02/M02 A3002 RMK AO2 SLP889 T00221017 400781022 FZRANO $,KRYY,2021-01-14T03:50:00Z,34.02,-84.6,2.2,-1.7,270,5,,10.0,30.02067,988.9,,TRUE,TRUE,TRUE,,,TRUE,,,CLR,,,,,,,,VFR,,,,7.8,-2.2,,,,,,,METAR,306.0
KOQU 140350Z 22005KT 10SM BKN040 03/M02 A2992 RMK LAST,KOQU,2021-01-14T03:50:00Z,41.6,-71.42,3.0,-2.0,220,5,,10.0,29.920275,,,,,,,,,,,BKN,4000,,,,,,,VFR,,,,,,,,,,,,METAR,6.0
KNQA 140350Z 18010KT 10SM CLR 06/03 A2990,KNQA,2021-01-14T03:50:00Z,35.35,-89.87,6.0,3.0,180,10,,10.0,29.899607,,,,,,,,,,,CLR,,,,,,,,VFR,,,,,,,,,,,,METAR,90.0
KIWA 140350Z 06003KT 10SM SCT250 09/M09 A3018,KIWA,2021-01-14T03:50:00Z,33.3,-111.65,9.0,-9.0,60,3,,10.0,30.180119,,,,,,,,,,,SCT,25000,,,,,,,VFR,,,,,,,,,,,,METAR,420.0
KEFD 140350Z 18006KT 10SM CLR 05/01 A3007,KEFD,2021-01-14T03:50:00Z,29.6,-95.17,5.0,1.0,180,6,,10.0,30.070866,,,,,,,,,,,CLR,,,,,,,,VFR,,,,,,,,,,,,METAR,9.0
KDAG 140350Z AUTO 27004KT 10SM CLR 10/M10 A3026 RMK AO2 SLP245 T01001100,KDAG,2021-01-14T03:50:00Z,34.85,-116.78,10.0,-10.0,270,4,,10.0,30.259842,1024.5,,TRUE,TRUE,,,,,,,CLR,,,,,,,,VFR,,,,,,,,,,,,METAR,584.0
KADM 140350Z 16008KT 10SM CLR 06/M01 A2983,KADM,2021-01-14T03:50:00Z,34.3,-97.02,6.0,-1.0,160,8,,10.0,29.828741,,,,,,,,,,,CLR,,,,,,,,VFR,,,,,,,,,,,,METAR,223.0
ETNG 140350Z 26002KT 9999 BKN043 BKN100 01/00 Q1018,ETNG,2021-01-14T03:50:00Z,50.97,6.03,1.0,0.0,260,2,,6.21,30.059055,,,,,,,,,,,BKN,4300,BKN,10000,,,,,VFR,,,,,,,,,,,,SPECI,76.0
ENSK 140350Z 07004KT 9999 FEW035 BKN054 01/M01 Q1024,ENSK,2021-01-14T03:50:00Z,68.57,15.02,1.0,-1.0,70,4,,6.21,30.236221,,,,,,,,,,,FEW,3500,BKN,5400,,,,,VFR,,,,,,,,,,,,METAR,3.0
ENSB 140350Z 20009KT 9999 -SN BKN015 M07/M10 Q1014 RMK WIND 1400FT 22010KT,ENSB,2021-01-14T03:50:00Z,78.25,15.47,-7.0,-10.0,200,9,,6.21,29.940945,,,,,,,,,,-SN,BKN,1500,,,,,,,MVFR,,,,,,,,,,,,METAR,30.0
ENGC 140350Z 16007KT CAVOK 03/M06 Q1022 W05/S3,ENGC,2021-01-14T03:50:00Z,61.02,2.02,3.0,-6.0,160,7,,6.21,30.177166,,,,,,,,,,,CAVOK,,,,,,,,VFR,,,,,,,,,,,,METAR,10.0
ENBN 140350Z 03005KT CAVOK M05/M09 Q1027,ENBN,2021-01-14T03:50:00Z,65.47,12.22,-5.0,-9.0,30,5,,6.21,30.324802,,,,,,,,,,,CAVOK,,,,,,,,VFR,,,,,,,,,,,,METAR,3.0
EGYP 140350Z 30010KT CAVOK 08/05 Q1013,EGYP,2021-01-14T03:50:00Z,-51.82,-58.45,8.0,5.0,300,10,,6.21,29.911417,,,,,,,,,,,CAVOK,,,,,,,,VFR,,,,,,,,,,,,METAR,70.0
EGYM 140350Z 10006KT 3000 RA BKN005 OVC030 02/02 Q1016 YLO1,EGYM,2021-01-14T03:50:00Z,52.63,0.57,2.0,2.0,100,6,,1.86,30.0,,,,,,,,,,RA,BKN,500,OVC,3000,,,,,IFR,,,,,,,,,,,,METAR,25.0
EGYD 140350Z AUTO 12011KT 2700 // OVC001/// 02/02 Q1016,EGYD,2021-01-14T03:50:00Z,53.03,-0.5,2.0,2.0,120,11,,1.68,30.0,,,TRUE,,,,,,,,OVC,100,,,,,,,LIFR,,,,,,,,,,,,METAR,65.0
EGXZ 140350Z AUTO 11008KT 3900 SN BKN005/// SCT041/// 00/00 Q1016,EGXZ,2021-01-14T03:50:00Z,54.2,-1.38,0.0,0.0,110,8,,2.42,30.0,,,TRUE,,,,,,,SN,BKN,500,SCT,4100,,,,,IFR,,,,,,,,,,,,METAR,24.0
EGXW 140350Z AUTO 11012KT 2200 RADZ OVC001/// 02/01 Q1015,EGXW,2021-01-14T03:50:00Z,53.18,-0.52,2.0,1.0,110,12,,1.37,29.970472,,,TRUE,,,,,,,RA DZ,OVC,100,,,,,,,LIFR,,,,,,,,,,,,SPECI,70.0
EGXV 140350Z AUTO 10002KT 2900 -RASN BKN021/// 01/01 Q1016,EGXV,2021-01-14T03:50:00Z,53.87,-0.45,1.0,1.0,100,2,,1.8,30.0,,,TRUE,,,,,,,-RA -SN,BKN,2100,,,,,,,IFR,,,,,,,,,,,,METAR,6.0
EGXU 140350Z AUTO 10008KT 5000 RA BKN003/// SCT009/// BKN022/// 01/01 Q1016,EGXU,2021-01-14T03:50:00Z,54.05,-1.25,1.0,1.0,100,8,,3.11,30.0,,,TRUE,,,,,,,RA,BKN,300,SCT,900,BKN,2200,,,LIFR,,,,,,,,,,,,SPECI,14.0
EGXT 140350Z AUTO 11009KT 2200 RADZ OVC002/// 03/03 Q1015,EGXT,2021-01-14T03:50:00Z,52.62,-0.47,3.0,3.0,110,9,,1.37,29.970472,,,TRUE,,,,,,,RA DZ,OVC,200,,,,,,,LIFR,,,,,,,,,,,,SPECI,74.0
EGXS 140350Z AUTO 14007KT 5000 // FEW007/// BKN017/// 02/02 Q1017,EGXS,2021-01-14T03:50:00Z,53.48,0.15,2.0,2.0,140,7,,3.11,30.029528,,,TRUE,,,,,,,,FEW,700,BKN,1700,,,,,MVFR,,,,,,,,,,,,METAR,6.0
EGXP 140350Z AUTO 12008KT 1700 // OVC001/// 02/02 Q1015,EGXP,2021-01-14T03:50:00Z,53.3,-0.55,2.0,2.0,120,8,,1.06,29.970472,,,TRUE,,,,,,,,OVC,100,,,,,,,LIFR,,,,,,,,,,,,METAR,58.0
EGXE 140350Z AUTO 12004KT 1200 +SN BKN003/// 01/00 Q1016,EGXE,2021-01-14T03:50:00Z,54.28,-1.52,1.0,0.0,120,4,,0.75,30.0,,,TRUE,,,,,,,+SN,BKN,300,,,,,,,LIFR,,,,,,,,,,,,SPECI,30.0
EGXC 140350Z 11008KT 2200 RA SCT002 OVC004 02/02 Q1016 RMK AMB,EGXC,2021-01-14T03:50:00Z,53.1,-0.17,2.0,2.0,110,8,,1.37,30.0,,,,,,,,,,RA,SCT,200,OVC,400,,,,,LIFR,,,,,,,,,,,,SPECI,9.0
EGWU 140350Z AUTO 24005KT 5000 // OVC005/// 09/09 Q1015,EGWU,2021-01-14T03:50:00Z,51.55,-0.42,9.0,9.0,240,5,,3.11,29.970472,,,TRUE,,,,,,,,OVC,500,,,,,,,IFR,,,,,,,,,,,,METAR,33.0
EGVP 140350Z AUTO 24008KT 9999 -RA BKN009/// SCT070/// 10/09 Q1015,EGVP,2021-01-14T03:50:00Z,51.13,-1.57,10.0,9.0,240,8,,6.21,29.970472,,,TRUE,,,,,,,-RA,BKN,900,SCT,7000,,,,,IFR,,,,,,,,,,,,SPECI,80.0
EGVO 140350Z 23009KT 9999 -DZ OVC008 09/08 Q1015 RMK GRN,EGVO,2021-01-14T03:50:00Z,51.23,-0.95,9.0,8.0,230,9,,6.21,29.970472,,,,,,,,,,-DZ,OVC,800,,,,,,,IFR,,,,,,,,,,,,SPECI,118.0
EGUW 140350Z AUTO 12007KT 3000 -RA FEW001/// BKN024/// 02/02 Q1016,EGUW,2021-01-14T03:50:00Z,52.12,0.97,2.0,2.0,120,7,,1.86,30.0,,,TRUE,,,,,,,-RA,FEW,100,BKN,2400,,,,,IFR,,,,,,,,,,,,SPECI,86.0
EGUB 140350Z AUTO 22005KT 9999 // OVC008/// 10/09 Q1014,EGUB,2021-01-14T03:50:00Z,51.62,-1.08,10.0,9.0,220,5,,6.21,29.940945,,,TRUE,,,,,,,,OVC,800,,,,,,,IFR,,,,,,,,,,,,METAR,56.0
EGQS 140350Z 09005KT 9999 -RA BKN048 BKN120 03/01 Q1015 RMK BLU,EGQS,2021-01-14T03:50:00Z,57.72,-3.32,3.0,1.0,90,5,,6.21,29.970472,,,,,,,,,,-RA,BKN,4800,BKN,12000,,,,,VFR,,,,,,,,,,,,METAR,6.0
EGQM 140350Z AUTO 19005KT 7000 SG BKN004/// 01/01 Q1016,EGQM,2021-01-14T03:50:00Z,55.42,-1.6,1.0,1.0,190,5,,4.35,30.0,,,TRUE,,,,,,,SG,BKN,400,,,,,,,LIFR,,,,,,,,,,,,SPECI,24.0
EGQL 140350Z 13008KT 9999 RA FEW006 BKN008 BKN021 03/02 Q1016 GRN,EGQL,2021-01-14T03:50:00Z,56.38,-2.87,3.0,2.0,130,8,,6.21,30.0,,,,,,,,,,RA,FEW,600,BKN,800,BKN,2100,,,IFR,,,,,,,,,,,,SPECI,11.0
EGQK 140350Z AUTO 12006KT 9999 RA OVC036/// 03/02 Q1015,EGQK,2021-01-14T03:50:00Z,57.65,-3.57,3.0,2.0,120,6,,6.21,29.970472,,,TRUE,,,,,,,RA,OVC,3600,,,,,,,VFR,,,,,,,,,,,,SPECI,5.0
EGPU 140350Z AUTO 21007KT 170V240 4900 -DZ OVC003/// 07/06 Q1013,EGPU,2021-01-14T03:50:00Z,56.5,-6.88,7.0,6.0,210,7,,3.04,29.911417,,,TRUE,,,,,,,-DZ,OVC,300,,,,,,,LIFR,,,,,,,,,,,,METAR,12.0
EGPI 140350Z AUTO 27001KT 8000 RA OVC011/// 05/05 Q1014,EGPI,2021-01-14T03:50:00Z,55.68,-6.25,5.0,5.0,270,1,,4.97,29.940945,,,TRUE,,,,,,,RA,OVC,1100,,,,,,,MVFR,,,,,,,,,,,,METAR,17.0
EGOV 140350Z AUTO 28013KT 2100 +RA OVC002/// 10/09 Q1012,EGOV,2021-01-14T03:50:00Z,53.25,-4.53,10.0,9.0,280,13,,1.3,29.88189,,,TRUE,,,,,,,+RA,OVC,200,,,,,,,LIFR,,,,,,,,,,,,SPECI,11.0
EGOS 140350Z AUTO 08006KT 7000 BR OVC003/// 04/03 Q1012,EGOS,2021-01-14T03:50:00Z,52.8,-2.67,4.0,3.0,80,6,,4.35,29.88189,,,TRUE,,,,,,,BR,OVC,300,,,,,,,LIFR,,,,,,,,,,,,SPECI,76.0
EGOM 140350Z AUTO 10013KT 6000 -SN FEW004/// BKN011/// BKN022/// 01/00 Q1013,EGOM,2021-01-14T03:50:00Z,55.05,-2.55,1.0,0.0,100,13,,3.73,29.911417,,,TRUE,,,,,,,-SN,FEW,400,BKN,1100,BKN,2200,,,MVFR,,,,,,,,,,,,SPECI,286.0
EGNS 140350Z 29007KT 4000 RA BKN003 OVC028 10/10 Q1011,EGNS,2021-01-14T03:50:00Z,54.08,-4.63,10.0,10.0,290,7,,2.49,29.852362,,,,,,,,,,RA,BKN,300,OVC,2800,,,,,LIFR,,,,,,,,,,,,METAR,18.0
EGDY 140350Z AUTO 22008KT 9999 BKN013/// 11/09 Q1015 RERA,EGDY,2021-01-14T03:50:00Z,51.0,-2.63,11.0,9.0,220,8,,6.21,29.970472,,,TRUE,,,,,,,,BKN,1300,,,,,,,MVFR,,,,,,,,,,,,SPECI,21.0
EGDR 140350Z AUTO 27020KT 5000 // OVC002/// 10/10 Q1017,EGDR,2021-01-14T03:50:00Z,50.08,-5.25,10.0,10.0,270,20,,3.11,30.029528,,,TRUE,,,,,,,,OVC,200,,,,,,,LIFR,,,,,,,,,,,,METAR,74.0
EGDM 140350Z AUTO /////KT 9999 -RA OVC007/// 10/09 Q1015,EGDM,2021-01-14T03:50:00Z,51.17,-1.75,10.0,9.0,,,,6.21,29.970472,,,TRUE,,,,,,,-RA,OVC,700,,,,,,,IFR,,,,,,,,,,,,METAR,122.0
BGSF 140350Z AUTO 05002KT 9999NDV -SN OVC070/// M12/M13 Q1001,BGSF,2021-01-14T03:50:00Z,67.0,-50.72,-12.0,-13.0,50,2,,,29.557087,,,TRUE,,,,,,,-SN,OVC,7000,,,,,,,,,,,,,,,,,,,METAR,75.0
BGKK 140350Z AUTO /////KT 9999NDV FEW027/// SCT043/// BKN120/// 02/M03 Q0998,BGKK,2021-01-14T03:50:00Z,65.57,-37.13,2.0,-3.0,,,,,29.468504,,,TRUE,,,,,,,,FEW,2700,SCT,4300,BKN,12000,,,,,,,,,,,,,,,METAR,37.0
BGJN 140350Z AUTO 20011KT 9999NDV FEW009/// BKN011/// OVC016/// M04/M06 Q1000,BGJN,2021-01-14T03:50:00Z,69.25,-51.07,-4.0,-6.0,200,11,,,29.52756,,,TRUE,,,,,,,,FEW,900,BKN,1100,OVC,1600,,,,,,,,,,,,,,,METAR,22.0
BGGH 140350Z AUTO 33009KT 9999NDV OVC015/// M04/M05 Q1001 REFZDZ,BGGH,2021-01-14T03:50:00Z,64.2,-51.68,-4.0,-5.0,330,9,,,29.557087,,,TRUE,,,,,,,,OVC,1500,,,,,,,,,,,,,,,,,,,METAR,76.0
BGBW 140350Z AUTO 05004KT 8000NDV -SN SCT027/// BKN031/// OVC036/// M02/M04 Q1000,BGBW,2021-01-14T03:50:00Z,61.17,-45.42,-2.0,-4.0,50,4,,,29.52756,,,TRUE,,,,,,,-SN,SCT,2700,BKN,3100,OVC,3600,,,,,,,,,,,,,,,METAR,49.0
MMTO 140349Z 00000KT 7SM FEW015 10/04 A3038 RMK 8/500 HZY,MMTO,2021-01-14T03:49:00Z,19.35,-99.57,10.0,4.0,0,0,,7.0,30.380905,,,,,,,,,,,FEW,1500,,,,,,,VFR,,,,,,,,,,,,METAR,2582.0
MMAN 140349Z 00000KT 8SM SCT200 11/02 A3014 RMK 8/008 MSGTX MMMY,MMAN,2021-01-14T03:49:00Z,25.87,-100.23,11.0,2.0,0,0,,8.0,30.138779,,,,,,,,,,,SCT,20000,,,,,,,VFR,,,,,,,,,,,,METAR,447.0
RJOP 140348Z 02010KT 330V050 9999 FEW030 12/07 Q1021 RMK 1CU030 A3015,RJOP,2021-01-14T03:48:00Z,34.0,134.62,12.0,7.0,20,10,,6.21,30.147638,,,,,,,,,,,FEW,3000,,,,,,,VFR,,,,,,,,,,,,METAR,3.0
MMMY 140348Z 02004KT 10SM BKN200 12/04 A3010 RMK 8/008,MMMY,2021-01-14T03:48:00Z,25.77,-100.1,12.0,4.0,20,4,,10.0,30.100393,,,,,,,,,,,BKN,20000,,,,,,,VFR,,,,,,,,,,,,SPECI,382.0
MMGL 140348Z 10004KT 6SM BKN080 OVC300 14/02 A3018 RMK 8/037 HZY,MMGL,2021-01-14T03:48:00Z,20.52,-103.32,14.0,2.0,100,4,,6.0,30.180119,,,,,,,,,,,BKN,8000,OVC,30000,,,,,VFR,,,,,,,,,,,,METAR,1531.0
LHPA 140348Z 26006KT 170V310 9999 -SN OVC033 00/M05 Q1007 RMK BLU,LHPA,2021-01-14T03:48:00Z,47.35,17.5,0.0,-5.0,260,6,,6.21,29.734253,,,,,,,,,,-SN,OVC,3300,,,,,,,VFR,,,,,,,,,,,,SPECI,143.0
KSUN 140348Z 31011G20KT 10SM SKC 01/M13 A3033,KSUN,2021-01-14T03:48:00Z,43.5,-114.28,1.0,-13.0,310,11,20,10.0,30.33071,,,,,,,,,,,SKC,,,,,,,,VFR,,,,,,,,,,,,METAR,1619.0
KJDN 140348Z AUTO 30041G61KT 03/M08 A2977 RMK AO1 PK WND 29061/0311 SLP096 T00281083,KJDN,2021-01-14T03:48:00Z,47.33,-106.95,2.8,-8.3,300,41,61,,29.769686,1009.6,,TRUE,TRUE,,,,,,,,,,,,,,,,,,,,,,,,,,,METAR,802.0
MMLP 140347Z 35006KT 10SM SKC 16/07 A3004,MMLP,2021-01-14T03:47:00Z,24.07,-110.37,16.0,7.0,350,6,,10.0,30.041338,,,,,,,,,,,SKC,,,,,,,,VFR,,,,,,,,,,,,METAR,16.0
MMLM 140347Z 30004KT 10SM SKC 13/09 A3002,MMLM,2021-01-14T03:47:00Z,25.68,-109.08,13.0,9.0,300,4,,10.0,30.02067,,,,,,,,,,,SKC,,,,,,,,VFR,,,,,,,,,,,,METAR,6.0
MMCS 140347Z 22007KT 10SM SKC 08/M13 A3015,MMCS,2021-01-14T03:47:00Z,31.63,-106.42,8.0,-13.0,220,7,,10.0,30.15059,,,,,,,,,,,SKC,,,,,,,,VFR,,,,,,,,,,,,METAR,1194.0
KRHV 140347Z 00000KT 10SM SKC 14/12 A3035,KRHV,2021-01-14T03:47:00Z,37.33,-121.82,14.0,12.0,0,0,,10.0,30.351377,,,,,,,,,,,SKC,,,,,,,,VFR,,,,,,,,,,,,METAR,37.0
KPOC 140347Z 00000KT 10SM CLR 14/M01 A3018,KPOC,2021-01-14T03:47:00Z,34.1,-117.77,14.0,-1.0,0,0,,10.0,30.180119,,,,,,,,,,,CLR,,,,,,,,VFR,,,,,,,,,,,,METAR,304.0
KPAO 140347Z 29006KT 10SM SKC 13/11 A3036,KPAO,2021-01-14T03:47:00Z,37.47,-122.12,13.0,11.0,290,6,,10.0,30.360237,,,,,,,,,,,SKC,,,,,,,,VFR,,,,,,,,,,,,METAR,2.0
KGYR 140347Z 00000KT 10SM SCT200 BKN250 11/M08 A3016 RMK LAST,KGYR,2021-01-14T03:47:00Z,33.42,-112.37,11.0,-8.0,0,0,,10.0,30.159449,,,,,,,,,,,SCT,20000,BKN,25000,,,,,VFR,,,,,,,,,,,,METAR,292.0
KCHD 140347Z 00000KT 10SM CLR 11/M06 A3017 RMK LAST,KCHD,2021-01-14T03:47:00Z,33.27,-111.82,11.0,-6.0,0,0,,10.0,30.171259,,,,,,,,,,,CLR,,,,,,,,VFR,,,,,,,,,,,,METAR,378.0
KAEG 140347Z 34015KT 10SM CLR 04/M14 A3018,KAEG,2021-01-14T03:47:00Z,35.13,-106.8,4.0,-14.0,340,15,,10.0,30.180119,,,,,,,,,,,CLR,,,,,,,,VFR,,,,,,,,,,,,METAR,1771.0
MMTG 140346Z 29007KT 8SM FEW012 SCT080 BKN090 19/15 A3013 RMK 8/570,MMTG,2021-01-14T03:46:00Z,16.57,-93.03,19.0,15.0,290,7,,8.0,30.129921,,,,,,,,,,,FEW,1200,SCT,8000,BKN,9000,,,VFR,,,,,,,,,,,,METAR,463.0
MMML 140346Z 36003KT 10SM SKC 14/M09 A3016 RMK ISOL-CI,MMML,2021-01-14T03:46:00Z,32.62,-115.23,14.0,-9.0,360,3,,10.0,30.159449,,,,,,,,,,,SKC,,,,,,,,VFR,,,,,,,,,,,,METAR,21.0
MMMD 140346Z 00000KT 6SM SCT010 20/19 A3007 RMK 8/700 HZY,MMMD,2021-01-14T03:46:00Z,20.95,-89.65,20.0,19.0,0,0,,6.0,30.070866,,,,,,,,,,,SCT,1000,,,,,,,VFR,,,,,,,,,,,,METAR,10.0
KVCV 140346Z 00000KT 10SM SKC A3028,KVCV,2021-01-14T03:46:00Z,34.58,-117.38,,,0,0,,10.0,30.280512,,,,,,,,,,,SKC,,,,,,,,VFR,,,,,,,,,,,,METAR,871.0
PAKU 140345Z 07020KT 3SM R06/P6000FT BLSN BKN013 M22/M26 A3006 RMK LAST,PAKU,2021-01-14T03:45:00Z,70.32,-149.6,-22.0,-26.0,70,20,,3.0,30.059055,,,,,,,,,,BLSN,BKN,1300,,,,,,,MVFR,,,,,,,,,,,,SPECI,23.0
MMSP 140345Z 00000KT 8SM BKN080 BKN250 10/03 A3025 RMK 8/038 SC,MMSP,2021-01-14T03:45:00Z,22.25,-100.93,10.0,3.0,0,0,,8.0,30.250984,,,,,,,,,,,BKN,8000,BKN,25000,,,,,VFR,,,,,,,,,,,,METAR,1841.0
LIRP 140345Z VRB03KT 9999 BKN030 05/05 Q1013 NOSIG,LIRP,2021-01-14T03:45:00Z,43.68,10.38,5.0,5.0,0,3,,6.21,29.911417,,,,,,TRUE,,,,,BKN,3000,,,,,,,MVFR,,,,,,,,,,,,METAR,1.0
LHSM 140345Z AUTO 04003KT 7000 NSC M02/M03 Q1006,LHSM,2021-01-14T03:45:00Z,46.68,17.17,-2.0,-3.0,40,3,,4.35,29.704725,,,TRUE,,,,,,,,CLR,,,,,,,,MVFR,,,,,,,,,,,,METAR,119.0
LHPR 140345Z AUTO 27011KT 8000 -SN OVC034 M00/M01 Q1006,LHPR,2021-01-14T03:45:00Z,47.63,17.82,0.0,-1.0,270,11,,4.97,29.704725,,,TRUE,,,,,,,-SN,OVC,3400,,,,,,,MVFR,,,,,,,,,,,,METAR,127.0
KSWF 140345Z 00000KT 10SM SKC 01/M03 A2989,KSWF,2021-01-14T03:45:00Z,41.5,-74.08,1.0,-3.0,0,0,,10.0,29.890747,,,,,,,,,,,SKC,,,,,,,,VFR,,,,,,,,,,,,METAR,139.0
KMHR 140345Z 33008KT 10SM SCT250 13/10 A3035,KMHR,2021-01-14T03:45:00Z,38.55,-121.28,13.0,10.0,330,8,,10.0,30.351377,,,,,,,,,,,SCT,25000,,,,,,,VFR,,,,,,,,,,,,METAR,30.0
KFMH 140345Z 00000KT 10SM OVC025 01/M02 A2991,KFMH,2021-01-14T03:45:00Z,41.65,-70.52,1.0,-2.0,0,0,,10.0,29.911417,,,,,,,,,,,OVC,2500,,,,,,,MVFR,,,,,,,,,,,,METAR,35.0
KEMT 140345Z 00000KT 10SM CLR 14/03 A3016,KEMT,2021-01-14T03:45:00Z,34.08,-118.03,14.0,3.0,0,0,,10.0,30.159449,,,,,,,,,,,CLR,,,,,,,,VFR,,,,,,,,,,,,METAR,84.0
KATW 140345Z 00000KT 10SM BKN120 M02/M03 A2964,KATW,2021-01-14T03:45:00Z,44.27,-88.52,-2.0,-3.0,0,0,,10.0,29.639763,,,,,,,,,,,BKN,12000,,,,,,,VFR,,,,,,,,,,,,METAR,266.0
MMVR 140344Z 01005KT 7SM BKN070 OVC090 19/15 A3017 RMK 8/07/ HZY,MMVR,2021-01-14T03:44:00Z,19.15,-96.18,19.0,15.0,10,5,,7.0,30.171259,,,,,,,,,,,BKN,7000,OVC,9000,,,,,VFR,,,,,,,,,,,,METAR,26.0
MMTM 140343Z 00000KT 8SM BKN030 17/14 A3016 RMK 8/500 METAR ,MMTM,2021-01-14T03:43:00Z,22.28,-97.87,17.0,14.0,0,0,,8.0,30.159449,,,,,,,,,,,BKN,3000,,,,,,,MVFR,,,,,,,,,,,,METAR,21.0
MMTJ 140343Z 29003KT 7SM SCT200 14/06 A3019 RMK 8/005 HZY,MMTJ,2021-01-14T03:43:00Z,32.53,-116.97,14.0,6.0,290,3,,7.0,30.188976,,,,,,,,,,,SCT,20000,,,,,,,VFR,,,,,,,,,,,,METAR,150.0
MMMZ 140343Z 00000KT 10SM FEW240 14/11 A2996 RMK 8/002,MMMZ,2021-01-14T03:43:00Z,23.17,-106.27,14.0,11.0,0,0,,10.0,29.958662,,,,,,,,,,,FEW,24000,,,,,,,VFR,,,,,,,,,,,,METAR,7.0
MMLO 140343Z 00000KT 8SM BKN220 10/00 A3029 RMK 8/008,MMLO,2021-01-14T03:43:00Z,21.0,-101.47,10.0,0.0,0,0,,8.0,30.28937,,,,,,,,,,,BKN,22000,,,,,,,VFR,,,,,,,,,,,,SPECI,1805.0
MMCL 140343Z 00000KT 10SM SKC 16/07 A2997 RMK HZY,MMCL,2021-01-14T03:43:00Z,24.77,-107.47,16.0,7.0,0,0,,10.0,29.970472,,,,,,,,,,,SKC,,,,,,,,VFR,,,,,,,,,,,,METAR,35.0
MMUN 140342Z 00000KT 6SM SCT015 BKN070 BKN250 21/20 A3002 RMK 8/578 HZY,MMUN,2021-01-14T03:42:00Z,21.03,-86.85,21.0,20.0,0,0,,6.0,30.02067,,,,,,,,,,,SCT,1500,BKN,7000,BKN,25000,,,VFR,,,,,,,,,,,,METAR,13.0
MMMX 140342Z 05008KT 8SM SCT020 16/06 A3034 NOSIG RMK 8/400 AC CI HZY,MMMX,2021-01-14T03:42:00Z,19.43,-99.08,16.0,6.0,50,8,,8.0,30.339567,,,,,,TRUE,,,,,SCT,2000,,,,,,,VFR,,,,,,,,,,,,METAR,2224.0
RJSH 140341Z 28022G43KT 9999 FEW030 SCT040 03/M10 Q1012 RMK 1CU030 4CU040 A2991,RJSH,2021-01-14T03:41:00Z,40.55,141.47,3.0,-10.0,280,22,43,6.21,29.88189,,,,,,,,,,,FEW,3000,SCT,4000,,,,,VFR,,,,,,,,,,,,SPECI,46.0
MMIO 140340Z 18012KT 10SM SKC 10/01 A3025 RMK CI,MMIO,2021-01-14T03:40:00Z,25.55,-100.93,10.0,1.0,180,12,,10.0,30.250984,,,,,,,,,,,SKC,,,,,,,,VFR,,,,,,,,,,,,METAR,1790.0
MMHO 140340Z 00000KT 10SM SKC 13/M03 A3007,MMHO,2021-01-14T03:40:00Z,29.08,-111.05,13.0,-3.0,0,0,,10.0,30.070866,,,,,,,,,,,SKC,,,,,,,,VFR,,,,,,,,,,,,METAR,186.0
MMCU 140340Z 15007KT 10SM SKC 03/M06 A3021,MMCU,2021-01-14T03:40:00Z,28.7,-105.97,3.0,-6.0,150,7,,10.0,30.209646,,,,,,,,,,,SKC,,,,,,,,VFR,,,,,,,,,,,,METAR,1349.0
MMAS 140340Z 04005KT 9SM BKN100 BKN200 12/M03 A3025 RMK 8/038 HZY,MMAS,2021-01-14T03:40:00Z,21.7,-102.32,12.0,-3.0,40,5,,9.0,30.250984,,,,,,,,,,,BKN,10000,BKN,20000,,,,,VFR,,,,,,,,,,,,SPECI,1866.0
KSIF 140335Z AUTO 00000KT 10SM CLR 00/M02 A2992 RMK AO2 T10021024,KSIF,2021-01-14T03:35:00Z,36.43,-79.85,-0.2,-2.4,0,0,,10.0,29.920275,,,TRUE,TRUE,,,,,,,CLR,,,,,,,,VFR,,,,,,,,,,,,METAR,206.0
KLZZ 140335Z AUTO 23003KT 10SM CLR 08/00 A2995 RMK AO2 T00750000,KLZZ,2021-01-14T03:35:00Z,31.1,-98.2,7.5,0.0,230,3,,10.0,29.949802,,,TRUE,TRUE,,,,,,,CLR,,,,,,,,VFR,,,,,,,,,,,,METAR,356.0
KEYF 140335Z AUTO 18003KT 3SM -RA BR OVC016 06/06 A2998 RMK AO2 T00630059,KEYF,2021-01-14T03:35:00Z,34.6,-78.58,6.3,5.9,180,3,,3.0,29.97933,,,TRUE,TRUE,,,,,,-RA BR,OVC,1600,,,,,,,MVFR,,,,,,,,,,,,METAR,39.0
K4M9 140335Z AUTO 20013KT 10SM CLR 07/03 A2985 RMK AO2 PWINO,K4M9,2021-01-14T03:35:00Z,36.4,-90.65,7.0,3.0,200,13,,10.0,29.84941,,,TRUE,TRUE,,,,,TRUE,,CLR,,,,,,,,VFR,,,,,,,,,,,,METAR,86.0
RKNW 140333Z 10001KT 9999 SKC 05/M07 A3020,RKNW,2021-01-14T03:33:00Z,37.33,127.95,5.0,-7.0,100,1,,6.21,30.200787,,,,,,,,,,,SKC,,,,,,,,VFR,,,,,,,,,,,,SPECI,152.0
RJSO 140333Z 27017G39KT 230V310 9999 FEW015 BKN030 01/M09 Q1011 RMK 2CU015 5CU030 A2988,RJSO,2021-01-14T03:33:00Z,41.22,141.12,1.0,-9.0,270,17,39,6.21,29.852362,,,,,,,,,,,FEW,1500,BKN,3000,,,,,MVFR,,,,,,,,,,,,METAR,10.0
RJCT 140333Z 29008KT 2000 -SHSN FEW005 SCT008 BKN015 M01/M05 Q1006 RMK 2ST005 4ST008 6CU015 A2970,RJCT,2021-01-14T03:33:00Z,42.88,143.17,-1.0,-5.0,290,8,,1.24,29.704725,,,,,,,,,,-SHSN,FEW,500,SCT,800,BKN,1500,,,IFR,,,,,,,,,,,,METAR,84.0
PFWS 140333Z AUTO 11004KT 3SM -SN BR SCT013 OVC024 M03/M03 A2958 RMK AO2 SNB14 P0000 FZRANO,PFWS,2021-01-14T03:33:00Z,58.7,-157.0,-3.0,-3.0,110,4,,3.0,29.58071,,,TRUE,TRUE,,,,TRUE,,-SN BR,SCT,1300,OVC,2400,,,,,MVFR,,,,,,0.005,,,,,,SPECI,40.0
LTAD 140332Z 10002KT 8000 -RA SCT019 BKN030 BKN090 02/02 Q1005 BECMG 4000 BR RMK RWY29 08003KT 050V110,LTAD,2021-01-14T03:32:00Z,39.95,32.67,2.0,2.0,100,2,,4.97,29.675198,,,,,,,,,,-RA,SCT,1900,BKN,3000,BKN,9000,,,MVFR,,,,,,,,,,,,SPECI,806.0
K21D 140331Z AUTO 00000KT 10SM CLR M03/M03 A2955 RMK AO2,K21D,2021-01-14T03:31:00Z,45.0,-92.85,-3.0,-3.0,0,0,,10.0,29.551182,,,TRUE,TRUE,,,,,,,CLR,,,,,,,,VFR,,,,,,,,,,,,SPECI,281.0
WALL 140330Z 24008KT 9999 SCT020 29/24 Q1009,WALL,2021-01-14T03:30:00Z,-1.27,116.9,29.0,24.0,240,8,,6.21,29.793306,,,,,,,,,,,SCT,2000,,,,,,,VFR,,,,,,,,,,,,METAR,3.0
VYMD 140330Z 31003KT 7000 FEW025 21/16 Q1015 NOSIG,VYMD,2021-01-14T03:30:00Z,21.7,95.98,21.0,16.0,310,3,,4.35,29.970472,,,,,,TRUE,,,,,FEW,2500,,,,,,,MVFR,,,,,,,,,,,,METAR,87.0
BKPR 140330Z VRB03KT CAVOK M05/M08 Q1012 NOSIG RMK 17010095,BKPR,2021-01-14T03:30:00Z,42.58,21.03,-5.0,-8.0,0,3,,6.21,29.88189,,,,,,TRUE,,,,,CAVOK,,,,,,,,VFR,,,,,,,,,,,,METAR,545.0
CWZQ 140320Z AUTO 14008KT RMK AO1,CWZQ,2021-01-14T03:20:00Z,46.53,-61.05,,,140,8,,,,,,TRUE,TRUE,,,,,,,,,,,,,,,,,,,,,,,,,,,METAR,13.0
